{
  "bbox": {
    "south": 47.694865,
    "west": 13.345766,
    "north": 48.355971499999995,
    "east": 15.253173
  },
  "poiCount": 207,
  "leafCount": 0,
  "averagePosition": [
    14.259746854589372,
    48.12889216859904
  ],
  "data": [],
  "children": [
    {
      "bbox": {
        "south": 47.694865,
        "west": 13.345766,
        "north": 48.02541825,
        "east": 14.2994695
      },
      "poiCount": 34,
      "leafCount": 34,
      "averagePosition": [
        13.748733770588235,
        47.901552970588234
      ],
      "data": [
        {
          "type": "Feature",
          "properties": {
            "id": "340517648",
            "osm_type": "node",
            "lat": 47.7369411,
            "lon": 13.4541788,
            "addr:city": "St. Wolfgang im Salzkammergut",
            "addr:country": "AT",
            "addr:housenumber": "140",
            "addr:postcode": "5360",
            "addr:street": "Markt",
            "amenity": "post_office",
            "name": "5360 St. Wolfgang im Salzkammergut",
            "name:en": "dspeis restaurant",
            "postal_code": "5360",
            "ref": "5360",
            "type": "Postfiliale"
          },
          "geometry": {
            "type": "Point",
            "coordinates": [
              13.4541788,
              47.7369411
            ]
          }
        },
        {
          "type": "Feature",
          "properties": {
            "id": "1366140539",
            "osm_type": "node",
            "lat": 47.7170644,
            "lon": 13.4821968,
            "amenity": "post_office"
          },
          "geometry": {
            "type": "Point",
            "coordinates": [
              13.4821968,
              47.7170644
            ]
          }
        },
        {
          "type": "Feature",
          "properties": {
            "id": "1367720470",
            "osm_type": "node",
            "lat": 47.8042528,
            "lon": 13.4886316,
            "addr:city": "Unterach am Attersee",
            "addr:housenumber": "1",
            "addr:postcode": "4866",
            "addr:street": "Hauptstraße",
            "amenity": "post_office",
            "name": "Postpartner Elektrotechink Ing. Gernot Schmidt",
            "opening_hours": "Mo-Tu 08:00-12:00; Th-Sa 08:00-12:00",
            "operator": "Elektrotechnik Ing. Gernot Schmidt",
            "phone": "+43 7665 601 50"
          },
          "geometry": {
            "type": "Point",
            "coordinates": [
              13.4886316,
              47.8042528
            ]
          }
        },
        {
          "type": "Feature",
          "properties": {
            "id": "4445798089",
            "osm_type": "node",
            "lat": 47.7387401,
            "lon": 13.4475268,
            "amenity": "post_office",
            "name:signed": "no",
            "opening_hours": "Mo-Fr 08:00-13:00"
          },
          "geometry": {
            "type": "Point",
            "coordinates": [
              13.4475268,
              47.7387401
            ]
          }
        },
        {
          "type": "Feature",
          "properties": {
            "id": "5843949638",
            "osm_type": "node",
            "lat": 47.7420176,
            "lon": 13.4328881,
            "amenity": "post_office"
          },
          "geometry": {
            "type": "Point",
            "coordinates": [
              13.4328881,
              47.7420176
            ]
          }
        },
        {
          "type": "Feature",
          "properties": {
            "id": "13118706280",
            "osm_type": "node",
            "lat": 47.8702569,
            "lon": 13.4327297,
            "addr:city": "Oberwang",
            "addr:housenumber": "187",
            "addr:postcode": "4882",
            "addr:street": "Oberwanger Straße",
            "amenity": "post_office",
            "name": "Postpartner 4882, SPAR",
            "post_office": "post_partner",
            "postal_code": "4882"
          },
          "geometry": {
            "type": "Point",
            "coordinates": [
              13.4327297,
              47.8702569
            ]
          }
        },
        {
          "type": "Feature",
          "properties": {
            "id": "340517304",
            "osm_type": "node",
            "lat": 47.7184891,
            "lon": 13.5871662,
            "addr:city": "Bad Ischl",
            "addr:country": "AT",
            "addr:housenumber": "7",
            "addr:postcode": "4820",
            "addr:street": "Wolfganger Straße",
            "amenity": "post_office",
            "full_name": "4829 Bad Ischl, Handelsgewerbe",
            "name": "4829",
            "opening_hours": "Mo,Fr 08:00-12:30,14:00-17:30; Tu-Th 08:00-12:30,14:00-17:00",
            "ref": "4829",
            "source": "bad-ischl.ooe.gv.at/Umpostung_von_PLZ_5351_Aigen-Voglhub_auf_PLZ_4820_Bad_Ischl_ab_26_Februar_2018",
            "type": "Postfiliale"
          },
          "geometry": {
            "type": "Point",
            "coordinates": [
              13.5871662,
              47.7184891
            ]
          }
        },
        {
          "type": "Feature",
          "properties": {
            "id": "2006641769",
            "osm_type": "node",
            "lat": 47.8451154,
            "lon": 13.7899089,
            "amenity": "post_office",
            "name": "Mini Markt",
            "opening_hours": "Mo-We 08:00-12:30,14:30-16:00; Tu 08:00-12:00; Fr 08:00-12:30,14:30-16:00; PH off"
          },
          "geometry": {
            "type": "Point",
            "coordinates": [
              13.7899089,
              47.8451154
            ]
          }
        },
        {
          "type": "Feature",
          "properties": {
            "id": "2333621582",
            "osm_type": "node",
            "lat": 47.807087,
            "lon": 13.7717896,
            "addr:city": "Ebensee",
            "addr:housenumber": "25",
            "addr:postcode": "4802",
            "addr:street": "Bahnhofstraße",
            "amenity": "post_office",
            "contact:website": "www.hermespaketshop.at",
            "name": "Glaserei Reiter",
            "operator": "hermes",
            "wheelchair": "no"
          },
          "geometry": {
            "type": "Point",
            "coordinates": [
              13.7717896,
              47.807087
            ]
          }
        },
        {
          "type": "Feature",
          "properties": {
            "id": "3705320589",
            "osm_type": "node",
            "lat": 47.8559475,
            "lon": 13.9564761,
            "amenity": "post_office"
          },
          "geometry": {
            "type": "Point",
            "coordinates": [
              13.9564761,
              47.8559475
            ]
          }
        },
        {
          "type": "Feature",
          "properties": {
            "id": "4920452913",
            "osm_type": "node",
            "lat": 47.7114878,
            "lon": 13.6241713,
            "addr:city": "Bad Ischl",
            "addr:country": "AT",
            "addr:housenumber": "4",
            "addr:postcode": "4820",
            "addr:street": "Auböckplatz",
            "amenity": "post_office",
            "name": "Post Filiale 4820",
            "opening_hours": "Mo-Fr 08:00-17:30; Sa,Su,PH off",
            "operator": "Österreichische Post AG",
            "operator:wikidata": "Q1763505",
            "operator:wikipedia": "de:Österreichische Post",
            "website": "https://www.post.at",
            "wheelchair": "no"
          },
          "geometry": {
            "type": "Point",
            "coordinates": [
              13.6241713,
              47.7114878
            ]
          }
        },
        {
          "type": "Feature",
          "properties": {
            "id": "340516793",
            "osm_type": "node",
            "lat": 47.9926388,
            "lon": 13.3538699,
            "addr:city": "Pöndorf",
            "addr:country": "AT",
            "addr:housenumber": "50",
            "addr:place": "Obermühlham",
            "addr:postcode": "4891",
            "amenity": "post_office",
            "name": "Postpartner 4891, Nah & Frisch Erlinger",
            "post_office": "post_partner",
            "source": "https://www.post.at/"
          },
          "geometry": {
            "type": "Point",
            "coordinates": [
              13.3538699,
              47.9926388
            ]
          }
        },
        {
          "type": "Feature",
          "properties": {
            "id": "9103915366",
            "osm_type": "node",
            "lat": 47.9371257,
            "lon": 13.4887476,
            "amenity": "post_office",
            "name": "Post.at",
            "operator": "Österreichische Post AG",
            "operator:wikidata": "Q1763505"
          },
          "geometry": {
            "type": "Point",
            "coordinates": [
              13.4887476,
              47.9371257
            ]
          }
        },
        {
          "type": "Feature",
          "properties": {
            "id": "11137133974",
            "osm_type": "node",
            "lat": 48.0029227,
            "lon": 13.4860452,
            "addr:city": "Vöcklamarkt",
            "addr:housenumber": "4",
            "addr:postcode": "4870",
            "addr:street": "Marktstraße",
            "amenity": "post_office",
            "name": "Postpartner",
            "opening_hours": "Mo-Fr 12:00-18:00",
            "operator": "Österreichische Post AG",
            "operator:wikidata": "Q1763505"
          },
          "geometry": {
            "type": "Point",
            "coordinates": [
              13.4860452,
              48.0029227
            ]
          }
        },
        {
          "type": "Feature",
          "properties": {
            "id": "340515849",
            "osm_type": "node",
            "lat": 47.946563,
            "lon": 13.6035356,
            "addr:city": "Schörfling am Attersee",
            "addr:country": "AT",
            "addr:housenumber": "32",
            "addr:postcode": "4861",
            "addr:street": "Marktplatz",
            "amenity": "post_office",
            "name": "Post Filiale 4861",
            "opening_hours": "Mo-Fr 08:00-12:00; Sa,Su,PH off",
            "operator": "Österreichische Post AG",
            "operator:wikidata": "Q1763505",
            "website": "https://www.post.at",
            "wheelchair": "yes"
          },
          "geometry": {
            "type": "Point",
            "coordinates": [
              13.6035356,
              47.946563
            ]
          }
        },
        {
          "type": "Feature",
          "properties": {
            "id": "340517845",
            "osm_type": "node",
            "lat": 47.9706683,
            "lon": 13.8984794,
            "addr:city": "Kirchham",
            "addr:country": "AT",
            "addr:housenumber": "32",
            "addr:place": "Kirchham",
            "addr:postcode": "4656",
            "amenity": "post_office",
            "name": "Postpartner 4656, Gemeinde",
            "post_office": "post_partner",
            "postal_code": "4656",
            "source": "https://www.post.at/",
            "wheelchair": "yes"
          },
          "geometry": {
            "type": "Point",
            "coordinates": [
              13.8984794,
              47.9706683
            ]
          }
        },
        {
          "type": "Feature",
          "properties": {
            "id": "340520322",
            "osm_type": "node",
            "lat": 47.9498614,
            "lon": 13.5927661,
            "addr:city": "Seewalchen am Attersee",
            "addr:country": "AT",
            "addr:housenumber": "29",
            "addr:postcode": "4863",
            "addr:street": "Atterseestraße",
            "amenity": "post_office",
            "name": "Postpartner 4863, Angelsport Nagl",
            "post_office": "post_partner",
            "postal_code": "4863",
            "source": "https://www.post.at/"
          },
          "geometry": {
            "type": "Point",
            "coordinates": [
              13.5927661,
              47.9498614
            ]
          }
        },
        {
          "type": "Feature",
          "properties": {
            "id": "455441981",
            "osm_type": "node",
            "lat": 47.9734111,
            "lon": 13.6047284,
            "addr:city": "Lenzing",
            "addr:housenumber": "8",
            "addr:postcode": "4860",
            "addr:street": "Hauptplatz",
            "amenity": "post_office",
            "wheelchair": "yes"
          },
          "geometry": {
            "type": "Point",
            "coordinates": [
              13.6047284,
              47.9734111
            ]
          }
        },
        {
          "type": "Feature",
          "properties": {
            "id": "1446233708",
            "osm_type": "node",
            "lat": 48.011377,
            "lon": 13.7244384,
            "addr:city": "Attnang-Puchheim",
            "addr:country": "AT",
            "addr:housenumber": "48",
            "addr:postcode": "4800",
            "addr:street": "Römerstraße",
            "amenity": "post_office",
            "name": "Post Filiale 4800",
            "opening_hours": "Mo-Fr 08:00-12:00, 14:00-17:30; Sa,Su,PH off",
            "operator": "Österreichische Post AG",
            "website": "https://www.post.at",
            "wheelchair": "yes"
          },
          "geometry": {
            "type": "Point",
            "coordinates": [
              13.7244384,
              48.011377
            ]
          }
        },
        {
          "type": "Feature",
          "properties": {
            "id": "1721061682",
            "osm_type": "node",
            "lat": 47.9019586,
            "lon": 13.7676719,
            "addr:city": "Altmünster",
            "addr:country": "AT",
            "addr:housenumber": "22",
            "addr:postcode": "4813",
            "addr:street": "Hauptstraße",
            "amenity": "post_office",
            "name": "Postpartner",
            "operator": "Österreichische Post AG",
            "ref": "4813"
          },
          "geometry": {
            "type": "Point",
            "coordinates": [
              13.7676719,
              47.9019586
            ]
          }
        },
        {
          "type": "Feature",
          "properties": {
            "id": "3896539308",
            "osm_type": "node",
            "lat": 47.9195327,
            "lon": 13.7978299,
            "addr:city": "Gmunden",
            "addr:housenumber": "1",
            "addr:postcode": "4810",
            "addr:street": "Johann-Evangelist-Habert-Straße",
            "amenity": "post_office",
            "name": "Post Filiale 4810",
            "opening_hours": "Mo-Fr 08:00-18:00; Sa,Su,PH off",
            "operator": "Österreichische Post AG",
            "operator:wikidata": "Q1763505",
            "website": "https://www.post.at"
          },
          "geometry": {
            "type": "Point",
            "coordinates": [
              13.7978299,
              47.9195327
            ]
          }
        },
        {
          "type": "Feature",
          "properties": {
            "id": "5776625910",
            "osm_type": "node",
            "lat": 47.9952156,
            "lon": 13.6836964,
            "addr:city": "Regau",
            "addr:housenumber": "8",
            "addr:postcode": "4844",
            "addr:street": "Vöcklabrucker Straße",
            "amenity": "post_office",
            "name": "Postpartner 4844"
          },
          "geometry": {
            "type": "Point",
            "coordinates": [
              13.6836964,
              47.9952156
            ]
          }
        },
        {
          "type": "Feature",
          "properties": {
            "id": "6432104377",
            "osm_type": "node",
            "lat": 48.0098309,
            "lon": 13.7209462,
            "amenity": "post_office",
            "name": "GLS PaketShop",
            "operator": "GLS"
          },
          "geometry": {
            "type": "Point",
            "coordinates": [
              13.7209462,
              48.0098309
            ]
          }
        },
        {
          "type": "Feature",
          "properties": {
            "id": "7594487346",
            "osm_type": "node",
            "lat": 48.0032941,
            "lon": 13.6697071,
            "addr:city": "Vöcklabruck",
            "addr:country": "AT",
            "addr:housenumber": "50",
            "addr:postcode": "4840",
            "addr:street": "Linzer Straße",
            "amenity": "post_office",
            "name": "Post Filiale 4840",
            "opening_hours": "Mo-Fr 08:30-18:30; Sa 08:30-12:00; Su,PH off",
            "operator": "Österreichische Post AG",
            "operator:wikidata": "Q1763505",
            "website": "https://www.post.at"
          },
          "geometry": {
            "type": "Point",
            "coordinates": [
              13.6697071,
              48.0032941
            ]
          }
        },
        {
          "type": "Feature",
          "properties": {
            "id": "7594487350",
            "osm_type": "node",
            "lat": 47.982922,
            "lon": 13.822257,
            "addr:city": "Laakirchen",
            "addr:country": "AT",
            "addr:housenumber": "2",
            "addr:postcode": "4663",
            "addr:street": "Wolfstraße",
            "amenity": "post_office",
            "name": "Post Filiale 4663",
            "opening_hours": "Mo-Fr 08:00-12:00, 14:00-17:30; Sa,Su,PH off",
            "operator": "Österreichische Post AG",
            "website": "https://www.post.at"
          },
          "geometry": {
            "type": "Point",
            "coordinates": [
              13.822257,
              47.982922
            ]
          }
        },
        {
          "type": "Feature",
          "properties": {
            "id": "7623992970",
            "osm_type": "node",
            "lat": 47.9354528,
            "lon": 13.8456785,
            "addr:city": "Gschwandt",
            "addr:housenumber": "9",
            "addr:postcode": "4816",
            "addr:street": "Hauptstraße",
            "amenity": "post_office",
            "name": "Spar Wallner",
            "operator": "Spar Wallner"
          },
          "geometry": {
            "type": "Point",
            "coordinates": [
              13.8456785,
              47.9354528
            ]
          }
        },
        {
          "type": "Feature",
          "properties": {
            "id": "8312871654",
            "osm_type": "node",
            "lat": 47.9999265,
            "lon": 13.922264,
            "addr:city": "Vorchdorf",
            "addr:country": "AT",
            "addr:housenumber": "19",
            "addr:postcode": "4655",
            "addr:street": "Bahnhofstraße",
            "amenity": "post_office",
            "opening_hours": "Mo-Fr 08:00-12:00, 14:00-17:30; Sa,Su,PH off",
            "operator": "Österreichische Post AG",
            "ref": "4655",
            "source": "GeoImage",
            "website": "https://www.post.at"
          },
          "geometry": {
            "type": "Point",
            "coordinates": [
              13.922264,
              47.9999265
            ]
          }
        },
        {
          "type": "Feature",
          "properties": {
            "id": "8315072997",
            "osm_type": "node",
            "lat": 47.9607182,
            "lon": 13.7908991,
            "amenity": "post_office",
            "name": "Postpartner",
            "operator": "Gemeinde"
          },
          "geometry": {
            "type": "Point",
            "coordinates": [
              13.7908991,
              47.9607182
            ]
          }
        },
        {
          "type": "Feature",
          "properties": {
            "id": "298844469",
            "osm_type": "node",
            "lat": 47.9040146,
            "lon": 14.1237085,
            "addr:city": "Kirchdorf an der Krems",
            "addr:country": "AT",
            "addr:housenumber": "27",
            "addr:postcode": "4560",
            "addr:street": "Hauptplatz",
            "amenity": "post_office",
            "name": "Post Filiale 4560",
            "opening_hours": "Mo-Fr 08:00-12:00, 14:00-17:30; Sa,Su,PH off",
            "operator": "Österreichische Post AG",
            "website": "https://www.post.at"
          },
          "geometry": {
            "type": "Point",
            "coordinates": [
              14.1237085,
              47.9040146
            ]
          }
        },
        {
          "type": "Feature",
          "properties": {
            "id": "340520186",
            "osm_type": "node",
            "lat": 47.884707,
            "lon": 14.2583557,
            "addr:city": "Molln",
            "addr:country": "AT",
            "addr:housenumber": "2",
            "addr:postcode": "4591",
            "addr:street": "Parkstraße",
            "amenity": "post_office",
            "name": "Postpartner 4591, Margit's Shop",
            "post_office": "post_partner",
            "postal_code": "4591",
            "source": "https://www.post.at/"
          },
          "geometry": {
            "type": "Point",
            "coordinates": [
              14.2583557,
              47.884707
            ]
          }
        },
        {
          "type": "Feature",
          "properties": {
            "id": "340520535",
            "osm_type": "node",
            "lat": 47.9923121,
            "lon": 14.2165806,
            "addr:city": "Adlwang",
            "addr:country": "AT",
            "addr:housenumber": "5",
            "addr:postcode": "4541",
            "addr:street": "Kirchenplatz",
            "amenity": "post_office",
            "name": "Postpartner 4541, Gemeinde",
            "post_office": "post_partner",
            "postal_code": "4541",
            "source": "https://www.post.at/"
          },
          "geometry": {
            "type": "Point",
            "coordinates": [
              14.2165806,
              47.9923121
            ]
          }
        },
        {
          "type": "Feature",
          "properties": {
            "id": "340520539",
            "osm_type": "node",
            "lat": 47.9374953,
            "lon": 14.1258657,
            "addr:city": "Schlierbach",
            "addr:country": "AT",
            "addr:housenumber": "1",
            "addr:postcode": "4553",
            "addr:street": "Stiftsstraße",
            "amenity": "post_office",
            "name": "4553 Schlierbach",
            "postal_code": "4553",
            "ref": "4553",
            "type": "Post.Partner"
          },
          "geometry": {
            "type": "Point",
            "coordinates": [
              14.1258657,
              47.9374953
            ]
          }
        },
        {
          "type": "Feature",
          "properties": {
            "id": "340520549",
            "osm_type": "node",
            "lat": 47.8954036,
            "lon": 14.2302718,
            "addr:city": "Leonstein",
            "addr:country": "AT",
            "addr:housenumber": "3",
            "addr:postcode": "4592",
            "addr:street": "Badstraße",
            "amenity": "post_office",
            "name": "4592 Leonstein",
            "ref": "4592",
            "type": "Post.Partner"
          },
          "geometry": {
            "type": "Point",
            "coordinates": [
              14.2302718,
              47.8954036
            ]
          }
        },
        {
          "type": "Feature",
          "properties": {
            "id": "340520588",
            "osm_type": "node",
            "lat": 47.9980493,
            "lon": 14.2609413,
            "addr:city": "Waldneukirchen",
            "addr:country": "AT",
            "addr:housenumber": "6",
            "addr:postcode": "4595",
            "addr:street": "Bad Haller Straße",
            "amenity": "post_office",
            "name": "Postpartner 4595, Nah & Frisch Degenfellner",
            "post_office": "post_partner",
            "postal_code": "4595",
            "source": "https://www.post.at/"
          },
          "geometry": {
            "type": "Point",
            "coordinates": [
              14.2609413,
              47.9980493
            ]
          }
        }
      ],
      "children": []
    },
    {
      "bbox": {
        "south": 47.694865,
        "west": 14.2994695,
        "north": 48.02541825,
        "east": 15.253173
      },
      "poiCount": 18,
      "leafCount": 18,
      "averagePosition": [
        14.81707481111111,
        47.899446894444445
      ],
      "data": [
        {
          "type": "Feature",
          "properties": {
            "id": "340516114",
            "osm_type": "node",
            "lat": 47.8600659,
            "lon": 15.0245409,
            "addr:city": "Lunz am See",
            "addr:country": "AT",
            "addr:housenumber": "16",
            "addr:postcode": "3293",
            "addr:street": "Amonstraße",
            "amenity": "post_office",
            "name": "Postpartner 3293, Marktgemeinde",
            "post_office": "post_partner",
            "postal_code": "3293",
            "source": "https://www.post.at/"
          },
          "geometry": {
            "type": "Point",
            "coordinates": [
              15.0245409,
              47.8600659
            ]
          }
        },
        {
          "type": "Feature",
          "properties": {
            "id": "340517960",
            "osm_type": "node",
            "lat": 47.7224801,
            "lon": 14.6496027,
            "addr:city": "Altenmarkt bei Sankt Gallen",
            "addr:country": "AT",
            "addr:housenumber": "2",
            "addr:place": "Altenmarkt",
            "addr:postcode": "8934",
            "amenity": "post_office",
            "name": "Postpartner 8934, Marktgemeinde",
            "post_office": "post_partner",
            "postal_code": "8934",
            "source": "https://www.post.at/"
          },
          "geometry": {
            "type": "Point",
            "coordinates": [
              14.6496027,
              47.7224801
            ]
          }
        },
        {
          "type": "Feature",
          "properties": {
            "id": "340517988",
            "osm_type": "node",
            "lat": 47.8032991,
            "lon": 14.7725281,
            "addr:city": "Hollenstein an der Ybbs",
            "addr:country": "AT",
            "addr:housenumber": "5",
            "addr:place": "Dorf",
            "addr:postcode": "3343",
            "amenity": "post_office",
            "name": "Postpartner 3343, Nah & Frisch",
            "operator": "Nah und Frisch",
            "post_office": "post_partner",
            "source": "https://www.post.at/"
          },
          "geometry": {
            "type": "Point",
            "coordinates": [
              14.7725281,
              47.8032991
            ]
          }
        },
        {
          "type": "Feature",
          "properties": {
            "id": "5089694335",
            "osm_type": "node",
            "lat": 47.8076965,
            "lon": 14.9344647,
            "amenity": "post_office",
            "name": "Postpartner 3345",
            "opening_hours": "Mo-Fr 07:30-18:30; Sa 07:30-17:00; Su,PH off",
            "operator": "Spar",
            "wheelchair": "yes"
          },
          "geometry": {
            "type": "Point",
            "coordinates": [
              14.9344647,
              47.8076965
            ]
          }
        },
        {
          "type": "Feature",
          "properties": {
            "id": "11595199630",
            "osm_type": "node",
            "lat": 47.8607304,
            "lon": 14.6687852,
            "addr:city": "Weyer",
            "addr:country": "AT",
            "addr:housenumber": "28",
            "addr:postcode": "3335",
            "addr:street": "Waidhofner Straße",
            "amenity": "post_office",
            "name": "Postpartner 3335, UNIMARKT",
            "post_office": "post_partner",
            "postal_code": "3335",
            "source": "https://www.post.at/"
          },
          "geometry": {
            "type": "Point",
            "coordinates": [
              14.6687852,
              47.8607304
            ]
          }
        },
        {
          "type": "Feature",
          "properties": {
            "id": "11595208986",
            "osm_type": "node",
            "lat": 47.6967747,
            "lon": 14.6210331,
            "addr:city": "Sankt Gallen",
            "addr:country": "AT",
            "addr:housenumber": "186",
            "addr:place": "Markt",
            "addr:postcode": "8933",
            "amenity": "post_office",
            "name": "Postpartner 8933, UNIMARKT",
            "post_office": "post_partner",
            "postal_code": "8933",
            "source": "https://www.post.at/"
          },
          "geometry": {
            "type": "Point",
            "coordinates": [
              14.6210331,
              47.6967747
            ]
          }
        },
        {
          "type": "Feature",
          "properties": {
            "id": "340518127",
            "osm_type": "node",
            "lat": 47.9210175,
            "lon": 14.4400176,
            "addr:city": "Losenstein",
            "addr:country": "AT",
            "addr:housenumber": "101",
            "addr:postcode": "4460",
            "addr:street": "Eisenstraße",
            "amenity": "post_office",
            "name": "Postpartner 4460, Apotheke Losenstein",
            "post_office": "post_partner",
            "postal_code": "4460",
            "source": "https://www.post.at/"
          },
          "geometry": {
            "type": "Point",
            "coordinates": [
              14.4400176,
              47.9210175
            ]
          }
        },
        {
          "type": "Feature",
          "properties": {
            "id": "1712613921",
            "osm_type": "node",
            "lat": 48.0149259,
            "lon": 14.3390623,
            "amenity": "post_office",
            "name": "Postpartner"
          },
          "geometry": {
            "type": "Point",
            "coordinates": [
              14.3390623,
              48.0149259
            ]
          }
        },
        {
          "type": "Feature",
          "properties": {
            "id": "298361802",
            "osm_type": "node",
            "lat": 47.9583806,
            "lon": 14.7757092,
            "addr:city": "Waidhofen an der Ybbs",
            "addr:country": "AT",
            "addr:housenumber": "5a",
            "addr:postcode": "3340",
            "addr:street": "Pocksteinerstraße",
            "amenity": "post_office",
            "name": "Post Filiale 3340",
            "opening_hours": "Mo-Fr 08:00-12:00,14:00-17:30; Sa,Su,PH off",
            "operator": "Österreichische Post AG",
            "operator:wikidata": "Q1763505",
            "website": "https://www.post.at",
            "wheelchair": "yes"
          },
          "geometry": {
            "type": "Point",
            "coordinates": [
              14.7757092,
              47.9583806
            ]
          }
        },
        {
          "type": "Feature",
          "properties": {
            "id": "340515517",
            "osm_type": "node",
            "lat": 48.0099152,
            "lon": 14.7419142,
            "addr:city": "Rosenau am Sonntagberg",
            "addr:country": "AT",
            "addr:housenumber": "14",
            "addr:postcode": "3332",
            "addr:street": "Waidhofnerstraße",
            "amenity": "post_office",
            "name": "3332 Rosenau. Sonntagberg",
            "postal_code": "3332",
            "ref": "3332",
            "shop": "supermarket",
            "type": "Post.Partner"
          },
          "geometry": {
            "type": "Point",
            "coordinates": [
              14.7419142,
              48.0099152
            ]
          }
        },
        {
          "type": "Feature",
          "properties": {
            "id": "340516124",
            "osm_type": "node",
            "lat": 47.9470448,
            "lon": 14.8951527,
            "addr:city": "Ybbsitz",
            "addr:country": "AT",
            "addr:housenumber": "24",
            "addr:postcode": "3341",
            "addr:street": "Markt",
            "amenity": "post_office",
            "name": "3341 Ybbsitz",
            "ref": "3341",
            "type": "Postfiliale"
          },
          "geometry": {
            "type": "Point",
            "coordinates": [
              14.8951527,
              47.9470448
            ]
          }
        },
        {
          "type": "Feature",
          "properties": {
            "id": "340520420",
            "osm_type": "node",
            "lat": 47.8840487,
            "lon": 14.5481449,
            "addr:city": "Großraming",
            "addr:country": "AT",
            "addr:housenumber": "24",
            "addr:postcode": "4463",
            "addr:street": "Eisenstraße",
            "amenity": "post_office",
            "name": "Postpartner 4463, Hohlrieder Bäckerei",
            "post_office": "post_partner",
            "postal_code": "4463",
            "source": "https://www.post.at/"
          },
          "geometry": {
            "type": "Point",
            "coordinates": [
              14.5481449,
              47.8840487
            ]
          }
        },
        {
          "type": "Feature",
          "properties": {
            "id": "1540411365",
            "osm_type": "node",
            "lat": 47.981062,
            "lon": 15.0263653,
            "amenity": "post_office",
            "name": "Postpartner Matschi",
            "operator": "Österreichische Post AG",
            "ref": "3264"
          },
          "geometry": {
            "type": "Point",
            "coordinates": [
              15.0263653,
              47.981062
            ]
          }
        },
        {
          "type": "Feature",
          "properties": {
            "id": "11595242156",
            "osm_type": "node",
            "lat": 47.8961626,
            "lon": 14.7281411,
            "addr:city": "Gaflenz",
            "addr:country": "AT",
            "addr:housenumber": "230",
            "addr:place": "Markt",
            "addr:postcode": "3334",
            "amenity": "post_office",
            "name": "Postpartner",
            "ref": "3334",
            "type": "Postfiliale"
          },
          "geometry": {
            "type": "Point",
            "coordinates": [
              14.7281411,
              47.8961626
            ]
          }
        },
        {
          "type": "Feature",
          "properties": {
            "id": "340520995",
            "osm_type": "node",
            "lat": 47.9638869,
            "lon": 15.2004492,
            "addr:city": "St. Anton an der Jeßnitz",
            "addr:country": "AT",
            "addr:housenumber": "10a",
            "addr:place": "Sankt Anton an der Jeßnitz",
            "addr:postcode": "3283",
            "amenity": "post_office",
            "name": "Postpartner 3283, SPAR Fischer",
            "post_office": "post_partner",
            "postal_code": "3283",
            "source": "https://www.post.at/"
          },
          "geometry": {
            "type": "Point",
            "coordinates": [
              15.2004492,
              47.9638869
            ]
          }
        },
        {
          "type": "Feature",
          "properties": {
            "id": "1574154425",
            "osm_type": "node",
            "lat": 47.9291554,
            "lon": 15.0887934,
            "amenity": "post_office",
            "name": "Hermes Postshop",
            "operator": "Hermes",
            "wheelchair": "yes"
          },
          "geometry": {
            "type": "Point",
            "coordinates": [
              15.0887934,
              47.9291554
            ]
          }
        },
        {
          "type": "Feature",
          "properties": {
            "id": "1577464846",
            "osm_type": "node",
            "lat": 47.9279123,
            "lon": 15.0873518,
            "amenity": "post_office",
            "name": "Post Partner",
            "phone": "+43 7485 97288",
            "wheelchair": "no"
          },
          "geometry": {
            "type": "Point",
            "coordinates": [
              15.0873518,
              47.9279123
            ]
          }
        },
        {
          "type": "Feature",
          "properties": {
            "id": "9641964179",
            "osm_type": "node",
            "lat": 48.0054855,
            "lon": 15.1652902,
            "amenity": "post_office",
            "name": "Post",
            "operator": "Österreichische Post AG"
          },
          "geometry": {
            "type": "Point",
            "coordinates": [
              15.1652902,
              48.0054855
            ]
          }
        }
      ],
      "children": []
    },
    {
      "bbox": {
        "south": 48.02541825,
        "west": 13.345766,
        "north": 48.355971499999995,
        "east": 14.2994695
      },
      "poiCount": 80,
      "leafCount": 0,
      "averagePosition": [
        13.934922533750001,
        48.21716974625
      ],
      "data": [],
      "children": [
        {
          "bbox": {
            "south": 48.02541825,
            "west": 13.345766,
            "north": 48.190694875,
            "east": 13.82261775
          },
          "poiCount": 11,
          "leafCount": 11,
          "averagePosition": [
            13.575532190909092,
            48.11474353636363
          ],
          "data": [
            {
              "type": "Feature",
              "properties": {
                "id": "1297254275",
                "osm_type": "node",
                "lat": 48.0813059,
                "lon": 13.4688276,
                "amenity": "post_office",
                "collection_times": "8:00 - 12:00",
                "name": "Postpartner Redleiten",
                "operator": "Gemeinde Redleiten",
                "phone": "+43 7683 83550",
                "wheelchair": "yes"
              },
              "geometry": {
                "type": "Point",
                "coordinates": [
                  13.4688276,
                  48.0813059
                ]
              }
            },
            {
              "type": "Feature",
              "properties": {
                "id": "6644514412",
                "osm_type": "node",
                "lat": 48.1720936,
                "lon": 13.3477171,
                "amenity": "post_office",
                "opening_hours": "Mo-Fr 07:00-18:00; Sa 07:30-16:00; Su,PH off"
              },
              "geometry": {
                "type": "Point",
                "coordinates": [
                  13.3477171,
                  48.1720936
                ]
              }
            },
            {
              "type": "Feature",
              "properties": {
                "id": "11630839467",
                "osm_type": "node",
                "lat": 48.0677368,
                "lon": 13.4912937,
                "amenity": "post_office",
                "name": "Postpartner"
              },
              "geometry": {
                "type": "Point",
                "coordinates": [
                  13.4912937,
                  48.0677368
                ]
              }
            },
            {
              "type": "Feature",
              "properties": {
                "id": "340515470",
                "osm_type": "node",
                "lat": 48.1073873,
                "lon": 13.6744855,
                "addr:city": "Wolfsegg am Hausruck",
                "addr:country": "AT",
                "addr:housenumber": "10",
                "addr:postcode": "4902",
                "addr:street": "Marktplatz",
                "amenity": "post_office",
                "name": "Postpartner 4902, SPAR Kronlachner",
                "post_office": "post_partner",
                "postal_code": "4902",
                "source": "https://www.post.at/"
              },
              "geometry": {
                "type": "Point",
                "coordinates": [
                  13.6744855,
                  48.1073873
                ]
              }
            },
            {
              "type": "Feature",
              "properties": {
                "id": "340515842",
                "osm_type": "node",
                "lat": 48.0964655,
                "lon": 13.6625239,
                "addr:city": "Ottnang am Hausruck",
                "addr:country": "AT",
                "addr:housenumber": "21",
                "addr:postcode": "4901",
                "addr:street": "Hauptstraße",
                "amenity": "post_office",
                "name": "Postpartner 4901, Annenapotheke",
                "post_office": "post_partner",
                "postal_code": "4901",
                "source": "https://www.post.at/",
                "wheelchair": "no"
              },
              "geometry": {
                "type": "Point",
                "coordinates": [
                  13.6625239,
                  48.0964655
                ]
              }
            },
            {
              "type": "Feature",
              "properties": {
                "id": "340517706",
                "osm_type": "node",
                "lat": 48.1560606,
                "lon": 13.5628102,
                "addr:city": "Eberschwang",
                "addr:country": "AT",
                "addr:housenumber": "32",
                "addr:place": "Maierhof",
                "addr:postcode": "4906",
                "amenity": "post_office",
                "name": "Postpartner 4906, Nah & Frisch Öllinger",
                "post_office": "post_partner",
                "postal_code": "4906",
                "source": "https://www.post.at/"
              },
              "geometry": {
                "type": "Point",
                "coordinates": [
                  13.5628102,
                  48.1560606
                ]
              }
            },
            {
              "type": "Feature",
              "properties": {
                "id": "340520796",
                "osm_type": "node",
                "lat": 48.154,
                "lon": 13.6353384,
                "addr:city": "Geboltskirchen",
                "addr:country": "AT",
                "addr:housenumber": "2",
                "addr:postcode": "4682",
                "addr:street": "Pfarrhofweg",
                "amenity": "post_office",
                "name": "Postpartner 4682, SPAR Strauß",
                "post_office": "post_partner",
                "postal_code": "4682",
                "source": "https://www.post.at/"
              },
              "geometry": {
                "type": "Point",
                "coordinates": [
                  13.6353384,
                  48.154
                ]
              }
            },
            {
              "type": "Feature",
              "properties": {
                "id": "1143926292",
                "osm_type": "node",
                "lat": 48.0474405,
                "lon": 13.6234759,
                "amenity": "post_office",
                "ref": "Lebersorger Poststelle Ungenach"
              },
              "geometry": {
                "type": "Point",
                "coordinates": [
                  13.6234759,
                  48.0474405
                ]
              }
            },
            {
              "type": "Feature",
              "properties": {
                "id": "1496475917",
                "osm_type": "node",
                "lat": 48.08596,
                "lon": 13.5653214,
                "amenity": "post_office",
                "name": "Post Partner Ampflwang",
                "operator": "Foto Schachermaier",
                "source": "I"
              },
              "geometry": {
                "type": "Point",
                "coordinates": [
                  13.5653214,
                  48.08596
                ]
              }
            },
            {
              "type": "Feature",
              "properties": {
                "id": "3336633972",
                "osm_type": "node",
                "lat": 48.1392693,
                "lon": 13.7336837,
                "amenity": "post_office",
                "name": "Post Partner im Unimarkt"
              },
              "geometry": {
                "type": "Point",
                "coordinates": [
                  13.7336837,
                  48.1392693
                ]
              }
            },
            {
              "type": "Feature",
              "properties": {
                "id": "6176461790",
                "osm_type": "node",
                "lat": 48.1544594,
                "lon": 13.5653767,
                "addr:city": "Eberschwang",
                "addr:country": "AT",
                "addr:housenumber": "95",
                "addr:place": "Eberschwang",
                "addr:postcode": "4906",
                "amenity": "post_office",
                "name": "GLS-Annahmestelle"
              },
              "geometry": {
                "type": "Point",
                "coordinates": [
                  13.5653767,
                  48.1544594
                ]
              }
            }
          ],
          "children": []
        },
        {
          "bbox": {
            "south": 48.02541825,
            "west": 13.82261775,
            "north": 48.190694875,
            "east": 14.2994695
          },
          "poiCount": 22,
          "leafCount": 22,
          "averagePosition": [
            14.051825386363635,
            48.129355036363634
          ],
          "data": [
            {
              "type": "Feature",
              "properties": {
                "id": "340516032",
                "osm_type": "node",
                "lat": 48.1825205,
                "lon": 14.0158461,
                "addr:city": "Wels",
                "addr:country": "AT",
                "addr:housenumber": "95",
                "addr:postcode": "4600",
                "addr:street": "Oberfeldstraße",
                "amenity": "post_office",
                "name": "Postpartner 4605 Wels Ecodrom",
                "opening_hours": "Mo-Fr 06:00-18:00",
                "postal_code": "4605",
                "ref": "4605",
                "type": "Postpartner",
                "wheelchair": "limited"
              },
              "geometry": {
                "type": "Point",
                "coordinates": [
                  14.0158461,
                  48.1825205
                ]
              }
            },
            {
              "type": "Feature",
              "properties": {
                "id": "340517923",
                "osm_type": "node",
                "lat": 48.1649487,
                "lon": 14.011729,
                "addr:city": "Wels",
                "addr:country": "AT",
                "addr:housenumber": "8",
                "addr:postcode": "4600",
                "addr:street": "Vogelweiderplatz",
                "amenity": "post_office",
                "name": "4600 Wels",
                "opening_hours": "Mo-Fr 08:00-12:00,14:00-18:00",
                "postal_code": "4603",
                "ref": "4603",
                "type": "Postpartner",
                "wheelchair": "yes"
              },
              "geometry": {
                "type": "Point",
                "coordinates": [
                  14.011729,
                  48.1649487
                ]
              }
            },
            {
              "type": "Feature",
              "properties": {
                "id": "340519661",
                "osm_type": "node",
                "lat": 48.0447656,
                "lon": 13.9803717,
                "amenity": "post_office",
                "name": "Postpartner",
                "post_office:type": "post_partner",
                "wheelchair": "yes"
              },
              "geometry": {
                "type": "Point",
                "coordinates": [
                  13.9803717,
                  48.0447656
                ]
              }
            },
            {
              "type": "Feature",
              "properties": {
                "id": "340520296",
                "osm_type": "node",
                "lat": 48.1568275,
                "lon": 13.8356251,
                "addr:city": "Offenhausen",
                "addr:country": "AT",
                "addr:housenumber": "3",
                "addr:postcode": "4625",
                "addr:street": "Friedhofstraße",
                "amenity": "post_office",
                "name": "4625 Offenhausen",
                "postal_code": "4625",
                "ref": "4625",
                "type": "Post.Partner"
              },
              "geometry": {
                "type": "Point",
                "coordinates": [
                  13.8356251,
                  48.1568275
                ]
              }
            },
            {
              "type": "Feature",
              "properties": {
                "id": "340520305",
                "osm_type": "node",
                "lat": 48.1332475,
                "lon": 13.9412426,
                "addr:city": "Gunskirchen",
                "addr:country": "AT",
                "addr:housenumber": "3",
                "addr:postcode": "4623",
                "addr:street": "Raiffeisenplatz",
                "amenity": "post_office",
                "name": "4623 Gunskirchen",
                "postal_code": "4623",
                "ref": "4623",
                "type": "Postfiliale"
              },
              "geometry": {
                "type": "Point",
                "coordinates": [
                  13.9412426,
                  48.1332475
                ]
              }
            },
            {
              "type": "Feature",
              "properties": {
                "id": "1507051582",
                "osm_type": "node",
                "lat": 48.1687766,
                "lon": 14.0252748,
                "amenity": "post_office",
                "name": "Post-Partner 4618 Wels",
                "opening_hours": "Mo,Tu,Th,Fr 08:30-18:00; We 08:30-19:00; Sa 09:00-12:00",
                "wheelchair": "yes"
              },
              "geometry": {
                "type": "Point",
                "coordinates": [
                  14.0252748,
                  48.1687766
                ]
              }
            },
            {
              "type": "Feature",
              "properties": {
                "id": "3043360521",
                "osm_type": "node",
                "lat": 48.0789626,
                "lon": 13.9565772,
                "amenity": "post_office",
                "name": "Post Steinerkirchen"
              },
              "geometry": {
                "type": "Point",
                "coordinates": [
                  13.9565772,
                  48.0789626
                ]
              }
            },
            {
              "type": "Feature",
              "properties": {
                "id": "3626325162",
                "osm_type": "node",
                "lat": 48.1166897,
                "lon": 14.0201121,
                "amenity": "post_office"
              },
              "geometry": {
                "type": "Point",
                "coordinates": [
                  14.0201121,
                  48.1166897
                ]
              }
            },
            {
              "type": "Feature",
              "properties": {
                "id": "3734911474",
                "osm_type": "node",
                "lat": 48.1762411,
                "lon": 14.0140307,
                "amenity": "post_office",
                "name": "Jedinger",
                "opening_hours": "Mo-Th 08:00-12:00, 13:00-17:00; Fr 08:00-12:00, 13:00-15:30",
                "operator": "GLS",
                "website": "https://www.autoteile-jedinger.at/services/gls-stuetzpunkt-fuer-ihre-pakete"
              },
              "geometry": {
                "type": "Point",
                "coordinates": [
                  14.0140307,
                  48.1762411
                ]
              }
            },
            {
              "type": "Feature",
              "properties": {
                "id": "4961126221",
                "osm_type": "node",
                "lat": 48.1849876,
                "lon": 13.904683,
                "addr:postcode": "4632",
                "amenity": "post_office",
                "name": "Post Partner",
                "name:de": "Post Partner"
              },
              "geometry": {
                "type": "Point",
                "coordinates": [
                  13.904683,
                  48.1849876
                ]
              }
            },
            {
              "type": "Feature",
              "properties": {
                "id": "5710775269",
                "osm_type": "node",
                "lat": 48.1769758,
                "lon": 14.0218514,
                "amenity": "post_office",
                "brand": "Hermes",
                "opening_hours": "Mo-Th 09:00-13:00, 14:00-18:00; Fr 09:00-12:00, 15:00-18:00",
                "operator": "Hermes"
              },
              "geometry": {
                "type": "Point",
                "coordinates": [
                  14.0218514,
                  48.1769758
                ]
              }
            },
            {
              "type": "Feature",
              "properties": {
                "id": "340516292",
                "osm_type": "node",
                "lat": 48.1699117,
                "lon": 14.0513269,
                "addr:city": "Wels",
                "addr:country": "AT",
                "addr:housenumber": "164",
                "addr:postcode": "4600",
                "addr:street": "Linzer Straße",
                "amenity": "post_office",
                "name": "Postpartner 4606, AHS Electronic Funkcenter",
                "post_office": "post_partner",
                "postal_code": "4606",
                "source": "https://www.post.at/",
                "wheelchair": "yes"
              },
              "geometry": {
                "type": "Point",
                "coordinates": [
                  14.0513269,
                  48.1699117
                ]
              }
            },
            {
              "type": "Feature",
              "properties": {
                "id": "340517772",
                "osm_type": "node",
                "lat": 48.0257194,
                "lon": 14.0734992,
                "addr:city": "Ried im Traunkreis",
                "addr:country": "AT",
                "addr:housenumber": "27",
                "addr:postcode": "4551",
                "addr:street": "Hauptstraße",
                "amenity": "post_office",
                "name": "4551 Ried im Traunkreis",
                "ref": "4551",
                "type": "Post.Partner"
              },
              "geometry": {
                "type": "Point",
                "coordinates": [
                  14.0734992,
                  48.0257194
                ]
              }
            },
            {
              "type": "Feature",
              "properties": {
                "id": "340517878",
                "osm_type": "node",
                "lat": 48.1538342,
                "lon": 14.0366499,
                "addr:city": "Thalheim bei Wels",
                "addr:country": "AT",
                "addr:housenumber": "39",
                "addr:postcode": "4609",
                "addr:street": "Pater-Bernhard-Rodlberger-Straße",
                "amenity": "post_office",
                "name": "4609 Thalheim bei Wels",
                "opening_hours": "Mo-Fr 08:00-18:00;Sa 08:00-12:00",
                "operator": "Tankstelle",
                "postal_code": "4609",
                "ref": "4609",
                "type": "Post.Partner"
              },
              "geometry": {
                "type": "Point",
                "coordinates": [
                  14.0366499,
                  48.1538342
                ]
              }
            },
            {
              "type": "Feature",
              "properties": {
                "id": "340520171",
                "osm_type": "node",
                "lat": 48.073228,
                "lon": 14.0521111,
                "amenity": "post_office",
                "name": "4642 Sattledt",
                "opening_hours": "Mo-Fr 08:00-17:00",
                "postal_code": "4642",
                "ref": "4642",
                "type": "Post.Partner"
              },
              "geometry": {
                "type": "Point",
                "coordinates": [
                  14.0521111,
                  48.073228
                ]
              }
            },
            {
              "type": "Feature",
              "properties": {
                "id": "340520543",
                "osm_type": "node",
                "lat": 48.0668714,
                "lon": 14.189995,
                "addr:city": "Rohr im Kremstal",
                "addr:country": "AT",
                "addr:housenumber": "1",
                "addr:postcode": "4532",
                "addr:street": "Ortsplatz",
                "amenity": "post_office",
                "name": "Postpartner 4532, Gemeinde",
                "post_office": "post_partner",
                "postal_code": "4532",
                "source": "https://www.post.at/"
              },
              "geometry": {
                "type": "Point",
                "coordinates": [
                  14.189995,
                  48.0668714
                ]
              }
            },
            {
              "type": "Feature",
              "properties": {
                "id": "365938414",
                "osm_type": "node",
                "lat": 48.05221,
                "lon": 14.1295193,
                "addr:city": "Kremsmünster",
                "addr:country": "AT",
                "addr:housenumber": "5",
                "addr:postcode": "4550",
                "addr:street": "Franz-Hönig-Straße",
                "amenity": "post_office",
                "name": "Post-Partner 4550",
                "opening_hours": "Mo,Tu,Th,Fr 08:00-12:15, 14:00-17:30; We 08:00-12:15; Sa 08:30-11:30; Su,PH off",
                "operator": "Österreichische Post AG",
                "operator:wikidata": "Q1763505",
                "operator:wikipedia": "de:Österreichische Post",
                "website": "https://www.post.at"
              },
              "geometry": {
                "type": "Point",
                "coordinates": [
                  14.1295193,
                  48.05221
                ]
              }
            },
            {
              "type": "Feature",
              "properties": {
                "id": "2048818572",
                "osm_type": "node",
                "lat": 48.1631679,
                "lon": 14.1218497,
                "addr:housenumber": "26",
                "addr:street": "Obere Dorfstraße",
                "amenity": "post_office",
                "name": "Postpartner",
                "opening_hours": "Mo-Sa 07:30-12:00; Mo, Tu, Th, Fr 13:00-17:00"
              },
              "geometry": {
                "type": "Point",
                "coordinates": [
                  14.1218497,
                  48.1631679
                ]
              }
            },
            {
              "type": "Feature",
              "properties": {
                "id": "2311939534",
                "osm_type": "node",
                "lat": 48.1465949,
                "lon": 14.2794401,
                "amenity": "post_office",
                "name": "Postpartner Reichl"
              },
              "geometry": {
                "type": "Point",
                "coordinates": [
                  14.2794401,
                  48.1465949
                ]
              }
            },
            {
              "type": "Feature",
              "properties": {
                "id": "3374701706",
                "osm_type": "node",
                "lat": 48.1109821,
                "lon": 14.1934608,
                "amenity": "post_office",
                "description": "Postpartner"
              },
              "geometry": {
                "type": "Point",
                "coordinates": [
                  14.1934608,
                  48.1109821
                ]
              }
            },
            {
              "type": "Feature",
              "properties": {
                "id": "4465308768",
                "osm_type": "node",
                "lat": 48.1599917,
                "lon": 14.0460147,
                "addr:city": "Wels",
                "addr:country": "AT",
                "addr:housenumber": "5a",
                "addr:postcode": "4600",
                "addr:street": "Boschstraße",
                "amenity": "post_office",
                "operator": "EcoDrom"
              },
              "geometry": {
                "type": "Point",
                "coordinates": [
                  14.0460147,
                  48.1599917
                ]
              }
            },
            {
              "type": "Feature",
              "properties": {
                "id": "5178435621",
                "osm_type": "node",
                "lat": 48.1383563,
                "lon": 14.2389481,
                "addr:postcode": "4501",
                "addr:street": "Steyrer Straße",
                "amenity": "post_office",
                "name": "Postpartner 4501 Neuhofen an der Krems",
                "opening_hours": "Mo-Fr 07:30-12:00, 13:00-17:00; Sa 07:30-12:00"
              },
              "geometry": {
                "type": "Point",
                "coordinates": [
                  14.2389481,
                  48.1383563
                ]
              }
            }
          ],
          "children": []
        },
        {
          "bbox": {
            "south": 48.190694875,
            "west": 13.345766,
            "north": 48.355971499999995,
            "east": 13.82261775
          },
          "poiCount": 14,
          "leafCount": 14,
          "averagePosition": [
            13.551720685714285,
            48.28800193571429
          ],
          "data": [
            {
              "type": "Feature",
              "properties": {
                "id": "340517559",
                "osm_type": "node",
                "lat": 48.2448625,
                "lon": 13.4580266,
                "addr:city": "Aurolzmünster",
                "addr:country": "AT",
                "addr:housenumber": "35",
                "addr:postcode": "4971",
                "addr:street": "Rieder Straße",
                "amenity": "post_office",
                "name": "Postpartner 4971, Unimarkt",
                "post_office": "post_partner",
                "postal_code": "4971",
                "source": "https://www.post.at/"
              },
              "geometry": {
                "type": "Point",
                "coordinates": [
                  13.4580266,
                  48.2448625
                ]
              }
            },
            {
              "type": "Feature",
              "properties": {
                "id": "340517564",
                "osm_type": "node",
                "lat": 48.3183564,
                "lon": 13.4320949,
                "addr:city": "Ort im Innkreis",
                "addr:country": "AT",
                "addr:housenumber": "32",
                "addr:place": "Ort im Innkreis",
                "addr:postcode": "4974",
                "amenity": "post_office",
                "name": "4974 Ort im Innkreis",
                "note": "Postpartner Firma Fussl",
                "opening_hours": "09:00-17:00",
                "operator": "Fussl Modestraße",
                "ref": "4974",
                "type": "Post.Partner"
              },
              "geometry": {
                "type": "Point",
                "coordinates": [
                  13.4320949,
                  48.3183564
                ]
              }
            },
            {
              "type": "Feature",
              "properties": {
                "id": "340517570",
                "osm_type": "node",
                "lat": 48.3491798,
                "lon": 13.4776844,
                "addr:city": "Eggerding",
                "addr:country": "AT",
                "addr:housenumber": "42",
                "addr:place": "Eggerding",
                "addr:postcode": "4773",
                "amenity": "post_office",
                "name": "Postpartner 4773, Gemeinde",
                "post_office": "post_partner",
                "postal_code": "4773",
                "source": "https://www.post.at/"
              },
              "geometry": {
                "type": "Point",
                "coordinates": [
                  13.4776844,
                  48.3491798
                ]
              }
            },
            {
              "type": "Feature",
              "properties": {
                "id": "340517644",
                "osm_type": "node",
                "lat": 48.3173339,
                "lon": 13.5134537,
                "amenity": "post_office",
                "name": "4772 Lambrechten",
                "postal_code": "4772",
                "ref": "4772",
                "type": "Post-Servicestelle"
              },
              "geometry": {
                "type": "Point",
                "coordinates": [
                  13.5134537,
                  48.3173339
                ]
              }
            },
            {
              "type": "Feature",
              "properties": {
                "id": "340520833",
                "osm_type": "node",
                "lat": 48.276035,
                "lon": 13.461289,
                "addr:city": "Utzenaich",
                "addr:country": "AT",
                "addr:housenumber": "16",
                "addr:postcode": "4972",
                "addr:street": "Hofmark",
                "amenity": "post_office",
                "name": "4972 Utzenaich",
                "type": "Post-Servicestelle"
              },
              "geometry": {
                "type": "Point",
                "coordinates": [
                  13.461289,
                  48.276035
                ]
              }
            },
            {
              "type": "Feature",
              "properties": {
                "id": "7594606040",
                "osm_type": "node",
                "lat": 48.2097805,
                "lon": 13.4874984,
                "addr:city": "Ried im Innkreis",
                "addr:country": "AT",
                "addr:housenumber": "7-9",
                "addr:postcode": "4910",
                "addr:street": "Roßmarkt",
                "amenity": "post_office",
                "check_date:opening_hours": "2025-05-06",
                "name": "Post Filiale 4910",
                "opening_hours": "Mo-Fr 08:00-12:00; Sa,Su,PH off, Mo-Fr 13:30-17:30",
                "operator": "Österreichische Post AG",
                "operator:wikidata": "Q1763505",
                "operator:wikipedia": "de:Österreichische Post",
                "website": "https://www.post.at",
                "wheelchair": "yes"
              },
              "geometry": {
                "type": "Point",
                "coordinates": [
                  13.4874984,
                  48.2097805
                ]
              }
            },
            {
              "type": "Feature",
              "properties": {
                "id": "8525841411",
                "osm_type": "node",
                "lat": 48.2940094,
                "lon": 13.4412153,
                "amenity": "post_office"
              },
              "geometry": {
                "type": "Point",
                "coordinates": [
                  13.4412153,
                  48.2940094
                ]
              }
            },
            {
              "type": "Feature",
              "properties": {
                "id": "340517352",
                "osm_type": "node",
                "lat": 48.3441991,
                "lon": 13.7712157,
                "addr:city": "Peuerbach",
                "addr:country": "AT",
                "addr:housenumber": "2",
                "addr:postcode": "4722",
                "addr:street": "Rathausplatz",
                "amenity": "post_office",
                "name": "Post Filiale 4722",
                "opening_hours": "Mo-Fr 08:00-12:00; Sa,Su,PH off",
                "operator": "Österreichische Post AG",
                "website": "https://www.post.at"
              },
              "geometry": {
                "type": "Point",
                "coordinates": [
                  13.7712157,
                  48.3441991
                ]
              }
            },
            {
              "type": "Feature",
              "properties": {
                "id": "340517710",
                "osm_type": "node",
                "lat": 48.2633676,
                "lon": 13.5758794,
                "addr:city": "Taiskirchen im Innkreis",
                "addr:country": "AT",
                "addr:housenumber": "29",
                "addr:postcode": "4753",
                "addr:street": "Hofmarkt",
                "amenity": "post_office",
                "name": "4753 Taiskirchen im Innkreis",
                "postal_code": "4753",
                "ref": "4753",
                "type": "Postfiliale"
              },
              "geometry": {
                "type": "Point",
                "coordinates": [
                  13.5758794,
                  48.2633676
                ]
              }
            },
            {
              "type": "Feature",
              "properties": {
                "id": "340520794",
                "osm_type": "node",
                "lat": 48.2073014,
                "lon": 13.6797173,
                "addr:city": "Rottenbach",
                "addr:country": "AT",
                "addr:housenumber": "52",
                "addr:place": "Rottenbach",
                "addr:postcode": "4681",
                "amenity": "post_office",
                "name": "Postpartner 4681, Land lebt auf",
                "post_office": "post_partner",
                "postal_code": "4681",
                "source": "https://www.post.at/"
              },
              "geometry": {
                "type": "Point",
                "coordinates": [
                  13.6797173,
                  48.2073014
                ]
              }
            },
            {
              "type": "Feature",
              "properties": {
                "id": "340520809",
                "osm_type": "node",
                "lat": 48.3168688,
                "lon": 13.6292505,
                "addr:city": "Zell an der Pram",
                "addr:country": "AT",
                "addr:housenumber": "26",
                "addr:postcode": "4755",
                "addr:street": "Hofmark",
                "amenity": "post_office",
                "name": "Postpartner 4755, Tabak Trafik Kasbauer",
                "opening_hours": "Mo-Fr 06:30-12:00,14:00-18:00; Sa 07:00-12:00",
                "post_office": "post_partner",
                "postal_code": "4755",
                "source": "https://www.post.at/"
              },
              "geometry": {
                "type": "Point",
                "coordinates": [
                  13.6292505,
                  48.3168688
                ]
              }
            },
            {
              "type": "Feature",
              "properties": {
                "id": "1551489204",
                "osm_type": "node",
                "lat": 48.2339497,
                "lon": 13.6048144,
                "amenity": "post_office",
                "post_office:type": "post_partner"
              },
              "geometry": {
                "type": "Point",
                "coordinates": [
                  13.6048144,
                  48.2339497
                ]
              }
            },
            {
              "type": "Feature",
              "properties": {
                "id": "11339396405",
                "osm_type": "node",
                "lat": 48.3525774,
                "lon": 13.5588033,
                "amenity": "post_office",
                "operator": "Österreichische Post AG",
                "operator:wikidata": "Q1763505"
              },
              "geometry": {
                "type": "Point",
                "coordinates": [
                  13.5588033,
                  48.3525774
                ]
              }
            },
            {
              "type": "Feature",
              "properties": {
                "id": "12159512058",
                "osm_type": "node",
                "lat": 48.3042056,
                "lon": 13.6331467,
                "amenity": "post_office",
                "name": "Postfiliale",
                "opening_hours": "Mo-Fr 09:00-12:00,14:00-17:00; Sa 09:00-12:00",
                "post_office": "post_partner"
              },
              "geometry": {
                "type": "Point",
                "coordinates": [
                  13.6331467,
                  48.3042056
                ]
              }
            }
          ],
          "children": []
        },
        {
          "bbox": {
            "south": 48.190694875,
            "west": 13.82261775,
            "north": 48.355971499999995,
            "east": 14.2994695
          },
          "poiCount": 33,
          "leafCount": 33,
          "averagePosition": [
            14.13935456060606,
            48.27980493636363
          ],
          "data": [
            {
              "type": "Feature",
              "properties": {
                "id": "293266566",
                "osm_type": "node",
                "lat": 48.3293783,
                "lon": 13.8569721,
                "addr:city": "Waizenkirchen",
                "addr:country": "AT",
                "addr:housenumber": "3",
                "addr:postcode": "4730",
                "addr:street": "Marktplatz",
                "amenity": "post_office",
                "name": "Postpartner Waizenkirchen",
                "operator": "Hinterberger Ursula",
                "postal_code": "4730",
                "ref": "4730",
                "type": "Postfiliale",
                "website": "https://www.post.at/suche/standortsuche.php/index/filiale/4730"
              },
              "geometry": {
                "type": "Point",
                "coordinates": [
                  13.8569721,
                  48.3293783
                ]
              }
            },
            {
              "type": "Feature",
              "properties": {
                "id": "340515472",
                "osm_type": "node",
                "lat": 48.313688,
                "lon": 13.9049025,
                "addr:city": "Prambachkirchen",
                "addr:country": "AT",
                "addr:housenumber": "37",
                "addr:postcode": "4731",
                "addr:street": "Hauptstraße",
                "amenity": "post_office",
                "name": "Postpartner 4731, SPAR",
                "post_office": "post_partner",
                "postal_code": "4731",
                "source": "https://www.post.at/"
              },
              "geometry": {
                "type": "Point",
                "coordinates": [
                  13.9049025,
                  48.313688
                ]
              }
            },
            {
              "type": "Feature",
              "properties": {
                "id": "340517832",
                "osm_type": "node",
                "lat": 48.2223285,
                "lon": 13.8664406,
                "addr:city": "Schlüßlberg",
                "addr:country": "AT",
                "addr:housenumber": "1",
                "addr:postcode": "4707",
                "addr:street": "Marktplatz",
                "amenity": "post_office",
                "name": "Postpartner 4707, Marktgemeinde",
                "post_office": "post_partner",
                "postal_code": "4707",
                "source": "https://www.post.at/"
              },
              "geometry": {
                "type": "Point",
                "coordinates": [
                  13.8664406,
                  48.2223285
                ]
              }
            },
            {
              "type": "Feature",
              "properties": {
                "id": "340517914",
                "osm_type": "node",
                "lat": 48.2545186,
                "lon": 13.9713925,
                "addr:city": "Scharten",
                "addr:country": "AT",
                "addr:housenumber": "100",
                "addr:place": "Breitenaich",
                "addr:postcode": "4612",
                "amenity": "post_office",
                "name": "Postpartner 4075, Land lebt auf Greinecker",
                "note": "position along the right street",
                "post_office": "post_partner",
                "postal_code": "4075",
                "source": "https://www.post.at/"
              },
              "geometry": {
                "type": "Point",
                "coordinates": [
                  13.9713925,
                  48.2545186
                ]
              }
            },
            {
              "type": "Feature",
              "properties": {
                "id": "340520580",
                "osm_type": "node",
                "lat": 48.2047102,
                "lon": 13.9552113,
                "addr:city": "Krenglbach",
                "addr:country": "AT",
                "addr:housenumber": "4",
                "addr:postcode": "4631",
                "addr:street": "Krenglbacher Straße",
                "amenity": "post_office",
                "name": "4631 Krenglbach",
                "operator": "Spar",
                "postal_code": "4631",
                "ref": "4631",
                "type": "Post.Partner"
              },
              "geometry": {
                "type": "Point",
                "coordinates": [
                  13.9552113,
                  48.2047102
                ]
              }
            },
            {
              "type": "Feature",
              "properties": {
                "id": "3137155696",
                "osm_type": "node",
                "lat": 48.3507792,
                "lon": 13.9955585,
                "amenity": "post_office",
                "name": "DPD Paketshop",
                "operator": "Lanzersdorfer Josef",
                "post_office:type": "DPD Paketshop"
              },
              "geometry": {
                "type": "Point",
                "coordinates": [
                  13.9955585,
                  48.3507792
                ]
              }
            },
            {
              "type": "Feature",
              "properties": {
                "id": "3137479927",
                "osm_type": "node",
                "lat": 48.2087227,
                "lon": 13.9552185,
                "amenity": "post_office",
                "name": "DPD Paketshop",
                "operator": "Speed Tec GmbH",
                "post_office:type": "DPD Paketshop"
              },
              "geometry": {
                "type": "Point",
                "coordinates": [
                  13.9552185,
                  48.2087227
                ]
              }
            },
            {
              "type": "Feature",
              "properties": {
                "id": "11645454420",
                "osm_type": "node",
                "lat": 48.2242241,
                "lon": 14.0228823,
                "addr:city": "Buchkirchen",
                "addr:housenumber": "11",
                "addr:postcode": "4611",
                "addr:street": "Hauptstraße",
                "amenity": "post_office",
                "name": "Postpartner Buchkirchen",
                "opening_hours": "Mo-Fr 08:00-12:00, Do 14:00-16:30",
                "operator": "Marktgemeinde Buchkirchen"
              },
              "geometry": {
                "type": "Point",
                "coordinates": [
                  14.0228823,
                  48.2242241
                ]
              }
            },
            {
              "type": "Feature",
              "properties": {
                "id": "206243230",
                "osm_type": "node",
                "lat": 48.3055626,
                "lon": 14.2888411,
                "addr:city": "Linz",
                "addr:housenumber": "1",
                "addr:postcode": "4010",
                "addr:street": "Domgasse",
                "amenity": "post_office",
                "name": "Post Filiale 4010",
                "opening_hours": "Mo-Fr 08:00-18:00; Sa,Su,PH off",
                "operator": "Österreichische Post AG",
                "website": "https://www.post.at"
              },
              "geometry": {
                "type": "Point",
                "coordinates": [
                  14.2888411,
                  48.3055626
                ]
              }
            },
            {
              "type": "Feature",
              "properties": {
                "id": "255110462",
                "osm_type": "node",
                "lat": 48.27104,
                "lon": 14.2824444,
                "addr:city": "Linz",
                "addr:housenumber": "65",
                "addr:postcode": "4025",
                "addr:street": "Landwiedstraße",
                "amenity": "post_office",
                "description": "Paket-Versandschlusszeiten: Mo-Fr 17:00",
                "image": "https://i.imgur.com/zPe5kmD.jpg",
                "name": "Post Filiale 4025",
                "opening_hours": "Mo-Fr 08:00-12:00,14:00-17:30; Sa,Su,PH off",
                "operator": "Österreichische Post AG",
                "operator:wikidata": "Q1763505",
                "phone": "+43800010100",
                "website": "https://www.post.at",
                "wheelchair": "yes"
              },
              "geometry": {
                "type": "Point",
                "coordinates": [
                  14.2824444,
                  48.27104
                ]
              }
            },
            {
              "type": "Feature",
              "properties": {
                "id": "262213744",
                "osm_type": "node",
                "lat": 48.3105069,
                "lon": 14.2336575,
                "addr:city": "Puchenau",
                "addr:country": "AT",
                "addr:housenumber": "1c",
                "addr:postcode": "4048",
                "addr:street": "Golfplatzstraße",
                "amenity": "post_office",
                "name": "Tabaktrafik + Post-Partner",
                "opening_hours": "Mo-Fr 08:00-17:00",
                "type": "Post.Partner"
              },
              "geometry": {
                "type": "Point",
                "coordinates": [
                  14.2336575,
                  48.3105069
                ]
              }
            },
            {
              "type": "Feature",
              "properties": {
                "id": "276645468",
                "osm_type": "node",
                "lat": 48.3504268,
                "lon": 14.1580256,
                "addr:city": "Walding",
                "addr:country": "AT",
                "addr:housenumber": "19a",
                "addr:postcode": "4111",
                "addr:street": "Hauptstraße",
                "amenity": "post_office",
                "name": "Walding",
                "ref": "4111",
                "type": "Postfiliale"
              },
              "geometry": {
                "type": "Point",
                "coordinates": [
                  14.1580256,
                  48.3504268
                ]
              }
            },
            {
              "type": "Feature",
              "properties": {
                "id": "277298331",
                "osm_type": "node",
                "lat": 48.3147726,
                "lon": 14.2825692,
                "addr:city": "Linz",
                "addr:housenumber": "14",
                "addr:postcode": "4040",
                "addr:street": "Schmiedegasse",
                "amenity": "post_office",
                "layer": "0",
                "level": "0",
                "name": "Post Filiale 4040",
                "opening_hours": "Mo-Fr 08:00-18:00; Sa 09:00-12:00; Su,PH off",
                "operator": "Österreichische Post AG",
                "operator:wikidata": "Q1763505",
                "website": "https://www.post.at",
                "wheelchair": "yes"
              },
              "geometry": {
                "type": "Point",
                "coordinates": [
                  14.2825692,
                  48.3147726
                ]
              }
            },
            {
              "type": "Feature",
              "properties": {
                "id": "340517775",
                "osm_type": "node",
                "lat": 48.2487339,
                "lon": 14.0451866,
                "addr:city": "Scharten",
                "addr:country": "AT",
                "addr:housenumber": "38",
                "addr:place": "Scharten",
                "addr:postcode": "4612",
                "amenity": "post_office",
                "name": "Postpartner 4612, Bäckerei Mitterbauer",
                "post_office": "post_partner",
                "postal_code": "4612",
                "source": "https://www.post.at/"
              },
              "geometry": {
                "type": "Point",
                "coordinates": [
                  14.0451866,
                  48.2487339
                ]
              }
            },
            {
              "type": "Feature",
              "properties": {
                "id": "340517806",
                "osm_type": "node",
                "lat": 48.2043005,
                "lon": 14.2506947,
                "addr:city": "Haid",
                "addr:country": "AT",
                "addr:housenumber": "53",
                "addr:postcode": "4053",
                "addr:street": "Hauptplatz",
                "amenity": "post_office",
                "name": "Post Filiale 4053",
                "opening_hours": "Mo-Fr 08:00-12:00, 14:00-17:30; Sa,Su,PH off",
                "operator": "Österreichische Post AG",
                "website": "https://www.post.at"
              },
              "geometry": {
                "type": "Point",
                "coordinates": [
                  14.2506947,
                  48.2043005
                ]
              }
            },
            {
              "type": "Feature",
              "properties": {
                "id": "340517809",
                "osm_type": "node",
                "lat": 48.2435864,
                "lon": 14.2348288,
                "addr:city": "Pasching",
                "addr:housenumber": "7",
                "addr:postcode": "4066",
                "addr:street": "Plus-Kauf-Straße",
                "amenity": "post_office",
                "level": "0",
                "name": "Post Filiale 4066",
                "opening_hours": "Mo-Fr 09:00-18:00; Sa,Su,PH off",
                "operator": "Österreichische Post AG",
                "operator:wikidata": "Q1763505",
                "website": "https://www.post.at"
              },
              "geometry": {
                "type": "Point",
                "coordinates": [
                  14.2348288,
                  48.2435864
                ]
              }
            },
            {
              "type": "Feature",
              "properties": {
                "id": "340519657",
                "osm_type": "node",
                "lat": 48.346056,
                "lon": 14.0527628,
                "amenity": "post_office",
                "name": "4101 Feldkirchen an der Donau",
                "postal_code": "4101",
                "ref": "4101",
                "type": "Postfiliale"
              },
              "geometry": {
                "type": "Point",
                "coordinates": [
                  14.0527628,
                  48.346056
                ]
              }
            },
            {
              "type": "Feature",
              "properties": {
                "id": "586908255",
                "osm_type": "node",
                "lat": 48.3323702,
                "lon": 14.2893751,
                "addr:city": "Linz",
                "addr:housenumber": "123",
                "addr:postcode": "4040",
                "addr:street": "Leonfeldner Straße",
                "amenity": "post_office",
                "contact:phone": "+43 577677-4044",
                "contact:website": "http://www.post.at",
                "name": "4044 Linz",
                "opening_hours": "Mo-Th 09:00-12:00, Tu,Th 15:00-18:00, Fr 09:00-13:00",
                "operator": "Österreichische Post AG",
                "operator:wikidata": "Q1763505",
                "postal_code": "4044",
                "ref": "4044",
                "type": "Postfiliale",
                "wheelchair": "yes"
              },
              "geometry": {
                "type": "Point",
                "coordinates": [
                  14.2893751,
                  48.3323702
                ]
              }
            },
            {
              "type": "Feature",
              "properties": {
                "id": "1039596566",
                "osm_type": "node",
                "lat": 48.2876295,
                "lon": 14.107025,
                "amenity": "post_office",
                "name": "Schatzl"
              },
              "geometry": {
                "type": "Point",
                "coordinates": [
                  14.107025,
                  48.2876295
                ]
              }
            },
            {
              "type": "Feature",
              "properties": {
                "id": "1079123279",
                "osm_type": "node",
                "lat": 48.2839679,
                "lon": 14.1466214,
                "amenity": "post_office",
                "wheelchair": "yes"
              },
              "geometry": {
                "type": "Point",
                "coordinates": [
                  14.1466214,
                  48.2839679
                ]
              }
            },
            {
              "type": "Feature",
              "properties": {
                "id": "1602357558",
                "osm_type": "node",
                "lat": 48.3334113,
                "lon": 14.1755724,
                "addr:city": "Ottensheim",
                "addr:country": "AT",
                "addr:housenumber": "7",
                "addr:postcode": "4100",
                "addr:street": "Bahnhofstraße",
                "amenity": "post_office",
                "name": "Post Filiale 4100",
                "opening_hours": "Mo-Fr 08:00-12:00,14:00-17:00; Sa,Su,PH off",
                "operator": "Österreichische Post AG",
                "website": "https://www.post.at"
              },
              "geometry": {
                "type": "Point",
                "coordinates": [
                  14.1755724,
                  48.3334113
                ]
              }
            },
            {
              "type": "Feature",
              "properties": {
                "id": "1602438145",
                "osm_type": "node",
                "lat": 48.2567774,
                "lon": 14.1615718,
                "amenity": "post_office"
              },
              "geometry": {
                "type": "Point",
                "coordinates": [
                  14.1615718,
                  48.2567774
                ]
              }
            },
            {
              "type": "Feature",
              "properties": {
                "id": "2713885437",
                "osm_type": "node",
                "lat": 48.2052005,
                "lon": 14.1650444,
                "addr:city": "Hörsching",
                "addr:country": "AT",
                "addr:housenumber": "28",
                "addr:postcode": "4063",
                "addr:street": "Logistikpark",
                "amenity": "post_office",
                "entrance": "main",
                "operator": "APS Austria Packet System GesmbH"
              },
              "geometry": {
                "type": "Point",
                "coordinates": [
                  14.1650444,
                  48.2052005
                ]
              }
            },
            {
              "type": "Feature",
              "properties": {
                "id": "2713961758",
                "osm_type": "node",
                "lat": 48.2031375,
                "lon": 14.1598063,
                "amenity": "post_office",
                "name": "DPD Depot 0624",
                "operator": "Schachinger Paketdienst",
                "post_office:type": "DPD Paketshop"
              },
              "geometry": {
                "type": "Point",
                "coordinates": [
                  14.1598063,
                  48.2031375
                ]
              }
            },
            {
              "type": "Feature",
              "properties": {
                "id": "3137539032",
                "osm_type": "node",
                "lat": 48.2790943,
                "lon": 14.0975638,
                "addr:city": "Alkoven",
                "addr:country": "AT",
                "addr:housenumber": "4",
                "addr:place": "Weidach",
                "addr:postcode": "4072",
                "amenity": "post_office",
                "brand": "DPD",
                "brand:wikidata": "Q541030",
                "name": "DPD Paketshop",
                "operator": "Reifen Fischer",
                "post_office": "DPD Paketshop"
              },
              "geometry": {
                "type": "Point",
                "coordinates": [
                  14.0975638,
                  48.2790943
                ]
              }
            },
            {
              "type": "Feature",
              "properties": {
                "id": "3934254583",
                "osm_type": "node",
                "lat": 48.2793186,
                "lon": 14.2804128,
                "addr:city": "Linz",
                "addr:housenumber": "98",
                "addr:postcode": "4020",
                "addr:street": "Unionstraße",
                "alt_name": "DPD Paketdienst Abholstelle",
                "amenity": "post_office",
                "brand": "DPD",
                "brand:wikidata": "Q541030",
                "name": "DPD Pickup Paketshop",
                "operator": "kidoBOXX",
                "post_office:type": "DPD Pickup"
              },
              "geometry": {
                "type": "Point",
                "coordinates": [
                  14.2804128,
                  48.2793186
                ]
              }
            },
            {
              "type": "Feature",
              "properties": {
                "id": "4596363285",
                "osm_type": "node",
                "lat": 48.2714372,
                "lon": 14.2923748,
                "amenity": "post_office",
                "contact:website": "http://www.post.at",
                "name": "4028 Linz",
                "opening_hours": "Mo-Fr 08:00-18:00",
                "operator": "Trafik am Bindermichl",
                "postal_code": "4028",
                "ref": "4028",
                "wheelchair": "yes",
                "wikidata": "Q1763505",
                "wikipedia": "de:Österreichische Post"
              },
              "geometry": {
                "type": "Point",
                "coordinates": [
                  14.2923748,
                  48.2714372
                ]
              }
            },
            {
              "type": "Feature",
              "properties": {
                "id": "4978661597",
                "osm_type": "node",
                "lat": 48.3507316,
                "lon": 14.1596825,
                "addr:city": "Walding",
                "addr:country": "AT",
                "addr:housenumber": "1",
                "addr:postcode": "4111",
                "addr:street": "Gramastettner Straße",
                "amenity": "post_office",
                "name": "Zwirn & Co",
                "opening_hours": "Mo,Tu,Th,Fr 09:00-12:00, 14:00-18:00; We,Sa 09:00-12:00",
                "operator": "Hermes"
              },
              "geometry": {
                "type": "Point",
                "coordinates": [
                  14.1596825,
                  48.3507316
                ]
              }
            },
            {
              "type": "Feature",
              "properties": {
                "id": "9483586797",
                "osm_type": "node",
                "lat": 48.2705245,
                "lon": 14.2928096,
                "amenity": "post_office",
                "brand": "DPD",
                "brand:wikidata": "Q541030",
                "name": "DPD Paketshop",
                "opening_hours": "Mo-Fr 08:00-19:00; Sa 08:00-18:00",
                "operator": "F&S Internationaler Supermarkt",
                "post_office:type": "DPD Paketshop"
              },
              "geometry": {
                "type": "Point",
                "coordinates": [
                  14.2928096,
                  48.2705245
                ]
              }
            },
            {
              "type": "Feature",
              "properties": {
                "id": "10103584902",
                "osm_type": "node",
                "lat": 48.3131462,
                "lon": 14.2816219,
                "amenity": "post_office",
                "brand": "Mail Boxes Etc.",
                "brand:wikidata": "Q1139182",
                "check_date": "2022-10-15",
                "name": "Mail Boxes Etc.",
                "shop": "copyshop"
              },
              "geometry": {
                "type": "Point",
                "coordinates": [
                  14.2816219,
                  48.3131462
                ]
              }
            },
            {
              "type": "Feature",
              "properties": {
                "id": "11176056411",
                "osm_type": "node",
                "lat": 48.2911828,
                "lon": 14.2883271,
                "addr:city": "Linz",
                "addr:housenumber": "29",
                "addr:postcode": "4020",
                "addr:street": "Weingartshofstraße",
                "amenity": "post_office",
                "name": "Post Filiale 4020",
                "opening_hours": "Mo-Fr 08:00-18:00; Sa 09:00-12:00; Su,PH off",
                "operator": "Österreichische Post AG",
                "operator:wikidata": "Q1763505",
                "phone": "+43 800 010 100"
              },
              "geometry": {
                "type": "Point",
                "coordinates": [
                  14.2883271,
                  48.2911828
                ]
              }
            },
            {
              "type": "Feature",
              "properties": {
                "id": "11388456581",
                "osm_type": "node",
                "lat": 48.2257498,
                "lon": 14.1821577,
                "addr:housenumber": "9",
                "addr:street": "Mozartstraße",
                "amenity": "post_office",
                "name": "Postpartner, Evicsbike",
                "opening_hours": "Mo-Fr 08:00-12:00, 13:00-18:00; Sa 08:00-12:00",
                "website": "https://www.post.at/"
              },
              "geometry": {
                "type": "Point",
                "coordinates": [
                  14.1821577,
                  48.2257498
                ]
              }
            },
            {
              "type": "Feature",
              "properties": {
                "id": "12468359150",
                "osm_type": "node",
                "lat": 48.3465483,
                "lon": 14.1611449,
                "addr:city": "Walding",
                "addr:country": "AT",
                "addr:housenumber": "5",
                "addr:postcode": "4111",
                "addr:street": "Kaufpark",
                "amenity": "post_office",
                "name": "Post Partner",
                "opening_hours": "Mo-Fr 08:00-12:00,13:00-18:00; Sa 08:00-12:00"
              },
              "geometry": {
                "type": "Point",
                "coordinates": [
                  14.1611449,
                  48.3465483
                ]
              }
            }
          ],
          "children": []
        }
      ]
    },
    {
      "bbox": {
        "south": 48.02541825,
        "west": 14.2994695,
        "north": 48.355971499999995,
        "east": 15.253173
      },
      "poiCount": 75,
      "leafCount": 0,
      "averagePosition": [
        14.704126685333334,
        48.19285672133333
      ],
      "data": [],
      "children": [
        {
          "bbox": {
            "south": 48.02541825,
            "west": 14.2994695,
            "north": 48.190694875,
            "east": 14.77632125
          },
          "poiCount": 16,
          "leafCount": 16,
          "averagePosition": [
            14.5127511625,
            48.099682525
          ],
          "data": [
            {
              "type": "Feature",
              "properties": {
                "id": "251885583",
                "osm_type": "node",
                "lat": 48.1602772,
                "lon": 14.3384648,
                "addr:city": "Niederneukirchen",
                "addr:country": "AT",
                "addr:housenumber": "1",
                "addr:postcode": "4491",
                "addr:street": "Dorfplatz",
                "amenity": "post_office",
                "name": "4491 Niederneukirchen",
                "opening_hours": "Mo,We,Fr 08:00-11:30; Tu 08:00-11:30,16:00-17:30; Th 07:00-11:30; PH off",
                "postal_code": "4491",
                "ref": "4491",
                "type": "Postpartner"
              },
              "geometry": {
                "type": "Point",
                "coordinates": [
                  14.3384648,
                  48.1602772
                ]
              }
            },
            {
              "type": "Feature",
              "properties": {
                "id": "270110294",
                "osm_type": "node",
                "lat": 48.037937,
                "lon": 14.418769,
                "addr:city": "Steyr",
                "addr:country": "AT",
                "addr:housenumber": "1",
                "addr:postcode": "4402",
                "addr:street": "Grünmarkt",
                "amenity": "post_office",
                "name": "Post Filiale 4402",
                "opening_hours": "Mo-Fr 08:00-12:00, 14:00-17:30; Sa,Su,PH off",
                "operator": "Österreichische Post AG",
                "operator:wikidata": "Q1763505",
                "website": "https://www.post.at",
                "wheelchair": "yes"
              },
              "geometry": {
                "type": "Point",
                "coordinates": [
                  14.418769,
                  48.037937
                ]
              }
            },
            {
              "type": "Feature",
              "properties": {
                "id": "316229307",
                "osm_type": "node",
                "lat": 48.049962,
                "lon": 14.3353725,
                "addr:city": "Neuzeug",
                "addr:country": "AT",
                "addr:housenumber": "71a",
                "addr:postcode": "4523",
                "addr:street": "Sierninghofenstraße",
                "amenity": "post_office",
                "name": "4523 Neuzeug",
                "postal_code": "4523",
                "ref": "4523",
                "type": "Post.Partner"
              },
              "geometry": {
                "type": "Point",
                "coordinates": [
                  14.3353725,
                  48.049962
                ]
              }
            },
            {
              "type": "Feature",
              "properties": {
                "id": "340518124",
                "osm_type": "node",
                "lat": 48.0515674,
                "lon": 14.4415946,
                "amenity": "post_office",
                "name": "4405 Steyr-Münichholz",
                "postal_code": "4405",
                "ref": "4405",
                "type": "Postfiliale"
              },
              "geometry": {
                "type": "Point",
                "coordinates": [
                  14.4415946,
                  48.0515674
                ]
              }
            },
            {
              "type": "Feature",
              "properties": {
                "id": "340518142",
                "osm_type": "node",
                "lat": 48.076781,
                "lon": 14.4598325,
                "amenity": "post_office",
                "name": "4431 Haidershofen",
                "postal_code": "4431",
                "ref": "4431",
                "type": "Postfiliale"
              },
              "geometry": {
                "type": "Point",
                "coordinates": [
                  14.4598325,
                  48.076781
                ]
              }
            },
            {
              "type": "Feature",
              "properties": {
                "id": "340519703",
                "osm_type": "node",
                "lat": 48.1257344,
                "lon": 14.4825108,
                "addr:city": "Ernsthofen",
                "addr:country": "AT",
                "addr:housenumber": "23",
                "addr:postcode": "4432",
                "addr:street": "Hauptstraße",
                "amenity": "post_office",
                "name": "Postpartner 4432, Nissan Autopark Doppelmeier",
                "post_office": "post_partner",
                "postal_code": "4432",
                "source": "https://www.post.at/"
              },
              "geometry": {
                "type": "Point",
                "coordinates": [
                  14.4825108,
                  48.1257344
                ]
              }
            },
            {
              "type": "Feature",
              "properties": {
                "id": "340520468",
                "osm_type": "node",
                "lat": 48.139661,
                "lon": 14.3783375,
                "addr:city": "Hofkirchen im Traunkreis",
                "addr:country": "AT",
                "addr:housenumber": "2",
                "addr:postcode": "4492",
                "addr:street": "Thannstraße",
                "amenity": "post_office",
                "fixme": "location",
                "name": "4492 Hofkirchen im Traunkreis",
                "postal_code": "4492",
                "ref": "4492",
                "type": "Post.Partner"
              },
              "geometry": {
                "type": "Point",
                "coordinates": [
                  14.3783375,
                  48.139661
                ]
              }
            },
            {
              "type": "Feature",
              "properties": {
                "id": "340520474",
                "osm_type": "node",
                "lat": 48.086248,
                "lon": 14.3693743,
                "amenity": "post_office",
                "name": "Postpartner 4493, Raiffeisen Lagerhaus",
                "post_office": "post_partner",
                "postal_code": "4493",
                "source": "https://www.post.at/"
              },
              "geometry": {
                "type": "Point",
                "coordinates": [
                  14.3693743,
                  48.086248
                ]
              }
            },
            {
              "type": "Feature",
              "properties": {
                "id": "340520494",
                "osm_type": "node",
                "lat": 48.1476585,
                "lon": 14.4234889,
                "addr:city": "Hargelsberg",
                "addr:country": "AT",
                "addr:housenumber": "1",
                "addr:postcode": "4483",
                "addr:street": "Gemeindeplatz",
                "amenity": "post_office",
                "name": "4483 Hargelsberg",
                "opening_hours": "Mo,Tu,Th,Fr 07:00-12:00, Mo,Th 15:00-17:30",
                "postal_code": "4483",
                "ref": "4483",
                "type": "Post.Partner"
              },
              "geometry": {
                "type": "Point",
                "coordinates": [
                  14.4234889,
                  48.1476585
                ]
              }
            },
            {
              "type": "Feature",
              "properties": {
                "id": "3238700572",
                "osm_type": "node",
                "lat": 48.1408699,
                "lon": 14.4645773,
                "amenity": "post_office",
                "collection_times": "Mo-Sa 08:00-12:00,14:00-18:00"
              },
              "geometry": {
                "type": "Point",
                "coordinates": [
                  14.4645773,
                  48.1408699
                ]
              }
            },
            {
              "type": "Feature",
              "properties": {
                "id": "340517969",
                "osm_type": "node",
                "lat": 48.1114763,
                "lon": 14.5651988,
                "addr:city": "Haag",
                "addr:country": "AT",
                "addr:housenumber": "6",
                "addr:postcode": "3350",
                "addr:street": "Linzer Straße",
                "amenity": "post_office",
                "name": "Postpartner 3350, Tabak Trafik Schweinschwaller",
                "post_office": "post_partner",
                "postal_code": "3350",
                "source": "https://www.post.at/"
              },
              "geometry": {
                "type": "Point",
                "coordinates": [
                  14.5651988,
                  48.1114763
                ]
              }
            },
            {
              "type": "Feature",
              "properties": {
                "id": "340518018",
                "osm_type": "node",
                "lat": 48.0729995,
                "lon": 14.7530165,
                "addr:city": "Aschbach-Markt",
                "addr:country": "AT",
                "addr:housenumber": "25",
                "addr:postcode": "3361",
                "addr:street": "Mittlerer Markt",
                "amenity": "post_office",
                "check_date": "2025-04-14",
                "name": "Postpartner 3361, Papier Spiel Settele",
                "post_office": "post_partner",
                "source": "https://www.post.at/"
              },
              "geometry": {
                "type": "Point",
                "coordinates": [
                  14.7530165,
                  48.0729995
                ]
              }
            },
            {
              "type": "Feature",
              "properties": {
                "id": "340518109",
                "osm_type": "node",
                "lat": 48.0365097,
                "lon": 14.6527229,
                "addr:city": "Seitenstetten",
                "addr:housenumber": "2",
                "addr:postcode": "3353",
                "addr:street": "Steyrer Straße",
                "amenity": "post_office",
                "contact:phone": "+43 7477 424 59",
                "name": "Postpartner 3353 Seitenstetten",
                "opening_hours": "Mo-Fr 07:30-18:00; Sa 07:30-12:00",
                "operator": "Fa. Lehner KG",
                "postal_code": "3353",
                "ref": "3353",
                "type": "Postfiliale"
              },
              "geometry": {
                "type": "Point",
                "coordinates": [
                  14.6527229,
                  48.0365097
                ]
              }
            },
            {
              "type": "Feature",
              "properties": {
                "id": "340519755",
                "osm_type": "node",
                "lat": 48.1852611,
                "lon": 14.7114982,
                "addr:city": "Mitterkirchen",
                "addr:housenumber": "50/2",
                "addr:postcode": "4343",
                "addr:street": "Mitterkirchen",
                "amenity": "post_office",
                "name": "4343 Mitterkirchen",
                "ref": "4343",
                "type": "Postfiliale"
              },
              "geometry": {
                "type": "Point",
                "coordinates": [
                  14.7114982,
                  48.1852611
                ]
              }
            },
            {
              "type": "Feature",
              "properties": {
                "id": "340520654",
                "osm_type": "node",
                "lat": 48.1450989,
                "lon": 14.6411366,
                "addr:city": "Strengberg",
                "addr:country": "AT",
                "addr:housenumber": "53",
                "addr:postcode": "3314",
                "addr:street": "Hauptstraße",
                "amenity": "post_office",
                "name": "Postpartner 3314, Eni Tankstelle",
                "post_office": "post_partner",
                "postal_code": "3314",
                "source": "https://www.post.at/"
              },
              "geometry": {
                "type": "Point",
                "coordinates": [
                  14.6411366,
                  48.1450989
                ]
              }
            },
            {
              "type": "Feature",
              "properties": {
                "id": "4495340691",
                "osm_type": "node",
                "lat": 48.0268785,
                "lon": 14.7681234,
                "addr:city": "Kematen an der Ybbs",
                "addr:housenumber": "28",
                "addr:postcode": "3331",
                "addr:street": "1. Straße",
                "amenity": "post_office",
                "name": "Postpartner",
                "opening_hours": "Mo-Fr 08:00-12:00, 14:30-18:00; Sa 09:00-12:00",
                "operator": "Expert Ostermann",
                "post_office:type": "post_partner",
                "source": "Ostermann"
              },
              "geometry": {
                "type": "Point",
                "coordinates": [
                  14.7681234,
                  48.0268785
                ]
              }
            }
          ],
          "children": []
        },
        {
          "bbox": {
            "south": 48.02541825,
            "west": 14.77632125,
            "north": 48.190694875,
            "east": 15.253173
          },
          "poiCount": 21,
          "leafCount": 21,
          "averagePosition": [
            14.986739247619047,
            48.11444048571428
          ],
          "data": [
            {
              "type": "Feature",
              "properties": {
                "id": "280090103",
                "osm_type": "node",
                "lat": 48.1218815,
                "lon": 14.8795701,
                "addr:city": "Amstetten",
                "addr:country": "AT",
                "addr:housenumber": "62",
                "addr:postcode": "3300",
                "addr:street": "Graben",
                "amenity": "post_office",
                "name": "Post Filiale 3300",
                "opening_hours": "Mo-Fr 08:00-18:00; Sa 09:00-12:00; Su,PH off",
                "operator": "Österreichische Post AG",
                "website": "https://www.post.at",
                "wheelchair": "yes"
              },
              "geometry": {
                "type": "Point",
                "coordinates": [
                  14.8795701,
                  48.1218815
                ]
              }
            },
            {
              "type": "Feature",
              "properties": {
                "id": "340518291",
                "osm_type": "node",
                "lat": 48.1212972,
                "lon": 14.8694063,
                "addr:city": "Amstetten",
                "addr:country": "AT",
                "addr:housenumber": "1",
                "addr:postcode": "3300",
                "addr:street": "Waidhofner Straße",
                "amenity": "post_office",
                "fixme": "exact position",
                "name": "Postpartner 3303, MOSTLAND eGen",
                "post_office": "post_partner",
                "postal_code": "3302",
                "source": "https://www.post.at/"
              },
              "geometry": {
                "type": "Point",
                "coordinates": [
                  14.8694063,
                  48.1212972
                ]
              }
            },
            {
              "type": "Feature",
              "properties": {
                "id": "340518294",
                "osm_type": "node",
                "lat": 48.1300928,
                "lon": 14.9551101,
                "addr:city": "St. Georgen am Ybbsfelde",
                "addr:country": "AT",
                "addr:housenumber": "4",
                "addr:postcode": "3304",
                "addr:street": "Marktplatz",
                "amenity": "post_office",
                "name": "Postpartner 3304, Traumringstudio",
                "post_office": "post_partner",
                "postal_code": "3304",
                "source": "https://www.post.at/"
              },
              "geometry": {
                "type": "Point",
                "coordinates": [
                  14.9551101,
                  48.1300928
                ]
              }
            },
            {
              "type": "Feature",
              "properties": {
                "id": "340518308",
                "osm_type": "node",
                "lat": 48.1747798,
                "lon": 14.830941,
                "addr:city": "Ardagger",
                "addr:country": "AT",
                "addr:housenumber": "2",
                "addr:place": "Markt",
                "addr:postcode": "3321",
                "amenity": "post_office",
                "name": "Postpartner 3321, Renault Autohaus Schnabel",
                "post_office": "post_partner",
                "postal_code": "3321",
                "source": "https://www.post.at/",
                "wheelchair": "no"
              },
              "geometry": {
                "type": "Point",
                "coordinates": [
                  14.830941,
                  48.1747798
                ]
              }
            },
            {
              "type": "Feature",
              "properties": {
                "id": "340518327",
                "osm_type": "node",
                "lat": 48.1510801,
                "lon": 14.8943277,
                "addr:city": "Viehdorf",
                "addr:country": "AT",
                "addr:housenumber": "33",
                "addr:postcode": "3322",
                "addr:street": "Dorfstraße",
                "amenity": "post_office",
                "name": "Postpartner 3322, Nah & Frisch Honeder",
                "post_office": "post_partner",
                "postal_code": "3322",
                "source": "https://www.post.at/"
              },
              "geometry": {
                "type": "Point",
                "coordinates": [
                  14.8943277,
                  48.1510801
                ]
              }
            },
            {
              "type": "Feature",
              "properties": {
                "id": "340520669",
                "osm_type": "node",
                "lat": 48.0576355,
                "lon": 14.8554436,
                "addr:city": "Neuhofen an der Ybbs",
                "addr:country": "AT",
                "addr:housenumber": "5",
                "addr:postcode": "3364",
                "addr:street": "Marktplatz",
                "amenity": "post_office",
                "name": "Postpartner 3364, SPAR Kogler",
                "post_office": "post_partner",
                "postal_code": "3364",
                "source": "https://www.post.at/"
              },
              "geometry": {
                "type": "Point",
                "coordinates": [
                  14.8554436,
                  48.0576355
                ]
              }
            },
            {
              "type": "Feature",
              "properties": {
                "id": "1995210889",
                "osm_type": "node",
                "lat": 48.0745885,
                "lon": 14.8172337,
                "addr:city": "Hausmening",
                "addr:country": "AT",
                "addr:housenumber": "11",
                "addr:postcode": "3363",
                "addr:street": "Bahnhofstraße",
                "amenity": "post_office",
                "name": "Post-Partner 3363 Ulmerfeld-Hausmening",
                "wheelchair": "yes"
              },
              "geometry": {
                "type": "Point",
                "coordinates": [
                  14.8172337,
                  48.0745885
                ]
              }
            },
            {
              "type": "Feature",
              "properties": {
                "id": "2672994578",
                "osm_type": "node",
                "lat": 48.0960327,
                "lon": 14.7990679,
                "addr:city": "Mauer bei Amstetten",
                "addr:country": "AT",
                "addr:housenumber": "26",
                "addr:postcode": "3362",
                "addr:street": "Hauptstraße",
                "amenity": "post_office",
                "contact:phone": "+43747553204",
                "name": "Post-Partner 3362 Mauer-Öhling",
                "opening_hours": "Mo-Fr 06:30-12:30,14:00-18:30; Sa 6:30-12:30; Su off",
                "ref": "3362"
              },
              "geometry": {
                "type": "Point",
                "coordinates": [
                  14.7990679,
                  48.0960327
                ]
              }
            },
            {
              "type": "Feature",
              "properties": {
                "id": "5223193378",
                "osm_type": "node",
                "lat": 48.0944558,
                "lon": 14.9847625,
                "amenity": "post_office"
              },
              "geometry": {
                "type": "Point",
                "coordinates": [
                  14.9847625,
                  48.0944558
                ]
              }
            },
            {
              "type": "Feature",
              "properties": {
                "id": "8196219311",
                "osm_type": "node",
                "lat": 48.0582795,
                "lon": 14.85402,
                "amenity": "post_office",
                "contact:phone": "+43 7475 521 01",
                "name": "Postpartner Haan"
              },
              "geometry": {
                "type": "Point",
                "coordinates": [
                  14.85402,
                  48.0582795
                ]
              }
            },
            {
              "type": "Feature",
              "properties": {
                "id": "9936968470",
                "osm_type": "node",
                "lat": 48.0829966,
                "lon": 14.9315247,
                "addr:city": "Euratsfeld",
                "addr:postcode": "3324",
                "amenity": "post_office",
                "name": "Post-Partner 3324 Euratsfeld",
                "operator": "Österreichische Post AG",
                "operator:wikidata": "Q1763505",
                "post_office": "post_partner"
              },
              "geometry": {
                "type": "Point",
                "coordinates": [
                  14.9315247,
                  48.0829966
                ]
              }
            },
            {
              "type": "Feature",
              "properties": {
                "id": "13063083216",
                "osm_type": "node",
                "lat": 48.1285947,
                "lon": 14.9882443,
                "amenity": "post_office",
                "post_office": "post_partner"
              },
              "geometry": {
                "type": "Point",
                "coordinates": [
                  14.9882443,
                  48.1285947
                ]
              }
            },
            {
              "type": "Feature",
              "properties": {
                "id": "340518209",
                "osm_type": "node",
                "lat": 48.0632135,
                "lon": 15.138423,
                "addr:city": "Purgstall",
                "addr:country": "AT",
                "addr:housenumber": "38",
                "addr:postcode": "3251",
                "addr:street": "Erlauftalstraße",
                "amenity": "post_office",
                "name": "Postpartner 3251, Let's Doit Fabris",
                "post_office": "post_partner",
                "postal_code": "3251",
                "source": "https://www.post.at/"
              },
              "geometry": {
                "type": "Point",
                "coordinates": [
                  15.138423,
                  48.0632135
                ]
              }
            },
            {
              "type": "Feature",
              "properties": {
                "id": "340518274",
                "osm_type": "node",
                "lat": 48.1560914,
                "lon": 15.0960605,
                "amenity": "post_office",
                "name": "Postkasten 3373 Kemmelbach",
                "ref": "3373",
                "type": "Postfiliale"
              },
              "geometry": {
                "type": "Point",
                "coordinates": [
                  15.0960605,
                  48.1560914
                ]
              }
            },
            {
              "type": "Feature",
              "properties": {
                "id": "340518280",
                "osm_type": "node",
                "lat": 48.0688267,
                "lon": 15.0508282,
                "addr:city": "Steinakirchen am Forst",
                "addr:country": "AT",
                "addr:housenumber": "3",
                "addr:postcode": "3261",
                "addr:street": "Hauptstraße",
                "amenity": "post_office",
                "name": "Postpartner 3261, Schuhhaus Steindl",
                "post_office": "post_partner",
                "postal_code": "3261",
                "source": "https://www.post.at/"
              },
              "geometry": {
                "type": "Point",
                "coordinates": [
                  15.0508282,
                  48.0688267
                ]
              }
            },
            {
              "type": "Feature",
              "properties": {
                "id": "340519811",
                "osm_type": "node",
                "lat": 48.0314515,
                "lon": 15.2264019,
                "addr:city": "St. Georgen an der Leys",
                "addr:country": "AT",
                "addr:housenumber": "1",
                "addr:place": "Sankt Georgen an der Leys",
                "addr:postcode": "3282",
                "amenity": "post_office",
                "name": "Postpartner 3282, Gemeinde",
                "post_office": "post_partner",
                "postal_code": "3282",
                "source": "https://www.post.at/",
                "wheelchair": "yes"
              },
              "geometry": {
                "type": "Point",
                "coordinates": [
                  15.2264019,
                  48.0314515
                ]
              }
            },
            {
              "type": "Feature",
              "properties": {
                "id": "419872725",
                "osm_type": "node",
                "lat": 48.132284,
                "lon": 15.1395649,
                "addr:city": "Wieselburg",
                "addr:housenumber": "3",
                "addr:postcode": "3250",
                "addr:street": "Wiener Straße",
                "amenity": "post_office",
                "level": "0",
                "name": "Post Filiale 3250",
                "opening_hours": "Mo-Fr 08:00-18:30; Sa 09:00-17:00; Sa,Su,PH off",
                "operator": "Österreichische Post AG",
                "operator:wikidata": "Q1763505",
                "operator:wikipedia": "de:Österreichische Post",
                "payment:Wieselburger_10er": "yes",
                "website": "https://www.post.at"
              },
              "geometry": {
                "type": "Point",
                "coordinates": [
                  15.1395649,
                  48.132284
                ]
              }
            },
            {
              "type": "Feature",
              "properties": {
                "id": "2821117641",
                "osm_type": "node",
                "lat": 48.1540286,
                "lon": 15.092761,
                "amenity": "post_office",
                "name": "Postpartner 3373",
                "operator": "Essmeister"
              },
              "geometry": {
                "type": "Point",
                "coordinates": [
                  15.092761,
                  48.1540286
                ]
              }
            },
            {
              "type": "Feature",
              "properties": {
                "id": "3726504481",
                "osm_type": "node",
                "lat": 48.1876774,
                "lon": 15.0836977,
                "amenity": "post_office",
                "name": "Postpartner 3680, Trafik Bayer",
                "opening_hours": "Mo-Fr 06:30-12:00,14:00-18:00; Sa 07:00-12:00; Su,PH off",
                "operator": "Trafik Bayer Sebastian",
                "post_office": "post_partner"
              },
              "geometry": {
                "type": "Point",
                "coordinates": [
                  15.0836977,
                  48.1876774
                ]
              }
            },
            {
              "type": "Feature",
              "properties": {
                "id": "4075471762",
                "osm_type": "node",
                "lat": 48.172121,
                "lon": 15.0785532,
                "amenity": "post_office",
                "name": "Post Partner / Bank99 Ybbs",
                "opening_hours": "Mo-Fr 08:00-12:00,15:00-18:00",
                "operator": "Fitness Haiderer"
              },
              "geometry": {
                "type": "Point",
                "coordinates": [
                  15.0785532,
                  48.172121
                ]
              }
            },
            {
              "type": "Feature",
              "properties": {
                "id": "9568022748",
                "osm_type": "node",
                "lat": 48.1458414,
                "lon": 15.1555819,
                "addr:city": "Petzenkirchen",
                "addr:country": "AT",
                "addr:housenumber": "45",
                "addr:postcode": "3252",
                "addr:street": "Wiener Straße",
                "amenity": "post_office",
                "name": "3252 Petzenkirchen",
                "ref": "3252",
                "type": "Post.Partner"
              },
              "geometry": {
                "type": "Point",
                "coordinates": [
                  15.1555819,
                  48.1458414
                ]
              }
            }
          ],
          "children": []
        },
        {
          "bbox": {
            "south": 48.190694875,
            "west": 14.2994695,
            "north": 48.355971499999995,
            "east": 14.77632125
          },
          "poiCount": 29,
          "leafCount": 29,
          "averagePosition": [
            14.504163486206895,
            48.28092123103448
          ],
          "data": [
            {
              "type": "Feature",
              "properties": {
                "id": "25181624",
                "osm_type": "node",
                "lat": 48.2573922,
                "lon": 14.3605695,
                "amenity": "post_office",
                "contact:phone": "+43 732 320874",
                "contact:website": "http://www.post.at",
                "name": "Trafik Postpartner Höller",
                "opening_hours": "Mo-Fr 06:00-18:30; Sa 07:00-13:00",
                "operator": "Österreichische Post AG",
                "operator:wikidata": "Q1763505",
                "post_office": "post_partner",
                "postal_code": "4032",
                "ref": "4032",
                "type": "Post.Partner"
              },
              "geometry": {
                "type": "Point",
                "coordinates": [
                  14.3605695,
                  48.2573922
                ]
              }
            },
            {
              "type": "Feature",
              "properties": {
                "id": "97805789",
                "osm_type": "node",
                "lat": 48.354184,
                "lon": 14.528908,
                "addr:city": "Pregarten",
                "addr:country": "AT",
                "addr:housenumber": "15",
                "addr:postcode": "4230",
                "addr:street": "Bahnhofstraße",
                "amenity": "post_office",
                "name": "Post Filiale 4230",
                "opening_hours": "Mo-Fr 08:00-12:00, 14:00-17:30; Sa,Su,PH off",
                "operator": "Österreichische Post AG",
                "website": "https://www.post.at",
                "wheelchair": "yes"
              },
              "geometry": {
                "type": "Point",
                "coordinates": [
                  14.528908,
                  48.354184
                ]
              }
            },
            {
              "type": "Feature",
              "properties": {
                "id": "269677856",
                "osm_type": "node",
                "lat": 48.3321979,
                "lon": 14.3123085,
                "addr:city": "Linz",
                "addr:country": "AT",
                "addr:housenumber": "23",
                "addr:postcode": "4046",
                "addr:street": "Johann-Wilhelm-Klein-Straße",
                "amenity": "post_office",
                "check_date:opening_hours": "2025-07-29",
                "name": "Post Filiale 4046",
                "opening_hours": "Mo-Fr 08:00-12:00,14:00-17:30",
                "operator": "Österreichische Post AG",
                "operator:wikidata": "Q1763505",
                "website": "https://www.post.at",
                "wheelchair": "yes"
              },
              "geometry": {
                "type": "Point",
                "coordinates": [
                  14.3123085,
                  48.3321979
                ]
              }
            },
            {
              "type": "Feature",
              "properties": {
                "id": "270721809",
                "osm_type": "node",
                "lat": 48.3538409,
                "lon": 14.4154805,
                "addr:city": "Gallneukirchen",
                "addr:country": "AT",
                "addr:housenumber": "1",
                "addr:postcode": "4210",
                "addr:street": "Reichenauer Straße",
                "amenity": "post_office",
                "name": "Post Filiale 4210",
                "opening_hours": "Mo-Fr 08:00-12:00, 14:00-17:30; Sa,Su,PH off",
                "operator": "Österreichische Post AG",
                "operator:wikidata": "Q1763505",
                "website": "https://www.post.at",
                "wheelchair": "limited"
              },
              "geometry": {
                "type": "Point",
                "coordinates": [
                  14.4154805,
                  48.3538409
                ]
              }
            },
            {
              "type": "Feature",
              "properties": {
                "id": "340515160",
                "osm_type": "node",
                "lat": 48.2920181,
                "lon": 14.3032417,
                "addr:city": "Linz",
                "addr:country": "AT",
                "addr:housenumber": "44",
                "addr:postcode": "4018",
                "addr:street": "Hamerlingstraße",
                "amenity": "post_office",
                "check_date:opening_hours": "2024-11-26",
                "name": "Post Filiale 4018",
                "opening_hours": "Mo-Fr 08:00-18:00; Sa,Su,PH off",
                "operator": "Österreichische Post AG",
                "website": "https://www.post.at",
                "wheelchair": "yes"
              },
              "geometry": {
                "type": "Point",
                "coordinates": [
                  14.3032417,
                  48.2920181
                ]
              }
            },
            {
              "type": "Feature",
              "properties": {
                "id": "340515171",
                "osm_type": "node",
                "lat": 48.2559501,
                "lon": 14.3165714,
                "addr:city": "Linz",
                "addr:country": "AT",
                "addr:housenumber": "37",
                "addr:postcode": "4030",
                "addr:street": "Denkstraße",
                "amenity": "post_office",
                "name": "Post Filiale 4030",
                "opening_hours": "Mo-Fr 08:00-12:00, 14:00-17:30; Sa,Su,PH off",
                "operator": "Österreichische Post AG",
                "website": "https://www.post.at",
                "wheelchair": "yes"
              },
              "geometry": {
                "type": "Point",
                "coordinates": [
                  14.3165714,
                  48.2559501
                ]
              }
            },
            {
              "type": "Feature",
              "properties": {
                "id": "340518038",
                "osm_type": "node",
                "lat": 48.3375143,
                "lon": 14.3653655,
                "addr:city": "Engerwitzdorf",
                "addr:housenumber": "6a",
                "addr:postcode": "4209",
                "addr:street": "Leitnerstraße",
                "amenity": "post_office",
                "description": "Postpartner",
                "name": "4209 Engerwitzdorf",
                "postal_code": "4209",
                "ref": "4209"
              },
              "geometry": {
                "type": "Point",
                "coordinates": [
                  14.3653655,
                  48.3375143
                ]
              }
            },
            {
              "type": "Feature",
              "properties": {
                "id": "340518049",
                "osm_type": "node",
                "lat": 48.2822099,
                "lon": 14.366589,
                "addr:city": "Steyregg",
                "addr:housenumber": "14",
                "addr:postcode": "4221",
                "addr:street": "Gewerbeallee",
                "amenity": "post_office",
                "name": "4221 Steyregg",
                "note": "Postpartner",
                "postal_code": "4221",
                "ref": "4221",
                "type": "Postfiliale",
                "wheelchair": "yes"
              },
              "geometry": {
                "type": "Point",
                "coordinates": [
                  14.366589,
                  48.2822099
                ]
              }
            },
            {
              "type": "Feature",
              "properties": {
                "id": "340518112",
                "osm_type": "node",
                "lat": 48.2397413,
                "lon": 14.5258587,
                "addr:city": "Mauthausen",
                "addr:country": "AT",
                "addr:housenumber": "12",
                "addr:postcode": "4310",
                "addr:street": "Poschacherstraße",
                "amenity": "post_office",
                "name": "Post Filiale 4310",
                "opening_hours": "Mo-Fr 08:30-12:30, 13:30-17:30; Sa,Su,PH off",
                "operator": "Österreichische Post AG",
                "website": "https://www.post.at",
                "wheelchair": "yes"
              },
              "geometry": {
                "type": "Point",
                "coordinates": [
                  14.5258587,
                  48.2397413
                ]
              }
            },
            {
              "type": "Feature",
              "properties": {
                "id": "340520418",
                "osm_type": "node",
                "lat": 48.3199294,
                "lon": 14.4698953,
                "addr:city": "Katsdorf",
                "addr:country": "AT",
                "addr:housenumber": "8",
                "addr:postcode": "4223",
                "addr:street": "Linzer Straße",
                "amenity": "post_office",
                "name": "Postpartner 4223, Billa",
                "post_office": "post_partner",
                "postal_code": "4223",
                "source": "https://www.post.at/"
              },
              "geometry": {
                "type": "Point",
                "coordinates": [
                  14.4698953,
                  48.3199294
                ]
              }
            },
            {
              "type": "Feature",
              "properties": {
                "id": "369784955",
                "osm_type": "node",
                "lat": 48.3480855,
                "lon": 14.5083562,
                "amenity": "post_office",
                "postal_code": "4224",
                "ref": "4224",
                "type": "Post.Partner"
              },
              "geometry": {
                "type": "Point",
                "coordinates": [
                  14.5083562,
                  48.3480855
                ]
              }
            },
            {
              "type": "Feature",
              "properties": {
                "id": "1987728824",
                "osm_type": "node",
                "lat": 48.2710852,
                "lon": 14.4280552,
                "addr:city": "Luftenberg an der Donau",
                "addr:housenumber": "2",
                "addr:postcode": "4225",
                "addr:street": "Oberfeldstraße",
                "amenity": "post_office",
                "name": "Sabine Leonhardsberger - Trafik",
                "opening_hours": "Mo-Fr 07:30-18:30,Sa 07:30-17:00",
                "phone": "+43-7237-5443",
                "post_office:type": "post_partner",
                "shop": "kiosk"
              },
              "geometry": {
                "type": "Point",
                "coordinates": [
                  14.4280552,
                  48.2710852
                ]
              }
            },
            {
              "type": "Feature",
              "properties": {
                "id": "2702234522",
                "osm_type": "node",
                "lat": 48.2152187,
                "lon": 14.4735401,
                "amenity": "post_office",
                "brand": "DPD",
                "brand:wikidata": "Q541030",
                "brand:wikipedia": "de:DPDgroup",
                "name": "SKC Computer und Multimedia Store;DPD Paketshop",
                "operator": "SKC Computershop",
                "post_office:type": "DPD Paketshop",
                "shop": "computer"
              },
              "geometry": {
                "type": "Point",
                "coordinates": [
                  14.4735401,
                  48.2152187
                ]
              }
            },
            {
              "type": "Feature",
              "properties": {
                "id": "4656745255",
                "osm_type": "node",
                "lat": 48.2731388,
                "lon": 14.3020984,
                "amenity": "post_office",
                "lottery": "yes",
                "post_office:brand": "DHL Paketshop",
                "shop": "kiosk"
              },
              "geometry": {
                "type": "Point",
                "coordinates": [
                  14.3020984,
                  48.2731388
                ]
              }
            },
            {
              "type": "Feature",
              "properties": {
                "id": "8322313671",
                "osm_type": "node",
                "lat": 48.2842716,
                "lon": 14.3049622,
                "amenity": "post_office",
                "brand": "GLS",
                "operator": "Haja Call & Beauty"
              },
              "geometry": {
                "type": "Point",
                "coordinates": [
                  14.3049622,
                  48.2842716
                ]
              }
            },
            {
              "type": "Feature",
              "properties": {
                "id": "9450015586",
                "osm_type": "node",
                "lat": 48.2405639,
                "lon": 14.5278552,
                "amenity": "post_office",
                "level": "0",
                "name": "Post"
              },
              "geometry": {
                "type": "Point",
                "coordinates": [
                  14.5278552,
                  48.2405639
                ]
              }
            },
            {
              "type": "Feature",
              "properties": {
                "id": "12211810395",
                "osm_type": "node",
                "lat": 48.2746431,
                "lon": 14.3039452,
                "addr:city": "Linz",
                "addr:housenumber": "7A",
                "addr:postcode": "4020",
                "addr:street": "Tungassingerstraße",
                "amenity": "post_office",
                "name": "Post-Partner 4029",
                "opening_hours": "Mo-Fr 07:30-13:00, Mo-Fr 15:00-18:00",
                "operator": "Luckeneder",
                "website": "https://www.post.at/"
              },
              "geometry": {
                "type": "Point",
                "coordinates": [
                  14.3039452,
                  48.2746431
                ]
              }
            },
            {
              "type": "Feature",
              "properties": {
                "id": "13137692791",
                "osm_type": "node",
                "lat": 48.2077273,
                "lon": 14.3861324,
                "addr:city": "St. Florian",
                "addr:housenumber": "32",
                "addr:postcode": "4490",
                "addr:street": "Wiener Straße",
                "amenity": "post_office",
                "opening_hours": "Mo-Th 08:30-13:00, We 13:00-15:30, Fr 08:30-12:00; PH off",
                "operator": "Lebenshilfe OÖ"
              },
              "geometry": {
                "type": "Point",
                "coordinates": [
                  14.3861324,
                  48.2077273
                ]
              }
            },
            {
              "type": "Feature",
              "properties": {
                "id": "340515448",
                "osm_type": "node",
                "lat": 48.3317176,
                "lon": 14.6222276,
                "addr:city": "Tragwein",
                "addr:housenumber": "31",
                "addr:postcode": "4284",
                "addr:street": "Markt",
                "amenity": "post_office",
                "name": "4284 Tragwein",
                "ref": "4284",
                "type": "Post.Partner"
              },
              "geometry": {
                "type": "Point",
                "coordinates": [
                  14.6222276,
                  48.3317176
                ]
              }
            },
            {
              "type": "Feature",
              "properties": {
                "id": "340515976",
                "osm_type": "node",
                "lat": 48.248507,
                "lon": 14.6341268,
                "addr:city": "Perg",
                "addr:country": "AT",
                "addr:housenumber": "2",
                "addr:postcode": "4320",
                "addr:street": "Dirnbergerstraße",
                "amenity": "post_office",
                "check_date": "2025-04-14",
                "name": "Post Filiale 4320",
                "opening_hours": "Mo-Fr 08:00-18:00; Sa,Su,PH off",
                "operator": "Österreichische Post AG",
                "website": "https://www.post.at",
                "wheelchair": "yes"
              },
              "geometry": {
                "type": "Point",
                "coordinates": [
                  14.6341268,
                  48.248507
                ]
              }
            },
            {
              "type": "Feature",
              "properties": {
                "id": "340518015",
                "osm_type": "node",
                "lat": 48.2104904,
                "lon": 14.7416963,
                "addr:city": "Baumgartenberg",
                "addr:country": "AT",
                "addr:housenumber": "30",
                "addr:place": "Baumgartenberg",
                "addr:postcode": "4342",
                "amenity": "post_office",
                "name": "4342 Baumgartenberg",
                "postal_code": "4342",
                "ref": "4342",
                "type": "Post-Servicestelle"
              },
              "geometry": {
                "type": "Point",
                "coordinates": [
                  14.7416963,
                  48.2104904
                ]
              }
            },
            {
              "type": "Feature",
              "properties": {
                "id": "340520664",
                "osm_type": "node",
                "lat": 48.2656255,
                "lon": 14.7121869,
                "addr:city": "Münzbach",
                "addr:country": "AT",
                "addr:housenumber": "7",
                "addr:postcode": "4323",
                "addr:street": "Arbinger Straße",
                "amenity": "post_office",
                "name": "Postpartner 4323, Marktgemeinde",
                "post_office": "post_partner",
                "postal_code": "4323",
                "source": "https://www.post.at/"
              },
              "geometry": {
                "type": "Point",
                "coordinates": [
                  14.7121869,
                  48.2656255
                ]
              }
            },
            {
              "type": "Feature",
              "properties": {
                "id": "340520667",
                "osm_type": "node",
                "lat": 48.2843169,
                "lon": 14.6819476,
                "addr:city": "Windhaag bei Perg",
                "addr:country": "AT",
                "addr:housenumber": "7",
                "addr:postcode": "4322",
                "addr:street": "Eva-Magdalena-Straße",
                "amenity": "post_office",
                "name": "Postpartner 4322, Gemeinde",
                "opening_hours": "Mo-Fr 8:00-12:00",
                "post_office": "post_partner",
                "postal_code": "4322",
                "source": "https://www.post.at/",
                "wheelchair": "yes"
              },
              "geometry": {
                "type": "Point",
                "coordinates": [
                  14.6819476,
                  48.2843169
                ]
              }
            },
            {
              "type": "Feature",
              "properties": {
                "id": "1625294166",
                "osm_type": "node",
                "lat": 48.3491653,
                "lon": 14.6690788,
                "amenity": "post_office"
              },
              "geometry": {
                "type": "Point",
                "coordinates": [
                  14.6690788,
                  48.3491653
                ]
              }
            },
            {
              "type": "Feature",
              "properties": {
                "id": "2048917896",
                "osm_type": "node",
                "lat": 48.3480621,
                "lon": 14.7578933,
                "amenity": "post_office",
                "wheelchair": "yes"
              },
              "geometry": {
                "type": "Point",
                "coordinates": [
                  14.7578933,
                  48.3480621
                ]
              }
            },
            {
              "type": "Feature",
              "properties": {
                "id": "3137296096",
                "osm_type": "node",
                "lat": 48.2264417,
                "lon": 14.6983313,
                "amenity": "post_office",
                "name": "DPD Paketshop",
                "operator": "Michael Hofstädter eU",
                "post_office:type": "DPD Paketshop"
              },
              "geometry": {
                "type": "Point",
                "coordinates": [
                  14.6983313,
                  48.2264417
                ]
              }
            },
            {
              "type": "Feature",
              "properties": {
                "id": "4799332732",
                "osm_type": "node",
                "lat": 48.2264228,
                "lon": 14.6985155,
                "amenity": "post_office",
                "name": "Post Partner",
                "operator": "Michael Hofstädter eU",
                "post_office:type": "partner"
              },
              "geometry": {
                "type": "Point",
                "coordinates": [
                  14.6985155,
                  48.2264228
                ]
              }
            },
            {
              "type": "Feature",
              "properties": {
                "id": "4847661080",
                "osm_type": "node",
                "lat": 48.242763,
                "lon": 14.6275038,
                "amenity": "post_office",
                "email": "office@dreieck.at",
                "fax": "+43 660 334284000",
                "name": "3Eck",
                "operator": "3Eck KG",
                "phone": "+43 660 4320 100",
                "post_office:brand": "GLS PaketSHOP",
                "post_office:type": "post_partner",
                "shop": "mobile_phone",
                "website": "https://www.dreieck.at/"
              },
              "geometry": {
                "type": "Point",
                "coordinates": [
                  14.6275038,
                  48.242763
                ]
              }
            },
            {
              "type": "Feature",
              "properties": {
                "id": "6254083831",
                "osm_type": "node",
                "lat": 48.2734912,
                "lon": 14.5775002,
                "amenity": "post_office",
                "post_office:type": "DPD Pickup"
              },
              "geometry": {
                "type": "Point",
                "coordinates": [
                  14.5775002,
                  48.2734912
                ]
              }
            }
          ],
          "children": []
        },
        {
          "bbox": {
            "south": 48.190694875,
            "west": 14.77632125,
            "north": 48.355971499999995,
            "east": 15.253173
          },
          "poiCount": 9,
          "leafCount": 9,
          "averagePosition": [
            15.029246388888888,
            48.25770753333333
          ],
          "data": [
            {
              "type": "Feature",
              "properties": {
                "id": "340516132",
                "osm_type": "node",
                "lat": 48.2661398,
                "lon": 14.8077765,
                "addr:city": "Bad Kreuzen",
                "addr:country": "AT",
                "addr:housenumber": "5",
                "addr:place": "Bad Kreuzen",
                "addr:postcode": "4362",
                "amenity": "post_office",
                "name": "Postpartner 4362, Nah & Frisch Honeder",
                "post_office": "post_partner",
                "postal_code": "4362",
                "source": "https://www.post.at/"
              },
              "geometry": {
                "type": "Point",
                "coordinates": [
                  14.8077765,
                  48.2661398
                ]
              }
            },
            {
              "type": "Feature",
              "properties": {
                "id": "340518259",
                "osm_type": "node",
                "lat": 48.223954,
                "lon": 14.9828332,
                "addr:city": "Nöchling",
                "addr:country": "AT",
                "addr:housenumber": "3",
                "addr:postcode": "3691",
                "addr:street": "Oberer Markt",
                "amenity": "post_office",
                "name": "Postpartner 3691, Nah & Frisch Furtlehner",
                "post_office": "post_partner",
                "postal_code": "3691",
                "source": "https://www.post.at/"
              },
              "geometry": {
                "type": "Point",
                "coordinates": [
                  14.9828332,
                  48.223954
                ]
              }
            },
            {
              "type": "Feature",
              "properties": {
                "id": "340518318",
                "osm_type": "node",
                "lat": 48.2777147,
                "lon": 14.9560053,
                "addr:city": "Waldhausen im Strudengau",
                "addr:country": "AT",
                "addr:housenumber": "34",
                "addr:postcode": "4391",
                "addr:street": "Schloßberg",
                "amenity": "post_office",
                "name": "Postpartner 4391, Tankstelle",
                "post_office": "post_partner",
                "postal_code": "4391",
                "source": "https://www.post.at/"
              },
              "geometry": {
                "type": "Point",
                "coordinates": [
                  14.9560053,
                  48.2777147
                ]
              }
            },
            {
              "type": "Feature",
              "properties": {
                "id": "826754265",
                "osm_type": "node",
                "lat": 48.2285341,
                "lon": 14.8565601,
                "addr:city": "Grein",
                "addr:country": "AT",
                "addr:housenumber": "23",
                "addr:postcode": "4360",
                "addr:street": "Hauptstraße",
                "amenity": "post_office",
                "name": "Post Filiale 4360",
                "opening_hours": "Mo-Fr 08:00-12:00, 14:00-17:30; Sa,Su,PH off",
                "operator": "Österreichische Post AG",
                "website": "https://www.post.at"
              },
              "geometry": {
                "type": "Point",
                "coordinates": [
                  14.8565601,
                  48.2285341
                ]
              }
            },
            {
              "type": "Feature",
              "properties": {
                "id": "340519792",
                "osm_type": "node",
                "lat": 48.2424009,
                "lon": 15.2045756,
                "addr:city": "Artstetten",
                "addr:country": "AT",
                "addr:housenumber": "1",
                "addr:postcode": "3661",
                "addr:street": "Schlossstraße",
                "amenity": "post_office",
                "name": "Postpartner 3661, Marktgemeinde",
                "post_office": "post_partner",
                "postal_code": "3661",
                "source": "https://www.post.at/"
              },
              "geometry": {
                "type": "Point",
                "coordinates": [
                  15.2045756,
                  48.2424009
                ]
              }
            },
            {
              "type": "Feature",
              "properties": {
                "id": "1305778714",
                "osm_type": "node",
                "lat": 48.2801316,
                "lon": 15.0656073,
                "addr:city": "Yspertal",
                "addr:country": "AT",
                "addr:housenumber": "15",
                "addr:postcode": "3683",
                "addr:street": "Altenmarktstraße",
                "amenity": "post_office",
                "name": "Postpartner 3683, Puschacher",
                "post_office": "post_partner",
                "source": "https://www.post.at/"
              },
              "geometry": {
                "type": "Point",
                "coordinates": [
                  15.0656073,
                  48.2801316
                ]
              }
            },
            {
              "type": "Feature",
              "properties": {
                "id": "1712823680",
                "osm_type": "node",
                "lat": 48.2142831,
                "lon": 15.1511549,
                "amenity": "post_office",
                "name": "Trafik Haider"
              },
              "geometry": {
                "type": "Point",
                "coordinates": [
                  15.1511549,
                  48.2142831
                ]
              }
            },
            {
              "type": "Feature",
              "properties": {
                "id": "1896782643",
                "osm_type": "node",
                "lat": 48.2683842,
                "lon": 15.0390224,
                "amenity": "post_office",
                "name": "PSK"
              },
              "geometry": {
                "type": "Point",
                "coordinates": [
                  15.0390224,
                  48.2683842
                ]
              }
            },
            {
              "type": "Feature",
              "properties": {
                "id": "5752441104",
                "osm_type": "node",
                "lat": 48.3178254,
                "lon": 15.1996822,
                "amenity": "post_office",
                "name": "Post Partner3650 Expert Lenz"
              },
              "geometry": {
                "type": "Point",
                "coordinates": [
                  15.1996822,
                  48.3178254
                ]
              }
            }
          ],
          "children": []
        }
      ]
    }
  ]
}