{
  "bbox": {
    "south": 48.355971499999995,
    "west": 13.345766,
    "north": 49.017078,
    "east": 15.253173
  },
  "poiCount": 181,
  "leafCount": 0,
  "averagePosition": [
    14.302855313812156,
    48.710631506077355
  ],
  "data": [],
  "children": [
    {
      "bbox": {
        "south": 48.355971499999995,
        "west": 13.345766,
        "north": 48.68652475,
        "east": 14.2994695
      },
      "poiCount": 45,
      "leafCount": 45,
      "averagePosition": [
        13.858249302222223,
        48.50321155777778
      ],
      "data": [
        {
          "type": "Feature",
          "properties": {
            "id": "340517871",
            "osm_type": "node",
            "lat": 48.3674483,
            "lon": 14.025503,
            "amenity": "post_office",
            "postal_code": "4082",
            "ref": "4082",
            "type": "Post.Partner",
            "wheelchair": "no"
          },
          "geometry": {
            "type": "Point",
            "coordinates": [
              14.025503,
              48.3674483
            ]
          }
        },
        {
          "type": "Feature",
          "properties": {
            "id": "3137148215",
            "osm_type": "node",
            "lat": 48.3581775,
            "lon": 14.0020319,
            "amenity": "post_office",
            "name": "DPD Paketshop",
            "operator": "Waschcenter Eigner",
            "post_office:type": "DPD Paketshop"
          },
          "geometry": {
            "type": "Point",
            "coordinates": [
              14.0020319,
              48.3581775
            ]
          }
        },
        {
          "type": "Feature",
          "properties": {
            "id": "11255291439",
            "osm_type": "node",
            "lat": 48.3694759,
            "lon": 13.5712963,
            "addr:city": "Andorf",
            "addr:country": "AT",
            "addr:housenumber": "44",
            "addr:postcode": "4770",
            "addr:street": "Hauptstraße",
            "amenity": "post_office",
            "name": "Postpartner 4770, Schrattenecker",
            "post_office": "post_partner",
            "postal_code": "4770",
            "source": "https://www.post.at/"
          },
          "geometry": {
            "type": "Point",
            "coordinates": [
              13.5712963,
              48.3694759
            ]
          }
        },
        {
          "type": "Feature",
          "properties": {
            "id": "292993754",
            "osm_type": "node",
            "lat": 48.574575,
            "lon": 13.45135,
            "amenity": "post_office",
            "check_date:opening_hours": "2023-02-20",
            "level": "0",
            "name": "Post & Postbank",
            "opening_hours": "Mo-Fr 09:00-18:00; Sa 09:00-14:00",
            "wheelchair": "limited"
          },
          "geometry": {
            "type": "Point",
            "coordinates": [
              13.45135,
              48.574575
            ]
          }
        },
        {
          "type": "Feature",
          "properties": {
            "id": "1335515651",
            "osm_type": "node",
            "lat": 48.6522711,
            "lon": 13.4095208,
            "addr:city": "Ruderting",
            "addr:country": "DE",
            "addr:housenumber": "26",
            "addr:postcode": "94161",
            "addr:street": "Passauer Straße",
            "amenity": "post_office",
            "name": "Postfiliale Edeka Buchbauer",
            "opening_hours": "Mo-Fr 08:00-12:00,14:00-20:00; Sa 08:00-13:00",
            "operator": "Deutsche Post",
            "wheelchair": "yes"
          },
          "geometry": {
            "type": "Point",
            "coordinates": [
              13.4095208,
              48.6522711
            ]
          }
        },
        {
          "type": "Feature",
          "properties": {
            "id": "1376601204",
            "osm_type": "node",
            "lat": 48.4035509,
            "lon": 13.389191,
            "amenity": "post_office",
            "name": "Post Edeka Buchbauer",
            "wheelchair": "yes"
          },
          "geometry": {
            "type": "Point",
            "coordinates": [
              13.389191,
              48.4035509
            ]
          }
        },
        {
          "type": "Feature",
          "properties": {
            "id": "1936387010",
            "osm_type": "node",
            "lat": 48.5906543,
            "lon": 13.4831071,
            "amenity": "post_office",
            "check_date": "2024-02-25",
            "check_date:opening_hours": "2024-02-25",
            "contact:phone": "+49 851 493927",
            "name": "Postfliale im Schwaiberger",
            "opening_hours": "Mo-Fr 08:00-19:00; Sa 08:00-18:00; PH off",
            "payment:cash": "yes",
            "payment:contactless": "yes",
            "payment:girocard": "yes",
            "payment:mastercard": "yes",
            "payment:visa": "yes",
            "phone": "+49 851 493927",
            "wheelchair": "yes"
          },
          "geometry": {
            "type": "Point",
            "coordinates": [
              13.4831071,
              48.5906543
            ]
          }
        },
        {
          "type": "Feature",
          "properties": {
            "id": "4502289024",
            "osm_type": "node",
            "lat": 48.3892518,
            "lon": 13.4472106,
            "amenity": "post_office",
            "operator": "Spar Markt Spieler"
          },
          "geometry": {
            "type": "Point",
            "coordinates": [
              13.4472106,
              48.3892518
            ]
          }
        },
        {
          "type": "Feature",
          "properties": {
            "id": "7398970685",
            "osm_type": "node",
            "lat": 48.5738687,
            "lon": 13.3943686,
            "amenity": "post_office",
            "name": "Deutsche Post Filiale 597",
            "opening_hours": "Mo-Fr 08:00-18:00; Sa 08:00-13:00; PH off",
            "wheelchair": "yes"
          },
          "geometry": {
            "type": "Point",
            "coordinates": [
              13.3943686,
              48.5738687
            ]
          }
        },
        {
          "type": "Feature",
          "properties": {
            "id": "9331395515",
            "osm_type": "node",
            "lat": 48.569288,
            "lon": 13.4544396,
            "amenity": "post_office",
            "brand": "DHL",
            "brand:wikidata": "Q489815",
            "brand:wikipedia": "en:DHL",
            "name": "DHL",
            "opening_hours": "Mo-Fr 09:00-18:00; Sa 10:00-13:00; Su,PH off"
          },
          "geometry": {
            "type": "Point",
            "coordinates": [
              13.4544396,
              48.569288
            ]
          }
        },
        {
          "type": "Feature",
          "properties": {
            "id": "9531335553",
            "osm_type": "node",
            "lat": 48.4600523,
            "lon": 13.4178985,
            "amenity": "post_office",
            "opening_hours": "Mo-Fr 08:00-18:00; Sa 08:00-13:00",
            "operator": "Deutsche Post",
            "operator:wikidata": "Q157645",
            "operator:wikipedia": "de:Deutsche Post AG"
          },
          "geometry": {
            "type": "Point",
            "coordinates": [
              13.4178985,
              48.4600523
            ]
          }
        },
        {
          "type": "Feature",
          "properties": {
            "id": "306499247",
            "osm_type": "node",
            "lat": 48.6458411,
            "lon": 13.9706092,
            "amenity": "post_office",
            "opening_hours": "Mo-Sa 08:00-12:00,14:00-18:00; We 08:00-12:00,14:00-17:00",
            "operator": "EP Engleder",
            "post_office": "post_partner",
            "ref": "4160",
            "type": "Postfiliale"
          },
          "geometry": {
            "type": "Point",
            "coordinates": [
              13.9706092,
              48.6458411
            ]
          }
        },
        {
          "type": "Feature",
          "properties": {
            "id": "340515464",
            "osm_type": "node",
            "lat": 48.5399162,
            "lon": 13.5952146,
            "addr:city": "Esternberg",
            "addr:country": "AT",
            "addr:housenumber": "38",
            "addr:postcode": "4092",
            "addr:street": "Hauptstraße",
            "amenity": "post_office",
            "name": "Postpartner Esternberg",
            "type": "Postpartner"
          },
          "geometry": {
            "type": "Point",
            "coordinates": [
              13.5952146,
              48.5399162
            ]
          }
        },
        {
          "type": "Feature",
          "properties": {
            "id": "340517433",
            "osm_type": "node",
            "lat": 48.552567,
            "lon": 13.7710441,
            "addr:city": "Oberkappel",
            "addr:country": "AT",
            "addr:housenumber": "2",
            "addr:postcode": "4144",
            "addr:street": "Marktplatz",
            "amenity": "post_office",
            "name": "Postpartner 4144, Spar Falkner",
            "post_office": "post_partner",
            "source": "https://www.post.at/"
          },
          "geometry": {
            "type": "Point",
            "coordinates": [
              13.7710441,
              48.552567
            ]
          }
        },
        {
          "type": "Feature",
          "properties": {
            "id": "340517829",
            "osm_type": "node",
            "lat": 48.4164263,
            "lon": 13.9165478,
            "addr:city": "Haibach ob der Donau",
            "addr:country": "AT",
            "addr:housenumber": "1",
            "addr:postcode": "4083",
            "addr:street": "Bergerstraße",
            "amenity": "post_office",
            "name": "Postpartner 4083, Raiffeisen Lagerhaus",
            "post_office": "post_partner",
            "source": "https://www.post.at/"
          },
          "geometry": {
            "type": "Point",
            "coordinates": [
              13.9165478,
              48.4164263
            ]
          }
        },
        {
          "type": "Feature",
          "properties": {
            "id": "340517844",
            "osm_type": "node",
            "lat": 48.546207,
            "lon": 13.9039629,
            "addr:city": "Sarleinsbach",
            "addr:country": "AT",
            "addr:housenumber": "5",
            "addr:postcode": "4152",
            "addr:street": "Bräugasse",
            "amenity": "post_office",
            "name": "Postpartner 4152, Arcus, Ameisberg Werkstatt",
            "post_office": "post_partner",
            "source": "https://www.post.at/",
            "toilets:wheelchair": "no",
            "wheelchair": "limited"
          },
          "geometry": {
            "type": "Point",
            "coordinates": [
              13.9039629,
              48.546207
            ]
          }
        },
        {
          "type": "Feature",
          "properties": {
            "id": "340517851",
            "osm_type": "node",
            "lat": 48.6052557,
            "lon": 13.8407237,
            "addr:city": "Kollerschlag",
            "addr:country": "AT",
            "addr:housenumber": "13",
            "addr:postcode": "4154",
            "addr:street": "Markt",
            "amenity": "post_office",
            "name": "Postpartner 4154, Nah & Frisch Wöss",
            "post_office": "post_partner",
            "source": "https://www.post.at/"
          },
          "geometry": {
            "type": "Point",
            "coordinates": [
              13.8407237,
              48.6052557
            ]
          }
        },
        {
          "type": "Feature",
          "properties": {
            "id": "340519628",
            "osm_type": "node",
            "lat": 48.47816,
            "lon": 13.73771,
            "amenity": "post_office",
            "name": "4725 St. Aegidi",
            "postal_code": "4725",
            "ref": "4725",
            "type": "Post-Servicestelle"
          },
          "geometry": {
            "type": "Point",
            "coordinates": [
              13.73771,
              48.47816
            ]
          }
        },
        {
          "type": "Feature",
          "properties": {
            "id": "340520182",
            "osm_type": "node",
            "lat": 48.4846348,
            "lon": 14.0007259,
            "amenity": "post_office",
            "name": "4120 Neufelden",
            "postal_code": "4120",
            "ref": "4120",
            "type": "Post.Partner"
          },
          "geometry": {
            "type": "Point",
            "coordinates": [
              14.0007259,
              48.4846348
            ]
          }
        },
        {
          "type": "Feature",
          "properties": {
            "id": "340520246",
            "osm_type": "node",
            "lat": 48.6182675,
            "lon": 13.8947844,
            "addr:city": "Peilstein im Mühlkreis",
            "addr:country": "AT",
            "addr:housenumber": "4",
            "addr:postcode": "4153",
            "addr:street": "Markt",
            "amenity": "post_office",
            "name": "Postpartner 4153, SPAR",
            "post_office": "post_partner",
            "source": "https://www.post.at/"
          },
          "geometry": {
            "type": "Point",
            "coordinates": [
              13.8947844,
              48.6182675
            ]
          }
        },
        {
          "type": "Feature",
          "properties": {
            "id": "340520331",
            "osm_type": "node",
            "lat": 48.4048317,
            "lon": 13.7818933,
            "amenity": "post_office",
            "post_office": "post_partner"
          },
          "geometry": {
            "type": "Point",
            "coordinates": [
              13.7818933,
              48.4048317
            ]
          }
        },
        {
          "type": "Feature",
          "properties": {
            "id": "702336974",
            "osm_type": "node",
            "lat": 48.3871489,
            "lon": 13.8804753,
            "addr:city": "St. Agatha",
            "addr:country": "AT",
            "addr:housenumber": "11",
            "addr:postcode": "4084",
            "addr:street": "Stauffstraße",
            "amenity": "post_office",
            "at_bev:addr_date": "2017-10-01",
            "name": "4084 St. Agatha",
            "post_office:type": "post_partner",
            "postal_code": "4084",
            "ref": "4084"
          },
          "geometry": {
            "type": "Point",
            "coordinates": [
              13.8804753,
              48.3871489
            ]
          }
        },
        {
          "type": "Feature",
          "properties": {
            "id": "1347696626",
            "osm_type": "node",
            "lat": 48.5062215,
            "lon": 13.7328155,
            "amenity": "post_office",
            "note": "FIXME - stimmt das??"
          },
          "geometry": {
            "type": "Point",
            "coordinates": [
              13.7328155,
              48.5062215
            ]
          }
        },
        {
          "type": "Feature",
          "properties": {
            "id": "1717617406",
            "osm_type": "node",
            "lat": 48.4100941,
            "lon": 13.5362267,
            "amenity": "post_office"
          },
          "geometry": {
            "type": "Point",
            "coordinates": [
              13.5362267,
              48.4100941
            ]
          }
        },
        {
          "type": "Feature",
          "properties": {
            "id": "2216790506",
            "osm_type": "node",
            "lat": 48.5292071,
            "lon": 13.756672,
            "amenity": "post_office"
          },
          "geometry": {
            "type": "Point",
            "coordinates": [
              13.756672,
              48.5292071
            ]
          }
        },
        {
          "type": "Feature",
          "properties": {
            "id": "3245145541",
            "osm_type": "node",
            "lat": 48.4444375,
            "lon": 13.9386077,
            "amenity": "post_office",
            "operator": "Fa. Pernsteiner"
          },
          "geometry": {
            "type": "Point",
            "coordinates": [
              13.9386077,
              48.4444375
            ]
          }
        },
        {
          "type": "Feature",
          "properties": {
            "id": "3545017666",
            "osm_type": "node",
            "lat": 48.5938313,
            "lon": 13.5510567,
            "amenity": "post_office",
            "name": "Postfiliale",
            "note": "Öffnungszeiten identisch wie beim Edeka, aber \"nur 17:30\". Siehe Schild am Eingang.",
            "opening_hours": "Mo-Fr 06:30-12:00,14:00-17:30; Sa 07:00-12:00"
          },
          "geometry": {
            "type": "Point",
            "coordinates": [
              13.5510567,
              48.5938313
            ]
          }
        },
        {
          "type": "Feature",
          "properties": {
            "id": "3715748046",
            "osm_type": "node",
            "lat": 48.4805075,
            "lon": 13.5567916,
            "addr:city": "Münzkirchen",
            "addr:housenumber": "3",
            "addr:postcode": "4792",
            "addr:street": "An der Kreuzstraße",
            "amenity": "post_office",
            "name": "Post-Partner 4792 Münzkirchen",
            "operator": "Spar-Markt Estermann"
          },
          "geometry": {
            "type": "Point",
            "coordinates": [
              13.5567916,
              48.4805075
            ]
          }
        },
        {
          "type": "Feature",
          "properties": {
            "id": "4183953485",
            "osm_type": "node",
            "lat": 48.4427536,
            "lon": 13.6616484,
            "amenity": "post_office",
            "name": "Spar",
            "operator": "Österreichische Post AG",
            "post_office:type": "post_partner",
            "shop": "supermarket"
          },
          "geometry": {
            "type": "Point",
            "coordinates": [
              13.6616484,
              48.4427536
            ]
          }
        },
        {
          "type": "Feature",
          "properties": {
            "id": "5323496220",
            "osm_type": "node",
            "lat": 48.5707125,
            "lon": 13.9941144,
            "addr:city": "Rohrbach-Berg",
            "addr:country": "AT",
            "addr:housenumber": "2",
            "addr:postcode": "4150",
            "addr:street": "Schulstraße",
            "amenity": "post_office",
            "email": "allround@gmx.biz",
            "name": "Allround Matratzen & Zubehör",
            "opening_hours": "Mo-Th 08:30-12:00,14:00-18:00; Fr 08:30-18:00; Sa 08:30-12:00",
            "phone": "+43 7289 22440",
            "post_office": "post_partner",
            "post_office:brand": "Hermes PaketShop",
            "shop": "bed;dry_cleaning",
            "website": "https://www.allround.co.at/"
          },
          "geometry": {
            "type": "Point",
            "coordinates": [
              13.9941144,
              48.5707125
            ]
          }
        },
        {
          "type": "Feature",
          "properties": {
            "id": "5334758139",
            "osm_type": "node",
            "lat": 48.5162793,
            "lon": 13.8741652,
            "addr:city": "Putzleinsdorf",
            "addr:housenumber": "6",
            "addr:postcode": "4134",
            "addr:street": "Markt",
            "amenity": "post_office",
            "name": "Postpartnerstelle Burgstaller",
            "opening_hours": "Mo,Tu,Th,Fr 06:00-12:00,14:30-18:00; We,Sa 06:00-12:00",
            "operator": "Thomas Burgstaller"
          },
          "geometry": {
            "type": "Point",
            "coordinates": [
              13.8741652,
              48.5162793
            ]
          }
        },
        {
          "type": "Feature",
          "properties": {
            "id": "340515479",
            "osm_type": "node",
            "lat": 48.5513528,
            "lon": 14.2198968,
            "addr:city": "Vorderweißenbach",
            "addr:country": "AT",
            "addr:housenumber": "15",
            "addr:postcode": "4191",
            "addr:street": "Hauptstraße",
            "amenity": "post_office",
            "name": "4191 Vorderweißenbach",
            "ref": "4191",
            "type": "Post.Partner"
          },
          "geometry": {
            "type": "Point",
            "coordinates": [
              14.2198968,
              48.5513528
            ]
          }
        },
        {
          "type": "Feature",
          "properties": {
            "id": "340515931",
            "osm_type": "node",
            "lat": 48.4649075,
            "lon": 14.227599,
            "addr:city": "Oberneukirchen",
            "addr:country": "AT",
            "addr:housenumber": "43",
            "addr:postcode": "4181",
            "addr:street": "Marktplatz",
            "amenity": "post_office",
            "name": "Postpartner 4181, Marktgemeindeamt Oberneukirchen",
            "post_office": "post_partner",
            "postal_code": "4181",
            "source": "https://www.post.at/"
          },
          "geometry": {
            "type": "Point",
            "coordinates": [
              14.227599,
              48.4649075
            ]
          }
        },
        {
          "type": "Feature",
          "properties": {
            "id": "340515936",
            "osm_type": "node",
            "lat": 48.5219259,
            "lon": 14.2950028,
            "addr:city": "Bad Leonfelden",
            "addr:country": "AT",
            "addr:housenumber": "18",
            "addr:postcode": "4190",
            "addr:street": "Hauptplatz",
            "amenity": "post_office",
            "name": "Post Filiale 4190",
            "opening_hours": "Mo-Fr 08:00-12:00, 14:00-17:30; Sa,Su,PH off",
            "operator": "Österreichische Post AG",
            "operator:wikidata": "Q1763505",
            "website": "https://www.post.at"
          },
          "geometry": {
            "type": "Point",
            "coordinates": [
              14.2950028,
              48.5219259
            ]
          }
        },
        {
          "type": "Feature",
          "properties": {
            "id": "340516037",
            "osm_type": "node",
            "lat": 48.5750295,
            "lon": 14.0415292,
            "amenity": "post_office",
            "name": "4170 Haslach an der Mühl",
            "operator": "La-Le-Lu",
            "postal_code": "4170",
            "ref": "4170",
            "type": "Postfiliale"
          },
          "geometry": {
            "type": "Point",
            "coordinates": [
              14.0415292,
              48.5750295
            ]
          }
        },
        {
          "type": "Feature",
          "properties": {
            "id": "340517781",
            "osm_type": "node",
            "lat": 48.4327876,
            "lon": 14.295259,
            "addr:city": "Hellmonsödt",
            "addr:country": "AT",
            "addr:housenumber": "14",
            "addr:postcode": "4202",
            "addr:street": "Linzer Straße",
            "amenity": "post_office",
            "name": "Postpartner 4202, Raiffeisen Lagerhaus",
            "post_office": "post_partner",
            "postal_code": "4202",
            "source": "https://www.post.at/"
          },
          "geometry": {
            "type": "Point",
            "coordinates": [
              14.295259,
              48.4327876
            ]
          }
        },
        {
          "type": "Feature",
          "properties": {
            "id": "340517797",
            "osm_type": "node",
            "lat": 48.4662933,
            "lon": 14.2706422,
            "addr:city": "Zwettl an der Rodl",
            "addr:country": "AT",
            "addr:housenumber": "2",
            "addr:postcode": "4180",
            "addr:street": "Marktplatz",
            "amenity": "post_office",
            "name": "Postpartner 4180, Marktgemeinde",
            "post_office": "post_partner",
            "source": "https://www.post.at/",
            "wheelchair": "yes"
          },
          "geometry": {
            "type": "Point",
            "coordinates": [
              14.2706422,
              48.4662933
            ]
          }
        },
        {
          "type": "Feature",
          "properties": {
            "id": "340520175",
            "osm_type": "node",
            "lat": 48.4154612,
            "lon": 14.0422922,
            "addr:city": "Sankt Martin im Mühlkreis",
            "addr:country": "AT",
            "addr:housenumber": "2",
            "addr:postcode": "4113",
            "addr:street": "Am Wimberg",
            "amenity": "post_office",
            "name": "Post Filiale 4113",
            "opening_hours": "Mo-Fr 08:00-12:00, 14:00-17:30; Sa,Su,PH off",
            "operator": "Österreichische Post AG",
            "operator:wikidata": "Q1763505",
            "website": "https://www.post.at"
          },
          "geometry": {
            "type": "Point",
            "coordinates": [
              14.0422922,
              48.4154612
            ]
          }
        },
        {
          "type": "Feature",
          "properties": {
            "id": "1149297734",
            "osm_type": "node",
            "lat": 48.5021371,
            "lon": 14.0820597,
            "amenity": "post_office",
            "name": "Elektro Schmid",
            "shop": "electronics",
            "source": "geoimage.at",
            "wheelchair": "no"
          },
          "geometry": {
            "type": "Point",
            "coordinates": [
              14.0820597,
              48.5021371
            ]
          }
        },
        {
          "type": "Feature",
          "properties": {
            "id": "1564890396",
            "osm_type": "node",
            "lat": 48.412269,
            "lon": 14.2762898,
            "amenity": "post_office",
            "name": "Postpartner Post.at",
            "opening_hours": "Mo,We-Fr 07:00-12:00,15:00-18:00; Tu,Sa 07:00-12:00",
            "operator": "Nah und Frisch Reisenberger"
          },
          "geometry": {
            "type": "Point",
            "coordinates": [
              14.2762898,
              48.412269
            ]
          }
        },
        {
          "type": "Feature",
          "properties": {
            "id": "2435773461",
            "osm_type": "node",
            "lat": 48.4679633,
            "lon": 14.1643985,
            "amenity": "post_office",
            "name": "Postpartner"
          },
          "geometry": {
            "type": "Point",
            "coordinates": [
              14.1643985,
              48.4679633
            ]
          }
        },
        {
          "type": "Feature",
          "properties": {
            "id": "4397079632",
            "osm_type": "node",
            "lat": 48.6633062,
            "lon": 14.1661871,
            "amenity": "post_office",
            "contact:website": "https://www.postaonline.cz/detail-pobocky/-/pobocky/detail/38279",
            "name": "Frymburk",
            "opening_hours": "Mo-Fr 08:00-11:30,13:00-15:00;We 08:00-11:30,13:00-16:00",
            "operator": "Česká pošta, s.p.",
            "operator:wikidata": "Q341090",
            "phone": "+420 954 238 279",
            "ref": "38279",
            "wheelchair": "limited",
            "wheelchair:description:cs": "tlačítko pro přivolání obsluhy"
          },
          "geometry": {
            "type": "Point",
            "coordinates": [
              14.1661871,
              48.6633062
            ]
          }
        },
        {
          "type": "Feature",
          "properties": {
            "id": "5320293036",
            "osm_type": "node",
            "lat": 48.6397599,
            "lon": 14.2301524,
            "addr:city": "Lipno nad Vltavou",
            "addr:housenumber": "37",
            "addr:place": "Lipno nad Vltavou",
            "addr:postcode": "38278",
            "amenity": "post_office",
            "contact:website": "https://www.postaonline.cz/detail-pobocky/-/pobocky/detail/38278",
            "name": "Lipno nad Vltavou",
            "opening_hours": "Mo,We 13:00-17:00; Tu,Th,Fr 08:00-12:00",
            "operator": "Česká pošta, s.p.",
            "operator:wikidata": "Q341090",
            "phone": "+420 380 736 267",
            "ref": "38278",
            "wheelchair": "yes"
          },
          "geometry": {
            "type": "Point",
            "coordinates": [
              14.2301524,
              48.6397599
            ]
          }
        },
        {
          "type": "Feature",
          "properties": {
            "id": "5354191897",
            "osm_type": "node",
            "lat": 48.6192044,
            "lon": 14.255906,
            "amenity": "post_office",
            "contact:website": "https://www.postaonline.cz/detail-pobocky/-/pobocky/detail/38276",
            "name": "Loučovice",
            "opening_hours": "Mo,Tu,Th,Fr 08:00-11:30,13:00-15:00;We 08:00-11:30,13:00-16:30",
            "operator": "Česká pošta, s.p.",
            "operator:wikidata": "Q341090",
            "ref": "38276",
            "wheelchair": "limited",
            "wheelchair:description:cs": "tlačítko pro přivolání obsluhy"
          },
          "geometry": {
            "type": "Point",
            "coordinates": [
              14.255906,
              48.6192044
            ]
          }
        },
        {
          "type": "Feature",
          "properties": {
            "id": "5429848006",
            "osm_type": "node",
            "lat": 48.430208,
            "lon": 14.1122971,
            "amenity": "post_office"
          },
          "geometry": {
            "type": "Point",
            "coordinates": [
              14.1122971,
              48.430208
            ]
          }
        }
      ],
      "children": []
    },
    {
      "bbox": {
        "south": 48.355971499999995,
        "west": 14.2994695,
        "north": 48.68652475,
        "east": 15.253173
      },
      "poiCount": 34,
      "leafCount": 34,
      "averagePosition": [
        14.728520867647058,
        48.511449735294114
      ],
      "data": [
        {
          "type": "Feature",
          "properties": {
            "id": "258099869",
            "osm_type": "node",
            "lat": 48.367207,
            "lon": 14.5170097,
            "amenity": "post_office",
            "check_date:opening_hours": "2021-06-13",
            "contact:phone": "+43 7236 20806",
            "level": "0",
            "name": "Postpartner, Diakoniewerk",
            "opening_hours": "Mo-Fr 08:00-12:00,14:00-17:00",
            "postal_code": "4232",
            "ref": "4232",
            "type": "Post.Partner",
            "wheelchair": "limited"
          },
          "geometry": {
            "type": "Point",
            "coordinates": [
              14.5170097,
              48.367207
            ]
          }
        },
        {
          "type": "Feature",
          "properties": {
            "id": "340520559",
            "osm_type": "node",
            "lat": 48.366686,
            "lon": 14.4721786,
            "addr:city": "Unterweitersdorf",
            "addr:country": "AT",
            "addr:housenumber": "24",
            "addr:postcode": "4213",
            "addr:street": "Obere Dorfstraße",
            "amenity": "post_office",
            "name": "Postpartner 4213, Tabak Trafik Koll",
            "post_office": "post_partner",
            "source": "https://www.post.at/"
          },
          "geometry": {
            "type": "Point",
            "coordinates": [
              14.4721786,
              48.366686
            ]
          }
        },
        {
          "type": "Feature",
          "properties": {
            "id": "340518330",
            "osm_type": "node",
            "lat": 48.3598809,
            "lon": 14.8967467,
            "addr:city": "St. Georgen am Walde",
            "addr:country": "AT",
            "addr:housenumber": "5",
            "addr:postcode": "4372",
            "addr:street": "Markt",
            "amenity": "post_office",
            "name": "Postpartner 4372, B&B Handels GmbH",
            "post_office": "post_partner",
            "postal_code": "4372",
            "source": "https://www.post.at/"
          },
          "geometry": {
            "type": "Point",
            "coordinates": [
              14.8967467,
              48.3598809
            ]
          }
        },
        {
          "type": "Feature",
          "properties": {
            "id": "340518286",
            "osm_type": "node",
            "lat": 48.3649908,
            "lon": 15.1182428,
            "addr:city": "Gutenbrunn",
            "addr:country": "AT",
            "addr:housenumber": "22",
            "addr:place": "Gutenbrunn",
            "addr:postcode": "3665",
            "amenity": "post_office",
            "name": "Postpartner 3665, Tabak Trafik",
            "post_office": "post_partner",
            "postal_code": "3665",
            "source": "https://www.post.at/"
          },
          "geometry": {
            "type": "Point",
            "coordinates": [
              15.1182428,
              48.3649908
            ]
          }
        },
        {
          "type": "Feature",
          "properties": {
            "id": "340518089",
            "osm_type": "node",
            "lat": 48.5037109,
            "lon": 14.3603433,
            "addr:city": "Schenkenfelden",
            "addr:country": "AT",
            "addr:housenumber": "11",
            "addr:postcode": "4192",
            "addr:street": "Harruckerstraße",
            "amenity": "post_office",
            "name": "Postpartner 4192, SPAR Pötscher",
            "operator": "Spar Pötscher",
            "post_office": "post_partner",
            "postal_code": "4192",
            "source": "https://www.post.at/"
          },
          "geometry": {
            "type": "Point",
            "coordinates": [
              14.3603433,
              48.5037109
            ]
          }
        },
        {
          "type": "Feature",
          "properties": {
            "id": "340518121",
            "osm_type": "node",
            "lat": 48.4872813,
            "lon": 14.4128425,
            "amenity": "post_office",
            "name": "Postpartner Hirschbach im Mühlkreis",
            "type": "post_partner"
          },
          "geometry": {
            "type": "Point",
            "coordinates": [
              14.4128425,
              48.4872813
            ]
          }
        },
        {
          "type": "Feature",
          "properties": {
            "id": "340520447",
            "osm_type": "node",
            "lat": 48.4097677,
            "lon": 14.4209536,
            "addr:city": "Alberndorf in der Riedmark",
            "addr:country": "AT",
            "addr:housenumber": "45",
            "addr:postcode": "4211",
            "addr:street": "Hauptstraße",
            "amenity": "post_office",
            "name": "Postpartner 4211, Raiffeisen Lagerhaus",
            "post_office": "post_partner",
            "postal_code": "4211",
            "source": "https://www.post.at/"
          },
          "geometry": {
            "type": "Point",
            "coordinates": [
              14.4209536,
              48.4097677
            ]
          }
        },
        {
          "type": "Feature",
          "properties": {
            "id": "340520452",
            "osm_type": "node",
            "lat": 48.4284727,
            "lon": 14.4847957,
            "addr:city": "Neumarkt im Mühlkreis",
            "addr:country": "AT",
            "addr:housenumber": "10",
            "addr:postcode": "4212",
            "addr:street": "Hofgasse",
            "amenity": "post_office",
            "fixme": "check position - Hofgasse?",
            "name": "Postpartner 4212, Nah & Frisch",
            "opening_hours": "Mo-Th 07:00-12:30,14:30-18:00; Fr 07:00-18:00; Sa 07:00-12:00",
            "post_office": "post_partner",
            "postal_code": "4212",
            "source": "https://www.post.at/"
          },
          "geometry": {
            "type": "Point",
            "coordinates": [
              14.4847957,
              48.4284727
            ]
          }
        },
        {
          "type": "Feature",
          "properties": {
            "id": "340520563",
            "osm_type": "node",
            "lat": 48.5427321,
            "lon": 14.3811341,
            "addr:city": "Reichenthal",
            "addr:country": "AT",
            "addr:housenumber": "16",
            "addr:postcode": "4193",
            "addr:street": "Oberer Markt",
            "amenity": "post_office",
            "name": "Postpartner 4193, Nah & Frisch",
            "post_office": "post_partner",
            "source": "https://www.post.at/"
          },
          "geometry": {
            "type": "Point",
            "coordinates": [
              14.3811341,
              48.5427321
            ]
          }
        },
        {
          "type": "Feature",
          "properties": {
            "id": "444634476",
            "osm_type": "node",
            "lat": 48.6175482,
            "lon": 14.3108793,
            "amenity": "post_office",
            "contact:website": "https://www.postaonline.cz/detail-pobocky/-/pobocky/detail/38273",
            "name": "Vyšší Brod",
            "opening_hours": "Mo-Fr 08:00-11:00,13:00-15:30;We 08:00-11:00,13:00-18:00;Sa 08:00-10:00",
            "operator": "Česká pošta, s.p.",
            "operator:wikidata": "Q341090",
            "phone": "+420 954 238 273",
            "ref": "38273",
            "wheelchair": "limited",
            "wheelchair:description:cs": "tlačítko pro přivolání obsluhy"
          },
          "geometry": {
            "type": "Point",
            "coordinates": [
              14.3108793,
              48.6175482
            ]
          }
        },
        {
          "type": "Feature",
          "properties": {
            "id": "1412013435",
            "osm_type": "node",
            "lat": 48.6548205,
            "lon": 14.3670458,
            "amenity": "post_office",
            "contact:website": "https://www.postaonline.cz/detail-pobocky/-/pobocky/detail/38218",
            "name": "Rožmberk nad Vltavou",
            "opening_hours": "Mo,We 13:00-17:00;Tu,Th,Fr 08:00-12:00",
            "operator": "Česká pošta, s.p.",
            "operator:wikidata": "Q341090",
            "post_office:type": "post_partner",
            "ref": "38218",
            "wheelchair": "limited",
            "wheelchair:description:cs": "tlačítko pro přivolání obsluhy"
          },
          "geometry": {
            "type": "Point",
            "coordinates": [
              14.3670458,
              48.6548205
            ]
          }
        },
        {
          "type": "Feature",
          "properties": {
            "id": "5320442768",
            "osm_type": "node",
            "lat": 48.6046513,
            "lon": 14.4050302,
            "amenity": "post_office",
            "brand": "Česká pošta",
            "contact:website": "https://www.postaonline.cz/detail-pobocky/-/pobocky/detail/38293",
            "name": "Horní Dvořiště",
            "opening_hours": "Mo,We 08:00-11:00,14:00-16:30; Tu,Th,Fr 08:00-11:00",
            "post_office": "post_annex",
            "ref": "38293",
            "source": "CP:202407",
            "wheelchair": "no"
          },
          "geometry": {
            "type": "Point",
            "coordinates": [
              14.4050302,
              48.6046513
            ]
          }
        },
        {
          "type": "Feature",
          "properties": {
            "id": "5354191898",
            "osm_type": "node",
            "lat": 48.6548932,
            "lon": 14.4538853,
            "amenity": "post_office",
            "contact:website": "https://www.postaonline.cz/detail-pobocky/-/pobocky/detail/38272",
            "name": "Dolní Dvořiště",
            "opening_hours": "Mo,Tu,Th 08:00-11:30,14:00-16:00;We 08:00-11:30,14:00-17:00;Fr 08:00-11:30",
            "operator": "Česká pošta, s.p.",
            "operator:wikidata": "Q341090",
            "ref": "38272",
            "wheelchair": "limited",
            "wheelchair:description:cs": "tlačítko pro přivolání obsluhy"
          },
          "geometry": {
            "type": "Point",
            "coordinates": [
              14.4538853,
              48.6548932
            ]
          }
        },
        {
          "type": "Feature",
          "properties": {
            "id": "6841180104",
            "osm_type": "node",
            "lat": 48.3730107,
            "lon": 14.3499361,
            "addr:city": "Altenberg bei Linz",
            "addr:country": "AT",
            "addr:housenumber": "1",
            "addr:postcode": "4203",
            "addr:street": "Marktplatz",
            "amenity": "post_office",
            "level": "0",
            "name": "Postpartner 4203 und bank99",
            "opening_hours": "Mo-Fr 07:30-12:00; Mo 13:00-17:00; Di-Do 14:00-17:30",
            "website": "https://www.post.at/",
            "wheelchair": "yes"
          },
          "geometry": {
            "type": "Point",
            "coordinates": [
              14.3499361,
              48.3730107
            ]
          }
        },
        {
          "type": "Feature",
          "properties": {
            "id": "49520466",
            "osm_type": "node",
            "lat": 48.4161738,
            "lon": 14.6086549,
            "addr:city": "Gutau",
            "addr:country": "AT",
            "addr:housenumber": "1",
            "addr:postcode": "4293",
            "addr:street": "Vogeltennstraße",
            "amenity": "post_office",
            "name": "Postpartner 4293 Gutau",
            "operator": "Unimarkt",
            "post_office:type": "post_partner",
            "ref": "4293",
            "wheelchair": "yes"
          },
          "geometry": {
            "type": "Point",
            "coordinates": [
              14.6086549,
              48.4161738
            ]
          }
        },
        {
          "type": "Feature",
          "properties": {
            "id": "340515524",
            "osm_type": "node",
            "lat": 48.493333,
            "lon": 14.9529671,
            "addr:city": "Arbesbach",
            "addr:housenumber": "2",
            "addr:place": "Arbesbach",
            "addr:postcode": "3925",
            "amenity": "post_office",
            "operator": "Einkaufszentrum Reichard",
            "post_office": "post_partner",
            "postal_code": "3925",
            "ref": "3925"
          },
          "geometry": {
            "type": "Point",
            "coordinates": [
              14.9529671,
              48.493333
            ]
          }
        },
        {
          "type": "Feature",
          "properties": {
            "id": "340515782",
            "osm_type": "node",
            "lat": 48.6296788,
            "lon": 14.8259372,
            "addr:city": "Bad Großpertholz",
            "addr:country": "AT",
            "addr:housenumber": "4",
            "addr:place": "Bad Großpertholz",
            "addr:postcode": "3972",
            "amenity": "post_office",
            "name": "3972 Bad Großpertholz",
            "postal_code": "3972",
            "ref": "3972",
            "type": "Postfiliale"
          },
          "geometry": {
            "type": "Point",
            "coordinates": [
              14.8259372,
              48.6296788
            ]
          }
        },
        {
          "type": "Feature",
          "properties": {
            "id": "340517942",
            "osm_type": "node",
            "lat": 48.5596627,
            "lon": 14.6450811,
            "addr:city": "Sandl",
            "addr:country": "AT",
            "addr:housenumber": "24",
            "addr:place": "Sandl",
            "addr:postcode": "4251",
            "amenity": "post_office",
            "name": "Postpartner 4251, Gemeinde",
            "post_office": "post_partner",
            "source": "https://www.post.at/"
          },
          "geometry": {
            "type": "Point",
            "coordinates": [
              14.6450811,
              48.5596627
            ]
          }
        },
        {
          "type": "Feature",
          "properties": {
            "id": "340517997",
            "osm_type": "node",
            "lat": 48.6642687,
            "lon": 14.8394218,
            "addr:city": "St. Martin",
            "addr:country": "AT",
            "addr:housenumber": "6",
            "addr:place": "Sankt Martin",
            "addr:postcode": "3971",
            "amenity": "post_office",
            "name": "Postpartner 3971, Nah & Frisch Richter",
            "post_office": "post_partner",
            "postal_code": "3971",
            "source": "https://www.post.at/"
          },
          "geometry": {
            "type": "Point",
            "coordinates": [
              14.8394218,
              48.6642687
            ]
          }
        },
        {
          "type": "Feature",
          "properties": {
            "id": "340518297",
            "osm_type": "node",
            "lat": 48.4046349,
            "lon": 14.8372759,
            "addr:city": "Königswiesen",
            "addr:country": "AT",
            "addr:housenumber": "2",
            "addr:postcode": "4280",
            "addr:street": "Sportplatzstraße",
            "amenity": "post_office",
            "name": "Postpartner",
            "opening_hours": "Mo-Fr 07:30-12:00,13:30-17:00; We 07:30-12:00",
            "postal_code": "4280",
            "ref": "4280",
            "type": "Postpartner",
            "website": "https://www.post.at/",
            "wheelchair": "yes"
          },
          "geometry": {
            "type": "Point",
            "coordinates": [
              14.8372759,
              48.4046349
            ]
          }
        },
        {
          "type": "Feature",
          "properties": {
            "id": "340518315",
            "osm_type": "node",
            "lat": 48.6535486,
            "lon": 14.9430635,
            "addr:city": "Großschönau",
            "addr:country": "AT",
            "addr:housenumber": "20",
            "addr:place": "Großschönau",
            "addr:postcode": "3922",
            "amenity": "post_office",
            "name": "Postpartner 3922, Mazda Autohaus Prinz",
            "post_office": "post_partner",
            "postal_code": "3922",
            "source": "https://www.post.at/"
          },
          "geometry": {
            "type": "Point",
            "coordinates": [
              14.9430635,
              48.6535486
            ]
          }
        },
        {
          "type": "Feature",
          "properties": {
            "id": "340520642",
            "osm_type": "node",
            "lat": 48.442494,
            "lon": 14.676453,
            "addr:city": "St. Leonhard bei Freistadt",
            "addr:country": "AT",
            "addr:housenumber": "9",
            "addr:postcode": "4294",
            "addr:street": "Hauptstraße",
            "amenity": "post_office",
            "name": "Postpartner 4294, Nah & Frisch",
            "post_office": "post_partner",
            "postal_code": "4294",
            "source": "https://www.post.at/"
          },
          "geometry": {
            "type": "Point",
            "coordinates": [
              14.676453,
              48.442494
            ]
          }
        },
        {
          "type": "Feature",
          "properties": {
            "id": "1546445583",
            "osm_type": "node",
            "lat": 48.5757164,
            "lon": 14.8841974,
            "amenity": "post_office",
            "post_office": "post_partner"
          },
          "geometry": {
            "type": "Point",
            "coordinates": [
              14.8841974,
              48.5757164
            ]
          }
        },
        {
          "type": "Feature",
          "properties": {
            "id": "1784517720",
            "osm_type": "node",
            "lat": 48.4773529,
            "lon": 14.7219869,
            "amenity": "post_office"
          },
          "geometry": {
            "type": "Point",
            "coordinates": [
              14.7219869,
              48.4773529
            ]
          }
        },
        {
          "type": "Feature",
          "properties": {
            "id": "2402686823",
            "osm_type": "node",
            "lat": 48.6729518,
            "lon": 14.6482659,
            "amenity": "post_office",
            "contact:website": "https://www.postaonline.cz/detail-pobocky/-/pobocky/detail/38283",
            "name": "Pohorská Ves",
            "opening_hours": "Mo,Th 12:00-15:00;Tu,We,Fr 08:00-11:00",
            "operator": "Česká pošta, s.p.",
            "operator:wikidata": "Q341090",
            "phone": "+420 380 326 008",
            "ref": "38283",
            "wheelchair": "limited"
          },
          "geometry": {
            "type": "Point",
            "coordinates": [
              14.6482659,
              48.6729518
            ]
          }
        },
        {
          "type": "Feature",
          "properties": {
            "id": "4332225867",
            "osm_type": "node",
            "lat": 48.4317041,
            "lon": 14.780059,
            "amenity": "post_office",
            "name": "Postpartner"
          },
          "geometry": {
            "type": "Point",
            "coordinates": [
              14.780059,
              48.4317041
            ]
          }
        },
        {
          "type": "Feature",
          "properties": {
            "id": "4416545715",
            "osm_type": "node",
            "lat": 48.6862217,
            "lon": 14.575483,
            "amenity": "post_office",
            "contact:website": "https://www.postaonline.cz/detail-pobocky/-/pobocky/detail/38291",
            "name": "Malonty",
            "opening_hours": "Mo,Fr 08:00-12:00,13:00-15:30;Tu,Th 08:00-12:00;We 08:00-12:00,13:00-17:00",
            "operator": "Česká pošta, s.p.",
            "operator:wikidata": "Q341090",
            "phone": "+420 380 325 108",
            "post_office:type": "post_partner",
            "ref": "38291",
            "wheelchair": "limited",
            "wheelchair:description:cs": "tlačítko pro přivolání obsluhy"
          },
          "geometry": {
            "type": "Point",
            "coordinates": [
              14.575483,
              48.6862217
            ]
          }
        },
        {
          "type": "Feature",
          "properties": {
            "id": "340515488",
            "osm_type": "node",
            "lat": 48.6041897,
            "lon": 15.166476,
            "addr:city": "Zwettl",
            "addr:country": "AT",
            "addr:housenumber": "24",
            "addr:postcode": "3910",
            "addr:street": "Landstraße",
            "amenity": "post_office",
            "name": "Post Filiale 3910",
            "opening_hours": "Mo-Fr 08:00-12:00, 13:00-18:00; Sa,Su,PH off",
            "operator": "Österreichische Post AG",
            "operator:wikidata": "Q1763505",
            "website": "https://www.post.at"
          },
          "geometry": {
            "type": "Point",
            "coordinates": [
              15.166476,
              48.6041897
            ]
          }
        },
        {
          "type": "Feature",
          "properties": {
            "id": "340515708",
            "osm_type": "node",
            "lat": 48.5213508,
            "lon": 15.0793228,
            "addr:city": "Rappottenstein",
            "addr:country": "AT",
            "addr:housenumber": "12",
            "addr:place": "Rappottenstein",
            "addr:postcode": "3911",
            "amenity": "post_office",
            "name": "Postpartner 3911, Elektro Gundacker",
            "post_office": "post_partner",
            "postal_code": "3911",
            "source": "https://www.post.at/"
          },
          "geometry": {
            "type": "Point",
            "coordinates": [
              15.0793228,
              48.5213508
            ]
          }
        },
        {
          "type": "Feature",
          "properties": {
            "id": "340516157",
            "osm_type": "node",
            "lat": 48.4233354,
            "lon": 15.2127682,
            "addr:city": "Ottenschlag",
            "addr:country": "AT",
            "addr:housenumber": "17",
            "addr:postcode": "3631",
            "addr:street": "Neuhofstraße",
            "amenity": "post_office",
            "name": "Postpartner 3631, Nah & Frisch",
            "post_office": "post_partner",
            "postal_code": "3631",
            "source": "https://www.post.at/"
          },
          "geometry": {
            "type": "Point",
            "coordinates": [
              15.2127682,
              48.4233354
            ]
          }
        },
        {
          "type": "Feature",
          "properties": {
            "id": "340518218",
            "osm_type": "node",
            "lat": 48.3756869,
            "lon": 15.1499807,
            "addr:city": "Martinsberg",
            "addr:country": "AT",
            "addr:housenumber": "6",
            "addr:postcode": "3664",
            "addr:street": "Markt",
            "amenity": "post_office",
            "name": "Postpartner 3664, Marktgemeinde",
            "post_office": "post_partner",
            "source": "https://www.post.at/"
          },
          "geometry": {
            "type": "Point",
            "coordinates": [
              15.1499807,
              48.3756869
            ]
          }
        },
        {
          "type": "Feature",
          "properties": {
            "id": "340521018",
            "osm_type": "node",
            "lat": 48.6680037,
            "lon": 15.0630578,
            "addr:city": "Schweiggers",
            "addr:country": "AT",
            "addr:housenumber": "4",
            "addr:postcode": "3931",
            "addr:street": "Hauptplatz",
            "amenity": "post_office",
            "name": "Postpartner 3931, KFZ-Kurz",
            "post_office": "post_partner",
            "postal_code": "3931",
            "source": "https://www.post.at/"
          },
          "geometry": {
            "type": "Point",
            "coordinates": [
              15.0630578,
              48.6680037
            ]
          }
        },
        {
          "type": "Feature",
          "properties": {
            "id": "3860628933",
            "osm_type": "node",
            "lat": 48.4528217,
            "lon": 15.0420875,
            "amenity": "post_office",
            "name": "3633 Schönbach"
          },
          "geometry": {
            "type": "Point",
            "coordinates": [
              15.0420875,
              48.4528217
            ]
          }
        },
        {
          "type": "Feature",
          "properties": {
            "id": "8257851264",
            "osm_type": "node",
            "lat": 48.5005081,
            "lon": 15.1661461,
            "amenity": "post_office",
            "name": "Postpartner"
          },
          "geometry": {
            "type": "Point",
            "coordinates": [
              15.1661461,
              48.5005081
            ]
          }
        }
      ],
      "children": []
    },
    {
      "bbox": {
        "south": 48.68652475,
        "west": 13.345766,
        "north": 49.017078,
        "east": 14.2994695
      },
      "poiCount": 38,
      "leafCount": 38,
      "averagePosition": [
        13.838765581578947,
        48.85357054736842
      ],
      "data": [
        {
          "type": "Feature",
          "properties": {
            "id": "298508761",
            "osm_type": "node",
            "lat": 48.7382024,
            "lon": 13.5233957,
            "amenity": "post_office",
            "operator": "Deutsche Post"
          },
          "geometry": {
            "type": "Point",
            "coordinates": [
              13.5233957,
              48.7382024
            ]
          }
        },
        {
          "type": "Feature",
          "properties": {
            "id": "3506840997",
            "osm_type": "node",
            "lat": 48.7315732,
            "lon": 13.3764557,
            "addr:city": "Tittling",
            "addr:country": "DE",
            "addr:housenumber": "5",
            "addr:postcode": "94104",
            "addr:street": "Rothauer Straße",
            "amenity": "post_office",
            "opening_hours": "Mo-Fr 08:00-18:00;Sa 09:00-13:00",
            "operator": "Deutsche Post",
            "operator:wikidata": "Q157645",
            "wheelchair": "yes"
          },
          "geometry": {
            "type": "Point",
            "coordinates": [
              13.3764557,
              48.7315732
            ]
          }
        },
        {
          "type": "Feature",
          "properties": {
            "id": "5893917604",
            "osm_type": "node",
            "lat": 48.8556879,
            "lon": 13.3942317,
            "amenity": "post_office",
            "opening_hours": "Mo-Fr 08:30-18:00; Sa 08:30-13:00"
          },
          "geometry": {
            "type": "Point",
            "coordinates": [
              13.3942317,
              48.8556879
            ]
          }
        },
        {
          "type": "Feature",
          "properties": {
            "id": "8338076986",
            "osm_type": "node",
            "lat": 48.8032548,
            "lon": 13.3979123,
            "addr:city": "Grafenau",
            "addr:country": "DE",
            "addr:housenumber": "20",
            "addr:postcode": "94481",
            "addr:street": "Hofmark",
            "amenity": "post_office",
            "name": "EDEKA Schreiner",
            "opening_hours": "Mo-Sa 06:00-12:00, Mo-Fr 15:00-17:00",
            "operator": "Deutsche Post"
          },
          "geometry": {
            "type": "Point",
            "coordinates": [
              13.3979123,
              48.8032548
            ]
          }
        },
        {
          "type": "Feature",
          "properties": {
            "id": "9289180957",
            "osm_type": "node",
            "lat": 48.8124356,
            "lon": 13.4719556,
            "addr:city": "Ringelai",
            "addr:housenumber": "15",
            "addr:postcode": "94160",
            "addr:street": "Dorfstraße",
            "amenity": "post_office",
            "name": "Deutsche Post",
            "opening_hours": "Mo-Fr 09:00-18:00",
            "operator": "Deutsche Post",
            "operator:wikidata": "Q157645",
            "operator:wikipedia": "de:Deutsche Post AG"
          },
          "geometry": {
            "type": "Point",
            "coordinates": [
              13.4719556,
              48.8124356
            ]
          }
        },
        {
          "type": "Feature",
          "properties": {
            "id": "296472659",
            "osm_type": "node",
            "lat": 48.729896,
            "lon": 13.6016087,
            "addr:city": "Waldkirchen",
            "addr:country": "DE",
            "addr:housenumber": "3",
            "addr:postcode": "94065",
            "addr:street": "Jandelsbrunner Straße",
            "amenity": "post_office",
            "description": "Postfachanlage 94061-94062",
            "name": "Postfachanlage 94061-94062",
            "operator": "Deutsche Post",
            "wheelchair": "yes"
          },
          "geometry": {
            "type": "Point",
            "coordinates": [
              13.6016087,
              48.729896
            ]
          }
        },
        {
          "type": "Feature",
          "properties": {
            "id": "299712845",
            "osm_type": "node",
            "lat": 48.7019463,
            "lon": 13.7920741,
            "amenity": "post_office"
          },
          "geometry": {
            "type": "Point",
            "coordinates": [
              13.7920741,
              48.7019463
            ]
          }
        },
        {
          "type": "Feature",
          "properties": {
            "id": "1839042711",
            "osm_type": "node",
            "lat": 48.8592729,
            "lon": 13.821871,
            "amenity": "post_office",
            "contact:website": "https://www.postaonline.cz/detail-pobocky/-/pobocky/detail/38444",
            "name": "Stožec",
            "opening_hours": "Mo,We,Fr 07:00-09:00,13:00-14:00;Tu,Th 07:00-10:00",
            "operator": "Česká pošta, s.p.",
            "operator:wikidata": "Q341090",
            "post_office": "post_annex",
            "ref": "38444",
            "source": "CP:202311",
            "wheelchair": "no"
          },
          "geometry": {
            "type": "Point",
            "coordinates": [
              13.821871,
              48.8592729
            ]
          }
        },
        {
          "type": "Feature",
          "properties": {
            "id": "3016629513",
            "osm_type": "node",
            "lat": 48.8271263,
            "lon": 13.7751367,
            "amenity": "post_office"
          },
          "geometry": {
            "type": "Point",
            "coordinates": [
              13.7751367,
              48.8271263
            ]
          }
        },
        {
          "type": "Feature",
          "properties": {
            "id": "3704229294",
            "osm_type": "node",
            "lat": 48.7905432,
            "lon": 13.9491908,
            "addr:city": "Nová Pec",
            "addr:conscriptionnumber": "41",
            "addr:country": "CZ",
            "addr:housenumber": "41",
            "addr:place": "Nové Chalupy",
            "addr:postcode": "38462",
            "amenity": "post_office",
            "contact:website": "https://www.postaonline.cz/detail-pobocky/-/pobocky/detail/38462",
            "name": "Nová Pec",
            "opening_hours": "Mo,Tu,Th,Fr 08:00-11:00;We 08:00-09:30,15:00-16:30",
            "operator": "Česká pošta, s.p.",
            "operator:wikidata": "Q341090",
            "phone": "+420 388 336 041",
            "ref": "38462",
            "source:addr": "cuzk:ruian",
            "website": "https://www.ceskaposta.cz/",
            "wheelchair": "yes"
          },
          "geometry": {
            "type": "Point",
            "coordinates": [
              13.9491908,
              48.7905432
            ]
          }
        },
        {
          "type": "Feature",
          "properties": {
            "id": "7927991902",
            "osm_type": "node",
            "lat": 48.7298441,
            "lon": 13.6016344,
            "addr:city": "Waldkirchen",
            "addr:country": "DE",
            "addr:housenumber": "3",
            "addr:postcode": "94065",
            "addr:street": "Jandelsbrunner Straße",
            "amenity": "post_office",
            "name": "Markt Post Waldkirchen",
            "opening_hours": "Mo-Sa 09:00-13:30, Mo,Tu,Th,Fr 14:30-17:00",
            "operator": "Deutsche Post",
            "ref": "505"
          },
          "geometry": {
            "type": "Point",
            "coordinates": [
              13.6016344,
              48.7298441
            ]
          }
        },
        {
          "type": "Feature",
          "properties": {
            "id": "7928330785",
            "osm_type": "node",
            "lat": 48.733195,
            "lon": 13.6083737,
            "addr:city": "Waldkirchen",
            "addr:country": "DE",
            "addr:housenumber": "35",
            "addr:postcode": "94065",
            "addr:street": "Bannholzstraße",
            "amenity": "post_office",
            "name": "Postfiliale im Einzelhandel EDEKA Schwaiberger",
            "opening_hours": "Mo-Fr 08:00-19:00; Sa 08:00-18:00",
            "operator": "Deutsche Post",
            "ref": "402",
            "type": "post partner"
          },
          "geometry": {
            "type": "Point",
            "coordinates": [
              13.6083737,
              48.733195
            ]
          }
        },
        {
          "type": "Feature",
          "properties": {
            "id": "8714193557",
            "osm_type": "node",
            "lat": 48.7992537,
            "lon": 13.5509751,
            "amenity": "post_office",
            "contact:phone": "+49 8551 911051",
            "contact:website": "https://www.nahkauf.de/maerkte/freyung-46612863-buelow-markt-freyung-gmbh-am-bahnhof-32",
            "operator": "Deutsche Post",
            "operator:wikidata": "Q157645",
            "post_office": "post_partner",
            "post_office:brand": "Deutsche Post",
            "post_office:opening_hours": "Mo-Fr 08:00-18:00; Sa 08:00-13:00; PH off",
            "post_office:service_provider": "Deutsche Post",
            "post_office:service_provider:wikidata": "Q157645",
            "ref:DeutschePost": "507"
          },
          "geometry": {
            "type": "Point",
            "coordinates": [
              13.5509751,
              48.7992537
            ]
          }
        },
        {
          "type": "Feature",
          "properties": {
            "id": "11811509286",
            "osm_type": "node",
            "lat": 48.8231606,
            "lon": 13.7741183,
            "amenity": "post_office",
            "name": "Nebl",
            "operator": "Hermes",
            "operator:wikidata": "Q1613532"
          },
          "geometry": {
            "type": "Point",
            "coordinates": [
              13.7741183,
              48.8231606
            ]
          }
        },
        {
          "type": "Feature",
          "properties": {
            "id": "2408775423",
            "osm_type": "node",
            "lat": 48.7395871,
            "lon": 14.1144758,
            "amenity": "post_office",
            "brand": "Česká pošta",
            "contact:website": "https://www.postaonline.cz/detail-pobocky/-/pobocky/detail/38223",
            "name": "Černá v Pošumaví",
            "opening_hours": "Mo-Fr 09:00-16:00",
            "post_office": "post_annex",
            "ref": "38223",
            "source": "CP:202411",
            "wheelchair": "yes"
          },
          "geometry": {
            "type": "Point",
            "coordinates": [
              14.1144758,
              48.7395871
            ]
          }
        },
        {
          "type": "Feature",
          "properties": {
            "id": "3866747627",
            "osm_type": "node",
            "lat": 48.7755461,
            "lon": 14.2898167,
            "addr:city": "Větřní",
            "addr:postcode": "38211",
            "addr:street": "Šumavská",
            "amenity": "post_office",
            "contact:website": "https://www.postaonline.cz/detail-pobocky/-/pobocky/detail/38211",
            "name": "Větřní",
            "opening_hours": "Mo,We,Th 08:00-11:00,13:00-15:45; Tu 08:00-11:00,13:00-18:00; Fr 08:00-12:00; Sa 08:00-10:00",
            "operator": "Česká pošta, s.p.",
            "operator:wikidata": "Q341090",
            "ref": "38211",
            "wheelchair": "limited",
            "wheelchair:description:cs": "tlačítko pro přivolání obsluhy",
            "wikidata": "Q118156214"
          },
          "geometry": {
            "type": "Point",
            "coordinates": [
              14.2898167,
              48.7755461
            ]
          }
        },
        {
          "type": "Feature",
          "properties": {
            "id": "4520256850",
            "osm_type": "node",
            "lat": 48.8538983,
            "lon": 14.2111534,
            "amenity": "post_office",
            "brand": "Česká pošta",
            "brand:wikidata": "Q341090",
            "contact:website": "https://www.postaonline.cz/detail-pobocky/-/pobocky/detail/38208",
            "name": "Chvalšiny",
            "opening_hours": "Mo,We 13:00-18:00; Tu,Th,Fr 08:00-12:00,13:00-14:00",
            "post_office": "bureau",
            "ref": "38208",
            "wheelchair": "limited",
            "wheelchair:description:cs": "tlačítko pro přivolání obsluhy"
          },
          "geometry": {
            "type": "Point",
            "coordinates": [
              14.2111534,
              48.8538983
            ]
          }
        },
        {
          "type": "Feature",
          "properties": {
            "id": "4785036928",
            "osm_type": "node",
            "lat": 48.7643158,
            "lon": 14.0320862,
            "addr:city": "Horní Planá",
            "addr:conscriptionnumber": "169",
            "addr:country": "CZ",
            "addr:housenumber": "169",
            "addr:place": "Horní Planá",
            "addr:postcode": "38226",
            "addr:street": "Jiráskova",
            "amenity": "post_office",
            "contact:website": "https://www.postaonline.cz/detail-pobocky/-/pobocky/detail/38226",
            "name": "Horní Planá",
            "opening_hours": "Mo-Fr 08:00-11:00,13:00-16:30;Sa 08:00-10:00",
            "operator": "Česká pošta, s.p.",
            "operator:wikidata": "Q341090",
            "phone": "+420 954 238 226",
            "ref": "38226",
            "source:addr": "cuzk:ruian",
            "source:loc": "survey",
            "website": "https://www.ceskaposta.cz/",
            "wheelchair": "limited",
            "wheelchair:description:cs": "tlačítko pro přivolání obsluhy"
          },
          "geometry": {
            "type": "Point",
            "coordinates": [
              14.0320862,
              48.7643158
            ]
          }
        },
        {
          "type": "Feature",
          "properties": {
            "id": "5354191893",
            "osm_type": "node",
            "lat": 48.8131828,
            "lon": 14.2584223,
            "addr:city": "Kájov",
            "addr:postcode": "38221",
            "addr:street": "Boletická",
            "amenity": "post_office",
            "contact:website": "https://www.postaonline.cz/detail-pobocky/-/pobocky/detail/38221",
            "name": "Kájov",
            "opening_hours": "Mo 08:00-11:30,15:00-16:30; Tu,Th 08:00-11:30,13:00-15:00; We 08:00-11:30,15:00-17:00; Fr 08:00-11:30",
            "operator": "Česká pošta, s.p.",
            "operator:wikidata": "Q341090",
            "phone": "+420 954 238 221",
            "ref": "38221",
            "wheelchair": "yes",
            "wikidata": "Q118159147"
          },
          "geometry": {
            "type": "Point",
            "coordinates": [
              14.2584223,
              48.8131828
            ]
          }
        },
        {
          "type": "Feature",
          "properties": {
            "id": "5354191894",
            "osm_type": "node",
            "lat": 48.7993385,
            "lon": 14.1458537,
            "amenity": "post_office",
            "contact:website": "https://www.postaonline.cz/detail-pobocky/-/pobocky/detail/38229",
            "name": "Polná na Šumavě",
            "opening_hours": "Mo,We 08:00-09:00,14:00-16:00;Tu,Th,Fr 08:00-11:00",
            "operator": "Česká pošta, s.p.",
            "operator:wikidata": "Q341090",
            "phone": "+420 607 657 825",
            "post_office:type": "post_partner",
            "ref": "38229",
            "wheelchair": "no"
          },
          "geometry": {
            "type": "Point",
            "coordinates": [
              14.1458537,
              48.7993385
            ]
          }
        },
        {
          "type": "Feature",
          "properties": {
            "id": "5354191895",
            "osm_type": "node",
            "lat": 48.765871,
            "lon": 14.1765489,
            "amenity": "post_office",
            "contact:website": "https://www.postaonline.cz/detail-pobocky/-/pobocky/detail/38222",
            "name": "Hořice na Šumavě",
            "opening_hours": "Mo,We 08:00-11:00,12:00-17:00;Tu,Th 08:00-11:00,12:00-15:30;Fr 08:00-11:00,12:00-13:00",
            "operator": "Česká pošta, s.p.",
            "operator:wikidata": "Q341090",
            "phone": "+420 380 737 110",
            "post_office:type": "post_partner",
            "ref": "38222",
            "wheelchair": "limited",
            "wheelchair:description:cs": "tlačítko pro přivolání obsluhy"
          },
          "geometry": {
            "type": "Point",
            "coordinates": [
              14.1765489,
              48.765871
            ]
          }
        },
        {
          "type": "Feature",
          "properties": {
            "id": "5354191896",
            "osm_type": "node",
            "lat": 48.7306381,
            "lon": 14.2096222,
            "addr:city": "Světlík",
            "addr:postcode": "38216",
            "amenity": "post_office",
            "contact:website": "https://www.postaonline.cz/detail-pobocky/-/pobocky/detail/38216",
            "name": "Světlík",
            "opening_hours": "Mo,We 08:00-09:30,14:00-16:30; Tu,Th,Fr 08:00-11:00",
            "operator": "Česká pošta, s.p.",
            "operator:wikidata": "Q341090",
            "phone": "+420 380 737 210",
            "post_office:type": "post_partner",
            "ref": "38216",
            "wheelchair": "limited",
            "wheelchair:description:cs": "tlačítko pro přivolání obsluhy"
          },
          "geometry": {
            "type": "Point",
            "coordinates": [
              14.2096222,
              48.7306381
            ]
          }
        },
        {
          "type": "Feature",
          "properties": {
            "id": "12170409676",
            "osm_type": "node",
            "lat": 48.8838485,
            "lon": 13.4747837,
            "amenity": "post_office",
            "brand": "DHL",
            "brand:wikidata": "Q489815",
            "name": "DHL"
          },
          "geometry": {
            "type": "Point",
            "coordinates": [
              13.4747837,
              48.8838485
            ]
          }
        },
        {
          "type": "Feature",
          "properties": {
            "id": "12861747550",
            "osm_type": "node",
            "lat": 48.9069373,
            "lon": 13.3823917,
            "addr:city": "Sankt Oswald-Riedlhütte",
            "addr:country": "DE",
            "addr:housenumber": "11",
            "addr:postcode": "94566",
            "addr:street": "Geheimrat-Frank-Straße",
            "amenity": "post_office",
            "name": "Deutsche Post",
            "opening_hours": "Mo-Fr 15:00-17:00; Sa 10:00-12:00",
            "operator": "Deutsche Post Shop München GmbH"
          },
          "geometry": {
            "type": "Point",
            "coordinates": [
              13.3823917,
              48.9069373
            ]
          }
        },
        {
          "type": "Feature",
          "properties": {
            "id": "283596484",
            "osm_type": "node",
            "lat": 49.0170694,
            "lon": 13.5796252,
            "amenity": "post_office",
            "contact:website": "https://www.postaonline.cz/detail-pobocky/-/pobocky/detail/38493",
            "name": "Kvilda",
            "opening_hours": "Mo,We,Fr 08:00-11:50;Tu,Th 13:00-15:00",
            "operator": "Česká pošta, s.p.",
            "operator:wikidata": "Q341090",
            "ref": "38493",
            "wheelchair": "limited",
            "wheelchair:description:cs": "tlačítko pro přivolání obsluhy"
          },
          "geometry": {
            "type": "Point",
            "coordinates": [
              13.5796252,
              49.0170694
            ]
          }
        },
        {
          "type": "Feature",
          "properties": {
            "id": "782932098",
            "osm_type": "node",
            "lat": 48.9990525,
            "lon": 13.932147,
            "amenity": "post_office",
            "brand": "Česká pošta",
            "contact:website": "https://www.postaonline.cz/detail-pobocky/-/pobocky/detail/38433",
            "name": "Záblatí u Prachatic",
            "opening_hours": "Mo 12:30-16:30; Tu-Fr 07:30-10:30; Th 13:00-15:00",
            "operator": "Česká pošta, s.p.",
            "operator:wikidata": "Q341090",
            "ref": "38433",
            "wheelchair": "limited",
            "wheelchair:description:cs": "tlačítko pro přivolání obsluhy"
          },
          "geometry": {
            "type": "Point",
            "coordinates": [
              13.932147,
              48.9990525
            ]
          }
        },
        {
          "type": "Feature",
          "properties": {
            "id": "996964955",
            "osm_type": "node",
            "lat": 48.9901516,
            "lon": 13.6603819,
            "amenity": "post_office",
            "contact:website": "https://www.postaonline.cz/detail-pobocky/-/pobocky/detail/38492",
            "name": "Borová Lada",
            "opening_hours": "Mo,We,Fr 08:00-11:00;Tu,Th 13:00-16:00",
            "operator": "Česká pošta, s.p.",
            "operator:wikidata": "Q341090",
            "post_office": "post_annex",
            "ref": "38492",
            "source": "CP:202311",
            "wheelchair": "yes"
          },
          "geometry": {
            "type": "Point",
            "coordinates": [
              13.6603819,
              48.9901516
            ]
          }
        },
        {
          "type": "Feature",
          "properties": {
            "id": "1103291585",
            "osm_type": "node",
            "lat": 48.957605,
            "lon": 13.7585212,
            "amenity": "post_office",
            "contact:website": "https://www.postaonline.cz/detail-pobocky/-/pobocky/detail/38491",
            "name": "Horní Vltavice",
            "opening_hours": "Mo,We 12:00-17:00; Tu,Th,Fr 09:00-11:00",
            "operator": "Česká pošta, s.p.",
            "operator:wikidata": "Q341090",
            "phone": "+420 725 326 050",
            "post_office:type": "post_partner",
            "ref": "38491"
          },
          "geometry": {
            "type": "Point",
            "coordinates": [
              13.7585212,
              48.957605
            ]
          }
        },
        {
          "type": "Feature",
          "properties": {
            "id": "1334416637",
            "osm_type": "node",
            "lat": 49.0147065,
            "lon": 13.9993592,
            "amenity": "post_office",
            "contact:website": "https://www.postaonline.cz/detail-pobocky/-/pobocky/detail/38301",
            "name": "Prachatice",
            "opening_hours": "Mo-Fr 08:00-18:00;Sa 08:00-12:00",
            "operator": "Česká pošta, s.p.",
            "operator:wikidata": "Q341090",
            "phone": "+420 954 238 301",
            "ref": "38301",
            "wheelchair": "yes"
          },
          "geometry": {
            "type": "Point",
            "coordinates": [
              13.9993592,
              49.0147065
            ]
          }
        },
        {
          "type": "Feature",
          "properties": {
            "id": "1500976269",
            "osm_type": "node",
            "lat": 48.9085623,
            "lon": 13.7205183,
            "addr:city": "Strážný",
            "addr:housenumber": "23",
            "addr:postcode": "38443",
            "addr:street": "Strážný",
            "amenity": "post_office",
            "contact:website": "https://www.postaonline.cz/detail-pobocky/-/pobocky/detail/38443",
            "country": "CZ",
            "name": "Strážný",
            "opening_hours": "Mo,Tu,Th,Fr 09:00-12:15; We 12:30-16:00",
            "operator": "Česká pošta, s.p.",
            "operator:wikidata": "Q341090",
            "operator:wikipedia": "cs:Česká pošta",
            "phone": "+420 732 577 677",
            "post_office:type": "post_partner",
            "ref": "38443",
            "wheelchair": "yes"
          },
          "geometry": {
            "type": "Point",
            "coordinates": [
              13.7205183,
              48.9085623
            ]
          }
        },
        {
          "type": "Feature",
          "properties": {
            "id": "1834650983",
            "osm_type": "node",
            "lat": 48.9233667,
            "lon": 13.7938075,
            "amenity": "post_office",
            "contact:website": "https://www.postaonline.cz/detail-pobocky/-/pobocky/detail/38442",
            "name": "Lenora",
            "opening_hours": "Mo-We 08:00-12:00;Th 08:30-12:00;Fr 10:00-13:00,15:00-16:30",
            "operator": "Česká pošta, s.p.",
            "operator:wikidata": "Q341090",
            "ref": "38442",
            "wheelchair": "limited",
            "wheelchair:description:cs": "tlačítko pro přivolání obsluhy"
          },
          "geometry": {
            "type": "Point",
            "coordinates": [
              13.7938075,
              48.9233667
            ]
          }
        },
        {
          "type": "Feature",
          "properties": {
            "id": "3866747626",
            "osm_type": "node",
            "lat": 48.9104612,
            "lon": 13.8925235,
            "amenity": "post_office",
            "contact:website": "https://www.postaonline.cz/detail-pobocky/-/pobocky/detail/38451",
            "name": "Volary",
            "opening_hours": "Mo,We 08:00-17:00;Tu,Th,Fr 08:00-16:00;Sa 08:00-09:00",
            "operator": "Česká pošta, s.p.",
            "operator:wikidata": "Q341090",
            "ref": "38451",
            "wheelchair": "yes"
          },
          "geometry": {
            "type": "Point",
            "coordinates": [
              13.8925235,
              48.9104612
            ]
          }
        },
        {
          "type": "Feature",
          "properties": {
            "id": "5354191886",
            "osm_type": "node",
            "lat": 48.942793,
            "lon": 13.9784422,
            "amenity": "post_office",
            "contact:website": "https://www.postaonline.cz/detail-pobocky/-/pobocky/detail/38441",
            "name": "Zbytiny",
            "opening_hours": "Mo,We 10:00-17:30;Tu,Th,Fr 08:00-12:00;Sa 08:00-09:00",
            "operator": "Česká pošta, s.p.",
            "operator:wikidata": "Q341090",
            "post_office:type": "post_partner",
            "ref": "38441",
            "wheelchair": "yes"
          },
          "geometry": {
            "type": "Point",
            "coordinates": [
              13.9784422,
              48.942793
            ]
          }
        },
        {
          "type": "Feature",
          "properties": {
            "id": "5354191875",
            "osm_type": "node",
            "lat": 49.0056982,
            "lon": 14.0528306,
            "amenity": "post_office",
            "contact:website": "https://www.postaonline.cz/detail-pobocky/-/pobocky/detail/38401",
            "name": "Nebahovy",
            "opening_hours": "Mo,Tu,Th,Fr 08:00-11:00;We 13:30-16:30",
            "operator": "Česká pošta, s.p.",
            "operator:wikidata": "Q341090",
            "ref": "38401",
            "wheelchair": "limited",
            "wheelchair:description:cs": "tlačítko pro přivolání obsluhy"
          },
          "geometry": {
            "type": "Point",
            "coordinates": [
              14.0528306,
              49.0056982
            ]
          }
        },
        {
          "type": "Feature",
          "properties": {
            "id": "5354191876",
            "osm_type": "node",
            "lat": 48.9939214,
            "lon": 14.1499426,
            "amenity": "post_office",
            "contact:website": "https://www.postaonline.cz/detail-pobocky/-/pobocky/detail/38402",
            "name": "Lhenice",
            "opening_hours": "Mo,We,Th,Fr 08:30-11:30,13:00-15:15;Tu 08:30-12:00,13:00-16:30",
            "operator": "Česká pošta, s.p.",
            "operator:wikidata": "Q341090",
            "phone": "+420 388 321 497",
            "post_office:type": "post_partner",
            "ref": "38402",
            "wheelchair": "no"
          },
          "geometry": {
            "type": "Point",
            "coordinates": [
              14.1499426,
              48.9939214
            ]
          }
        },
        {
          "type": "Feature",
          "properties": {
            "id": "5354191885",
            "osm_type": "node",
            "lat": 48.9567411,
            "lon": 14.0679919,
            "amenity": "post_office",
            "contact:website": "https://www.postaonline.cz/detail-pobocky/-/pobocky/detail/38404",
            "name": "Chroboly",
            "opening_hours": "Mo,We 08:00-10:00,15:00-16:00;Tu,Th,Fr 08:00-11:00",
            "operator": "Česká pošta, s.p.",
            "operator:wikidata": "Q341090",
            "ref": "38404",
            "wheelchair": "limited",
            "wheelchair:description:cs": "tlačítko pro přivolání obsluhy"
          },
          "geometry": {
            "type": "Point",
            "coordinates": [
              14.0679919,
              48.9567411
            ]
          }
        },
        {
          "type": "Feature",
          "properties": {
            "id": "5354191887",
            "osm_type": "node",
            "lat": 48.9293423,
            "lon": 14.2213967,
            "amenity": "post_office",
            "contact:website": "https://www.postaonline.cz/detail-pobocky/-/pobocky/detail/38206",
            "name": "Brloh",
            "opening_hours": "Mo,We 07:30-11:30,12:30-17:00; Tu,Th,Fr 07:30-12:00",
            "operator": "Česká pošta, s.p.",
            "operator:wikidata": "Q341090",
            "post_office": "post_annex",
            "ref": "38206",
            "wheelchair": "no"
          },
          "geometry": {
            "type": "Point",
            "coordinates": [
              14.2213967,
              48.9293423
            ]
          }
        },
        {
          "type": "Feature",
          "properties": {
            "id": "5354191888",
            "osm_type": "node",
            "lat": 48.9176541,
            "lon": 14.1315159,
            "amenity": "post_office",
            "contact:website": "https://www.postaonline.cz/detail-pobocky/-/pobocky/detail/38403",
            "name": "Ktiš",
            "opening_hours": "Mo,We 08:00-16:30;Tu,Th 08:00-15:30;Fr 08:00-12:00",
            "operator": "Česká pošta, s.p.",
            "operator:wikidata": "Q341090",
            "phone": "+420 388 323 520",
            "post_office:type": "post_partner",
            "ref": "38403",
            "wheelchair": "yes"
          },
          "geometry": {
            "type": "Point",
            "coordinates": [
              14.1315159,
              48.9176541
            ]
          }
        }
      ],
      "children": []
    },
    {
      "bbox": {
        "south": 48.68652475,
        "west": 14.2994695,
        "north": 49.017078,
        "east": 15.253173
      },
      "poiCount": 64,
      "leafCount": 0,
      "averagePosition": [
        14.66488736875,
        48.877418917187505
      ],
      "data": [],
      "children": [
        {
          "bbox": {
            "south": 48.68652475,
            "west": 14.2994695,
            "north": 48.851801374999994,
            "east": 14.77632125
          },
          "poiCount": 15,
          "leafCount": 15,
          "averagePosition": [
            14.53511282,
            48.78951356
          ],
          "data": [
            {
              "type": "Feature",
              "properties": {
                "id": "444629753",
                "osm_type": "node",
                "lat": 48.701253,
                "lon": 14.3883117,
                "amenity": "post_office",
                "contact:website": "https://www.postaonline.cz/detail-pobocky/-/pobocky/detail/38292",
                "name": "Rožmitál na Šumavě",
                "opening_hours": "Mo-Fr 09:00-12:00,14:00-16:00;We 09:00-12:00",
                "operator": "Česká pošta, s.p.",
                "operator:wikidata": "Q341090",
                "phone": "+420 720 948 884",
                "post_office:type": "post_partner",
                "ref": "38292",
                "wheelchair": "no"
              },
              "geometry": {
                "type": "Point",
                "coordinates": [
                  14.3883117,
                  48.701253
                ]
              }
            },
            {
              "type": "Feature",
              "properties": {
                "id": "1865482367",
                "osm_type": "node",
                "lat": 48.829471,
                "lon": 14.4586008,
                "amenity": "post_office",
                "contact:website": "https://www.postaonline.cz/detail-pobocky/-/pobocky/detail/38232",
                "name": "Velešín",
                "opening_hours": "Mo 08:00-11:00,13:00-17:00;Tu,Th,Fr 08:00-11:00,13:00-16:00;We 08:00-11:00,13:00-18:00;Sa 09:00-11:00",
                "operator": "Česká pošta, s.p.",
                "operator:wikidata": "Q341090",
                "ref": "38232",
                "wheelchair": "limited",
                "wheelchair:description:cs": "tlačítko pro přivolání obsluhy"
              },
              "geometry": {
                "type": "Point",
                "coordinates": [
                  14.4586008,
                  48.829471
                ]
              }
            },
            {
              "type": "Feature",
              "properties": {
                "id": "2444485144",
                "osm_type": "node",
                "lat": 48.7749323,
                "lon": 14.4688667,
                "amenity": "post_office",
                "contact:website": "https://www.postaonline.cz/detail-pobocky/-/pobocky/detail/38242",
                "name": "Kaplice 2",
                "opening_hours": "Mo 10:00-16:30; Tu,Fr 09:30-11:00; We 08:30-11:00; Th 10:00-14:00",
                "operator": "Česká pošta, s.p.",
                "operator:wikidata": "Q341090",
                "phone": "+420 737 997 330",
                "post_office:type": "post_partner",
                "ref": "38242",
                "wheelchair": "yes"
              },
              "geometry": {
                "type": "Point",
                "coordinates": [
                  14.4688667,
                  48.7749323
                ]
              }
            },
            {
              "type": "Feature",
              "properties": {
                "id": "3866747601",
                "osm_type": "node",
                "lat": 48.7379134,
                "lon": 14.49144,
                "addr:city": "Kaplice",
                "addr:housenumber": "84",
                "addr:postcode": "38241",
                "addr:street": "Tržní",
                "amenity": "post_office",
                "contact:website": "https://www.postaonline.cz/detail-pobocky/-/pobocky/detail/38241",
                "name": "Kaplice 1",
                "opening_hours": "Mo,We 08:00-18:00; Tu,Th,Fr 08:00-17:00; Sa 08:00-10:00",
                "operator": "Česká pošta, s.p.",
                "operator:wikidata": "Q341090",
                "ref": "38241",
                "wheelchair": "yes"
              },
              "geometry": {
                "type": "Point",
                "coordinates": [
                  14.49144,
                  48.7379134
                ]
              }
            },
            {
              "type": "Feature",
              "properties": {
                "id": "3866747637",
                "osm_type": "node",
                "lat": 48.8140777,
                "lon": 14.3173441,
                "addr:city": "Český Krumlov",
                "addr:housenumber": "193",
                "addr:postcode": "381 01",
                "addr:street": "Latrán",
                "amenity": "post_office",
                "contact:website": "https://www.postaonline.cz/detail-pobocky/-/pobocky/detail/38101",
                "level": "0",
                "name": "Český Krumlov 1",
                "opening_hours": "Mo-Fr 07:00-18:00; Sa 08:00-12:00",
                "operator": "Česká pošta, s.p.",
                "operator:wikidata": "Q341090",
                "payment:cash": "yes",
                "payment:credit_cards": "yes",
                "phone": "+420 954 238 101",
                "ref": "38101",
                "website": "https://www.ceskaposta.cz",
                "wheelchair": "yes",
                "wikidata": "Q118155027"
              },
              "geometry": {
                "type": "Point",
                "coordinates": [
                  14.3173441,
                  48.8140777
                ]
              }
            },
            {
              "type": "Feature",
              "properties": {
                "id": "4866749615",
                "osm_type": "node",
                "lat": 48.825299,
                "lon": 14.5264145,
                "amenity": "post_office",
                "brand": "Česká pošta",
                "contact:website": "https://www.postaonline.cz/detail-pobocky/-/pobocky/detail/37322",
                "name": "Ločenice",
                "opening_hours": "Mo,Fr 07:00-10:00;Tu 13:00-16:00;We 14:00-17:00;Th 11:00-13:00",
                "operator": "Česká pošta, s.p.",
                "operator:wikidata": "Q341090",
                "phone": "+420 725 519 529",
                "post_office:type": "post_partner",
                "ref": "37322",
                "wheelchair": "yes"
              },
              "geometry": {
                "type": "Point",
                "coordinates": [
                  14.5264145,
                  48.825299
                ]
              }
            },
            {
              "type": "Feature",
              "properties": {
                "id": "5354191891",
                "osm_type": "node",
                "lat": 48.8221912,
                "lon": 14.3169224,
                "amenity": "post_office",
                "contact:website": "https://www.postaonline.cz/detail-pobocky/-/pobocky/detail/38102",
                "name": "Český Krumlov 2",
                "opening_hours": "Mo,Tu,Th,Fr 08:00-12:00,12:30-15:00;We 13:00-17:00",
                "operator": "Česká pošta, s.p.",
                "operator:wikidata": "Q341090",
                "phone": "+420 773 610 668",
                "post_office:type": "post_partner",
                "ref": "38102",
                "wheelchair": "no",
                "wikidata": "Q118155028"
              },
              "geometry": {
                "type": "Point",
                "coordinates": [
                  14.3169224,
                  48.8221912
                ]
              }
            },
            {
              "type": "Feature",
              "properties": {
                "id": "5354191902",
                "osm_type": "node",
                "lat": 48.825094,
                "lon": 14.5093533,
                "amenity": "post_office",
                "contact:website": "https://www.postaonline.cz/detail-pobocky/-/pobocky/detail/37323",
                "name": "Svatý Jan nad Malší",
                "opening_hours": "Mo 13:00-17:00;Tu,We,Fr 08:00-10:00;Th 13:00-16:00",
                "operator": "Česká pošta, s.p.",
                "operator:wikidata": "Q341090",
                "ref": "37323",
                "wheelchair": "yes"
              },
              "geometry": {
                "type": "Point",
                "coordinates": [
                  14.5093533,
                  48.825094
                ]
              }
            },
            {
              "type": "Feature",
              "properties": {
                "id": "2403970266",
                "osm_type": "node",
                "lat": 48.7288453,
                "lon": 14.625334,
                "amenity": "post_office",
                "contact:website": "https://www.postaonline.cz/detail-pobocky/-/pobocky/detail/38282",
                "name": "Benešov nad Černou",
                "opening_hours": "Mo,Th 08:00-11:30,13:00-16:00;Tu 08:00-12:00;We 08:00-11:30,13:00-17:00;Fr 08:00-10:30,13:00-16:00",
                "operator": "Česká pošta, s.p.",
                "operator:wikidata": "Q341090",
                "ref": "38282",
                "wheelchair": "limited",
                "wheelchair:description:cs": "tlačítko pro přivolání obsluhy"
              },
              "geometry": {
                "type": "Point",
                "coordinates": [
                  14.625334,
                  48.7288453
                ]
              }
            },
            {
              "type": "Feature",
              "properties": {
                "id": "2422423458",
                "osm_type": "node",
                "lat": 48.7615687,
                "lon": 14.7357847,
                "amenity": "post_office",
                "contact:website": "https://www.postaonline.cz/detail-pobocky/-/pobocky/detail/37335",
                "name": "Horní Stropnice",
                "opening_hours": "Mo-Th 08:00-10:00,13:00-15:45;We 12:00-17:00;Fr 08:00-13:00",
                "operator": "Česká pošta, s.p.",
                "operator:wikidata": "Q341090",
                "phone": "+420 954 237 335",
                "ref": "37335",
                "wheelchair": "limited"
              },
              "geometry": {
                "type": "Point",
                "coordinates": [
                  14.7357847,
                  48.7615687
                ]
              }
            },
            {
              "type": "Feature",
              "properties": {
                "id": "3866747620",
                "osm_type": "node",
                "lat": 48.8393408,
                "lon": 14.6373046,
                "amenity": "post_office",
                "contact:website": "https://www.postaonline.cz/detail-pobocky/-/pobocky/detail/37401",
                "name": "Trhové Sviny",
                "opening_hours": "Mo,We 08:00-17:30;Tu,Th,Fr 08:00-17:00;Sa 08:00-10:00",
                "operator": "Česká pošta, s.p.",
                "operator:wikidata": "Q341090",
                "ref": "37401",
                "wheelchair": "limited",
                "wheelchair:description:cs": "tlačítko pro přivolání obsluhy"
              },
              "geometry": {
                "type": "Point",
                "coordinates": [
                  14.6373046,
                  48.8393408
                ]
              }
            },
            {
              "type": "Feature",
              "properties": {
                "id": "5354191884",
                "osm_type": "node",
                "lat": 48.8384915,
                "lon": 14.7031832,
                "amenity": "post_office",
                "contact:website": "https://www.postaonline.cz/detail-pobocky/-/pobocky/detail/37331",
                "name": "Olešnice u Českých Budějovic",
                "opening_hours": "Mo,Tu,Th 07:00-09:00,14:00-15:00;We 13:00-17:00;Fr 07:00-10:00",
                "operator": "Česká pošta, s.p.",
                "operator:wikidata": "Q341090",
                "ref": "37331",
                "wheelchair": "limited",
                "wheelchair:description:cs": "tlačítko pro přivolání obsluhy"
              },
              "geometry": {
                "type": "Point",
                "coordinates": [
                  14.7031832,
                  48.8384915
                ]
              }
            },
            {
              "type": "Feature",
              "properties": {
                "id": "5354191899",
                "osm_type": "node",
                "lat": 48.7898068,
                "lon": 14.5563966,
                "amenity": "post_office",
                "brand": "Česká pošta",
                "brand:wikidata": "Q341090",
                "contact:website": "https://www.postaonline.cz/detail-pobocky/-/pobocky/detail/38281",
                "name": "Besednice",
                "opening_hours": "Mo 07:30-11:30,14:00-17:00; Tu,Fr 07:30-11:30; We 07:30-11:30,14:00-18:00; Th 07:30-11:30,14:00-16:00",
                "operator": "Česká pošta, s.p.",
                "operator:wikidata": "Q341090",
                "post_office": "post_annex",
                "ref": "38281",
                "wheelchair": "no"
              },
              "geometry": {
                "type": "Point",
                "coordinates": [
                  14.5563966,
                  48.7898068
                ]
              }
            },
            {
              "type": "Feature",
              "properties": {
                "id": "5354191900",
                "osm_type": "node",
                "lat": 48.7981106,
                "lon": 14.6150981,
                "amenity": "post_office",
                "contact:website": "https://www.postaonline.cz/detail-pobocky/-/pobocky/detail/37321",
                "name": "Slavče",
                "opening_hours": "Mo,Tu,Th 07:30-09:30,15:00-16:00;We 07:30-09:30,15:00-17:00;Fr 07:30-09:30",
                "operator": "Česká pošta, s.p.",
                "operator:wikidata": "Q341090",
                "ref": "37321",
                "wheelchair": "yes"
              },
              "geometry": {
                "type": "Point",
                "coordinates": [
                  14.6150981,
                  48.7981106
                ]
              }
            },
            {
              "type": "Feature",
              "properties": {
                "id": "5354191901",
                "osm_type": "node",
                "lat": 48.7563081,
                "lon": 14.6763376,
                "amenity": "post_office",
                "brand": "Česká pošta",
                "contact:website": "https://www.postaonline.cz/detail-pobocky/-/pobocky/detail/37336",
                "name": "Rychnov u Nových Hradů",
                "opening_hours": "Mo-Th 14:00-17:00; Fr 08:00-11:00",
                "operator": "Česká pošta, s.p.",
                "operator:wikidata": "Q341090",
                "post_office:type": "post_partner",
                "ref": "37336",
                "wheelchair": "no"
              },
              "geometry": {
                "type": "Point",
                "coordinates": [
                  14.6763376,
                  48.7563081
                ]
              }
            }
          ],
          "children": []
        },
        {
          "bbox": {
            "south": 48.68652475,
            "west": 14.77632125,
            "north": 48.851801374999994,
            "east": 15.253173
          },
          "poiCount": 12,
          "leafCount": 12,
          "averagePosition": [
            15.018623316666668,
            48.78764914166667
          ],
          "data": [
            {
              "type": "Feature",
              "properties": {
                "id": "340518247",
                "osm_type": "node",
                "lat": 48.7713595,
                "lon": 15.0258492,
                "addr:city": "Hoheneich",
                "addr:country": "AT",
                "addr:housenumber": "85",
                "addr:postcode": "3945",
                "addr:street": "Marktplatz",
                "amenity": "post_office",
                "name": "Postpartner 3945, Die Krämerei",
                "post_office": "post_partner",
                "postal_code": "3945",
                "source": "https://www.post.at/"
              },
              "geometry": {
                "type": "Point",
                "coordinates": [
                  15.0258492,
                  48.7713595
                ]
              }
            },
            {
              "type": "Feature",
              "properties": {
                "id": "340518256",
                "osm_type": "node",
                "lat": 48.8405307,
                "lon": 14.9951297,
                "addr:city": "Alt-Nagelberg",
                "addr:country": "AT",
                "addr:housenumber": "44",
                "addr:postcode": "3871",
                "addr:street": "Hauptstraße",
                "amenity": "post_office",
                "fixme": "genaue Lage",
                "name": "3871 Nagelberg",
                "postal_code": "3871",
                "ref": "3871",
                "type": "Postfiliale"
              },
              "geometry": {
                "type": "Point",
                "coordinates": [
                  14.9951297,
                  48.8405307
                ]
              }
            },
            {
              "type": "Feature",
              "properties": {
                "id": "881182307",
                "osm_type": "node",
                "lat": 48.7905916,
                "lon": 14.7777704,
                "amenity": "post_office",
                "contact:website": "https://www.postaonline.cz/detail-pobocky/-/pobocky/detail/37333",
                "name": "Nové Hrady v jižních Čechách",
                "opening_hours": "Mo 08:00-11:00,13:30-17:30;Tu-Fr 08:00-11:00,13:30-16:00",
                "operator": "Česká pošta, s.p.",
                "operator:wikidata": "Q341090",
                "ref": "37333",
                "source": "survey",
                "wheelchair": "limited",
                "wheelchair:description:cs": "tlačítko pro přivolání obsluhy"
              },
              "geometry": {
                "type": "Point",
                "coordinates": [
                  14.7777704,
                  48.7905916
                ]
              }
            },
            {
              "type": "Feature",
              "properties": {
                "id": "3922206913",
                "osm_type": "node",
                "lat": 48.7693024,
                "lon": 14.9590631,
                "amenity": "post_office",
                "contact:website": "https://www.postaonline.cz/detail-pobocky/-/pobocky/detail/37810",
                "name": "České Velenice",
                "opening_hours": "Mo,We 08:30-11:00,13:30-17:00;Tu,Th,Fr 08:30-11:00,13:30-16:00",
                "operator": "Česká pošta, s.p.",
                "operator:wikidata": "Q341090",
                "ref": "37810",
                "wheelchair": "limited",
                "wheelchair:description:cs": "tlačítko pro přivolání obsluhy"
              },
              "geometry": {
                "type": "Point",
                "coordinates": [
                  14.9590631,
                  48.7693024
                ]
              }
            },
            {
              "type": "Feature",
              "properties": {
                "id": "5354191878",
                "osm_type": "node",
                "lat": 48.851529,
                "lon": 14.9027261,
                "amenity": "post_office",
                "contact:website": "https://www.postaonline.cz/detail-pobocky/-/pobocky/detail/37808",
                "name": "Dvory nad Lužnicí",
                "opening_hours": "Mo,Fr 08:00-10:00,14:00-15:30;Tu,Th 08:00-10:00;We 08:00-10:00,14:30-16:30",
                "operator": "Česká pošta, s.p.",
                "operator:wikidata": "Q341090",
                "phone": "+420 602 374 711",
                "post_office:type": "post_partner",
                "ref": "37808",
                "wheelchair": "yes"
              },
              "geometry": {
                "type": "Point",
                "coordinates": [
                  14.9027261,
                  48.851529
                ]
              }
            },
            {
              "type": "Feature",
              "properties": {
                "id": "5354191879",
                "osm_type": "node",
                "lat": 48.8105659,
                "lon": 14.9253626,
                "amenity": "post_office",
                "contact:website": "https://www.postaonline.cz/detail-pobocky/-/pobocky/detail/37809",
                "name": "Nová Ves nad Lužnicí",
                "opening_hours": "Mo-Fr 08:45-10:45,14:45-15:45;We 08:45-09:45,14:45-16:45",
                "operator": "Česká pošta, s.p.",
                "operator:wikidata": "Q341090",
                "phone": "+420 384 795 934",
                "ref": "37809",
                "wheelchair": "limited",
                "wheelchair:description:cs": "tlačítko pro přivolání obsluhy"
              },
              "geometry": {
                "type": "Point",
                "coordinates": [
                  14.9253626,
                  48.8105659
                ]
              }
            },
            {
              "type": "Feature",
              "properties": {
                "id": "7682350588",
                "osm_type": "node",
                "lat": 48.7007764,
                "lon": 14.8946353,
                "addr:city": "Weitra",
                "addr:housenumber": "9",
                "addr:postcode": "3970",
                "addr:street": "Rathausplatz",
                "amenity": "post_office",
                "name": "Postfiliale 3970 und bank99"
              },
              "geometry": {
                "type": "Point",
                "coordinates": [
                  14.8946353,
                  48.7007764
                ]
              }
            },
            {
              "type": "Feature",
              "properties": {
                "id": "340518157",
                "osm_type": "node",
                "lat": 48.7197471,
                "lon": 15.2177382,
                "addr:city": "Echsenbach",
                "addr:country": "AT",
                "addr:housenumber": "6",
                "addr:postcode": "3903",
                "addr:street": "Kirchenberg",
                "amenity": "post_office",
                "name": "Postpartner 3903, Marktgemeinde",
                "post_office": "post_partner",
                "postal_code": "3903",
                "source": "https://www.post.at/"
              },
              "geometry": {
                "type": "Point",
                "coordinates": [
                  15.2177382,
                  48.7197471
                ]
              }
            },
            {
              "type": "Feature",
              "properties": {
                "id": "1765490678",
                "osm_type": "node",
                "lat": 48.8332407,
                "lon": 15.0484423,
                "amenity": "post_office"
              },
              "geometry": {
                "type": "Point",
                "coordinates": [
                  15.0484423,
                  48.8332407
                ]
              }
            },
            {
              "type": "Feature",
              "properties": {
                "id": "10265153161",
                "osm_type": "node",
                "lat": 48.7586315,
                "lon": 15.1957765,
                "amenity": "post_office",
                "name": "Post AG"
              },
              "geometry": {
                "type": "Point",
                "coordinates": [
                  15.1957765,
                  48.7586315
                ]
              }
            },
            {
              "type": "Feature",
              "properties": {
                "id": "10298509027",
                "osm_type": "node",
                "lat": 48.7554679,
                "lon": 15.1845443,
                "amenity": "post_office",
                "name": "POSTPARTNER Vitis (Appel GesmbH)"
              },
              "geometry": {
                "type": "Point",
                "coordinates": [
                  15.1845443,
                  48.7554679
                ]
              }
            },
            {
              "type": "Feature",
              "properties": {
                "id": "10811528360",
                "osm_type": "node",
                "lat": 48.850047,
                "lon": 15.0964421,
                "addr:city": "Heidenreichstein",
                "addr:country": "AT",
                "addr:housenumber": "58",
                "addr:place": "Kleinpertholz",
                "addr:postcode": "3860",
                "amenity": "post_office",
                "brand": "DPD",
                "brand:wikidata": "Q541030",
                "name": "DPD",
                "operator": "Wurz"
              },
              "geometry": {
                "type": "Point",
                "coordinates": [
                  15.0964421,
                  48.850047
                ]
              }
            }
          ],
          "children": []
        },
        {
          "bbox": {
            "south": 48.851801374999994,
            "west": 14.2994695,
            "north": 49.017078,
            "east": 14.77632125
          },
          "poiCount": 30,
          "leafCount": 30,
          "averagePosition": [
            14.506464223333333,
            48.94663370333333
          ],
          "data": [
            {
              "type": "Feature",
              "properties": {
                "id": "2929662106",
                "osm_type": "node",
                "lat": 48.8541373,
                "lon": 14.410555,
                "amenity": "post_office",
                "contact:website": "https://www.postaonline.cz/detail-pobocky/-/pobocky/detail/38201",
                "name": "Dolní Třebonín",
                "opening_hours": "Mo-Th 08:00-11:00,12:00-14:45;We 08:00-11:00,12:00-16:30;Fr 16:00-17:45",
                "operator": "Česká pošta, s.p.",
                "operator:wikidata": "Q341090",
                "phone": "+420 380 743 821",
                "ref": "38201",
                "wheelchair": "limited",
                "wheelchair:description:cs": "tlačítko pro přivolání obsluhy"
              },
              "geometry": {
                "type": "Point",
                "coordinates": [
                  14.410555,
                  48.8541373
                ]
              }
            },
            {
              "type": "Feature",
              "properties": {
                "id": "3864692586",
                "osm_type": "node",
                "lat": 48.8562079,
                "lon": 14.4866652,
                "amenity": "post_office",
                "contact:website": "https://www.postaonline.cz/detail-pobocky/-/pobocky/detail/37324",
                "name": "Římov",
                "opening_hours": "Mo,We 12:00-17:00; Tu,Th 07:30-13:00; Fr 07:30-12:30",
                "operator": "Česká pošta, s.p.",
                "operator:wikidata": "Q341090",
                "phone": "+420 954 237 324",
                "ref": "37324",
                "wheelchair": "limited",
                "wheelchair:description:cs": "tlačítko pro přivolání obsluhy"
              },
              "geometry": {
                "type": "Point",
                "coordinates": [
                  14.4866652,
                  48.8562079
                ]
              }
            },
            {
              "type": "Feature",
              "properties": {
                "id": "5354191889",
                "osm_type": "node",
                "lat": 48.8542716,
                "lon": 14.3693916,
                "addr:city": "Zlatá Koruna",
                "addr:postcode": "38202",
                "amenity": "post_office",
                "contact:website": "https://www.postaonline.cz/detail-pobocky/-/pobocky/detail/38202",
                "name": "Zlatá Koruna",
                "opening_hours": "Mo,Fr 07:30-09:00,14:30-15:30; Tu,Th 07:30-09:00,14:30-17:00; We 07:30-09:00,14:30-16:00",
                "operator": "Česká pošta, s.p.",
                "operator:wikidata": "Q341090",
                "ref": "38202",
                "wheelchair": "limited",
                "wheelchair:description:cs": "tlačítko pro přivolání obsluhy"
              },
              "geometry": {
                "type": "Point",
                "coordinates": [
                  14.3693916,
                  48.8542716
                ]
              }
            },
            {
              "type": "Feature",
              "properties": {
                "id": "279001723",
                "osm_type": "node",
                "lat": 48.9738362,
                "lon": 14.4784683,
                "addr:postcode": "37001",
                "amenity": "post_office",
                "contact:website": "https://www.postaonline.cz/detail-pobocky/-/pobocky/detail/37001",
                "name": "České Budějovice 1",
                "opening_hours": "Mo-Fr 07:00-19:00;Sa 08:00-12:00",
                "operator": "Česká pošta, s.p.",
                "operator:wikidata": "Q341090",
                "operator:wikipedia": "cs:Česká pošta",
                "phone": "+420 954 237 001",
                "ref": "37001",
                "wheelchair": "yes",
                "wikidata": "Q118156055"
              },
              "geometry": {
                "type": "Point",
                "coordinates": [
                  14.4784683,
                  48.9738362
                ]
              }
            },
            {
              "type": "Feature",
              "properties": {
                "id": "641574519",
                "osm_type": "node",
                "lat": 48.9697917,
                "lon": 14.5013451,
                "amenity": "post_office",
                "contact:website": "https://www.postaonline.cz/detail-pobocky/-/pobocky/detail/37006",
                "name": "České Budějovice 6",
                "opening_hours": "Mo-Fr 08:00-18:00",
                "operator": "Česká pošta, s.p.",
                "operator:wikidata": "Q341090",
                "phone": "+420 954 237 006",
                "ref": "37006",
                "wheelchair": "yes"
              },
              "geometry": {
                "type": "Point",
                "coordinates": [
                  14.5013451,
                  48.9697917
                ]
              }
            },
            {
              "type": "Feature",
              "properties": {
                "id": "1224272593",
                "osm_type": "node",
                "lat": 48.98263,
                "lon": 14.4455977,
                "amenity": "post_office",
                "contact:website": "https://www.postaonline.cz/detail-pobocky/-/pobocky/detail/37012",
                "name": "České Budějovice 12",
                "opening_hours": "Mo-Fr 08:00-18:00;Sa 08:00-11:00",
                "operator": "Česká pošta, s.p.",
                "operator:wikidata": "Q341090",
                "ref": "37012",
                "wheelchair": "yes"
              },
              "geometry": {
                "type": "Point",
                "coordinates": [
                  14.4455977,
                  48.98263
                ]
              }
            },
            {
              "type": "Feature",
              "properties": {
                "id": "1474964422",
                "osm_type": "node",
                "lat": 48.9765376,
                "lon": 14.359455,
                "amenity": "post_office",
                "contact:website": "https://www.postaonline.cz/detail-pobocky/-/pobocky/detail/37384",
                "name": "Dubné",
                "opening_hours": "Mo,We 08:00-11:30,13:00-17:00;Tu,Th,Fr 08:00-11:30,13:00-16:00",
                "operator": "Česká pošta, s.p.",
                "operator:wikidata": "Q341090",
                "phone": "+420 954 237 384",
                "ref": "37384",
                "wheelchair": "limited"
              },
              "geometry": {
                "type": "Point",
                "coordinates": [
                  14.359455,
                  48.9765376
                ]
              }
            },
            {
              "type": "Feature",
              "properties": {
                "id": "1897914788",
                "osm_type": "node",
                "lat": 48.9506228,
                "lon": 14.4668504,
                "amenity": "post_office",
                "contact:website": "https://www.postaonline.cz/detail-pobocky/-/pobocky/detail/37007",
                "name": "České Budějovice 7",
                "opening_hours": "Mo,We 11:00-12:00,13:00-18:00; Tu,Th,Fr 08:00-12:00,13:00-15:00",
                "operator": "Česká pošta, s.p.",
                "operator:wikidata": "Q341090",
                "ref": "37007",
                "wheelchair": "limited",
                "wheelchair:description:cs": "tlačítko pro přivolání obsluhy"
              },
              "geometry": {
                "type": "Point",
                "coordinates": [
                  14.4668504,
                  48.9506228
                ]
              }
            },
            {
              "type": "Feature",
              "properties": {
                "id": "2175128446",
                "osm_type": "node",
                "lat": 48.983872,
                "lon": 14.4382755,
                "amenity": "post_office",
                "contact:website": "https://www.postaonline.cz/detail-pobocky/-/pobocky/detail/37005",
                "name": "České Budějovice 5",
                "opening_hours": "Mo-Fr 08:00-18:30;Sa 08:00-11:00",
                "operator": "Česká pošta, s.p.",
                "operator:wikidata": "Q341090",
                "operator:wikipedia": "cs:Česká pošta",
                "phone": "+420 954 237 005",
                "ref": "37005",
                "wheelchair": "yes"
              },
              "geometry": {
                "type": "Point",
                "coordinates": [
                  14.4382755,
                  48.983872
                ]
              }
            },
            {
              "type": "Feature",
              "properties": {
                "id": "2372703070",
                "osm_type": "node",
                "lat": 48.9049905,
                "lon": 14.3057674,
                "amenity": "post_office",
                "contact:website": "https://www.postaonline.cz/detail-pobocky/-/pobocky/detail/38203",
                "name": "Křemže",
                "opening_hours": "Mo,We,Fr 08:00-11:00,13:00-17:00;Tu,Th 08:00-11:00,13:00-16:00",
                "operator": "Česká pošta, s.p.",
                "operator:wikidata": "Q341090",
                "ref": "38203",
                "wheelchair": "limited",
                "wheelchair:description:cs": "tlačítko pro přivolání obsluhy"
              },
              "geometry": {
                "type": "Point",
                "coordinates": [
                  14.3057674,
                  48.9049905
                ]
              }
            },
            {
              "type": "Feature",
              "properties": {
                "id": "3866747587",
                "osm_type": "node",
                "lat": 48.9679048,
                "lon": 14.5248303,
                "amenity": "post_office",
                "contact:website": "https://www.postaonline.cz/detail-pobocky/-/pobocky/detail/37316",
                "name": "Dobrá Voda u Českých Budějovic",
                "opening_hours": "Mo,Tu,Th,Fr 08:00-11:00,13:00-15:00;We 07:30-11:00,15:00-17:30",
                "operator": "Česká pošta, s.p.",
                "operator:wikidata": "Q341090",
                "ref": "37316",
                "wheelchair": "yes"
              },
              "geometry": {
                "type": "Point",
                "coordinates": [
                  14.5248303,
                  48.9679048
                ]
              }
            },
            {
              "type": "Feature",
              "properties": {
                "id": "3866747599",
                "osm_type": "node",
                "lat": 48.8970413,
                "lon": 14.4476964,
                "amenity": "post_office",
                "contact:website": "https://www.postaonline.cz/detail-pobocky/-/pobocky/detail/37381",
                "name": "Kamenný Újezd",
                "opening_hours": "Mo,We 07:30-10:30,14:00-17:00;Tu 07:30-11:00;Th,Fr 08:00-11:00,13:00-15:00",
                "operator": "Česká pošta, s.p.",
                "operator:wikidata": "Q341090",
                "ref": "37381",
                "wheelchair": "limited",
                "wheelchair:description:cs": "tlačítko pro přivolání obsluhy"
              },
              "geometry": {
                "type": "Point",
                "coordinates": [
                  14.4476964,
                  48.8970413
                ]
              }
            },
            {
              "type": "Feature",
              "properties": {
                "id": "3866747634",
                "osm_type": "node",
                "lat": 48.9900287,
                "lon": 14.455228,
                "amenity": "post_office",
                "contact:website": "https://www.postaonline.cz/detail-pobocky/-/pobocky/detail/37011",
                "name": "České Budějovice 11",
                "opening_hours": "Mo,Tu,Th,Fr 08:00-18:00;We 08:30-18:30;Sa 09:00-11:30",
                "operator": "Česká pošta, s.p.",
                "operator:wikidata": "Q341090",
                "ref": "37011",
                "wheelchair": "yes",
                "wikidata": "Q118155014"
              },
              "geometry": {
                "type": "Point",
                "coordinates": [
                  14.455228,
                  48.9900287
                ]
              }
            },
            {
              "type": "Feature",
              "properties": {
                "id": "3866747635",
                "osm_type": "node",
                "lat": 48.9842882,
                "lon": 14.4704529,
                "amenity": "post_office",
                "contact:website": "https://www.postaonline.cz/detail-pobocky/-/pobocky/detail/37004",
                "name": "České Budějovice 4",
                "opening_hours": "Mo-Fr 07:30-18:00;Sa 08:00-11:00",
                "operator": "Česká pošta, s.p.",
                "operator:wikidata": "Q341090",
                "phone": "+420 954 237 004",
                "ref": "37004",
                "wheelchair": "yes"
              },
              "geometry": {
                "type": "Point",
                "coordinates": [
                  14.4704529,
                  48.9842882
                ]
              }
            },
            {
              "type": "Feature",
              "properties": {
                "id": "3866747636",
                "osm_type": "node",
                "lat": 48.9577435,
                "lon": 14.492115,
                "amenity": "post_office",
                "contact:website": "https://www.postaonline.cz/detail-pobocky/-/pobocky/detail/37008",
                "name": "České Budějovice 8",
                "opening_hours": "Mo 08:00-11:30,13:00-17:00;Tu,Th,Fr 08:00-11:30,13:00-16:00;We 08:00-09:30,13:00-17:00",
                "operator": "Česká pošta, s.p.",
                "operator:wikidata": "Q341090",
                "ref": "37008",
                "wheelchair": "limited",
                "wheelchair:description:cs": "tlačítko pro přivolání obsluhy"
              },
              "geometry": {
                "type": "Point",
                "coordinates": [
                  14.492115,
                  48.9577435
                ]
              }
            },
            {
              "type": "Feature",
              "properties": {
                "id": "5354191881",
                "osm_type": "node",
                "lat": 48.9262584,
                "lon": 14.4442347,
                "amenity": "post_office",
                "contact:website": "https://www.postaonline.cz/detail-pobocky/-/pobocky/detail/37382",
                "name": "Boršov nad Vltavou",
                "opening_hours": "Mo,Tu,Th 08:00-11:00,14:00-17:00;We 08:00-11:00,14:00-18:00;Fr 08:00-12:00",
                "operator": "Česká pošta, s.p.",
                "operator:wikidata": "Q341090",
                "ref": "37382",
                "wheelchair": "limited",
                "wheelchair:description:cs": "tlačítko pro přivolání obsluhy"
              },
              "geometry": {
                "type": "Point",
                "coordinates": [
                  14.4442347,
                  48.9262584
                ]
              }
            },
            {
              "type": "Feature",
              "properties": {
                "id": "5354191882",
                "osm_type": "node",
                "lat": 48.9206152,
                "lon": 14.5289321,
                "amenity": "post_office",
                "contact:website": "https://www.postaonline.cz/detail-pobocky/-/pobocky/detail/37315",
                "name": "Nová Ves",
                "opening_hours": "Mo,We 14:00-18:00;Tu,Th,Fr 06:30-10:30",
                "operator": "Česká pošta, s.p.",
                "operator:wikidata": "Q341090",
                "phone": "+420 387 240 517",
                "post_office:type": "post_partner",
                "ref": "37315",
                "wheelchair": "limited",
                "wheelchair:description:cs": "tlačítko pro přivolání obsluhy"
              },
              "geometry": {
                "type": "Point",
                "coordinates": [
                  14.5289321,
                  48.9206152
                ]
              }
            },
            {
              "type": "Feature",
              "properties": {
                "id": "5381451518",
                "osm_type": "node",
                "lat": 48.9615182,
                "lon": 14.4532254,
                "amenity": "post_office",
                "contact:website": "https://www.postaonline.cz/detail-pobocky/-/pobocky/detail/37303",
                "name": "Litvínovice",
                "opening_hours": "Mo,We 08:00-11:30,14:00-18:00;Tu,Th,Fr 08:00-11:30",
                "operator": "Česká pošta, s.p.",
                "operator:wikidata": "Q341090",
                "post_office:type": "post_partner",
                "ref": "37303",
                "wheelchair": "yes"
              },
              "geometry": {
                "type": "Point",
                "coordinates": [
                  14.4532254,
                  48.9615182
                ]
              }
            },
            {
              "type": "Feature",
              "properties": {
                "id": "6183838241",
                "osm_type": "node",
                "lat": 48.998048,
                "lon": 14.49032,
                "addr:city": "České Budějovice",
                "addr:housenumber": "7",
                "addr:postcode": "37001",
                "addr:street": "Okružní",
                "amenity": "post_office",
                "brand": "DPD",
                "brand:wikidata": "Q541030",
                "description": "Přepravní společnost - přeprava zboží a zásilek",
                "email": "info@dpd.cz",
                "name": "DPD CZ, Depo České Budějovice",
                "note": "Depo 1387",
                "opening_hours": "Mo-Fr 09:00-18:00",
                "operator": "Direct Parcel Distribution CZ s. r. o.",
                "payment:cash": "yes",
                "payment:credit_cards": "yes",
                "phone": "+420 225 373 373",
                "ref": "1387",
                "source": "DPD CZ",
                "website": "https://www.dpd.cz"
              },
              "geometry": {
                "type": "Point",
                "coordinates": [
                  14.49032,
                  48.998048
                ]
              }
            },
            {
              "type": "Feature",
              "properties": {
                "id": "9104675634",
                "osm_type": "node",
                "lat": 48.9962625,
                "lon": 14.5280969,
                "addr:city": "Rudolfov",
                "addr:conscriptionnumber": "238",
                "addr:housenumber": "238",
                "addr:place": "Hůry",
                "addr:postcode": "37371",
                "addr:street": "Budějovická",
                "amenity": "post_office",
                "name": "Depo Zásilkovna České Budějovice - Hůry",
                "opening_hours": "Mo-Fr 09:00-18:00",
                "operator": "Zásilkovna",
                "operator:wikidata": "Q25454926",
                "operator:wikipedia": "cs:Zásilkovna",
                "ref": "14376",
                "ref:ruian:addr": "82116334",
                "website": "https://www.zasilkovna.cz/pobocky/vm-depo-ceske-budejovice-hury-238"
              },
              "geometry": {
                "type": "Point",
                "coordinates": [
                  14.5280969,
                  48.9962625
                ]
              }
            },
            {
              "type": "Feature",
              "properties": {
                "id": "10786058623",
                "osm_type": "node",
                "lat": 48.9247844,
                "lon": 14.4541684,
                "amenity": "post_office",
                "contact:website": "https://www.postaonline.cz/detail-pobocky/-/pobocky/detail/37406",
                "name": "Včelná",
                "opening_hours": "Mo,We 12:00-18:00; Tu,Th 07:00-13:00; Fr 09:00-15:00",
                "operator": "Česká pošta, s.p.",
                "operator:wikidata": "Q341090",
                "post_office": "post_annex",
                "ref": "37406",
                "wheelchair": "no"
              },
              "geometry": {
                "type": "Point",
                "coordinates": [
                  14.4541684,
                  48.9247844
                ]
              }
            },
            {
              "type": "Feature",
              "properties": {
                "id": "913521888",
                "osm_type": "node",
                "lat": 48.9322607,
                "lon": 14.6181628,
                "amenity": "post_office",
                "contact:website": "https://www.postaonline.cz/detail-pobocky/-/pobocky/detail/37311",
                "name": "Ledenice",
                "opening_hours": "Mo-Fr 08:00-10:30,13:30-16:00;We 08:00-10:30,13:30-17:00",
                "operator": "Česká pošta, s.p.",
                "operator:wikidata": "Q341090",
                "phone": "+420 954 237 311",
                "ref": "37311",
                "wheelchair": "yes"
              },
              "geometry": {
                "type": "Point",
                "coordinates": [
                  14.6181628,
                  48.9322607
                ]
              }
            },
            {
              "type": "Feature",
              "properties": {
                "id": "1331072269",
                "osm_type": "node",
                "lat": 49.0167923,
                "lon": 14.6099741,
                "amenity": "post_office",
                "contact:website": "https://www.postaonline.cz/detail-pobocky/-/pobocky/detail/37372",
                "name": "Lišov u Českých Budějovic",
                "opening_hours": "Mo,We 08:00-17:30;Tu,Fr 08:00-16:00;Th 08:00-15:00;Sa 08:00-10:00",
                "operator": "Česká pošta, s.p.",
                "operator:wikidata": "Q341090",
                "ref": "37372",
                "wheelchair": "yes"
              },
              "geometry": {
                "type": "Point",
                "coordinates": [
                  14.6099741,
                  49.0167923
                ]
              }
            },
            {
              "type": "Feature",
              "properties": {
                "id": "2384648735",
                "osm_type": "node",
                "lat": 48.8998448,
                "lon": 14.6414798,
                "amenity": "post_office",
                "contact:website": "https://www.postaonline.cz/detail-pobocky/-/pobocky/detail/37312",
                "name": "Borovany",
                "opening_hours": "Mo,Tu,Th,Fr 08:00-11:00,13:00-16:00;We 08:00-11:00,13:00-18:00;Sa 08:00-10:00",
                "operator": "Česká pošta, s.p.",
                "operator:wikidata": "Q341090",
                "ref": "37312",
                "source": "survey",
                "wheelchair": "limited",
                "wheelchair:description:cs": "tlačítko pro přivolání obsluhy"
              },
              "geometry": {
                "type": "Point",
                "coordinates": [
                  14.6414798,
                  48.8998448
                ]
              }
            },
            {
              "type": "Feature",
              "properties": {
                "id": "2404901741",
                "osm_type": "node",
                "lat": 49.0057847,
                "lon": 14.7658253,
                "amenity": "post_office",
                "contact:website": "https://www.postaonline.cz/detail-pobocky/-/pobocky/detail/37901",
                "name": "Třeboň",
                "opening_hours": "Mo,Tu,Th,Fr 08:00-17:00;We 08:00-18:00;Sa 08:00-11:00",
                "operator": "Česká pošta, s.p.",
                "operator:wikidata": "Q341090",
                "ref": "37901",
                "wheelchair": "yes"
              },
              "geometry": {
                "type": "Point",
                "coordinates": [
                  14.7658253,
                  49.0057847
                ]
              }
            },
            {
              "type": "Feature",
              "properties": {
                "id": "3866747617",
                "osm_type": "node",
                "lat": 48.9937766,
                "lon": 14.5403552,
                "amenity": "post_office",
                "contact:website": "https://www.postaonline.cz/detail-pobocky/-/pobocky/detail/37371",
                "name": "Rudolfov",
                "opening_hours": "Mo,We 07:30-10:30,14:00-17:00;Tu,Th,Fr 07:30-10:30,13:00-16:00",
                "operator": "Česká pošta, s.p.",
                "operator:wikidata": "Q341090",
                "ref": "37371",
                "wheelchair": "limited",
                "wheelchair:description:cs": "tlačítko pro přivolání obsluhy"
              },
              "geometry": {
                "type": "Point",
                "coordinates": [
                  14.5403552,
                  48.9937766
                ]
              }
            },
            {
              "type": "Feature",
              "properties": {
                "id": "3922206102",
                "osm_type": "node",
                "lat": 48.8910235,
                "lon": 14.7256538,
                "amenity": "post_office",
                "contact:website": "https://www.postaonline.cz/detail-pobocky/-/pobocky/detail/37332",
                "name": "Jílovice u Trhových Svin",
                "opening_hours": "Mo 07:30-09:30,14:30-16:30;Tu,Th 07:30-09:30;We 07:30-09:30,15:00-17:00;Fr 07:30-09:30,14:30-15:30",
                "operator": "Česká pošta, s.p.",
                "operator:wikidata": "Q341090",
                "ref": "37332",
                "wheelchair": "limited",
                "wheelchair:description:cs": "tlačítko pro přivolání obsluhy"
              },
              "geometry": {
                "type": "Point",
                "coordinates": [
                  14.7256538,
                  48.8910235
                ]
              }
            },
            {
              "type": "Feature",
              "properties": {
                "id": "5354191880",
                "osm_type": "node",
                "lat": 49.0007846,
                "lon": 14.6540987,
                "amenity": "post_office",
                "check_date": "2025-05-29",
                "contact:website": "https://www.postaonline.cz/detail-pobocky/-/pobocky/detail/37373",
                "name": "Štěpánovice",
                "opening_hours": "Mo,Tu,Th,Fr 08:00-11:30;We 08:00-11:30,13:00-17:00",
                "operator": "Česká pošta, s.p.",
                "operator:wikidata": "Q341090",
                "post_office:type": "post_partner",
                "ref": "37373",
                "wheelchair": "limited",
                "wheelchair:description:cs": "tlačítko pro přivolání obsluhy"
              },
              "geometry": {
                "type": "Point",
                "coordinates": [
                  14.6540987,
                  49.0007846
                ]
              }
            },
            {
              "type": "Feature",
              "properties": {
                "id": "5354191883",
                "osm_type": "node",
                "lat": 48.8796293,
                "lon": 14.5453164,
                "amenity": "post_office",
                "contact:website": "https://www.postaonline.cz/detail-pobocky/-/pobocky/detail/37314",
                "name": "Komařice",
                "opening_hours": "Mo 08:00-10:15,15:00-17:00;Tu,Th 08:00-10:15,15:00-16:00;We 08:00-10:30;Fr 08:00-10:45",
                "operator": "Česká pošta, s.p.",
                "operator:wikidata": "Q341090",
                "ref": "37314",
                "wheelchair": "limited",
                "wheelchair:description:cs": "tlačítko pro přivolání obsluhy"
              },
              "geometry": {
                "type": "Point",
                "coordinates": [
                  14.5453164,
                  48.8796293
                ]
              }
            },
            {
              "type": "Feature",
              "properties": {
                "id": "9935239075",
                "osm_type": "node",
                "lat": 48.9477238,
                "lon": 14.5413893,
                "amenity": "post_office",
                "contact:website": "https://www.postaonline.cz/detail-pobocky/-/pobocky/detail/37310",
                "name": "Srubec",
                "opening_hours": "Mo,We 14:00-18:00; Tu,Th,Fr 08:00-12:00",
                "operator": "Česká pošta, s.p.",
                "operator:wikidata": "Q341090",
                "ref": "37310",
                "wheelchair": "no"
              },
              "geometry": {
                "type": "Point",
                "coordinates": [
                  14.5413893,
                  48.9477238
                ]
              }
            }
          ],
          "children": []
        },
        {
          "bbox": {
            "south": 48.851801374999994,
            "west": 14.77632125,
            "north": 49.017078,
            "east": 15.253173
          },
          "poiCount": 7,
          "leafCount": 7,
          "averagePosition": [
            15.015527542857143,
            48.923043785714285
          ],
          "data": [
            {
              "type": "Feature",
              "properties": {
                "id": "1361074955",
                "osm_type": "node",
                "lat": 48.8898641,
                "lon": 14.8754216,
                "amenity": "post_office",
                "contact:website": "https://www.postaonline.cz/detail-pobocky/-/pobocky/detail/37806",
                "name": "Suchdol nad Lužnicí",
                "opening_hours": "Mo,We 08:00-10:00,13:00-17:00;Tu,Th,Fr 08:00-10:00,13:00-16:00;Sa 08:00-10:00",
                "operator": "Česká pošta, s.p.",
                "operator:wikidata": "Q341090",
                "ref": "37806",
                "wheelchair": "yes"
              },
              "geometry": {
                "type": "Point",
                "coordinates": [
                  14.8754216,
                  48.8898641
                ]
              }
            },
            {
              "type": "Feature",
              "properties": {
                "id": "3866747586",
                "osm_type": "node",
                "lat": 48.9588448,
                "lon": 14.9329518,
                "amenity": "post_office",
                "contact:website": "https://www.postaonline.cz/detail-pobocky/-/pobocky/detail/37804",
                "name": "Chlum u Třeboně",
                "opening_hours": "Mo,Tu,Th,Fr 08:00-11:00,13:30-16:00;We 08:00-10:00,13:30-17:00",
                "operator": "Česká pošta, s.p.",
                "operator:wikidata": "Q341090",
                "phone": "+420 954 237 804",
                "ref": "37804",
                "wheelchair": "yes"
              },
              "geometry": {
                "type": "Point",
                "coordinates": [
                  14.9329518,
                  48.9588448
                ]
              }
            },
            {
              "type": "Feature",
              "properties": {
                "id": "4367709591",
                "osm_type": "node",
                "lat": 48.9634905,
                "lon": 14.8602925,
                "amenity": "post_office",
                "contact:website": "https://www.postaonline.cz/detail-pobocky/-/pobocky/detail/37803",
                "name": "Majdalena",
                "opening_hours": "Mo-Fr 09:00-10:00,14:30-16:30",
                "operator": "Česká pošta, s.p.",
                "operator:wikidata": "Q341090",
                "ref": "37803",
                "wheelchair": "limited",
                "wheelchair:description:cs": "tlačítko pro přivolání obsluhy"
              },
              "geometry": {
                "type": "Point",
                "coordinates": [
                  14.8602925,
                  48.9634905
                ]
              }
            },
            {
              "type": "Feature",
              "properties": {
                "id": "5354191877",
                "osm_type": "node",
                "lat": 48.8786415,
                "lon": 14.936876,
                "amenity": "post_office",
                "contact:website": "https://www.postaonline.cz/detail-pobocky/-/pobocky/detail/37807",
                "name": "Rapšach",
                "opening_hours": "Mo,Tu,Th,Fr 08:00-09:30,12:30-14:00;We 08:00-09:00,14:30-16:30",
                "operator": "Česká pošta, s.p.",
                "operator:wikidata": "Q341090",
                "ref": "37807",
                "wheelchair": "limited",
                "wheelchair:description:cs": "tlačítko pro přivolání obsluhy"
              },
              "geometry": {
                "type": "Point",
                "coordinates": [
                  14.936876,
                  48.8786415
                ]
              }
            },
            {
              "type": "Feature",
              "properties": {
                "id": "340516117",
                "osm_type": "node",
                "lat": 48.9445867,
                "lon": 15.0448131,
                "addr:city": "Litschau",
                "addr:country": "AT",
                "addr:housenumber": "77",
                "addr:postcode": "3874",
                "addr:street": "Stadtplatz",
                "amenity": "post_office",
                "name": "Postpartner 3874, Leben in der Region",
                "post_office": "post_partner",
                "postal_code": "3874",
                "source": "https://www.post.at/"
              },
              "geometry": {
                "type": "Point",
                "coordinates": [
                  15.0448131,
                  48.9445867
                ]
              }
            },
            {
              "type": "Feature",
              "properties": {
                "id": "340519007",
                "osm_type": "node",
                "lat": 48.9299362,
                "lon": 15.2391179,
                "addr:city": "Kautzen",
                "addr:country": "AT",
                "addr:housenumber": "3a",
                "addr:postcode": "3851",
                "addr:street": "Heidenreichsteinerstraße",
                "amenity": "post_office",
                "name": "Postpartner 3851, ADEG Kainz",
                "post_office": "post_partner",
                "postal_code": "3851",
                "source": "https://www.post.at/"
              },
              "geometry": {
                "type": "Point",
                "coordinates": [
                  15.2391179,
                  48.9299362
                ]
              }
            },
            {
              "type": "Feature",
              "properties": {
                "id": "340519815",
                "osm_type": "node",
                "lat": 48.8959427,
                "lon": 15.2192199,
                "addr:city": "Gastern",
                "addr:country": "AT",
                "addr:housenumber": "19",
                "addr:postcode": "3852",
                "addr:street": "Hauptstraße",
                "amenity": "post_office",
                "name": "Postpartner 3852, Marktgemeinde",
                "post_office": "post_partner",
                "postal_code": "3852",
                "source": "https://www.post.at/"
              },
              "geometry": {
                "type": "Point",
                "coordinates": [
                  15.2192199,
                  48.8959427
                ]
              }
            }
          ],
          "children": []
        }
      ]
    }
  ]
}