{
  "bbox": {
    "south": 47.033758500000005,
    "west": 9.530952,
    "north": 47.694865,
    "east": 11.438358999999998
  },
  "poiCount": 181,
  "leafCount": 0,
  "averagePosition": [
    10.33315614475138,
    47.39577252154695
  ],
  "data": [],
  "children": [
    {
      "bbox": {
        "south": 47.033758500000005,
        "west": 9.530952,
        "north": 47.36431175,
        "east": 10.484655499999999
      },
      "poiCount": 32,
      "leafCount": 32,
      "averagePosition": [
        9.8573279875,
        47.2174739125
      ],
      "data": [
        {
          "type": "Feature",
          "properties": {
            "id": "71895914",
            "osm_type": "node",
            "lat": 47.2414974,
            "lon": 9.6033226,
            "addr:city": "Feldkirch",
            "addr:country": "AT",
            "addr:housenumber": "31",
            "addr:postcode": "6800",
            "addr:street": "Bahnhofstraße",
            "amenity": "post_office",
            "name": "Post Filiale 6800",
            "opening_hours": "Mo-Fr 08:00-18:00; Sa 09:00-12:00; Su,PH off",
            "operator": "Österreichische Post AG",
            "operator:wikidata": "Q1763505",
            "operator:wikipedia": "de:Österreichische Post",
            "website": "https://www.post.at",
            "wheelchair": "yes"
          },
          "geometry": {
            "type": "Point",
            "coordinates": [
              9.6033226,
              47.2414974
            ]
          }
        },
        {
          "type": "Feature",
          "properties": {
            "id": "269229988",
            "osm_type": "node",
            "lat": 47.259417,
            "lon": 9.595538,
            "addr:city": "Feldkirch-Gisingen",
            "addr:country": "AT",
            "addr:housenumber": "52a",
            "addr:postcode": "6805",
            "addr:street": "Hauptstraße",
            "amenity": "post_office",
            "name": "6805 Feldkirch-Gisingen",
            "opening_hours": "Mo-Fr 08:00-12:00,14:00-18:00",
            "postal_code": "6805",
            "ref": "6805",
            "type": "Postfiliale"
          },
          "geometry": {
            "type": "Point",
            "coordinates": [
              9.595538,
              47.259417
            ]
          }
        },
        {
          "type": "Feature",
          "properties": {
            "id": "308632953",
            "osm_type": "node",
            "lat": 47.2184839,
            "lon": 9.5425058,
            "addr:city": "Mauren",
            "addr:country": "LI",
            "addr:housenumber": "10",
            "addr:postcode": "9493",
            "addr:street": "Weiherring",
            "amenity": "post_office",
            "name": "Post Mauren",
            "opening_hours": "Mo-Fr 07:45-12:00,13:30-18:00; Sa 08:30-10:30",
            "operator": "Liechtensteinische Post AG",
            "wheelchair": "yes"
          },
          "geometry": {
            "type": "Point",
            "coordinates": [
              9.5425058,
              47.2184839
            ]
          }
        },
        {
          "type": "Feature",
          "properties": {
            "id": "340515666",
            "osm_type": "node",
            "lat": 47.1909432,
            "lon": 9.712015,
            "addr:city": "Nenzing",
            "addr:country": "AT",
            "addr:housenumber": "3",
            "addr:postcode": "6710",
            "addr:street": "Gaisstraße",
            "amenity": "post_office",
            "name": "Postpartner 6710 - Tabak Trafik Hartmann",
            "opening_hours": "Mo-Fr 07:30-17:00; Sa 07:30-12:00; Su off; PH off",
            "post_office": "post_partner"
          },
          "geometry": {
            "type": "Point",
            "coordinates": [
              9.712015,
              47.1909432
            ]
          }
        },
        {
          "type": "Feature",
          "properties": {
            "id": "340516176",
            "osm_type": "node",
            "lat": 47.1740903,
            "lon": 9.8002106,
            "addr:city": "Nüziders",
            "addr:country": "AT",
            "addr:housenumber": "6",
            "addr:postcode": "6714",
            "addr:street": "Sonnenbergstraße",
            "amenity": "post_office",
            "name": "Postpartner 6714 - Post Partner Nüziders",
            "opening_hours": "Mo-Fr 08:00-12:00,14:00-18:00; Sa 09:00-12:00; Su off; PH off",
            "post_office": "post_partner",
            "toilets:wheelchair": "no",
            "wheelchair": "no"
          },
          "geometry": {
            "type": "Point",
            "coordinates": [
              9.8002106,
              47.1740903
            ]
          }
        },
        {
          "type": "Feature",
          "properties": {
            "id": "340516270",
            "osm_type": "node",
            "lat": 47.2375076,
            "lon": 9.5769912,
            "addr:city": "Feldkirch-Tosters",
            "addr:country": "AT",
            "addr:housenumber": "2b",
            "addr:postcode": "6806",
            "addr:street": "Alberweg",
            "amenity": "post_office",
            "name": "Postpartner - Happy Market K&Ö",
            "opening_hours": "Mo-Fr 08:00-12:00,13:00-17:00; Sa off; Su off; PH off",
            "post_office": "post_partner"
          },
          "geometry": {
            "type": "Point",
            "coordinates": [
              9.5769912,
              47.2375076
            ]
          }
        },
        {
          "type": "Feature",
          "properties": {
            "id": "340516279",
            "osm_type": "node",
            "lat": 47.2172528,
            "lon": 9.6423942,
            "addr:city": "Frastanz",
            "addr:country": "AT",
            "addr:housenumber": "30",
            "addr:postcode": "6820",
            "addr:street": "Sonnenberger Straße",
            "amenity": "post_office",
            "contact:website": "https://frastanz.at/leben-in-frastanz/institutionen-einrichtungen/liste-von-institutionen/post.html",
            "name": "Postpartner - Ulmer Automotive",
            "opening_hours": "Mo-Fr 08:00-12:00,17:00-19:00; PH off",
            "post_office": "post_partner"
          },
          "geometry": {
            "type": "Point",
            "coordinates": [
              9.6423942,
              47.2172528
            ]
          }
        },
        {
          "type": "Feature",
          "properties": {
            "id": "340516381",
            "osm_type": "node",
            "lat": 47.2801564,
            "lon": 9.8909498,
            "addr:city": "Damüls",
            "addr:country": "AT",
            "addr:housenumber": "138",
            "addr:place": "Damüls",
            "addr:postcode": "6884",
            "amenity": "post_office",
            "contact:phone": "+43 5510 620",
            "name": "Postpartner Damüls",
            "opening_hours": "Mo-Fr 08:00-12:00, 13:00-17:00",
            "post_office:type": "post_partner",
            "ref": "6884"
          },
          "geometry": {
            "type": "Point",
            "coordinates": [
              9.8909498,
              47.2801564
            ]
          }
        },
        {
          "type": "Feature",
          "properties": {
            "id": "340516401",
            "osm_type": "node",
            "lat": 47.1960808,
            "lon": 9.779324,
            "addr:city": "Ludesch",
            "addr:country": "AT",
            "addr:housenumber": "17",
            "addr:postcode": "6713",
            "addr:street": "Walgaustraße",
            "amenity": "post_office",
            "at_bev:addr_date": "2017-10-01",
            "contact:email": "buero@caros-hairshop.at",
            "contact:phone": "+43 5550 22510",
            "contact:website": "http://caros-hairshop.at",
            "name": "Postpartner 6713 - Caro's Hairshop",
            "opening_hours": "Mo-Fr 09:00-12:00,14:00-18:00; Sa 09:00-12:00; Su off; PH off",
            "post_office": "post_partner",
            "wheelchair": "yes"
          },
          "geometry": {
            "type": "Point",
            "coordinates": [
              9.779324,
              47.1960808
            ]
          }
        },
        {
          "type": "Feature",
          "properties": {
            "id": "340516403",
            "osm_type": "node",
            "lat": 47.3504002,
            "lon": 9.7428554,
            "addr:city": "Dornbirn",
            "addr:country": "AT",
            "addr:housenumber": "8",
            "addr:postcode": "6850",
            "addr:street": "Ebnit",
            "addr:village": "Ebnit",
            "amenity": "post_office",
            "at_bev:addr_date": "2017-10-01",
            "name": "6850 Dornbirn",
            "ref": "6850",
            "type": "Post-Servicestelle"
          },
          "geometry": {
            "type": "Point",
            "coordinates": [
              9.7428554,
              47.3504002
            ]
          }
        },
        {
          "type": "Feature",
          "properties": {
            "id": "340516409",
            "osm_type": "node",
            "lat": 47.1993851,
            "lon": 9.7556365,
            "addr:city": "Thüringen",
            "addr:country": "AT",
            "addr:housenumber": "68",
            "addr:postcode": "6712",
            "addr:street": "Walgaustraße",
            "amenity": "post_office",
            "name": "Postpartner 6712 - OMV Tankstelle Willi",
            "opening_hours": "Mo-Fr 08:00-12:00,14:00-18:00; Sa 08:30-12:00; Su off; PH off",
            "post_office": "post_partner"
          },
          "geometry": {
            "type": "Point",
            "coordinates": [
              9.7556365,
              47.1993851
            ]
          }
        },
        {
          "type": "Feature",
          "properties": {
            "id": "340516412",
            "osm_type": "node",
            "lat": 47.2106964,
            "lon": 9.8369171,
            "addr:city": "Raggal",
            "addr:country": "AT",
            "addr:housenumber": "220",
            "addr:postcode": "6741",
            "addr:street": "Raggal",
            "amenity": "post_office",
            "name": "Postpartner 6741 - Tourismusbüro",
            "opening_hours": "Mo-Fr 08:00-12:00; Sa off; Su off; PH off",
            "post_office": "post_partner"
          },
          "geometry": {
            "type": "Point",
            "coordinates": [
              9.8369171,
              47.2106964
            ]
          }
        },
        {
          "type": "Feature",
          "properties": {
            "id": "340516421",
            "osm_type": "node",
            "lat": 47.0952829,
            "lon": 9.8652762,
            "addr:city": "Vandans",
            "addr:country": "AT",
            "addr:housenumber": "26",
            "addr:postcode": "6773",
            "addr:street": "Dorfstraße",
            "addr:unit": "Postamt",
            "amenity": "post_office",
            "name": "Postpartner 6773 - Gemeinde",
            "opening_hours": "Mo-Fr 07:00-13:00; Sa off; Su off; PH off",
            "post_office": "post_partner"
          },
          "geometry": {
            "type": "Point",
            "coordinates": [
              9.8652762,
              47.0952829
            ]
          }
        },
        {
          "type": "Feature",
          "properties": {
            "id": "473699100",
            "osm_type": "node",
            "lat": 47.0788514,
            "lon": 9.9196709,
            "addr:city": "Schruns",
            "addr:country": "AT",
            "addr:housenumber": "1",
            "addr:postcode": "6780",
            "addr:street": "Wagenweg",
            "amenity": "post_office",
            "name": "Post Filiale 6780",
            "opening_hours": "Mo-Fr 08:00-12:00,14:00-17:00; Sa,Su,PH off",
            "operator": "Österreichische Post AG",
            "operator:wikidata": "Q1763505",
            "operator:wikipedia": "de:Österreichische Post",
            "website": "https://www.post.at",
            "wheelchair": "yes"
          },
          "geometry": {
            "type": "Point",
            "coordinates": [
              9.9196709,
              47.0788514
            ]
          }
        },
        {
          "type": "Feature",
          "properties": {
            "id": "1546288046",
            "osm_type": "node",
            "lat": 47.2556619,
            "lon": 9.5703062,
            "addr:city": "Feldkirch",
            "addr:country": "AT",
            "addr:housenumber": "40a",
            "addr:postcode": "6808",
            "addr:street": "Rheinstraße",
            "amenity": "post_office",
            "name": "Postpartner 6808, Post Partner Feldkirch Nofels",
            "opening_hours": "Mo-Th 07:00-18:30; Mo-Th 14:00-16:00 off; Fr 07:00-14:00; Sa 08:00-11:00; PH off"
          },
          "geometry": {
            "type": "Point",
            "coordinates": [
              9.5703062,
              47.2556619
            ]
          }
        },
        {
          "type": "Feature",
          "properties": {
            "id": "1936239980",
            "osm_type": "node",
            "lat": 47.1099691,
            "lon": 9.7432181,
            "amenity": "post_office",
            "name": "Post Servicestelle Brand",
            "opening_hours": "Mo-Fr 08:00-12:00; Sa off; Su off; PH off",
            "source": "Brandnertal Tourismus"
          },
          "geometry": {
            "type": "Point",
            "coordinates": [
              9.7432181,
              47.1099691
            ]
          }
        },
        {
          "type": "Feature",
          "properties": {
            "id": "2163022861",
            "osm_type": "node",
            "lat": 47.1509248,
            "lon": 9.8120301,
            "addr:city": "Bürs",
            "addr:country": "AT",
            "addr:housenumber": "1",
            "addr:postcode": "6706",
            "addr:street": "Almteilweg",
            "amenity": "post_office",
            "level": "0",
            "name": "Post Filiale 6706",
            "opening_hours": "Mo-Fr 09:00-18:30, Sa 08:30-12:00; Su,PH off",
            "operator": "Österreichische Post AG",
            "operator:wikidata": "Q1763505",
            "operator:wikipedia": "de:Österreichische Post",
            "website": "https://www.post.at"
          },
          "geometry": {
            "type": "Point",
            "coordinates": [
              9.8120301,
              47.1509248
            ]
          }
        },
        {
          "type": "Feature",
          "properties": {
            "id": "2562704215",
            "osm_type": "node",
            "lat": 47.2541921,
            "lon": 9.5929667,
            "amenity": "post_office",
            "operator": "GLS",
            "operator:wikidata": "Q366182",
            "operator:wikipedia": "en:GLS Group"
          },
          "geometry": {
            "type": "Point",
            "coordinates": [
              9.5929667,
              47.2541921
            ]
          }
        },
        {
          "type": "Feature",
          "properties": {
            "id": "3034558114",
            "osm_type": "node",
            "lat": 47.3051168,
            "lon": 9.6487024,
            "addr:city": "Klaus",
            "addr:country": "AT",
            "addr:housenumber": "25",
            "addr:postcode": "6833",
            "addr:street": "Vorstadt",
            "amenity": "post_office",
            "check_date": "2024-11-15",
            "internet_access": "no",
            "name": "Post Filiale 6833",
            "opening_hours": "Mo-Fr 08:00-12:00,14:00-17:00; Sa,Su,PH off",
            "operator": "Österreichische Post AG",
            "operator:wikidata": "Q1763505",
            "operator:wikipedia": "de:Österreichische Post",
            "payment:credit_cards": "yes",
            "payment:debit_cards": "yes",
            "payment:mastercard": "yes",
            "payment:visa": "yes",
            "website": "https://www.post.at",
            "wheelchair": "yes"
          },
          "geometry": {
            "type": "Point",
            "coordinates": [
              9.6487024,
              47.3051168
            ]
          }
        },
        {
          "type": "Feature",
          "properties": {
            "id": "5152510708",
            "osm_type": "node",
            "lat": 47.3208808,
            "lon": 9.5652685,
            "addr:city": "Oberriet SG",
            "addr:country": "CH",
            "addr:housenumber": "114",
            "addr:postcode": "9463",
            "addr:street": "Staatsstrasse",
            "amenity": "post_office",
            "name": "Poststelle 9463 Oberriet SG",
            "opening_hours": "Mo-Fr 07:30-12:00, 13:30-18:00; Sa 08:00-11:00",
            "operator": "Die Post",
            "operator:de": "Die Post",
            "operator:en": "Swiss Post",
            "operator:fr": "La Poste",
            "operator:it": "La Posta",
            "operator:rm": "La Posta",
            "operator:wikidata": "Q614803",
            "operator:wikipedia": "de:Die Schweizerische Post"
          },
          "geometry": {
            "type": "Point",
            "coordinates": [
              9.5652685,
              47.3208808
            ]
          }
        },
        {
          "type": "Feature",
          "properties": {
            "id": "7441877303",
            "osm_type": "node",
            "lat": 47.0828811,
            "lon": 9.9006693,
            "addr:city": "Schruns",
            "addr:country": "AT",
            "addr:housenumber": "40",
            "addr:postcode": "6780",
            "addr:street": "Gantschierstraße",
            "amenity": "post_office",
            "name": "Zustellbasis Schruns",
            "operator": "Österreichische Post AG",
            "operator:wikidata": "Q1763505",
            "operator:wikipedia": "de:Österreichische Post"
          },
          "geometry": {
            "type": "Point",
            "coordinates": [
              9.9006693,
              47.0828811
            ]
          }
        },
        {
          "type": "Feature",
          "properties": {
            "id": "9239856641",
            "osm_type": "node",
            "lat": 47.2000816,
            "lon": 9.7546772,
            "amenity": "post_office",
            "name": "ZBA 6712 Thüringen",
            "operator": "Österreichische Post AG",
            "operator:wikidata": "Q1763505"
          },
          "geometry": {
            "type": "Point",
            "coordinates": [
              9.7546772,
              47.2000816
            ]
          }
        },
        {
          "type": "Feature",
          "properties": {
            "id": "9455617058",
            "osm_type": "node",
            "lat": 47.3164432,
            "lon": 9.6157259,
            "amenity": "post_office",
            "description": "Innerhalb Porira Versandservice",
            "name": "GLS Paket Shop",
            "opening_hours": "Mo-Fr 16:00-19:00; Sa 09:00-12:00",
            "operator": "GLS",
            "operator:wikidata": "Q366182",
            "ref": "0400910101"
          },
          "geometry": {
            "type": "Point",
            "coordinates": [
              9.6157259,
              47.3164432
            ]
          }
        },
        {
          "type": "Feature",
          "properties": {
            "id": "9764322580",
            "osm_type": "node",
            "lat": 47.3490335,
            "lon": 9.6735765,
            "amenity": "post_office",
            "email": "office@rs-zustellservice.at",
            "name": "RS Zustellservice",
            "opening_hours": "Mo-Fr 07:00-18:00; Sa,Su,PH off",
            "operator": "RS Zustellservice",
            "phone": "+43 664 88 602 605"
          },
          "geometry": {
            "type": "Point",
            "coordinates": [
              9.6735765,
              47.3490335
            ]
          }
        },
        {
          "type": "Feature",
          "properties": {
            "id": "340515828",
            "osm_type": "node",
            "lat": 47.359074,
            "lon": 10.1897827,
            "addr:city": "Riezlern",
            "addr:country": "AT",
            "addr:housenumber": "30",
            "addr:postcode": "6991",
            "addr:street": "Walserstraße",
            "amenity": "post_office",
            "name": "Post Filiale 6691",
            "opening_hours": "Mo-Fr 08:00-12:00, 14:00-17:30; Sa,Su,PH off",
            "operator": "Österreichische Post AG",
            "operator:wikidata": "Q1763505",
            "operator:wikipedia": "de:Österreichische Post",
            "website": "https://www.post.at"
          },
          "geometry": {
            "type": "Point",
            "coordinates": [
              10.1897827,
              47.359074
            ]
          }
        },
        {
          "type": "Feature",
          "properties": {
            "id": "340516555",
            "osm_type": "node",
            "lat": 47.2578308,
            "lon": 10.1829334,
            "amenity": "post_office",
            "name": "6767 Warth",
            "opening_hours": "Mo-Fr 10:00-12:00,14:00-16:00",
            "postal_code": "6767",
            "ref": "6767",
            "type": "Post-Servicestelle"
          },
          "geometry": {
            "type": "Point",
            "coordinates": [
              10.1829334,
              47.2578308
            ]
          }
        },
        {
          "type": "Feature",
          "properties": {
            "id": "340519083",
            "osm_type": "node",
            "lat": 47.2894398,
            "lon": 10.4389515,
            "amenity": "post_office",
            "name": "6652 Elbigenalp",
            "operator": "KDG",
            "postal_code": "6652",
            "ref": "6652",
            "type": "Post.Partner"
          },
          "geometry": {
            "type": "Point",
            "coordinates": [
              10.4389515,
              47.2894398
            ]
          }
        },
        {
          "type": "Feature",
          "properties": {
            "id": "661359827",
            "osm_type": "node",
            "lat": 47.0834771,
            "lon": 10.4642171,
            "amenity": "post_office",
            "name": "6553 See",
            "postal_code": "6553",
            "ref": "6553",
            "type": "Post.Partner"
          },
          "geometry": {
            "type": "Point",
            "coordinates": [
              10.4642171,
              47.0834771
            ]
          }
        },
        {
          "type": "Feature",
          "properties": {
            "id": "1578549985",
            "osm_type": "node",
            "lat": 47.0625995,
            "lon": 10.3799413,
            "addr:city": "Kappl",
            "addr:housenumber": "665",
            "addr:postcode": "6555",
            "addr:street": "Lochau",
            "amenity": "post_office",
            "name": "6555 Kappl",
            "opening_hours": "Mo-Fr 08:00-12:00",
            "operator": "m-kreativ-design Sailer Marco",
            "phone": "+43 5445 20120",
            "postal_code": "6555",
            "ref": "6555",
            "type": "post.partner",
            "website": "https://6555.post.at/"
          },
          "geometry": {
            "type": "Point",
            "coordinates": [
              10.3799413,
              47.0625995
            ]
          }
        },
        {
          "type": "Feature",
          "properties": {
            "id": "3343946790",
            "osm_type": "node",
            "lat": 47.2108448,
            "lon": 10.1422231,
            "amenity": "post_office",
            "check_date": "2025-08-16",
            "name": "6764 Lech"
          },
          "geometry": {
            "type": "Point",
            "coordinates": [
              10.1422231,
              47.2108448
            ]
          }
        },
        {
          "type": "Feature",
          "properties": {
            "id": "3455592880",
            "osm_type": "node",
            "lat": 47.1310794,
            "lon": 10.0921025,
            "addr:city": "Klösterle",
            "addr:country": "AT",
            "addr:housenumber": "62",
            "addr:place": "Klösterle",
            "addr:postcode": "6754",
            "amenity": "post_office",
            "name": "Postpartner Klösterle",
            "opening_hours": "Mo-Fr 07:00-12:00",
            "post_office:type": "post_partner"
          },
          "geometry": {
            "type": "Point",
            "coordinates": [
              10.0921025,
              47.1310794
            ]
          }
        },
        {
          "type": "Feature",
          "properties": {
            "id": "8309615660",
            "osm_type": "node",
            "lat": 47.2695895,
            "lon": 10.4035958,
            "amenity": "post_office",
            "name": "Postpartner"
          },
          "geometry": {
            "type": "Point",
            "coordinates": [
              10.4035958,
              47.2695895
            ]
          }
        }
      ],
      "children": []
    },
    {
      "bbox": {
        "south": 47.033758500000005,
        "west": 10.484655499999999,
        "north": 47.36431175,
        "east": 11.438358999999998
      },
      "poiCount": 42,
      "leafCount": 42,
      "averagePosition": [
        11.125329995238095,
        47.237080057142855
      ],
      "data": [
        {
          "type": "Feature",
          "properties": {
            "id": "340516497",
            "osm_type": "node",
            "lat": 47.1383201,
            "lon": 10.9278476,
            "addr:city": "Umhausen",
            "addr:country": "AT",
            "addr:housenumber": "40",
            "addr:postcode": "6441",
            "addr:street": "Dorf",
            "amenity": "post_office",
            "name": "6441 Umhausen",
            "postal_code": "6441",
            "ref": "6441"
          },
          "geometry": {
            "type": "Point",
            "coordinates": [
              10.9278476,
              47.1383201
            ]
          }
        },
        {
          "type": "Feature",
          "properties": {
            "id": "340516509",
            "osm_type": "node",
            "lat": 47.2073239,
            "lon": 10.7612884,
            "amenity": "post_office",
            "name": "6471 Arzl im Pitztal",
            "postal_code": "6471",
            "ref": "6471",
            "type": "Post.Partner"
          },
          "geometry": {
            "type": "Point",
            "coordinates": [
              10.7612884,
              47.2073239
            ]
          }
        },
        {
          "type": "Feature",
          "properties": {
            "id": "340519080",
            "osm_type": "node",
            "lat": 47.0694324,
            "lon": 10.8438927,
            "addr:city": "St. Leonhard im Pitztal",
            "addr:country": "AT",
            "addr:housenumber": "119",
            "addr:postcode": "6481",
            "addr:street": "Eggenstall",
            "amenity": "post_office",
            "check_date": "2025-02-06",
            "name": "Post Filiale 6481",
            "opening_hours": "Mo-Fr 08:30-12:00, 14:00-18:00; Sa,Su,PH off",
            "operator": "Österreichische Post AG",
            "operator:wikidata": "Q1763505",
            "website": "https://www.post.at"
          },
          "geometry": {
            "type": "Point",
            "coordinates": [
              10.8438927,
              47.0694324
            ]
          }
        },
        {
          "type": "Feature",
          "properties": {
            "id": "837558157",
            "osm_type": "node",
            "lat": 47.128449,
            "lon": 10.9666392,
            "amenity": "post_office"
          },
          "geometry": {
            "type": "Point",
            "coordinates": [
              10.9666392,
              47.128449
            ]
          }
        },
        {
          "type": "Feature",
          "properties": {
            "id": "1576898153",
            "osm_type": "node",
            "lat": 47.0388218,
            "lon": 10.6074898,
            "addr:city": "Serfaus",
            "addr:country": "AT",
            "addr:housenumber": "2",
            "addr:postcode": "6534",
            "addr:street": "Gänsackerweg",
            "amenity": "post_office",
            "check_date:opening_hours": "2025-04-06",
            "name": "6534 Serfaus",
            "opening_hours": "Mo-Fr 08:00-12:00",
            "ref": "6534",
            "type": "Post.Partner"
          },
          "geometry": {
            "type": "Point",
            "coordinates": [
              10.6074898,
              47.0388218
            ]
          }
        },
        {
          "type": "Feature",
          "properties": {
            "id": "1578153838",
            "osm_type": "node",
            "lat": 47.2618873,
            "lon": 10.7617982,
            "addr:city": "Tarrenz",
            "addr:country": "AT",
            "addr:housenumber": "39",
            "addr:postcode": "6464",
            "addr:street": "Hauptstraße",
            "amenity": "post_office",
            "name": "Postpartner Trafik Lanbach",
            "postal_code": "6464",
            "ref": "6464",
            "type": "Post.Partner"
          },
          "geometry": {
            "type": "Point",
            "coordinates": [
              10.7617982,
              47.2618873
            ]
          }
        },
        {
          "type": "Feature",
          "properties": {
            "id": "1578191725",
            "osm_type": "node",
            "lat": 47.2379508,
            "lon": 10.8587513,
            "addr:city": "Haiming",
            "addr:country": "AT",
            "addr:housenumber": "1",
            "addr:postcode": "6430",
            "addr:street": "Bahnhofplatz",
            "amenity": "post_office",
            "name": "Post Filiale 6430",
            "opening_hours": "Mo-Fr 08:00-12:00,14:00-17:00; Sa,Su,PH off",
            "operator": "Österreichische Post AG",
            "operator:wikidata": "Q1763505",
            "operator:wikipedia": "de:Österreichische Post",
            "website": "https://www.post.at"
          },
          "geometry": {
            "type": "Point",
            "coordinates": [
              10.8587513,
              47.2379508
            ]
          }
        },
        {
          "type": "Feature",
          "properties": {
            "id": "1578263167",
            "osm_type": "node",
            "lat": 47.2863137,
            "lon": 11.0307766,
            "amenity": "post_office",
            "name": "6421 Rietz",
            "postal_code": "6421",
            "ref": "6421",
            "type": "Post.Partner"
          },
          "geometry": {
            "type": "Point",
            "coordinates": [
              11.0307766,
              47.2863137
            ]
          }
        },
        {
          "type": "Feature",
          "properties": {
            "id": "1578461799",
            "osm_type": "node",
            "lat": 47.2664405,
            "lon": 10.9310268,
            "amenity": "post_office",
            "name": "6424 Silz",
            "operator": "Österreichische Post AG",
            "operator:wikidata": "Q1763505",
            "operator:wikipedia": "de:Österreichische Post",
            "postal_code": "6424",
            "ref": "6424",
            "type": "Post.Partner"
          },
          "geometry": {
            "type": "Point",
            "coordinates": [
              10.9310268,
              47.2664405
            ]
          }
        },
        {
          "type": "Feature",
          "properties": {
            "id": "1578549953",
            "osm_type": "node",
            "lat": 47.1584184,
            "lon": 10.5888995,
            "addr:city": "Zams",
            "addr:country": "AT",
            "addr:housenumber": "53",
            "addr:postcode": "6511",
            "addr:street": "Hauptstraße",
            "amenity": "post_office",
            "name": "Österreichische Post",
            "postal_code": "6511",
            "ref": "6511",
            "type": "Post.Partner"
          },
          "geometry": {
            "type": "Point",
            "coordinates": [
              10.5888995,
              47.1584184
            ]
          }
        },
        {
          "type": "Feature",
          "properties": {
            "id": "1578566111",
            "osm_type": "node",
            "lat": 47.3148238,
            "lon": 10.8383052,
            "addr:city": "Nassereith",
            "addr:country": "AT",
            "addr:housenumber": "31",
            "addr:postcode": "6465",
            "addr:street": "Postplatz",
            "amenity": "post_office",
            "name": "6465 Nassereith",
            "post_office": "post_partner",
            "ref": "6465"
          },
          "geometry": {
            "type": "Point",
            "coordinates": [
              10.8383052,
              47.3148238
            ]
          }
        },
        {
          "type": "Feature",
          "properties": {
            "id": "2016249112",
            "osm_type": "node",
            "lat": 47.3057362,
            "lon": 10.9777163,
            "addr:city": "Mieming",
            "addr:country": "AT",
            "addr:housenumber": "177",
            "addr:postcode": "6414",
            "addr:street": "Obermieming",
            "amenity": "post_office",
            "check_date": "2023-07-08",
            "opening_hours": "Mo-Fr 08:00-12:30, 13:30-17:00",
            "ref": "6414",
            "type": "Post.Partner",
            "wheelchair": "yes"
          },
          "geometry": {
            "type": "Point",
            "coordinates": [
              10.9777163,
              47.3057362
            ]
          }
        },
        {
          "type": "Feature",
          "properties": {
            "id": "2517755361",
            "osm_type": "node",
            "lat": 47.2353906,
            "lon": 10.7407124,
            "addr:city": "Imst",
            "addr:country": "AT",
            "addr:housenumber": "15",
            "addr:postcode": "6460",
            "addr:street": "Meraner Straße",
            "amenity": "post_office",
            "name": "Post Filiale 6460",
            "opening_hours": "Mo-Fr 08:00-18:00; Sa,Su,PH off",
            "operator": "Österreichische Post AG",
            "operator:wikidata": "Q1763505",
            "operator:wikipedia": "de:Österreichische Post",
            "website": "https://www.post.at"
          },
          "geometry": {
            "type": "Point",
            "coordinates": [
              10.7407124,
              47.2353906
            ]
          }
        },
        {
          "type": "Feature",
          "properties": {
            "id": "5693903134",
            "osm_type": "node",
            "lat": 47.1680462,
            "lon": 10.7317361,
            "addr:city": "Wenns",
            "addr:country": "AT",
            "addr:housenumber": "6",
            "addr:postcode": "6473",
            "addr:street": "Unterdorf",
            "amenity": "post_office",
            "name": "Postpartner 6473",
            "ref": "6473"
          },
          "geometry": {
            "type": "Point",
            "coordinates": [
              10.7317361,
              47.1680462
            ]
          }
        },
        {
          "type": "Feature",
          "properties": {
            "id": "6795067478",
            "osm_type": "node",
            "lat": 47.2553703,
            "lon": 10.8802977,
            "amenity": "post_office",
            "name": "Postpartner 6425"
          },
          "geometry": {
            "type": "Point",
            "coordinates": [
              10.8802977,
              47.2553703
            ]
          }
        },
        {
          "type": "Feature",
          "properties": {
            "id": "253791942",
            "osm_type": "node",
            "lat": 47.2307701,
            "lon": 11.4100993,
            "addr:city": "Innsbruck",
            "addr:country": "AT",
            "addr:housenumber": "20",
            "addr:postcode": "6080",
            "addr:street": "Hilberstraße",
            "addr:suburb": "Igls",
            "amenity": "post_office",
            "name": "6080 Innsbruck-Igls",
            "note": "Tabak Trafik",
            "postal_code": "6080",
            "ref": "6080",
            "source": "Local;local knowledge",
            "type": "Post.Partner"
          },
          "geometry": {
            "type": "Point",
            "coordinates": [
              11.4100993,
              47.2307701
            ]
          }
        },
        {
          "type": "Feature",
          "properties": {
            "id": "254130429",
            "osm_type": "node",
            "lat": 47.3030476,
            "lon": 11.0731928,
            "addr:city": "Telfs",
            "addr:country": "AT",
            "addr:housenumber": "30a",
            "addr:postcode": "6410",
            "addr:street": "Bahnhofstraße",
            "amenity": "post_office",
            "check_date:opening_hours": "2024-05-13",
            "name": "Post Filiale 6410",
            "opening_hours": "Mo-Fr 08:00-18:00; Sa,Su,PH off",
            "operator": "Österreichische Post AG",
            "operator:wikidata": "Q1763505",
            "website": "https://www.post.at",
            "wheelchair": "yes"
          },
          "geometry": {
            "type": "Point",
            "coordinates": [
              11.0731928,
              47.3030476
            ]
          }
        },
        {
          "type": "Feature",
          "properties": {
            "id": "310390353",
            "osm_type": "node",
            "lat": 47.2728451,
            "lon": 11.2447112,
            "addr:city": "Zirl",
            "addr:country": "AT",
            "addr:housenumber": "19",
            "addr:postcode": "6170",
            "addr:street": "Meilstraße",
            "amenity": "post_office",
            "name": "Post Filiale 6170",
            "opening_hours": "Mo-Fr 08:00-12:00, 14:00-17:00; Sa,Su,PH off",
            "operator": "Österreichische Post AG",
            "operator:wikidata": "Q1763505",
            "operator:wikipedia": "de:Österreichische Post",
            "phone": "+43 800 010 100",
            "website": "https://www.post.at",
            "wheelchair": "yes"
          },
          "geometry": {
            "type": "Point",
            "coordinates": [
              11.2447112,
              47.2728451
            ]
          }
        },
        {
          "type": "Feature",
          "properties": {
            "id": "332976808",
            "osm_type": "node",
            "lat": 47.258537,
            "lon": 11.396983,
            "addr:city": "Innsbruck",
            "addr:country": "AT",
            "addr:housenumber": "35a",
            "addr:postcode": "6020",
            "addr:street": "Leopoldstraße",
            "addr:suburb": "Wilten",
            "amenity": "post_office",
            "check_date": "2025-06-29",
            "check_date:opening_hours": "2025-06-29",
            "name": "6013 Innsbruck",
            "opening_hours": "Mo-Fr 08:00-12:30,14:00-18:00; PH off",
            "postal_code": "6013",
            "ref": "6013",
            "type": "Post.Partner",
            "website": "https://www.post.at/suche/standortsuche.php?filiale=6013"
          },
          "geometry": {
            "type": "Point",
            "coordinates": [
              11.396983,
              47.258537
            ]
          }
        },
        {
          "type": "Feature",
          "properties": {
            "id": "340515054",
            "osm_type": "node",
            "lat": 47.272986,
            "lon": 11.4124769,
            "addr:city": "Innsbruck",
            "addr:country": "AT",
            "addr:housenumber": "60",
            "addr:postcode": "6022",
            "addr:street": "Prinz-Eugen-Straße",
            "addr:suburb": "Pradl",
            "amenity": "post_office",
            "name": "Post Filiale 6022",
            "opening_hours": "Mo-Fr 08:00-12:00,14:00-17:30; Sa,Su,PH off",
            "operator": "Österreichische Post AG",
            "operator:wikidata": "Q1763505",
            "website": "https://www.post.at",
            "wheelchair": "yes"
          },
          "geometry": {
            "type": "Point",
            "coordinates": [
              11.4124769,
              47.272986
            ]
          }
        },
        {
          "type": "Feature",
          "properties": {
            "id": "340515810",
            "osm_type": "node",
            "lat": 47.2367686,
            "lon": 11.311022,
            "addr:city": "Götzens",
            "addr:country": "AT",
            "addr:housenumber": "3",
            "addr:postcode": "6091",
            "addr:street": "Burgstraße",
            "amenity": "post_office",
            "name": "Post Filiale 6091",
            "opening_hours": "Mo-Fr 08:00-12:00, 14:00-17:00; Sa,Su,PH off",
            "operator": "Österreichische Post AG",
            "operator:wikidata": "Q1763505",
            "website": "https://www.post.at"
          },
          "geometry": {
            "type": "Point",
            "coordinates": [
              11.311022,
              47.2367686
            ]
          }
        },
        {
          "type": "Feature",
          "properties": {
            "id": "340516477",
            "osm_type": "node",
            "lat": 47.2306657,
            "lon": 11.2553871,
            "addr:city": "Grinzens",
            "addr:country": "AT",
            "addr:housenumber": "7",
            "addr:postcode": "6095",
            "addr:street": "Kirchgasse",
            "amenity": "post_office",
            "name": "6095 Grinzens",
            "postal_code": "6095",
            "type": "post.partner"
          },
          "geometry": {
            "type": "Point",
            "coordinates": [
              11.2553871,
              47.2306657
            ]
          }
        },
        {
          "type": "Feature",
          "properties": {
            "id": "340516486",
            "osm_type": "node",
            "lat": 47.2922588,
            "lon": 11.1597288,
            "addr:city": "Pettnau",
            "addr:country": "AT",
            "addr:housenumber": "114",
            "addr:postcode": "6408",
            "addr:street": "Tiroler Straße",
            "amenity": "post_office",
            "name": "6408 Pettnau",
            "opening_hours": "Mo-Fr 08:00-12:00",
            "postal_code": "6408",
            "ref": "6408",
            "type": "Post.Partner"
          },
          "geometry": {
            "type": "Point",
            "coordinates": [
              11.1597288,
              47.2922588
            ]
          }
        },
        {
          "type": "Feature",
          "properties": {
            "id": "340519074",
            "osm_type": "node",
            "lat": 47.1954313,
            "lon": 11.1563817,
            "addr:city": "Gries im Sellrain",
            "addr:country": "AT",
            "addr:housenumber": "19a",
            "addr:place": "Gries",
            "addr:postcode": "6182",
            "amenity": "post_office",
            "at_bev:addr_date": "2017-10-01",
            "name": "Postpartner Gries im Sellrain",
            "opening_hours": "Mo-Fr 07:30-12:00, 15:00-17:00; Sa 07:30-12:00",
            "postal_code": "6182",
            "ref": "6182",
            "source": "laut website 19a",
            "type": "Postfiliale",
            "website": "https://6128.post.at/"
          },
          "geometry": {
            "type": "Point",
            "coordinates": [
              11.1563817,
              47.1954313
            ]
          }
        },
        {
          "type": "Feature",
          "properties": {
            "id": "849870582",
            "osm_type": "node",
            "lat": 47.1532513,
            "lon": 11.3491188,
            "addr:city": "Fulpmes",
            "addr:country": "AT",
            "addr:housenumber": "1",
            "addr:postcode": "6166",
            "addr:street": "Michael-Pfurtscheller-Weg",
            "amenity": "post_office",
            "name": "Post Filiale 6166",
            "opening_hours": "Mo-Fr 08:00-12:00, 14:00-17:00; Sa,Su,PH off",
            "operator": "Österreichische Post AG",
            "operator:wikidata": "Q1763505",
            "website": "https://www.post.at"
          },
          "geometry": {
            "type": "Point",
            "coordinates": [
              11.3491188,
              47.1532513
            ]
          }
        },
        {
          "type": "Feature",
          "properties": {
            "id": "895290007",
            "osm_type": "node",
            "lat": 47.2664496,
            "lon": 11.3903924,
            "addr:city": "Innsbruck",
            "addr:country": "AT",
            "addr:housenumber": "15",
            "addr:postcode": "6020",
            "addr:street": "Innrain",
            "amenity": "post_office",
            "check_date:opening_hours": "2025-06-12",
            "name": "Post Filiale 6020",
            "opening_hours": "Mo-Fr 08:00-18:00; Sa 09:00-12:00; Su,PH off",
            "operator": "Österreichische Post AG",
            "operator:wikidata": "Q1763505",
            "website": "https://www.post.at",
            "wheelchair": "yes"
          },
          "geometry": {
            "type": "Point",
            "coordinates": [
              11.3903924,
              47.2664496
            ]
          }
        },
        {
          "type": "Feature",
          "properties": {
            "id": "1578330335",
            "osm_type": "node",
            "lat": 47.2708547,
            "lon": 11.2013311,
            "addr:city": "Inzing",
            "addr:country": "AT",
            "addr:housenumber": "40",
            "addr:postcode": "6401",
            "addr:street": "Hauptstraße",
            "amenity": "post_office",
            "postal_code": "6401",
            "type": "Post.Partner",
            "wheelchair": "yes"
          },
          "geometry": {
            "type": "Point",
            "coordinates": [
              11.2013311,
              47.2708547
            ]
          }
        },
        {
          "type": "Feature",
          "properties": {
            "id": "1578584180",
            "osm_type": "node",
            "lat": 47.2557948,
            "lon": 11.3254893,
            "addr:city": "Völs",
            "addr:country": "AT",
            "addr:housenumber": "1",
            "addr:postcode": "6176",
            "addr:street": "Cytastraße",
            "amenity": "post_office",
            "indoor": "yes",
            "level": "0",
            "name": "Post Filiale 6176",
            "opening_hours": "Mo-Fr 09:00-12:30, 13:30-18:00; Sa,Su,PH off",
            "operator": "Österreichische Post AG",
            "operator:wikidata": "Q1763505",
            "website": "https://www.post.at",
            "wheelchair": "yes"
          },
          "geometry": {
            "type": "Point",
            "coordinates": [
              11.3254893,
              47.2557948
            ]
          }
        },
        {
          "type": "Feature",
          "properties": {
            "id": "1588713223",
            "osm_type": "node",
            "lat": 47.2632203,
            "lon": 11.3995168,
            "addr:city": "Innsbruck",
            "addr:country": "AT",
            "addr:floor": "0",
            "addr:housenumber": "2a",
            "addr:postcode": "6020",
            "addr:street": "Salurner Straße",
            "amenity": "post_office",
            "name": "Post Filiale 6020",
            "opening_hours": "Mo-Th 08:00-16:00; Sa,Su,PH off; Fr 08:00-12:00",
            "operator": "Österreichische Post AG",
            "operator:wikidata": "Q1763505",
            "website": "https://www.post.at",
            "wheelchair": "yes"
          },
          "geometry": {
            "type": "Point",
            "coordinates": [
              11.3995168,
              47.2632203
            ]
          }
        },
        {
          "type": "Feature",
          "properties": {
            "id": "1589512980",
            "osm_type": "node",
            "lat": 47.2645198,
            "lon": 11.4120648,
            "addr:city": "Innsbruck",
            "addr:country": "AT",
            "addr:housenumber": "26",
            "addr:postcode": "6020",
            "addr:street": "Gumppstraße",
            "addr:suburb": "Pradl",
            "amenity": "post_office",
            "check_date:opening_hours": "2024-05-23",
            "name": "Post Filiale 6023",
            "opening_hours": "Mo-Fr 08:00-18:00; Sa,Su,PH off",
            "operator": "Österreichische Post AG",
            "operator:wikidata": "Q1763505",
            "website": "https://www.post.at",
            "wheelchair": "yes"
          },
          "geometry": {
            "type": "Point",
            "coordinates": [
              11.4120648,
              47.2645198
            ]
          }
        },
        {
          "type": "Feature",
          "properties": {
            "id": "1940082650",
            "osm_type": "node",
            "lat": 47.2731931,
            "lon": 11.242742,
            "amenity": "post_office",
            "name": "Warberger",
            "operator": "General Logistics Systems"
          },
          "geometry": {
            "type": "Point",
            "coordinates": [
              11.242742,
              47.2731931
            ]
          }
        },
        {
          "type": "Feature",
          "properties": {
            "id": "2110983634",
            "osm_type": "node",
            "lat": 47.254458,
            "lon": 11.2722599,
            "amenity": "post_office"
          },
          "geometry": {
            "type": "Point",
            "coordinates": [
              11.2722599,
              47.254458
            ]
          }
        },
        {
          "type": "Feature",
          "properties": {
            "id": "2355224250",
            "osm_type": "node",
            "lat": 47.2831612,
            "lon": 11.4134563,
            "amenity": "post_office"
          },
          "geometry": {
            "type": "Point",
            "coordinates": [
              11.4134563,
              47.2831612
            ]
          }
        },
        {
          "type": "Feature",
          "properties": {
            "id": "2971498936",
            "osm_type": "node",
            "lat": 47.1084252,
            "lon": 11.3002707,
            "addr:city": "Neustift",
            "addr:country": "AT",
            "addr:housenumber": "41",
            "addr:postcode": "6167",
            "addr:street": "Scheibe",
            "amenity": "post_office",
            "name": "Postpartner",
            "wheelchair": "limited"
          },
          "geometry": {
            "type": "Point",
            "coordinates": [
              11.3002707,
              47.1084252
            ]
          }
        },
        {
          "type": "Feature",
          "properties": {
            "id": "3509026924",
            "osm_type": "node",
            "lat": 47.2737817,
            "lon": 11.2398248,
            "addr:city": "Zirl",
            "addr:country": "AT",
            "addr:housenumber": "11",
            "addr:postcode": "6170",
            "addr:street": "Schwabstraße",
            "amenity": "post_office",
            "name": "miniM Postpartner",
            "opening_hours": "Mo-Fr 07:30-18:30; Sa 07:30-17:00",
            "operator": "Hermes Europe",
            "shop": "supermarket",
            "wheelchair": "yes"
          },
          "geometry": {
            "type": "Point",
            "coordinates": [
              11.2398248,
              47.2737817
            ]
          }
        },
        {
          "type": "Feature",
          "properties": {
            "id": "3907741127",
            "osm_type": "node",
            "lat": 47.2782235,
            "lon": 11.1683026,
            "addr:city": "Hatting",
            "addr:country": "AT",
            "addr:postcode": "6402",
            "amenity": "post_office"
          },
          "geometry": {
            "type": "Point",
            "coordinates": [
              11.1683026,
              47.2782235
            ]
          }
        },
        {
          "type": "Feature",
          "properties": {
            "id": "5110828644",
            "osm_type": "node",
            "lat": 47.2664778,
            "lon": 11.4042526,
            "addr:city": "Innsbruck",
            "addr:country": "AT",
            "addr:housenumber": "38",
            "addr:postcode": "6020",
            "addr:street": "Museumstraße",
            "amenity": "post_office",
            "check_date": "2025-01-09",
            "level": "1",
            "name": "Postpartner Teleplanet",
            "opening_hours": "Mo-We 09:00-19:00; Th-Fr 09:00-20:00; Sa 09:00-18:00; PH off",
            "wheelchair": "yes"
          },
          "geometry": {
            "type": "Point",
            "coordinates": [
              11.4042526,
              47.2664778
            ]
          }
        },
        {
          "type": "Feature",
          "properties": {
            "id": "5547713130",
            "osm_type": "node",
            "lat": 47.2157384,
            "lon": 11.2171128,
            "addr:city": "Sellrain",
            "addr:country": "AT",
            "addr:housenumber": "40",
            "addr:postcode": "6181",
            "addr:street": "Rothenbrunn",
            "amenity": "post_office",
            "at_bev:addr_date": "2017-10-01",
            "check_date": "2024-01-10",
            "name": "Postpartner 6181",
            "postal_code": "6181",
            "ref": "6181",
            "type": "Post.Partner"
          },
          "geometry": {
            "type": "Point",
            "coordinates": [
              11.2171128,
              47.2157384
            ]
          }
        },
        {
          "type": "Feature",
          "properties": {
            "id": "6764743292",
            "osm_type": "node",
            "lat": 47.3032584,
            "lon": 11.0952863,
            "amenity": "post_office",
            "name": "Postpartner 6406"
          },
          "geometry": {
            "type": "Point",
            "coordinates": [
              11.0952863,
              47.3032584
            ]
          }
        },
        {
          "type": "Feature",
          "properties": {
            "id": "7121850137",
            "osm_type": "node",
            "lat": 47.2655091,
            "lon": 11.4340856,
            "addr:city": "Innsbruck",
            "addr:housenumber": "3",
            "addr:postcode": "6020",
            "addr:street": "Eduard-Bodem-Gasse",
            "amenity": "post_office",
            "email": "office@dex.co.at",
            "name": "Dex - Document Express",
            "opening_hours": "Mo-Th 07:30-18:00, Fr 07:30-16:30",
            "operator": "Dex Document Express",
            "phone": "+43512 29 99 11",
            "website": "https://www.dex.co.at/"
          },
          "geometry": {
            "type": "Point",
            "coordinates": [
              11.4340856,
              47.2655091
            ]
          }
        },
        {
          "type": "Feature",
          "properties": {
            "id": "7580206238",
            "osm_type": "node",
            "lat": 47.3293301,
            "lon": 11.1857658,
            "addr:city": "Seefeld in Tirol",
            "addr:country": "AT",
            "addr:housenumber": "367",
            "addr:postcode": "6100",
            "addr:street": "Klosterstraße",
            "amenity": "post_office",
            "check_date": "2023-10-09",
            "name": "Post Filiale 6100",
            "opening_hours": "Mo-Fr 08:00-12:00, 14:00-17:30; Sa,Su,PH off",
            "operator": "Österreichische Post AG",
            "operator:wikidata": "Q1763505",
            "operator:wikipedia": "de:Österreichische Post",
            "website": "https://www.post.at",
            "wheelchair": "yes"
          },
          "geometry": {
            "type": "Point",
            "coordinates": [
              11.1857658,
              47.3293301
            ]
          }
        },
        {
          "type": "Feature",
          "properties": {
            "id": "13002463559",
            "osm_type": "node",
            "lat": 47.2656802,
            "lon": 11.3454266,
            "amenity": "post_office",
            "brand": "post",
            "opening_hours": "Mo-Fr 08:00-18:00; Sa 08:00-12:00",
            "operator": "Österreichische Post AG",
            "operator:wikidata": "Q1763505"
          },
          "geometry": {
            "type": "Point",
            "coordinates": [
              11.3454266,
              47.2656802
            ]
          }
        }
      ],
      "children": []
    },
    {
      "bbox": {
        "south": 47.36431175,
        "west": 9.530952,
        "north": 47.694865,
        "east": 10.484655499999999
      },
      "poiCount": 77,
      "leafCount": 0,
      "averagePosition": [
        9.84560911038961,
        47.50844884155844
      ],
      "data": [],
      "children": [
        {
          "bbox": {
            "south": 47.36431175,
            "west": 9.530952,
            "north": 47.529588375,
            "east": 10.007803749999999
          },
          "poiCount": 38,
          "leafCount": 38,
          "averagePosition": [
            9.721968939473683,
            47.44274409473684
          ],
          "data": [
            {
              "type": "Feature",
              "properties": {
                "id": "340515690",
                "osm_type": "node",
                "lat": 47.3644735,
                "lon": 9.6843608,
                "addr:city": "Hohenems",
                "addr:country": "AT",
                "addr:housenumber": "23",
                "addr:postcode": "6845",
                "addr:street": "Graf-Maximilian-Straße",
                "amenity": "post_office",
                "name": "Post Filiale 6845",
                "opening_hours": "Mo-Fr 08:00-12:00, 14:00-17:30; Sa,Su,PH off",
                "operator": "Österreichische Post AG",
                "operator:wikidata": "Q1763505",
                "operator:wikipedia": "de:Österreichische Post",
                "website": "https://www.post.at",
                "wheelchair": "yes"
              },
              "geometry": {
                "type": "Point",
                "coordinates": [
                  9.6843608,
                  47.3644735
                ]
              }
            },
            {
              "type": "Feature",
              "properties": {
                "id": "323207810",
                "osm_type": "node",
                "lat": 47.4593031,
                "lon": 9.6432223,
                "addr:city": "Höchst",
                "addr:country": "AT",
                "addr:housenumber": "28",
                "addr:postcode": "6973",
                "addr:street": "Hauptstraße",
                "amenity": "post_office",
                "name": "Post Filiale 6973",
                "opening_hours": "Mo-Fr 08:00-12:00, 14:00-17:30; Sa,Su,PH off",
                "operator": "Österreichische Post AG",
                "operator:wikidata": "Q1763505",
                "operator:wikipedia": "de:Österreichische Post",
                "website": "https://www.post.at"
              },
              "geometry": {
                "type": "Point",
                "coordinates": [
                  9.6432223,
                  47.4593031
                ]
              }
            },
            {
              "type": "Feature",
              "properties": {
                "id": "323870233",
                "osm_type": "node",
                "lat": 47.4220849,
                "lon": 9.5521754,
                "amenity": "post_office",
                "name": "Oberegg",
                "operator": "Post"
              },
              "geometry": {
                "type": "Point",
                "coordinates": [
                  9.5521754,
                  47.4220849
                ]
              }
            },
            {
              "type": "Feature",
              "properties": {
                "id": "340515042",
                "osm_type": "node",
                "lat": 47.4878596,
                "lon": 9.6884572,
                "addr:city": "Hard",
                "addr:country": "AT",
                "addr:housenumber": "17",
                "addr:postcode": "6971",
                "addr:street": "Landstraße",
                "amenity": "post_office",
                "name": "6971 Hard - Postpartner",
                "operator": "Cengiz und Bediha Saskin",
                "postal_code": "6971",
                "ref": "6971",
                "type": "Postfiliale"
              },
              "geometry": {
                "type": "Point",
                "coordinates": [
                  9.6884572,
                  47.4878596
                ]
              }
            },
            {
              "type": "Feature",
              "properties": {
                "id": "340515374",
                "osm_type": "node",
                "lat": 47.4119773,
                "lon": 9.7107248,
                "addr:city": "Dornbirn",
                "addr:country": "AT",
                "addr:housenumber": "2",
                "addr:postcode": "6854",
                "addr:street": "Messestraße",
                "amenity": "post_office",
                "check_date": "2024-11-30",
                "level": "0",
                "name": "6854 Dornbirn-Messepark",
                "opening_hours": "Mo-Th 09:00-18:00; Fr 09:00-19:30; Sa 08:30-18:00",
                "postal_code": "6854",
                "ref": "6854",
                "type": "Postfiliale",
                "wheelchair": "yes"
              },
              "geometry": {
                "type": "Point",
                "coordinates": [
                  9.7107248,
                  47.4119773
                ]
              }
            },
            {
              "type": "Feature",
              "properties": {
                "id": "340515672",
                "osm_type": "node",
                "lat": 47.4495418,
                "lon": 9.9184606,
                "addr:city": "Lingenau",
                "addr:country": "AT",
                "addr:housenumber": "258",
                "addr:postcode": "6951",
                "addr:street": "Hof",
                "amenity": "post_office",
                "name": "Postpartner - 6951 Lingenau",
                "opening_hours": "Mo-Fr 08:00-12:15; Sa off; Su off; PH off",
                "post_office": "post_partner"
              },
              "geometry": {
                "type": "Point",
                "coordinates": [
                  9.9184606,
                  47.4495418
                ]
              }
            },
            {
              "type": "Feature",
              "properties": {
                "id": "340516406",
                "osm_type": "node",
                "lat": 47.5081303,
                "lon": 9.828568,
                "addr:city": "Langen bei Bregenz",
                "addr:country": "AT",
                "addr:housenumber": "150",
                "addr:postcode": "6932",
                "addr:street": "Dorf",
                "amenity": "post_office",
                "name": "Postpartner - Gemeindeamt Langen bei Bregenz",
                "opening_hours": "Mo 08:30-12:15,17:00-19:00; Tu-Fr 08:30-12:15; Sa-Su off; PH off",
                "post_office": "post_partner"
              },
              "geometry": {
                "type": "Point",
                "coordinates": [
                  9.828568,
                  47.5081303
                ]
              }
            },
            {
              "type": "Feature",
              "properties": {
                "id": "340516415",
                "osm_type": "node",
                "lat": 47.4501505,
                "lon": 9.8316989,
                "addr:city": "Alberschwende",
                "addr:country": "AT",
                "addr:housenumber": "18b",
                "addr:postcode": "6861",
                "addr:street": "Hof",
                "amenity": "post_office",
                "name": "Postpartner - 6861 Alberschwende",
                "opening_hours": "Mo-We 07:30-12:15,14:00-18:00; Th 07:30-15:00; Fr 07:30-12:15,14:00-18:00; Sa 07:30-12:00; Su off; PH off",
                "post_office": "post_partner"
              },
              "geometry": {
                "type": "Point",
                "coordinates": [
                  9.8316989,
                  47.4501505
                ]
              }
            },
            {
              "type": "Feature",
              "properties": {
                "id": "340516418",
                "osm_type": "node",
                "lat": 47.4922958,
                "lon": 9.8780023,
                "addr:city": "Doren",
                "addr:country": "AT",
                "addr:housenumber": "116",
                "addr:postcode": "6933",
                "addr:street": "Grötzern",
                "amenity": "post_office",
                "name": "Postpartner - SPAR Kramers",
                "opening_hours": "Mo-Fr 08:00-18:00; Sa 08:00-12:00; Su off; PH off",
                "post_office": "post_partner"
              },
              "geometry": {
                "type": "Point",
                "coordinates": [
                  9.8780023,
                  47.4922958
                ]
              }
            },
            {
              "type": "Feature",
              "properties": {
                "id": "340516424",
                "osm_type": "node",
                "lat": 47.4766458,
                "lon": 9.6628054,
                "addr:city": "Fußach",
                "addr:country": "AT",
                "addr:housenumber": "38",
                "addr:postcode": "6972",
                "addr:street": "Dorfstraße",
                "amenity": "post_office",
                "at_bev:addr_date": "2017-10-01",
                "name": "Postpartner - 6972 Fußach",
                "opening_hours": "Mo 07:45-12:30; Tu 14:15-18:00; We 07:45-12:30; Th 14:15-18:00; Fr 07:45-12:30,14:15-18:00; Sa off; Su off; PH off",
                "post_office": "post_partner"
              },
              "geometry": {
                "type": "Point",
                "coordinates": [
                  9.6628054,
                  47.4766458
                ]
              }
            },
            {
              "type": "Feature",
              "properties": {
                "id": "340516437",
                "osm_type": "node",
                "lat": 47.4553638,
                "lon": 9.7389748,
                "addr:city": "Wolfurt-Bahnhof",
                "addr:country": "AT",
                "addr:housenumber": "10",
                "addr:postcode": "6960",
                "addr:street": "Senderstraße",
                "amenity": "post_office",
                "name": "Post Filiale 6960",
                "opening_hours": "Mo-Fr 08:00-12:00, 14:00-17:00; Sa,Su,PH off",
                "operator": "Österreichische Post AG",
                "operator:wikidata": "Q1763505",
                "operator:wikipedia": "de:Österreichische Post",
                "website": "https://www.post.at"
              },
              "geometry": {
                "type": "Point",
                "coordinates": [
                  9.7389748,
                  47.4553638
                ]
              }
            },
            {
              "type": "Feature",
              "properties": {
                "id": "340519092",
                "osm_type": "node",
                "lat": 47.4573561,
                "lon": 9.9608269,
                "addr:city": "Hittisau",
                "addr:country": "AT",
                "addr:housenumber": "370",
                "addr:postcode": "6952",
                "addr:street": "Platz",
                "amenity": "post_office",
                "at_bev:addr_date": "2017-04-07",
                "name": "6952 Hittisau",
                "opening_hours": "Mo-Tu 08:00-12:00,14:00-16:00; We 08:00-12:00; Th 08:00-12:00,14:00-19:00; Fr 08:00-12:00,14:00-16:00; Sa off; Su off; PH off",
                "post_office": "post_partner",
                "website": "https://www.post.at/",
                "wheelchair": "limited"
              },
              "geometry": {
                "type": "Point",
                "coordinates": [
                  9.9608269,
                  47.4573561
                ]
              }
            },
            {
              "type": "Feature",
              "properties": {
                "id": "340519483",
                "osm_type": "node",
                "lat": 47.4831331,
                "lon": 9.9351605,
                "addr:city": "Krumbach im Bregenzerwald",
                "addr:country": "AT",
                "addr:housenumber": "2",
                "addr:postcode": "6942",
                "addr:street": "Dorf",
                "amenity": "post_office",
                "name": "Post Filiale 6942",
                "opening_hours": "Mo-Fr 08:00-12:00,14:00-17:00; Sa,Su,PH off",
                "operator": "Österreichische Post AG",
                "operator:wikidata": "Q1763505",
                "operator:wikipedia": "de:Österreichische Post",
                "website": "https://www.post.at"
              },
              "geometry": {
                "type": "Point",
                "coordinates": [
                  9.9351605,
                  47.4831331
                ]
              }
            },
            {
              "type": "Feature",
              "properties": {
                "id": "340519487",
                "osm_type": "node",
                "lat": 47.4682714,
                "lon": 9.8966379,
                "addr:city": "Langenegg",
                "addr:country": "AT",
                "addr:housenumber": "117",
                "addr:place": "Bach",
                "addr:postcode": "6941",
                "amenity": "post_office",
                "at_bev:addr_date": "2017-04-07",
                "contact:phone": "+43 5523 506-13120",
                "contact:website": "https://www.lebenshilfe-vorarlberg.at/arbeiten/dienstleister_und_arbeitgeber/postlaedele",
                "name": "Postlädele Langenegg",
                "opening_hours": "Mo-Th 08:00-11:30; PH off",
                "type": "Post-Servicestelle"
              },
              "geometry": {
                "type": "Point",
                "coordinates": [
                  9.8966379,
                  47.4682714
                ]
              }
            },
            {
              "type": "Feature",
              "properties": {
                "id": "365266101",
                "osm_type": "node",
                "lat": 47.4256463,
                "lon": 9.6130479,
                "amenity": "post_office"
              },
              "geometry": {
                "type": "Point",
                "coordinates": [
                  9.6130479,
                  47.4256463
                ]
              }
            },
            {
              "type": "Feature",
              "properties": {
                "id": "367460872",
                "osm_type": "node",
                "lat": 47.4385888,
                "lon": 9.6563182,
                "amenity": "post_office",
                "name": "Postamt Lustenau - Rheindorf"
              },
              "geometry": {
                "type": "Point",
                "coordinates": [
                  9.6563182,
                  47.4385888
                ]
              }
            },
            {
              "type": "Feature",
              "properties": {
                "id": "380338584",
                "osm_type": "node",
                "lat": 47.4445525,
                "lon": 9.5346811,
                "addr:city": "Heiden",
                "addr:country": "CH",
                "addr:housenumber": "5",
                "addr:postcode": "9410",
                "addr:street": "Kirchplatz",
                "amenity": "post_office",
                "check_date:opening_hours": "2021-09-11",
                "name": "Filiale Heiden",
                "opening_hours": "Mo-Fr 07:30-12:00,13:30-18:00; Sa 08:00-11:30",
                "operator": "Die Post",
                "operator:de": "Die Post",
                "operator:en": "Swiss Post",
                "operator:fr": "La Poste",
                "operator:it": "La Posta",
                "operator:rm": "La Posta",
                "operator:wikidata": "Q614803",
                "wheelchair": "limited"
              },
              "geometry": {
                "type": "Point",
                "coordinates": [
                  9.5346811,
                  47.4445525
                ]
              }
            },
            {
              "type": "Feature",
              "properties": {
                "id": "421985028",
                "osm_type": "node",
                "lat": 47.4108794,
                "lon": 9.6268687,
                "amenity": "post_office",
                "check_date:opening_hours": "2024-12-12",
                "name": "Heerbrugg",
                "opening_hours": "Mo-Fr 07:30-12:00,13:30-18:00; Sa 08:00-11:30",
                "wheelchair": "yes"
              },
              "geometry": {
                "type": "Point",
                "coordinates": [
                  9.6268687,
                  47.4108794
                ]
              }
            },
            {
              "type": "Feature",
              "properties": {
                "id": "564939210",
                "osm_type": "node",
                "lat": 47.3852523,
                "lon": 9.6564642,
                "amenity": "post_office"
              },
              "geometry": {
                "type": "Point",
                "coordinates": [
                  9.6564642,
                  47.3852523
                ]
              }
            },
            {
              "type": "Feature",
              "properties": {
                "id": "597610051",
                "osm_type": "node",
                "lat": 47.4027487,
                "lon": 9.6358304,
                "amenity": "post_office",
                "name": "Widnau",
                "opening_hours": "Mo-Fr 07:30-12:00,14:00-18:00; Sa 08:00-11:00; PH off",
                "wheelchair": "yes"
              },
              "geometry": {
                "type": "Point",
                "coordinates": [
                  9.6358304,
                  47.4027487
                ]
              }
            },
            {
              "type": "Feature",
              "properties": {
                "id": "618981412",
                "osm_type": "node",
                "lat": 47.476795,
                "lon": 9.7318118,
                "addr:city": "Lauterach",
                "addr:country": "AT",
                "addr:housenumber": "6",
                "addr:postcode": "6923",
                "addr:street": "Montfortplatz",
                "amenity": "post_office",
                "at_bev:addr_date": "2017-10-01",
                "name": "Postamt Lauterach",
                "opening_hours": "Mo-Th 08:00-12:00,14:00-17:00; Fr 08:00-17:00",
                "operator": "Österreichische Post AG",
                "operator:wikidata": "Q1763505",
                "operator:wikipedia": "de:Österreichische Post",
                "wheelchair": "yes"
              },
              "geometry": {
                "type": "Point",
                "coordinates": [
                  9.7318118,
                  47.476795
                ]
              }
            },
            {
              "type": "Feature",
              "properties": {
                "id": "2022092800",
                "osm_type": "node",
                "lat": 47.4532328,
                "lon": 9.5497555,
                "amenity": "post_office"
              },
              "geometry": {
                "type": "Point",
                "coordinates": [
                  9.5497555,
                  47.4532328
                ]
              }
            },
            {
              "type": "Feature",
              "properties": {
                "id": "2442383350",
                "osm_type": "node",
                "lat": 47.4970884,
                "lon": 9.7249675,
                "amenity": "post_office",
                "name": "Postpartner",
                "operator": "Bäckerei Kloser"
              },
              "geometry": {
                "type": "Point",
                "coordinates": [
                  9.7249675,
                  47.4970884
                ]
              }
            },
            {
              "type": "Feature",
              "properties": {
                "id": "2471748416",
                "osm_type": "node",
                "lat": 47.4678024,
                "lon": 9.5879946,
                "amenity": "post_office",
                "cash_withdrawal": "postfinance_card",
                "cash_withdrawal:fee": "no",
                "cash_withdrawal:purchase_required": "no",
                "cash_withdrawal:type": "checkout",
                "name": "Die Post",
                "opening_hours": "Mo-Fr 07:30-12:00,13:30-18:00; Sa 08:00-11:30",
                "operator": "Die Post",
                "operator:de": "Die Post",
                "operator:en": "Swiss Post",
                "operator:fr": "La Poste",
                "operator:it": "La Posta",
                "operator:rm": "La Posta",
                "operator:wikidata": "Q614803"
              },
              "geometry": {
                "type": "Point",
                "coordinates": [
                  9.5879946,
                  47.4678024
                ]
              }
            },
            {
              "type": "Feature",
              "properties": {
                "id": "2586302275",
                "osm_type": "node",
                "lat": 47.4653305,
                "lon": 9.5681103,
                "amenity": "post_office",
                "name": "Postagentur"
              },
              "geometry": {
                "type": "Point",
                "coordinates": [
                  9.5681103,
                  47.4653305
                ]
              }
            },
            {
              "type": "Feature",
              "properties": {
                "id": "3300077653",
                "osm_type": "node",
                "lat": 47.5222345,
                "lon": 9.9143059,
                "addr:city": "Sulzberg",
                "addr:country": "AT",
                "addr:housenumber": "1",
                "addr:postcode": "6934",
                "addr:street": "Dorf",
                "amenity": "post_office",
                "name": "Postpartner - 6934 Sulzberg",
                "opening_hours": "Mo-We 08:00-12:00; Th 08:00-12:00, 14:00-18:00; Fr 08:00-12:00; Sa off; Su off; PH off",
                "post_office": "post_partner"
              },
              "geometry": {
                "type": "Point",
                "coordinates": [
                  9.9143059,
                  47.5222345
                ]
              }
            },
            {
              "type": "Feature",
              "properties": {
                "id": "3305845082",
                "osm_type": "node",
                "lat": 47.4265218,
                "lon": 9.6576512,
                "addr:city": "Lustenau",
                "addr:country": "AT",
                "addr:housenumber": "3",
                "addr:postcode": "6890",
                "addr:street": "Kirchstraße",
                "amenity": "post_office",
                "name": "Post Filiale 6890",
                "opening_hours": "Mo-Fr 08:00-12:00,14:00-17:30; Sa,Su,PH off",
                "operator": "Österreichische Post AG",
                "operator:wikidata": "Q1763505",
                "operator:wikipedia": "de:Österreichische Post",
                "website": "https://www.post.at",
                "wheelchair": "yes"
              },
              "geometry": {
                "type": "Point",
                "coordinates": [
                  9.6576512,
                  47.4265218
                ]
              }
            },
            {
              "type": "Feature",
              "properties": {
                "id": "4046965594",
                "osm_type": "node",
                "lat": 47.4118342,
                "lon": 9.893402,
                "addr:city": "Andelsbuch",
                "addr:country": "AT",
                "addr:housenumber": "351",
                "addr:place": "Hof",
                "addr:postcode": "6866",
                "amenity": "post_office",
                "at_bev:addr_date": "2017-10-01",
                "name": "Post Partner 6866 Andelsbuch",
                "website": "https://www.andelsbuch.at/index.php?page=post-partner"
              },
              "geometry": {
                "type": "Point",
                "coordinates": [
                  9.893402,
                  47.4118342
                ]
              }
            },
            {
              "type": "Feature",
              "properties": {
                "id": "5261612211",
                "osm_type": "node",
                "lat": 47.4527905,
                "lon": 9.6382594,
                "addr:city": "St. Margrethen",
                "addr:country": "CH",
                "addr:housenumber": "12",
                "addr:postcode": "9430",
                "addr:street": "Bahnhofplatz",
                "amenity": "post_office",
                "name": "Post CH AG",
                "opening_hours": "Mo-Fr 07:30-12:00,13:30-18:00;Sa 08:00-11:30",
                "operator": "Die Post",
                "operator:de": "Die Post",
                "operator:en": "Swiss Post",
                "operator:fr": "La Poste",
                "operator:it": "La Posta",
                "operator:rm": "La Posta",
                "operator:wikidata": "Q614803",
                "website": "https://places.post.ch/"
              },
              "geometry": {
                "type": "Point",
                "coordinates": [
                  9.6382594,
                  47.4527905
                ]
              }
            },
            {
              "type": "Feature",
              "properties": {
                "id": "5661242936",
                "osm_type": "node",
                "lat": 47.4310472,
                "lon": 9.6363593,
                "amenity": "post_office",
                "opening_hours": "Mo-Sa 06:00-21:00;Su 07:00-21:00"
              },
              "geometry": {
                "type": "Point",
                "coordinates": [
                  9.6363593,
                  47.4310472
                ]
              }
            },
            {
              "type": "Feature",
              "properties": {
                "id": "5864221629",
                "osm_type": "node",
                "lat": 47.3970229,
                "lon": 9.5806574,
                "addr:city": "Rebstein",
                "addr:country": "CH",
                "addr:housenumber": "128",
                "addr:postcode": "9445",
                "addr:street": "Staatsstrasse",
                "amenity": "post_office",
                "opening_hours": "Mo-Th 07:30-19:00, Fr 07:30-20:00, Sa 07:30-17:00",
                "operator": "Swiss Post"
              },
              "geometry": {
                "type": "Point",
                "coordinates": [
                  9.5806574,
                  47.3970229
                ]
              }
            },
            {
              "type": "Feature",
              "properties": {
                "id": "7428745814",
                "osm_type": "node",
                "lat": 47.3923936,
                "lon": 9.5698081,
                "addr:city": "Marbach SG",
                "addr:housenumber": "17",
                "addr:postcode": "9437",
                "addr:street": "Staatsstrasse",
                "amenity": "post_office",
                "name": "Volg Marbach",
                "opening_hours": "Mo-Fr 06:00-20:00; Sa 07:00-19:00",
                "operator": "Volg",
                "operator:wikidata": "Q2530746"
              },
              "geometry": {
                "type": "Point",
                "coordinates": [
                  9.5698081,
                  47.3923936
                ]
              }
            },
            {
              "type": "Feature",
              "properties": {
                "id": "8341410199",
                "osm_type": "node",
                "lat": 47.473125,
                "lon": 9.7527933,
                "amenity": "post_office",
                "name": "Bank 99",
                "opening_hours": "Mo-Fr 08:00-12:00,14:00-17:00"
              },
              "geometry": {
                "type": "Point",
                "coordinates": [
                  9.7527933,
                  47.473125
                ]
              }
            },
            {
              "type": "Feature",
              "properties": {
                "id": "9921425293",
                "osm_type": "node",
                "lat": 47.4169128,
                "lon": 9.738358,
                "addr:city": "Dornbirn",
                "addr:country": "AT",
                "addr:housenumber": "2",
                "addr:postcode": "6850",
                "addr:street": "Poststraße",
                "amenity": "post_office",
                "check_date": "2024-08-04",
                "name": "Post Filiale 6850",
                "opening_hours": "Mo-Fr 08:00-18:00; Sa 09:00-12:00,Su,PH off",
                "operator": "Österreichische Post AG",
                "operator:wikidata": "Q1763505",
                "operator:wikipedia": "de:Österreichische Post",
                "website": "https://www.post.at",
                "wheelchair": "yes"
              },
              "geometry": {
                "type": "Point",
                "coordinates": [
                  9.738358,
                  47.4169128
                ]
              }
            },
            {
              "type": "Feature",
              "properties": {
                "id": "10139269306",
                "osm_type": "node",
                "lat": 47.3821803,
                "lon": 9.8974827,
                "amenity": "post_office",
                "name": "Post Partner 6870",
                "opening_hours": "Mo-Fr 08:00-12:00,14:00-17:30; Sa 07:30-10:30; Su off"
              },
              "geometry": {
                "type": "Point",
                "coordinates": [
                  9.8974827,
                  47.3821803
                ]
              }
            },
            {
              "type": "Feature",
              "properties": {
                "id": "11172686637",
                "osm_type": "node",
                "lat": 47.431409,
                "lon": 9.8978778,
                "amenity": "post_office",
                "name": "Postpartner Egg",
                "opening_hours": "Mo,Th,Fr 08:00-12:00,14:00-16:00; Tu,We 08:00-12:00"
              },
              "geometry": {
                "type": "Point",
                "coordinates": [
                  9.8978778,
                  47.431409
                ]
              }
            },
            {
              "type": "Feature",
              "properties": {
                "id": "11522031679",
                "osm_type": "node",
                "lat": 47.4532128,
                "lon": 9.5485932,
                "amenity": "post_office",
                "operator": "Die Post",
                "operator:de": "Die Post",
                "operator:en": "Swiss Post",
                "operator:fr": "La Poste",
                "operator:it": "La Posta",
                "operator:rm": "La Posta",
                "operator:wikidata": "Q614803"
              },
              "geometry": {
                "type": "Point",
                "coordinates": [
                  9.5485932,
                  47.4532128
                ]
              }
            },
            {
              "type": "Feature",
              "properties": {
                "id": "12015514404",
                "osm_type": "node",
                "lat": 47.3790869,
                "lon": 9.8933454,
                "addr:city": "Bezau",
                "addr:country": "AT",
                "addr:housenumber": "501",
                "addr:postcode": "6870",
                "addr:street": "Pelzrain",
                "amenity": "post_office",
                "description": "Post-Partner 6870 Bezau",
                "name": "Post-Partner 6870 Bezau"
              },
              "geometry": {
                "type": "Point",
                "coordinates": [
                  9.8933454,
                  47.3790869
                ]
              }
            }
          ],
          "children": []
        },
        {
          "bbox": {
            "south": 47.36431175,
            "west": 10.007803749999999,
            "north": 47.529588375,
            "east": 10.484655499999999
          },
          "poiCount": 9,
          "leafCount": 9,
          "averagePosition": [
            10.240302033333332,
            47.45764708888889
          ],
          "data": [
            {
              "type": "Feature",
              "properties": {
                "id": "195129817",
                "osm_type": "node",
                "lat": 47.5134691,
                "lon": 10.2725827,
                "amenity": "post_office",
                "name:signed": "no",
                "opening_hours": "Mo,Tu,Th,Fr 08:30-12:30,15:30-18:00; We 14:30-18:00; Sa 08:30-12:00"
              },
              "geometry": {
                "type": "Point",
                "coordinates": [
                  10.2725827,
                  47.5134691
                ]
              }
            },
            {
              "type": "Feature",
              "properties": {
                "id": "3646124698",
                "osm_type": "node",
                "lat": 47.4094295,
                "lon": 10.2784944,
                "addr:city": "Oberstdorf",
                "addr:country": "DE",
                "addr:housenumber": "9",
                "addr:postcode": "87561",
                "addr:street": "Nebelhornstraße",
                "amenity": "post_office",
                "brand": "Deutsche Post",
                "brand:wikidata": "Q157645",
                "brand:wikipedia": "en:Deutsche Post",
                "name": "Deutsche Post",
                "opening_hours": "Mo-Fr 09:30-13:00,14:00-18:00; Sa 09:30-13:00",
                "operator": "Deutsche Post",
                "operator:wikidata": "Q157645",
                "operator:wikipedia": "de:Deutsche Post AG",
                "wheelchair": "no"
              },
              "geometry": {
                "type": "Point",
                "coordinates": [
                  10.2784944,
                  47.4094295
                ]
              }
            },
            {
              "type": "Feature",
              "properties": {
                "id": "3692053932",
                "osm_type": "node",
                "lat": 47.4607023,
                "lon": 10.2713851,
                "addr:city": "Fischen im Allgäu",
                "addr:country": "DE",
                "addr:housenumber": "5",
                "addr:postcode": "87538",
                "addr:street": "Berger Weg",
                "amenity": "post_office",
                "name": "Postfiliale 524",
                "opening_hours": "Mo-Th 08:00-13:00,15:00-20:00; Fr-Sa 08:00-13:00; PH off",
                "operator": "Deutsche Post",
                "operator:wikidata": "Q157645",
                "operator:wikipedia": "de:Deutsche Post AG"
              },
              "geometry": {
                "type": "Point",
                "coordinates": [
                  10.2713851,
                  47.4607023
                ]
              }
            },
            {
              "type": "Feature",
              "properties": {
                "id": "4360393304",
                "osm_type": "node",
                "lat": 47.5123215,
                "lon": 10.2781348,
                "amenity": "post_office",
                "brand": "Hermes Paketshop",
                "brand:wikidata": "Q1613532",
                "brand:wikipedia": "en:Hermes Group",
                "name": "Hermes Paketshop",
                "opening_hours": "Mo-Fr 09:00-13:00",
                "operator": "Hermes",
                "operator:wikidata": "Q1613532"
              },
              "geometry": {
                "type": "Point",
                "coordinates": [
                  10.2781348,
                  47.5123215
                ]
              }
            },
            {
              "type": "Feature",
              "properties": {
                "id": "4712867876",
                "osm_type": "node",
                "lat": 47.4279796,
                "lon": 10.0364886,
                "amenity": "post_office"
              },
              "geometry": {
                "type": "Point",
                "coordinates": [
                  10.0364886,
                  47.4279796
                ]
              }
            },
            {
              "type": "Feature",
              "properties": {
                "id": "10564943940",
                "osm_type": "node",
                "lat": 47.4110809,
                "lon": 10.2786956,
                "amenity": "post_office",
                "name": "Hermes Paketshop",
                "operator": "Hermes",
                "operator:wikidata": "Q1613532"
              },
              "geometry": {
                "type": "Point",
                "coordinates": [
                  10.2786956,
                  47.4110809
                ]
              }
            },
            {
              "type": "Feature",
              "properties": {
                "id": "10577562937",
                "osm_type": "node",
                "lat": 47.4132018,
                "lon": 10.2805027,
                "addr:city": "Oberstdorf",
                "addr:country": "DE",
                "addr:housenumber": "16",
                "addr:postcode": "87561",
                "addr:street": "Im Steinach",
                "amenity": "post_office",
                "name": "Postfiliale 528",
                "opening_hours": "Mo-Fr 08:00-12:00,13:00-18:30; Sa 08:00-13:00",
                "operator": "Deutsche Post",
                "operator:wikidata": "Q157645"
              },
              "geometry": {
                "type": "Point",
                "coordinates": [
                  10.2805027,
                  47.4132018
                ]
              }
            },
            {
              "type": "Feature",
              "properties": {
                "id": "10578251931",
                "osm_type": "node",
                "lat": 47.465896,
                "lon": 10.1025654,
                "addr:city": "Balderschwang",
                "addr:housenumber": "11",
                "addr:postcode": "87538",
                "addr:street": "Dorf",
                "amenity": "post_office",
                "brand": "DHL",
                "brand:wikidata": "Q489815",
                "name": "DHL Paketshop 419",
                "opening_hours": "Mo-Fr 08:00-12:00,13:00-17:00; PH off"
              },
              "geometry": {
                "type": "Point",
                "coordinates": [
                  10.1025654,
                  47.465896
                ]
              }
            },
            {
              "type": "Feature",
              "properties": {
                "id": "10580759457",
                "osm_type": "node",
                "lat": 47.5047431,
                "lon": 10.363869,
                "addr:city": "Bad Hindelang",
                "addr:country": "DE",
                "addr:housenumber": "13",
                "addr:postcode": "87541",
                "addr:street": "Sonthofer Straße",
                "amenity": "post_office",
                "name": "Postfiliale 525",
                "opening_hours": "Mo-Fr 08:00-13:00, 15:00-18:00; Sa 08:00-13:00; PH off",
                "operator": "Feneberg",
                "wheelchair": "yes"
              },
              "geometry": {
                "type": "Point",
                "coordinates": [
                  10.363869,
                  47.5047431
                ]
              }
            }
          ],
          "children": []
        },
        {
          "bbox": {
            "south": 47.529588375,
            "west": 9.530952,
            "north": 47.694865,
            "east": 10.007803749999999
          },
          "poiCount": 20,
          "leafCount": 20,
          "averagePosition": [
            9.710157505,
            47.60756743
          ],
          "data": [
            {
              "type": "Feature",
              "properties": {
                "id": "148425141",
                "osm_type": "node",
                "lat": 47.5539466,
                "lon": 9.7038004,
                "addr:city": "Lindau (Bodensee)",
                "addr:country": "DE",
                "addr:housenumber": "1",
                "addr:postcode": "88131",
                "addr:street": "Kemptener Straße",
                "addr:suburb": "Reutin",
                "amenity": "post_office",
                "brand": "Deutsche Post",
                "brand:wikidata": "Q157645",
                "brand:wikipedia": "en:Deutsche Post",
                "name": "Deutsche Post",
                "opening_hours": "Mo-Fr 09:00-17:00; Sa 09:00-12:00",
                "operator": "Deutsche Post",
                "operator:wikidata": "Q157645",
                "phone": "+49 1802 3333",
                "post_office": "bureau",
                "wheelchair": "yes"
              },
              "geometry": {
                "type": "Point",
                "coordinates": [
                  9.7038004,
                  47.5539466
                ]
              }
            },
            {
              "type": "Feature",
              "properties": {
                "id": "310956171",
                "osm_type": "node",
                "lat": 47.6038528,
                "lon": 9.8866688,
                "amenity": "post_office",
                "name": "Post Filiale Lindenberg",
                "opening_hours": "Mo-Fr 08:00-20:00; Sa 08:00-13:00",
                "operator": "Deutsche Post",
                "operator:wikidata": "Q157645",
                "operator:wikipedia": "de:Deutsche Post AG",
                "wheelchair": "yes"
              },
              "geometry": {
                "type": "Point",
                "coordinates": [
                  9.8866688,
                  47.6038528
                ]
              }
            },
            {
              "type": "Feature",
              "properties": {
                "id": "340515736",
                "osm_type": "node",
                "lat": 47.5555335,
                "lon": 9.7531709,
                "addr:city": "Hörbranz",
                "addr:country": "AT",
                "addr:housenumber": "53",
                "addr:postcode": "6912",
                "addr:street": "Lindauer Straße",
                "amenity": "post_office",
                "at_bev:addr_date": "2017-04-07",
                "name": "Postpartner - Tabak Trafik Gasser",
                "opening_hours": "Mo-Fr 07:30-12:00,14:00-18:00; Sa 08:00-12:00; Su off; PH off",
                "post_office": "post_partner"
              },
              "geometry": {
                "type": "Point",
                "coordinates": [
                  9.7531709,
                  47.5555335
                ]
              }
            },
            {
              "type": "Feature",
              "properties": {
                "id": "623057916",
                "osm_type": "node",
                "lat": 47.6849325,
                "lon": 9.8289286,
                "addr:city": "Wangen im Allgäu",
                "addr:country": "DE",
                "addr:housenumber": "34",
                "addr:postcode": "88239",
                "addr:street": "Lindauer Straße",
                "amenity": "post_office",
                "name": "Postamt Wangen",
                "opening_hours": "Mo-Fr 09:00-13:00,14:00-17:30, Sa 09:00-12:30; PH,Su off",
                "operator": "Deutsche Post",
                "operator:wikidata": "Q157645",
                "operator:wikipedia": "de:Deutsche Post AG",
                "wheelchair": "yes"
              },
              "geometry": {
                "type": "Point",
                "coordinates": [
                  9.8289286,
                  47.6849325
                ]
              }
            },
            {
              "type": "Feature",
              "properties": {
                "id": "1883602924",
                "osm_type": "node",
                "lat": 47.6881963,
                "lon": 9.9588378,
                "amenity": "post_office",
                "name": "Postfiliale Argenbühl",
                "wheelchair": "yes"
              },
              "geometry": {
                "type": "Point",
                "coordinates": [
                  9.9588378,
                  47.6881963
                ]
              }
            },
            {
              "type": "Feature",
              "properties": {
                "id": "2062478958",
                "osm_type": "node",
                "lat": 47.550958,
                "lon": 9.721395,
                "amenity": "post_office",
                "name": "Paketservice Lindau",
                "operator": "Paketservice Lindau",
                "post_office": "post_partner"
              },
              "geometry": {
                "type": "Point",
                "coordinates": [
                  9.721395,
                  47.550958
                ]
              }
            },
            {
              "type": "Feature",
              "properties": {
                "id": "2274870893",
                "osm_type": "node",
                "lat": 47.559011,
                "lon": 9.7092184,
                "amenity": "post_office",
                "brand": "Hermes Paketshop",
                "brand:wikidata": "Q1613532",
                "brand:wikipedia": "en:Hermes Group",
                "check_date": "2024-12-24",
                "check_date:opening_hours": "2024-12-24",
                "name": "Hermes Paketshop",
                "opening_hours": "Mo-Sa 09:00-12:31, Mo,Tu,Th,Fr 15:00-18:00",
                "operator": "Hermes",
                "operator:wikidata": "Q1613532",
                "post_office": "post_partner",
                "wheelchair": "yes"
              },
              "geometry": {
                "type": "Point",
                "coordinates": [
                  9.7092184,
                  47.559011
                ]
              }
            },
            {
              "type": "Feature",
              "properties": {
                "id": "2393340460",
                "osm_type": "node",
                "lat": 47.575545,
                "lon": 9.6107325,
                "amenity": "post_office",
                "name": "Deutsche Post",
                "operator": "Deutsche Post",
                "operator:wikidata": "Q157645",
                "operator:wikipedia": "de:Deutsche Post AG",
                "post_office": "post_partner"
              },
              "geometry": {
                "type": "Point",
                "coordinates": [
                  9.6107325,
                  47.575545
                ]
              }
            },
            {
              "type": "Feature",
              "properties": {
                "id": "4510312650",
                "osm_type": "node",
                "lat": 47.5797799,
                "lon": 9.9015485,
                "amenity": "post_office",
                "name": "HERMES PAKETSHOP",
                "opening_hours": "Mo-Fr 07:00-19:00; Sa 07:00-18:00; Su 08:00-18:00",
                "operator": "Hermes",
                "operator:wikidata": "Q1613532",
                "operator:wikipedia": "en:Hermes Group"
              },
              "geometry": {
                "type": "Point",
                "coordinates": [
                  9.9015485,
                  47.5797799
                ]
              }
            },
            {
              "type": "Feature",
              "properties": {
                "id": "4798158733",
                "osm_type": "node",
                "lat": 47.5873527,
                "lon": 9.7270199,
                "amenity": "post_office",
                "name": "Hermes",
                "operator": "Hermes",
                "operator:wikidata": "Q1613532",
                "operator:wikipedia": "en:Hermes Group",
                "post_office": "post_partner"
              },
              "geometry": {
                "type": "Point",
                "coordinates": [
                  9.7270199,
                  47.5873527
                ]
              }
            },
            {
              "type": "Feature",
              "properties": {
                "id": "6110321286",
                "osm_type": "node",
                "lat": 47.5839852,
                "lon": 9.9159242,
                "amenity": "post_office",
                "name": "Deutsche Post",
                "opening_hours": "Mo-Fr 08:00-20:00; Sa 08:00-13:00",
                "operator": "Deutsche Post",
                "operator:wikidata": "Q157645"
              },
              "geometry": {
                "type": "Point",
                "coordinates": [
                  9.9159242,
                  47.5839852
                ]
              }
            },
            {
              "type": "Feature",
              "properties": {
                "id": "6284664465",
                "osm_type": "node",
                "lat": 47.5917942,
                "lon": 9.7309172,
                "amenity": "post_office",
                "description": "Post, DHL & Postbank-Dienstleistungen",
                "name": "Altes Postamt (im Edeka-Markt)",
                "opening_hours": "Mo-Sa 09:00-13:00, 14:00-18:00"
              },
              "geometry": {
                "type": "Point",
                "coordinates": [
                  9.7309172,
                  47.5917942
                ]
              }
            },
            {
              "type": "Feature",
              "properties": {
                "id": "8129184117",
                "osm_type": "node",
                "lat": 47.6685482,
                "lon": 9.5912454,
                "addr:city": "Tettnang",
                "addr:country": "DE",
                "addr:housenumber": "26",
                "addr:postcode": "88069",
                "addr:street": "Lindauer Straße",
                "amenity": "post_office",
                "name": "Hermes Paketshop",
                "operator": "Hermes",
                "operator:wikidata": "Q1613532"
              },
              "geometry": {
                "type": "Point",
                "coordinates": [
                  9.5912454,
                  47.6685482
                ]
              }
            },
            {
              "type": "Feature",
              "properties": {
                "id": "8143433079",
                "osm_type": "node",
                "lat": 47.5701423,
                "lon": 9.6395221,
                "amenity": "post_office",
                "check_date": "2023-12-24",
                "name": "Der Postladen",
                "operator": "Deutsche Post",
                "operator:wikidata": "Q157645",
                "operator:wikipedia": "de:Deutsche Post AG",
                "post_office": "post_annex",
                "wheelchair": "limited"
              },
              "geometry": {
                "type": "Point",
                "coordinates": [
                  9.6395221,
                  47.5701423
                ]
              }
            },
            {
              "type": "Feature",
              "properties": {
                "id": "8843235442",
                "osm_type": "node",
                "lat": 47.6271212,
                "lon": 9.5404236,
                "amenity": "post_office",
                "brand": "Hermes",
                "description": "Kiosk mit Hermes Paketshop",
                "operator": "Hermes",
                "operator:wikidata": "Q1613532",
                "post_office": "post_partner",
                "shop": "kiosk"
              },
              "geometry": {
                "type": "Point",
                "coordinates": [
                  9.5404236,
                  47.6271212
                ]
              }
            },
            {
              "type": "Feature",
              "properties": {
                "id": "11772569344",
                "osm_type": "node",
                "lat": 47.5991032,
                "lon": 9.5440447,
                "amenity": "post_office",
                "name": "Post Shop im Edeka Seifert",
                "operator": "Deutsche Post",
                "operator:wikidata": "Q157645"
              },
              "geometry": {
                "type": "Point",
                "coordinates": [
                  9.5440447,
                  47.5991032
                ]
              }
            },
            {
              "type": "Feature",
              "properties": {
                "id": "12337729464",
                "osm_type": "node",
                "lat": 47.6890532,
                "lon": 9.5586036,
                "amenity": "post_office",
                "brand": "DHL",
                "brand:wikidata": "Q489815",
                "name": "DHL Paketshop"
              },
              "geometry": {
                "type": "Point",
                "coordinates": [
                  9.5586036,
                  47.6890532
                ]
              }
            },
            {
              "type": "Feature",
              "properties": {
                "id": "12824158041",
                "osm_type": "node",
                "lat": 47.5382669,
                "lon": 9.7330396,
                "addr:city": "Lindau (Bodensee)",
                "addr:country": "DE",
                "addr:housenumber": "148",
                "addr:postcode": "88131",
                "addr:street": "Bregenzer Straße",
                "addr:suburb": "Zech",
                "amenity": "post_office",
                "name": "Deutsche Post",
                "opening_hours": "Mo 08:00-09:00; Tu-We 08:00-15:00; Th 12:00-15:00; Fr 08:00-15:00; Sa 08:00-12:00",
                "operator": "Deutsche Post",
                "operator:wikidata": "Q157645",
                "source": "survey 05.2025 and Vogis 2022",
                "wheelchair": "yes"
              },
              "geometry": {
                "type": "Point",
                "coordinates": [
                  9.7330396,
                  47.5382669
                ]
              }
            },
            {
              "type": "Feature",
              "properties": {
                "id": "12879913520",
                "osm_type": "node",
                "lat": 47.6684572,
                "lon": 9.5609557,
                "addr:city": "Tettnang",
                "addr:country": "DE",
                "addr:housenumber": "150",
                "addr:postcode": "88069",
                "addr:street": "Tettnanger Straße",
                "addr:suburb": "Pfingstweid",
                "amenity": "post_office",
                "name": "Hermes Paketshop",
                "opening_hours": "Mo-Su 06:00-22:00",
                "operator": "Hermes",
                "operator:wikidata": "Q1613532",
                "website": "https://paketshop.myhermes.de/int/hpsf.html?shopid=661048"
              },
              "geometry": {
                "type": "Point",
                "coordinates": [
                  9.5609557,
                  47.6684572
                ]
              }
            },
            {
              "type": "Feature",
              "properties": {
                "id": "12880816094",
                "osm_type": "node",
                "lat": 47.6757687,
                "lon": 9.5871532,
                "addr:city": "Tettnang",
                "addr:country": "DE",
                "addr:housenumber": "17",
                "addr:postcode": "88069",
                "addr:street": "Ravensburger Straße",
                "amenity": "post_office",
                "name": "Hermes Paketshop",
                "opening_hours": "Mo-Sa 06:00-22:00; Su,PH 08:00-22:00",
                "operator": "Hermes",
                "operator:wikidata": "Q1613532"
              },
              "geometry": {
                "type": "Point",
                "coordinates": [
                  9.5871532,
                  47.6757687
                ]
              }
            }
          ],
          "children": []
        },
        {
          "bbox": {
            "south": 47.529588375,
            "west": 10.007803749999999,
            "north": 47.694865,
            "east": 10.484655499999999
          },
          "poiCount": 10,
          "leafCount": 10,
          "averagePosition": [
            10.23112134,
            47.60561128
          ],
          "data": [
            {
              "type": "Feature",
              "properties": {
                "id": "3210421904",
                "osm_type": "node",
                "lat": 47.5579358,
                "lon": 10.0283296,
                "amenity": "post_office",
                "brand": "Deutsche Post",
                "brand:wikidata": "Q157645",
                "brand:wikipedia": "en:Deutsche Post",
                "lastcheck": "2018-01-27",
                "opening_hours": "Mo-Fr 08:00-19:00; Sa 08:00-13:00; PH off",
                "operator": "Deutsche Post",
                "operator:wikidata": "Q157645",
                "operator:wikipedia": "en:Deutsche Post"
              },
              "geometry": {
                "type": "Point",
                "coordinates": [
                  10.0283296,
                  47.5579358
                ]
              }
            },
            {
              "type": "Feature",
              "properties": {
                "id": "349924647",
                "osm_type": "node",
                "lat": 47.6409843,
                "lon": 10.1250747,
                "amenity": "post_office"
              },
              "geometry": {
                "type": "Point",
                "coordinates": [
                  10.1250747,
                  47.6409843
                ]
              }
            },
            {
              "type": "Feature",
              "properties": {
                "id": "1319829132",
                "osm_type": "node",
                "lat": 47.6629875,
                "lon": 10.3445636,
                "amenity": "post_office",
                "name": "Postfiliale Feneberg Sulzberg",
                "operator": "Deutsche Post"
              },
              "geometry": {
                "type": "Point",
                "coordinates": [
                  10.3445636,
                  47.6629875
                ]
              }
            },
            {
              "type": "Feature",
              "properties": {
                "id": "1425034078",
                "osm_type": "node",
                "lat": 47.6016304,
                "lon": 10.4178588,
                "amenity": "post_office",
                "brand": "Deutsche Post",
                "name": "Postagentur 519",
                "opening_hours": "Mo-Sa 08:00-13:00; Mo-Fr 15:00-19:00",
                "post_office:parcel_from": "DHL",
                "post_office:parcel_to": "DHL",
                "wheelchair": "yes"
              },
              "geometry": {
                "type": "Point",
                "coordinates": [
                  10.4178588,
                  47.6016304
                ]
              }
            },
            {
              "type": "Feature",
              "properties": {
                "id": "2092348166",
                "osm_type": "node",
                "lat": 47.6650641,
                "lon": 10.3036932,
                "addr:city": "Waltenhofen",
                "addr:housenumber": "44",
                "addr:postcode": "87448",
                "addr:street": "Bahnhofstraße",
                "amenity": "post_office",
                "name": "Postfiliale 559",
                "opening_hours": "Mo,Tu,Th,Fr 08:00-12:00,14:00-18:00; We,Sa 08:00-12:00; PH off",
                "operator": "https://www.feneberg.de/no_cache/markt-finden/in/waltenhofen/markt/ansehen/"
              },
              "geometry": {
                "type": "Point",
                "coordinates": [
                  10.3036932,
                  47.6650641
                ]
              }
            },
            {
              "type": "Feature",
              "properties": {
                "id": "3856929575",
                "osm_type": "node",
                "lat": 47.5559067,
                "lon": 10.2304025,
                "amenity": "post_office",
                "name": "Hermes Paketshop",
                "operator": "Hermes",
                "operator:wikidata": "Q1613532"
              },
              "geometry": {
                "type": "Point",
                "coordinates": [
                  10.2304025,
                  47.5559067
                ]
              }
            },
            {
              "type": "Feature",
              "properties": {
                "id": "4724010215",
                "osm_type": "node",
                "lat": 47.6415687,
                "lon": 10.1120001,
                "addr:housenumber": "1",
                "addr:postcode": "87480",
                "addr:street": "Gewerbering",
                "amenity": "post_office",
                "description": "In REWE Getränke-Markt",
                "name": "Postfiliale Weitnau",
                "opening_hours": "Mo-Sa 08:00-12:00"
              },
              "geometry": {
                "type": "Point",
                "coordinates": [
                  10.1120001,
                  47.6415687
                ]
              }
            },
            {
              "type": "Feature",
              "properties": {
                "id": "10564685665",
                "osm_type": "node",
                "lat": 47.5429601,
                "lon": 10.2574679,
                "addr:city": "Blaichach",
                "addr:country": "DE",
                "addr:housenumber": "1",
                "addr:postcode": "87544",
                "addr:street": "Ettensberger Straße",
                "amenity": "post_office",
                "name": "Deutsche Post Filiale 425",
                "operator": "Deutsche Post",
                "operator:website": "https://www.dhl.de/de/privatkunden/dhl-standorte-finden.html?address=87544:425",
                "operator:wikidata": "Q157645"
              },
              "geometry": {
                "type": "Point",
                "coordinates": [
                  10.2574679,
                  47.5429601
                ]
              }
            },
            {
              "type": "Feature",
              "properties": {
                "id": "11329167523",
                "osm_type": "node",
                "lat": 47.6278012,
                "lon": 10.2776233,
                "addr:city": "Waltenhofen",
                "addr:housenumber": "2-4",
                "addr:postcode": "87448",
                "addr:street": "Bürgermeister-Dürheimer-Straße",
                "amenity": "post_office",
                "name": "Deutsche Post",
                "opening_hours": "Sa 08:30-12:00, Mo-We,Fr 09:00-12:30, Mo,We-Fr 14:00-17:30",
                "operator": "Deutsche Post",
                "operator:wikidata": "Q157645",
                "wheelchair": "yes"
              },
              "geometry": {
                "type": "Point",
                "coordinates": [
                  10.2776233,
                  47.6278012
                ]
              }
            },
            {
              "type": "Feature",
              "properties": {
                "id": "13119497713",
                "osm_type": "node",
                "lat": 47.559274,
                "lon": 10.2141997,
                "amenity": "post_office",
                "name": "DHL",
                "opening_hours": "Mo-Sa 11:00-15:00,15:30-19:00",
                "post_office": "post_partner",
                "wheelchair": "yes"
              },
              "geometry": {
                "type": "Point",
                "coordinates": [
                  10.2141997,
                  47.559274
                ]
              }
            }
          ],
          "children": []
        }
      ]
    },
    {
      "bbox": {
        "south": 47.36431175,
        "west": 10.484655499999999,
        "north": 47.694865,
        "east": 11.438358999999998
      },
      "poiCount": 30,
      "leafCount": 30,
      "averagePosition": [
        10.98303351,
        47.5189246
      ],
      "data": [
        {
          "type": "Feature",
          "properties": {
            "id": "7862129574",
            "osm_type": "node",
            "lat": 47.6204359,
            "lon": 10.507012,
            "amenity": "post_office",
            "name": "Postfiliale im Feneberg"
          },
          "geometry": {
            "type": "Point",
            "coordinates": [
              10.507012,
              47.6204359
            ]
          }
        },
        {
          "type": "Feature",
          "properties": {
            "id": "8900990491",
            "osm_type": "node",
            "lat": 47.4980862,
            "lon": 10.5180441,
            "amenity": "post_office",
            "opening_hours": "Mo-Fr 09:00-13:00"
          },
          "geometry": {
            "type": "Point",
            "coordinates": [
              10.5180441,
              47.4980862
            ]
          }
        },
        {
          "type": "Feature",
          "properties": {
            "id": "281657401",
            "osm_type": "node",
            "lat": 47.5491744,
            "lon": 10.6307058,
            "addr:city": "Vils",
            "addr:country": "AT",
            "addr:housenumber": "1",
            "addr:postcode": "6682",
            "addr:street": "Stadtplatz",
            "amenity": "post_office",
            "name": "Postpartner Vils",
            "ref": "6682",
            "type": "Postfiliale"
          },
          "geometry": {
            "type": "Point",
            "coordinates": [
              10.6307058,
              47.5491744
            ]
          }
        },
        {
          "type": "Feature",
          "properties": {
            "id": "340520091",
            "osm_type": "node",
            "lat": 47.4842351,
            "lon": 10.6121926,
            "addr:city": "Nesselwängle",
            "addr:country": "AT",
            "addr:housenumber": "74",
            "addr:place": "Nesselwängle",
            "addr:postcode": "6672",
            "amenity": "post_office",
            "at_bev:addr_date": "2017-10-01",
            "name": "6672 Nesselwängle",
            "postal_code": "6672",
            "ref": "6672",
            "type": "Post.Partner"
          },
          "geometry": {
            "type": "Point",
            "coordinates": [
              10.6121926,
              47.4842351
            ]
          }
        },
        {
          "type": "Feature",
          "properties": {
            "id": "357422712",
            "osm_type": "node",
            "lat": 47.4909332,
            "lon": 10.7197716,
            "addr:city": "Reutte",
            "addr:country": "AT",
            "addr:housenumber": "11b",
            "addr:postcode": "6600",
            "addr:street": "Mühler Straße",
            "amenity": "post_office",
            "name": "Post Filiale 6600",
            "opening_hours": "Mo-Fr 08:00-18:00; Sa,Su,PH off",
            "operator": "Österreichische Post AG",
            "operator:wikidata": "Q1763505",
            "website": "https://www.post.at",
            "wheelchair": "yes"
          },
          "geometry": {
            "type": "Point",
            "coordinates": [
              10.7197716,
              47.4909332
            ]
          }
        },
        {
          "type": "Feature",
          "properties": {
            "id": "587886933",
            "osm_type": "node",
            "lat": 47.4199444,
            "lon": 10.7915372,
            "addr:city": "Bichlbach",
            "addr:country": "AT",
            "addr:housenumber": "34",
            "addr:postcode": "6621",
            "addr:street": "Kirchhof",
            "amenity": "post_office",
            "name": "6621 Bichlbach",
            "type": "Postfiliale"
          },
          "geometry": {
            "type": "Point",
            "coordinates": [
              10.7915372,
              47.4199444
            ]
          }
        },
        {
          "type": "Feature",
          "properties": {
            "id": "1222249235",
            "osm_type": "node",
            "lat": 47.3844478,
            "lon": 10.5607903,
            "amenity": "post_office",
            "name": "6642 Stanzach",
            "postal_code": "6642",
            "ref": "6642",
            "type": "Post.Partner",
            "wheelchair": "no"
          },
          "geometry": {
            "type": "Point",
            "coordinates": [
              10.5607903,
              47.3844478
            ]
          }
        },
        {
          "type": "Feature",
          "properties": {
            "id": "2092080790",
            "osm_type": "node",
            "lat": 47.4027245,
            "lon": 10.9195052,
            "amenity": "post_office",
            "opening_hours": "Mo-Fr 06:30-12:00,14:00-18:00; Sa 06:30-12:00"
          },
          "geometry": {
            "type": "Point",
            "coordinates": [
              10.9195052,
              47.4027245
            ]
          }
        },
        {
          "type": "Feature",
          "properties": {
            "id": "5083557366",
            "osm_type": "node",
            "lat": 47.4015854,
            "lon": 10.881538,
            "amenity": "post_office",
            "name": "Postpartner 6631",
            "opening_hours": "Mo-Fr 08:15-12:30,14:30-18:00; Sa 08:15-12:00",
            "operator": "Österreichische Post AG",
            "operator:wikidata": "Q1763505"
          },
          "geometry": {
            "type": "Point",
            "coordinates": [
              10.881538,
              47.4015854
            ]
          }
        },
        {
          "type": "Feature",
          "properties": {
            "id": "5083557367",
            "osm_type": "node",
            "lat": 47.3978636,
            "lon": 10.9207484,
            "amenity": "post_office",
            "name": "Postpartner 6632",
            "opening_hours": "Mo-Fr 08:00-12:00",
            "operator": "Österreichische Post AG",
            "operator:wikidata": "Q1763505"
          },
          "geometry": {
            "type": "Point",
            "coordinates": [
              10.9207484,
              47.3978636
            ]
          }
        },
        {
          "type": "Feature",
          "properties": {
            "id": "7785608745",
            "osm_type": "node",
            "lat": 47.6524432,
            "lon": 10.6065032,
            "amenity": "post_office",
            "name": "Postagentur",
            "opening_hours": "Mo-Fr 14:00-17:00; Sa 10:00-13:00"
          },
          "geometry": {
            "type": "Point",
            "coordinates": [
              10.6065032,
              47.6524432
            ]
          }
        },
        {
          "type": "Feature",
          "properties": {
            "id": "11002901628",
            "osm_type": "node",
            "lat": 47.5835756,
            "lon": 10.5586265,
            "addr:city": "Pfronten",
            "addr:housenumber": "5",
            "addr:postcode": "87459",
            "addr:street": "Theaterstraße",
            "amenity": "post_office",
            "branch": "509 Pfronten-Ried",
            "check_date:opening_hours": "2025-03-18",
            "level": "0",
            "name": "Postfiliale 509 Pfronten",
            "opening_hours": "Mo-Fr 08:00-13:00,15:00-20:00; Sa 08:00-13:00",
            "operator": "Deutsche Post",
            "operator:wikidata": "Q157645",
            "website": "https://www.deutschepost.de/",
            "wheelchair": "yes"
          },
          "geometry": {
            "type": "Point",
            "coordinates": [
              10.5586265,
              47.5835756
            ]
          }
        },
        {
          "type": "Feature",
          "properties": {
            "id": "286290372",
            "osm_type": "node",
            "lat": 47.4919463,
            "lon": 11.0979389,
            "amenity": "post_office",
            "wheelchair": "no",
            "wheelchair:description": "Klingel für Rollstuhlfahrer an der Seite, Personal kommt raus!"
          },
          "geometry": {
            "type": "Point",
            "coordinates": [
              11.0979389,
              47.4919463
            ]
          }
        },
        {
          "type": "Feature",
          "properties": {
            "id": "299137330",
            "osm_type": "node",
            "lat": 47.6598883,
            "lon": 11.3700255,
            "amenity": "post_office",
            "name": "Deutsche Post Filiale 556",
            "opening_hours": "Mo-Fr 13:00-18:00; Sa 09:00-13:00",
            "operator": "Deutsche Post",
            "operator:wikidata": "Q157645",
            "wheelchair": "yes"
          },
          "geometry": {
            "type": "Point",
            "coordinates": [
              11.3700255,
              47.6598883
            ]
          }
        },
        {
          "type": "Feature",
          "properties": {
            "id": "1651672447",
            "osm_type": "node",
            "lat": 47.599624,
            "lon": 11.0550787,
            "amenity": "post_office",
            "check_date:opening_hours": "2023-10-30",
            "name": "Postfiliale im Getränkemarkt Oberammergau",
            "opening_hours": "Mo-Sa 08:30-12:30, Mo-Fr 14:00-18:00",
            "toilets:wheelchair": "no",
            "wheelchair": "yes"
          },
          "geometry": {
            "type": "Point",
            "coordinates": [
              11.0550787,
              47.599624
            ]
          }
        },
        {
          "type": "Feature",
          "properties": {
            "id": "1937859308",
            "osm_type": "node",
            "lat": 47.5605756,
            "lon": 11.1357734,
            "addr:city": "Oberau",
            "addr:housenumber": "2",
            "addr:postcode": "82496",
            "addr:street": "Mühlstraße",
            "amenity": "post_office",
            "name": "Postfiliale 565",
            "opening_hours": "Mo,Tu 14:30-17:30; We-Sa 09:00-12:00"
          },
          "geometry": {
            "type": "Point",
            "coordinates": [
              11.1357734,
              47.5605756
            ]
          }
        },
        {
          "type": "Feature",
          "properties": {
            "id": "1943329475",
            "osm_type": "node",
            "lat": 47.4403368,
            "lon": 11.2654867,
            "amenity": "post_office",
            "opening_hours": "Mo,Tu,Th,Fr 09:00-12:00,14:00-18:00; We,Sa 09:00-12:00",
            "operator": "Deutsche Post",
            "operator:wikidata": "Q157645"
          },
          "geometry": {
            "type": "Point",
            "coordinates": [
              11.2654867,
              47.4403368
            ]
          }
        },
        {
          "type": "Feature",
          "properties": {
            "id": "2580645309",
            "osm_type": "node",
            "lat": 47.5051538,
            "lon": 11.2784035,
            "amenity": "post_office",
            "check_date": "2025-09-10",
            "name": "Reisebüro Hornsteiner",
            "opening_hours": "Mo,We,Fr 08:00-12:00,14:00-18:00; Tu,Th,Sa 08:00-12:00; Su off"
          },
          "geometry": {
            "type": "Point",
            "coordinates": [
              11.2784035,
              47.5051538
            ]
          }
        },
        {
          "type": "Feature",
          "properties": {
            "id": "3808225234",
            "osm_type": "node",
            "lat": 47.675345,
            "lon": 11.2000867,
            "addr:city": "Murnau am Staffelsee",
            "addr:country": "DE",
            "addr:housenumber": "49",
            "addr:postcode": "82418",
            "addr:street": "Burggraben",
            "amenity": "post_office",
            "name": "Feneberg",
            "wheelchair": "yes"
          },
          "geometry": {
            "type": "Point",
            "coordinates": [
              11.2000867,
              47.675345
            ]
          }
        },
        {
          "type": "Feature",
          "properties": {
            "id": "3926630435",
            "osm_type": "node",
            "lat": 47.4940622,
            "lon": 11.1108607,
            "amenity": "post_office",
            "name": "Edith's Bastelstube"
          },
          "geometry": {
            "type": "Point",
            "coordinates": [
              11.1108607,
              47.4940622
            ]
          }
        },
        {
          "type": "Feature",
          "properties": {
            "id": "5349465267",
            "osm_type": "node",
            "lat": 47.5990036,
            "lon": 11.0641832,
            "amenity": "post_office",
            "brand": "DHL",
            "brand:wikidata": "Q489815",
            "name": "DHL Filiale im Sporthaus",
            "opening_hours": "Mo-Fr 09:30-12:00,14:00-17:30; Sa 09:30-13:00",
            "wheelchair": "no"
          },
          "geometry": {
            "type": "Point",
            "coordinates": [
              11.0641832,
              47.5990036
            ]
          }
        },
        {
          "type": "Feature",
          "properties": {
            "id": "5982047590",
            "osm_type": "node",
            "lat": 47.3880639,
            "lon": 11.2610881,
            "addr:country": "AT",
            "addr:postcode": "6108",
            "amenity": "post_office",
            "name": "6108 Scharnitz"
          },
          "geometry": {
            "type": "Point",
            "coordinates": [
              11.2610881,
              47.3880639
            ]
          }
        },
        {
          "type": "Feature",
          "properties": {
            "id": "7043578341",
            "osm_type": "node",
            "lat": 47.4421601,
            "lon": 11.258733,
            "addr:city": "Mittenwald",
            "addr:country": "DE",
            "addr:housenumber": "8",
            "addr:postcode": "82481",
            "addr:street": "Prof.-Schreyögg-Platz",
            "amenity": "post_office",
            "brand": "DHL",
            "brand:wikidata": "Q489815",
            "brand:wikipedia": "en:DHL",
            "name": "DHL",
            "opening_hours": "Mo-Fr 08:00-12:00,13:00-18:00; Sa 08:00-13:00",
            "operator": "Hans Hornsteiner",
            "wheelchair": "yes"
          },
          "geometry": {
            "type": "Point",
            "coordinates": [
              11.258733,
              47.4421601
            ]
          }
        },
        {
          "type": "Feature",
          "properties": {
            "id": "7924143752",
            "osm_type": "node",
            "lat": 47.6592707,
            "lon": 11.3685397,
            "amenity": "post_office",
            "brand": "Hermes;DPD;GLS;UPS",
            "name": "Dienstleistungen Rudolf Herden",
            "opening_hours": "Mo,Tu,Th,Fr 09:00-12:00,14:00-18:00; We,Sa 09:00-12:00",
            "phone": "+49 8851 392",
            "shop": "electronics",
            "website": "https://www.herden-kochel.de/"
          },
          "geometry": {
            "type": "Point",
            "coordinates": [
              11.3685397,
              47.6592707
            ]
          }
        },
        {
          "type": "Feature",
          "properties": {
            "id": "8429838849",
            "osm_type": "node",
            "lat": 47.6887275,
            "lon": 11.1830268,
            "amenity": "post_office",
            "brand": "DHL",
            "brand:wikidata": "Q489815",
            "name": "DHL Paketshop",
            "wheelchair": "yes"
          },
          "geometry": {
            "type": "Point",
            "coordinates": [
              11.1830268,
              47.6887275
            ]
          }
        },
        {
          "type": "Feature",
          "properties": {
            "id": "9701796403",
            "osm_type": "node",
            "lat": 47.5979543,
            "lon": 11.0649076,
            "amenity": "post_office",
            "brand": "DPD",
            "brand:wikidata": "Q541030",
            "check_date:opening_hours": "2023-10-25",
            "name": "DPD",
            "opening_hours": "Mo-Fr 09:00-18:30; Sa 09:00-16:00",
            "wheelchair": "limited"
          },
          "geometry": {
            "type": "Point",
            "coordinates": [
              11.0649076,
              47.5979543
            ]
          }
        },
        {
          "type": "Feature",
          "properties": {
            "id": "11981007094",
            "osm_type": "node",
            "lat": 47.4917394,
            "lon": 11.10774,
            "amenity": "post_office",
            "branch": "599",
            "opening_hours": "Mo-Fr 09:00-19:00; Sa 09:00-13:00",
            "phone": "+49 228 4333112",
            "post_office:letter_from": "yes",
            "post_office:parcel_from": "yes"
          },
          "geometry": {
            "type": "Point",
            "coordinates": [
              11.10774,
              47.4917394
            ]
          }
        },
        {
          "type": "Feature",
          "properties": {
            "id": "11982611136",
            "osm_type": "node",
            "lat": 47.4907933,
            "lon": 11.077684,
            "amenity": "post_office",
            "post_office:letter_from": "yes",
            "post_office:parcel_from": "yes"
          },
          "geometry": {
            "type": "Point",
            "coordinates": [
              11.077684,
              47.4907933
            ]
          }
        },
        {
          "type": "Feature",
          "properties": {
            "id": "12061215588",
            "osm_type": "node",
            "lat": 47.5027356,
            "lon": 11.0983218,
            "amenity": "post_office",
            "opening_hours": "Mo-Fr 08:00-18:00; Sa 08:00-13:00",
            "phone": "+ 49 228 44333112",
            "post_office": "post_partner",
            "post_office:letter_from": "yes",
            "post_office:parcel_from": "yes",
            "post_office:stamps": "yes",
            "website": "https://deutschepost.de/"
          },
          "geometry": {
            "type": "Point",
            "coordinates": [
              11.0983218,
              47.5027356
            ]
          }
        },
        {
          "type": "Feature",
          "properties": {
            "id": "13001231961",
            "osm_type": "node",
            "lat": 47.3949083,
            "lon": 11.2661521,
            "addr:city": "Scharnitz",
            "addr:housenumber": "44",
            "addr:postcode": "6108",
            "addr:street": "Innsbruckerstraße",
            "amenity": "post_office",
            "name": "miniM Postpartner",
            "opening_hours": "Mo-Fr 08:00-18:00; Sa 08:00-12:00",
            "wheelchair": "yes"
          },
          "geometry": {
            "type": "Point",
            "coordinates": [
              11.2661521,
              47.3949083
            ]
          }
        }
      ],
      "children": []
    }
  ]
}