{
  "bbox": {
    "south": 47.033758500000005,
    "west": 13.345766,
    "north": 47.694865,
    "east": 15.253173
  },
  "poiCount": 85,
  "leafCount": 0,
  "averagePosition": [
    14.312821684705881,
    47.37817072117647
  ],
  "data": [],
  "children": [
    {
      "bbox": {
        "south": 47.033758500000005,
        "west": 13.345766,
        "north": 47.36431175,
        "east": 14.2994695
      },
      "poiCount": 13,
      "leafCount": 13,
      "averagePosition": [
        13.782642438461538,
        47.1415306076923
      ],
      "data": [
        {
          "type": "Feature",
          "properties": {
            "id": "340515405",
            "osm_type": "node",
            "lat": 47.1515489,
            "lon": 13.5090221,
            "addr:city": "Zederhaus",
            "addr:country": "AT",
            "addr:housenumber": "27",
            "addr:place": "Zederhaus",
            "addr:postcode": "5584",
            "amenity": "post_office",
            "name": "Postpartner 5584, Nah & Frisch Bliem",
            "post_office": "post_partner",
            "postal_code": "5584",
            "source": "https://www.post.at/"
          },
          "geometry": {
            "type": "Point",
            "coordinates": [
              13.5090221,
              47.1515489
            ]
          }
        },
        {
          "type": "Feature",
          "properties": {
            "id": "340517510",
            "osm_type": "node",
            "lat": 47.3446172,
            "lon": 13.3918706,
            "addr:city": "Flachau",
            "addr:country": "AT",
            "addr:housenumber": "130",
            "addr:postcode": "5542",
            "addr:street": "Dorfstraße",
            "amenity": "post_office",
            "name": "Postpartner 5542, Tabak Trafik Kofler",
            "post_office": "post_partner",
            "postal_code": "5542",
            "source": "https://www.post.at/"
          },
          "geometry": {
            "type": "Point",
            "coordinates": [
              13.3918706,
              47.3446172
            ]
          }
        },
        {
          "type": "Feature",
          "properties": {
            "id": "340517310",
            "osm_type": "node",
            "lat": 47.1341778,
            "lon": 13.6836672,
            "addr:city": "Mauterndorf",
            "addr:country": "AT",
            "addr:housenumber": "157",
            "addr:place": "Markt",
            "addr:postcode": "5570",
            "amenity": "post_office",
            "name": "Postpartner 5570, Cafe Manuela",
            "post_office": "post_partner",
            "postal_code": "5570",
            "source": "https://www.post.at/",
            "website": "https://www.post.at/",
            "wheelchair": "limited"
          },
          "geometry": {
            "type": "Point",
            "coordinates": [
              13.6836672,
              47.1341778
            ]
          }
        },
        {
          "type": "Feature",
          "properties": {
            "id": "340517376",
            "osm_type": "node",
            "lat": 47.0755805,
            "lon": 13.84169,
            "addr:city": "Ramingstein",
            "addr:country": "AT",
            "addr:housenumber": "2",
            "addr:postcode": "5591",
            "addr:street": "Gemeindeplatz",
            "amenity": "post_office",
            "name": "Postpartner 5591, Wirtschaftsverein Tamsweg eGen",
            "opening_hours": "Mo-Fr 07:00-12:30,14:30-18:30; Sa 07:00-13:00; Su,PH off",
            "post_office": "post_partner",
            "post_office:letter_from": "yes",
            "post_office:packaging": "yes",
            "post_office:parcel_from": "yes",
            "post_office:parcel_to": "yes",
            "post_office:stamps": "yes",
            "postal_code": "5591",
            "ref": "5591"
          },
          "geometry": {
            "type": "Point",
            "coordinates": [
              13.84169,
              47.0755805
            ]
          }
        },
        {
          "type": "Feature",
          "properties": {
            "id": "340517692",
            "osm_type": "node",
            "lat": 47.2484898,
            "lon": 13.5596491,
            "addr:city": "Obertauern",
            "addr:housenumber": "80",
            "addr:postcode": "5562",
            "addr:street": "Untertauern",
            "amenity": "post_office",
            "name": "5562 Obertauern",
            "ref": "5562",
            "type": "Postfiliale"
          },
          "geometry": {
            "type": "Point",
            "coordinates": [
              13.5596491,
              47.2484898
            ]
          }
        },
        {
          "type": "Feature",
          "properties": {
            "id": "340517894",
            "osm_type": "node",
            "lat": 47.0886308,
            "lon": 13.9831675,
            "addr:city": "Stadl-Predlitz",
            "addr:country": "AT",
            "addr:housenumber": "118a",
            "addr:place": "Stadl an der Mur",
            "addr:postcode": "8862",
            "amenity": "post_office",
            "name": "Postpartner 8862, Nah & Frisch Feuchter",
            "post_office": "post_partner",
            "postal_code": "8862",
            "source": "https://www.post.at/"
          },
          "geometry": {
            "type": "Point",
            "coordinates": [
              13.9831675,
              47.0886308
            ]
          }
        },
        {
          "type": "Feature",
          "properties": {
            "id": "340520315",
            "osm_type": "node",
            "lat": 47.0974467,
            "lon": 13.6370795,
            "addr:city": "Sankt Michael im Lungau",
            "addr:housenumber": "6",
            "addr:postcode": "5582",
            "addr:street": "Poststraße",
            "amenity": "post_office",
            "name": "Post Filiale 5582",
            "opening_hours": "Mo-Fr 08:00-12:00,14:00-17:00; Sa,Su,PH off",
            "operator": "Österreichische Post AG",
            "operator:wikidata": "Q1763505",
            "operator:wikipedia": "de:Österreichische Post",
            "website": "https://www.post.at",
            "wheelchair": "yes"
          },
          "geometry": {
            "type": "Point",
            "coordinates": [
              13.6370795,
              47.0974467
            ]
          }
        },
        {
          "type": "Feature",
          "properties": {
            "id": "2289444204",
            "osm_type": "node",
            "lat": 47.0950649,
            "lon": 13.6387672,
            "amenity": "post_office",
            "level": "1",
            "name": "Hermes Paketshop",
            "opening_hours": "Mo-Fr 07:30-18:30; Sa 07:30-17:00",
            "post_office": "post_partner"
          },
          "geometry": {
            "type": "Point",
            "coordinates": [
              13.6387672,
              47.0950649
            ]
          }
        },
        {
          "type": "Feature",
          "properties": {
            "id": "3358676340",
            "osm_type": "node",
            "lat": 47.1278742,
            "lon": 13.8112892,
            "addr:city": "Tamsweg",
            "addr:country": "AT",
            "addr:housenumber": "7",
            "addr:postcode": "5580",
            "addr:street": "Kuenburgstraße",
            "amenity": "post_office",
            "at_bev:addr_date": "2018-04-02",
            "name": "Post Filiale 5580",
            "opening_hours": "Mo-Fr 08:00-12:00, 14:00-17:30; Sa,Su,PH off",
            "operator": "Österreichische Post AG",
            "operator:wikidata": "Q1763505",
            "website": "https://www.post.at"
          },
          "geometry": {
            "type": "Point",
            "coordinates": [
              13.8112892,
              47.1278742
            ]
          }
        },
        {
          "type": "Feature",
          "properties": {
            "id": "10005457574",
            "osm_type": "node",
            "lat": 47.1497823,
            "lon": 13.7450644,
            "addr:city": "Mariapfarr",
            "addr:housenumber": "14",
            "addr:postcode": "5571",
            "addr:street": "Pfarrstraße",
            "amenity": "post_office",
            "opening_hours": "Mo-Tu 08:30-12:00, 15:00-18:00, We 08:30-12:00, Th-Fr 08:30-12:00, 15:00-18:00, Sa 08:30-12:00",
            "phone": "+43 6473 8202"
          },
          "geometry": {
            "type": "Point",
            "coordinates": [
              13.7450644,
              47.1497823
            ]
          }
        },
        {
          "type": "Feature",
          "properties": {
            "id": "13051587771",
            "osm_type": "node",
            "lat": 47.0714156,
            "lon": 13.9097145,
            "amenity": "post_office"
          },
          "geometry": {
            "type": "Point",
            "coordinates": [
              13.9097145,
              47.0714156
            ]
          }
        },
        {
          "type": "Feature",
          "properties": {
            "id": "340517785",
            "osm_type": "node",
            "lat": 47.141873,
            "lon": 14.283302,
            "addr:city": "Katsch an der Mur",
            "addr:country": "AT",
            "addr:housenumber": "8",
            "addr:postcode": "8842",
            "addr:street": "Katschtalstraße",
            "amenity": "post_office",
            "name": "Postpartner 8842, ADEG Hörbinger",
            "post_office": "post_partner",
            "postal_code": "8842",
            "source": "https://www.post.at/"
          },
          "geometry": {
            "type": "Point",
            "coordinates": [
              14.283302,
              47.141873
            ]
          }
        },
        {
          "type": "Feature",
          "properties": {
            "id": "340517821",
            "osm_type": "node",
            "lat": 47.1133962,
            "lon": 14.1800684,
            "addr:city": "Murau",
            "addr:country": "AT",
            "addr:housenumber": "140",
            "addr:postcode": "8850",
            "addr:street": "Keltensiedlung",
            "amenity": "post_office",
            "name": "Post Filiale 8850",
            "opening_hours": "Mo-Fr 08:00-12:00, 14:00-17:30; Sa,Su,PH off",
            "operator": "Österreichische Post AG",
            "operator:wikidata": "Q1763505",
            "operator:wikipedia": "de:Österreichische Post",
            "website": "https://www.post.at"
          },
          "geometry": {
            "type": "Point",
            "coordinates": [
              14.1800684,
              47.1133962
            ]
          }
        }
      ],
      "children": []
    },
    {
      "bbox": {
        "south": 47.033758500000005,
        "west": 14.2994695,
        "north": 47.36431175,
        "east": 15.253173
      },
      "poiCount": 22,
      "leafCount": 22,
      "averagePosition": [
        14.765434081818182,
        47.22996178636363
      ],
      "data": [
        {
          "type": "Feature",
          "properties": {
            "id": "340518046",
            "osm_type": "node",
            "lat": 47.130795,
            "lon": 14.3596901,
            "addr:city": "Teufenbach-Katsch",
            "addr:country": "AT",
            "addr:housenumber": "7",
            "addr:postcode": "8833",
            "addr:street": "Hauptstraße",
            "amenity": "post_office",
            "name": "Postpartner 8833, ADEG Glanzer",
            "post_office": "post_partner",
            "postal_code": "8833",
            "source": "https://www.post.at/"
          },
          "geometry": {
            "type": "Point",
            "coordinates": [
              14.3596901,
              47.130795
            ]
          }
        },
        {
          "type": "Feature",
          "properties": {
            "id": "340518092",
            "osm_type": "node",
            "lat": 47.1518033,
            "lon": 14.3753462,
            "addr:city": "Niederwölz",
            "addr:country": "AT",
            "addr:housenumber": "5",
            "addr:postcode": "8831",
            "addr:street": "Am Amtsplatz",
            "amenity": "post_office",
            "name": "Postpartner 8831, Nah & Frisch Tilger",
            "post_office": "post_partner",
            "postal_code": "8831",
            "source": "https://www.post.at/"
          },
          "geometry": {
            "type": "Point",
            "coordinates": [
              14.3753462,
              47.1518033
            ]
          }
        },
        {
          "type": "Feature",
          "properties": {
            "id": "340520507",
            "osm_type": "node",
            "lat": 47.2513986,
            "lon": 14.4874745,
            "addr:city": "Pölstal",
            "addr:country": "AT",
            "addr:housenumber": "1",
            "addr:postcode": "8762",
            "addr:street": "Mitterweg",
            "amenity": "post_office",
            "name": "Postpartner 8762, Marktgemeinde",
            "post_office": "post_partner",
            "postal_code": "8762",
            "source": "https://www.post.at/"
          },
          "geometry": {
            "type": "Point",
            "coordinates": [
              14.4874745,
              47.2513986
            ]
          }
        },
        {
          "type": "Feature",
          "properties": {
            "id": "340520511",
            "osm_type": "node",
            "lat": 47.3080323,
            "lon": 14.3748012,
            "addr:city": "Pusterwald",
            "addr:country": "AT",
            "addr:housenumber": "51",
            "addr:place": "Pusterwald",
            "addr:postcode": "8764",
            "amenity": "post_office",
            "name": "Postpartner 8764, Gemeinde",
            "post_office": "post_partner",
            "postal_code": "8764",
            "source": "https://www.post.at/"
          },
          "geometry": {
            "type": "Point",
            "coordinates": [
              14.3748012,
              47.3080323
            ]
          }
        },
        {
          "type": "Feature",
          "properties": {
            "id": "6083230192",
            "osm_type": "node",
            "lat": 47.1986669,
            "lon": 14.4455034,
            "addr:city": "Unzmarkt-Frauenburg",
            "addr:country": "AT",
            "addr:housenumber": "2",
            "addr:postcode": "8800",
            "addr:street": "Simon Hafnerplatz",
            "amenity": "post_office",
            "name": "POSTPARTNER",
            "opening_hours": "Mo-Fr 08:00-12:00",
            "phone": "+43 664/49 355 94"
          },
          "geometry": {
            "type": "Point",
            "coordinates": [
              14.4455034,
              47.1986669
            ]
          }
        },
        {
          "type": "Feature",
          "properties": {
            "id": "302136617",
            "osm_type": "node",
            "lat": 47.1532002,
            "lon": 14.7383427,
            "addr:city": "Weißkirchen in Steiermark",
            "addr:country": "AT",
            "addr:housenumber": "10",
            "addr:postcode": "8741",
            "addr:street": "Kärntnerstraße",
            "amenity": "post_office",
            "name": "Schilhan Tabak-Papier",
            "phone": "+43 3577 82201"
          },
          "geometry": {
            "type": "Point",
            "coordinates": [
              14.7383427,
              47.1532002
            ]
          }
        },
        {
          "type": "Feature",
          "properties": {
            "id": "340519769",
            "osm_type": "node",
            "lat": 47.2708532,
            "lon": 14.7039143,
            "addr:city": "Gaal",
            "addr:country": "AT",
            "addr:housenumber": "27",
            "addr:place": "Bischoffeld",
            "addr:postcode": "8731",
            "amenity": "post_office",
            "name": "Postpartner 8731, SPAR Gruber",
            "post_office": "post_partner",
            "postal_code": "8731",
            "source": "https://www.post.at/"
          },
          "geometry": {
            "type": "Point",
            "coordinates": [
              14.7039143,
              47.2708532
            ]
          }
        },
        {
          "type": "Feature",
          "properties": {
            "id": "340519775",
            "osm_type": "node",
            "lat": 47.2504877,
            "lon": 14.8957309,
            "addr:city": "Sankt Margarethen bei Knittelfeld",
            "addr:country": "AT",
            "addr:housenumber": "29",
            "addr:place": "St. Lorenzen",
            "addr:postcode": "8715",
            "amenity": "post_office",
            "name": "Postpartner 8715, Sport Gruber",
            "opening_hours": "Mo-Fr 09:00-12:00,14:30-17:00",
            "post_office": "post_partner",
            "postal_code": "8715",
            "source": "https://www.post.at/"
          },
          "geometry": {
            "type": "Point",
            "coordinates": [
              14.8957309,
              47.2504877
            ]
          }
        },
        {
          "type": "Feature",
          "properties": {
            "id": "340520645",
            "osm_type": "node",
            "lat": 47.1848268,
            "lon": 14.8087402,
            "addr:city": "Großlobming",
            "addr:country": "AT",
            "addr:housenumber": "2",
            "addr:postcode": "8734",
            "addr:street": "Kirchengasse",
            "amenity": "post_office",
            "name": "Postpartner 8734, Gemeinde",
            "post_office": "post_partner",
            "postal_code": "8734",
            "source": "https://www.post.at/"
          },
          "geometry": {
            "type": "Point",
            "coordinates": [
              14.8087402,
              47.1848268
            ]
          }
        },
        {
          "type": "Feature",
          "properties": {
            "id": "1432164534",
            "osm_type": "node",
            "lat": 47.3196975,
            "lon": 14.976033,
            "addr:city": "Sankt Stefan ob Leoben",
            "addr:housenumber": "2",
            "addr:postcode": "8713",
            "addr:street": "Untere Dorfstraße",
            "amenity": "post_office",
            "name": "Postpartner Unimarkt"
          },
          "geometry": {
            "type": "Point",
            "coordinates": [
              14.976033,
              47.3196975
            ]
          }
        },
        {
          "type": "Feature",
          "properties": {
            "id": "1575114525",
            "osm_type": "node",
            "lat": 47.1761322,
            "lon": 14.675731,
            "amenity": "post_office",
            "name": "Post AG",
            "wheelchair": "yes"
          },
          "geometry": {
            "type": "Point",
            "coordinates": [
              14.675731,
              47.1761322
            ]
          }
        },
        {
          "type": "Feature",
          "properties": {
            "id": "2040941631",
            "osm_type": "node",
            "lat": 47.2153224,
            "lon": 14.8265525,
            "addr:city": "Knittefeld",
            "addr:country": "AT",
            "addr:district": "Murtal",
            "addr:housenumber": "5",
            "addr:postcode": "8720",
            "addr:street": "Kapuzinerplatz",
            "amenity": "post_office",
            "heritage": "2",
            "heritage:operator": "bda",
            "name": "Post Filiale 8720",
            "opening_hours": "Mo-Fr 08:00-12:00, 14:00-17:00; Sa,Su,PH off",
            "operator": "Österreichische Post AG",
            "operator:wikidata": "Q1763505",
            "operator:wikipedia": "de:Österreichische Post",
            "ref:at:bda": "57275",
            "website": "https://www.post.at",
            "wheelchair": "limited",
            "wikidata": "Q38046205"
          },
          "geometry": {
            "type": "Point",
            "coordinates": [
              14.8265525,
              47.2153224
            ]
          }
        },
        {
          "type": "Feature",
          "properties": {
            "id": "4336608792",
            "osm_type": "node",
            "lat": 47.2234541,
            "lon": 14.854377,
            "amenity": "post_office",
            "name": "Post"
          },
          "geometry": {
            "type": "Point",
            "coordinates": [
              14.854377,
              47.2234541
            ]
          }
        },
        {
          "type": "Feature",
          "properties": {
            "id": "5937426999",
            "osm_type": "node",
            "lat": 47.168678,
            "lon": 14.6534998,
            "amenity": "post_office",
            "collection_times": "Mo-Fr 09:00",
            "operator": "Österreichische Post AG"
          },
          "geometry": {
            "type": "Point",
            "coordinates": [
              14.6534998,
              47.168678
            ]
          }
        },
        {
          "type": "Feature",
          "properties": {
            "id": "6174659457",
            "osm_type": "node",
            "lat": 47.220111,
            "lon": 14.580051,
            "addr:city": "Pöls-Oberkurzheim",
            "addr:country": "AT",
            "addr:housenumber": "6",
            "addr:postcode": "8761",
            "addr:street": "Hauptplatz",
            "amenity": "post_office",
            "name": "Postpartner Marktgemeinde Pöls-Oberkurzheim",
            "opening_hours": "Mo-Fr 08:00-12:00,15:00-17:00",
            "website": "https://www.post.at/suche/standortsuche.php?suche_quick=8761"
          },
          "geometry": {
            "type": "Point",
            "coordinates": [
              14.580051,
              47.220111
            ]
          }
        },
        {
          "type": "Feature",
          "properties": {
            "id": "6221561451",
            "osm_type": "node",
            "lat": 47.2691033,
            "lon": 14.8590571,
            "addr:city": "ST. MAREIN-FEISTRITZ",
            "addr:country": "AT",
            "addr:housenumber": "4",
            "addr:postcode": "8733",
            "addr:street": "Am Kirchenbichl",
            "amenity": "post_office",
            "name": "Post",
            "operator": "Bawag PSK"
          },
          "geometry": {
            "type": "Point",
            "coordinates": [
              14.8590571,
              47.2691033
            ]
          }
        },
        {
          "type": "Feature",
          "properties": {
            "id": "7177191557",
            "osm_type": "node",
            "lat": 47.3419925,
            "lon": 15.0147392,
            "addr:city": "Sankt Michael in Obersteiermark",
            "addr:country": "AT",
            "addr:housenumber": "50a",
            "addr:postcode": "8770",
            "addr:street": "Hauptstraße",
            "amenity": "post_office",
            "name": "Postpartner 8770",
            "opening_hours": "Mo,We-Fr 07:45-16:00; Tu 07:45-13:00",
            "operator": "Soziale Dienste",
            "ref": "8770",
            "source": "local_knowledge"
          },
          "geometry": {
            "type": "Point",
            "coordinates": [
              15.0147392,
              47.3419925
            ]
          }
        },
        {
          "type": "Feature",
          "properties": {
            "id": "11828405268",
            "osm_type": "node",
            "lat": 47.2078349,
            "lon": 14.6763517,
            "amenity": "post_office",
            "post_office": "post_partner"
          },
          "geometry": {
            "type": "Point",
            "coordinates": [
              14.6763517,
              47.2078349
            ]
          }
        },
        {
          "type": "Feature",
          "properties": {
            "id": "340520363",
            "osm_type": "node",
            "lat": 47.2246407,
            "lon": 15.2390779,
            "addr:city": "Übelbach",
            "addr:country": "AT",
            "addr:housenumber": "252",
            "addr:postcode": "8124",
            "addr:street": "Gleinalmstraße",
            "amenity": "post_office",
            "name": "Postpartner 8124, Raiffeisen Lagerhaus",
            "post_office": "post_partner",
            "postal_code": "8124",
            "source": "https://www.post.at/"
          },
          "geometry": {
            "type": "Point",
            "coordinates": [
              15.2390779,
              47.2246407
            ]
          }
        },
        {
          "type": "Feature",
          "properties": {
            "id": "2622884172",
            "osm_type": "node",
            "lat": 47.0703328,
            "lon": 15.1292789,
            "amenity": "post_office",
            "name": "Post-Partner",
            "operator": "Schmölzer"
          },
          "geometry": {
            "type": "Point",
            "coordinates": [
              15.1292789,
              47.0703328
            ]
          }
        },
        {
          "type": "Feature",
          "properties": {
            "id": "3874653316",
            "osm_type": "node",
            "lat": 47.3597735,
            "lon": 15.0988399,
            "addr:city": "Leoben",
            "addr:housenumber": "26",
            "addr:postcode": "8700",
            "addr:street": "Steigtalstraße",
            "addr:suburb": "Göß",
            "amenity": "post_office",
            "name": "Postpartner Adeg Schuss",
            "opening_hours": "Mo-Fr 08:00-17:00"
          },
          "geometry": {
            "type": "Point",
            "coordinates": [
              15.0988399,
              47.3597735
            ]
          }
        },
        {
          "type": "Feature",
          "properties": {
            "id": "4771395321",
            "osm_type": "node",
            "lat": 47.3620224,
            "lon": 15.0664173,
            "addr:city": "Leoben",
            "addr:country": "AT",
            "addr:housenumber": "395",
            "addr:postcode": "8700",
            "addr:street": "Kärntner Straße",
            "addr:suburb": "Leitendorf",
            "amenity": "post_office",
            "name": "Postpartner 8703",
            "opening_hours": "Mo-Th 10:00-12:00,14:00-16:00; Fr 10:00-14:00",
            "operator": "Verein Hand in Hand",
            "ref": "8703",
            "source": "local_knowledge"
          },
          "geometry": {
            "type": "Point",
            "coordinates": [
              15.0664173,
              47.3620224
            ]
          }
        }
      ],
      "children": []
    },
    {
      "bbox": {
        "south": 47.36431175,
        "west": 13.345766,
        "north": 47.694865,
        "east": 14.2994695
      },
      "poiCount": 28,
      "leafCount": 28,
      "averagePosition": [
        13.780549449999999,
        47.52409347142857
      ],
      "data": [
        {
          "type": "Feature",
          "properties": {
            "id": "340519612",
            "osm_type": "node",
            "lat": 47.5129468,
            "lon": 13.4315248,
            "addr:city": "Annaberg-Lungötz",
            "addr:country": "AT",
            "addr:housenumber": "2",
            "addr:place": "Annaberg",
            "addr:postcode": "5524",
            "amenity": "post_office",
            "at_bev:addr_date": "2017-10-01",
            "name": "Postpartner 5524, Tabak Trafik Reiter",
            "post_office": "post_partner",
            "postal_code": "5524",
            "source": "https://www.post.at/"
          },
          "geometry": {
            "type": "Point",
            "coordinates": [
              13.4315248,
              47.5129468
            ]
          }
        },
        {
          "type": "Feature",
          "properties": {
            "id": "340520861",
            "osm_type": "node",
            "lat": 47.4072011,
            "lon": 13.3957239,
            "addr:city": "Eben im Pongau",
            "addr:country": "AT",
            "addr:housenumber": "60",
            "addr:postcode": "5531",
            "addr:street": "Dorfplatz",
            "amenity": "post_office",
            "name": "Postpartner 5531, Tourismusverband",
            "post_office": "post_partner",
            "postal_code": "5531",
            "source": "https://www.post.at/"
          },
          "geometry": {
            "type": "Point",
            "coordinates": [
              13.3957239,
              47.4072011
            ]
          }
        },
        {
          "type": "Feature",
          "properties": {
            "id": "879788828",
            "osm_type": "node",
            "lat": 47.4342148,
            "lon": 13.5171356,
            "amenity": "post_office"
          },
          "geometry": {
            "type": "Point",
            "coordinates": [
              13.5171356,
              47.4342148
            ]
          }
        },
        {
          "type": "Feature",
          "properties": {
            "id": "1259557705",
            "osm_type": "node",
            "lat": 47.5927687,
            "lon": 13.4664287,
            "addr:city": "Rußbach am Paß Gschütt",
            "addr:country": "AT",
            "addr:housenumber": "22",
            "addr:place": "Rußbachsaag",
            "addr:postcode": "5442",
            "amenity": "post_office",
            "name": "Postpartner 5442, Tourismusverband",
            "post_office": "post_partner",
            "source": "https://www.post.at/"
          },
          "geometry": {
            "type": "Point",
            "coordinates": [
              13.4664287,
              47.5927687
            ]
          }
        },
        {
          "type": "Feature",
          "properties": {
            "id": "2967848115",
            "osm_type": "node",
            "lat": 47.4657329,
            "lon": 13.3808522,
            "addr:city": "Sankt Martin am Tennengebirge",
            "addr:country": "AT",
            "addr:housenumber": "1",
            "addr:postcode": "5522",
            "addr:street": "Lammertalstraße",
            "amenity": "post_office",
            "name": "Postpartner 5522, Tourismusbüro",
            "post_office": "post_partner",
            "source": "https://www.post.at/"
          },
          "geometry": {
            "type": "Point",
            "coordinates": [
              13.3808522,
              47.4657329
            ]
          }
        },
        {
          "type": "Feature",
          "properties": {
            "id": "4571678342",
            "osm_type": "node",
            "lat": 47.5633084,
            "lon": 13.3467971,
            "addr:city": "Abtenau",
            "addr:country": "AT",
            "addr:housenumber": "150",
            "addr:place": "Markt",
            "addr:postcode": "5441",
            "amenity": "post_office",
            "name": "Post Filiale 5441",
            "opening_hours": "Mo-Fr 08:00-12:00, 14:00-17:30; Sa,Su,PH off",
            "operator": "Österreichische Post AG",
            "operator:wikidata": "Q1763505",
            "website": "https://www.post.at"
          },
          "geometry": {
            "type": "Point",
            "coordinates": [
              13.3467971,
              47.5633084
            ]
          }
        },
        {
          "type": "Feature",
          "properties": {
            "id": "340517253",
            "osm_type": "node",
            "lat": 47.4213703,
            "lon": 13.6551305,
            "addr:city": "Ramsau am Dachstein",
            "addr:country": "AT",
            "addr:housenumber": "325",
            "addr:place": "Ramsau",
            "addr:postcode": "8972",
            "amenity": "post_office",
            "name": "Postpartner 8972, Tabak Trafik",
            "post_office": "post_partner",
            "source": "https://www.post.at/"
          },
          "geometry": {
            "type": "Point",
            "coordinates": [
              13.6551305,
              47.4213703
            ]
          }
        },
        {
          "type": "Feature",
          "properties": {
            "id": "340517316",
            "osm_type": "node",
            "lat": 47.3926689,
            "lon": 13.6915544,
            "addr:city": "Schladming",
            "addr:country": "AT",
            "addr:housenumber": "44",
            "addr:postcode": "8970",
            "addr:street": "Coburgstraße",
            "amenity": "post_office",
            "name": "Post Filiale 8970",
            "opening_hours": "Mo-Fr 08:00-12:00, 14:00-17:30; Sa,Su,PH off",
            "operator": "Österreichische Post AG",
            "operator:wikidata": "Q1763505",
            "website": "https://www.post.at"
          },
          "geometry": {
            "type": "Point",
            "coordinates": [
              13.6915544,
              47.3926689
            ]
          }
        },
        {
          "type": "Feature",
          "properties": {
            "id": "340517346",
            "osm_type": "node",
            "lat": 47.6408258,
            "lon": 13.7656729,
            "addr:city": "Altaussee",
            "addr:country": "AT",
            "addr:postcode": "8992",
            "amenity": "post_office",
            "name": "8992 Altaussee",
            "ref": "8992",
            "type": "Postfiliale"
          },
          "geometry": {
            "type": "Point",
            "coordinates": [
              13.7656729,
              47.6408258
            ]
          }
        },
        {
          "type": "Feature",
          "properties": {
            "id": "340517856",
            "osm_type": "node",
            "lat": 47.4490975,
            "lon": 13.90118,
            "addr:city": "Gröbming",
            "addr:country": "AT",
            "addr:housenumber": "899",
            "addr:postcode": "8962",
            "addr:street": "Horstigstraße",
            "amenity": "post_office",
            "name": "Post Filiale 8962",
            "opening_hours": "Mo-Fr 08:30-12:30,14:00-17:30; Sa,Su,PH off",
            "operator": "Österreichische Post AG",
            "website": "https://www.post.at"
          },
          "geometry": {
            "type": "Point",
            "coordinates": [
              13.90118,
              47.4490975
            ]
          }
        },
        {
          "type": "Feature",
          "properties": {
            "id": "982516513",
            "osm_type": "node",
            "lat": 47.5852224,
            "lon": 13.5353643,
            "addr:city": "Gosau",
            "addr:country": "AT",
            "addr:housenumber": "30",
            "addr:postcode": "4824",
            "addr:street": "Vordertalstraße",
            "amenity": "post_office",
            "name": "Postpartner",
            "operator": "Gemeinde Gosau",
            "wheelchair": "no"
          },
          "geometry": {
            "type": "Point",
            "coordinates": [
              13.5353643,
              47.5852224
            ]
          }
        },
        {
          "type": "Feature",
          "properties": {
            "id": "1388245895",
            "osm_type": "node",
            "lat": 47.409887,
            "lon": 13.768741,
            "amenity": "post_office",
            "check_date:opening_hours": "2024-11-15",
            "name": "Postpartner Papier Huber",
            "opening_hours": "Mo-Fr 07:30-12:00,14:30-18:30, Sa 07:30-12:00",
            "wheelchair": "yes"
          },
          "geometry": {
            "type": "Point",
            "coordinates": [
              13.768741,
              47.409887
            ]
          }
        },
        {
          "type": "Feature",
          "properties": {
            "id": "2163684446",
            "osm_type": "node",
            "lat": 47.4363737,
            "lon": 13.9419858,
            "amenity": "post_office",
            "name": "Postpartner im Kaufhaus Moser"
          },
          "geometry": {
            "type": "Point",
            "coordinates": [
              13.9419858,
              47.4363737
            ]
          }
        },
        {
          "type": "Feature",
          "properties": {
            "id": "3327050120",
            "osm_type": "node",
            "lat": 47.6263634,
            "lon": 13.8383138,
            "amenity": "post_office",
            "operator": "bank99"
          },
          "geometry": {
            "type": "Point",
            "coordinates": [
              13.8383138,
              47.6263634
            ]
          }
        },
        {
          "type": "Feature",
          "properties": {
            "id": "3663488458",
            "osm_type": "node",
            "lat": 47.4170665,
            "lon": 13.8122436,
            "addr:city": "Aich-Assach",
            "addr:country": "AT",
            "addr:housenumber": "186",
            "addr:postcode": "8966",
            "addr:street": "Bundesstraße",
            "amenity": "post_office",
            "name": "Postpartner 8966, SPAR Kitzer",
            "post_office": "post_partner",
            "source": "https://www.post.at/"
          },
          "geometry": {
            "type": "Point",
            "coordinates": [
              13.8122436,
              47.4170665
            ]
          }
        },
        {
          "type": "Feature",
          "properties": {
            "id": "4397249691",
            "osm_type": "node",
            "lat": 47.5506234,
            "lon": 13.695488,
            "amenity": "post_office"
          },
          "geometry": {
            "type": "Point",
            "coordinates": [
              13.695488,
              47.5506234
            ]
          }
        },
        {
          "type": "Feature",
          "properties": {
            "id": "4444479389",
            "osm_type": "node",
            "lat": 47.5613379,
            "lon": 13.6486375,
            "addr:city": "Hallstatt",
            "addr:country": "AT",
            "addr:housenumber": "169",
            "addr:postcode": "4830",
            "addr:street": "Seestraße",
            "amenity": "post_office",
            "name": "Postpartner 4830, Pro Mente OÖ",
            "post_office": "post_partner",
            "source": "https://www.post.at/",
            "wheelchair": "yes"
          },
          "geometry": {
            "type": "Point",
            "coordinates": [
              13.6486375,
              47.5613379
            ]
          }
        },
        {
          "type": "Feature",
          "properties": {
            "id": "5012826470",
            "osm_type": "node",
            "lat": 47.639729,
            "lon": 13.6180112,
            "amenity": "post_office",
            "name": "Postpartner"
          },
          "geometry": {
            "type": "Point",
            "coordinates": [
              13.6180112,
              47.639729
            ]
          }
        },
        {
          "type": "Feature",
          "properties": {
            "id": "7729016290",
            "osm_type": "node",
            "lat": 47.5838854,
            "lon": 13.5338066,
            "amenity": "post_office",
            "name": "Postpartner"
          },
          "geometry": {
            "type": "Point",
            "coordinates": [
              13.5338066,
              47.5838854
            ]
          }
        },
        {
          "type": "Feature",
          "properties": {
            "id": "8476907756",
            "osm_type": "node",
            "lat": 47.5554307,
            "lon": 13.933141,
            "amenity": "post_office",
            "name": "Postpartner Buchhandlung Mandl",
            "opening_hours": "Mo-Fr 07:00-12:30, 14:00-18:00; Sa 07:00-12:00"
          },
          "geometry": {
            "type": "Point",
            "coordinates": [
              13.933141,
              47.5554307
            ]
          }
        },
        {
          "type": "Feature",
          "properties": {
            "id": "9034290228",
            "osm_type": "node",
            "lat": 47.6099506,
            "lon": 13.7806515,
            "amenity": "post_office",
            "name": "Hermes Paket Shop"
          },
          "geometry": {
            "type": "Point",
            "coordinates": [
              13.7806515,
              47.6099506
            ]
          }
        },
        {
          "type": "Feature",
          "properties": {
            "id": "282419753",
            "osm_type": "node",
            "lat": 47.567105,
            "lon": 14.2407522,
            "addr:city": "Liezen",
            "addr:country": "AT",
            "addr:housenumber": "13",
            "addr:postcode": "8940",
            "addr:street": "Hauptplatz",
            "amenity": "post_office",
            "name": "Post Filiale 8940",
            "opening_hours": "Mo-Fr 08:00-12:00, 14:00-17:30; Sa,Su,PH off",
            "operator": "Österreichische Post AG",
            "operator:wikidata": "Q1763505",
            "operator:wikipedia": "de:Österreichische Post",
            "website": "https://www.post.at",
            "wheelchair": "limited"
          },
          "geometry": {
            "type": "Point",
            "coordinates": [
              14.2407522,
              47.567105
            ]
          }
        },
        {
          "type": "Feature",
          "properties": {
            "id": "340517744",
            "osm_type": "node",
            "lat": 47.5203414,
            "lon": 14.1434365,
            "addr:city": "Aigen im Ennstal",
            "addr:country": "AT",
            "addr:housenumber": "6",
            "addr:place": "Aigen",
            "addr:postcode": "8943",
            "amenity": "post_office",
            "name": "Postpartner 8943, Gemeinde",
            "post_office": "post_partner",
            "source": "https://www.post.at/"
          },
          "geometry": {
            "type": "Point",
            "coordinates": [
              14.1434365,
              47.5203414
            ]
          }
        },
        {
          "type": "Feature",
          "properties": {
            "id": "340520167",
            "osm_type": "node",
            "lat": 47.5052451,
            "lon": 14.10265,
            "addr:city": "Irdning-Donnersbachtal",
            "addr:country": "AT",
            "addr:housenumber": "200",
            "addr:postcode": "8952",
            "addr:street": "Trautenfelserstraße",
            "amenity": "post_office",
            "name": "Postpartner 8952, Marktgemeinde",
            "post_office": "post_partner",
            "postal_code": "8952",
            "source": "https://www.post.at/"
          },
          "geometry": {
            "type": "Point",
            "coordinates": [
              14.10265,
              47.5052451
            ]
          }
        },
        {
          "type": "Feature",
          "properties": {
            "id": "2995568951",
            "osm_type": "node",
            "lat": 47.5369665,
            "lon": 14.1152335,
            "amenity": "post_office",
            "name": "Post",
            "operator": "Postpartner HMH"
          },
          "geometry": {
            "type": "Point",
            "coordinates": [
              14.1152335,
              47.5369665
            ]
          }
        },
        {
          "type": "Feature",
          "properties": {
            "id": "3231005442",
            "osm_type": "node",
            "lat": 47.5711207,
            "lon": 14.2044172,
            "amenity": "post_office",
            "opening_hours": "Tu-Sa 07:30-12:00",
            "operator": "Nah & Frisch"
          },
          "geometry": {
            "type": "Point",
            "coordinates": [
              14.2044172,
              47.5711207
            ]
          }
        },
        {
          "type": "Feature",
          "properties": {
            "id": "3680128253",
            "osm_type": "node",
            "lat": 47.5522207,
            "lon": 14.1465087,
            "addr:city": "Wörschach",
            "addr:country": "AT",
            "addr:housenumber": "6",
            "addr:postcode": "8942",
            "addr:street": "Dorfstraße",
            "amenity": "post_office",
            "name": "Postpartner 8942, SPAR Sport Scherz",
            "opening_hours": "Jan-Dec: Mo-Fr 07:15-13:00; Jan-Dec: Mo-Fr 15:00-18:00; Sa 07:15-13:00",
            "post_office": "post_partner",
            "source": "https://www.post.at/"
          },
          "geometry": {
            "type": "Point",
            "coordinates": [
              14.1465087,
              47.5522207
            ]
          }
        },
        {
          "type": "Feature",
          "properties": {
            "id": "3694079259",
            "osm_type": "node",
            "lat": 47.5656126,
            "lon": 14.2440021,
            "addr:city": "Liezen",
            "addr:country": "AT",
            "addr:housenumber": "27",
            "addr:postcode": "8900",
            "addr:street": "Hauptstraße",
            "amenity": "post_office",
            "name": "Hermes Paket Shop"
          },
          "geometry": {
            "type": "Point",
            "coordinates": [
              14.2440021,
              47.5656126
            ]
          }
        }
      ],
      "children": []
    },
    {
      "bbox": {
        "south": 47.36431175,
        "west": 14.2994695,
        "north": 47.694865,
        "east": 15.253173
      },
      "poiCount": 22,
      "leafCount": 22,
      "averagePosition": [
        14.850934413636365,
        47.48049258636363
      ],
      "data": [
        {
          "type": "Feature",
          "properties": {
            "id": "340515954",
            "osm_type": "node",
            "lat": 47.4886075,
            "lon": 14.4884406,
            "addr:city": "Trieben",
            "addr:housenumber": "3",
            "addr:postcode": "8784",
            "addr:street": "Bahnhofstraße",
            "amenity": "post_office",
            "name": "8784 Trieben",
            "postal_code": "8784",
            "ref": "8784",
            "type": "Postfiliale"
          },
          "geometry": {
            "type": "Point",
            "coordinates": [
              14.4884406,
              47.4886075
            ]
          }
        },
        {
          "type": "Feature",
          "properties": {
            "id": "340518082",
            "osm_type": "node",
            "lat": 47.5508596,
            "lon": 14.3182485,
            "addr:city": "Selzthal",
            "addr:country": "AT",
            "addr:housenumber": "39",
            "addr:postcode": "8900",
            "addr:street": "Hauptstraße",
            "amenity": "post_office",
            "name": "Postpartner 8900, Tabak Trafik Wechsler",
            "post_office": "post_partner",
            "postal_code": "8900",
            "source": "https://www.post.at/"
          },
          "geometry": {
            "type": "Point",
            "coordinates": [
              14.3182485,
              47.5508596
            ]
          }
        },
        {
          "type": "Feature",
          "properties": {
            "id": "340518101",
            "osm_type": "node",
            "lat": 47.4336233,
            "lon": 14.4835066,
            "addr:city": "Hohentauern",
            "addr:country": "AT",
            "addr:housenumber": "15",
            "addr:postcode": "8785",
            "addr:street": "Tauernstraße",
            "amenity": "post_office",
            "name": "Postpartner 8785, Tourismus",
            "opening_hours": "Mo, Di, Do, Fr 08:00-12:00; Mi 13:00-17:00",
            "operator": "Gästeverein Hohentauern",
            "phone": "+43 3618 21300",
            "post_office": "post_partner",
            "postal_code": "8785",
            "source": "https://www.post.at/"
          },
          "geometry": {
            "type": "Point",
            "coordinates": [
              14.4835066,
              47.4336233
            ]
          }
        },
        {
          "type": "Feature",
          "properties": {
            "id": "1483462161",
            "osm_type": "node",
            "lat": 47.5724694,
            "lon": 14.459232,
            "amenity": "post_office",
            "name": "Postpartner Kaufhaus Zimmermann"
          },
          "geometry": {
            "type": "Point",
            "coordinates": [
              14.459232,
              47.5724694
            ]
          }
        },
        {
          "type": "Feature",
          "properties": {
            "id": "1832131057",
            "osm_type": "node",
            "lat": 47.6649946,
            "lon": 14.3401415,
            "amenity": "post_office",
            "name": "Postpartner"
          },
          "geometry": {
            "type": "Point",
            "coordinates": [
              14.3401415,
              47.6649946
            ]
          }
        },
        {
          "type": "Feature",
          "properties": {
            "id": "340515521",
            "osm_type": "node",
            "lat": 47.3992443,
            "lon": 14.8230264,
            "amenity": "post_office",
            "name": "Postpartner Mautern 8774",
            "postal_code": "8774",
            "ref": "8774",
            "type": "Post-Servicestelle"
          },
          "geometry": {
            "type": "Point",
            "coordinates": [
              14.8230264,
              47.3992443
            ]
          }
        },
        {
          "type": "Feature",
          "properties": {
            "id": "340515779",
            "osm_type": "node",
            "lat": 47.4877238,
            "lon": 14.9940324,
            "addr:city": "Vordernberg",
            "addr:country": "AT",
            "addr:housenumber": "12",
            "addr:postcode": "8794",
            "addr:street": "Hauptplatz",
            "amenity": "post_office",
            "name": "Post Partner 8794 Vordernberg",
            "opening_hours": "Mo-Fr 07:30-12:30,15:00-18:00; We 07:30-12:30; Sa 07:30-13:00",
            "phone": "+43 3849 6020",
            "postal_code": "8794",
            "ref": "8794",
            "type": "Post-Servicestelle"
          },
          "geometry": {
            "type": "Point",
            "coordinates": [
              14.9940324,
              47.4877238
            ]
          }
        },
        {
          "type": "Feature",
          "properties": {
            "id": "340518003",
            "osm_type": "node",
            "lat": 47.6730477,
            "lon": 14.7828436,
            "addr:city": "Gams bei Hieflau",
            "addr:housenumber": "100",
            "addr:place": "Gams bei Hieflau",
            "addr:postcode": "8922",
            "amenity": "post_office",
            "name": "Postpartner 8922, ADEG Lussmann",
            "post_office": "post_partner",
            "postal_code": "8922",
            "source": "https://www.post.at/"
          },
          "geometry": {
            "type": "Point",
            "coordinates": [
              14.7828436,
              47.6730477
            ]
          }
        },
        {
          "type": "Feature",
          "properties": {
            "id": "340518012",
            "osm_type": "node",
            "lat": 47.6070598,
            "lon": 14.7439687,
            "addr:city": "Hieflau",
            "addr:country": "AT",
            "addr:postcode": "8920",
            "addr:street": "Hauptstraße",
            "amenity": "post_office",
            "construction": "hotel",
            "name": "8920 Hieflau",
            "postal_code": "8920",
            "ref": "8920",
            "type": "Postpartner"
          },
          "geometry": {
            "type": "Point",
            "coordinates": [
              14.7439687,
              47.6070598
            ]
          }
        },
        {
          "type": "Feature",
          "properties": {
            "id": "340518032",
            "osm_type": "node",
            "lat": 47.4288995,
            "lon": 14.7554731,
            "addr:city": "Kalwang",
            "addr:country": "AT",
            "addr:housenumber": "10",
            "addr:postcode": "8775",
            "addr:street": "Marktstraße",
            "amenity": "post_office",
            "name": "Postpartner 8775, Nah & Frisch Podratzky",
            "post_office": "post_partner",
            "postal_code": "8775",
            "source": "https://www.post.at/"
          },
          "geometry": {
            "type": "Point",
            "coordinates": [
              14.7554731,
              47.4288995
            ]
          }
        },
        {
          "type": "Feature",
          "properties": {
            "id": "340518337",
            "osm_type": "node",
            "lat": 47.5433711,
            "lon": 14.8839131,
            "addr:city": "Eisenerz",
            "addr:housenumber": "21-23",
            "addr:postcode": "8790",
            "addr:street": "Hieflauer Straße",
            "amenity": "post_office",
            "name": "Post Filiale 8790",
            "opening_hours": "Mo-Fr 08:00-12:00, 14:00-17:00; Sa,Su,PH off",
            "operator": "Österreichische Post AG",
            "operator:wikidata": "Q1763505",
            "website": "https://www.post.at"
          },
          "geometry": {
            "type": "Point",
            "coordinates": [
              14.8839131,
              47.5433711
            ]
          }
        },
        {
          "type": "Feature",
          "properties": {
            "id": "340520569",
            "osm_type": "node",
            "lat": 47.3773177,
            "lon": 14.9687093,
            "addr:city": "Timmersdorf",
            "addr:country": "AT",
            "addr:housenumber": "39",
            "addr:postcode": "8772",
            "addr:street": "Hauptstraße",
            "amenity": "post_office",
            "name": "Postpartner 8772, ADEG Sattler",
            "post_office": "post_partner",
            "postal_code": "8772",
            "source": "https://www.post.at/"
          },
          "geometry": {
            "type": "Point",
            "coordinates": [
              14.9687093,
              47.3773177
            ]
          }
        },
        {
          "type": "Feature",
          "properties": {
            "id": "3797061759",
            "osm_type": "node",
            "lat": 47.3925988,
            "lon": 14.9035637,
            "addr:city": "Kammern im Liesingtal",
            "addr:housenumber": "49",
            "addr:postcode": "8773",
            "addr:street": "Hauptstraße",
            "amenity": "post_office",
            "name": "Nah und Frisch und Postpartner",
            "wheelchair": "yes"
          },
          "geometry": {
            "type": "Point",
            "coordinates": [
              14.9035637,
              47.3925988
            ]
          }
        },
        {
          "type": "Feature",
          "properties": {
            "id": "7201837403",
            "osm_type": "node",
            "lat": 47.6544586,
            "lon": 14.7435216,
            "amenity": "post_office",
            "name": "Postpartner Papier Pretschuh"
          },
          "geometry": {
            "type": "Point",
            "coordinates": [
              14.7435216,
              47.6544586
            ]
          }
        },
        {
          "type": "Feature",
          "properties": {
            "id": "309939825",
            "osm_type": "node",
            "lat": 47.3821316,
            "lon": 15.0935491,
            "addr:city": "Leoben",
            "addr:country": "AT",
            "addr:housenumber": "17",
            "addr:postcode": "8700",
            "addr:street": "Erzherzog Johann-Straße",
            "addr:suburb": "Leoben",
            "amenity": "post_office",
            "name": "Post Filiale 8700",
            "opening_hours": "Mo-Fr 08:00-18:00; Sa,Su,PH off",
            "operator": "Österreichische Post AG",
            "operator:wikidata": "Q1763505",
            "operator:wikipedia": "de:Österreichische Post",
            "website": "https://www.post.at",
            "wheelchair": "yes"
          },
          "geometry": {
            "type": "Point",
            "coordinates": [
              15.0935491,
              47.3821316
            ]
          }
        },
        {
          "type": "Feature",
          "properties": {
            "id": "340515174",
            "osm_type": "node",
            "lat": 47.376052,
            "lon": 15.074019,
            "addr:city": "Leoben",
            "addr:housenumber": "69",
            "addr:postcode": "8704",
            "addr:street": "Pestalozzistraße",
            "addr:suburb": "Donawitz",
            "amenity": "post_office",
            "name": "8704 Leoben",
            "postal_code": "8704",
            "ref": "8704"
          },
          "geometry": {
            "type": "Point",
            "coordinates": [
              15.074019,
              47.376052
            ]
          }
        },
        {
          "type": "Feature",
          "properties": {
            "id": "340518202",
            "osm_type": "node",
            "lat": 47.3976818,
            "lon": 15.1579095,
            "addr:city": "Niklasdorf",
            "addr:country": "AT",
            "addr:housenumber": "1",
            "addr:postcode": "8712",
            "addr:street": "Hauptplatz",
            "amenity": "post_office",
            "name": "Postpartner 8712, Marktgemeinde",
            "post_office": "post_partner",
            "postal_code": "8712",
            "source": "https://www.post.at/",
            "wheelchair": "yes"
          },
          "geometry": {
            "type": "Point",
            "coordinates": [
              15.1579095,
              47.3976818
            ]
          }
        },
        {
          "type": "Feature",
          "properties": {
            "id": "340521007",
            "osm_type": "node",
            "lat": 47.4712228,
            "lon": 15.162775,
            "addr:city": "Tragöß-Sankt Katharein",
            "addr:country": "AT",
            "addr:housenumber": "11",
            "addr:place": "St. Katharein an der Laming",
            "addr:postcode": "8611",
            "amenity": "post_office",
            "name": "Postpartner 8611, Gemeinde",
            "post_office": "post_partner",
            "postal_code": "8611",
            "source": "https://www.post.at/"
          },
          "geometry": {
            "type": "Point",
            "coordinates": [
              15.162775,
              47.4712228
            ]
          }
        },
        {
          "type": "Feature",
          "properties": {
            "id": "2080179096",
            "osm_type": "node",
            "lat": 47.5233198,
            "lon": 15.2326561,
            "amenity": "post_office",
            "designation": "Postpartner",
            "name": "Elektro Fladischer",
            "operator": "Österreichische Post AG",
            "source": "Bing"
          },
          "geometry": {
            "type": "Point",
            "coordinates": [
              15.2326561,
              47.5233198
            ]
          }
        },
        {
          "type": "Feature",
          "properties": {
            "id": "3390925999",
            "osm_type": "node",
            "lat": 47.3834201,
            "lon": 15.1155463,
            "addr:city": "Leoben",
            "addr:country": "AT",
            "addr:housenumber": "A2",
            "addr:postcode": "8700",
            "addr:street": "Am Lerchenfeld",
            "addr:suburb": "Mühltal",
            "amenity": "post_office",
            "name": "Post Partner",
            "opening_hours": "Mo-Fr 06:00-12:00, 15:00-17:00; Sa 08:00-11:00",
            "wheelchair": "yes"
          },
          "geometry": {
            "type": "Point",
            "coordinates": [
              15.1155463,
              47.3834201
            ]
          }
        },
        {
          "type": "Feature",
          "properties": {
            "id": "4872356956",
            "osm_type": "node",
            "lat": 47.3822386,
            "lon": 15.0990726,
            "addr:city": "Leoben",
            "addr:housenumber": "10",
            "addr:postcode": "8700",
            "addr:street": "Schießstattstraße",
            "addr:suburb": "Judendorf",
            "amenity": "post_office",
            "name": "Post Partner",
            "opening_hours": "Mo-Th 08:00-16:30, Fr 08:00-14:00",
            "operator": "Österreichische Post AG",
            "phone": "+43810 010100"
          },
          "geometry": {
            "type": "Point",
            "coordinates": [
              15.0990726,
              47.3822386
            ]
          }
        },
        {
          "type": "Feature",
          "properties": {
            "id": "5429848546",
            "osm_type": "node",
            "lat": 47.3804945,
            "lon": 15.0964084,
            "addr:city": "Leoben",
            "addr:country": "AT",
            "addr:housenumber": "14",
            "addr:postcode": "8700",
            "addr:street": "Langgasse",
            "addr:suburb": "Leoben",
            "amenity": "post_office",
            "brand": "Mail Boxes Etc.",
            "brand:wikidata": "Q1139182",
            "description": "Mail Boxes Etc. (MBE) Leoben – mehr als nur ein Dienstleistungsunternehmen für Druck, Verpackung & Versand! Egal ob Sie Broschüren, Visitenkarten, Folder, Textilien, Plandruck, Serienbriefe in kleiner oder großer Menge, Plakate, Kundenstopper oder Roll-Up",
            "email": "leoben@mbe.at",
            "name": "Mail Boxes Etc. Leoben (MBE) - Schädle Business Services e.U.",
            "opening_hours": "Mo-Fr 09:00-17:00; We 12:00-17:00",
            "phone": "43 3842 30670",
            "post_office": "post_partner",
            "shop": "copyshop",
            "source": "survey",
            "website": "https://www.mbe.at/leoben-langgasse"
          },
          "geometry": {
            "type": "Point",
            "coordinates": [
              15.0964084,
              47.3804945
            ]
          }
        }
      ],
      "children": []
    }
  ]
}