{
  "bbox": {
    "south": 46.372652,
    "west": 11.438358999999998,
    "north": 47.033758500000005,
    "east": 13.345766
  },
  "poiCount": 117,
  "leafCount": 0,
  "averagePosition": [
    12.324791748717947,
    46.635897804273505
  ],
  "data": [],
  "children": [
    {
      "bbox": {
        "south": 46.372652,
        "west": 11.438358999999998,
        "north": 46.70320525,
        "east": 12.392062499999998
      },
      "poiCount": 34,
      "leafCount": 34,
      "averagePosition": [
        11.815494785294119,
        46.52938868529412
      ],
      "data": [
        {
          "type": "Feature",
          "properties": {
            "id": "61964170",
            "osm_type": "node",
            "lat": 46.4683107,
            "lon": 11.5268687,
            "amenity": "post_office",
            "operator": "Poste Italiane",
            "operator:wikidata": "Q495026"
          },
          "geometry": {
            "type": "Point",
            "coordinates": [
              11.5268687,
              46.4683107
            ]
          }
        },
        {
          "type": "Feature",
          "properties": {
            "id": "751967759",
            "osm_type": "node",
            "lat": 46.5366619,
            "lon": 11.4634285,
            "amenity": "post_office"
          },
          "geometry": {
            "type": "Point",
            "coordinates": [
              11.4634285,
              46.5366619
            ]
          }
        },
        {
          "type": "Feature",
          "properties": {
            "id": "1760465899",
            "osm_type": "node",
            "lat": 46.5176327,
            "lon": 11.5024066,
            "amenity": "post_office",
            "amenity_1": "post_box",
            "wheelchair": "yes"
          },
          "geometry": {
            "type": "Point",
            "coordinates": [
              11.5024066,
              46.5176327
            ]
          }
        },
        {
          "type": "Feature",
          "properties": {
            "id": "291257447",
            "osm_type": "node",
            "lat": 46.5832188,
            "lon": 11.9041947,
            "amenity": "post_office",
            "check_date": "2024-01-30",
            "name": "Posteitaliane"
          },
          "geometry": {
            "type": "Point",
            "coordinates": [
              11.9041947,
              46.5832188
            ]
          }
        },
        {
          "type": "Feature",
          "properties": {
            "id": "302393123",
            "osm_type": "node",
            "lat": 46.6421765,
            "lon": 11.6806498,
            "amenity": "post_office",
            "brand": "Poste Italiane",
            "brand:wikidata": "Q495026",
            "brand:wikipedia": "en:Poste italiane",
            "name": "Poste Italiane",
            "opening_hours": "Mo-Fr 08:00-13:00; PH,Tu,Th,Sa,Su off",
            "operator": "Poste Italiane",
            "phone": "+39 0472 840130",
            "wheelchair": "yes"
          },
          "geometry": {
            "type": "Point",
            "coordinates": [
              11.6806498,
              46.6421765
            ]
          }
        },
        {
          "type": "Feature",
          "properties": {
            "id": "305506964",
            "osm_type": "node",
            "lat": 46.4201374,
            "lon": 11.6725869,
            "amenity": "post_office",
            "operator": "Poste Italiane"
          },
          "geometry": {
            "type": "Point",
            "coordinates": [
              11.6725869,
              46.4201374
            ]
          }
        },
        {
          "type": "Feature",
          "properties": {
            "id": "335694858",
            "osm_type": "node",
            "lat": 46.4761314,
            "lon": 11.7423471,
            "amenity": "post_office",
            "check_date:opening_hours": "2021-09-04",
            "fax": "+39 0462 750189",
            "name": "Poste Italiane",
            "opening_hours": "Mo-Fr 08:20-13:45; Sa 08:20-12:45",
            "operator": "Poste Italiane S.p.A.",
            "phone": "+39 0462 750353",
            "ref": "74061"
          },
          "geometry": {
            "type": "Point",
            "coordinates": [
              11.7423471,
              46.4761314
            ]
          }
        },
        {
          "type": "Feature",
          "properties": {
            "id": "355599566",
            "osm_type": "node",
            "lat": 46.5583737,
            "lon": 11.7212668,
            "amenity": "post_office",
            "atm": "yes",
            "brand": "Poste Italiane",
            "brand:wikidata": "Q495026",
            "brand:wikipedia": "en:Poste italiane",
            "fax": "+39 0471 792145",
            "name": "Poste Italiane",
            "opening_hours": "Mo-Fr 08:20-13:45; Sa 08:20-12:45",
            "operator": "Poste Italiane S.p.A.",
            "phone": "+39 0471 792113",
            "ref": "88150"
          },
          "geometry": {
            "type": "Point",
            "coordinates": [
              11.7212668,
              46.5583737
            ]
          }
        },
        {
          "type": "Feature",
          "properties": {
            "id": "461053495",
            "osm_type": "node",
            "lat": 46.6993905,
            "lon": 11.6753874,
            "amenity": "post_office"
          },
          "geometry": {
            "type": "Point",
            "coordinates": [
              11.6753874,
              46.6993905
            ]
          }
        },
        {
          "type": "Feature",
          "properties": {
            "id": "737129646",
            "osm_type": "node",
            "lat": 46.4303466,
            "lon": 11.6866879,
            "addr:city": "Pozza di Fassa",
            "addr:country": "IT",
            "addr:housenumber": "11",
            "addr:postcode": "38036",
            "addr:street": "Piaza de Comun",
            "amenity": "post_office",
            "name": "Poste Italiane",
            "opening_hours": "Mo-Fr 08:00-13:30; Sa 08:00-12:30",
            "operator": "Poste Italiane",
            "operator:wikidata": "Q495026"
          },
          "geometry": {
            "type": "Point",
            "coordinates": [
              11.6866879,
              46.4303466
            ]
          }
        },
        {
          "type": "Feature",
          "properties": {
            "id": "939347789",
            "osm_type": "node",
            "lat": 46.6424118,
            "lon": 11.569236,
            "amenity": "post_office",
            "atm": "yes",
            "brand": "Poste Italiane",
            "brand:wikidata": "Q495026",
            "brand:wikipedia": "en:Poste italiane",
            "name": "Poste Italiane",
            "operator": "Poste Italiane",
            "operator:wikidata": "Q495026",
            "short_name": "P.T."
          },
          "geometry": {
            "type": "Point",
            "coordinates": [
              11.569236,
              46.6424118
            ]
          }
        },
        {
          "type": "Feature",
          "properties": {
            "id": "1584063985",
            "osm_type": "node",
            "lat": 46.3958081,
            "lon": 11.6685534,
            "amenity": "post_office"
          },
          "geometry": {
            "type": "Point",
            "coordinates": [
              11.6685534,
              46.3958081
            ]
          }
        },
        {
          "type": "Feature",
          "properties": {
            "id": "1623822130",
            "osm_type": "node",
            "lat": 46.549686,
            "lon": 11.874264,
            "amenity": "post_office",
            "check_date": "2023-09-21",
            "name": "Ufficio Postale"
          },
          "geometry": {
            "type": "Point",
            "coordinates": [
              11.874264,
              46.549686
            ]
          }
        },
        {
          "type": "Feature",
          "properties": {
            "id": "2156996743",
            "osm_type": "node",
            "lat": 46.699711,
            "lon": 11.9302015,
            "amenity": "post_office",
            "contact:city": "Mareo - Marebbe - Enneberg",
            "contact:city:de": "Enneberg",
            "contact:city:it": "Marebbe",
            "contact:city:lld": "Mareo",
            "contact:hamlet": "San Vigilio",
            "contact:hamlet:de": "St. Vigil",
            "contact:hamlet:it": "San Vigilio",
            "contact:hamlet:lld": "San Vigilio",
            "contact:housenumber": "10",
            "contact:postcode": "39030",
            "contact:street": "Strada Catarina Lanz",
            "contact:street:de": "Straße Catarina Lanz",
            "contact:street:it": "Strada Catarina Lanz",
            "contact:street:lld": "Strada Catarina Lanz",
            "name": "Post Italiane",
            "opening_hours": "Mo-Fr 08:20-13:45; Sa 08:20-12:45"
          },
          "geometry": {
            "type": "Point",
            "coordinates": [
              11.9302015,
              46.699711
            ]
          }
        },
        {
          "type": "Feature",
          "properties": {
            "id": "2352648812",
            "osm_type": "node",
            "lat": 46.5456534,
            "lon": 11.5610771,
            "amenity": "post_office",
            "brand": "Poste Italiane",
            "brand:wikidata": "Q495026",
            "brand:wikipedia": "en:Poste italiane",
            "fax": "+39 0471 707574",
            "name": "Poste Italiane",
            "opening_hours": "Mo-Fr 08:20-13:45; Sa 08:20-12:45",
            "operator": "Poste Italiane",
            "operator:wikidata": "Q495026",
            "phone": "+39 0471 706164",
            "ref": "88160",
            "wheelchair": "yes"
          },
          "geometry": {
            "type": "Point",
            "coordinates": [
              11.5610771,
              46.5456534
            ]
          }
        },
        {
          "type": "Feature",
          "properties": {
            "id": "2422231753",
            "osm_type": "node",
            "lat": 46.6311525,
            "lon": 11.5394685,
            "amenity": "post_office",
            "name": "Posteitaliane",
            "opening_hours": "Mo,We,Fr 08:20-13:45",
            "wheelchair": "yes"
          },
          "geometry": {
            "type": "Point",
            "coordinates": [
              11.5394685,
              46.6311525
            ]
          }
        },
        {
          "type": "Feature",
          "properties": {
            "id": "2631351177",
            "osm_type": "node",
            "lat": 46.5552233,
            "lon": 11.7557276,
            "addr:city": "Sëlva - Wolkenstein in Gröden - Selva di Val Gardena",
            "addr:housenumber": "144",
            "addr:postcode": "39048",
            "addr:street": "Streda Mëisules",
            "amenity": "post_office",
            "brand": "Poste Italiane",
            "brand:wikidata": "Q495026",
            "brand:wikipedia": "en:Poste italiane",
            "fax": "+39 0471 794353",
            "name": "Poste Italiane",
            "name:de": "Postamt Wolkenstein in Gröden",
            "opening_hours": "Mo-Fr 08:20-13:45; Sa 08:20-12:45",
            "operator": "Poste Italiane",
            "phone": "+39 0471 795168",
            "ref": "88156",
            "website": "https://www.valgardena.it/en/addresses/detail/base/poi/selva-val-gardena/post-office-selva/D5A4FA02CCA503488491A58D5563B56A/"
          },
          "geometry": {
            "type": "Point",
            "coordinates": [
              11.7557276,
              46.5552233
            ]
          }
        },
        {
          "type": "Feature",
          "properties": {
            "id": "3220327892",
            "osm_type": "node",
            "lat": 46.4536343,
            "lon": 11.9705729,
            "amenity": "post_office"
          },
          "geometry": {
            "type": "Point",
            "coordinates": [
              11.9705729,
              46.4536343
            ]
          }
        },
        {
          "type": "Feature",
          "properties": {
            "id": "3302135615",
            "osm_type": "node",
            "lat": 46.4764164,
            "lon": 11.7745157,
            "amenity": "post_office",
            "opening_hours": "Mo-Fr 08:20-13:45; Sa 08:20-12:45"
          },
          "geometry": {
            "type": "Point",
            "coordinates": [
              11.7745157,
              46.4764164
            ]
          }
        },
        {
          "type": "Feature",
          "properties": {
            "id": "3978227581",
            "osm_type": "node",
            "lat": 46.4304877,
            "lon": 11.5382882,
            "addr:city": "Welschnofen - Nova Levante",
            "addr:housenumber": "36",
            "addr:postcode": "39056",
            "addr:street": "Romstraße - Via Roma",
            "amenity": "post_office",
            "fax": "+39 0471 613495",
            "name": "Poste Italiane",
            "opening_hours": "Mo-Fr 08:20-13:45; Sa 08:20-12:45",
            "operator": "Poste Italiane",
            "operator:wikidata": "Q495026",
            "phone": "+39 0471 613109",
            "ref": "88099",
            "website": "https://www.poste.it/"
          },
          "geometry": {
            "type": "Point",
            "coordinates": [
              11.5382882,
              46.4304877
            ]
          }
        },
        {
          "type": "Feature",
          "properties": {
            "id": "4481549748",
            "osm_type": "node",
            "lat": 46.4067319,
            "lon": 12.0206193,
            "amenity": "post_office"
          },
          "geometry": {
            "type": "Point",
            "coordinates": [
              12.0206193,
              46.4067319
            ]
          }
        },
        {
          "type": "Feature",
          "properties": {
            "id": "5643381802",
            "osm_type": "node",
            "lat": 46.5747449,
            "lon": 11.67136,
            "amenity": "post_office",
            "atm": "yes",
            "brand": "Poste Italiane",
            "brand:wikidata": "Q495026",
            "brand:wikipedia": "en:Poste italiane",
            "fax": "+39 0471 797877",
            "name": "Poste Italiane",
            "opening_hours": "Mo-Fr 08:20-13:45; Sa 08:20-12:45",
            "operator": "Poste Italiane",
            "operator:wikidata": "Q495026",
            "phone": "+39 0471 796221",
            "ref": "88102",
            "website": "https://www.valgardena.it/en/addresses/detail/base/poi/ortisei-val-gardena/post-office-ortisei/79B81F1DEE50AF052E856E6A7D246807/",
            "wheelchair": "yes"
          },
          "geometry": {
            "type": "Point",
            "coordinates": [
              11.67136,
              46.5747449
            ]
          }
        },
        {
          "type": "Feature",
          "properties": {
            "id": "5835936286",
            "osm_type": "node",
            "lat": 46.6084884,
            "lon": 11.564598,
            "addr:housenumber": "30f",
            "addr:postcode": "39040",
            "addr:street": "Walther-von-der-Vogelweide-Straße",
            "amenity": "post_office",
            "brand": "Poste Italiane",
            "brand:wikidata": "Q495026",
            "brand:wikipedia": "en:Poste italiane",
            "name": "Poste Italiane",
            "name:de": "Postamt Lajen",
            "opening_hours": "Mo-Tu, Th 08:20-13:45",
            "phone": "+390471655632"
          },
          "geometry": {
            "type": "Point",
            "coordinates": [
              11.564598,
              46.6084884
            ]
          }
        },
        {
          "type": "Feature",
          "properties": {
            "id": "7669287874",
            "osm_type": "node",
            "lat": 46.4814568,
            "lon": 11.9542974,
            "addr:city": "Livinallongo del Col di Lana",
            "addr:housenumber": "41",
            "addr:postcode": "32020",
            "addr:street": "via pieve",
            "amenity": "post_office",
            "brand": "Poste Italiane",
            "brand:wikidata": "Q495026",
            "brand:wikipedia": "en:Poste italiane",
            "name": "Poste Italiane"
          },
          "geometry": {
            "type": "Point",
            "coordinates": [
              11.9542974,
              46.4814568
            ]
          }
        },
        {
          "type": "Feature",
          "properties": {
            "id": "8264695642",
            "osm_type": "node",
            "lat": 46.6575672,
            "lon": 11.9248852,
            "amenity": "post_office",
            "brand": "Poste Italiane",
            "brand:wikidata": "Q495026",
            "brand:wikipedia": "en:Poste italiane",
            "name": "Poste Italiane"
          },
          "geometry": {
            "type": "Point",
            "coordinates": [
              11.9248852,
              46.6575672
            ]
          }
        },
        {
          "type": "Feature",
          "properties": {
            "id": "9301398364",
            "osm_type": "node",
            "lat": 46.497882,
            "lon": 11.8739761,
            "amenity": "post_office",
            "operator": "Poste Italiane",
            "operator:wikidata": "Q495026",
            "operator:wikipedia": "en:Poste italiane"
          },
          "geometry": {
            "type": "Point",
            "coordinates": [
              11.8739761,
              46.497882
            ]
          }
        },
        {
          "type": "Feature",
          "properties": {
            "id": "9559056346",
            "osm_type": "node",
            "lat": 46.5983829,
            "lon": 11.5315843,
            "amenity": "post_office"
          },
          "geometry": {
            "type": "Point",
            "coordinates": [
              11.5315843,
              46.5983829
            ]
          }
        },
        {
          "type": "Feature",
          "properties": {
            "id": "12997480912",
            "osm_type": "node",
            "lat": 46.3812661,
            "lon": 11.9752378,
            "amenity": "post_office",
            "operator": "Poste Italiane",
            "operator:wikidata": "Q495026"
          },
          "geometry": {
            "type": "Point",
            "coordinates": [
              11.9752378,
              46.3812661
            ]
          }
        },
        {
          "type": "Feature",
          "properties": {
            "id": "746957492",
            "osm_type": "node",
            "lat": 46.4288338,
            "lon": 12.3762416,
            "amenity": "post_office",
            "name": "Pieve di Cadore",
            "operator": "Poste Italiane",
            "phone": "+39 0435 505211",
            "ref": "08048"
          },
          "geometry": {
            "type": "Point",
            "coordinates": [
              12.3762416,
              46.4288338
            ]
          }
        },
        {
          "type": "Feature",
          "properties": {
            "id": "2720943929",
            "osm_type": "node",
            "lat": 46.5338745,
            "lon": 12.1401452,
            "amenity": "post_office"
          },
          "geometry": {
            "type": "Point",
            "coordinates": [
              12.1401452,
              46.5338745
            ]
          }
        },
        {
          "type": "Feature",
          "properties": {
            "id": "3991018555",
            "osm_type": "node",
            "lat": 46.4614817,
            "lon": 12.2048861,
            "addr:city": "San Vito di Cadore",
            "addr:housenumber": "45",
            "addr:postcode": "32046",
            "addr:street": "Corso Italia",
            "amenity": "post_office",
            "cash_withdrawal": "yes",
            "opening_hours": "Mo-Fr 08:20-13:45; Sa 08:20-12:45",
            "operator": "Poste Italiane",
            "operator:wikidata": "Q495026",
            "operator:wikipedia": "en:Poste italiane",
            "source:addr": "survey"
          },
          "geometry": {
            "type": "Point",
            "coordinates": [
              12.2048861,
              46.4614817
            ]
          }
        },
        {
          "type": "Feature",
          "properties": {
            "id": "5825157356",
            "osm_type": "node",
            "lat": 46.7020339,
            "lon": 12.3502484,
            "amenity": "post_office",
            "name": "Posteitaliene"
          },
          "geometry": {
            "type": "Point",
            "coordinates": [
              12.3502484,
              46.7020339
            ]
          }
        },
        {
          "type": "Feature",
          "properties": {
            "id": "7952055685",
            "osm_type": "node",
            "lat": 46.5798316,
            "lon": 12.2517072,
            "amenity": "post_office",
            "name": "Poste Italiane",
            "name:fr": "Bureau de Poste"
          },
          "geometry": {
            "type": "Point",
            "coordinates": [
              12.2517072,
              46.5798316
            ]
          }
        },
        {
          "type": "Feature",
          "properties": {
            "id": "9983594920",
            "osm_type": "node",
            "lat": 46.3740749,
            "lon": 12.1293068,
            "addr:city": "Val di Zoldo",
            "addr:housenumber": "25",
            "addr:postcode": "32012",
            "addr:street": "Via Fusine",
            "amenity": "post_office",
            "name": "Zoldo Alto",
            "opening_hours": "Mo-Fr 08:20-13:45"
          },
          "geometry": {
            "type": "Point",
            "coordinates": [
              12.1293068,
              46.3740749
            ]
          }
        }
      ],
      "children": []
    },
    {
      "bbox": {
        "south": 46.372652,
        "west": 12.392062499999998,
        "north": 46.70320525,
        "east": 13.345766
      },
      "poiCount": 38,
      "leafCount": 38,
      "averagePosition": [
        12.855563668421054,
        46.4992663
      ],
      "data": [
        {
          "type": "Feature",
          "properties": {
            "id": "805527037",
            "osm_type": "node",
            "lat": 46.4842992,
            "lon": 12.4446593,
            "amenity": "post_office",
            "opening_hours": "Mo-Fr 08:20-13:45; Sa 08:20-12:45",
            "operator": "Poste Italiane"
          },
          "geometry": {
            "type": "Point",
            "coordinates": [
              12.4446593,
              46.4842992
            ]
          }
        },
        {
          "type": "Feature",
          "properties": {
            "id": "2069049837",
            "osm_type": "node",
            "lat": 46.5994986,
            "lon": 12.4919082,
            "addr:city": "Dosoledo",
            "amenity": "post_office"
          },
          "geometry": {
            "type": "Point",
            "coordinates": [
              12.4919082,
              46.5994986
            ]
          }
        },
        {
          "type": "Feature",
          "properties": {
            "id": "2095981308",
            "osm_type": "node",
            "lat": 46.5523574,
            "lon": 12.4384745,
            "amenity": "post_office",
            "name": "Poste Italiane - Auronzo di Cadore"
          },
          "geometry": {
            "type": "Point",
            "coordinates": [
              12.4384745,
              46.5523574
            ]
          }
        },
        {
          "type": "Feature",
          "properties": {
            "id": "2389603941",
            "osm_type": "node",
            "lat": 46.6016572,
            "lon": 12.4786495,
            "amenity": "post_office"
          },
          "geometry": {
            "type": "Point",
            "coordinates": [
              12.4786495,
              46.6016572
            ]
          }
        },
        {
          "type": "Feature",
          "properties": {
            "id": "2931128337",
            "osm_type": "node",
            "lat": 46.5887337,
            "lon": 12.5162211,
            "amenity": "post_office",
            "name": "Ufficio Postale di Candide"
          },
          "geometry": {
            "type": "Point",
            "coordinates": [
              12.5162211,
              46.5887337
            ]
          }
        },
        {
          "type": "Feature",
          "properties": {
            "id": "4392127791",
            "osm_type": "node",
            "lat": 46.5672061,
            "lon": 12.520896,
            "addr:city": "Danta di Cadore",
            "addr:country": "IT",
            "addr:postcode": "32040",
            "addr:street": "Via Gera",
            "amenity": "post_office",
            "atm": "yes",
            "brand": "Poste Italiane",
            "brand:wikidata": "Q495026",
            "brand:wikipedia": "en:Poste italiane",
            "name": "Poste Italiane",
            "opening_hours": "Tu, Th 08:20-13:45, Sa 08:20-12:45; Mo, We, Fr, Su, PH off",
            "operator": "Poste Italiane",
            "operator:wikidata": "Q495026",
            "phone": "+39 0435 650243",
            "source": "https://www.amicodelpopolo.it/2021/03/25/attivato-il-postamat-a-danta/"
          },
          "geometry": {
            "type": "Point",
            "coordinates": [
              12.520896,
              46.5672061
            ]
          }
        },
        {
          "type": "Feature",
          "properties": {
            "id": "5792283239",
            "osm_type": "node",
            "lat": 46.460529,
            "lon": 12.4160714,
            "amenity": "post_office"
          },
          "geometry": {
            "type": "Point",
            "coordinates": [
              12.4160714,
              46.460529
            ]
          }
        },
        {
          "type": "Feature",
          "properties": {
            "id": "9907175342",
            "osm_type": "node",
            "lat": 46.4994281,
            "lon": 12.471364,
            "amenity": "post_office",
            "operator": "Poste Italiane"
          },
          "geometry": {
            "type": "Point",
            "coordinates": [
              12.471364,
              46.4994281
            ]
          }
        },
        {
          "type": "Feature",
          "properties": {
            "id": "340519149",
            "osm_type": "node",
            "lat": 46.7019199,
            "lon": 12.7848005,
            "addr:city": "Sankt Lorenzen im Lesachtal",
            "addr:country": "AT",
            "addr:housenumber": "33",
            "addr:place": "Sankt Lorenzen im Lesachtal",
            "addr:postcode": "9654",
            "amenity": "post_office",
            "name": "Postpartner 9654, ADEG Guggenberger",
            "post_office": "post_partner",
            "postal_code": "9654",
            "source": "https://www.post.at/"
          },
          "geometry": {
            "type": "Point",
            "coordinates": [
              12.7848005,
              46.7019199
            ]
          }
        },
        {
          "type": "Feature",
          "properties": {
            "id": "1540327353",
            "osm_type": "node",
            "lat": 46.5522079,
            "lon": 12.8527369,
            "addr:city": "Rigolato",
            "addr:housenumber": "25",
            "addr:postcode": "33020",
            "addr:street": "Piazza medaglia d'oro Anselmo Durigon",
            "amenity": "post_office",
            "atm": "yes",
            "name": "Poste Italiane",
            "opening_hours": "Tu, Th 08:20-13:45, Sa 08:20-12:45; Mo, We, Fr, Su, PH  off",
            "operator": "Poste Italiane",
            "operator:wikidata": "Q495026",
            "operator:wikipedia": "en:Poste italiane",
            "phone": "+39 0433 68350"
          },
          "geometry": {
            "type": "Point",
            "coordinates": [
              12.8527369,
              46.5522079
            ]
          }
        },
        {
          "type": "Feature",
          "properties": {
            "id": "1974345851",
            "osm_type": "node",
            "lat": 46.5201213,
            "lon": 12.8035646,
            "amenity": "post_office"
          },
          "geometry": {
            "type": "Point",
            "coordinates": [
              12.8035646,
              46.5201213
            ]
          }
        },
        {
          "type": "Feature",
          "properties": {
            "id": "2252718109",
            "osm_type": "node",
            "lat": 46.5130476,
            "lon": 12.9909062,
            "amenity": "post_office"
          },
          "geometry": {
            "type": "Point",
            "coordinates": [
              12.9909062,
              46.5130476
            ]
          }
        },
        {
          "type": "Feature",
          "properties": {
            "id": "2505153296",
            "osm_type": "node",
            "lat": 46.4233119,
            "lon": 12.9317833,
            "amenity": "post_office"
          },
          "geometry": {
            "type": "Point",
            "coordinates": [
              12.9317833,
              46.4233119
            ]
          }
        },
        {
          "type": "Feature",
          "properties": {
            "id": "2599765348",
            "osm_type": "node",
            "lat": 46.4666501,
            "lon": 12.7083568,
            "addr:city": "Sauris di Sotto",
            "addr:postcode": "33020",
            "addr:street": "Via Sauris di Sotto",
            "amenity": "post_office",
            "atm": "yes",
            "name": "Poste Italiane",
            "opening_hours": "Tu, Th 08:20-13:45, Sa 08:20-12:45; Mo, We, Fr, Su, PH off",
            "operator": "Poste Italiane",
            "operator:wikidata": "Q495026",
            "operator:wikipedia": "en:Poste italiane",
            "phone": "+39 0433 86177",
            "source": "https://www.telefriuli.it/cronaca/sauris-installato-postamat/2/225363/art/"
          },
          "geometry": {
            "type": "Point",
            "coordinates": [
              12.7083568,
              46.4666501
            ]
          }
        },
        {
          "type": "Feature",
          "properties": {
            "id": "2619436342",
            "osm_type": "node",
            "lat": 46.3942475,
            "lon": 12.8661326,
            "amenity": "post_office"
          },
          "geometry": {
            "type": "Point",
            "coordinates": [
              12.8661326,
              46.3942475
            ]
          }
        },
        {
          "type": "Feature",
          "properties": {
            "id": "2853692734",
            "osm_type": "node",
            "lat": 46.434509,
            "lon": 12.8700475,
            "amenity": "post_office"
          },
          "geometry": {
            "type": "Point",
            "coordinates": [
              12.8700475,
              46.434509
            ]
          }
        },
        {
          "type": "Feature",
          "properties": {
            "id": "3117578356",
            "osm_type": "node",
            "lat": 46.4238101,
            "lon": 12.5805257,
            "addr:housenumber": "208",
            "addr:street": "Via Nazionale",
            "amenity": "post_office",
            "name": "Ufficio postale Forni di Sopra",
            "opening_hours": "Mo-We-Fr 08:20-13:45",
            "operator": "Poste Italiane",
            "operator:wikidata": "Q495026",
            "phone": "+39 0433 88210",
            "ref": "66059"
          },
          "geometry": {
            "type": "Point",
            "coordinates": [
              12.5805257,
              46.4238101
            ]
          }
        },
        {
          "type": "Feature",
          "properties": {
            "id": "3818538551",
            "osm_type": "node",
            "lat": 46.4051197,
            "lon": 13.0114116,
            "addr:city": "Tolmezzo",
            "addr:housenumber": "39",
            "addr:postcode": "33028",
            "addr:street": "Via Carnia Libera 1944",
            "amenity": "post_office",
            "atm": "yes",
            "name": "Ufficio Postale di Tolmezzo",
            "phone": "+39 0433 484232",
            "ref": "66158"
          },
          "geometry": {
            "type": "Point",
            "coordinates": [
              13.0114116,
              46.4051197
            ]
          }
        },
        {
          "type": "Feature",
          "properties": {
            "id": "4071752935",
            "osm_type": "node",
            "lat": 46.3898247,
            "lon": 12.9935375,
            "amenity": "post_office",
            "name": "Ufficio Postale",
            "operator": "Poste Italiane"
          },
          "geometry": {
            "type": "Point",
            "coordinates": [
              12.9935375,
              46.3898247
            ]
          }
        },
        {
          "type": "Feature",
          "properties": {
            "id": "9543882649",
            "osm_type": "node",
            "lat": 46.5796537,
            "lon": 12.5735337,
            "amenity": "post_office"
          },
          "geometry": {
            "type": "Point",
            "coordinates": [
              12.5735337,
              46.5796537
            ]
          }
        },
        {
          "type": "Feature",
          "properties": {
            "id": "10961069532",
            "osm_type": "node",
            "lat": 46.4146021,
            "lon": 12.9250656,
            "addr:housenumber": "14",
            "addr:street": "Via Pal Piccolo",
            "amenity": "post_office",
            "name": "PTT",
            "operator": "Poste Italiane",
            "operator:wikidata": "Q495026",
            "phone": "+39 433 750213"
          },
          "geometry": {
            "type": "Point",
            "coordinates": [
              12.9250656,
              46.4146021
            ]
          }
        },
        {
          "type": "Feature",
          "properties": {
            "id": "11188227163",
            "osm_type": "node",
            "lat": 46.5320364,
            "lon": 13.0157914,
            "addr:city": "Paluzza",
            "addr:housenumber": "1",
            "addr:postcode": "33026",
            "addr:street": "Via Divisione Julia",
            "amenity": "post_office",
            "atm": "yes",
            "name": "Ufficio Postale di Paluzza",
            "ref": "66158"
          },
          "geometry": {
            "type": "Point",
            "coordinates": [
              13.0157914,
              46.5320364
            ]
          }
        },
        {
          "type": "Feature",
          "properties": {
            "id": "11989104540",
            "osm_type": "node",
            "lat": 46.5659448,
            "lon": 12.6830131,
            "amenity": "post_office",
            "contact:city": "Sappada",
            "contact:housenumber": "5",
            "contact:place": "Borgata Bach",
            "contact:postcode": "33012"
          },
          "geometry": {
            "type": "Point",
            "coordinates": [
              12.6830131,
              46.5659448
            ]
          }
        },
        {
          "type": "Feature",
          "properties": {
            "id": "12137238786",
            "osm_type": "node",
            "lat": 46.4717387,
            "lon": 13.025199,
            "addr:city": "Arta Terme",
            "addr:housenumber": "16",
            "addr:street": "Via Umberto Primo",
            "amenity": "post_office",
            "name": "Ufficio postale Arta Terme",
            "operator": "Poste Italiane",
            "operator:wikidata": "Q495026",
            "phone": "0433 580427",
            "ref": "66178"
          },
          "geometry": {
            "type": "Point",
            "coordinates": [
              13.025199,
              46.4717387
            ]
          }
        },
        {
          "type": "Feature",
          "properties": {
            "id": "12137252079",
            "osm_type": "node",
            "lat": 46.4155399,
            "lon": 12.797016,
            "addr:city": "Ampezzo",
            "addr:housenumber": "5",
            "addr:postcode": "33021",
            "addr:street": "Piazzale ai Caduti",
            "amenity": "post_office",
            "name": "Ufficio postale di Ampezzo",
            "operator": "Poste Italiane",
            "operator:wikidata": "Q495026"
          },
          "geometry": {
            "type": "Point",
            "coordinates": [
              12.797016,
              46.4155399
            ]
          }
        },
        {
          "type": "Feature",
          "properties": {
            "id": "12139267159",
            "osm_type": "node",
            "lat": 46.5272226,
            "lon": 12.9861748,
            "addr:housenumber": "2",
            "addr:street": "Via Tavièle",
            "amenity": "post_office",
            "atm": "yes",
            "name": "Ufficio postale Cercivento",
            "operator": "Poste Italiane",
            "operator:wikidata": "Q495026",
            "ref": "66199"
          },
          "geometry": {
            "type": "Point",
            "coordinates": [
              12.9861748,
              46.5272226
            ]
          }
        },
        {
          "type": "Feature",
          "properties": {
            "id": "12153470334",
            "osm_type": "node",
            "lat": 46.3928122,
            "lon": 12.669277,
            "addr:housenumber": "1",
            "addr:street": "Borgo Tredolo",
            "amenity": "post_office",
            "name": "Ufficio postale Forni di Sotto",
            "operator": "Poste Italiane",
            "operator:wikidata": "Q495026",
            "phone": "+39 0433 87273",
            "ref": "66060"
          },
          "geometry": {
            "type": "Point",
            "coordinates": [
              12.669277,
              46.3928122
            ]
          }
        },
        {
          "type": "Feature",
          "properties": {
            "id": "12492358660",
            "osm_type": "node",
            "lat": 46.5681419,
            "lon": 12.5879328,
            "amenity": "post_office"
          },
          "geometry": {
            "type": "Point",
            "coordinates": [
              12.5879328,
              46.5681419
            ]
          }
        },
        {
          "type": "Feature",
          "properties": {
            "id": "340516714",
            "osm_type": "node",
            "lat": 46.6410129,
            "lon": 13.1859946,
            "addr:city": "Kirchbach",
            "addr:country": "AT",
            "addr:housenumber": "19",
            "addr:place": "Kirchbach",
            "addr:postcode": "9632",
            "amenity": "post_office",
            "at_bev:addr_date": "2017-10-01",
            "name": "9632 Kirchbach im Gailtal",
            "note": "Postpartner",
            "postal_code": "9632",
            "ref": "9632",
            "type": "Postpartner"
          },
          "geometry": {
            "type": "Point",
            "coordinates": [
              13.1859946,
              46.6410129
            ]
          }
        },
        {
          "type": "Feature",
          "properties": {
            "id": "340519116",
            "osm_type": "node",
            "lat": 46.6865015,
            "lon": 13.2533682,
            "addr:city": "Gitschtal",
            "addr:country": "AT",
            "addr:housenumber": "202",
            "addr:place": "Weißbriach",
            "addr:postcode": "9622",
            "amenity": "post_office",
            "name": "Postpartner 9622, Glitschtal Reisen Wastian",
            "post_office": "post_partner",
            "source": "https://www.post.at/"
          },
          "geometry": {
            "type": "Point",
            "coordinates": [
              13.2533682,
              46.6865015
            ]
          }
        },
        {
          "type": "Feature",
          "properties": {
            "id": "2047980689",
            "osm_type": "node",
            "lat": 46.6619772,
            "lon": 13.0786228,
            "addr:country": "AT",
            "addr:housenumber": "12",
            "addr:postcode": "9635",
            "addr:street": "Dellach",
            "amenity": "post_office",
            "name": "Post Zweigstelle",
            "opening_hours": "Mo-Fr 07:00-18:30; Sa 08:00-12:30"
          },
          "geometry": {
            "type": "Point",
            "coordinates": [
              13.0786228,
              46.6619772
            ]
          }
        },
        {
          "type": "Feature",
          "properties": {
            "id": "2088822977",
            "osm_type": "node",
            "lat": 46.4104935,
            "lon": 13.1947676,
            "amenity": "post_office"
          },
          "geometry": {
            "type": "Point",
            "coordinates": [
              13.1947676,
              46.4104935
            ]
          }
        },
        {
          "type": "Feature",
          "properties": {
            "id": "2121669088",
            "osm_type": "node",
            "lat": 46.408107,
            "lon": 13.3098957,
            "addr:street": "Via Roma",
            "amenity": "post_office",
            "name": "Ufficio postale di Chiusaforte",
            "opening_hours": "Tu 08:20-13:45; Th 08:20-13:45; Sa 08:20-12:45",
            "operator": "Poste Italiane",
            "operator:wikidata": "Q495026",
            "phone": "+39 0433 580405",
            "ref": "66031"
          },
          "geometry": {
            "type": "Point",
            "coordinates": [
              13.3098957,
              46.408107
            ]
          }
        },
        {
          "type": "Feature",
          "properties": {
            "id": "2366130012",
            "osm_type": "node",
            "lat": 46.447379,
            "lon": 13.315723,
            "amenity": "post_office"
          },
          "geometry": {
            "type": "Point",
            "coordinates": [
              13.315723,
              46.447379
            ]
          }
        },
        {
          "type": "Feature",
          "properties": {
            "id": "2422473194",
            "osm_type": "node",
            "lat": 46.5303995,
            "lon": 13.1164429,
            "amenity": "post_office"
          },
          "geometry": {
            "type": "Point",
            "coordinates": [
              13.1164429,
              46.5303995
            ]
          }
        },
        {
          "type": "Feature",
          "properties": {
            "id": "3898163708",
            "osm_type": "node",
            "lat": 46.3733209,
            "lon": 13.3052255,
            "addr:city": "Resia",
            "addr:housenumber": "15",
            "addr:postcode": "33010",
            "addr:street": "Via Roma",
            "amenity": "post_office",
            "name": "Ufficio Postale",
            "operator": "Poste Italiane"
          },
          "geometry": {
            "type": "Point",
            "coordinates": [
              13.3052255,
              46.3733209
            ]
          }
        },
        {
          "type": "Feature",
          "properties": {
            "id": "4103049640",
            "osm_type": "node",
            "lat": 46.3930858,
            "lon": 13.2202794,
            "amenity": "post_office"
          },
          "geometry": {
            "type": "Point",
            "coordinates": [
              13.2202794,
              46.3930858
            ]
          }
        },
        {
          "type": "Feature",
          "properties": {
            "id": "12137212579",
            "osm_type": "node",
            "lat": 46.3736708,
            "lon": 13.0960491,
            "addr:city": "Amaro",
            "addr:housenumber": "62",
            "addr:postcode": "33020",
            "addr:street": "Via Roma",
            "amenity": "post_office",
            "name": "Ufficio postale di Amaro",
            "operator": "Poste Italiane",
            "operator:wikidata": "Q495026",
            "ref": "66002"
          },
          "geometry": {
            "type": "Point",
            "coordinates": [
              13.0960491,
              46.3736708
            ]
          }
        }
      ],
      "children": []
    },
    {
      "bbox": {
        "south": 46.70320525,
        "west": 11.438358999999998,
        "north": 47.033758500000005,
        "east": 12.392062499999998
      },
      "poiCount": 30,
      "leafCount": 30,
      "averagePosition": [
        11.922484950000001,
        46.830229736666666
      ],
      "data": [
        {
          "type": "Feature",
          "properties": {
            "id": "1992396050",
            "osm_type": "node",
            "lat": 46.9377889,
            "lon": 11.4436868,
            "amenity": "post_office"
          },
          "geometry": {
            "type": "Point",
            "coordinates": [
              11.4436868,
              46.9377889
            ]
          }
        },
        {
          "type": "Feature",
          "properties": {
            "id": "2418921322",
            "osm_type": "node",
            "lat": 47.001959,
            "lon": 11.5045405,
            "addr:housenumber": "56/B",
            "addr:street": "Karl-von-Etzel-Straße Via Karl von Etzel",
            "addr:street:de": "Karl-von-Etzel-Straße",
            "amenity": "post_office"
          },
          "geometry": {
            "type": "Point",
            "coordinates": [
              11.5045405,
              47.001959
            ]
          }
        },
        {
          "type": "Feature",
          "properties": {
            "id": "2749461615",
            "osm_type": "node",
            "lat": 46.9950871,
            "lon": 11.9810127,
            "addr:city": "Ahrntal - Valle Aurina",
            "addr:city:de": "Ahrntal",
            "addr:city:it": "Valle Aurina",
            "addr:housenumber": "99",
            "addr:place": "Steinhaus - Cadipietra",
            "addr:place:de": "Steinhaus",
            "addr:place:it": "Cadipietra",
            "addr:postcode": "39030",
            "addr:street": "Klausbergstraße - Via Klausberg",
            "amenity": "post_office",
            "name": "Posteitaliane",
            "opening_hours": "Tu-Th 08:20-13:45; Sa 08:20-12:45"
          },
          "geometry": {
            "type": "Point",
            "coordinates": [
              11.9810127,
              46.9950871
            ]
          }
        },
        {
          "type": "Feature",
          "properties": {
            "id": "4408248933",
            "osm_type": "node",
            "lat": 46.9190517,
            "lon": 11.9525769,
            "amenity": "post_office",
            "name": "Poste Italiane",
            "operator": "Poste Italiane",
            "operator:wikidata": "Q495026",
            "operator:wikipedia": "en:Poste italiane"
          },
          "geometry": {
            "type": "Point",
            "coordinates": [
              11.9525769,
              46.9190517
            ]
          }
        },
        {
          "type": "Feature",
          "properties": {
            "id": "5811645146",
            "osm_type": "node",
            "lat": 46.9516499,
            "lon": 11.9215144,
            "amenity": "post_office",
            "name": "Posteitaliane",
            "opening_hours": "Mo-Fr 08:20-13:45; Sa 8:20-12:45; Su,PH off"
          },
          "geometry": {
            "type": "Point",
            "coordinates": [
              11.9215144,
              46.9516499
            ]
          }
        },
        {
          "type": "Feature",
          "properties": {
            "id": "436129120",
            "osm_type": "node",
            "lat": 46.9162807,
            "lon": 12.3272778,
            "addr:city": "St. Jakob in Defereggen",
            "addr:country": "AT",
            "addr:housenumber": "65",
            "addr:place": "Unterrotte",
            "addr:postcode": "9963",
            "amenity": "post_office",
            "name": "9963 St. Jakob im Defereggen",
            "operator": "Österreichische Post AG",
            "type": "Post.Partner"
          },
          "geometry": {
            "type": "Point",
            "coordinates": [
              12.3272778,
              46.9162807
            ]
          }
        },
        {
          "type": "Feature",
          "properties": {
            "id": "1586259633",
            "osm_type": "node",
            "lat": 47.0165211,
            "lon": 12.3822956,
            "addr:city": "Prägraten",
            "addr:country": "AT",
            "addr:housenumber": "3a",
            "addr:place": "St. Andrä",
            "addr:postcode": "9974",
            "amenity": "post_office",
            "brand": "Post.at",
            "name": "9974 Prägraten",
            "postal_code": "9974",
            "ref": "9974",
            "type": "post.partner"
          },
          "geometry": {
            "type": "Point",
            "coordinates": [
              12.3822956,
              47.0165211
            ]
          }
        },
        {
          "type": "Feature",
          "properties": {
            "id": "2735006287",
            "osm_type": "node",
            "lat": 46.9161522,
            "lon": 12.331101,
            "addr:country": "AT",
            "addr:postcode": "9963",
            "amenity": "post_office"
          },
          "geometry": {
            "type": "Point",
            "coordinates": [
              12.331101,
              46.9161522
            ]
          }
        },
        {
          "type": "Feature",
          "properties": {
            "id": "4589331358",
            "osm_type": "node",
            "lat": 46.8712856,
            "lon": 11.4838128,
            "amenity": "post_office",
            "check_date": "2023-07-15",
            "name": "Postamt Freienfeld",
            "operator": "Poste Italiane",
            "operator:wikidata": "Q495026",
            "operator:wikipedia": "en:Poste italiane"
          },
          "geometry": {
            "type": "Point",
            "coordinates": [
              11.4838128,
              46.8712856
            ]
          }
        },
        {
          "type": "Feature",
          "properties": {
            "id": "289006873",
            "osm_type": "node",
            "lat": 46.7142739,
            "lon": 11.6549477,
            "amenity": "post_office",
            "name": "Postamt Brixen - Ufficio postale di Bressanone",
            "name:de": "Postamt Brixen",
            "name:it": "Ufficio postale di Bressanone",
            "opening_hours": "Mo-Fr 08:20-19:05; Sa 08:20-12:35",
            "source": "https://www.ufficio-postale.it/bressanone/5567-ufficio-postale-di-bressanone-poste-italiane/",
            "wheelchair": "yes"
          },
          "geometry": {
            "type": "Point",
            "coordinates": [
              11.6549477,
              46.7142739
            ]
          }
        },
        {
          "type": "Feature",
          "properties": {
            "id": "1977794625",
            "osm_type": "node",
            "lat": 46.7965007,
            "lon": 11.9347221,
            "amenity": "post_office",
            "brand": "Poste Italiane",
            "brand:wikidata": "Q495026",
            "brand:wikipedia": "en:Poste italiane",
            "name": "Poste Italiane",
            "opening_hours": "Mo-We,Fr 08:20-13:35; Th 08:20-19:05; Sa 08:20-12:35",
            "operator": "Poste Italiane",
            "operator:wikidata": "Q495026"
          },
          "geometry": {
            "type": "Point",
            "coordinates": [
              11.9347221,
              46.7965007
            ]
          }
        },
        {
          "type": "Feature",
          "properties": {
            "id": "2015423830",
            "osm_type": "node",
            "lat": 46.806399,
            "lon": 11.836375,
            "amenity": "post_office",
            "name": "PT",
            "operator": "Poste Italiane"
          },
          "geometry": {
            "type": "Point",
            "coordinates": [
              11.836375,
              46.806399
            ]
          }
        },
        {
          "type": "Feature",
          "properties": {
            "id": "2110578431",
            "osm_type": "node",
            "lat": 46.7705475,
            "lon": 11.6657611,
            "addr:city": "Natz-Schabs - Naz-Sciaves",
            "addr:city:de": "Natz-Schabs",
            "addr:city:it": "Naz-Sciaves",
            "addr:hamlet": "Schabs - Sciaves",
            "addr:hamlet:de": "Schabs",
            "addr:hamlet:it": "Sciaves",
            "addr:housenumber": "18a",
            "addr:postcode": "39040",
            "addr:street": "Peter-Kemenater-Straße - Via Peter Kemenater",
            "addr:street:de": "Peter-Kemenater-Straße",
            "addr:street:it": "Via Peter Kemenater",
            "amenity": "post_office",
            "brand": "Poste Italiane",
            "brand:wikidata": "Q495026",
            "brand:wikipedia": "en:Poste italiane",
            "name": "Poste Italiane",
            "opening_hours": "Mo-Fr 08:20-13:45; Sa 08:20-12:45"
          },
          "geometry": {
            "type": "Point",
            "coordinates": [
              11.6657611,
              46.7705475
            ]
          }
        },
        {
          "type": "Feature",
          "properties": {
            "id": "2206627033",
            "osm_type": "node",
            "lat": 46.761671,
            "lon": 12.0294752,
            "amenity": "post_office",
            "check_date": "2024-01-29",
            "name": "Postamt Olang - Ufficio postale Valdaora",
            "name:de": "Post Amt Olang",
            "name:it": "Ufficio postale Valdaora",
            "opening_hours": "Mo-Fr 08:20-13:35; Sa 08:20-12:35",
            "wheelchair": "yes"
          },
          "geometry": {
            "type": "Point",
            "coordinates": [
              12.0294752,
              46.761671
            ]
          }
        },
        {
          "type": "Feature",
          "properties": {
            "id": "2294708312",
            "osm_type": "node",
            "lat": 46.8170776,
            "lon": 11.7233535,
            "amenity": "post_office",
            "name": "Post - Posta",
            "name:de": "Post",
            "name:it": "Posta"
          },
          "geometry": {
            "type": "Point",
            "coordinates": [
              11.7233535,
              46.8170776
            ]
          }
        },
        {
          "type": "Feature",
          "properties": {
            "id": "2328413818",
            "osm_type": "node",
            "lat": 46.8289046,
            "lon": 11.7767232,
            "amenity": "post_office"
          },
          "geometry": {
            "type": "Point",
            "coordinates": [
              11.7767232,
              46.8289046
            ]
          }
        },
        {
          "type": "Feature",
          "properties": {
            "id": "2615604691",
            "osm_type": "node",
            "lat": 46.8356483,
            "lon": 11.9477454,
            "amenity": "post_office",
            "check_date": "2025-08-10",
            "opening_hours": "Mo-Fr 08:20-13:45; Sa 08:20-12:45; Su off",
            "wheelchair": "yes"
          },
          "geometry": {
            "type": "Point",
            "coordinates": [
              11.9477454,
              46.8356483
            ]
          }
        },
        {
          "type": "Feature",
          "properties": {
            "id": "3428911676",
            "osm_type": "node",
            "lat": 46.7955667,
            "lon": 11.6667406,
            "amenity": "post_office",
            "brand": "Poste Italiane",
            "brand:wikidata": "Q495026",
            "brand:wikipedia": "en:Poste italiane",
            "name": "Poste Italiane",
            "opening_hours": "Mo-Fr 08:20-13:45; Sa 08:20-12:45; PH closed",
            "wheelchair": "yes",
            "wheelchair:description:de": "Eingang ist auf Straßenniveau. Zwischen zwei Eingangstüren ist eine flache Rampe."
          },
          "geometry": {
            "type": "Point",
            "coordinates": [
              11.6667406,
              46.7955667
            ]
          }
        },
        {
          "type": "Feature",
          "properties": {
            "id": "5941151122",
            "osm_type": "node",
            "lat": 46.7827923,
            "lon": 11.9023001,
            "amenity": "post_office",
            "brand": "Poste Italiane",
            "brand:wikidata": "Q495026",
            "brand:wikipedia": "en:Poste italiane",
            "contact:city": "St. Lorenzen - San Lorenzo di Sebato",
            "contact:housenumber": "2",
            "contact:postcode": "39030",
            "contact:street": "Via San Martino / St.-Martin-Straße",
            "name": "Poste italiane",
            "operator": "Poste Italiane",
            "operator:wikidata": "Q495026",
            "operator:wikipedia": "en:Poste italiane"
          },
          "geometry": {
            "type": "Point",
            "coordinates": [
              11.9023001,
              46.7827923
            ]
          }
        },
        {
          "type": "Feature",
          "properties": {
            "id": "7521871055",
            "osm_type": "node",
            "lat": 46.8117659,
            "lon": 11.8829247,
            "amenity": "post_office",
            "brand": "Poste Italiane",
            "brand:wikidata": "Q495026",
            "brand:wikipedia": "en:Poste italiane",
            "name": "Poste Italiane",
            "opening_hours": "Tu-Th 08:20-13:45; Sa 08:20-12:45",
            "operator": "Poste Italiane",
            "operator:wikidata": "Q495026"
          },
          "geometry": {
            "type": "Point",
            "coordinates": [
              11.8829247,
              46.8117659
            ]
          }
        },
        {
          "type": "Feature",
          "properties": {
            "id": "8779932644",
            "osm_type": "node",
            "lat": 46.7863322,
            "lon": 11.6125143,
            "amenity": "post_office",
            "name": "Poste italia",
            "opening_hours": "Tu-Th 08:20-12:45; Sa 08:20-12:45"
          },
          "geometry": {
            "type": "Point",
            "coordinates": [
              11.6125143,
              46.7863322
            ]
          }
        },
        {
          "type": "Feature",
          "properties": {
            "id": "8840247039",
            "osm_type": "node",
            "lat": 46.791397,
            "lon": 11.9833119,
            "amenity": "post_office",
            "operator": "Poste Italiane",
            "ref": "88225"
          },
          "geometry": {
            "type": "Point",
            "coordinates": [
              11.9833119,
              46.791397
            ]
          }
        },
        {
          "type": "Feature",
          "properties": {
            "id": "8846107958",
            "osm_type": "node",
            "lat": 46.7286902,
            "lon": 11.6508321,
            "amenity": "post_office",
            "name": "BRT Filiale Brixen - BRT Filiale Bressanone",
            "name:de": "BRT Filiale Brixen",
            "name:it": "BRT Filiale Bressanone"
          },
          "geometry": {
            "type": "Point",
            "coordinates": [
              11.6508321,
              46.7286902
            ]
          }
        },
        {
          "type": "Feature",
          "properties": {
            "id": "12201840169",
            "osm_type": "node",
            "lat": 46.7458836,
            "lon": 11.7608198,
            "amenity": "post_office",
            "operator": "Poste Italiane",
            "operator:wikidata": "Q495026"
          },
          "geometry": {
            "type": "Point",
            "coordinates": [
              11.7608198,
              46.7458836
            ]
          }
        },
        {
          "type": "Feature",
          "properties": {
            "id": "279716566",
            "osm_type": "node",
            "lat": 46.7377678,
            "lon": 12.1691018,
            "amenity": "post_office",
            "branch": "Niederdorf - Villabassa",
            "branch:de": "Niederdorf",
            "branch:it": "Villabassa",
            "check_date": "2025-01-21",
            "contact:city": "Niederdorf - Villabassa",
            "contact:city:de": "Niederdorf",
            "contact:city:it": "Villabassa",
            "contact:fax": "+39 0474 863016",
            "contact:housenumber": "5",
            "contact:phone": "+39 0474 745101",
            "contact:postcode": "39039",
            "contact:street": "Von-Kurz-Platz - Piazza Von Kurz",
            "contact:street:de": "Von-Kurz-Platz",
            "contact:street:it": "Piazza Von Kurz",
            "opening_hours": "Mo-Fr 08:20-13:45; Sa 08:20-12:45; Su off",
            "operator": "Poste Italiane",
            "operator:wikidata": "Q495026",
            "ref": "88183",
            "wheelchair": "yes"
          },
          "geometry": {
            "type": "Point",
            "coordinates": [
              12.1691018,
              46.7377678
            ]
          }
        },
        {
          "type": "Feature",
          "properties": {
            "id": "1579001485",
            "osm_type": "node",
            "lat": 46.8080181,
            "lon": 12.3714534,
            "addr:city": "Innervillgraten",
            "addr:country": "AT",
            "addr:housenumber": "79",
            "addr:place": "Gasse",
            "addr:postcode": "9932",
            "amenity": "post_office",
            "name": "Postfiliale Innervillgraten",
            "opening_hours": "Mo-Fr 08:00-12:00; Sa,Su,PH off",
            "operator": "Österreichische Post AG",
            "website": "https://www.post.at"
          },
          "geometry": {
            "type": "Point",
            "coordinates": [
              12.3714534,
              46.8080181
            ]
          }
        },
        {
          "type": "Feature",
          "properties": {
            "id": "2255510898",
            "osm_type": "node",
            "lat": 46.8110019,
            "lon": 12.2271451,
            "amenity": "post_office",
            "brand": "Poste Italiane",
            "brand:wikidata": "Q495026",
            "brand:wikipedia": "en:Poste italiane",
            "fax": "+39 0474 978259",
            "name": "Poste Italiane",
            "opening_hours": "Mo-Sa 08:20-12:45",
            "operator": "Poste Italiane",
            "operator:wikidata": "Q495026",
            "phone": "+39 0474 978405",
            "ref": "88217"
          },
          "geometry": {
            "type": "Point",
            "coordinates": [
              12.2271451,
              46.8110019
            ]
          }
        },
        {
          "type": "Feature",
          "properties": {
            "id": "2333490751",
            "osm_type": "node",
            "lat": 46.7344736,
            "lon": 12.2794634,
            "amenity": "post_office",
            "brand": "Poste Italiane",
            "brand:wikidata": "Q495026",
            "brand:wikipedia": "en:Poste italiane",
            "check_date": "2025-08-08",
            "name": "Poste Italiane"
          },
          "geometry": {
            "type": "Point",
            "coordinates": [
              12.2794634,
              46.7344736
            ]
          }
        },
        {
          "type": "Feature",
          "properties": {
            "id": "4571891956",
            "osm_type": "node",
            "lat": 46.7807794,
            "lon": 12.0492251,
            "amenity": "post_office",
            "fax": "+39 0474 498219",
            "name": "Poste Italiane- Rasun di Sotto",
            "opening_hours": "Mo-Fr 08:20-13:45; We off",
            "operator": "Poste Italiane",
            "operator:wikidata": "Q495026",
            "operator:wikipedia": "en:Poste italiane",
            "phone": "+39 0474 496159",
            "ref": "88120",
            "website": "https://www.poste.it/online/cercaup/",
            "wheelchair": "yes"
          },
          "geometry": {
            "type": "Point",
            "coordinates": [
              12.0492251,
              46.7807794
            ]
          }
        },
        {
          "type": "Feature",
          "properties": {
            "id": "5781706166",
            "osm_type": "node",
            "lat": 46.7356246,
            "lon": 12.2217945,
            "addr:city": "Toblach - Dobbiaco",
            "addr:housenumber": "4",
            "addr:postcode": "39034",
            "addr:street": "Via Conti Künigl",
            "amenity": "post_office",
            "opening_hours": "Mo-Fr 08:20-13:45; Sa 08:20-12:45"
          },
          "geometry": {
            "type": "Point",
            "coordinates": [
              12.2217945,
              46.7356246
            ]
          }
        }
      ],
      "children": []
    },
    {
      "bbox": {
        "south": 46.70320525,
        "west": 12.392062499999998,
        "north": 47.033758500000005,
        "east": 13.345766
      },
      "poiCount": 15,
      "leafCount": 15,
      "averagePosition": [
        12.939189599999999,
        46.83478775333333
      ],
      "data": [
        {
          "type": "Feature",
          "properties": {
            "id": "1578850287",
            "osm_type": "node",
            "lat": 47.0032668,
            "lon": 12.4605956,
            "amenity": "post_office",
            "name": "9972 Virgen",
            "postal_code": "9972",
            "ref": "9972",
            "type": "Post.Partner"
          },
          "geometry": {
            "type": "Point",
            "coordinates": [
              12.4605956,
              47.0032668
            ]
          }
        },
        {
          "type": "Feature",
          "properties": {
            "id": "340517182",
            "osm_type": "node",
            "lat": 46.9347202,
            "lon": 13.1314465,
            "addr:city": "Flattach",
            "addr:country": "AT",
            "addr:housenumber": "69",
            "addr:place": "Flattach",
            "addr:postcode": "9831",
            "amenity": "post_office",
            "name": "Postpartner 9831, Cafe Greissler Doris Egarter",
            "post_office": "post_partner",
            "postal_code": "9831",
            "source": "https://www.post.at/"
          },
          "geometry": {
            "type": "Point",
            "coordinates": [
              13.1314465,
              46.9347202
            ]
          }
        },
        {
          "type": "Feature",
          "properties": {
            "id": "340517218",
            "osm_type": "node",
            "lat": 46.8874671,
            "lon": 13.0357413,
            "addr:city": "Stall",
            "addr:country": "AT",
            "addr:housenumber": "6",
            "addr:place": "Stall",
            "addr:postcode": "9832",
            "amenity": "post_office",
            "name": "Postpartner 9832, Post Shop",
            "post_office": "post_partner",
            "postal_code": "9832",
            "source": "https://www.post.at/"
          },
          "geometry": {
            "type": "Point",
            "coordinates": [
              13.0357413,
              46.8874671
            ]
          }
        },
        {
          "type": "Feature",
          "properties": {
            "id": "2024967966",
            "osm_type": "node",
            "lat": 46.9889189,
            "lon": 13.169688,
            "addr:city": "Mallnitz",
            "addr:country": "AT",
            "addr:housenumber": "56",
            "addr:postcode": "9822",
            "addr:street": "Mallnitz",
            "amenity": "post_office",
            "name": "9822 Mallnitz",
            "opening_hours": "Mo-Sa 08:00-12:00, Mo-We,Fr 15:00-18:00",
            "postal_code": "9822",
            "ref": "9822",
            "type": "Post-Servicestelle"
          },
          "geometry": {
            "type": "Point",
            "coordinates": [
              13.169688,
              46.9889189
            ]
          }
        },
        {
          "type": "Feature",
          "properties": {
            "id": "5174967559",
            "osm_type": "node",
            "lat": 46.9322956,
            "lon": 13.2039649,
            "addr:city": "Obervellach",
            "addr:country": "AT",
            "addr:housenumber": "169",
            "addr:place": "Obervellach",
            "addr:postcode": "9821",
            "amenity": "post_office",
            "at_bev:addr_date": "2017-04-07",
            "name": "Postpartner 9821",
            "opening_hours": "Mo-Fr 07:45-12:00, 15:00-18:00; Sa 08:00-12:00",
            "operator": "Papier Huber",
            "post_office:type": "post_partner",
            "ref": "9821",
            "source": "Homepage \"www.post.at/suche/standortsuche.php\" (Stand: 10.10.2017)"
          },
          "geometry": {
            "type": "Point",
            "coordinates": [
              13.2039649,
              46.9322956
            ]
          }
        },
        {
          "type": "Feature",
          "properties": {
            "id": "1579001305",
            "osm_type": "node",
            "lat": 46.7568047,
            "lon": 12.5276296,
            "amenity": "post_office",
            "postal_code": "9913",
            "ref": "9913",
            "type": "Post.Partner"
          },
          "geometry": {
            "type": "Point",
            "coordinates": [
              12.5276296,
              46.7568047
            ]
          }
        },
        {
          "type": "Feature",
          "properties": {
            "id": "6570781896",
            "osm_type": "node",
            "lat": 46.7474385,
            "lon": 12.4194053,
            "addr:city": "Sillian",
            "addr:housenumber": "86",
            "addr:place": "Sillian",
            "addr:postcode": "9920",
            "amenity": "post_office",
            "email": "PP.9920@post.at",
            "mobile": "+43 664 9580711",
            "name": "Postpartner Sillian"
          },
          "geometry": {
            "type": "Point",
            "coordinates": [
              12.4194053,
              46.7474385
            ]
          }
        },
        {
          "type": "Feature",
          "properties": {
            "id": "340515427",
            "osm_type": "node",
            "lat": 46.755554,
            "lon": 13.0213089,
            "addr:city": "Irschen",
            "addr:country": "AT",
            "addr:housenumber": "41",
            "addr:place": "Irschen",
            "addr:postcode": "9773",
            "amenity": "post_office",
            "name": "Postpartner 9773, Tourismusverband",
            "post_office": "post_partner",
            "postal_code": "9773",
            "source": "https://www.post.at/"
          },
          "geometry": {
            "type": "Point",
            "coordinates": [
              13.0213089,
              46.755554
            ]
          }
        },
        {
          "type": "Feature",
          "properties": {
            "id": "340519135",
            "osm_type": "node",
            "lat": 46.8649468,
            "lon": 12.9697916,
            "addr:city": "Rangersdorf",
            "addr:country": "AT",
            "addr:housenumber": "1",
            "addr:postcode": "9833",
            "addr:street": "Maschinen Steiner Platz",
            "amenity": "post_office",
            "fixme": "exact position",
            "name": "Postpartner 9833, Maschinen Steiner",
            "post_office": "post_partner",
            "postal_code": "9833",
            "source": "https://www.post.at/"
          },
          "geometry": {
            "type": "Point",
            "coordinates": [
              12.9697916,
              46.8649468
            ]
          }
        },
        {
          "type": "Feature",
          "properties": {
            "id": "1579001266",
            "osm_type": "node",
            "lat": 46.8666836,
            "lon": 12.6882222,
            "amenity": "post_office",
            "name": "9951 Ainet",
            "operator": "Österreichische Post AG",
            "operator:wikidata": "Q1763505",
            "operator:wikipedia": "de:Österreichische Post",
            "postal_code": "9951",
            "ref": "9951",
            "type": "Postfiliale"
          },
          "geometry": {
            "type": "Point",
            "coordinates": [
              12.6882222,
              46.8666836
            ]
          }
        },
        {
          "type": "Feature",
          "properties": {
            "id": "4543073721",
            "osm_type": "node",
            "lat": 46.8285294,
            "lon": 12.7672215,
            "addr:city": "Lienz",
            "addr:country": "AT",
            "addr:housenumber": "11",
            "addr:postcode": "9900",
            "addr:street": "Mühlgasse",
            "amenity": "post_office",
            "check_date:opening_hours": "2022-11-02",
            "name": "Post Filiale 9900",
            "opening_hours": "Mo-Fr 08:00-18:00; Sa,Su,PH off",
            "operator": "Österreichische Post AG",
            "operator:wikidata": "Q1763505",
            "operator:wikipedia": "de:Österreichische Post",
            "website": "https://www.post.at",
            "wheelchair": "yes"
          },
          "geometry": {
            "type": "Point",
            "coordinates": [
              12.7672215,
              46.8285294
            ]
          }
        },
        {
          "type": "Feature",
          "properties": {
            "id": "340519110",
            "osm_type": "node",
            "lat": 46.7177892,
            "lon": 13.2916074,
            "addr:city": "Weißensee",
            "addr:country": "AT",
            "addr:housenumber": "49",
            "addr:place": "Techendorf",
            "addr:postcode": "9762",
            "amenity": "post_office",
            "name": "9762 Weißensee",
            "post_office:type": "post_partner",
            "ref": "9762"
          },
          "geometry": {
            "type": "Point",
            "coordinates": [
              13.2916074,
              46.7177892
            ]
          }
        },
        {
          "type": "Feature",
          "properties": {
            "id": "340519552",
            "osm_type": "node",
            "lat": 46.7509007,
            "lon": 13.1802355,
            "addr:city": "Greifenburg",
            "addr:country": "AT",
            "addr:housenumber": "25",
            "addr:postcode": "9761",
            "addr:street": "Tirolerstraße",
            "amenity": "post_office",
            "name": "Postpartner 9761, Tabak Trafik Steinwender",
            "opening_hours": "Mo-Fr 09:00-12:00,15:00-17:30; Sa 09:00-12:00",
            "post_office": "post_partner",
            "postal_code": "9761",
            "source": "https://www.post.at/"
          },
          "geometry": {
            "type": "Point",
            "coordinates": [
              13.1802355,
              46.7509007
            ]
          }
        },
        {
          "type": "Feature",
          "properties": {
            "id": "7167205228",
            "osm_type": "node",
            "lat": 46.7482061,
            "lon": 13.1369413,
            "amenity": "post_office",
            "name": "ADEG Pirkner Postpartner",
            "operator": "Pirker"
          },
          "geometry": {
            "type": "Point",
            "coordinates": [
              13.1369413,
              46.7482061
            ]
          }
        },
        {
          "type": "Feature",
          "properties": {
            "id": "10223819865",
            "osm_type": "node",
            "lat": 46.7382947,
            "lon": 13.0840444,
            "amenity": "post_office",
            "name": "Postpartner 9772, Eni Tankstelle Müller",
            "post_office": "post_partner",
            "postal_code": "9772"
          },
          "geometry": {
            "type": "Point",
            "coordinates": [
              13.0840444,
              46.7382947
            ]
          }
        }
      ],
      "children": []
    }
  ]
}