{
  "bbox": {
    "south": 47.033758500000005,
    "west": 11.438358999999998,
    "north": 47.694865,
    "east": 13.345766
  },
  "poiCount": 108,
  "leafCount": 0,
  "averagePosition": [
    12.31483766851852,
    47.424446773148155
  ],
  "data": [],
  "children": [
    {
      "bbox": {
        "south": 47.033758500000005,
        "west": 11.438358999999998,
        "north": 47.36431175,
        "east": 12.392062499999998
      },
      "poiCount": 23,
      "leafCount": 23,
      "averagePosition": [
        11.734388486956522,
        47.248250552173914
      ],
      "data": [
        {
          "type": "Feature",
          "properties": {
            "id": "340516449",
            "osm_type": "node",
            "lat": 47.248866,
            "lon": 11.4998328,
            "amenity": "post_office",
            "name": "Postservicestelle Romedis",
            "website": "https://6074.post.at/"
          },
          "geometry": {
            "type": "Point",
            "coordinates": [
              11.4998328,
              47.248866
            ]
          }
        },
        {
          "type": "Feature",
          "properties": {
            "id": "1578584199",
            "osm_type": "node",
            "lat": 47.0902556,
            "lon": 11.4675456,
            "addr:city": "Steinach am Brenner",
            "addr:country": "AT",
            "addr:housenumber": "1",
            "addr:postcode": "6150",
            "addr:street": "Rathausplatz",
            "amenity": "post_office",
            "name": "Post Filiale 6150",
            "opening_hours": "Mo-Fr 08:00-12:00, 14:00-17:30; Sa,Su,PH off",
            "operator": "Österreichische Post AG",
            "operator:wikidata": "Q1763505",
            "operator:wikipedia": "de:Österreichische Post",
            "website": "https://www.post.at"
          },
          "geometry": {
            "type": "Point",
            "coordinates": [
              11.4675456,
              47.0902556
            ]
          }
        },
        {
          "type": "Feature",
          "properties": {
            "id": "1578596254",
            "osm_type": "node",
            "lat": 47.2893161,
            "lon": 11.4654912,
            "addr:city": "Thaur",
            "addr:country": "AT",
            "amenity": "post_office",
            "name": "6065 Thaur",
            "postal_code": "6065",
            "ref": "6065",
            "type": "Post.Partner"
          },
          "geometry": {
            "type": "Point",
            "coordinates": [
              11.4654912,
              47.2893161
            ]
          }
        },
        {
          "type": "Feature",
          "properties": {
            "id": "1595480370",
            "osm_type": "node",
            "lat": 47.2825545,
            "lon": 11.5063735,
            "addr:city": "Hall in Tirol",
            "addr:country": "AT",
            "addr:housenumber": "7",
            "addr:postcode": "6060",
            "addr:street": "Krippgasse",
            "amenity": "post_office",
            "name": "Post Filiale 6060",
            "opening_hours": "Mo-Fr 08:00-12:00, 14:00-17:30; Sa,Su,PH off",
            "operator": "Österreichische Post AG",
            "operator:wikidata": "Q1763505",
            "website": "https://www.post.at",
            "wheelchair": "no"
          },
          "geometry": {
            "type": "Point",
            "coordinates": [
              11.5063735,
              47.2825545
            ]
          }
        },
        {
          "type": "Feature",
          "properties": {
            "id": "4962568520",
            "osm_type": "node",
            "lat": 47.2746366,
            "lon": 11.4898083,
            "addr:city": "Hall in Tirol",
            "addr:housenumber": "15-17",
            "addr:postcode": "6050",
            "addr:street": "Essacherstraße",
            "amenity": "post_office",
            "name": "Post Filiale 6050",
            "opening_hours": "Mo-Fr 08:00-12:00, 14:00-17:30; Sa,Su,PH off",
            "operator": "Österreichische Post AG",
            "operator:wikidata": "Q1763505",
            "website": "https://www.post.at"
          },
          "geometry": {
            "type": "Point",
            "coordinates": [
              11.4898083,
              47.2746366
            ]
          }
        },
        {
          "type": "Feature",
          "properties": {
            "id": "6404076214",
            "osm_type": "node",
            "lat": 47.1267463,
            "lon": 11.4519268,
            "amenity": "post_office",
            "name": "6143 Matrei",
            "postal_code": "6143",
            "ref": "6143",
            "type": "Post.Partner",
            "wheelchair": "limited"
          },
          "geometry": {
            "type": "Point",
            "coordinates": [
              11.4519268,
              47.1267463
            ]
          }
        },
        {
          "type": "Feature",
          "properties": {
            "id": "6969058767",
            "osm_type": "node",
            "lat": 47.3019368,
            "lon": 11.5164545,
            "amenity": "post_office",
            "name": "Post Partner 6067",
            "opening_hours": "Mo-Fr 08:00-12:00,14:00-17:30"
          },
          "geometry": {
            "type": "Point",
            "coordinates": [
              11.5164545,
              47.3019368
            ]
          }
        },
        {
          "type": "Feature",
          "properties": {
            "id": "10722997659",
            "osm_type": "node",
            "lat": 47.0379739,
            "lon": 11.478853,
            "addr:city": "Gries am Brenner",
            "addr:country": "AT",
            "addr:housenumber": "73",
            "addr:postcode": "6156",
            "addr:street": "Dorf",
            "amenity": "post_office",
            "name": "Postamt",
            "source": "LT"
          },
          "geometry": {
            "type": "Point",
            "coordinates": [
              11.478853,
              47.0379739
            ]
          }
        },
        {
          "type": "Feature",
          "properties": {
            "id": "311554340",
            "osm_type": "node",
            "lat": 47.3041327,
            "lon": 11.6386566,
            "addr:city": "Kolsass",
            "addr:country": "AT",
            "addr:housenumber": "1",
            "addr:postcode": "6114",
            "addr:street": "Auweg",
            "amenity": "post_office",
            "name": "6114 Kolsass",
            "postal_code": "6114",
            "ref": "6114",
            "type": "Post.Partner"
          },
          "geometry": {
            "type": "Point",
            "coordinates": [
              11.6386566,
              47.3041327
            ]
          }
        },
        {
          "type": "Feature",
          "properties": {
            "id": "340516640",
            "osm_type": "node",
            "lat": 47.2336011,
            "lon": 11.8804059,
            "addr:city": "Zell am Ziller",
            "addr:country": "AT",
            "addr:housenumber": "2",
            "addr:postcode": "6280",
            "addr:street": "Unterdorf",
            "amenity": "post_office",
            "atm": "yes",
            "name": "6280 Zell am Ziller",
            "operator": "Österreichische Post AG",
            "ref": "6280",
            "type": "Postfiliale"
          },
          "geometry": {
            "type": "Point",
            "coordinates": [
              11.8804059,
              47.2336011
            ]
          }
        },
        {
          "type": "Feature",
          "properties": {
            "id": "360807829",
            "osm_type": "node",
            "lat": 47.2933188,
            "lon": 11.8846697,
            "amenity": "post_office",
            "wheelchair": "no"
          },
          "geometry": {
            "type": "Point",
            "coordinates": [
              11.8846697,
              47.2933188
            ]
          }
        },
        {
          "type": "Feature",
          "properties": {
            "id": "611191003",
            "osm_type": "node",
            "lat": 47.3265221,
            "lon": 11.8645297,
            "amenity": "post_office"
          },
          "geometry": {
            "type": "Point",
            "coordinates": [
              11.8645297,
              47.3265221
            ]
          }
        },
        {
          "type": "Feature",
          "properties": {
            "id": "1454034631",
            "osm_type": "node",
            "lat": 47.3460294,
            "lon": 11.7073648,
            "addr:city": "Schwaz",
            "addr:country": "AT",
            "addr:housenumber": "8",
            "addr:postcode": "6130",
            "addr:street": "Andreas-Hofer-Straße",
            "amenity": "post_office",
            "check_date:opening_hours": "2023-12-12",
            "level": "0",
            "name": "Post Filiale 6130",
            "opening_hours": "Mo-Fr 08:00-18:00, Sa 09:00-12:00",
            "website": "https://www.post.at",
            "wheelchair": "yes"
          },
          "geometry": {
            "type": "Point",
            "coordinates": [
              11.7073648,
              47.3460294
            ]
          }
        },
        {
          "type": "Feature",
          "properties": {
            "id": "1578630766",
            "osm_type": "node",
            "lat": 47.2906298,
            "lon": 11.5931386,
            "addr:city": "Wattens",
            "addr:country": "AT",
            "addr:housenumber": "5",
            "addr:postcode": "6112",
            "addr:street": "Mesnergasse",
            "amenity": "post_office",
            "name": "Post Filiale 6112",
            "opening_hours": "Mo-Fr 08:00-12:00,14:00-17:30; Sa,Su,PH off",
            "operator": "Österreichische Post AG",
            "operator:wikidata": "Q1763505",
            "website": "https://www.post.at",
            "wheelchair": "yes"
          },
          "geometry": {
            "type": "Point",
            "coordinates": [
              11.5931386,
              47.2906298
            ]
          }
        },
        {
          "type": "Feature",
          "properties": {
            "id": "1578630767",
            "osm_type": "node",
            "lat": 47.3409278,
            "lon": 11.6832399,
            "addr:city": "Vomp",
            "addr:country": "AT",
            "addr:housenumber": "26",
            "addr:postcode": "6134",
            "addr:street": "Dorf",
            "amenity": "post_office",
            "name": "6134 Vomp",
            "opening_hours": "Mo-Fr 08:00-12:00,14:00-18:00",
            "post_office": "post_partner",
            "ref": "6134"
          },
          "geometry": {
            "type": "Point",
            "coordinates": [
              11.6832399,
              47.3409278
            ]
          }
        },
        {
          "type": "Feature",
          "properties": {
            "id": "1578706197",
            "osm_type": "node",
            "lat": 47.2039332,
            "lon": 11.8670378,
            "addr:city": "Hippach",
            "addr:country": "AT",
            "addr:housenumber": "6",
            "addr:postcode": "6283",
            "addr:street": "Augasse",
            "amenity": "post_office",
            "name": "6283 Hippach",
            "ref": "6283",
            "type": "Post.Partner"
          },
          "geometry": {
            "type": "Point",
            "coordinates": [
              11.8670378,
              47.2039332
            ]
          }
        },
        {
          "type": "Feature",
          "properties": {
            "id": "1578706266",
            "osm_type": "node",
            "lat": 47.3423805,
            "lon": 11.8500963,
            "addr:city": "Fügen",
            "addr:country": "AT",
            "addr:housenumber": "10",
            "addr:postcode": "6263",
            "addr:street": "Franziskusweg",
            "amenity": "post_office",
            "name": "Post Filiale 6263",
            "opening_hours": "Mo-Fr 08:00-12:00,14:00-17:30; Sa,Su,PH off",
            "operator": "Österreichische Post AG",
            "operator:wikidata": "Q1763505",
            "website": "https://www.post.at"
          },
          "geometry": {
            "type": "Point",
            "coordinates": [
              11.8500963,
              47.3423805
            ]
          }
        },
        {
          "type": "Feature",
          "properties": {
            "id": "1623749090",
            "osm_type": "node",
            "lat": 47.2879714,
            "lon": 11.533,
            "addr:city": "Mils",
            "addr:country": "AT",
            "addr:housenumber": "4",
            "addr:postcode": "6068",
            "addr:street": "Unterdorf",
            "amenity": "post_office",
            "name": "6068 Mils",
            "postal_code": "6068",
            "ref": "6068",
            "type": "Post.Partner",
            "wheelchair": "yes"
          },
          "geometry": {
            "type": "Point",
            "coordinates": [
              11.533,
              47.2879714
            ]
          }
        },
        {
          "type": "Feature",
          "properties": {
            "id": "6145431231",
            "osm_type": "node",
            "lat": 47.3246688,
            "lon": 11.8643048,
            "amenity": "post_office",
            "name": "Trafik & Post",
            "shop": "kiosk"
          },
          "geometry": {
            "type": "Point",
            "coordinates": [
              11.8643048,
              47.3246688
            ]
          }
        },
        {
          "type": "Feature",
          "properties": {
            "id": "340515693",
            "osm_type": "node",
            "lat": 47.2257448,
            "lon": 12.0344953,
            "addr:city": "Gerlos",
            "addr:country": "AT",
            "addr:housenumber": "141",
            "addr:place": "Gerlos",
            "addr:postcode": "6281",
            "amenity": "post_office",
            "check_date:opening_hours": "2023-07-28",
            "name": "Post Filiale 6281",
            "opening_hours": "Mo-Fr 08:00-12:00; Sa,Su,PH off",
            "operator": "Österreichische Post AG",
            "operator:wikidata": "Q1763505",
            "operator:wikipedia": "de:Österreichische Post",
            "website": "https://www.post.at",
            "wheelchair": "no"
          },
          "geometry": {
            "type": "Point",
            "coordinates": [
              12.0344953,
              47.2257448
            ]
          }
        },
        {
          "type": "Feature",
          "properties": {
            "id": "2755928867",
            "osm_type": "node",
            "lat": 47.0386133,
            "lon": 12.1031992,
            "addr:city": "Prettau - Predoi",
            "addr:city:de": "Prettau",
            "addr:city:it": "Predoi",
            "addr:housenumber": "77",
            "addr:postcode": "39030",
            "addr:street": "Kirchdorf",
            "amenity": "post_office",
            "brand": "Poste Italiane",
            "brand:wikidata": "Q495026",
            "brand:wikipedia": "en:Poste italiane",
            "name": "Poste Italiane",
            "opening_hours": "Tu, Th 08:20-13:45, Sa 08:20-12:45; Mo, We, Fr, Su, PH off",
            "operator": "Poste Italiane",
            "operator:wikidata": "Q495026",
            "operator:wikipedia": "en:Poste italiane",
            "phone": "+39 0474 654129"
          },
          "geometry": {
            "type": "Point",
            "coordinates": [
              12.1031992,
              47.0386133
            ]
          }
        },
        {
          "type": "Feature",
          "properties": {
            "id": "4947805961",
            "osm_type": "node",
            "lat": 47.2538359,
            "lon": 12.2804901,
            "addr:city": "Neukirchen am Großvenediger",
            "addr:country": "AT",
            "addr:housenumber": "203",
            "addr:postcode": "5741",
            "addr:street": "Wildkogelbahnstraße",
            "amenity": "post_office",
            "phone": "+43 810 010100",
            "website": "https://www.post.at/"
          },
          "geometry": {
            "type": "Point",
            "coordinates": [
              12.2804901,
              47.2538359
            ]
          }
        },
        {
          "type": "Feature",
          "properties": {
            "id": "9631135752",
            "osm_type": "node",
            "lat": 47.2451673,
            "lon": 12.2300208,
            "addr:city": "Wald im Pinzgau",
            "addr:country": "AT",
            "addr:housenumber": "126",
            "addr:postcode": "5742",
            "addr:street": "Wald",
            "amenity": "post_office",
            "name": "Postpartner 5742, Tourismusverband",
            "opening_hours": "Mo-Fr 08:00-12:00,14:00-18:00; Sa off; Su off; PH off",
            "post_office": "post_partner"
          },
          "geometry": {
            "type": "Point",
            "coordinates": [
              12.2300208,
              47.2451673
            ]
          }
        }
      ],
      "children": []
    },
    {
      "bbox": {
        "south": 47.033758500000005,
        "west": 12.392062499999998,
        "north": 47.36431175,
        "east": 13.345766
      },
      "poiCount": 16,
      "leafCount": 16,
      "averagePosition": [
        12.9120865875,
        47.2588756625
      ],
      "data": [
        {
          "type": "Feature",
          "properties": {
            "id": "340515394",
            "osm_type": "node",
            "lat": 47.2880603,
            "lon": 12.5282325,
            "addr:city": "Stuhlfelden",
            "addr:country": "AT",
            "addr:housenumber": "11",
            "addr:postcode": "5724",
            "addr:street": "Dorf",
            "amenity": "post_office",
            "name": "Postpartner 5724, Gebrüder Altenberger",
            "post_office": "post_partner",
            "source": "https://www.post.at/"
          },
          "geometry": {
            "type": "Point",
            "coordinates": [
              12.5282325,
              47.2880603
            ]
          }
        },
        {
          "type": "Feature",
          "properties": {
            "id": "340516814",
            "osm_type": "node",
            "lat": 47.2799462,
            "lon": 12.481578,
            "addr:city": "Mittersill",
            "addr:country": "AT",
            "addr:housenumber": "2",
            "addr:postcode": "5730",
            "addr:street": "Poststraße",
            "amenity": "post_office",
            "name": "Post Filiale 5730",
            "opening_hours": "Mo-Fr 08:00-12:00, 14:00-17:30; Sa,Su,PH off",
            "operator": "Österreichische Post AG",
            "website": "https://www.post.at",
            "wheelchair": "yes"
          },
          "geometry": {
            "type": "Point",
            "coordinates": [
              12.481578,
              47.2799462
            ]
          }
        },
        {
          "type": "Feature",
          "properties": {
            "id": "340517156",
            "osm_type": "node",
            "lat": 47.0391458,
            "lon": 12.8440589,
            "addr:city": "Heiligenblut am Großglockner",
            "addr:country": "AT",
            "addr:housenumber": "38",
            "addr:postcode": "9844",
            "addr:street": "Hof",
            "amenity": "post_office",
            "name": "Postpartner 9844, Steinbock-Haus",
            "opening_hours": "Mo-Fr 09:00-13:00",
            "operator": "Tourismusverband",
            "post_office": "post_partner",
            "postal_code": "9844",
            "source": "https://www.post.at/",
            "website": "https://www.post.at/sf/standortfinder"
          },
          "geometry": {
            "type": "Point",
            "coordinates": [
              12.8440589,
              47.0391458
            ]
          }
        },
        {
          "type": "Feature",
          "properties": {
            "id": "340517164",
            "osm_type": "node",
            "lat": 47.3058902,
            "lon": 12.7929399,
            "addr:city": "Zell am See",
            "addr:country": "AT",
            "addr:housenumber": "35",
            "addr:postcode": "5700",
            "addr:street": "Brucker Bundesstraße",
            "amenity": "post_office",
            "branch": "5702 Zell am See",
            "name": "Postpartner 5702",
            "opening_hours": "Mo-Fr 08:00-12:30 13:30-17:00",
            "operator": "Latzer Grafik & Druck GmbH",
            "post_office": "post_partner",
            "postal_code": "5702",
            "source": "https://www.post.at/"
          },
          "geometry": {
            "type": "Point",
            "coordinates": [
              12.7929399,
              47.3058902
            ]
          }
        },
        {
          "type": "Feature",
          "properties": {
            "id": "340519563",
            "osm_type": "node",
            "lat": 47.29333,
            "lon": 12.9695894,
            "addr:city": "Taxenbach",
            "addr:country": "AT",
            "addr:housenumber": "8",
            "addr:postcode": "5660",
            "addr:street": "Bundesstraße",
            "amenity": "post_office",
            "name": "Postpartner 5660, Raumausstattung Schwab",
            "post_office": "post_partner",
            "postal_code": "5660",
            "source": "https://www.post.at/"
          },
          "geometry": {
            "type": "Point",
            "coordinates": [
              12.9695894,
              47.29333
            ]
          }
        },
        {
          "type": "Feature",
          "properties": {
            "id": "350602531",
            "osm_type": "node",
            "lat": 47.3611078,
            "lon": 12.8052944,
            "amenity": "post_office",
            "name": "5751 Maishofen"
          },
          "geometry": {
            "type": "Point",
            "coordinates": [
              12.8052944,
              47.3611078
            ]
          }
        },
        {
          "type": "Feature",
          "properties": {
            "id": "1713149357",
            "osm_type": "node",
            "lat": 47.2714239,
            "lon": 12.7581868,
            "amenity": "post_office",
            "name": "Post Kaprun",
            "opening_hours": "Mo-Fr 08:00-12:30,14:00-17:30"
          },
          "geometry": {
            "type": "Point",
            "coordinates": [
              12.7581868,
              47.2714239
            ]
          }
        },
        {
          "type": "Feature",
          "properties": {
            "id": "2074585854",
            "osm_type": "node",
            "lat": 47.323677,
            "lon": 12.7960925,
            "addr:city": "Zell am See",
            "addr:country": "AT",
            "addr:housename": "Postamt",
            "addr:housenumber": "4",
            "addr:postcode": "5700",
            "addr:street": "Postplatz",
            "amenity": "post_office",
            "name": "Post Filiale 5700",
            "opening_hours": "Mo-Fr 08:00-12:00,13:30-17:30",
            "operator": "Österreichische Post AG",
            "operator:wikidata": "Q1763505",
            "website": "https://www.post.at",
            "wheelchair": "yes"
          },
          "geometry": {
            "type": "Point",
            "coordinates": [
              12.7960925,
              47.323677
            ]
          }
        },
        {
          "type": "Feature",
          "properties": {
            "id": "2994050376",
            "osm_type": "node",
            "lat": 47.2272551,
            "lon": 12.9943254,
            "amenity": "post_office",
            "name": "Post Partner",
            "wheelchair": "yes"
          },
          "geometry": {
            "type": "Point",
            "coordinates": [
              12.9943254,
              47.2272551
            ]
          }
        },
        {
          "type": "Feature",
          "properties": {
            "id": "3481069835",
            "osm_type": "node",
            "lat": 47.2842523,
            "lon": 12.5718952,
            "addr:city": "Uttendorf",
            "addr:country": "AT",
            "addr:housenumber": "2",
            "addr:postcode": "5723",
            "addr:street": "Lindenplatz",
            "amenity": "post_office",
            "collection_times": "Mo-Fr 08:00-12:00,14:00-17:30; Sa 08:00-12:00; PH,Su off",
            "name": "Post Partner Uttendorf"
          },
          "geometry": {
            "type": "Point",
            "coordinates": [
              12.5718952,
              47.2842523
            ]
          }
        },
        {
          "type": "Feature",
          "properties": {
            "id": "340515906",
            "osm_type": "node",
            "lat": 47.348918,
            "lon": 13.2017997,
            "addr:city": "St. Johann im Pongau",
            "addr:country": "AT",
            "addr:housenumber": "28",
            "addr:postcode": "5600",
            "addr:street": "Hauptstraße",
            "amenity": "post_office",
            "name": "Post Filiale 5600",
            "opening_hours": "PH,Sa,Su off; Mo-Fr 08:00-12:00,14:00-17:30",
            "operator": "Österreichische Post AG",
            "operator:wikidata": "Q1763505",
            "website": "https://www.post.at",
            "wheelchair": "yes"
          },
          "geometry": {
            "type": "Point",
            "coordinates": [
              13.2017997,
              47.348918
            ]
          }
        },
        {
          "type": "Feature",
          "properties": {
            "id": "340516698",
            "osm_type": "node",
            "lat": 47.1699992,
            "lon": 13.1074972,
            "addr:city": "Bad Hofgastein",
            "addr:housenumber": "4",
            "addr:postcode": "5630",
            "addr:street": "Postgasse",
            "amenity": "post_office",
            "name": "Post Filiale 5630",
            "opening_hours": "Mo-Fr 08:00-12:00, 14:00-17:30; Sa,Su,PH off",
            "operator": "Österreichische Post AG",
            "operator:wikidata": "Q1763505",
            "operator:wikipedia": "de:Österreichische Post",
            "website": "https://www.post.at"
          },
          "geometry": {
            "type": "Point",
            "coordinates": [
              13.1074972,
              47.1699992
            ]
          }
        },
        {
          "type": "Feature",
          "properties": {
            "id": "1712578953",
            "osm_type": "node",
            "lat": 47.2406313,
            "lon": 13.1047857,
            "amenity": "post_office"
          },
          "geometry": {
            "type": "Point",
            "coordinates": [
              13.1047857,
              47.2406313
            ]
          }
        },
        {
          "type": "Feature",
          "properties": {
            "id": "2096596539",
            "osm_type": "node",
            "lat": 47.3203505,
            "lon": 13.1502089,
            "addr:city": "Schwarzach im Pongau",
            "addr:country": "AT",
            "addr:housenumber": "24",
            "addr:postcode": "5620",
            "addr:street": "Salzburgerstraße",
            "amenity": "post_office",
            "check_date": "2024-11-01",
            "name": "Post Filiale 5620",
            "opening_hours": "Mo-Fr 08:00-12:00, 14:00-17:30; Sa,Su,PH off",
            "operator": "Österreichische Post AG",
            "website": "https://www.post.at"
          },
          "geometry": {
            "type": "Point",
            "coordinates": [
              13.1502089,
              47.3203505
            ]
          }
        },
        {
          "type": "Feature",
          "properties": {
            "id": "3649462339",
            "osm_type": "node",
            "lat": 47.1471538,
            "lon": 13.2866978,
            "amenity": "post_office"
          },
          "geometry": {
            "type": "Point",
            "coordinates": [
              13.2866978,
              47.1471538
            ]
          }
        },
        {
          "type": "Feature",
          "properties": {
            "id": "5833136051",
            "osm_type": "node",
            "lat": 47.2408692,
            "lon": 13.2002031,
            "amenity": "post_office",
            "name": "Postpartner Großarl",
            "opening_hours": "Mo-Fr 08:00-12:00; Sa,Su,PH off"
          },
          "geometry": {
            "type": "Point",
            "coordinates": [
              13.2002031,
              47.2408692
            ]
          }
        }
      ],
      "children": []
    },
    {
      "bbox": {
        "south": 47.36431175,
        "west": 11.438358999999998,
        "north": 47.694865,
        "east": 12.392062499999998
      },
      "poiCount": 42,
      "leafCount": 42,
      "averagePosition": [
        12.053920657142857,
        47.507639995238094
      ],
      "data": [
        {
          "type": "Feature",
          "properties": {
            "id": "323209726",
            "osm_type": "node",
            "lat": 47.6807323,
            "lon": 11.57637,
            "amenity": "post_office",
            "name": "Das Senftöpfchen",
            "opening_hours": "Mo-Fr 09:00-13:00, Sa 09:00-12:00, Mo-Fr 15:00-18:00"
          },
          "geometry": {
            "type": "Point",
            "coordinates": [
              11.57637,
              47.6807323
            ]
          }
        },
        {
          "type": "Feature",
          "properties": {
            "id": "759843927",
            "osm_type": "node",
            "lat": 47.4044059,
            "lon": 11.7977424,
            "amenity": "post_office"
          },
          "geometry": {
            "type": "Point",
            "coordinates": [
              11.7977424,
              47.4044059
            ]
          }
        },
        {
          "type": "Feature",
          "properties": {
            "id": "956253318",
            "osm_type": "node",
            "lat": 47.3975959,
            "lon": 11.9456062,
            "amenity": "post_office"
          },
          "geometry": {
            "type": "Point",
            "coordinates": [
              11.9456062,
              47.3975959
            ]
          }
        },
        {
          "type": "Feature",
          "properties": {
            "id": "1379719548",
            "osm_type": "node",
            "lat": 47.4442985,
            "lon": 11.8878785,
            "addr:city": "Kramsach",
            "addr:country": "AT",
            "addr:housenumber": "54",
            "addr:place": "Zentrum",
            "addr:postcode": "6233",
            "amenity": "post_office",
            "post_office": "post_partner"
          },
          "geometry": {
            "type": "Point",
            "coordinates": [
              11.8878785,
              47.4442985
            ]
          }
        },
        {
          "type": "Feature",
          "properties": {
            "id": "1379721894",
            "osm_type": "node",
            "lat": 47.444299,
            "lon": 11.8878834,
            "amenity": "post_office"
          },
          "geometry": {
            "type": "Point",
            "coordinates": [
              11.8878834,
              47.444299
            ]
          }
        },
        {
          "type": "Feature",
          "properties": {
            "id": "1578630770",
            "osm_type": "node",
            "lat": 47.3915746,
            "lon": 11.7721084,
            "addr:city": "Jenbach",
            "addr:country": "AT",
            "addr:housenumber": "3",
            "addr:postcode": "6200",
            "addr:street": "Südtiroler Platz",
            "amenity": "post_office",
            "name": "Post Filiale 6200",
            "opening_hours": "Mo-Fr 08:00-12:00, 14:00-17:30; Sa,Su,PH off",
            "operator": "Österreichische Post AG",
            "operator:wikidata": "Q1763505",
            "website": "https://www.post.at"
          },
          "geometry": {
            "type": "Point",
            "coordinates": [
              11.7721084,
              47.3915746
            ]
          }
        },
        {
          "type": "Feature",
          "properties": {
            "id": "1578630771",
            "osm_type": "node",
            "lat": 47.5262948,
            "lon": 11.70716,
            "amenity": "post_office",
            "name": "6215 Achenkirch",
            "postal_code": "6215",
            "ref": "6215",
            "type": "Post.Partner"
          },
          "geometry": {
            "type": "Point",
            "coordinates": [
              11.70716,
              47.5262948
            ]
          }
        },
        {
          "type": "Feature",
          "properties": {
            "id": "1578706277",
            "osm_type": "node",
            "lat": 47.3958965,
            "lon": 11.8177723,
            "amenity": "post_office",
            "name": "154",
            "postal_code": "6261",
            "ref": "6261",
            "type": "Post.Partner"
          },
          "geometry": {
            "type": "Point",
            "coordinates": [
              11.8177723,
              47.3958965
            ]
          }
        },
        {
          "type": "Feature",
          "properties": {
            "id": "1578706296",
            "osm_type": "node",
            "lat": 47.4397884,
            "lon": 11.8942507,
            "addr:city": "Rattenberg",
            "addr:country": "AT",
            "addr:housenumber": "10",
            "addr:postcode": "6240",
            "addr:street": "Bienerstraße",
            "amenity": "post_office",
            "name": "6240 Rattenberg",
            "postal_code": "6240",
            "ref": "6240",
            "type": "Post.Partner"
          },
          "geometry": {
            "type": "Point",
            "coordinates": [
              11.8942507,
              47.4397884
            ]
          }
        },
        {
          "type": "Feature",
          "properties": {
            "id": "1578706297",
            "osm_type": "node",
            "lat": 47.4789665,
            "lon": 11.9741522,
            "addr:city": "Breitenbach am Inn",
            "addr:country": "AT",
            "addr:housenumber": "95",
            "addr:postcode": "6252",
            "addr:street": "Dorf",
            "amenity": "post_office",
            "name": "6252 Breitenbach am Inn",
            "ref": "6252",
            "type": "Post.Partner"
          },
          "geometry": {
            "type": "Point",
            "coordinates": [
              11.9741522,
              47.4789665
            ]
          }
        },
        {
          "type": "Feature",
          "properties": {
            "id": "1586259654",
            "osm_type": "node",
            "lat": 47.4223315,
            "lon": 11.7518746,
            "addr:city": "Maurach",
            "addr:country": "AT",
            "addr:housenumber": "13",
            "addr:postcode": "6212",
            "addr:street": "Dorfstraße",
            "amenity": "post_office",
            "name": "6212 Maurach",
            "postal_code": "6212",
            "ref": "6212",
            "source": "GeoImage.at",
            "type": "Post.Partner"
          },
          "geometry": {
            "type": "Point",
            "coordinates": [
              11.7518746,
              47.4223315
            ]
          }
        },
        {
          "type": "Feature",
          "properties": {
            "id": "3016282256",
            "osm_type": "node",
            "lat": 47.3980631,
            "lon": 11.9414439,
            "amenity": "post_office",
            "name": "Post",
            "opening_hours": "Mo-Fr 07:00-12:00,14:00-18:00"
          },
          "geometry": {
            "type": "Point",
            "coordinates": [
              11.9414439,
              47.3980631
            ]
          }
        },
        {
          "type": "Feature",
          "properties": {
            "id": "4447224962",
            "osm_type": "node",
            "lat": 47.4231946,
            "lon": 11.7499012,
            "amenity": "post_office",
            "name": "Postamt"
          },
          "geometry": {
            "type": "Point",
            "coordinates": [
              11.7499012,
              47.4231946
            ]
          }
        },
        {
          "type": "Feature",
          "properties": {
            "id": "5630498902",
            "osm_type": "node",
            "lat": 47.6745737,
            "lon": 12.0112592,
            "amenity": "post_office",
            "operator": "Elektro Berger",
            "post_office:type": "post_partner"
          },
          "geometry": {
            "type": "Point",
            "coordinates": [
              12.0112592,
              47.6745737
            ]
          }
        },
        {
          "type": "Feature",
          "properties": {
            "id": "5846263344",
            "osm_type": "node",
            "lat": 47.4711425,
            "lon": 11.9821771,
            "addr:city": "Kundl",
            "addr:country": "AT",
            "addr:housenumber": "23",
            "addr:postcode": "6250",
            "addr:street": "Dr. Hans-Bachmann-Straße",
            "amenity": "post_office",
            "at_bev:addr_date": "2017-10-01",
            "name": "Postpartner",
            "opening_hours": "Mo-Fr 08:00-12:00,14:30-18:00; Sa 08:00-12:00",
            "operator": "Günther Mayr"
          },
          "geometry": {
            "type": "Point",
            "coordinates": [
              11.9821771,
              47.4711425
            ]
          }
        },
        {
          "type": "Feature",
          "properties": {
            "id": "7589355119",
            "osm_type": "node",
            "lat": 47.4318874,
            "lon": 11.8792447,
            "addr:city": "Brixlegg",
            "addr:country": "AT",
            "addr:housenumber": "13",
            "addr:postcode": "6230",
            "addr:street": "Marktstraße",
            "amenity": "post_office",
            "name": "Post Filiale 6230",
            "opening_hours": "Mo-Fr 08:00-12:00, 14:00-17:30; Sa,Su,PH off",
            "operator": "Österreichische Post AG",
            "website": "https://www.post.at"
          },
          "geometry": {
            "type": "Point",
            "coordinates": [
              11.8792447,
              47.4318874
            ]
          }
        },
        {
          "type": "Feature",
          "properties": {
            "id": "8113002242",
            "osm_type": "node",
            "lat": 47.4213395,
            "lon": 11.8336064,
            "amenity": "post_office",
            "name": "Postpartner 6232"
          },
          "geometry": {
            "type": "Point",
            "coordinates": [
              11.8336064,
              47.4213395
            ]
          }
        },
        {
          "type": "Feature",
          "properties": {
            "id": "27288759",
            "osm_type": "node",
            "lat": 47.5093747,
            "lon": 12.0841335,
            "addr:city": "Kirchbichl",
            "addr:country": "AT",
            "addr:housenumber": "10",
            "addr:postcode": "6322",
            "addr:street": "Tirolerstraße",
            "amenity": "post_office",
            "name": "6322 Kirchbichl",
            "ref": "6322",
            "type": "post.partner"
          },
          "geometry": {
            "type": "Point",
            "coordinates": [
              12.0841335,
              47.5093747
            ]
          }
        },
        {
          "type": "Feature",
          "properties": {
            "id": "260784570",
            "osm_type": "node",
            "lat": 47.4886602,
            "lon": 12.0692173,
            "addr:city": "Wörgl",
            "addr:country": "AT",
            "addr:housenumber": "32",
            "addr:postcode": "6300",
            "addr:street": "Salzburger Straße",
            "amenity": "post_office",
            "level": "0",
            "name": "Post Filiale 6300",
            "opening_hours": "Mo-Fr 08:00-18:30; Sa 09:00-18:00; Su,PH off",
            "operator": "Österreichische Post AG",
            "operator:wikidata": "Q1763505",
            "website": "https://www.post.at",
            "wheelchair": "yes"
          },
          "geometry": {
            "type": "Point",
            "coordinates": [
              12.0692173,
              47.4886602
            ]
          }
        },
        {
          "type": "Feature",
          "properties": {
            "id": "340515653",
            "osm_type": "node",
            "lat": 47.5825203,
            "lon": 12.1710282,
            "addr:city": "Kufstein",
            "addr:country": "AT",
            "addr:housenumber": "5b",
            "addr:postcode": "6330",
            "addr:street": "Oberer Stadtplatz",
            "amenity": "post_office",
            "check_date": "2024-12-14",
            "name": "Post Filiale 6330",
            "opening_hours": "Mo 09:00-12:00, 13:30-18:00; Tu-Fr 09:00-12:00, 13:30-17:30; Sa 09:00-12:00; PH off",
            "operator": "Österreichische Post AG",
            "operator:wikidata": "Q1763505",
            "operator:wikipedia": "de:Österreichische Post",
            "website": "https://www.post.at"
          },
          "geometry": {
            "type": "Point",
            "coordinates": [
              12.1710282,
              47.5825203
            ]
          }
        },
        {
          "type": "Feature",
          "properties": {
            "id": "340519535",
            "osm_type": "node",
            "lat": 47.4428066,
            "lon": 12.0482432,
            "addr:city": "Wildschönau",
            "addr:country": "AT",
            "addr:housenumber": "481",
            "addr:postcode": "6311",
            "addr:street": "Kirchen",
            "addr:suburb": "Oberau",
            "amenity": "post_office",
            "name": "6311 Wildschönau-Oberau",
            "note": "Post Partner in Spar",
            "ref": "6311",
            "source": "geoimage.at",
            "type": "Post.Partner",
            "website": "https://www.post.at/"
          },
          "geometry": {
            "type": "Point",
            "coordinates": [
              12.0482432,
              47.4428066
            ]
          }
        },
        {
          "type": "Feature",
          "properties": {
            "id": "1039046943",
            "osm_type": "node",
            "lat": 47.4098451,
            "lon": 12.0377052,
            "amenity": "post_office",
            "description": "Post Partner in Spar",
            "name": "Wildschönau-Auffach",
            "postal_code": "6313",
            "ref": "6313",
            "type": "Post.Partner",
            "website": "https://www.post.at/"
          },
          "geometry": {
            "type": "Point",
            "coordinates": [
              12.0377052,
              47.4098451
            ]
          }
        },
        {
          "type": "Feature",
          "properties": {
            "id": "1264426789",
            "osm_type": "node",
            "lat": 47.649476,
            "lon": 12.1710104,
            "amenity": "post_office",
            "collection_times": "Mo-Fr 15:00,15:45; Sa 11:00",
            "operator": "Deutsche Post",
            "operator:wikidata": "Q157645"
          },
          "geometry": {
            "type": "Point",
            "coordinates": [
              12.1710104,
              47.649476
            ]
          }
        },
        {
          "type": "Feature",
          "properties": {
            "id": "1578667052",
            "osm_type": "node",
            "lat": 47.6127341,
            "lon": 12.1886243,
            "addr:city": "Kiefersfelden",
            "addr:country": "DE",
            "addr:housenumber": "24",
            "addr:postcode": "83088",
            "addr:street": "Kufsteiner Straße",
            "amenity": "post_office",
            "name": "Deutsche Post Filiale",
            "opening_hours": "Mo-Fr 09:00-18:00",
            "operator": "Deutsche Post",
            "operator:wikidata": "Q157645"
          },
          "geometry": {
            "type": "Point",
            "coordinates": [
              12.1886243,
              47.6127341
            ]
          }
        },
        {
          "type": "Feature",
          "properties": {
            "id": "1578706299",
            "osm_type": "node",
            "lat": 47.5944192,
            "lon": 12.1172232,
            "amenity": "post_office",
            "name": "6335 Thiersee",
            "postal_code": "6335",
            "ref": "6335",
            "type": "Post.Partner"
          },
          "geometry": {
            "type": "Point",
            "coordinates": [
              12.1172232,
              47.5944192
            ]
          }
        },
        {
          "type": "Feature",
          "properties": {
            "id": "1578706437",
            "osm_type": "node",
            "lat": 47.6490635,
            "lon": 12.311788,
            "amenity": "post_office",
            "name": "Post Walchsee",
            "opening_hours": "Mo-Fr 07:30-13:00, 14:00-18:00; Sa 07:30-12:00",
            "operator": "Österreichische Post AG",
            "operator:wikidata": "Q1763505",
            "operator:wikipedia": "de:Österreichische Post",
            "postal_code": "6344",
            "ref": "6344",
            "type": "Post.Partner",
            "website": "https://6344.post.at/"
          },
          "geometry": {
            "type": "Point",
            "coordinates": [
              12.311788,
              47.6490635
            ]
          }
        },
        {
          "type": "Feature",
          "properties": {
            "id": "1578759386",
            "osm_type": "node",
            "lat": 47.4998436,
            "lon": 12.3850706,
            "amenity": "post_office",
            "check_date:opening_hours": "2023-09-02",
            "name": "Postpartner 6372 Oberndorf in Tirol",
            "name:at": "Postpartner 6372 Oberndorf in Tirol",
            "name:en": "Post Office 6372 Oberndorf in Tirol",
            "opening_hours": "Mo-Fr 07:00-12:00,14:00-18:00; Sa 08:00-12:00",
            "post_office": "post_partner",
            "postal_code": "6372",
            "ref": "6372",
            "website": "https://6372.post.at/",
            "wheelchair": "yes"
          },
          "geometry": {
            "type": "Point",
            "coordinates": [
              12.3850706,
              47.4998436
            ]
          }
        },
        {
          "type": "Feature",
          "properties": {
            "id": "1586767077",
            "osm_type": "node",
            "lat": 47.6321866,
            "lon": 12.391324,
            "addr:country": "AT",
            "addr:housenumber": "18",
            "addr:postcode": "6385",
            "addr:street": "Dorfstraße",
            "amenity": "post_office",
            "opening_hours": "Mo-Fr 06:30-18:30; Sa 06:30-13:00; Su 07:00-11:00",
            "operator": "Österreichische Post AG",
            "operator:wikidata": "Q1763505",
            "postal_code": "6385",
            "ref": "6385",
            "type": "Post.Partner",
            "website": "https://6385.post.at/"
          },
          "geometry": {
            "type": "Point",
            "coordinates": [
              12.391324,
              47.6321866
            ]
          }
        },
        {
          "type": "Feature",
          "properties": {
            "id": "1597297632",
            "osm_type": "node",
            "lat": 47.5279007,
            "lon": 12.2501309,
            "amenity": "post_office",
            "name": "6351 Scheffau am Wilden Kaiser",
            "opening_hours": "Mo-Fr 09:00-17:30",
            "postal_code": "6351",
            "ref": "6351",
            "type": "Post.Partner"
          },
          "geometry": {
            "type": "Point",
            "coordinates": [
              12.2501309,
              47.5279007
            ]
          }
        },
        {
          "type": "Feature",
          "properties": {
            "id": "1691979879",
            "osm_type": "node",
            "lat": 47.5100636,
            "lon": 12.1195205,
            "amenity": "post_office",
            "collection_times": "Mo-Fr 12:00"
          },
          "geometry": {
            "type": "Point",
            "coordinates": [
              12.1195205,
              47.5100636
            ]
          }
        },
        {
          "type": "Feature",
          "properties": {
            "id": "1711381078",
            "osm_type": "node",
            "lat": 47.5111568,
            "lon": 12.0853113,
            "addr:city": "Kirchbichl",
            "addr:country": "AT",
            "addr:housenumber": "23",
            "addr:postcode": "6322",
            "addr:street": "Tirolerstraße",
            "amenity": "post_office",
            "contact:website": "http://www.mysensation.at/",
            "name": "mySensation",
            "opening_hours": "Mo-Fr 09:00-12:00, 14:00-18:00; Sa 09:00-14:00; Su,PH off",
            "operator": "Ing. Thomas Huber Bau- und Möbeltischlerei GmbH",
            "post_office": "post_partner",
            "ref": "6322",
            "shop": "furniture"
          },
          "geometry": {
            "type": "Point",
            "coordinates": [
              12.0853113,
              47.5111568
            ]
          }
        },
        {
          "type": "Feature",
          "properties": {
            "id": "1798590071",
            "osm_type": "node",
            "lat": 47.4496574,
            "lon": 12.2562946,
            "amenity": "post_office",
            "name": "Kofler"
          },
          "geometry": {
            "type": "Point",
            "coordinates": [
              12.2562946,
              47.4496574
            ]
          }
        },
        {
          "type": "Feature",
          "properties": {
            "id": "2197611352",
            "osm_type": "node",
            "lat": 47.515884,
            "lon": 12.3186883,
            "amenity": "post_office",
            "name": "Postpartner 6353 Going",
            "name:de": "Postpartner",
            "name:en": "Post Office 6353 Going",
            "opening_hours": "Mo-Fr 07:00-20:00; Sa 08:00-12:00",
            "website": "https://6353.post.at/"
          },
          "geometry": {
            "type": "Point",
            "coordinates": [
              12.3186883,
              47.515884
            ]
          }
        },
        {
          "type": "Feature",
          "properties": {
            "id": "2990760047",
            "osm_type": "node",
            "lat": 47.5885284,
            "lon": 12.163924,
            "amenity": "post_office",
            "name": "Zustellbasis Post"
          },
          "geometry": {
            "type": "Point",
            "coordinates": [
              12.163924,
              47.5885284
            ]
          }
        },
        {
          "type": "Feature",
          "properties": {
            "id": "3345286993",
            "osm_type": "node",
            "lat": 47.4521584,
            "lon": 12.1535785,
            "addr:city": "Hopfgarten im Brixental",
            "addr:country": "AT",
            "addr:housenumber": "4a",
            "addr:postcode": "6361",
            "addr:street": "Bahnhofstraße",
            "amenity": "post_office",
            "fixme": "genaue Lage",
            "loc_name": "Post Partner 6361",
            "name": "Postpartner 6361",
            "note": "Tabak Trafik, Bahnhofstr. 4",
            "opening_hours": "Mo-Fr 06:45-18:00; Sa 08:00-13:00",
            "wheelchair": "yes"
          },
          "geometry": {
            "type": "Point",
            "coordinates": [
              12.1535785,
              47.4521584
            ]
          }
        },
        {
          "type": "Feature",
          "properties": {
            "id": "3345288569",
            "osm_type": "node",
            "lat": 47.3903236,
            "lon": 12.1342083,
            "amenity": "post_office",
            "loc_name": "Post Partner 6362 Kelchsau",
            "note": "Nah & Frisch, Unterdorf 52"
          },
          "geometry": {
            "type": "Point",
            "coordinates": [
              12.1342083,
              47.3903236
            ]
          }
        },
        {
          "type": "Feature",
          "properties": {
            "id": "3808144497",
            "osm_type": "node",
            "lat": 47.6159425,
            "lon": 12.1944534,
            "amenity": "post_office",
            "name": "D-A-Packs",
            "website": "https://www.d-a-packs.at/"
          },
          "geometry": {
            "type": "Point",
            "coordinates": [
              12.1944534,
              47.6159425
            ]
          }
        },
        {
          "type": "Feature",
          "properties": {
            "id": "4569555582",
            "osm_type": "node",
            "lat": 47.6333191,
            "lon": 12.214492,
            "amenity": "post_office",
            "name": "Postpartner 6341",
            "opening_hours": "Mo-Fr 08:00-16:00; Sa 08:00-12:00",
            "website": "https://6341.post.at/"
          },
          "geometry": {
            "type": "Point",
            "coordinates": [
              12.214492,
              47.6333191
            ]
          }
        },
        {
          "type": "Feature",
          "properties": {
            "id": "4777573823",
            "osm_type": "node",
            "lat": 47.4494541,
            "lon": 12.3898486,
            "addr:city": "Kitzbühel",
            "addr:country": "AT",
            "addr:housename": "Postamt",
            "addr:housenumber": "11",
            "addr:postcode": "6370",
            "addr:street": "Josef-Pirchl-Straße",
            "amenity": "post_office",
            "check_date": "2024-11-02",
            "name": "Post Filiale 6370",
            "opening_hours": "Mo-Fr 08:00-18:00; Sa,Su,PH off",
            "operator": "Österreichische Post AG",
            "operator:wikidata": "Q1763505",
            "operator:wikipedia": "de:Österreichische Post",
            "website": "https://www.post.at",
            "wheelchair": "yes",
            "wikidata": "Q105427041"
          },
          "geometry": {
            "type": "Point",
            "coordinates": [
              12.3898486,
              47.4494541
            ]
          }
        },
        {
          "type": "Feature",
          "properties": {
            "id": "4777791022",
            "osm_type": "node",
            "lat": 47.513512,
            "lon": 12.3056194,
            "amenity": "post_office",
            "name": "Postpartner 6352",
            "name:de": "Postpartner 6352",
            "opening_hours": "Mo-Fr 08:00-12:30, 14:00-18:00; Sa 08:30-12:00",
            "website": "https://6352.post.at/"
          },
          "geometry": {
            "type": "Point",
            "coordinates": [
              12.3056194,
              47.513512
            ]
          }
        },
        {
          "type": "Feature",
          "properties": {
            "id": "5853847092",
            "osm_type": "node",
            "lat": 47.5940319,
            "lon": 12.1195055,
            "amenity": "post_office"
          },
          "geometry": {
            "type": "Point",
            "coordinates": [
              12.1195055,
              47.5940319
            ]
          }
        },
        {
          "type": "Feature",
          "properties": {
            "id": "12146104901",
            "osm_type": "node",
            "lat": 47.6516327,
            "lon": 12.1732932,
            "amenity": "post_office",
            "operator": "Hermes",
            "operator:wikidata": "Q1613532"
          },
          "geometry": {
            "type": "Point",
            "coordinates": [
              12.1732932,
              47.6516327
            ]
          }
        }
      ],
      "children": []
    },
    {
      "bbox": {
        "south": 47.36431175,
        "west": 12.392062499999998,
        "north": 47.694865,
        "east": 13.345766
      },
      "poiCount": 27,
      "leafCount": 27,
      "averagePosition": [
        12.86124,
        47.54324438518519
      ],
      "data": [
        {
          "type": "Feature",
          "properties": {
            "id": "1261913980",
            "osm_type": "node",
            "lat": 47.5757326,
            "lon": 12.4777301,
            "amenity": "post_office",
            "check_date": "2023-08-23",
            "name": "Postpartner 6383 Erpfendorf",
            "name:en": "Post Office 6383 Erpfendorf",
            "opening_hours": "Mo-Fr 08:00-12:00",
            "postal_code": "6383",
            "ref": "6383",
            "type": "Post.Partner",
            "website": "https://6383.post.at/"
          },
          "geometry": {
            "type": "Point",
            "coordinates": [
              12.4777301,
              47.5757326
            ]
          }
        },
        {
          "type": "Feature",
          "properties": {
            "id": "1336698748",
            "osm_type": "node",
            "lat": 47.557375,
            "lon": 12.4462453,
            "amenity": "post_office",
            "check_date": "2023-08-23",
            "contact:phone": "+43 5352 6933",
            "contact:website": "http://6382.post.at",
            "name": "Postpartner 6382 Kirchdorf in Tirol",
            "name:en": "Post office 6382 Kirchdorf in Tirol",
            "opening_hours": "Mo-Fr 08:00-12:00, 13:00-17:00",
            "postal_code": "6382",
            "ref": "6382",
            "type": "Post.Partner"
          },
          "geometry": {
            "type": "Point",
            "coordinates": [
              12.4462453,
              47.557375
            ]
          }
        },
        {
          "type": "Feature",
          "properties": {
            "id": "1578759418",
            "osm_type": "node",
            "lat": 47.3804456,
            "lon": 12.4188769,
            "amenity": "post_office",
            "name": "6373 Jochberg",
            "postal_code": "6373",
            "ref": "6373",
            "type": "Post.Partner"
          },
          "geometry": {
            "type": "Point",
            "coordinates": [
              12.4188769,
              47.3804456
            ]
          }
        },
        {
          "type": "Feature",
          "properties": {
            "id": "2540132870",
            "osm_type": "node",
            "lat": 47.522374,
            "lon": 12.4280613,
            "addr:city": "St. Johann in Tirol",
            "addr:country": "AT",
            "addr:housenumber": "11",
            "addr:postcode": "6380",
            "addr:street": "Hauptplatz",
            "amenity": "post_office",
            "name": "Post Filiale 6380",
            "opening_hours": "Mo-Fr 08:00-12:00, 14:00-17:30; Sa,Su,PH off",
            "operator": "Österreichische Post AG",
            "operator:wikidata": "Q1763505",
            "operator:wikipedia": "de:Österreichische Post",
            "website": "https://www.post.at",
            "wheelchair": "yes"
          },
          "geometry": {
            "type": "Point",
            "coordinates": [
              12.4280613,
              47.522374
            ]
          }
        },
        {
          "type": "Feature",
          "properties": {
            "id": "7859582584",
            "osm_type": "node",
            "lat": 47.6666355,
            "lon": 12.4043302,
            "amenity": "post_office",
            "email": "info@ollister.at",
            "name": "Ollister",
            "opening_hours": "Mo,Tu,Th 08:00-12:30,14:00-16:00; We 09:00-12:30,14:00-16:00; Fr 08:00-12:30,14:00-16:00; PH off",
            "operator": "Olli Schmidt",
            "phone": "+43 664 1616728",
            "shop": "copyshop",
            "website": "https://www.ollister.at"
          },
          "geometry": {
            "type": "Point",
            "coordinates": [
              12.4043302,
              47.6666355
            ]
          }
        },
        {
          "type": "Feature",
          "properties": {
            "id": "10300259549",
            "osm_type": "node",
            "lat": 47.6777347,
            "lon": 12.4706491,
            "amenity": "post_office",
            "name": "Deutsche Post Shop München GmbH",
            "opening_hours": "Tu-Fr 15:00-17:00; Sa 10:00-12:00; Mo,Su,PH off",
            "post_office": "post_annex",
            "post_office:brand": "Deutsche Post",
            "post_office:service_provider": "Deutsche Post",
            "post_office:service_provider:wikidata": "Q157645"
          },
          "geometry": {
            "type": "Point",
            "coordinates": [
              12.4706491,
              47.6777347
            ]
          }
        },
        {
          "type": "Feature",
          "properties": {
            "id": "340515881",
            "osm_type": "node",
            "lat": 47.5275162,
            "lon": 12.5741526,
            "amenity": "post_office",
            "name": "6393 St. Ulrich am Pillersee",
            "opening_hours": "Mo-Fr 08:00-16:00",
            "postal_code": "6393",
            "ref": "6393",
            "type": "Post.Partner",
            "website": "https://6393.post.at/"
          },
          "geometry": {
            "type": "Point",
            "coordinates": [
              12.5741526,
              47.5275162
            ]
          }
        },
        {
          "type": "Feature",
          "properties": {
            "id": "340516826",
            "osm_type": "node",
            "lat": 47.5842656,
            "lon": 12.569176,
            "amenity": "post_office",
            "name": "6384 Waidring",
            "opening_hours": "Mo-Fr 09:00-12:00, 14:30-18:00; Sa 09:00-12:00",
            "postal_code": "6384",
            "ref": "6384",
            "type": "Post.Partner",
            "website": "https://6384.post.at/"
          },
          "geometry": {
            "type": "Point",
            "coordinates": [
              12.569176,
              47.5842656
            ]
          }
        },
        {
          "type": "Feature",
          "properties": {
            "id": "340516876",
            "osm_type": "node",
            "lat": 47.3896547,
            "lon": 12.6377025,
            "addr:city": "Saalbach",
            "addr:country": "AT",
            "addr:housenumber": "556",
            "addr:postcode": "5753",
            "addr:street": "Glemmtaler Landesstraße",
            "amenity": "post_office",
            "branch": "5753 Saalbach",
            "name": "5753 Saalbach",
            "old:type": "Postfiliale",
            "opening_hours": "Mo-Fr 08:00-12:30 13:30-17:00",
            "operator": "Latzer Grafik & Druck GmbH",
            "postal_code": "5753",
            "ref": "5753"
          },
          "geometry": {
            "type": "Point",
            "coordinates": [
              12.6377025,
              47.3896547
            ]
          }
        },
        {
          "type": "Feature",
          "properties": {
            "id": "340517177",
            "osm_type": "node",
            "lat": 47.42885,
            "lon": 12.8442996,
            "addr:city": "Saalfelden am Steinernen Meer",
            "addr:country": "AT",
            "addr:housenumber": "26",
            "addr:postcode": "5760",
            "addr:street": "Mittergasse",
            "amenity": "post_office",
            "name": "Post Filiale 5760",
            "opening_hours": "Mo-Fr 08:00-18:00; Sa,Su,PH off",
            "operator": "Österreichische Post AG",
            "operator:wikidata": "Q1763505",
            "website": "https://www.post.at"
          },
          "geometry": {
            "type": "Point",
            "coordinates": [
              12.8442996,
              47.42885
            ]
          }
        },
        {
          "type": "Feature",
          "properties": {
            "id": "340517223",
            "osm_type": "node",
            "lat": 47.3811282,
            "lon": 13.0015891,
            "addr:city": "Dienten am Hochkönig",
            "addr:country": "AT",
            "addr:housenumber": "27",
            "addr:postcode": "5652",
            "addr:street": "Dorf",
            "amenity": "post_office",
            "name": "Postpartner 5652, ADEG Oberlechner",
            "post_office": "post_partner",
            "postal_code": "5652",
            "source": "https://www.post.at/"
          },
          "geometry": {
            "type": "Point",
            "coordinates": [
              13.0015891,
              47.3811282
            ]
          }
        },
        {
          "type": "Feature",
          "properties": {
            "id": "474967846",
            "osm_type": "node",
            "lat": 47.6303677,
            "lon": 13.0001107,
            "addr:city": "Berchtesgaden",
            "addr:country": "DE",
            "addr:housenumber": "2 1/2",
            "addr:postcode": "83471",
            "addr:street": "Franziskanerplatz",
            "amenity": "post_office",
            "check_date": "2023-05-26",
            "opening_hours": "Mo-Fr 09:00-18:00; Sa 09:00-12:00",
            "wheelchair": "yes"
          },
          "geometry": {
            "type": "Point",
            "coordinates": [
              13.0001107,
              47.6303677
            ]
          }
        },
        {
          "type": "Feature",
          "properties": {
            "id": "2431353440",
            "osm_type": "node",
            "lat": 47.605591,
            "lon": 12.9853771,
            "amenity": "post_office",
            "check_date": "2023-05-27",
            "name": "Deutsche Post",
            "opening_hours": "Mo-Sa 08:30-09:30",
            "operator": "Deutsche Post",
            "operator:wikidata": "Q157645"
          },
          "geometry": {
            "type": "Point",
            "coordinates": [
              12.9853771,
              47.605591
            ]
          }
        },
        {
          "type": "Feature",
          "properties": {
            "id": "4474611677",
            "osm_type": "node",
            "lat": 47.6695001,
            "lon": 12.9431112,
            "amenity": "post_office",
            "brand": "Hermes",
            "name": "Hermes Paketshop",
            "operator": "Hermes",
            "operator:wikidata": "Q1613532",
            "operator:wikipedia": "en:Hermes Group"
          },
          "geometry": {
            "type": "Point",
            "coordinates": [
              12.9431112,
              47.6695001
            ]
          }
        },
        {
          "type": "Feature",
          "properties": {
            "id": "8904332253",
            "osm_type": "node",
            "lat": 47.4786276,
            "lon": 12.5412492,
            "amenity": "post_office",
            "name": "Postpartner"
          },
          "geometry": {
            "type": "Point",
            "coordinates": [
              12.5412492,
              47.4786276
            ]
          }
        },
        {
          "type": "Feature",
          "properties": {
            "id": "9129454822",
            "osm_type": "node",
            "lat": 47.57714,
            "lon": 12.6992208,
            "addr:city": "Sankt Martin bei Lofer",
            "addr:housenumber": "184",
            "addr:postcode": "5092",
            "addr:street": "Grubhof",
            "amenity": "post_office",
            "name": "Postpartner 5092 St. Martin",
            "opening_hours": "Mo-Fr 08:00-12:00,14:00-17:00; Sa,Su,PH off",
            "operator": "Gärtnerei Plattner"
          },
          "geometry": {
            "type": "Point",
            "coordinates": [
              12.6992208,
              47.57714
            ]
          }
        },
        {
          "type": "Feature",
          "properties": {
            "id": "11778477909",
            "osm_type": "node",
            "lat": 47.6487312,
            "lon": 12.9655959,
            "amenity": "post_office",
            "name": "Deutsche Post",
            "opening_hours": "Mo-Fr 08:00-13:00,15:00-18:00; Sa 08:00-13:00",
            "operator": "Deutsche Post",
            "operator:wikidata": "Q157645"
          },
          "geometry": {
            "type": "Point",
            "coordinates": [
              12.9655959,
              47.6487312
            ]
          }
        },
        {
          "type": "Feature",
          "properties": {
            "id": "132293001",
            "osm_type": "node",
            "lat": 47.6849104,
            "lon": 13.0985376,
            "addr:city": "Hallein",
            "addr:country": "AT",
            "addr:housenumber": "2",
            "addr:postcode": "5400",
            "addr:street": "Pramerplatz",
            "amenity": "post_office",
            "check_date": "2023-08-22",
            "name": "Post Filiale 5400",
            "opening_hours": "Mo-Fr 08:00-18:00; Sa,Su,PH off",
            "operator": "Österreichische Post AG",
            "website": "https://www.post.at",
            "wheelchair": "yes"
          },
          "geometry": {
            "type": "Point",
            "coordinates": [
              13.0985376,
              47.6849104
            ]
          }
        },
        {
          "type": "Feature",
          "properties": {
            "id": "340516703",
            "osm_type": "node",
            "lat": 47.475878,
            "lon": 13.1900459,
            "addr:city": "Werfen",
            "addr:country": "AT",
            "addr:housenumber": "41",
            "addr:place": "Markt",
            "addr:postcode": "5450",
            "amenity": "post_office",
            "name": "Postpartner 5450, Tabak Trafik Nadegger",
            "post_office": "post_partner",
            "postal_code": "5450",
            "source": "https://www.post.at/"
          },
          "geometry": {
            "type": "Point",
            "coordinates": [
              13.1900459,
              47.475878
            ]
          }
        },
        {
          "type": "Feature",
          "properties": {
            "id": "340516748",
            "osm_type": "node",
            "lat": 47.4614135,
            "lon": 13.2582483,
            "addr:city": "Werfenweng",
            "addr:housenumber": "20",
            "addr:place": "Weng",
            "addr:postcode": "5453",
            "addr:street": "Weng",
            "amenity": "post_office",
            "name": "5453 Werfenweng",
            "postal_code": "5453",
            "ref": "5453",
            "type": "Post.Partner"
          },
          "geometry": {
            "type": "Point",
            "coordinates": [
              13.2582483,
              47.4614135
            ]
          }
        },
        {
          "type": "Feature",
          "properties": {
            "id": "340516765",
            "osm_type": "node",
            "lat": 47.663105,
            "lon": 13.1315268,
            "addr:city": "Bad Vigaun",
            "addr:country": "AT",
            "addr:housenumber": "11",
            "addr:postcode": "5424",
            "addr:street": "Am Dorfplatz",
            "amenity": "post_office",
            "name": "5424 Bad Vigaun",
            "opening_hours": "Mo-Fr 8:30-12:00, Mo-Fr 14:30-16:30",
            "postal_code": "5424",
            "ref": "5424",
            "type": "Post.Partner",
            "wheelchair": "yes"
          },
          "geometry": {
            "type": "Point",
            "coordinates": [
              13.1315268,
              47.663105
            ]
          }
        },
        {
          "type": "Feature",
          "properties": {
            "id": "340516798",
            "osm_type": "node",
            "lat": 47.4158594,
            "lon": 13.306938,
            "addr:city": "Hüttau",
            "addr:country": "AT",
            "addr:housenumber": "56",
            "addr:place": "Hüttau",
            "addr:postcode": "5511",
            "amenity": "post_office",
            "at_bev:addr_date": "2017-10-01",
            "name": "Postpartner 5511, Nah & Frisch Haidenberger",
            "post_office": "post_partner",
            "postal_code": "5511",
            "source": "https://www.post.at/"
          },
          "geometry": {
            "type": "Point",
            "coordinates": [
              13.306938,
              47.4158594
            ]
          }
        },
        {
          "type": "Feature",
          "properties": {
            "id": "340520864",
            "osm_type": "node",
            "lat": 47.6422637,
            "lon": 13.2039707,
            "addr:city": "St. Koloman",
            "addr:country": "AT",
            "addr:housenumber": "29",
            "addr:postcode": "5423",
            "addr:street": "Am Dorfplatz",
            "amenity": "post_office",
            "check_date": "2023-08-19",
            "name": "5423 St. Koloman",
            "note": "Inside \"Lagerhaus\" shop",
            "postal_code": "5423",
            "ref": "5423",
            "type": "Post-Servicestelle"
          },
          "geometry": {
            "type": "Point",
            "coordinates": [
              13.2039707,
              47.6422637
            ]
          }
        },
        {
          "type": "Feature",
          "properties": {
            "id": "469403615",
            "osm_type": "node",
            "lat": 47.3772529,
            "lon": 13.124974,
            "amenity": "post_office"
          },
          "geometry": {
            "type": "Point",
            "coordinates": [
              13.124974,
              47.3772529
            ]
          }
        },
        {
          "type": "Feature",
          "properties": {
            "id": "3535047793",
            "osm_type": "node",
            "lat": 47.6282028,
            "lon": 13.1439797,
            "amenity": "post_office",
            "name": "Postpartner"
          },
          "geometry": {
            "type": "Point",
            "coordinates": [
              13.1439797,
              47.6282028
            ]
          }
        },
        {
          "type": "Feature",
          "properties": {
            "id": "4177731587",
            "osm_type": "node",
            "lat": 47.5992019,
            "lon": 13.168174,
            "addr:city": "Golling an der Salzach",
            "addr:country": "AT",
            "addr:housenumber": "20",
            "addr:postcode": "5440",
            "addr:street": "Markt",
            "amenity": "post_office",
            "name": "Post Filiale 5440",
            "opening_hours": "Mo-Fr 08:00-12:00,14:00-17:00; Sa,Su,PH off",
            "operator": "Österreichische Post AG",
            "operator:wikidata": "Q1763505",
            "operator:wikipedia": "de:Österreichische Post",
            "website": "https://www.post.at"
          },
          "geometry": {
            "type": "Point",
            "coordinates": [
              13.168174,
              47.5992019
            ]
          }
        },
        {
          "type": "Feature",
          "properties": {
            "id": "11975255427",
            "osm_type": "node",
            "lat": 47.4178411,
            "lon": 13.2196074,
            "addr:city": "Bischofshofen",
            "addr:housenumber": "18",
            "addr:postcode": "5500",
            "addr:street": "Bahnhofgasse",
            "amenity": "post_office",
            "opening_hours": "Mo-Fr 08:00-12:00 and 14:00-17:30"
          },
          "geometry": {
            "type": "Point",
            "coordinates": [
              13.2196074,
              47.4178411
            ]
          }
        }
      ],
      "children": []
    }
  ]
}