{
  "bbox": {
    "south": 46.372652,
    "west": 9.530952,
    "north": 47.033758500000005,
    "east": 11.438358999999998
  },
  "poiCount": 105,
  "leafCount": 0,
  "averagePosition": [
    10.619376859047618,
    46.64209294
  ],
  "data": [],
  "children": [
    {
      "bbox": {
        "south": 46.372652,
        "west": 9.530952,
        "north": 46.70320525,
        "east": 10.484655499999999
      },
      "poiCount": 21,
      "leafCount": 21,
      "averagePosition": [
        9.93819578095238,
        46.56143865714286
      ],
      "data": [
        {
          "type": "Feature",
          "properties": {
            "id": "344154614",
            "osm_type": "node",
            "lat": 46.4780781,
            "lon": 9.8131382,
            "amenity": "post_office",
            "name": "7512 Champfèr",
            "note": "post office doesn't exist anymore, reduced service now integrated in Butia pitschna shop"
          },
          "geometry": {
            "type": "Point",
            "coordinates": [
              9.8131382,
              46.4780781
            ]
          }
        },
        {
          "type": "Feature",
          "properties": {
            "id": "344235068",
            "osm_type": "node",
            "lat": 46.4861069,
            "lon": 9.8359512,
            "amenity": "post_office",
            "name": "Die Post"
          },
          "geometry": {
            "type": "Point",
            "coordinates": [
              9.8359512,
              46.4861069
            ]
          }
        },
        {
          "type": "Feature",
          "properties": {
            "id": "344522053",
            "osm_type": "node",
            "lat": 46.5358397,
            "lon": 9.8724055,
            "amenity": "post_office",
            "name": "Filiela Samedan",
            "name:de": "Filiale Samedan",
            "name:rm": "Filiela Samedan",
            "opening_hours": "Mo-Fr 08:30-12:00,13:45-18:00; Sa 08:30-11:00",
            "operator": "La Posta",
            "operator:de": "Die Post",
            "operator:en": "Swiss Post",
            "operator:fr": "La Poste",
            "operator:it": "La Posta",
            "operator:rm": "La Posta",
            "operator:wikidata": "Q614803"
          },
          "geometry": {
            "type": "Point",
            "coordinates": [
              9.8724055,
              46.5358397
            ]
          }
        },
        {
          "type": "Feature",
          "properties": {
            "id": "345328515",
            "osm_type": "node",
            "lat": 46.5956436,
            "lon": 9.6008687,
            "amenity": "post_office",
            "name": "7460 Savognin"
          },
          "geometry": {
            "type": "Point",
            "coordinates": [
              9.6008687,
              46.5956436
            ]
          }
        },
        {
          "type": "Feature",
          "properties": {
            "id": "345338974",
            "osm_type": "node",
            "lat": 46.6639181,
            "lon": 9.57258,
            "amenity": "post_office",
            "name": "Die Post 7450 Tiefencastel",
            "operator": "Die Post",
            "operator:de": "Die Post",
            "operator:en": "Swiss Post",
            "operator:fr": "La Poste",
            "operator:it": "La Posta",
            "operator:rm": "La Posta",
            "operator:wikidata": "Q614803"
          },
          "geometry": {
            "type": "Point",
            "coordinates": [
              9.57258,
              46.6639181
            ]
          }
        },
        {
          "type": "Feature",
          "properties": {
            "id": "384474475",
            "osm_type": "node",
            "lat": 46.488178,
            "lon": 9.9063497,
            "amenity": "post_office",
            "check_date:opening_hours": "2021-08-30",
            "name": "Die Post",
            "opening_hours": "Mo-Fr 08:30-11:30,13:45-18:00; Sa 08:30-11:00; Su,PH closed",
            "operator": "Die Post",
            "operator:de": "Die Post",
            "operator:en": "Swiss Post",
            "operator:fr": "La Poste",
            "operator:it": "La Posta",
            "operator:rm": "La Posta",
            "operator:wikidata": "Q614803",
            "operator:wikipedia": "de:Die Schweizerische Post"
          },
          "geometry": {
            "type": "Point",
            "coordinates": [
              9.9063497,
              46.488178
            ]
          }
        },
        {
          "type": "Feature",
          "properties": {
            "id": "503507821",
            "osm_type": "node",
            "lat": 46.4601051,
            "lon": 9.7958113,
            "addr:city": "Silvaplana",
            "addr:housenumber": "2",
            "addr:postcode": "7513",
            "addr:street": "Via dal Farrer",
            "amenity": "post_office",
            "name": "Posta 7513 Silvaplauna",
            "operator": "Bürọ da Turissem Silvaplauna"
          },
          "geometry": {
            "type": "Point",
            "coordinates": [
              9.7958113,
              46.4601051
            ]
          }
        },
        {
          "type": "Feature",
          "properties": {
            "id": "4293745368",
            "osm_type": "node",
            "lat": 46.5785417,
            "lon": 9.9271258,
            "amenity": "post_office",
            "cash_withdrawal": "postfinance_card",
            "cash_withdrawal:fee": "no",
            "cash_withdrawal:purchase_required": "no",
            "cash_withdrawal:type": "checkout",
            "name": "Post",
            "operator": "Volg",
            "operator:wikidata": "Q2530746"
          },
          "geometry": {
            "type": "Point",
            "coordinates": [
              9.9271258,
              46.5785417
            ]
          }
        },
        {
          "type": "Feature",
          "properties": {
            "id": "5170931334",
            "osm_type": "node",
            "lat": 46.6786458,
            "lon": 9.6473674,
            "addr:city": "Alvaneu Dorf",
            "addr:housenumber": "64",
            "addr:postcode": "7492",
            "addr:street": "Voia Principala",
            "amenity": "post_office",
            "opening_hours": "Mo-Fr 07:00-12:15, 14:00-18:30; Sa 07:00-12:15, 14:00-17:00; Su,PH closed"
          },
          "geometry": {
            "type": "Point",
            "coordinates": [
              9.6473674,
              46.6786458
            ]
          }
        },
        {
          "type": "Feature",
          "properties": {
            "id": "5170944863",
            "osm_type": "node",
            "lat": 46.6290544,
            "lon": 9.7450311,
            "addr:city": "Bergün/Bravuogn",
            "addr:housenumber": "63",
            "addr:postcode": "7482",
            "addr:street": "Plaz",
            "amenity": "post_office",
            "name": "Volg",
            "opening_hours": "Mo-Fr 07:30-18:30; Sa 07:30-17:00",
            "operator": "Volg",
            "operator:wikidata": "Q2530746",
            "post_office": "post_partner",
            "wheelchair": "yes"
          },
          "geometry": {
            "type": "Point",
            "coordinates": [
              9.7450311,
              46.6290544
            ]
          }
        },
        {
          "type": "Feature",
          "properties": {
            "id": "5303018178",
            "osm_type": "node",
            "lat": 46.6851386,
            "lon": 9.562997,
            "addr:city": "Lantsch/Lenz",
            "addr:housenumber": "59",
            "addr:postcode": "7083",
            "addr:street": "Voia Principala",
            "amenity": "post_office",
            "name": "Posta Lantsch",
            "name:de": "Post Lenz",
            "opening_hours": "Mo-Fr 07:00-19:00; Sa 07:00-18:00",
            "operator": "Posta Svizra"
          },
          "geometry": {
            "type": "Point",
            "coordinates": [
              9.562997,
              46.6851386
            ]
          }
        },
        {
          "type": "Feature",
          "properties": {
            "id": "5825846050",
            "osm_type": "node",
            "lat": 46.6116937,
            "lon": 9.9844139,
            "amenity": "post_office"
          },
          "geometry": {
            "type": "Point",
            "coordinates": [
              9.9844139,
              46.6116937
            ]
          }
        },
        {
          "type": "Feature",
          "properties": {
            "id": "5954436252",
            "osm_type": "node",
            "lat": 46.6629851,
            "lon": 9.5417767,
            "addr:city": "Stierva",
            "addr:country": "CH",
            "addr:housenumber": "2",
            "addr:postcode": "7459",
            "addr:street": "Veia Mezvei",
            "amenity": "post_office",
            "opening_hours": "Mo-Sa 08:30-12:30; Fr 18:00-19:00",
            "operator": "Die Post",
            "operator:de": "Die Post",
            "operator:en": "Swiss Post",
            "operator:fr": "La Poste",
            "operator:it": "La Posta",
            "operator:rm": "La Posta",
            "operator:wikidata": "Q614803"
          },
          "geometry": {
            "type": "Point",
            "coordinates": [
              9.5417767,
              46.6629851
            ]
          }
        },
        {
          "type": "Feature",
          "properties": {
            "id": "7188098898",
            "osm_type": "node",
            "lat": 46.4302106,
            "lon": 9.7652975,
            "addr:city": "Sils/Segl Maria",
            "addr:country": "CH",
            "addr:housenumber": "43",
            "addr:postcode": "7514",
            "addr:street": "Via da Marias",
            "amenity": "post_office",
            "name": "Filiela Sils/Segl Maria",
            "opening_hours": "Mo-Fr 08:30-11:30,15:30-17:30",
            "operator": "La Posta",
            "operator:de": "Die Post",
            "operator:en": "Swiss Post",
            "operator:fr": "La Poste",
            "operator:it": "La Posta",
            "operator:rm": "La Posta",
            "operator:wikidata": "Q614803",
            "operator:wikipedia": "de:Die Schweizerische Post"
          },
          "geometry": {
            "type": "Point",
            "coordinates": [
              9.7652975,
              46.4302106
            ]
          }
        },
        {
          "type": "Feature",
          "properties": {
            "id": "466140439",
            "osm_type": "node",
            "lat": 46.4659557,
            "lon": 10.375407,
            "addr:housenumber": "5",
            "addr:street": "Via Lungo Frodolfo Vanoni",
            "amenity": "post_office",
            "check_date": "2025-07-17",
            "operator": "Poste Italiane",
            "operator:wikidata": "Q495026"
          },
          "geometry": {
            "type": "Point",
            "coordinates": [
              10.375407,
              46.4659557
            ]
          }
        },
        {
          "type": "Feature",
          "properties": {
            "id": "466140451",
            "osm_type": "node",
            "lat": 46.4896381,
            "lon": 10.2949416,
            "addr:city": "Valdidentro",
            "addr:housenumber": "1",
            "addr:postcode": "23038",
            "addr:street": "Piazza Quattro Novembre",
            "amenity": "post_office",
            "branch": "Valdidentro",
            "brand": "Poste Italiane",
            "fax": "+390342986135",
            "name": "Poste Italiane",
            "opening_hours": "Mo-Fr 08:20-13:45; Sa 08:20-12:45; Su,PH off",
            "operator": "Poste Italiane",
            "operator:wikidata": "Q495026",
            "operator:wikipedia": "it:Poste italiane",
            "phone": "+390342985117",
            "ref": "61058"
          },
          "geometry": {
            "type": "Point",
            "coordinates": [
              10.2949416,
              46.4896381
            ]
          }
        },
        {
          "type": "Feature",
          "properties": {
            "id": "1781744135",
            "osm_type": "node",
            "lat": 46.4852108,
            "lon": 10.2715135,
            "amenity": "post_office",
            "name": "Semogo",
            "opening_hours": "We 08:20-13:45; Sa 08:20-12:45"
          },
          "geometry": {
            "type": "Point",
            "coordinates": [
              10.2715135,
              46.4852108
            ]
          }
        },
        {
          "type": "Feature",
          "properties": {
            "id": "2980953734",
            "osm_type": "node",
            "lat": 46.5384671,
            "lon": 10.1348392,
            "amenity": "post_office"
          },
          "geometry": {
            "type": "Point",
            "coordinates": [
              10.1348392,
              46.5384671
            ]
          }
        },
        {
          "type": "Feature",
          "properties": {
            "id": "3162610280",
            "osm_type": "node",
            "lat": 46.6457356,
            "lon": 10.4640836,
            "addr:city": "Taufers im Münstertal",
            "addr:city:de": "Taufers im Münstertal",
            "addr:street": "St.-Johann-Straße",
            "addr:street:de": "St.-Johann-Straße",
            "amenity": "post_office",
            "brand": "Poste Italiane",
            "brand:wikidata": "Q495026",
            "brand:wikipedia": "de:Poste Italiane",
            "name": "Poste Italiane",
            "operator": "Poste Italiane",
            "operator:wikidata": "Q495026",
            "operator:wikipedia": "de:Poste Italiane"
          },
          "geometry": {
            "type": "Point",
            "coordinates": [
              10.4640836,
              46.6457356
            ]
          }
        },
        {
          "type": "Feature",
          "properties": {
            "id": "6485865136",
            "osm_type": "node",
            "lat": 46.5549059,
            "lon": 10.1440328,
            "addr:city": "Livigno",
            "addr:housenumber": "999",
            "addr:postcode": "23030",
            "addr:street": "Via Rasia",
            "amenity": "post_office",
            "atm": "yes",
            "brand": "Poste Italiane",
            "brand:wikidata": "Q495026",
            "brand:wikipedia": "en:Poste italiane",
            "name": "Poste Italiane",
            "opening_hours": "Mo-Fr 08:20-13:45; Sa 08:20-12:45; Su, PH off",
            "operator": "Poste Italiane",
            "operator:wikidata": "Q495026",
            "phone": "+39 0342 996049"
          },
          "geometry": {
            "type": "Point",
            "coordinates": [
              10.1440328,
              46.5549059
            ]
          }
        },
        {
          "type": "Feature",
          "properties": {
            "id": "12118572594",
            "osm_type": "node",
            "lat": 46.6261592,
            "lon": 10.4461797,
            "addr:city": "Müstair",
            "addr:housenumber": "24",
            "addr:postcode": "7537",
            "addr:street": "Via Maistra",
            "amenity": "post_office",
            "opening_hours": "Mo-Fr 08:30-11:00,14:30-17:00",
            "operator": "La Posta",
            "operator:de": "Die Post",
            "operator:en": "Swiss Post",
            "operator:fr": "La Poste",
            "operator:it": "La Posta",
            "operator:rm": "La Posta",
            "operator:wikidata": "Q614803"
          },
          "geometry": {
            "type": "Point",
            "coordinates": [
              10.4461797,
              46.6261592
            ]
          }
        }
      ],
      "children": []
    },
    {
      "bbox": {
        "south": 46.372652,
        "west": 10.484655499999999,
        "north": 46.70320525,
        "east": 11.438358999999998
      },
      "poiCount": 54,
      "leafCount": 0,
      "averagePosition": [
        11.135987844444445,
        46.54703013333333
      ],
      "data": [],
      "children": [
        {
          "bbox": {
            "south": 46.372652,
            "west": 10.484655499999999,
            "north": 46.537928625000006,
            "east": 10.961507249999999
          },
          "poiCount": 2,
          "leafCount": 2,
          "averagePosition": [
            10.714228349999999,
            46.46559805
          ],
          "data": [
            {
              "type": "Feature",
              "properties": {
                "id": "7312565101",
                "osm_type": "node",
                "lat": 46.5301098,
                "lon": 10.5826454,
                "addr:city": "Sulden - Solda",
                "addr:city:de": "Sulden",
                "addr:city:it": "Solda",
                "addr:housenumber": "74a",
                "addr:postcode": "39029",
                "addr:street": "Forststraße - Via Forestale",
                "addr:street:de": "Forststraße",
                "addr:street:it": "Via Forestale",
                "amenity": "post_office",
                "brand": "Poste Italiane",
                "brand:wikidata": "Q495026",
                "brand:wikipedia": "en:Poste italiane",
                "name": "Poste Italiane"
              },
              "geometry": {
                "type": "Point",
                "coordinates": [
                  10.5826454,
                  46.5301098
                ]
              }
            },
            {
              "type": "Feature",
              "properties": {
                "id": "7782176103",
                "osm_type": "node",
                "lat": 46.4010863,
                "lon": 10.8458113,
                "addr:city": "Rabbi",
                "addr:housenumber": "143",
                "addr:place": "San Bernardo",
                "addr:postcode": "38020",
                "amenity": "post_office",
                "contact:phone": "+39 0463 985129",
                "name": "Poste Italiane",
                "operator": "Poste Italiane",
                "operator:wikidata": "Q495026"
              },
              "geometry": {
                "type": "Point",
                "coordinates": [
                  10.8458113,
                  46.4010863
                ]
              }
            }
          ],
          "children": []
        },
        {
          "bbox": {
            "south": 46.372652,
            "west": 10.961507249999999,
            "north": 46.537928625000006,
            "east": 11.438358999999998
          },
          "poiCount": 26,
          "leafCount": 26,
          "averagePosition": [
            11.296392038461537,
            46.47106649230769
          ],
          "data": [
            {
              "type": "Feature",
              "properties": {
                "id": "355643955",
                "osm_type": "node",
                "lat": 46.4233719,
                "lon": 11.3350653,
                "amenity": "post_office",
                "brand": "Poste Italiane",
                "brand:wikidata": "Q495026",
                "brand:wikipedia": "en:Poste italiane",
                "fax": "+39 0471 956164",
                "name": "Poste Italiane",
                "opening_hours": "Mo-Fr 08:20-13:35; Sa 08:20-12:35",
                "operator": "Poste Italiane S.p.A.",
                "phone": "+39 0471 595911",
                "ref": "88065"
              },
              "geometry": {
                "type": "Point",
                "coordinates": [
                  11.3350653,
                  46.4233719
                ]
              }
            },
            {
              "type": "Feature",
              "properties": {
                "id": "355668311",
                "osm_type": "node",
                "lat": 46.4389038,
                "lon": 11.3465346,
                "addr:city": "Laives - Leifers",
                "addr:city:de": "Leifers",
                "addr:city:it": "Laives",
                "addr:hamlet": "Pineta - Steinmannwald",
                "addr:hamlet:de": "Steinmannwald",
                "addr:hamlet:it": "Pineta",
                "addr:housenumber": "23",
                "addr:postcode": "39055",
                "addr:street": "Via Dolomiti - Dolomitenstraße",
                "addr:street:de": "Dolomitenstraße",
                "addr:street:it": "Via Dolomiti",
                "amenity": "post_office",
                "brand": "Poste Italiane",
                "brand:wikidata": "Q495026",
                "brand:wikipedia": "en:Poste italiane",
                "fax": "+39 0471 955590",
                "name": "Poste Italiane",
                "opening_hours": "Tu 08:20-13:45; Th 08:20-13:45; Sa 08:20-12:45",
                "operator": "Poste Italiane S.p.A.",
                "phone": "+39 0471 950427",
                "ref": "88222",
                "website": "https://www.poste.it/"
              },
              "geometry": {
                "type": "Point",
                "coordinates": [
                  11.3465346,
                  46.4389038
                ]
              }
            },
            {
              "type": "Feature",
              "properties": {
                "id": "376425975",
                "osm_type": "node",
                "lat": 46.4553714,
                "lon": 11.2618289,
                "addr:city": "Eppan an der Weinstraße - Appiano sulla Strada del Vino",
                "addr:city:de": "Eppan an der Weinstraße",
                "addr:city:it": "Appiano sulla Strada del Vino",
                "addr:hamlet": "St. Michael - San Michele",
                "addr:hamlet:de": "St. Michael",
                "addr:hamlet:it": "San Michele",
                "addr:housenumber": "1a",
                "addr:postcode": "39057",
                "addr:street": "Maria-Rast-Weg - Strada Madonna del Riposo",
                "addr:street:de": "Maria-Rast-Weg",
                "addr:street:it": "Strada Madonna del Riposo",
                "amenity": "post_office",
                "name": "Poste S. Michele",
                "opening_hours": "Mo-Fr 08:20-13:35; Sa 08:20-00:35",
                "phone": "+39 0471 662207",
                "wheelchair": "yes"
              },
              "geometry": {
                "type": "Point",
                "coordinates": [
                  11.2618289,
                  46.4553714
                ]
              }
            },
            {
              "type": "Feature",
              "properties": {
                "id": "393896678",
                "osm_type": "node",
                "lat": 46.4889005,
                "lon": 11.3167784,
                "amenity": "post_office",
                "atm": "yes",
                "opening_hours": "Mo-Fr 07:30-13:30; Sa 08:20-12:35",
                "operator": "Poste Italiane",
                "operator:wikidata": "Q495026",
                "phone": "+39 0471 564711",
                "ref": "88210"
              },
              "geometry": {
                "type": "Point",
                "coordinates": [
                  11.3167784,
                  46.4889005
                ]
              }
            },
            {
              "type": "Feature",
              "properties": {
                "id": "538337464",
                "osm_type": "node",
                "lat": 46.4841675,
                "lon": 11.3445035,
                "amenity": "post_office",
                "name": "Ufficio postale Bolzano 2 - Postfiliale Bozen 2",
                "name:de": "Postfiliale Bozen 2"
              },
              "geometry": {
                "type": "Point",
                "coordinates": [
                  11.3445035,
                  46.4841675
                ]
              }
            },
            {
              "type": "Feature",
              "properties": {
                "id": "557765887",
                "osm_type": "node",
                "lat": 46.4976659,
                "lon": 11.3530714,
                "amenity": "post_office",
                "atm": "yes",
                "name": "Bolzano Centro - Bozen-Zentrum",
                "name:de": "Bozen-Zentrum",
                "name:it": "Bolzano Centro",
                "opening_hours": "Mo-Fr 08:20-19:05; Sa 08:20-12:35",
                "operator": "Poste Italiane",
                "operator:wikidata": "Q495026",
                "postal_code": "39100",
                "ref": "88001",
                "website": "https://www.poste.it/"
              },
              "geometry": {
                "type": "Point",
                "coordinates": [
                  11.3530714,
                  46.4976659
                ]
              }
            },
            {
              "type": "Feature",
              "properties": {
                "id": "631755107",
                "osm_type": "node",
                "lat": 46.4043121,
                "lon": 11.3205001,
                "amenity": "post_office",
                "brand": "Poste Italiane",
                "brand:wikidata": "Q495026",
                "brand:wikipedia": "en:Poste italiane",
                "check_date:opening_hours": "2025-02-16",
                "fax": "+39 0471 967902",
                "internet_access": "wlan",
                "name": "Poste Italiane",
                "opening_hours": "Mo-Fr 08:20-13:45; Sa 08:20-12:45",
                "operator": "Poste Italiane",
                "operator:wikidata": "Q495026",
                "phone": "+39 0471 967149",
                "ref": "88192",
                "website": "https://www.poste.it/",
                "wheelchair": "yes"
              },
              "geometry": {
                "type": "Point",
                "coordinates": [
                  11.3205001,
                  46.4043121
                ]
              }
            },
            {
              "type": "Feature",
              "properties": {
                "id": "651135587",
                "osm_type": "node",
                "lat": 46.5005144,
                "lon": 11.3615841,
                "amenity": "post_office",
                "atm": "yes",
                "check_date": "2025-06-01",
                "name": "Bolzano 3",
                "operator": "Poste Italiane",
                "operator:wikidata": "Q495026",
                "operator:wikipedia": "en:Poste italiane",
                "postal_code": "39100",
                "ref": "88018",
                "wheelchair": "yes"
              },
              "geometry": {
                "type": "Point",
                "coordinates": [
                  11.3615841,
                  46.5005144
                ]
              }
            },
            {
              "type": "Feature",
              "properties": {
                "id": "670892786",
                "osm_type": "node",
                "lat": 46.4115713,
                "lon": 11.2442403,
                "amenity": "post_office",
                "level": "0",
                "name": "Postamt Kaltern - Ufficio postale di Caldaro",
                "name:de": "Postamt Kaltern",
                "name:it": "Ufficio postale di Caldaro",
                "operator": "Poste Italiane"
              },
              "geometry": {
                "type": "Point",
                "coordinates": [
                  11.2442403,
                  46.4115713
                ]
              }
            },
            {
              "type": "Feature",
              "properties": {
                "id": "695821728",
                "osm_type": "node",
                "lat": 46.3943172,
                "lon": 11.1205919,
                "amenity": "post_office"
              },
              "geometry": {
                "type": "Point",
                "coordinates": [
                  11.1205919,
                  46.3943172
                ]
              }
            },
            {
              "type": "Feature",
              "properties": {
                "id": "835169347",
                "osm_type": "node",
                "lat": 46.4953013,
                "lon": 11.3393819,
                "amenity": "post_office",
                "brand": "Poste Italiane",
                "brand:wikidata": "Q495026",
                "brand:wikipedia": "en:Poste italiane",
                "fax": "+39 0471 401311",
                "internet_access": "wlan",
                "name": "Poste Italiane",
                "opening_hours": "Mo-Fr 08:20-19:05; Sa 08:20-12:35",
                "operator": "Poste Italiane",
                "operator:wikidata": "Q495026",
                "phone": "+39 0471 473711",
                "ref": "88020",
                "wheelchair": "yes"
              },
              "geometry": {
                "type": "Point",
                "coordinates": [
                  11.3393819,
                  46.4953013
                ]
              }
            },
            {
              "type": "Feature",
              "properties": {
                "id": "1066141867",
                "osm_type": "node",
                "lat": 46.5066285,
                "lon": 11.3394471,
                "amenity": "post_office",
                "operator": "Poste Italiane",
                "operator:wikidata": "Q495026",
                "operator:wikipedia": "en:Poste italiane"
              },
              "geometry": {
                "type": "Point",
                "coordinates": [
                  11.3394471,
                  46.5066285
                ]
              }
            },
            {
              "type": "Feature",
              "properties": {
                "id": "1434979097",
                "osm_type": "node",
                "lat": 46.528375,
                "lon": 11.406336,
                "addr:city": "Oberbozen - Soprabolzano",
                "addr:city:de": "Oberbozen",
                "addr:city:it": "Soprabolzano",
                "addr:country": "IT",
                "addr:housenumber": "22",
                "addr:postcode": "39054",
                "addr:street": "Dorf - Paese",
                "amenity": "post_office"
              },
              "geometry": {
                "type": "Point",
                "coordinates": [
                  11.406336,
                  46.528375
                ]
              }
            },
            {
              "type": "Feature",
              "properties": {
                "id": "2961326664",
                "osm_type": "node",
                "lat": 46.4943476,
                "lon": 11.3923327,
                "amenity": "post_office",
                "brand": "Poste Italiane",
                "brand:wikidata": "Q495026",
                "brand:wikipedia": "en:Poste italiane",
                "fax": "+39 0471 365553",
                "name": "Poste Italiane",
                "opening_hours": "Mo-Fr 08:20-13:45; Sa 08:20-12:45",
                "operator": "Poste Italiane",
                "operator:wikidata": "Q495026",
                "phone": "+39 0471 365530",
                "ref": "88032"
              },
              "geometry": {
                "type": "Point",
                "coordinates": [
                  11.3923327,
                  46.4943476
                ]
              }
            },
            {
              "type": "Feature",
              "properties": {
                "id": "3051908364",
                "osm_type": "node",
                "lat": 46.5286234,
                "lon": 11.2491215,
                "amenity": "post_office",
                "opening_hours": "Mo-Fr 08:20-13:45; Sa 08:20-12:45",
                "operator": "Poste Italiane",
                "operator:wikidata": "Q495026",
                "phone": "+39 0471 257171",
                "ref": "88169"
              },
              "geometry": {
                "type": "Point",
                "coordinates": [
                  11.2491215,
                  46.5286234
                ]
              }
            },
            {
              "type": "Feature",
              "properties": {
                "id": "4254875029",
                "osm_type": "node",
                "lat": 46.483094,
                "lon": 11.3316969,
                "addr:city": "Bolzano - Bozen",
                "addr:housenumber": "13a",
                "addr:postcode": "39100",
                "addr:street": "Via Antonio Pacinotti - Antonio-Pacinotti-Straße",
                "addr:street:de": "Antonio-Pacinotti-Straße",
                "addr:street:it": "Via Antonio Pacinotti",
                "amenity": "post_office",
                "brand": "Mail Boxes Etc.",
                "brand:wikidata": "Q1139182",
                "email": "mbe032@mbe.it",
                "fax": "+39 0471 982126",
                "name": "Mail Boxes Etc.",
                "opening_hours": "Mo-Fr 09:00-12:30, 14:30-18:00",
                "operator": "Grej Service s.a.s.",
                "phone": "+39 0471 982003",
                "ref:vatin": "IT01540030218",
                "shop": "copyshop",
                "website": "https://www.mbe.it"
              },
              "geometry": {
                "type": "Point",
                "coordinates": [
                  11.3316969,
                  46.483094
                ]
              }
            },
            {
              "type": "Feature",
              "properties": {
                "id": "4290491393",
                "osm_type": "node",
                "lat": 46.4138267,
                "lon": 11.4256803,
                "addr:city": "Deutschnofen - Nova Ponente",
                "addr:housenumber": "20a",
                "addr:postcode": "39050",
                "addr:street": "Dorf - Centro",
                "amenity": "post_office",
                "atm": "yes",
                "brand": "Poste Italiane",
                "brand:wikidata": "Q495026",
                "brand:wikipedia": "en:Poste italiane",
                "fax": "+39 0471 616193",
                "name": "Poste Italiane",
                "opening_hours": "Mo-Fr 08:45-14:10; Sa 08:45-13:10",
                "operator": "Poste Italiane",
                "operator:wikidata": "Q495026",
                "operator:wikipedia": "en:Poste italiane",
                "phone": "+39 0471 616520",
                "ref": "88100",
                "website": "https://www.poste.it/"
              },
              "geometry": {
                "type": "Point",
                "coordinates": [
                  11.4256803,
                  46.4138267
                ]
              }
            },
            {
              "type": "Feature",
              "properties": {
                "id": "4354549477",
                "osm_type": "node",
                "lat": 46.4561098,
                "lon": 11.1168126,
                "amenity": "post_office",
                "brand": "Poste Italiane",
                "brand:wikidata": "Q495026",
                "brand:wikipedia": "en:Poste italiane",
                "name": "Poste Italiane",
                "opening_hours": "Tu,Th 08:20-13:45; Sa 08:20-12:45"
              },
              "geometry": {
                "type": "Point",
                "coordinates": [
                  11.1168126,
                  46.4561098
                ]
              }
            },
            {
              "type": "Feature",
              "properties": {
                "id": "4357712779",
                "osm_type": "node",
                "lat": 46.4309101,
                "lon": 11.1076234,
                "amenity": "post_office",
                "name": "Poste Italiane"
              },
              "geometry": {
                "type": "Point",
                "coordinates": [
                  11.1076234,
                  46.4309101
                ]
              }
            },
            {
              "type": "Feature",
              "properties": {
                "id": "4375598424",
                "osm_type": "node",
                "lat": 46.4610556,
                "lon": 11.3338308,
                "addr:city": "Laives - Leifers",
                "addr:housenumber": "49c",
                "addr:street": "Via San Giacomo - St. Jakobstraße",
                "amenity": "post_office",
                "brand": "Poste Italiane",
                "brand:wikidata": "Q495026",
                "brand:wikipedia": "en:Poste italiane",
                "name": "Poste Italiane",
                "opening_hours": "Mo-Fr 08:20-13:45, Sa 08:30-12:45",
                "operator": "Poste Italiane S.p.A.",
                "ref": "88211"
              },
              "geometry": {
                "type": "Point",
                "coordinates": [
                  11.3338308,
                  46.4610556
                ]
              }
            },
            {
              "type": "Feature",
              "properties": {
                "id": "4415029191",
                "osm_type": "node",
                "lat": 46.4192902,
                "lon": 11.0872562,
                "addr:city": "Cloz",
                "addr:housenumber": "2",
                "addr:postcode": "38020",
                "addr:street": "Via Santo Stefano",
                "amenity": "post_office",
                "name": "Ufficio Postale Cloz",
                "phone": "+39 0463 874553"
              },
              "geometry": {
                "type": "Point",
                "coordinates": [
                  11.0872562,
                  46.4192902
                ]
              }
            },
            {
              "type": "Feature",
              "properties": {
                "id": "5374710594",
                "osm_type": "node",
                "lat": 46.4933165,
                "lon": 11.3279406,
                "addr:city": "Bolzano - Bozen",
                "addr:housenumber": "12",
                "addr:postcode": "39100",
                "addr:street": "Via Sorrento - Sorrentstraße",
                "amenity": "post_office",
                "fax": "+39 0471 923788",
                "internet_access": "wlan",
                "name": "Bolzano 8",
                "opening_hours": "Mo-Fr 08:20-13:35; Sa 08:20-12:35",
                "operator": "Poste Italiane",
                "operator:wikidata": "Q495026",
                "phone": "+39 0471 549911",
                "ref": "88221"
              },
              "geometry": {
                "type": "Point",
                "coordinates": [
                  11.3279406,
                  46.4933165
                ]
              }
            },
            {
              "type": "Feature",
              "properties": {
                "id": "6122292623",
                "osm_type": "node",
                "lat": 46.5191369,
                "lon": 11.233355,
                "addr:city": "Andrian - Andriano",
                "addr:city:de": "Andrian",
                "addr:city:it": "Andriano",
                "addr:housenumber": "1",
                "addr:postcode": "39010",
                "addr:street": "Wehrburgstraße - Via Wehrburg",
                "addr:street:de": "Wehrburgstraße",
                "addr:street:it": "Via Wehrburg",
                "amenity": "post_office"
              },
              "geometry": {
                "type": "Point",
                "coordinates": [
                  11.233355,
                  46.5191369
                ]
              }
            },
            {
              "type": "Feature",
              "properties": {
                "id": "7110266413",
                "osm_type": "node",
                "lat": 46.5349823,
                "lon": 11.3320971,
                "amenity": "post_office",
                "name": "Poste italiane",
                "opening_hours": "Mo,We,Fr 08:20-13:45"
              },
              "geometry": {
                "type": "Point",
                "coordinates": [
                  11.3320971,
                  46.5349823
                ]
              }
            },
            {
              "type": "Feature",
              "properties": {
                "id": "7274884021",
                "osm_type": "node",
                "lat": 46.4819331,
                "lon": 11.3215935,
                "amenity": "post_office",
                "brand": "Poste Italiane",
                "brand:wikidata": "Q495026",
                "name": "Poste Italiane",
                "operator": "Poste Italiane",
                "operator:wikidata": "Q495026"
              },
              "geometry": {
                "type": "Point",
                "coordinates": [
                  11.3215935,
                  46.4819331
                ]
              }
            },
            {
              "type": "Feature",
              "properties": {
                "id": "9887687541",
                "osm_type": "node",
                "lat": 46.5017018,
                "lon": 11.3569889,
                "amenity": "post_office",
                "brand": "DHL",
                "brand:wikidata": "Q489815",
                "name": "DHL",
                "operator": "DHL",
                "operator:type": "private",
                "operator:wikidata": "Q489815",
                "operator:wikipedia": "en:DHL"
              },
              "geometry": {
                "type": "Point",
                "coordinates": [
                  11.3569889,
                  46.5017018
                ]
              }
            }
          ],
          "children": []
        },
        {
          "bbox": {
            "south": 46.537928625000006,
            "west": 10.484655499999999,
            "north": 46.70320525,
            "east": 10.961507249999999
          },
          "poiCount": 7,
          "leafCount": 7,
          "averagePosition": [
            10.641360928571428,
            46.62624037142857
          ],
          "data": [
            {
              "type": "Feature",
              "properties": {
                "id": "299396525",
                "osm_type": "node",
                "lat": 46.6174949,
                "lon": 10.6985702,
                "amenity": "post_office",
                "name": "Post Laas - Poste Lasa",
                "name:de": "Post Laas",
                "name:it": "Poste Lasa"
              },
              "geometry": {
                "type": "Point",
                "coordinates": [
                  10.6985702,
                  46.6174949
                ]
              }
            },
            {
              "type": "Feature",
              "properties": {
                "id": "306592664",
                "osm_type": "node",
                "lat": 46.6711038,
                "lon": 10.5547909,
                "amenity": "post_office"
              },
              "geometry": {
                "type": "Point",
                "coordinates": [
                  10.5547909,
                  46.6711038
                ]
              }
            },
            {
              "type": "Feature",
              "properties": {
                "id": "808198654",
                "osm_type": "node",
                "lat": 46.6263624,
                "lon": 10.7732111,
                "amenity": "post_office",
                "name": "Postamt - Ufficio postale",
                "name:de": "Postamt",
                "name:it": "Ufficio postale"
              },
              "geometry": {
                "type": "Point",
                "coordinates": [
                  10.7732111,
                  46.6263624
                ]
              }
            },
            {
              "type": "Feature",
              "properties": {
                "id": "2402854978",
                "osm_type": "node",
                "lat": 46.6896864,
                "lon": 10.5445225,
                "addr:city": "Mals - Malles Venosta",
                "addr:city:de": "Mals",
                "addr:city:it": "Malles Venosta",
                "addr:housenumber": "11",
                "addr:postcode": "39024",
                "addr:street": "Bahnhofstraße - Via della Stazione",
                "addr:street:de": "Bahnhofstraße",
                "addr:street:it": "Via della Stazione",
                "amenity": "post_office",
                "name": "Posta",
                "name:de": "Post",
                "opening_hours": "Mo-Fr 08:20-13:45; Sa 08:20-13:45",
                "operator": "Poste Italiane",
                "operator:wikidata": "Q495026",
                "phone": "+39 0473 831157"
              },
              "geometry": {
                "type": "Point",
                "coordinates": [
                  10.5445225,
                  46.6896864
                ]
              }
            },
            {
              "type": "Feature",
              "properties": {
                "id": "2496306041",
                "osm_type": "node",
                "lat": 46.5660869,
                "lon": 10.7825649,
                "addr:city": "Martell",
                "addr:housenumber": "96",
                "addr:place": "Meiern",
                "addr:postcode": "39020",
                "amenity": "post_office",
                "operator": "Poste Italiane",
                "operator:wikidata": "Q495026",
                "phone": "+39 0473 744519"
              },
              "geometry": {
                "type": "Point",
                "coordinates": [
                  10.7825649,
                  46.5660869
                ]
              }
            },
            {
              "type": "Feature",
              "properties": {
                "id": "2905688406",
                "osm_type": "node",
                "lat": 46.6176342,
                "lon": 10.5911931,
                "addr:city": "Prad am Stilfser Joch - Prato allo Stelvio",
                "addr:city:de": "Prad am Stilfser Joch",
                "addr:city:it": "Prato allo Stelvio",
                "addr:housenumber": "2d",
                "addr:postcode": "39026",
                "addr:street": "Kreuzweg - Via Croce",
                "addr:street:de": "Kreuzweg",
                "addr:street:it": "Via Croce",
                "amenity": "post_office",
                "atm": "yes",
                "opening_hours": "Mo-Fr 08:25-13:35; Sa 08:25-12:35; Su off",
                "phone": "+39 0473 616015",
                "post_office": "bureau",
                "post_office:brand": "Poste Italiane"
              },
              "geometry": {
                "type": "Point",
                "coordinates": [
                  10.5911931,
                  46.6176342
                ]
              }
            },
            {
              "type": "Feature",
              "properties": {
                "id": "7707985515",
                "osm_type": "node",
                "lat": 46.595314,
                "lon": 10.5446738,
                "addr:city": "Stilfs - Stelvio",
                "addr:city:de": "Stilfs",
                "addr:city:it": "Stelvio",
                "addr:housenumber": "5a",
                "addr:place": "Stilfs Dorf - Stelvio Paese",
                "addr:place:de": "Stilfs Dorf",
                "addr:place:it": "Stelvio Paese",
                "addr:postcode": "39029",
                "addr:street": "Dorfstraße - Via del Paese",
                "addr:street:de": "Dorfstraße",
                "addr:street:it": "Via del Paese",
                "amenity": "post_office",
                "name": "Poste Italiane",
                "opening_hours": "We 08:20-13:45; Mo, Tu, Th, Fr, Sa, Su, PH off",
                "operator": "Poste Italiane",
                "operator:wikidata": "Q495026",
                "operator:wikipedia": "en:Poste italiane",
                "phone": "+39 0473 611770"
              },
              "geometry": {
                "type": "Point",
                "coordinates": [
                  10.5446738,
                  46.595314
                ]
              }
            }
          ],
          "children": []
        },
        {
          "bbox": {
            "south": 46.537928625000006,
            "west": 10.961507249999999,
            "north": 46.70320525,
            "east": 11.438358999999998
          },
          "poiCount": 19,
          "leafCount": 19,
          "averagePosition": [
            11.143114073684211,
            46.63036945789474
          ],
          "data": [
            {
              "type": "Feature",
              "properties": {
                "id": "305034629",
                "osm_type": "node",
                "lat": 46.6508718,
                "lon": 11.0050127,
                "amenity": "post_office"
              },
              "geometry": {
                "type": "Point",
                "coordinates": [
                  11.0050127,
                  46.6508718
                ]
              }
            },
            {
              "type": "Feature",
              "properties": {
                "id": "2380347537",
                "osm_type": "node",
                "lat": 46.5486925,
                "lon": 11.0037198,
                "amenity": "post_office",
                "name": "Santa Valburga d'Ultimo",
                "opening_hours": "Mo-Fr 08:20-13:45; Sa 08:20-12:45"
              },
              "geometry": {
                "type": "Point",
                "coordinates": [
                  11.0037198,
                  46.5486925
                ]
              }
            },
            {
              "type": "Feature",
              "properties": {
                "id": "9905474944",
                "osm_type": "node",
                "lat": 46.5442376,
                "lon": 10.995905,
                "amenity": "post_office",
                "name": "Poste Italiane"
              },
              "geometry": {
                "type": "Point",
                "coordinates": [
                  10.995905,
                  46.5442376
                ]
              }
            },
            {
              "type": "Feature",
              "properties": {
                "id": "255374206",
                "osm_type": "node",
                "lat": 46.6691131,
                "lon": 11.163811,
                "amenity": "post_office",
                "name": "Poste italiane",
                "operator:wikidata": "Q495026",
                "wheelchair": "limited"
              },
              "geometry": {
                "type": "Point",
                "coordinates": [
                  11.163811,
                  46.6691131
                ]
              }
            },
            {
              "type": "Feature",
              "properties": {
                "id": "390321243",
                "osm_type": "node",
                "lat": 46.6834373,
                "lon": 11.1219858,
                "amenity": "post_office",
                "branch": "Algund - Lagundo",
                "branch:de": "Algund",
                "branch:it": "Lagundo",
                "operator": "Poste Italiane",
                "operator:wikidata": "Q495026",
                "ref": "88064",
                "wheelchair": "yes"
              },
              "geometry": {
                "type": "Point",
                "coordinates": [
                  11.1219858,
                  46.6834373
                ]
              }
            },
            {
              "type": "Feature",
              "properties": {
                "id": "418711383",
                "osm_type": "node",
                "lat": 46.68886,
                "lon": 11.156731,
                "amenity": "post_office",
                "building:levels": "1",
                "name": "Post Dorf Tirol",
                "operator": "Poste Italiane",
                "operator:wikidata": "Q495026"
              },
              "geometry": {
                "type": "Point",
                "coordinates": [
                  11.156731,
                  46.68886
                ]
              }
            },
            {
              "type": "Feature",
              "properties": {
                "id": "768139510",
                "osm_type": "node",
                "lat": 46.543634,
                "lon": 11.2013841,
                "amenity": "post_office",
                "fax": "+39 0471 678231",
                "name": "Poste Italiane",
                "opening_hours": "Mo-Fr 08:20-13:45; Sa 08:20-12:45",
                "operator": "Poste Italiane S.p.A.",
                "phone": "+39 0471 678673",
                "ref": "88097"
              },
              "geometry": {
                "type": "Point",
                "coordinates": [
                  11.2013841,
                  46.543634
                ]
              }
            },
            {
              "type": "Feature",
              "properties": {
                "id": "768139556",
                "osm_type": "node",
                "lat": 46.5636982,
                "lon": 11.1694059,
                "amenity": "post_office",
                "check_date": "2022-08-03",
                "name": "Post - Posta",
                "opening_hours": "Tu-Th 08:20-13:45; Sa 08:20-12:45",
                "operator": "Poste Italiane",
                "operator:wikidata": "Q495026",
                "operator:wikipedia": "en:Poste italiane"
              },
              "geometry": {
                "type": "Point",
                "coordinates": [
                  11.1694059,
                  46.5636982
                ]
              }
            },
            {
              "type": "Feature",
              "properties": {
                "id": "1332187229",
                "osm_type": "node",
                "lat": 46.5856409,
                "lon": 11.0867508,
                "amenity": "post_office",
                "name": "Poste Italiane",
                "opening_hours": "Mo,We,Fr 08:20-13:45",
                "operator": "Poste Italiane",
                "operator:wikidata": "Q495026",
                "phone": "+39 0473 787135",
                "ref": "88138"
              },
              "geometry": {
                "type": "Point",
                "coordinates": [
                  11.0867508,
                  46.5856409
                ]
              }
            },
            {
              "type": "Feature",
              "properties": {
                "id": "1795262724",
                "osm_type": "node",
                "lat": 46.6746971,
                "lon": 11.1563906,
                "amenity": "post_office",
                "check_date:opening_hours": "2025-07-01",
                "name": "Postamt",
                "opening_hours": "Mo-Fr 08:20-13:35; Sa 08:20-12:35",
                "post_office": "bureau",
                "wheelchair": "yes"
              },
              "geometry": {
                "type": "Point",
                "coordinates": [
                  11.1563906,
                  46.6746971
                ]
              }
            },
            {
              "type": "Feature",
              "properties": {
                "id": "2422738682",
                "osm_type": "node",
                "lat": 46.5843944,
                "lon": 11.2015546,
                "addr:city": "Gargazon - Gargazzone",
                "addr:city:de": "Gargazon",
                "addr:city:it": "Gargazzone",
                "addr:country": "IT",
                "addr:housename": "Poste Italiane Spa",
                "addr:housenumber": "6",
                "addr:postcode": "39010",
                "addr:street": "Gemeindeplatz - Piazza Municipio",
                "addr:street:de": "Gemeindeplatz",
                "addr:street:it": "Piazza Municipio",
                "amenity": "post_office",
                "name": "Poste Italiane Spa",
                "opening_hours": "Mo, We, Fr 08:00-13:30"
              },
              "geometry": {
                "type": "Point",
                "coordinates": [
                  11.2015546,
                  46.5843944
                ]
              }
            },
            {
              "type": "Feature",
              "properties": {
                "id": "2699665427",
                "osm_type": "node",
                "lat": 46.6049697,
                "lon": 11.2265176,
                "amenity": "post_office",
                "operator": "Poste Italiane",
                "operator:wikidata": "Q495026"
              },
              "geometry": {
                "type": "Point",
                "coordinates": [
                  11.2265176,
                  46.6049697
                ]
              }
            },
            {
              "type": "Feature",
              "properties": {
                "id": "2763420976",
                "osm_type": "node",
                "lat": 46.6476339,
                "lon": 11.2179949,
                "amenity": "post_office",
                "name": "Associazione Turistica",
                "opening_hours": "Mo, We, Fr 09:00-12:00"
              },
              "geometry": {
                "type": "Point",
                "coordinates": [
                  11.2179949,
                  46.6476339
                ]
              }
            },
            {
              "type": "Feature",
              "properties": {
                "id": "3351282365",
                "osm_type": "node",
                "lat": 46.7021926,
                "lon": 11.1804753,
                "amenity": "post_office",
                "name": "Post Riffian",
                "opening_hours": "Tu,Th 08:20-13:45; Sa 08:20-12:45",
                "source": "http://www.gemeinde.riffian.bz.it/"
              },
              "geometry": {
                "type": "Point",
                "coordinates": [
                  11.1804753,
                  46.7021926
                ]
              }
            },
            {
              "type": "Feature",
              "properties": {
                "id": "3681603449",
                "osm_type": "node",
                "lat": 46.6544746,
                "lon": 11.1409849,
                "amenity": "post_office",
                "contact:phone": "+39 0473 447090",
                "name": "Postamt Marling - Ufficio Postale Marlengo",
                "name:de": "Postamt Marling",
                "name:it": "Ufficio Postale Marlengo",
                "opening_hours": "Mo-Fr 08:20-13:45; Sa 08:20-12:45",
                "source": "Unterkunftsverzeichnis Marling  2023, S. 39",
                "source:date": "2022-12-08"
              },
              "geometry": {
                "type": "Point",
                "coordinates": [
                  11.1409849,
                  46.6544746
                ]
              }
            },
            {
              "type": "Feature",
              "properties": {
                "id": "4062903251",
                "osm_type": "node",
                "lat": 46.6845635,
                "lon": 11.0732469,
                "amenity": "post_office",
                "contact:phone": "+39 0473 967151",
                "name": "Poste Italiane",
                "opening_hours": "Mo,We,Fr 08:20-13:45",
                "operator": "Poste Italiane",
                "operator:wikidata": "Q495026",
                "source": "survey",
                "source:date": "2018-05-12"
              },
              "geometry": {
                "type": "Point",
                "coordinates": [
                  11.0732469,
                  46.6845635
                ]
              }
            },
            {
              "type": "Feature",
              "properties": {
                "id": "5058059289",
                "osm_type": "node",
                "lat": 46.6904579,
                "lon": 11.1874787,
                "amenity": "post_office",
                "contact:phone": "+39 0473 945 639",
                "name": "Postamt Schenna",
                "opening_hours": "Mo-Fr 08:20-13:45; Sa 08:20-12:45; Su off",
                "operator": "Poste Italiane",
                "operator:wikidata": "Q495026",
                "source": "Info TV Schenna 2017, S."
              },
              "geometry": {
                "type": "Point",
                "coordinates": [
                  11.1874787,
                  46.6904579
                ]
              }
            },
            {
              "type": "Feature",
              "properties": {
                "id": "10073799852",
                "osm_type": "node",
                "lat": 46.5865539,
                "lon": 11.2555801,
                "amenity": "post_office",
                "opening_hours": "Tu-Th 08:20-13:45, Sa 08:20-12:45",
                "operator": "Poste Italiane",
                "operator:wikidata": "Q495026",
                "phone": "+39 0471 668008",
                "ref": "88081"
              },
              "geometry": {
                "type": "Point",
                "coordinates": [
                  11.2555801,
                  46.5865539
                ]
              }
            },
            {
              "type": "Feature",
              "properties": {
                "id": "12012234774",
                "osm_type": "node",
                "lat": 46.6688967,
                "lon": 11.1742377,
                "amenity": "post_office",
                "name": "Post",
                "operator": "Poste Italiane",
                "operator:wikidata": "Q495026"
              },
              "geometry": {
                "type": "Point",
                "coordinates": [
                  11.1742377,
                  46.6688967
                ]
              }
            }
          ],
          "children": []
        }
      ]
    },
    {
      "bbox": {
        "south": 46.70320525,
        "west": 9.530952,
        "north": 47.033758500000005,
        "east": 10.484655499999999
      },
      "poiCount": 21,
      "leafCount": 21,
      "averagePosition": [
        9.822955347619049,
        46.87769301904762
      ],
      "data": [
        {
          "type": "Feature",
          "properties": {
            "id": "697437420",
            "osm_type": "node",
            "lat": 46.7823387,
            "lon": 9.6803142,
            "amenity": "post_office",
            "collection_times": "Mo-Fr 07:00,18:00; Sa 11:00",
            "opening_hours": "Mo-Fr 08:00-12:00,14:00-18:00; Sa 09:00-11:00",
            "operator": "Die Post",
            "operator:de": "Die Post",
            "operator:en": "Swiss Post",
            "operator:fr": "La Poste",
            "operator:it": "La Posta",
            "operator:rm": "La Posta",
            "operator:wikidata": "Q614803"
          },
          "geometry": {
            "type": "Point",
            "coordinates": [
              9.6803142,
              46.7823387
            ]
          }
        },
        {
          "type": "Feature",
          "properties": {
            "id": "2137118545",
            "osm_type": "node",
            "lat": 46.8685794,
            "lon": 9.882,
            "amenity": "post_office",
            "name": "Klosters",
            "operator": "Die Post",
            "operator:de": "Die Post",
            "operator:en": "Swiss Post",
            "operator:fr": "La Poste",
            "operator:it": "La Posta",
            "operator:rm": "La Posta",
            "operator:wikidata": "Q614803",
            "operator:wikipedia": "de:Die Schweizerische Post",
            "wheelchair": "yes"
          },
          "geometry": {
            "type": "Point",
            "coordinates": [
              9.882,
              46.8685794
            ]
          }
        },
        {
          "type": "Feature",
          "properties": {
            "id": "4257294897",
            "osm_type": "node",
            "lat": 46.818047,
            "lon": 9.6067241,
            "amenity": "post_office",
            "name": "Post-Stübli",
            "opening_hours": "Mo-Fr 08:00-12:00"
          },
          "geometry": {
            "type": "Point",
            "coordinates": [
              9.6067241,
              46.818047
            ]
          }
        },
        {
          "type": "Feature",
          "properties": {
            "id": "5625392039",
            "osm_type": "node",
            "lat": 46.7274735,
            "lon": 9.55817,
            "amenity": "post_office",
            "name": "Poststelle 7078 Lenzerheide/Lai",
            "operator": "Post CH AG",
            "operator:de": "Die Post",
            "operator:en": "Swiss Post",
            "operator:fr": "La Poste",
            "operator:it": "La Posta",
            "operator:rm": "La Posta",
            "operator:wikidata": "Q614803"
          },
          "geometry": {
            "type": "Point",
            "coordinates": [
              9.55817,
              46.7274735
            ]
          }
        },
        {
          "type": "Feature",
          "properties": {
            "id": "6010819404",
            "osm_type": "node",
            "lat": 46.8331443,
            "lon": 9.6462072,
            "amenity": "post_office",
            "name": "7028 St. Peter"
          },
          "geometry": {
            "type": "Point",
            "coordinates": [
              9.6462072,
              46.8331443
            ]
          }
        },
        {
          "type": "Feature",
          "properties": {
            "id": "12339135920",
            "osm_type": "node",
            "lat": 46.7047582,
            "lon": 9.7151343,
            "addr:city": "Davos Wiesen",
            "addr:housenumber": "4",
            "addr:postcode": "7494",
            "addr:street": "Hauptstrasse",
            "amenity": "post_office",
            "name": "Post Filiale 7494 Davos Wiesen",
            "opening_hours": "Mo-Fr 07:45-12:00, 15:00-18:30; Sa 07:45-12:00, 14:00-16:00"
          },
          "geometry": {
            "type": "Point",
            "coordinates": [
              9.7151343,
              46.7047582
            ]
          }
        },
        {
          "type": "Feature",
          "properties": {
            "id": "861518091",
            "osm_type": "node",
            "lat": 46.793093,
            "lon": 10.2469332,
            "addr:city": "Ftan",
            "addr:country": "CH",
            "addr:housenumber": "114",
            "addr:postcode": "7551",
            "addr:street": "Plaz",
            "amenity": "post_office",
            "information": "office",
            "name": "Filiala Ftan",
            "tourism": "information"
          },
          "geometry": {
            "type": "Point",
            "coordinates": [
              10.2469332,
              46.793093
            ]
          }
        },
        {
          "type": "Feature",
          "properties": {
            "id": "1908789340",
            "osm_type": "node",
            "lat": 46.7691653,
            "lon": 10.1115446,
            "amenity": "post_office",
            "cash_withdrawal": "postfinance_card",
            "cash_withdrawal:fee": "no",
            "cash_withdrawal:purchase_required": "no",
            "cash_withdrawal:type": "checkout",
            "name": "Posta",
            "operator": "Volg",
            "operator:wikidata": "Q2530746"
          },
          "geometry": {
            "type": "Point",
            "coordinates": [
              10.1115446,
              46.7691653
            ]
          }
        },
        {
          "type": "Feature",
          "properties": {
            "id": "2720321877",
            "osm_type": "node",
            "lat": 46.7756781,
            "lon": 10.1994763,
            "amenity": "post_office"
          },
          "geometry": {
            "type": "Point",
            "coordinates": [
              10.1994763,
              46.7756781
            ]
          }
        },
        {
          "type": "Feature",
          "properties": {
            "id": "9835216147",
            "osm_type": "node",
            "lat": 46.7954762,
            "lon": 10.2956896,
            "addr:city": "Scuol",
            "addr:country": "CH",
            "addr:housenumber": "403a",
            "addr:postcode": "7550",
            "addr:street": "Stradun",
            "amenity": "post_office",
            "check_date": "2025-01-10",
            "name": "Filiala Scuol",
            "opening_hours": "Mo-Fr 08:30-12:00,13:30-18:00",
            "operator": "La Posta",
            "operator:de": "Die Post",
            "operator:en": "Swiss Post",
            "operator:fr": "La Poste",
            "operator:it": "La Posta",
            "operator:rm": "La Posta",
            "operator:wikidata": "Q614803"
          },
          "geometry": {
            "type": "Point",
            "coordinates": [
              10.2956896,
              46.7954762
            ]
          }
        },
        {
          "type": "Feature",
          "properties": {
            "id": "11500779920",
            "osm_type": "node",
            "lat": 46.8625726,
            "lon": 10.4351869,
            "amenity": "post_office"
          },
          "geometry": {
            "type": "Point",
            "coordinates": [
              10.4351869,
              46.8625726
            ]
          }
        },
        {
          "type": "Feature",
          "properties": {
            "id": "290248313",
            "osm_type": "node",
            "lat": 46.9682966,
            "lon": 9.6882938,
            "amenity": "post_office",
            "check_date": "2025-06-08",
            "name": "Post Filiale 7220 Schiers",
            "opening_hours": "Mo-Fr 08:00-11:30,14:00-17:30; Sa 09:00-11:00; Su off",
            "operator": "Post CH",
            "ref": "7220",
            "wheelchair": "yes"
          },
          "geometry": {
            "type": "Point",
            "coordinates": [
              9.6882938,
              46.9682966
            ]
          }
        },
        {
          "type": "Feature",
          "properties": {
            "id": "1195519396",
            "osm_type": "node",
            "lat": 46.9699043,
            "lon": 9.8149786,
            "amenity": "post_office",
            "name": "Volg"
          },
          "geometry": {
            "type": "Point",
            "coordinates": [
              9.8149786,
              46.9699043
            ]
          }
        },
        {
          "type": "Feature",
          "properties": {
            "id": "1470765779",
            "osm_type": "node",
            "lat": 47.0069504,
            "lon": 9.5314058,
            "amenity": "post_office",
            "wheelchair": "yes"
          },
          "geometry": {
            "type": "Point",
            "coordinates": [
              9.5314058,
              47.0069504
            ]
          }
        },
        {
          "type": "Feature",
          "properties": {
            "id": "2682654036",
            "osm_type": "node",
            "lat": 46.9889717,
            "lon": 9.6371401,
            "addr:city": "Seewis Dorf",
            "addr:housenumber": "2",
            "addr:postcode": "7212",
            "addr:street": "Schlossstrasse",
            "amenity": "post_office",
            "name": "Post Filiale 7212 Seewis Dorf",
            "opening_hours": "Mo-Fr 08:30-11:45, 14:30-18:00; Sa 08:30-11:45, 14:00-16:00",
            "operator": "Bazar"
          },
          "geometry": {
            "type": "Point",
            "coordinates": [
              9.6371401,
              46.9889717
            ]
          }
        },
        {
          "type": "Feature",
          "properties": {
            "id": "3339513315",
            "osm_type": "node",
            "lat": 46.9143045,
            "lon": 9.7724331,
            "amenity": "post_office",
            "name": "Küblis"
          },
          "geometry": {
            "type": "Point",
            "coordinates": [
              9.7724331,
              46.9143045
            ]
          }
        },
        {
          "type": "Feature",
          "properties": {
            "id": "6290795785",
            "osm_type": "node",
            "lat": 46.967408,
            "lon": 9.558252,
            "amenity": "post_office",
            "check_date": "2025-07-20",
            "opening_hours": "Mo-Fr 08:00-12:00,13:30-18:00; Sa 08:30-11:00; Su off",
            "wheelchair": "yes"
          },
          "geometry": {
            "type": "Point",
            "coordinates": [
              9.558252,
              46.967408
            ]
          }
        },
        {
          "type": "Feature",
          "properties": {
            "id": "8355689877",
            "osm_type": "node",
            "lat": 46.9816253,
            "lon": 9.6482216,
            "addr:city": "Grüsch",
            "addr:housenumber": "23",
            "addr:postcode": "7214",
            "addr:street": "Landstrass",
            "amenity": "post_office",
            "name": "Post Filiale 7214 Grüsch",
            "opening_hours": "Mo-Sa 07:00-19:00"
          },
          "geometry": {
            "type": "Point",
            "coordinates": [
              9.6482216,
              46.9816253
            ]
          }
        },
        {
          "type": "Feature",
          "properties": {
            "id": "10004974551",
            "osm_type": "node",
            "lat": 47.0074438,
            "lon": 9.5312016,
            "amenity": "post_office",
            "name": "Post Filiale Maienfeld (SPAR Supermarkt )",
            "opening_hours": "Mo-Fr 07:00-19:00; Sa 07:00-17:00"
          },
          "geometry": {
            "type": "Point",
            "coordinates": [
              9.5312016,
              47.0074438
            ]
          }
        },
        {
          "type": "Feature",
          "properties": {
            "id": "10237639012",
            "osm_type": "node",
            "lat": 46.927938,
            "lon": 9.5358327,
            "amenity": "post_office",
            "name": "Post Filiale 7204 Untervaz Volg",
            "opening_hours": "Mo-Sa 06:00-20:00"
          },
          "geometry": {
            "type": "Point",
            "coordinates": [
              9.5358327,
              46.927938
            ]
          }
        },
        {
          "type": "Feature",
          "properties": {
            "id": "1578549981",
            "osm_type": "node",
            "lat": 46.9683845,
            "lon": 10.1869226,
            "addr:city": "Galtür",
            "addr:country": "AT",
            "addr:housenumber": "39",
            "addr:place": "Galtür",
            "addr:postcode": "6563",
            "amenity": "post_office",
            "at_bev:addr_date": "2017-10-01",
            "name": "6563 Galtür",
            "postal_code": "6563",
            "ref": "6563",
            "type": "Post.Partner"
          },
          "geometry": {
            "type": "Point",
            "coordinates": [
              10.1869226,
              46.9683845
            ]
          }
        }
      ],
      "children": []
    },
    {
      "bbox": {
        "south": 46.70320525,
        "west": 10.484655499999999,
        "north": 47.033758500000005,
        "east": 11.438358999999998
      },
      "poiCount": 9,
      "leafCount": 9,
      "averagePosition": [
        10.967450322222222,
        46.85092958888889
      ],
      "data": [
        {
          "type": "Feature",
          "properties": {
            "id": "2674971628",
            "osm_type": "node",
            "lat": 46.8923834,
            "lon": 10.5023338,
            "addr:city": "Nauders",
            "addr:country": "AT",
            "addr:housenumber": "77",
            "addr:postcode": "6543",
            "addr:street": "Nauders",
            "amenity": "post_office",
            "name": "Post Partner 6543 Nauders",
            "opening_hours": "Mo-Fr 08:00-12:00"
          },
          "geometry": {
            "type": "Point",
            "coordinates": [
              10.5023338,
              46.8923834
            ]
          }
        },
        {
          "type": "Feature",
          "properties": {
            "id": "2431151654",
            "osm_type": "node",
            "lat": 46.9673542,
            "lon": 10.5411967,
            "amenity": "post_office"
          },
          "geometry": {
            "type": "Point",
            "coordinates": [
              10.5411967,
              46.9673542
            ]
          }
        },
        {
          "type": "Feature",
          "properties": {
            "id": "1324642448",
            "osm_type": "node",
            "lat": 46.8988457,
            "lon": 11.4309034,
            "addr:city": "Sterzing - Vipiteno",
            "addr:housenumber": "1",
            "addr:postcode": "39049",
            "addr:street": "Berggerichtsgasse - Vicolo",
            "amenity": "post_office",
            "brand": "Poste Italiane",
            "brand:wikidata": "Q495026",
            "brand:wikipedia": "en:Poste italiane",
            "name": "Poste Italiane",
            "operator": "P.T.",
            "wheelchair": "yes"
          },
          "geometry": {
            "type": "Point",
            "coordinates": [
              11.4309034,
              46.8988457
            ]
          }
        },
        {
          "type": "Feature",
          "properties": {
            "id": "2755935599",
            "osm_type": "node",
            "lat": 46.9220602,
            "lon": 11.282354,
            "addr:city": "Ratschings - Racines",
            "addr:city:de": "Ratschings",
            "addr:city:it": "Racines",
            "addr:hamlet": "Ridnaun - Ridanna",
            "addr:hamlet:de": "Ridnaun",
            "addr:hamlet:it": "Ridanna",
            "addr:housenumber": "4",
            "addr:postcode": "39040",
            "addr:street": "Maiern - Masseria",
            "addr:street:de": "Maiern",
            "addr:street:it": "Masseria",
            "amenity": "post_office",
            "name": "Poste italiane",
            "opening_hours:signed": "no"
          },
          "geometry": {
            "type": "Point",
            "coordinates": [
              11.282354,
              46.9220602
            ]
          }
        },
        {
          "type": "Feature",
          "properties": {
            "id": "1578584193",
            "osm_type": "node",
            "lat": 46.8707771,
            "lon": 11.0273729,
            "addr:city": "Obergurgl",
            "addr:country": "AT",
            "addr:housenumber": "118",
            "addr:postcode": "6456",
            "addr:street": "Gurglerstraße",
            "addr:suburb": "Obergurgl",
            "amenity": "post_office",
            "name": "Post Boutique",
            "opening_hours": "Mo-Fr 08:15-12:00,13:30-17:00",
            "phone": "+43 5256 6213",
            "ref": "6456",
            "type": "Postfiliale"
          },
          "geometry": {
            "type": "Point",
            "coordinates": [
              11.0273729,
              46.8707771
            ]
          }
        },
        {
          "type": "Feature",
          "properties": {
            "id": "2976386262",
            "osm_type": "node",
            "lat": 46.8067022,
            "lon": 10.5422789,
            "amenity": "post_office",
            "name": "Poste",
            "name:de": "Post",
            "opening_hours": "Mo-Fr 08:20-13:45; Sa 08:20-12:45"
          },
          "geometry": {
            "type": "Point",
            "coordinates": [
              10.5422789,
              46.8067022
            ]
          }
        },
        {
          "type": "Feature",
          "properties": {
            "id": "3117106912",
            "osm_type": "node",
            "lat": 46.7053535,
            "lon": 10.9096912,
            "amenity": "post_office",
            "brand": "Poste Italiane",
            "brand:wikidata": "Q495026",
            "brand:wikipedia": "en:Poste italiane",
            "name": "Poste Italiane",
            "opening_hours": "Tu 08:20-13:45; Th 08:20-13:45; Sa 08:20-12:45",
            "operator": "Poste Italiane",
            "operator:wikidata": "Q495026",
            "ref": "88040"
          },
          "geometry": {
            "type": "Point",
            "coordinates": [
              10.9096912,
              46.7053535
            ]
          }
        },
        {
          "type": "Feature",
          "properties": {
            "id": "123394959",
            "osm_type": "node",
            "lat": 46.783373,
            "lon": 11.2271894,
            "amenity": "post_office",
            "name": "Post St.Martin"
          },
          "geometry": {
            "type": "Point",
            "coordinates": [
              11.2271894,
              46.783373
            ]
          }
        },
        {
          "type": "Feature",
          "properties": {
            "id": "3666155803",
            "osm_type": "node",
            "lat": 46.811517,
            "lon": 11.2437326,
            "amenity": "post_office",
            "name": "Post St. Leonhard"
          },
          "geometry": {
            "type": "Point",
            "coordinates": [
              11.2437326,
              46.811517
            ]
          }
        }
      ],
      "children": []
    }
  ]
}