{
  "bbox": {
    "south": 47.694865,
    "west": 15.253173,
    "north": 48.355971499999995,
    "east": 17.16058
  },
  "poiCount": 48,
  "leafCount": 48,
  "averagePosition": [
    16.255021191666668,
    48.059066075000004
  ],
  "data": [
    {
      "type": "Feature",
      "properties": {
        "id": "66147281",
        "osm_type": "node",
        "lat": 47.7717395,
        "lon": 15.3174781,
        "name": "Mariazell",
        "name:hr": "Celje",
        "name:rmc": "Cej",
        "name:sl": "Marijino Celje",
        "place": "town",
        "population": "3811",
        "population:date": "2018-01-01",
        "source:population": "wikipedia",
        "wikidata": "Q264201",
        "wikipedia": "de:Mariazell"
      },
      "geometry": {
        "type": "Point",
        "coordinates": [
          15.3174781,
          47.7717395
        ]
      }
    },
    {
      "type": "Feature",
      "properties": {
        "id": "29749399",
        "osm_type": "node",
        "lat": 47.7895615,
        "lon": 15.9124064,
        "name": "Puchberg am Schneeberg",
        "place": "town",
        "population": "2812",
        "short_name": "Puchberg"
      },
      "geometry": {
        "type": "Point",
        "coordinates": [
          15.9124064,
          47.7895615
        ]
      }
    },
    {
      "type": "Feature",
      "properties": {
        "id": "240025153",
        "osm_type": "node",
        "lat": 47.7066007,
        "lon": 16.0194688,
        "ele": "393",
        "name": "Ternitz",
        "name:ar": "تيرنتس",
        "name:he": "תרניץ",
        "name:hu": "Ternitz",
        "name:ml": "ടെർനിറ്റ്സ്",
        "name:ru": "Терниц",
        "place": "town",
        "population": "14823",
        "website": "https://www.ternitz.gv.at/",
        "wikidata": "Q659984",
        "wikipedia": "de:Ternitz"
      },
      "geometry": {
        "type": "Point",
        "coordinates": [
          16.0194688,
          47.7066007
        ]
      }
    },
    {
      "type": "Feature",
      "properties": {
        "id": "26807229",
        "osm_type": "node",
        "lat": 47.8131847,
        "lon": 16.2441166,
        "alt_name": "Wr. Neustadt",
        "ele": "262",
        "geonameid": "2761353",
        "import_ref": "city_import_at_1",
        "name": "Wiener Neustadt",
        "name:ar": "فينر نويشتات",
        "name:bg": "Винер Нойщат",
        "name:bs": "Bečko Novo Mjesto",
        "name:cs": "Vídeňské Nové Město",
        "name:de": "Wiener Neustadt",
        "name:he": "וינר נוישטט",
        "name:hr": "Bečko Novo Mjesto",
        "name:hu": "Bécsújhely",
        "name:ja": "ウィーナー・ノイシュタット",
        "name:ka": "ვენური ახალქალაქი",
        "name:lt": "Vyner Noištatas",
        "name:ml": "വീനർ നോയ്‌സ്റ്റാറ്റ്",
        "name:ru": "Винер-Нойштадт",
        "name:sk": "Viedenské Nové Mesto",
        "name:sl": "Dunajsko Novo mesto",
        "name:sr": "Винер Нојштат",
        "name:uk": "Вінер-Нойштадт",
        "name:zh": "維也納新城",
        "place": "town",
        "population": "38481",
        "source": "survey",
        "source:name": "www.geonames.org",
        "website": "https://www.wiener-neustadt.at/",
        "wikidata": "Q131612",
        "wikipedia": "de:Wiener Neustadt"
      },
      "geometry": {
        "type": "Point",
        "coordinates": [
          16.2441166,
          47.8131847
        ]
      }
    },
    {
      "type": "Feature",
      "properties": {
        "id": "26807230",
        "osm_type": "node",
        "lat": 47.7368423,
        "lon": 16.3980488,
        "ele": "238",
        "geonameid": "2771817",
        "import_ref": "city_import_at_1",
        "name": "Mattersburg",
        "name:hr": "Matrštof",
        "name:hu": "Nagymarton",
        "name:ml": "മറ്റർസ്ബർഗ്",
        "name:ru": "Маттерсбург",
        "place": "town",
        "population": "7177",
        "postal_code": "7210",
        "source:name": "www.geonames.org",
        "wikidata": "Q250832",
        "wikipedia": "de:Mattersburg"
      },
      "geometry": {
        "type": "Point",
        "coordinates": [
          16.3980488,
          47.7368423
        ]
      }
    },
    {
      "type": "Feature",
      "properties": {
        "id": "26807241",
        "osm_type": "node",
        "lat": 47.8454821,
        "lon": 16.5249288,
        "capital": "4",
        "ele": "182",
        "name": "Eisenstadt",
        "name:bar": "Eisnståd",
        "name:be": "Айзенштат",
        "name:be-tarask": "Айзенштат",
        "name:bg": "Айзенщат",
        "name:cs": "Železno",
        "name:de": "Eisenstadt",
        "name:he": "אייזנשטט",
        "name:hr": "Željezno",
        "name:hu": "Kismarton",
        "name:ka": "რკინისქალაქი",
        "name:la": "Ferreum Castrum",
        "name:lt": "Eizenštatas",
        "name:rmc": "Srasta",
        "name:ru": "Айзенштадт",
        "name:sk": "Železno",
        "name:sr": "Ајзенштат",
        "name:uk": "Айзенштадт",
        "place": "town",
        "population": "9243",
        "postal_code": "7000",
        "source:name": "www.geonames.org",
        "wikidata": "Q126321",
        "wikipedia": "de:Eisenstadt"
      },
      "geometry": {
        "type": "Point",
        "coordinates": [
          16.5249288,
          47.8454821
        ]
      }
    },
    {
      "type": "Feature",
      "properties": {
        "id": "39460210",
        "osm_type": "node",
        "lat": 47.8677623,
        "lon": 16.3764014,
        "ele": "231",
        "name": "Neufeld an der Leitha",
        "name:de": "Neufeld an der Leitha",
        "name:hr": "Novo Selo",
        "name:hu": "Lajtaújfalu",
        "name:ru": "Нойфельд-на-Лайте",
        "place": "town",
        "population": "3486",
        "ref:at:gkz": "1030901",
        "wikidata": "Q259859",
        "wikipedia": "de:Neufeld an der Leitha"
      },
      "geometry": {
        "type": "Point",
        "coordinates": [
          16.3764014,
          47.8677623
        ]
      }
    },
    {
      "type": "Feature",
      "properties": {
        "id": "240090385",
        "osm_type": "node",
        "lat": 47.7221147,
        "lon": 16.081602,
        "name": "Neunkirchen",
        "name:hu": "Neunkirchen",
        "place": "town",
        "population": "9974",
        "wikidata": "Q265948",
        "wikipedia": "de:Neunkirchen (Niederösterreich)"
      },
      "geometry": {
        "type": "Point",
        "coordinates": [
          16.081602,
          47.7221147
        ]
      }
    },
    {
      "type": "Feature",
      "properties": {
        "id": "29748318",
        "osm_type": "node",
        "lat": 47.8003459,
        "lon": 16.6749452,
        "ele": "123",
        "name": "Rust",
        "name:hr": "Rušta",
        "name:hu": "Ruszt",
        "name:ru": "Руст",
        "place": "town",
        "population": "1980"
      },
      "geometry": {
        "type": "Point",
        "coordinates": [
          16.6749452,
          47.8003459
        ]
      }
    },
    {
      "type": "Feature",
      "properties": {
        "id": "205753242",
        "osm_type": "node",
        "lat": 47.837745,
        "lon": 16.9241358,
        "alt_name": "Fertőboldogasszony",
        "ele": "124",
        "name": "Frauenkirchen",
        "name:hr": "Svetica za Jezerom",
        "name:hu": "Boldogasszony",
        "name:ru": "Фрауэнкирхен",
        "name:sk": "Ženyvody",
        "place": "town",
        "population": "2856"
      },
      "geometry": {
        "type": "Point",
        "coordinates": [
          16.9241358,
          47.837745
        ]
      }
    },
    {
      "type": "Feature",
      "properties": {
        "id": "277526831",
        "osm_type": "node",
        "lat": 47.7859228,
        "lon": 17.1364228,
        "ksh_ref": "29221",
        "name": "Jánossomorja",
        "name:de": "St. Johann",
        "name:hr": "Šomierja",
        "name:hu": "Jánossomorja",
        "name:ru": "Яношшоморья",
        "name:sr": "Јаношшоморја",
        "place": "town",
        "place:hu": "város",
        "population": "5938",
        "population:date": "2024-01-01",
        "postal_code": "9241",
        "source:population": "KSH (www.ksh.hu)",
        "source:population:date": "2024-01-01",
        "source:postal_code": "A Magyar Köztársaság Helységnévtára, 2009"
      },
      "geometry": {
        "type": "Point",
        "coordinates": [
          17.1364228,
          47.7859228
        ]
      }
    },
    {
      "type": "Feature",
      "properties": {
        "id": "29752440",
        "osm_type": "node",
        "lat": 48.2272068,
        "lon": 15.3369992,
        "ele": "213",
        "name": "Melk",
        "name:cs": "Medlík",
        "name:ru": "Мельк",
        "place": "town",
        "population": "5296",
        "wikidata": "Q489806",
        "wikipedia": "de:Melk"
      },
      "geometry": {
        "type": "Point",
        "coordinates": [
          15.3369992,
          48.2272068
        ]
      }
    },
    {
      "type": "Feature",
      "properties": {
        "id": "34844268",
        "osm_type": "node",
        "lat": 48.111069,
        "lon": 15.3410341,
        "name": "Mank",
        "place": "town",
        "population": "1571"
      },
      "geometry": {
        "type": "Point",
        "coordinates": [
          15.3410341,
          48.111069
        ]
      }
    },
    {
      "type": "Feature",
      "properties": {
        "id": "240102547",
        "osm_type": "node",
        "lat": 48.2004159,
        "lon": 15.4020198,
        "name": "Loosdorf",
        "place": "town",
        "population": "2732"
      },
      "geometry": {
        "type": "Point",
        "coordinates": [
          15.4020198,
          48.2004159
        ]
      }
    },
    {
      "type": "Feature",
      "properties": {
        "id": "27270094",
        "osm_type": "node",
        "lat": 48.1970124,
        "lon": 15.907098,
        "name": "Neulengbach",
        "name:hu": "Neulengbach",
        "name:ru": "Нойленгбах",
        "place": "town",
        "population": "1529",
        "source": "gns"
      },
      "geometry": {
        "type": "Point",
        "coordinates": [
          15.907098,
          48.1970124
        ]
      }
    },
    {
      "type": "Feature",
      "properties": {
        "id": "27270104",
        "osm_type": "node",
        "lat": 48.0348237,
        "lon": 15.7711936,
        "name": "Hainfeld",
        "name:ru": "Хайнфельд",
        "place": "town",
        "population": "2025",
        "source": "gns"
      },
      "geometry": {
        "type": "Point",
        "coordinates": [
          15.7711936,
          48.0348237
        ]
      }
    },
    {
      "type": "Feature",
      "properties": {
        "id": "60240127",
        "osm_type": "node",
        "lat": 48.2843295,
        "lon": 15.6946065,
        "name": "Herzogenburg",
        "name:ru": "Херцогенбург",
        "place": "town",
        "population": "2954"
      },
      "geometry": {
        "type": "Point",
        "coordinates": [
          15.6946065,
          48.2843295
        ]
      }
    },
    {
      "type": "Feature",
      "properties": {
        "id": "148357541",
        "osm_type": "node",
        "lat": 48.3499106,
        "lon": 15.7441868,
        "name": "Traismauer",
        "name:ru": "Трайсмауэр",
        "place": "town",
        "population": "2747",
        "source": "Population: Statistik Austria Gebietsstand 1.1.2019"
      },
      "geometry": {
        "type": "Point",
        "coordinates": [
          15.7441868,
          48.3499106
        ]
      }
    },
    {
      "type": "Feature",
      "properties": {
        "id": "240038219",
        "osm_type": "node",
        "lat": 48.2043985,
        "lon": 15.6229118,
        "capital": "4",
        "ele": "267",
        "name": "St. Pölten",
        "name:ar": "سانت بولتن",
        "name:be": "Санкт-Пёльтэн",
        "name:be-tarask": "Санкт-Пёльтэн",
        "name:cs": "Svatý Hypolit",
        "name:hr": "Sveti Hipolit",
        "name:hu": "Sankt Pölten",
        "name:ml": "സാങ്ക്റ്റ്-പോൾട്ടൻ",
        "name:ru": "Санкт-Пёльтен",
        "name:sr": "Санкт Пелтен",
        "name:uk": "Санкт-Пельтен",
        "place": "town",
        "population": "56360",
        "wikidata": "Q82500",
        "wikimedia_commons": "Category:St. Pölten",
        "wikipedia": "de:St. Pölten"
      },
      "geometry": {
        "type": "Point",
        "coordinates": [
          15.6229118,
          48.2043985
        ]
      }
    },
    {
      "type": "Feature",
      "properties": {
        "id": "240074021",
        "osm_type": "node",
        "lat": 48.0149797,
        "lon": 15.5966191,
        "name": "Lilienfeld",
        "place": "town",
        "population": "495",
        "website": "https://www.lilienfeld.at/"
      },
      "geometry": {
        "type": "Point",
        "coordinates": [
          15.5966191,
          48.0149797
        ]
      }
    },
    {
      "type": "Feature",
      "properties": {
        "id": "240090615",
        "osm_type": "node",
        "lat": 48.1050511,
        "lon": 15.6058057,
        "name": "Wilhelmsburg",
        "place": "town",
        "population": "6489",
        "population:date": "2024-01-01",
        "source:population": "wikipedia"
      },
      "geometry": {
        "type": "Point",
        "coordinates": [
          15.6058057,
          48.1050511
        ]
      }
    },
    {
      "type": "Feature",
      "properties": {
        "id": "240108142",
        "osm_type": "node",
        "lat": 47.8977953,
        "lon": 15.9596373,
        "ele": "430",
        "email": "gemeinde@pernitz.co.at",
        "name": "Pernitz",
        "phone": "02632 / 72220",
        "place": "town",
        "population": "2478",
        "ref:at:gkz": "3232302",
        "ref:at:okz": "06654",
        "website": "http://pernitz.at",
        "wikidata": "Q672797",
        "wikipedia": "de:Pernitz"
      },
      "geometry": {
        "type": "Point",
        "coordinates": [
          15.9596373,
          47.8977953
        ]
      }
    },
    {
      "type": "Feature",
      "properties": {
        "id": "17330426",
        "osm_type": "node",
        "lat": 48.2076724,
        "lon": 16.1772068,
        "ele": "248",
        "name": "Purkersdorf",
        "name:de": "Purkersdorf",
        "name:hu": "Purkersdorf",
        "name:ru": "Пуркерсдорф",
        "name:zh": "普尔克尔斯多夫",
        "place": "town",
        "population": "9684",
        "ref:at:gkz": "3241601",
        "ref:at:okz": "06722",
        "wikidata": "Q590620",
        "wikipedia": "de:Purkersdorf"
      },
      "geometry": {
        "type": "Point",
        "coordinates": [
          16.1772068,
          48.2076724
        ]
      }
    },
    {
      "type": "Feature",
      "properties": {
        "id": "27270101",
        "osm_type": "node",
        "lat": 48.0585791,
        "lon": 16.0786108,
        "name": "Alland",
        "name:hu": "Alland",
        "name:ru": "Алланд",
        "place": "town",
        "place:note": "town aufgrund der Bedeutung für die Region gewählt, obwohl population<2000 ist",
        "population": "1558",
        "population:date": "2023-01-01",
        "source:population": "wikipedia",
        "wikidata": "Q665137",
        "wikipedia": "de:Alland"
      },
      "geometry": {
        "type": "Point",
        "coordinates": [
          16.0786108,
          48.0585791
        ]
      }
    },
    {
      "type": "Feature",
      "properties": {
        "id": "27270107",
        "osm_type": "node",
        "lat": 48.3440605,
        "lon": 16.3334321,
        "name": "Korneuburg",
        "name:hu": "Korneuburg",
        "name:ru": "Корнойбург",
        "place": "town",
        "source": "gns",
        "wikidata": "Q21879671"
      },
      "geometry": {
        "type": "Point",
        "coordinates": [
          16.3334321,
          48.3440605
        ]
      }
    },
    {
      "type": "Feature",
      "properties": {
        "id": "34103909",
        "osm_type": "node",
        "lat": 47.9655519,
        "lon": 16.2148073,
        "name": "Bad Vöslau",
        "name:de": "Bad Vöslau",
        "name:hu": "Bad Vöslau",
        "name:ru": "Бад-Фёслау",
        "place": "town",
        "population": "11190",
        "wikidata": "Q798800",
        "wikipedia": "de:Bad Vöslau"
      },
      "geometry": {
        "type": "Point",
        "coordinates": [
          16.2148073,
          47.9655519
        ]
      }
    },
    {
      "type": "Feature",
      "properties": {
        "id": "34103911",
        "osm_type": "node",
        "lat": 48.0076713,
        "lon": 16.2343693,
        "addr:postcode": "2500",
        "alt_name": "Baden bei Wien",
        "alt_name:hr": "Teplice",
        "heritage": "1",
        "heritage:operator": "whc",
        "heritage:ref": "1613",
        "heritage:website": "https://whc.unesco.org/en/list/1613/",
        "name": "Baden",
        "name:cs": "Baden",
        "name:de": "Baden",
        "name:en": "Baden",
        "name:fr": "Baden",
        "name:he": "באדן",
        "name:hr": "Baden",
        "name:hu": "Baden",
        "name:it": "Baden",
        "name:lt": "Badenas",
        "name:ru": "Баден",
        "name:sk": "Baden",
        "name:sl": "Baden",
        "name:uk": "Баден",
        "note": "Stadt",
        "place": "town",
        "population": "25000",
        "ref:whc": "1613-001",
        "whc:criteria": "(ii)(iii)",
        "whc:inscription_date": "2021",
        "wikidata": "Q486450",
        "wikipedia": "de:Baden (Niederösterreich)"
      },
      "geometry": {
        "type": "Point",
        "coordinates": [
          16.2343693,
          48.0076713
        ]
      }
    },
    {
      "type": "Feature",
      "properties": {
        "id": "34104024",
        "osm_type": "node",
        "lat": 47.9455876,
        "lon": 16.1093585,
        "ele": "314",
        "name": "Berndorf",
        "name:de": "Berndorf",
        "name:hu": "Berndorf",
        "name:ru": "Берндорф",
        "place": "town",
        "population": "8698",
        "wikidata": "Q666615",
        "wikipedia": "de:Berndorf (Niederösterreich)"
      },
      "geometry": {
        "type": "Point",
        "coordinates": [
          16.1093585,
          47.9455876
        ]
      }
    },
    {
      "type": "Feature",
      "properties": {
        "id": "60041539",
        "osm_type": "node",
        "lat": 48.3311702,
        "lon": 16.05179,
        "name": "Tulln an der Donau",
        "name:cs": "Dolina",
        "name:hu": "Tulln",
        "name:la": "Comagena",
        "name:ru": "Тульн",
        "place": "town",
        "population": "12357",
        "short_name": "Tulln",
        "source": "http://www.statistik.at/wcm/idc/idcplg?IdcService=GET_PDF_FILE&RevisionSelectionMethod=LatestReleased&dDocName=103419",
        "url": "https://www.tulln.at",
        "wikidata": "Q489810"
      },
      "geometry": {
        "type": "Point",
        "coordinates": [
          16.05179,
          48.3311702
        ]
      }
    },
    {
      "type": "Feature",
      "properties": {
        "id": "240052074",
        "osm_type": "node",
        "lat": 48.0138858,
        "lon": 16.2952311,
        "name": "Traiskirchen",
        "name:fa": "ترایزکیرشن",
        "name:hu": "Traiskirchen",
        "name:ka": "ტრაისკირხენი",
        "name:ru": "Трайскирхен",
        "name:sr": "Трајскирхен",
        "name:zh": "特賴斯基興",
        "place": "town",
        "population": "18000",
        "wikidata": "Q659950",
        "wikipedia": "de:Traiskirchen"
      },
      "geometry": {
        "type": "Point",
        "coordinates": [
          16.2952311,
          48.0138858
        ]
      }
    },
    {
      "type": "Feature",
      "properties": {
        "id": "240057320",
        "osm_type": "node",
        "lat": 48.0855922,
        "lon": 16.2833526,
        "name": "Mödling",
        "name:hu": "Mödling",
        "name:ka": "მიოდლინგი",
        "name:ru": "Мёдлинг",
        "place": "town",
        "population": "20619",
        "ref:at:gkz": "31717",
        "ref:at:okz": "05156",
        "wikidata": "Q277965",
        "wikipedia": "de:Mödling"
      },
      "geometry": {
        "type": "Point",
        "coordinates": [
          16.2833526,
          48.0855922
        ]
      }
    },
    {
      "type": "Feature",
      "properties": {
        "id": "240094722",
        "osm_type": "node",
        "lat": 48.1792064,
        "lon": 16.077089,
        "alt_name:uk": "Прессбаум",
        "ele": "315",
        "name": "Pressbaum",
        "name:de": "Pressbaum",
        "name:uk": "Пресбаум",
        "name:zh": "普雷斯鲍姆",
        "note": "der alte Name bezieht sich auf den ersten Förster Paul Tanner, der hier 1675-1681 tätig war",
        "old_name": "Tannering;Tannerin;Tonnerin;Donnerin",
        "place": "town",
        "population": "6568",
        "population:date": "2023-01-01",
        "source:population": "wikipedia",
        "wikidata": "Q666577",
        "wikipedia": "de:Pressbaum"
      },
      "geometry": {
        "type": "Point",
        "coordinates": [
          16.077089,
          48.1792064
        ]
      }
    },
    {
      "type": "Feature",
      "properties": {
        "id": "240105058",
        "osm_type": "node",
        "lat": 47.9626455,
        "lon": 16.4023629,
        "name": "Ebreichsdorf",
        "name:hu": "Ebreichsdorf",
        "name:ru": "Эбрайхсдорф",
        "place": "town",
        "population": "9194",
        "wikidata": "Q646396",
        "wikipedia": "de:Ebreichsdorf"
      },
      "geometry": {
        "type": "Point",
        "coordinates": [
          16.4023629,
          47.9626455
        ]
      }
    },
    {
      "type": "Feature",
      "properties": {
        "id": "240122286",
        "osm_type": "node",
        "lat": 48.1397436,
        "lon": 16.4780312,
        "name": "Schwechat",
        "name:cs": "Švechaty",
        "name:de": "Schwechat",
        "name:hu": "Schwechat",
        "name:ka": "შვეხათი",
        "name:ru": "Швехат",
        "name:sk": "Švechaty",
        "place": "town",
        "ref:at:gkz": "30740",
        "ref:at:okz": "06728",
        "wikidata": "Q489972",
        "wikipedia": "de:Schwechat"
      },
      "geometry": {
        "type": "Point",
        "coordinates": [
          16.4780312,
          48.1397436
        ]
      }
    },
    {
      "type": "Feature",
      "properties": {
        "id": "802050695",
        "osm_type": "node",
        "lat": 48.30499,
        "lon": 16.323756,
        "name": "Klosterneuburg",
        "name:hu": "Klosterneuburg",
        "name:ml": "ക്ലോസ്റ്റർനോയ്ബർഗ്",
        "name:ru": "Клостернойбург",
        "place": "town",
        "population": "26816",
        "population:date": "2017-01-01",
        "population:source": "Statistik Austria",
        "wikidata": "Q487522",
        "wikipedia": "de:Klosterneuburg"
      },
      "geometry": {
        "type": "Point",
        "coordinates": [
          16.323756,
          48.30499
        ]
      }
    },
    {
      "type": "Feature",
      "properties": {
        "id": "29748312",
        "osm_type": "node",
        "lat": 47.913427,
        "lon": 16.6957954,
        "ele": "128",
        "name": "Purbach am Neusiedler See",
        "name:de": "Purbach am Neusiedler See",
        "name:hr": "Porpuh",
        "name:hu": "Feketeváros",
        "name:ru": "Пурбах",
        "official_name": "Purbach am Neusiedler See",
        "place": "town",
        "population": "2885",
        "short_name": "Purbach",
        "website": "https://www.purbach.at/"
      },
      "geometry": {
        "type": "Point",
        "coordinates": [
          16.6957954,
          47.913427
        ]
      }
    },
    {
      "type": "Feature",
      "properties": {
        "id": "29749984",
        "osm_type": "node",
        "lat": 48.0255094,
        "lon": 16.7790041,
        "alt_name:hr": "Bruk na Lajti",
        "name": "Bruck an der Leitha",
        "name:cs": "Most nad Litavou",
        "name:hr": "Bruka",
        "name:hu": "Lajtabruck",
        "name:ml": "ബ്രൂക്ക് ആൻ ഡെർ ലെയ്ത",
        "name:ru": "Брук-ан-дер-Лайта",
        "name:sk": "Most nad Litavou",
        "place": "town",
        "reg_name": "Bruck"
      },
      "geometry": {
        "type": "Point",
        "coordinates": [
          16.7790041,
          48.0255094
        ]
      }
    },
    {
      "type": "Feature",
      "properties": {
        "id": "29749986",
        "osm_type": "node",
        "lat": 48.1486658,
        "lon": 16.7017163,
        "name": "Orth an der Donau",
        "name:hr": "Šari Grad",
        "name:ru": "Орт-на-Дунае",
        "name:sk": "Ort",
        "place": "town",
        "place:note": "town aufgrund der Bedeutung für die Region gewählt, obwohl population<2000 ist",
        "population": "1966"
      },
      "geometry": {
        "type": "Point",
        "coordinates": [
          16.7017163,
          48.1486658
        ]
      }
    },
    {
      "type": "Feature",
      "properties": {
        "id": "59599529",
        "osm_type": "node",
        "lat": 48.3189487,
        "lon": 16.6429437,
        "name": "Strasshof an der Nordbahn",
        "name:ru": "Штрасхоф-ан-дер-Нордбан",
        "old_name": "Straßhof an der Nordbahn",
        "place": "town",
        "population": "6993",
        "short_name": "Strasshof"
      },
      "geometry": {
        "type": "Point",
        "coordinates": [
          16.6429437,
          48.3189487
        ]
      }
    },
    {
      "type": "Feature",
      "properties": {
        "id": "61102063",
        "osm_type": "node",
        "lat": 47.9491855,
        "lon": 16.8425149,
        "ele": "131",
        "name": "Neusiedl am See",
        "name:bg": "Нойзидъл ам Зее",
        "name:cs": "Nezider",
        "name:hr": "Niuzalj",
        "name:hu": "Nezsider",
        "name:ru": "Нойзидль-ам-Зе",
        "name:sk": "Nezider",
        "place": "town",
        "population": "8585",
        "website": "https://www.neusiedl-am-see.at"
      },
      "geometry": {
        "type": "Point",
        "coordinates": [
          16.8425149,
          47.9491855
        ]
      }
    },
    {
      "type": "Feature",
      "properties": {
        "id": "240040458",
        "osm_type": "node",
        "lat": 48.2778951,
        "lon": 16.9097882,
        "name": "Marchegg",
        "name:hr": "Marhek",
        "name:sk": "Moravský Hradec",
        "place": "town",
        "population": "2118",
        "website": "https://www.marchegg.at",
        "wikidata": "Q546273",
        "wikipedia": "de:Marchegg"
      },
      "geometry": {
        "type": "Point",
        "coordinates": [
          16.9097882,
          48.2778951
        ]
      }
    },
    {
      "type": "Feature",
      "properties": {
        "id": "240054941",
        "osm_type": "node",
        "lat": 48.1185885,
        "lon": 16.6112789,
        "alt_name:hr": "Fišament",
        "name": "Fischamend",
        "name:cs": "Fischamend",
        "name:de": "Fischamend",
        "name:en": "Fischamend",
        "name:hr": "Fischamend",
        "name:hu": "Fischamend",
        "name:it": "Fischamend",
        "name:ru": "Фишаменд",
        "name:sk": "Fischamend",
        "name:sl": "Fischamend",
        "name:uk": "Фішаменд",
        "place": "town",
        "population": "4416",
        "website": "http://www.fischamend.gv.at"
      },
      "geometry": {
        "type": "Point",
        "coordinates": [
          16.6112789,
          48.1185885
        ]
      }
    },
    {
      "type": "Feature",
      "properties": {
        "id": "240080957",
        "osm_type": "node",
        "lat": 48.3403867,
        "lon": 16.7187051,
        "ele": "167",
        "image": "https://commons.wikimedia.org/wiki/File:G%C3%A4nserndorf_-_Rathaus.JPG",
        "name": "Gänserndorf",
        "name:cs": "Husník",
        "name:hu": "Gänserndorf",
        "name:ru": "Гензерндорф",
        "name:sk": "Genšdorf",
        "place": "town",
        "population": "11404",
        "website": "https://www.gaenserndorf.at/",
        "wikidata": "Q259579",
        "wikipedia": "de:Gänserndorf"
      },
      "geometry": {
        "type": "Point",
        "coordinates": [
          16.7187051,
          48.3403867
        ]
      }
    },
    {
      "type": "Feature",
      "properties": {
        "id": "240095462",
        "osm_type": "node",
        "lat": 47.9744729,
        "lon": 16.6038027,
        "name": "Mannersdorf am Leithagebirge",
        "name:ru": "Маннерсдорф-ам-Ляйтагебирге",
        "place": "town",
        "population": "3731",
        "short_name": "Mannersdorf",
        "website": "https://www.mannersdorf-leithagebirge.gv.at/"
      },
      "geometry": {
        "type": "Point",
        "coordinates": [
          16.6038027,
          47.9744729
        ]
      }
    },
    {
      "type": "Feature",
      "properties": {
        "id": "240096250",
        "osm_type": "node",
        "lat": 48.1466103,
        "lon": 16.9422459,
        "ele": "161",
        "name": "Hainburg an der Donau",
        "name:hr": "Hamborak",
        "name:sk": "Hainburg nad Dunajom",
        "official_name": "Hainburg an der Donau",
        "place": "town",
        "population": "6725",
        "short_name": "Hainburg",
        "website": "https://www.hainburg-donau.gv.at/",
        "wikidata": "Q752107",
        "wikipedia": "de:Hainburg an der Donau"
      },
      "geometry": {
        "type": "Point",
        "coordinates": [
          16.9422459,
          48.1466103
        ]
      }
    },
    {
      "type": "Feature",
      "properties": {
        "id": "240109644",
        "osm_type": "node",
        "lat": 48.2018,
        "lon": 16.5519598,
        "name": "Groß-Enzersdorf",
        "name:cs": "Hrubý Enčesdorf",
        "name:ru": "Гросэнцерсдорф",
        "name:sk": "Hrubý Enčisdorf",
        "place": "town",
        "population": "8532"
      },
      "geometry": {
        "type": "Point",
        "coordinates": [
          16.5519598,
          48.2018
        ]
      }
    },
    {
      "type": "Feature",
      "properties": {
        "id": "746030027",
        "osm_type": "node",
        "lat": 48.2959872,
        "lon": 16.5568452,
        "alt_name:cs": "Německý Ogrun",
        "alt_name:hr": "Nimški Ogrun",
        "name": "Deutsch-Wagram",
        "name:cs": "Deutsch-Wagram",
        "name:de": "Deutsch-Wagram",
        "name:en": "Deutsch-Wagram",
        "name:hr": "Deutsch-Wagram",
        "name:hu": "Deutsch-Wagram",
        "name:it": "Deutsch-Wagram",
        "name:ru": "Дойч-Ваграм",
        "name:sk": "Nemecký Ogrún",
        "name:sl": "Deutsch-Wagram",
        "name:uk": "Дойч-Ваграм",
        "old_name:-1560": "Wagram",
        "place": "town",
        "population": "7830"
      },
      "geometry": {
        "type": "Point",
        "coordinates": [
          16.5568452,
          48.2959872
        ]
      }
    },
    {
      "type": "Feature",
      "properties": {
        "id": "26036885",
        "osm_type": "node",
        "lat": 48.273044,
        "lon": 17.0329528,
        "city_id": "508233",
        "ele": "185",
        "import_ref": "city_import_sk_1",
        "name": "Stupava",
        "name:de": "Stampfen",
        "name:hu": "Stomfa",
        "name:pl": "Stupava",
        "name:sk": "Stupava",
        "place": "town",
        "population": "8745",
        "postal_code": "900 31",
        "region_id": "106",
        "source:name": "http://earth-info.nga.mil/gns/html/cntry_files.html,www.statistics.sk",
        "website": "https://www.stupava.sk/",
        "wikidata": "Q782928",
        "wikipedia": "sk:Stupava"
      },
      "geometry": {
        "type": "Point",
        "coordinates": [
          17.0329528,
          48.273044
        ]
      }
    }
  ],
  "children": []
}