{
  "bbox": {
    "south": 48.355971499999995,
    "west": 13.345766,
    "north": 49.017078,
    "east": 15.253173
  },
  "poiCount": 35,
  "leafCount": 35,
  "averagePosition": [
    14.34206094857143,
    48.76964959714286
  ],
  "data": [
    {
      "type": "Feature",
      "properties": {
        "id": "34823766",
        "osm_type": "node",
        "lat": 48.4569975,
        "lon": 13.4318,
        "name": "Schärding",
        "name:ru": "Шердинг",
        "place": "town",
        "source": "survey"
      },
      "geometry": {
        "type": "Point",
        "coordinates": [
          13.4318,
          48.4569975
        ]
      }
    },
    {
      "type": "Feature",
      "properties": {
        "id": "63691866",
        "osm_type": "node",
        "lat": 48.7278412,
        "lon": 13.3806245,
        "name": "Tittling",
        "place": "town",
        "population": "3775",
        "wikidata": "Q33506619"
      },
      "geometry": {
        "type": "Point",
        "coordinates": [
          13.3806245,
          48.7278412
        ]
      }
    },
    {
      "type": "Feature",
      "properties": {
        "id": "240057351",
        "osm_type": "node",
        "lat": 48.5748229,
        "lon": 13.4609744,
        "ele": "312",
        "name": "Passau",
        "name:ar": "باسو",
        "name:az-Arab": "پاسو",
        "name:azb": "پاسو",
        "name:cs": "Pasov",
        "name:de": "Passau",
        "name:el": "Πάσσαου",
        "name:en": "Passau",
        "name:fa": "پاسائو",
        "name:fr": "Passau",
        "name:kk-Arab": "پاسساۋ",
        "name:la": "Batavia",
        "name:ml": "പസൌ",
        "name:pl": "Pasawa",
        "name:pnb": "پساؤ",
        "name:ru": "Пассау",
        "name:sk": "Pasov",
        "name:sr": "Пасау",
        "name:ur": "پاسو",
        "old_name:hr": "Pasov",
        "place": "town",
        "population": "54401",
        "population:date": "2023-12-31",
        "source:population": "https://www.statistikdaten.bayern.de/genesis/online",
        "wikidata": "Q4190",
        "wikipedia": "de:Passau"
      },
      "geometry": {
        "type": "Point",
        "coordinates": [
          13.4609744,
          48.5748229
        ]
      }
    },
    {
      "type": "Feature",
      "properties": {
        "id": "240124200",
        "osm_type": "node",
        "lat": 48.7790814,
        "lon": 13.4422784,
        "name": "Perlesreut",
        "place": "town",
        "population": "2981"
      },
      "geometry": {
        "type": "Point",
        "coordinates": [
          13.4422784,
          48.7790814
        ]
      }
    },
    {
      "type": "Feature",
      "properties": {
        "id": "735173869",
        "osm_type": "node",
        "lat": 48.8562388,
        "lon": 13.3969448,
        "ele": "609",
        "name": "Grafenau",
        "place": "town",
        "population": "8498",
        "wikidata": "Q507945",
        "wikipedia": "de:Grafenau (Niederbayern)"
      },
      "geometry": {
        "type": "Point",
        "coordinates": [
          13.3969448,
          48.8562388
        ]
      }
    },
    {
      "type": "Feature",
      "properties": {
        "id": "60602342",
        "osm_type": "node",
        "lat": 48.7300239,
        "lon": 13.6015841,
        "community_identification_number": "09272151",
        "de:amtlicher_gemeindeschluessel": "09272151",
        "license_plate_code": "FRG",
        "name": "Waldkirchen",
        "name:ru": "Вальдкирхен",
        "old_postal_code": "8392",
        "place": "town",
        "population": "10456",
        "postal_code": "94065",
        "telephone_area_code": "08581",
        "website": "https://www.waldkirchen.de/",
        "wikidata": "Q505961",
        "wikipedia": "de:Waldkirchen"
      },
      "geometry": {
        "type": "Point",
        "coordinates": [
          13.6015841,
          48.7300239
        ]
      }
    },
    {
      "type": "Feature",
      "properties": {
        "id": "240124093",
        "osm_type": "node",
        "lat": 48.651577,
        "lon": 13.6237403,
        "name": "Hauzenberg",
        "place": "town",
        "population": "12408",
        "wikidata": "Q255888"
      },
      "geometry": {
        "type": "Point",
        "coordinates": [
          13.6237403,
          48.651577
        ]
      }
    },
    {
      "type": "Feature",
      "properties": {
        "id": "240129389",
        "osm_type": "node",
        "lat": 48.8081923,
        "lon": 13.54737,
        "ele": "655",
        "name": "Freyung",
        "place": "town",
        "population": "7212",
        "population:date": "2012-12-31",
        "source:population": "Wikipedia",
        "wikidata": "Q32018069",
        "wikipedia": "de:Freyung"
      },
      "geometry": {
        "type": "Point",
        "coordinates": [
          13.54737,
          48.8081923
        ]
      }
    },
    {
      "type": "Feature",
      "properties": {
        "id": "3895747275",
        "osm_type": "node",
        "lat": 48.5723052,
        "lon": 13.9908156,
        "alt_name": "Rohrbach-Berg",
        "name": "Rohrbach",
        "place": "town",
        "population": "5075",
        "postal_code": "4150",
        "source:name": "Ortstafeln gemäß https://wiki.openstreetmap.org/wiki/Austria#St%C3%A4dte-_und_Ortsnamen. \"Rohrbach-Berg\" heißt die Gesamtgemeinde",
        "wikidata": "Q19848342",
        "wikipedia": "de:Rohrbach-Berg"
      },
      "geometry": {
        "type": "Point",
        "coordinates": [
          13.9908156,
          48.5723052
        ]
      }
    },
    {
      "type": "Feature",
      "properties": {
        "id": "47740705",
        "osm_type": "node",
        "lat": 48.5226514,
        "lon": 14.2930689,
        "name": "Bad Leonfelden",
        "place": "town"
      },
      "geometry": {
        "type": "Point",
        "coordinates": [
          14.2930689,
          48.5226514
        ]
      }
    },
    {
      "type": "Feature",
      "properties": {
        "id": "240093642",
        "osm_type": "node",
        "lat": 48.5112961,
        "lon": 14.5047566,
        "name": "Freistadt",
        "name:cs": "Cáhlov",
        "name:hu": "Freistadt",
        "place": "town",
        "population": "7445"
      },
      "geometry": {
        "type": "Point",
        "coordinates": [
          14.5047566,
          48.5112961
        ]
      }
    },
    {
      "type": "Feature",
      "properties": {
        "id": "1599136536",
        "osm_type": "node",
        "lat": 48.8106526,
        "lon": 14.3150586,
        "alt_name:de": "Böhmisch Krumau;Krumau an der Moldau;Krummau",
        "heritage": "1",
        "heritage:operator": "whc",
        "name": "Český Krumlov",
        "name:cs": "Český Krumlov",
        "name:de": "Krumau",
        "name:pl": "Czeski Krumlov",
        "name:ru": "Чески-Крумлов",
        "name:sr": "Чешки Крумлов",
        "place": "town",
        "population": "13028",
        "ref:whc": "617",
        "source": "csu:uir-zsj",
        "website": "http://www.mu.ckrumlov.cz",
        "wikidata": "Q188082",
        "wikipedia": "cs:Český Krumlov"
      },
      "geometry": {
        "type": "Point",
        "coordinates": [
          14.3150586,
          48.8106526
        ]
      }
    },
    {
      "type": "Feature",
      "properties": {
        "id": "1599136577",
        "osm_type": "node",
        "lat": 48.7742466,
        "lon": 14.2861607,
        "name": "Větřní",
        "name:cs": "Větřní",
        "name:de": "Wettern",
        "place": "town",
        "population": "3619",
        "ref:cobe": "181234",
        "ref:zsj": "181234",
        "source": "csu:uir-zsj",
        "wikidata": "Q2302958",
        "wikipedia": "cs:Větřní"
      },
      "geometry": {
        "type": "Point",
        "coordinates": [
          14.2861607,
          48.7742466
        ]
      }
    },
    {
      "type": "Feature",
      "properties": {
        "id": "1599136582",
        "osm_type": "node",
        "lat": 48.6154234,
        "lon": 14.3120378,
        "name": "Vyšší Brod",
        "name:cs": "Vyšší Brod",
        "name:de": "Hohenfurth",
        "name:pl": "Wyższy Bród",
        "place": "town",
        "population": "2569",
        "ref:cobe": "188999",
        "ref:zsj": "188999",
        "source": "csu:uir-zsj",
        "start_date": "before 1259",
        "website": "http://www.mestovyssibrod.cz/",
        "wikidata": "Q1019688",
        "wikipedia": "cs:Vyšší Brod"
      },
      "geometry": {
        "type": "Point",
        "coordinates": [
          14.3120378,
          48.6154234
        ]
      }
    },
    {
      "type": "Feature",
      "properties": {
        "id": "1599136586",
        "osm_type": "node",
        "lat": 48.8292557,
        "lon": 14.4635063,
        "name": "Velešín",
        "name:cs": "Velešín",
        "name:de": "Weleschin",
        "place": "town",
        "population": "3869",
        "ref:cobe": "177857",
        "ref:zsj": "177857",
        "source": "csu:uir-zsj",
        "website": "https://www.velesin.cz/",
        "wikidata": "Q2092152",
        "wikipedia": "cs:Velešín"
      },
      "geometry": {
        "type": "Point",
        "coordinates": [
          14.4635063,
          48.8292557
        ]
      }
    },
    {
      "type": "Feature",
      "properties": {
        "id": "1599136635",
        "osm_type": "node",
        "lat": 48.6547364,
        "lon": 14.3666491,
        "name": "Rožmberk nad Vltavou",
        "name:cs": "Rožmberk nad Vltavou",
        "name:de": "Rosenberg",
        "name:ru": "Рожмберк-над-Влтавоу",
        "place": "town",
        "population": "353",
        "ref:cobe": "142743",
        "ref:zsj": "142743",
        "short_name": "Rožmberk n.Vlt.",
        "source": "csu:uir-zsj",
        "website": "https://www.mestorozmberk.cz/",
        "wikidata": "Q646294",
        "wikipedia": "cs:Rožmberk nad Vltavou"
      },
      "geometry": {
        "type": "Point",
        "coordinates": [
          14.3666491,
          48.6547364
        ]
      }
    },
    {
      "type": "Feature",
      "properties": {
        "id": "1599136803",
        "osm_type": "node",
        "lat": 48.7389045,
        "lon": 14.493718,
        "name": "Kaplice",
        "name:cs": "Kaplice",
        "name:de": "Kaplitz",
        "name:la": "Caplicium",
        "place": "town",
        "population": "7078",
        "ref:cobe": "403989",
        "source": "csu:uir-zsj",
        "wikidata": "Q954808",
        "wikipedia": "cs:Kaplice"
      },
      "geometry": {
        "type": "Point",
        "coordinates": [
          14.493718,
          48.7389045
        ]
      }
    },
    {
      "type": "Feature",
      "properties": {
        "id": "1599136859",
        "osm_type": "node",
        "lat": 48.7673396,
        "lon": 14.0321919,
        "name": "Horní Planá",
        "name:cs": "Horní Planá",
        "name:de": "Oberplan",
        "place": "town",
        "population": "2098",
        "ref:cobe": "043702",
        "ref:zsj": "043702",
        "source": "csu:uir-zsj",
        "start_date": "before 1349",
        "website": "https://www.horniplana.cz/",
        "wikidata": "Q1628741",
        "wikipedia": "cs:Horní Planá"
      },
      "geometry": {
        "type": "Point",
        "coordinates": [
          14.0321919,
          48.7673396
        ]
      }
    },
    {
      "type": "Feature",
      "properties": {
        "id": "37585033",
        "osm_type": "node",
        "lat": 48.7729279,
        "lon": 14.9861752,
        "name": "Gmünd",
        "name:cs": "Cmunt",
        "name:ru": "Гмюнд",
        "place": "town",
        "population": "5088"
      },
      "geometry": {
        "type": "Point",
        "coordinates": [
          14.9861752,
          48.7729279
        ]
      }
    },
    {
      "type": "Feature",
      "properties": {
        "id": "43758043",
        "osm_type": "node",
        "lat": 48.7007937,
        "lon": 14.8941385,
        "name": "Weitra",
        "name:cs": "Vitoraz",
        "place": "town",
        "population": "1749"
      },
      "geometry": {
        "type": "Point",
        "coordinates": [
          14.8941385,
          48.7007937
        ]
      }
    },
    {
      "type": "Feature",
      "properties": {
        "id": "178470564",
        "osm_type": "node",
        "lat": 48.5731094,
        "lon": 14.9570948,
        "name": "Groß Gerungs",
        "name:cs": "Velké Kerušice",
        "place": "town",
        "population": "4737"
      },
      "geometry": {
        "type": "Point",
        "coordinates": [
          14.9570948,
          48.5731094
        ]
      }
    },
    {
      "type": "Feature",
      "properties": {
        "id": "325024484",
        "osm_type": "node",
        "lat": 48.8425812,
        "lon": 14.6391858,
        "name": "Trhové Sviny",
        "name:cs": "Trhové Sviny",
        "name:de": "Schweinitz in Böhmen",
        "place": "town",
        "population": "5132",
        "ref:cobe": "403784",
        "source": "csu:uir-zsj",
        "wikidata": "Q1019315",
        "wikipedia": "cs:Trhové Sviny"
      },
      "geometry": {
        "type": "Point",
        "coordinates": [
          14.6391858,
          48.8425812
        ]
      }
    },
    {
      "type": "Feature",
      "properties": {
        "id": "1599120799",
        "osm_type": "node",
        "lat": 48.7896693,
        "lon": 14.7783906,
        "name": "Nové Hrady",
        "name:cs": "Nové Hrady",
        "name:de": "Gratzen",
        "old_name": "Gratzen",
        "place": "town",
        "population": "2524",
        "ref:cobe": "106259",
        "ref:zsj": "106259",
        "source": "csu:uir-zsj",
        "website": "http://www.novehrady.cz",
        "wikidata": "Q1019355",
        "wikipedia": "cs:Nové Hrady"
      },
      "geometry": {
        "type": "Point",
        "coordinates": [
          14.7783906,
          48.7896693
        ]
      }
    },
    {
      "type": "Feature",
      "properties": {
        "id": "37580635",
        "osm_type": "node",
        "lat": 48.8657996,
        "lon": 15.1230155,
        "name": "Heidenreichstein",
        "name:cs": "Kamýk",
        "place": "town",
        "population": "4067",
        "website": "https://www.heidenreichstein.gv.at/"
      },
      "geometry": {
        "type": "Point",
        "coordinates": [
          15.1230155,
          48.8657996
        ]
      }
    },
    {
      "type": "Feature",
      "properties": {
        "id": "240044695",
        "osm_type": "node",
        "lat": 48.7933789,
        "lon": 15.0689756,
        "name": "Schrems",
        "name:cs": "Skřemelice",
        "name:ru": "Шремс",
        "place": "town",
        "population": "3455"
      },
      "geometry": {
        "type": "Point",
        "coordinates": [
          15.0689756,
          48.7933789
        ]
      }
    },
    {
      "type": "Feature",
      "properties": {
        "id": "240056945",
        "osm_type": "node",
        "lat": 48.6052683,
        "lon": 15.1681644,
        "name": "Zwettl",
        "name:cs": "Světlá",
        "name:de": "Zwettl",
        "place": "town",
        "population": "10908"
      },
      "geometry": {
        "type": "Point",
        "coordinates": [
          15.1681644,
          48.6052683
        ]
      }
    },
    {
      "type": "Feature",
      "properties": {
        "id": "1599209595",
        "osm_type": "node",
        "lat": 48.9095977,
        "lon": 13.8883971,
        "name": "Volary",
        "name:cs": "Volary",
        "name:de": "Wallern",
        "place": "town",
        "population": "3792",
        "ref:cobe": "404934",
        "source": "csu:uir-zsj",
        "wikidata": "Q509207",
        "wikipedia": "cs:Volary"
      },
      "geometry": {
        "type": "Point",
        "coordinates": [
          13.8883971,
          48.9095977
        ]
      }
    },
    {
      "type": "Feature",
      "properties": {
        "id": "1599209722",
        "osm_type": "node",
        "lat": 49.0129091,
        "lon": 13.997772,
        "name": "Prachatice",
        "name:cs": "Prachatice",
        "name:de": "Prachatitz",
        "name:ru": "Прахатице",
        "name:sr": "Прахатице",
        "name:sr-Latn": "Prahatice",
        "place": "town",
        "population": "10917",
        "source": "csu:uir-zsj",
        "website": "http://www.prachatice.cz",
        "wikidata": "Q327764",
        "wikipedia": "cs:Prachatice"
      },
      "geometry": {
        "type": "Point",
        "coordinates": [
          13.997772,
          49.0129091
        ]
      }
    },
    {
      "type": "Feature",
      "properties": {
        "id": "1599120750",
        "osm_type": "node",
        "lat": 48.9936055,
        "lon": 14.5411628,
        "name": "Rudolfov",
        "name:cs": "Rudolfov",
        "name:de": "Rudolfstadt",
        "place": "town",
        "population": "2575",
        "ref:cobe": "143472",
        "ref:zsj": "143472",
        "source": "csu:uir-zsj",
        "wikidata": "Q1713787",
        "wikipedia": "cs:Rudolfov"
      },
      "geometry": {
        "type": "Point",
        "coordinates": [
          14.5411628,
          48.9936055
        ]
      }
    },
    {
      "type": "Feature",
      "properties": {
        "id": "1599120812",
        "osm_type": "node",
        "lat": 49.0158765,
        "lon": 14.6083357,
        "name": "Lišov",
        "name:cs": "Lišov",
        "name:de": "Lissowa",
        "place": "town",
        "population": "2894",
        "ref:cobe": "085171",
        "ref:zsj": "085171",
        "source": "csu:uir-zsj",
        "wikidata": "Q1564700",
        "wikipedia": "cs:Lišov"
      },
      "geometry": {
        "type": "Point",
        "coordinates": [
          14.6083357,
          49.0158765
        ]
      }
    },
    {
      "type": "Feature",
      "properties": {
        "id": "1599120952",
        "osm_type": "node",
        "lat": 48.8998724,
        "lon": 14.6419628,
        "name": "Borovany",
        "name:de": "Forbes",
        "place": "town",
        "population": "4147",
        "ref:cobe": "007749",
        "ref:zsj": "007749",
        "source": "csu:uir-zsj",
        "website": "https://www.borovany-cb.cz/",
        "wikidata": "Q894102",
        "wikipedia": "cs:Borovany"
      },
      "geometry": {
        "type": "Point",
        "coordinates": [
          14.6419628,
          48.8998724
        ]
      }
    },
    {
      "type": "Feature",
      "properties": {
        "id": "1599164422",
        "osm_type": "node",
        "lat": 49.0040317,
        "lon": 14.7714476,
        "name": "Třeboň",
        "name:de": "Wittingau",
        "name:pl": "Trzeboń",
        "name:ru": "Тршебонь",
        "place": "town",
        "population": "7317",
        "source": "csu:uir-zsj",
        "start_date": "before 1280",
        "website": "https://www.mesto-trebon.cz/",
        "wikidata": "Q773312"
      },
      "geometry": {
        "type": "Point",
        "coordinates": [
          14.7714476,
          49.0040317
        ]
      }
    },
    {
      "type": "Feature",
      "properties": {
        "id": "1599164429",
        "osm_type": "node",
        "lat": 48.8880893,
        "lon": 14.8746872,
        "alt_name:de": "Suchental",
        "image": "http://www.mistopisy.cz/soubory/main/7611_suchdol_nad_luznici.jpg",
        "name": "Suchdol nad Lužnicí",
        "name:cs": "Suchdol nad Lužnicí",
        "name:de": "Suchenthal",
        "place": "town",
        "population": "3559",
        "ref:cobe": "159140",
        "ref:zsj": "159140",
        "short_name": "Suchdol n.Luž.",
        "source": "csu:uir-zsj",
        "website": "http://www.suchdol.cz/",
        "wikidata": "Q2305015",
        "wikipedia": "cs:Suchdol nad Lužnicí"
      },
      "geometry": {
        "type": "Point",
        "coordinates": [
          14.8746872,
          48.8880893
        ]
      }
    },
    {
      "type": "Feature",
      "properties": {
        "id": "37581252",
        "osm_type": "node",
        "lat": 48.9443409,
        "lon": 15.0453244,
        "name": "Litschau",
        "name:cs": "Líčov",
        "name:de": "Litschau",
        "name:ru": "Личау",
        "place": "town",
        "population": "1451",
        "wikidata": "Q669693",
        "wikipedia": "de:Litschau"
      },
      "geometry": {
        "type": "Point",
        "coordinates": [
          15.0453244,
          48.9443409
        ]
      }
    },
    {
      "type": "Feature",
      "properties": {
        "id": "240054419",
        "osm_type": "node",
        "lat": 48.944298,
        "lon": 15.0446232,
        "name": "Litschau",
        "place": "town",
        "population": "2368",
        "wikipedia": "de:Litschau"
      },
      "geometry": {
        "type": "Point",
        "coordinates": [
          15.0446232,
          48.944298
        ]
      }
    }
  ],
  "children": []
}