{
  "bbox": {
    "south": 47.033758500000005,
    "west": 9.530952,
    "north": 47.694865,
    "east": 11.438358999999998
  },
  "poiCount": 33,
  "leafCount": 33,
  "averagePosition": [
    10.323998545454545,
    47.4417441969697
  ],
  "data": [
    {
      "type": "Feature",
      "properties": {
        "id": "32627098",
        "osm_type": "node",
        "lat": 47.2375671,
        "lon": 9.5981724,
        "name": "Feldkirch",
        "name:el": "Φέλντκιρχ",
        "name:ja": "フェルトキルヒ",
        "name:mk": "Фелдкирх",
        "name:rm": "Sogn Pieder",
        "name:uk": "Фельдкірх",
        "name:zh": "費爾德基希",
        "place": "town",
        "population": "35793",
        "population:date": "2023-01-01",
        "source:population": "Statistik Austria",
        "wikidata": "Q183104",
        "wikipedia": "de:Feldkirch"
      },
      "geometry": {
        "type": "Point",
        "coordinates": [
          9.5981724,
          47.2375671
        ]
      }
    },
    {
      "type": "Feature",
      "properties": {
        "id": "176758063",
        "osm_type": "node",
        "lat": 47.3351291,
        "lon": 9.6440092,
        "alt_name:uk": "Гетцис",
        "ele": "448",
        "name": "Götzis",
        "name:de": "Götzis",
        "name:hu": "Götzis",
        "name:ru": "Гётцис",
        "name:uk": "Ґьотціс",
        "name:zh": "格齐斯",
        "place": "town",
        "population": "12041",
        "population:date": "2023-01-01",
        "postal_code": "6840",
        "source:population": "Statistik Austria",
        "website": "https://goetzis.at/",
        "wikidata": "Q698573",
        "wikipedia": "de:Götzis"
      },
      "geometry": {
        "type": "Point",
        "coordinates": [
          9.6440092,
          47.3351291
        ]
      }
    },
    {
      "type": "Feature",
      "properties": {
        "id": "240029790",
        "osm_type": "node",
        "lat": 47.2703808,
        "lon": 9.6426923,
        "loc_name": "Rankwil",
        "name": "Rankweil",
        "name:de": "Rankweil",
        "name:hu": "Rankweil",
        "name:uk": "Ранквайль",
        "name:zh": "兰克韦尔",
        "place": "town",
        "population": "12150",
        "population:date": "2023-01-01",
        "postal_code": "6830",
        "source:population": "Statistik Austria"
      },
      "geometry": {
        "type": "Point",
        "coordinates": [
          9.6426923,
          47.2703808
        ]
      }
    },
    {
      "type": "Feature",
      "properties": {
        "id": "240079280",
        "osm_type": "node",
        "lat": 47.3639973,
        "lon": 9.689271,
        "ele": "432",
        "name": "Hohenems",
        "name:ru": "Хоэнемс",
        "name:uk": "Гогенемс",
        "name:zh": "霍恩埃姆斯",
        "place": "town",
        "population": "16720",
        "population:date": "2020-01-01",
        "postal_code": "6845",
        "source:population": "Statistik Austria",
        "website": "https://www.hohenems.at/",
        "wikidata": "Q698591",
        "wikipedia": "de:Hohenems"
      },
      "geometry": {
        "type": "Point",
        "coordinates": [
          9.689271,
          47.3639973
        ]
      }
    },
    {
      "type": "Feature",
      "properties": {
        "id": "240103067",
        "osm_type": "node",
        "lat": 47.153037,
        "lon": 9.8219314,
        "name": "Bludenz",
        "name:mk": "Блуденц",
        "name:pl": "Bogna",
        "name:uk": "Блуденц",
        "name:zh": "布卢登茨",
        "place": "town",
        "population": "15029",
        "population:date": "2023-01-01",
        "source:population": "Statistik Austria",
        "wikidata": "Q494504",
        "wikipedia": "de:Bludenz"
      },
      "geometry": {
        "type": "Point",
        "coordinates": [
          9.8219314,
          47.153037
        ]
      }
    },
    {
      "type": "Feature",
      "properties": {
        "id": "61764877",
        "osm_type": "node",
        "lat": 47.2381536,
        "lon": 10.7406982,
        "ele": "827",
        "name": "Imst",
        "name:ja": "イムスト",
        "name:ru": "Имст",
        "name:zh": "伊姆斯特",
        "openGeoDB:auto_update": "population,is_in",
        "openGeoDB:community_identification_number": "7020301",
        "openGeoDB:is_in": "Imst,Imst,Tirol,Österreich,Europe",
        "openGeoDB:is_in_loc_id": "77442",
        "openGeoDB:layer": "7",
        "openGeoDB:loc_id": "29516",
        "openGeoDB:name": "Imst",
        "openGeoDB:population": "8689",
        "openGeoDB:postal_codes": "6460",
        "openGeoDB:sort_name": "IMST",
        "openGeoDB:type": "Ort",
        "openGeoDB:version": "0.2.6.11 / 2007-12-04 / http://fa-technik.adfc.de/code/opengeodb/dump/",
        "opengeodb:lat": "47.2381536",
        "opengeodb:lon": "10.7406982",
        "place": "town",
        "population": "10504"
      },
      "geometry": {
        "type": "Point",
        "coordinates": [
          10.7406982,
          47.2381536
        ]
      }
    },
    {
      "type": "Feature",
      "properties": {
        "id": "79977566",
        "osm_type": "node",
        "lat": 47.1424135,
        "lon": 10.5704571,
        "ele": "817",
        "name": "Landeck",
        "name:ru": "Ландекк",
        "name:zh": "蘭德克",
        "openGeoDB:auto_update": "population,is_in",
        "openGeoDB:community_identification_number": "7061401",
        "openGeoDB:is_in": "Landeck,Landeck,Tirol,Österreich,Europe",
        "openGeoDB:is_in_loc_id": "77817",
        "openGeoDB:layer": "7",
        "openGeoDB:loc_id": "77818",
        "openGeoDB:name": "Landeck",
        "openGeoDB:population": "7336",
        "openGeoDB:postal_codes": "6500",
        "openGeoDB:sort_name": "LANDECK",
        "openGeoDB:type": "Ort",
        "openGeoDB:version": "0.2.6.11 / 2007-12-04 / http://fa-technik.adfc.de/code/opengeodb/dump/",
        "opengeodb:lat": "47.1424135",
        "opengeodb:lon": "10.5704571",
        "place": "town",
        "population": "7336"
      },
      "geometry": {
        "type": "Point",
        "coordinates": [
          10.5704571,
          47.1424135
        ]
      }
    },
    {
      "type": "Feature",
      "properties": {
        "id": "76472938",
        "osm_type": "node",
        "lat": 47.3046511,
        "lon": 11.071515,
        "ele": "634",
        "name": "Telfs",
        "name:hu": "Telfs",
        "openGeoDB:auto_update": "population,is_in",
        "openGeoDB:community_identification_number": "7035712",
        "openGeoDB:is_in": "Telfs,Innsbruck-Land,Tirol,Österreich,Europe",
        "openGeoDB:is_in_loc_id": "77599",
        "openGeoDB:layer": "7",
        "openGeoDB:loc_id": "30241",
        "openGeoDB:name": "Telfs",
        "openGeoDB:population": "15920",
        "openGeoDB:postal_codes": "6410",
        "openGeoDB:sort_name": "TELFS",
        "openGeoDB:type": "Markt",
        "openGeoDB:version": "0.2.6.11 / 2007-12-04 / http://fa-technik.adfc.de/code/opengeodb/dump/",
        "opengeodb:lat": "47.3051446",
        "opengeodb:lon": "11.0715813",
        "place": "town",
        "population": "15920",
        "wikidata": "Q660015",
        "wikipedia": "de:Telfs"
      },
      "geometry": {
        "type": "Point",
        "coordinates": [
          11.071515,
          47.3046511
        ]
      }
    },
    {
      "type": "Feature",
      "properties": {
        "id": "240054234",
        "osm_type": "node",
        "lat": 47.1530974,
        "lon": 11.3490587,
        "ele": "937",
        "name": "Fulpmes",
        "name:ru": "Фульпмес",
        "openGeoDB:auto_update": "population,place,name,is_in",
        "openGeoDB:community_identification_number": "7031001",
        "openGeoDB:is_in": "Fulpmes,Innsbruck-Land,Tirol,Österreich,Europe",
        "openGeoDB:is_in_loc_id": "77510",
        "openGeoDB:layer": "7",
        "openGeoDB:loc_id": "29311",
        "openGeoDB:location": "locality",
        "openGeoDB:name": "Fulpmes",
        "openGeoDB:population": "2842",
        "openGeoDB:postal_codes": "6166",
        "openGeoDB:sort_name": "FULPMES",
        "openGeoDB:type": "Ort",
        "openGeoDB:version": "0.2.6.11 / 2007-12-04 / http://fa-technik.adfc.de/code/opengeodb/dump/",
        "place": "town",
        "population": "4200",
        "wikidata": "Q669803",
        "wikimedia_commons": "Category:Fulpmes",
        "wikipedia": "de:Fulpmes"
      },
      "geometry": {
        "type": "Point",
        "coordinates": [
          11.3490587,
          47.1530974
        ]
      }
    },
    {
      "type": "Feature",
      "properties": {
        "id": "240110573",
        "osm_type": "node",
        "lat": 47.1106408,
        "lon": 11.307579,
        "ele": "994",
        "name": "Neustift im Stubaital",
        "name:ru": "Нойштифт-им-Штубайталь",
        "openGeoDB:auto_update": "population,place,name,is_in",
        "openGeoDB:community_identification_number": "70334",
        "openGeoDB:is_in": "Innsbruck-Land,Tirol,Österreich,Europe",
        "openGeoDB:is_in_loc_id": "77494",
        "openGeoDB:layer": "6",
        "openGeoDB:loc_id": "77557",
        "openGeoDB:location": "political_structure",
        "openGeoDB:name": "Neustift im Stubaital",
        "openGeoDB:population": "4504",
        "openGeoDB:postal_codes": "6167",
        "openGeoDB:sort_name": "NEUSTIFT",
        "openGeoDB:type": "Gemeinde",
        "openGeoDB:version": "0.2.6.11 / 2007-12-04 / http://fa-technik.adfc.de/code/opengeodb/dump/",
        "place": "town",
        "population": "4600",
        "wikidata": "Q526569",
        "wikipedia": "de:Neustift im Stubaital"
      },
      "geometry": {
        "type": "Point",
        "coordinates": [
          11.307579,
          47.1106408
        ]
      }
    },
    {
      "type": "Feature",
      "properties": {
        "id": "36307162",
        "osm_type": "node",
        "lat": 47.6856552,
        "lon": 9.8342247,
        "alt_name": "Wangen;Wangen i.A.",
        "ele": "556",
        "name": "Wangen im Allgäu",
        "name:de": "Wangen im Allgäu",
        "name:ru": "Ванген-им-Алльгой",
        "place": "town",
        "postal_code": "88239",
        "wikidata": "Q32752729"
      },
      "geometry": {
        "type": "Point",
        "coordinates": [
          9.8342247,
          47.6856552
        ]
      }
    },
    {
      "type": "Feature",
      "properties": {
        "id": "58045545",
        "osm_type": "node",
        "lat": 47.6015605,
        "lon": 9.8863905,
        "alt_name": "Lindenberg",
        "ele": "764",
        "name": "Lindenberg im Allgäu",
        "place": "town",
        "postal_code": "88161",
        "short_name": "Lindenberg i. Allgäu",
        "wikidata": "Q131674250"
      },
      "geometry": {
        "type": "Point",
        "coordinates": [
          9.8863905,
          47.6015605
        ]
      }
    },
    {
      "type": "Feature",
      "properties": {
        "id": "79994020",
        "osm_type": "node",
        "lat": 47.4136351,
        "lon": 9.7423762,
        "ele": "437",
        "name": "Dornbirn",
        "name:hu": "Dornbirn",
        "name:ja": "ドルンビルン",
        "name:ru": "Дорнбирн",
        "name:uk": "Дорнбірн",
        "name:zh": "多恩比恩",
        "place": "town",
        "population": "51222",
        "population:date": "2023-01-01",
        "postal_code": "6850",
        "source:population": "Statistik Austria",
        "website": "https://www.dornbirn.at",
        "wikidata": "Q171219",
        "wikipedia": "de:Dornbirn"
      },
      "geometry": {
        "type": "Point",
        "coordinates": [
          9.7423762,
          47.4136351
        ]
      }
    },
    {
      "type": "Feature",
      "properties": {
        "id": "240030533",
        "osm_type": "node",
        "lat": 47.550753,
        "lon": 9.6926624,
        "alt_name": "Lindau am Bodensee",
        "capital": "6",
        "ele": "401",
        "name": "Lindau (Bodensee)",
        "name:de": "Lindau (Bodensee)",
        "name:ja": "リンダウ",
        "name:ru": "Линдау",
        "name:uk": "Ліндау",
        "name:zh": "林道",
        "official_name": "Lindau (Bodensee)",
        "place": "town",
        "postal_code": "88131"
      },
      "geometry": {
        "type": "Point",
        "coordinates": [
          9.6926624,
          47.550753
        ]
      }
    },
    {
      "type": "Feature",
      "properties": {
        "id": "240046111",
        "osm_type": "node",
        "lat": 47.3782189,
        "lon": 9.5413964,
        "addr:city": "Altstätten SG",
        "addr:country": "CH",
        "addr:postcode": "9450",
        "description": "Altstätten ist eine Kleinstadt und politische Gemeinde in der Region und im Wahlkreis Rheintal im Kanton St. Gallen in der Ostschweiz. Als historischer Marktort bildet Altstätten seit dem Mittelalter ein Zentrum der Region.  Altstätten is a small historic",
        "name": "Altstätten SG",
        "name:ru": "Альтштеттен",
        "place": "town",
        "population": "11891",
        "website": "https://www.altstaetten.ch/",
        "wikidata": "Q68281",
        "wikipedia": "de:Altstätten"
      },
      "geometry": {
        "type": "Point",
        "coordinates": [
          9.5413964,
          47.3782189
        ]
      }
    },
    {
      "type": "Feature",
      "properties": {
        "id": "240076703",
        "osm_type": "node",
        "lat": 47.4747262,
        "lon": 9.7313331,
        "alt_name:uk": "Ляутерах",
        "name": "Lauterach",
        "name:uk": "Лаутерах",
        "name:zh": "劳特阿赫",
        "place": "town",
        "population": "10433",
        "population:date": "2023-01-01",
        "postal_code": "6923",
        "source:population": "Statistik Austria",
        "website": "https://www.lauterach.at/",
        "wikidata": "Q699781",
        "wikipedia": "de:Lauterach (Vorarlberg)"
      },
      "geometry": {
        "type": "Point",
        "coordinates": [
          9.7313331,
          47.4747262
        ]
      }
    },
    {
      "type": "Feature",
      "properties": {
        "id": "240108057",
        "osm_type": "node",
        "lat": 47.4276538,
        "lon": 9.6599406,
        "alt_name:uk": "Люстенау",
        "ele": "404",
        "loc_name:uk": "Люштенау",
        "name": "Lustenau",
        "name:de": "Lustenau",
        "name:hu": "Lustenau",
        "name:uk": "Лустенау",
        "name:zh": "盧斯特瑙",
        "old_name": "Lustenoua",
        "place": "town",
        "population": "24688",
        "population:date": "2025-03-01",
        "postal_code": "6890;6893",
        "source:population": "https://vorarlberg.at/documents/302033/472238/Bev%C3%B6lkerung+M%C3%A4rz+2025.pdf/9b7972d3-dfef-cf00-44d7-f8c16ec9b422?t=1744695873075",
        "website": "https://www.lustenau.at/",
        "wikidata": "Q488315",
        "wikipedia": "de:Lustenau"
      },
      "geometry": {
        "type": "Point",
        "coordinates": [
          9.6599406,
          47.4276538
        ]
      }
    },
    {
      "type": "Feature",
      "properties": {
        "id": "1898614152",
        "osm_type": "node",
        "lat": 47.5025779,
        "lon": 9.7472924,
        "capital": "4",
        "ele": "427",
        "name": "Bregenz",
        "name:be": "Брэгенц",
        "name:be-tarask": "Брэгенц",
        "name:de": "Bregenz",
        "name:fr": "Brégence",
        "name:hu": "Bregenz",
        "name:pl": "Bregencja",
        "name:ru": "Брегенц",
        "name:uk": "Брегенц",
        "name:zh": "布雷根茨",
        "place": "town",
        "population": "29620",
        "population:date": "2023-01-01",
        "postal_code": "6900",
        "source": "wikipedia.de",
        "source:population": "Statistik Austria",
        "website": "https://www.bregenz.at/",
        "wikidata": "Q1737",
        "wikipedia": "de:Bregenz"
      },
      "geometry": {
        "type": "Point",
        "coordinates": [
          9.7472924,
          47.5025779
        ]
      }
    },
    {
      "type": "Feature",
      "properties": {
        "id": "1934386847",
        "osm_type": "node",
        "lat": 47.6716558,
        "lon": 9.5891158,
        "de:amtlicher_gemeindeschluessel": "08435057",
        "ele": "466",
        "name": "Tettnang",
        "name:de": "Tettnang",
        "name:prefix": "Stadt",
        "name:ru": "Теттнанг",
        "place": "town",
        "population": "20350",
        "population:date": "2023-13-31",
        "postal_code": "88069",
        "website": "https://www.tettnang.de",
        "wikidata": "Q506323",
        "wikipedia": "de:Tettnang"
      },
      "geometry": {
        "type": "Point",
        "coordinates": [
          9.5891158,
          47.6716558
        ]
      }
    },
    {
      "type": "Feature",
      "properties": {
        "id": "21635999",
        "osm_type": "node",
        "lat": 47.5062921,
        "lon": 10.3699251,
        "ele": "825",
        "name": "Bad Hindelang",
        "name:sr": "Бад Хинделанг",
        "place": "town",
        "postal_code": "87541",
        "wikidata": "Q124605307"
      },
      "geometry": {
        "type": "Point",
        "coordinates": [
          10.3699251,
          47.5062921
        ]
      }
    },
    {
      "type": "Feature",
      "properties": {
        "id": "26315938",
        "osm_type": "node",
        "lat": 47.5135363,
        "lon": 10.281931,
        "ele": "741",
        "name": "Sonthofen",
        "name:ar": "زونتهوفن",
        "name:bar": "Sonthofa",
        "name:de": "Sonthofen",
        "name:fa": "زونتهوفن",
        "name:hy": "Զոնտհոֆեն",
        "name:ru": "Зонтхофен",
        "name:sr": "Зонтхофен",
        "name:zh": "松特霍芬",
        "place": "town",
        "postal_code": "87527",
        "wikidata": "Q131674010"
      },
      "geometry": {
        "type": "Point",
        "coordinates": [
          10.281931,
          47.5135363
        ]
      }
    },
    {
      "type": "Feature",
      "properties": {
        "id": "58800249",
        "osm_type": "node",
        "lat": 47.5597931,
        "lon": 10.2190503,
        "ele": "729",
        "name": "Immenstadt im Allgäu",
        "place": "town",
        "postal_code": "87509",
        "wikidata": "Q124609121"
      },
      "geometry": {
        "type": "Point",
        "coordinates": [
          10.2190503,
          47.5597931
        ]
      }
    },
    {
      "type": "Feature",
      "properties": {
        "id": "240029689",
        "osm_type": "node",
        "lat": 47.6920098,
        "lon": 10.0395239,
        "name": "Isny im Allgäu",
        "name:de": "Isny im Allgäu",
        "name:ru": "Исни-им-Алльгой",
        "place": "town",
        "wikidata": "Q513446"
      },
      "geometry": {
        "type": "Point",
        "coordinates": [
          10.0395239,
          47.6920098
        ]
      }
    },
    {
      "type": "Feature",
      "properties": {
        "id": "1580312096",
        "osm_type": "node",
        "lat": 47.4104347,
        "lon": 10.2774409,
        "ele": "813",
        "name": "Oberstdorf",
        "place": "town",
        "wikidata": "Q32202694"
      },
      "geometry": {
        "type": "Point",
        "coordinates": [
          10.2774409,
          47.4104347
        ]
      }
    },
    {
      "type": "Feature",
      "properties": {
        "id": "27388601",
        "osm_type": "node",
        "lat": 47.5675998,
        "lon": 10.6993217,
        "alt_name": "Fuessen",
        "ele": "808",
        "name": "Füssen",
        "name:bar": "Fiassa",
        "name:de": "Füssen",
        "name:sr": "Фисен",
        "openGeoDB:community_identification_number": "09777129",
        "openGeoDB:license_plate_code": "OAL",
        "openGeoDB:loc_id": "16768",
        "openGeoDB:telephone_area_code": "08362",
        "place": "town",
        "population": "14139",
        "wikidata": "Q262684",
        "wikipedia": "de:Füssen"
      },
      "geometry": {
        "type": "Point",
        "coordinates": [
          10.6993217,
          47.5675998
        ]
      }
    },
    {
      "type": "Feature",
      "properties": {
        "id": "240032338",
        "osm_type": "node",
        "lat": 47.5493283,
        "lon": 10.6304727,
        "ele": "826",
        "name": "Vils",
        "place": "town",
        "postal_code": "6682",
        "wikidata": "Q130754263"
      },
      "geometry": {
        "type": "Point",
        "coordinates": [
          10.6304727,
          47.5493283
        ]
      }
    },
    {
      "type": "Feature",
      "properties": {
        "id": "240056881",
        "osm_type": "node",
        "lat": 47.4891092,
        "lon": 10.7187955,
        "ele": "853",
        "name": "Reutte",
        "name:ru": "Ройтте",
        "name:zh": "羅伊特",
        "openGeoDB:auto_update": "population,is_in",
        "openGeoDB:community_identification_number": "7082801",
        "openGeoDB:is_in": "Reutte,Tirol,Österreich,Europe",
        "openGeoDB:is_in_loc_id": "78102",
        "openGeoDB:layer": "7",
        "openGeoDB:loc_id": "30050",
        "openGeoDB:location": "locality",
        "openGeoDB:name": "Reutte",
        "openGeoDB:population": "5719",
        "openGeoDB:postal_codes": "6600",
        "openGeoDB:sort_name": "REUTTE",
        "openGeoDB:type": "Stadt",
        "openGeoDB:version": "0.2.6.11 / 2007-12-04 / http://fa-technik.adfc.de/code/opengeodb/dump/",
        "place": "town",
        "population": "5719"
      },
      "geometry": {
        "type": "Point",
        "coordinates": [
          10.7187955,
          47.4891092
        ]
      }
    },
    {
      "type": "Feature",
      "properties": {
        "id": "240100634",
        "osm_type": "node",
        "lat": 47.3986534,
        "lon": 10.9205046,
        "ele": "994",
        "name": "Ehrwald",
        "openGeoDB:auto_update": "population,place,name,is_in",
        "openGeoDB:community_identification_number": "7080701",
        "openGeoDB:is_in": "Ehrwald,Reutte,Tirol,Österreich,Europe",
        "openGeoDB:is_in_loc_id": "78046",
        "openGeoDB:layer": "7",
        "openGeoDB:loc_id": "29234",
        "openGeoDB:location": "locality",
        "openGeoDB:name": "Ehrwald",
        "openGeoDB:population": "2554",
        "openGeoDB:postal_codes": "6632",
        "openGeoDB:sort_name": "EHRWALD",
        "openGeoDB:type": "Ort",
        "openGeoDB:version": "0.2.6.11 / 2007-12-04 / http://fa-technik.adfc.de/code/opengeodb/dump/",
        "place": "town",
        "population": "2554"
      },
      "geometry": {
        "type": "Point",
        "coordinates": [
          10.9205046,
          47.3986534
        ]
      }
    },
    {
      "type": "Feature",
      "properties": {
        "id": "22281426",
        "osm_type": "node",
        "lat": 47.4417784,
        "lon": 11.2614288,
        "int_name": "Mittenwald",
        "name": "Mittenwald",
        "name:bar": "Mittawoid",
        "name:de": "Mittenwald",
        "name:fa": "میتنوالد",
        "name:ja": "ミッテンヴァルト",
        "name:ru": "Миттенвальд",
        "name:sr": "Митенвалд",
        "name:zh": "米滕瓦尔德",
        "openGeoDB:auto_update": "population,is_in",
        "openGeoDB:community_identification_number": "09180123",
        "openGeoDB:is_in": "Garmisch-Partenkirchen,Oberbayern,Bayern,Bundesrepublik Deutschland,Europe",
        "openGeoDB:is_in_loc_id": "207",
        "openGeoDB:layer": "6",
        "openGeoDB:license_plate_code": "GAP",
        "openGeoDB:loc_id": "20976",
        "openGeoDB:name": "Mittenwald",
        "openGeoDB:population": "7926",
        "openGeoDB:postal_codes": "82481",
        "openGeoDB:sort_name": "MITTENWALD",
        "openGeoDB:telephone_area_code": "08823",
        "openGeoDB:type": "Markt",
        "openGeoDB:version": "0.2.6.11 / 2007-12-04 / http://fa-technik.adfc.de/code/opengeodb/dump/",
        "opengeodb:lat": "47.442883",
        "opengeodb:lon": "11.26493",
        "place": "town",
        "population": "7926",
        "wikidata": "Q127553",
        "wikipedia": "de:Mittenwald"
      },
      "geometry": {
        "type": "Point",
        "coordinates": [
          11.2614288,
          47.4417784
        ]
      }
    },
    {
      "type": "Feature",
      "properties": {
        "id": "27383264",
        "osm_type": "node",
        "lat": 47.4923741,
        "lon": 11.0962815,
        "ele": "708",
        "image": "https://commons.wikimedia.org/wiki/Category:Garmisch-Partenkirchen?uselang=de",
        "is_in": "Garmisch-Partenkirchen,Oberbayern,Bayern,Bundesrepublik Deutschland,Europe",
        "name": "Garmisch-Partenkirchen",
        "name:ar": "غارميش-بارتنكيرشن",
        "name:bar": "Garmasch-Partakurch",
        "name:bg": "Гармиш-Партенкирхен",
        "name:el": "Γκάρμις-Παρτενκίρχεν",
        "name:fa": "گارمیش-پارتنکیرشن",
        "name:he": "גרמיש-פרטנקירכן",
        "name:ja": "ガルミッシュ＝パルテンキルヒェン",
        "name:ko": "가르미슈파르텐키르헨",
        "name:ru": "Гармиш-Партенкирхен",
        "name:sr": "Гармиш-Партенкирхен",
        "name:uk": "Гарміш-Партенкірхен",
        "openGeoDB:community_identification_number": "09180117",
        "openGeoDB:is_in_loc_id": "207",
        "openGeoDB:layer": "6",
        "openGeoDB:license_plate_code": "GAP",
        "openGeoDB:loc_id": "16838",
        "openGeoDB:telephone_area_code": "08821",
        "openGeoDB:type": "Markt",
        "place": "town",
        "population": "26102",
        "postal_code": "82467",
        "website": "https://www.gapa.de/",
        "wikidata": "Q127043",
        "wikipedia": "de:Garmisch-Partenkirchen"
      },
      "geometry": {
        "type": "Point",
        "coordinates": [
          11.0962815,
          47.4923741
        ]
      }
    },
    {
      "type": "Feature",
      "properties": {
        "id": "31925454",
        "osm_type": "node",
        "lat": 47.597344,
        "lon": 11.0640664,
        "is_in": "Garmisch-Partenkirchen,Oberbayern,Bayern,Bundesrepublik Deutschland,Europe",
        "name": "Oberammergau",
        "name:bar": "Obaammagau",
        "name:de": "Oberammergau",
        "name:fa": "اوبر آمرگاو",
        "name:he": "אובראמרגאו",
        "name:hy": "Օբերամերգաու",
        "name:ru": "Обераммергау",
        "name:sr": "Оберамергау",
        "name:zh": "上阿瑪高",
        "note": "Wegen großer überregionaler Bedeutung als place=town getagged.",
        "openGeoDB:auto_update": "population,is_in",
        "openGeoDB:community_identification_number": "09180125",
        "openGeoDB:is_in": "Garmisch-Partenkirchen,Oberbayern,Bayern,Bundesrepublik Deutschland,Europe",
        "openGeoDB:is_in_loc_id": "207",
        "openGeoDB:layer": "6",
        "openGeoDB:license_plate_code": "GAP",
        "openGeoDB:loc_id": "21855",
        "openGeoDB:name": "Oberammergau",
        "openGeoDB:population": "5379",
        "openGeoDB:postal_codes": "82487",
        "openGeoDB:sort_name": "OBERAMMERGAU",
        "openGeoDB:telephone_area_code": "08822",
        "openGeoDB:type": "Gemeinde",
        "openGeoDB:version": "0.2.6.11 / 2007-12-04 / http://fa-technik.adfc.de/code/opengeodb/dump/",
        "opengeodb:lat": "47.5966927",
        "opengeodb:lon": "11.0673611",
        "place": "town",
        "population": "5379",
        "wikidata": "Q503757",
        "wikipedia": "de:Oberammergau"
      },
      "geometry": {
        "type": "Point",
        "coordinates": [
          11.0640664,
          47.597344
        ]
      }
    },
    {
      "type": "Feature",
      "properties": {
        "id": "1661214349",
        "osm_type": "node",
        "lat": 47.6778816,
        "lon": 11.2011903,
        "ele": "688",
        "is_in": "Garmisch-Partenkirchen,Oberbayern,Bayern,Bundesrepublik Deutschland,Europe",
        "name": "Murnau am Staffelsee",
        "official_name": "Murnau a.Staffelsee",
        "place": "town",
        "population": "12395",
        "short_name": "Murnau",
        "wikidata": "Q254356",
        "wikipedia": "de:Murnau am Staffelsee"
      },
      "geometry": {
        "type": "Point",
        "coordinates": [
          11.2011903,
          47.6778816
        ]
      }
    },
    {
      "type": "Feature",
      "properties": {
        "id": "1700556846",
        "osm_type": "node",
        "lat": 47.6659196,
        "lon": 11.0519029,
        "ele": "828",
        "name": "Bad Kohlgrub",
        "openGeoDB:auto_update": "population,is_in",
        "openGeoDB:community_identification_number": "09180112",
        "openGeoDB:is_in": "Garmisch-Partenkirchen,Oberbayern,Bayern,Bundesrepublik Deutschland,Europe",
        "openGeoDB:is_in_loc_id": "207",
        "openGeoDB:layer": "6",
        "openGeoDB:license_plate_code": "GAP",
        "openGeoDB:loc_id": "13942",
        "openGeoDB:name": "Bad Kohlgrub",
        "openGeoDB:population": "2440",
        "openGeoDB:postal_codes": "82433",
        "openGeoDB:sort_name": "BAD KOHLGRUB",
        "openGeoDB:telephone_area_code": "08845",
        "openGeoDB:type": "Gemeinde",
        "openGeoDB:version": "0.2.6.11 / 2007-12-04 / http://fa-technik.adfc.de/code/opengeodb/dump/",
        "opengeodb:lat": "47.6680305",
        "opengeodb:lon": "11.0520133",
        "place": "town",
        "population": "2900",
        "wikidata": "Q379050"
      },
      "geometry": {
        "type": "Point",
        "coordinates": [
          11.0519029,
          47.6659196
        ]
      }
    }
  ],
  "children": []
}