{
  "bbox": {
    "south": 46.372652,
    "west": 15.253173,
    "north": 47.033758500000005,
    "east": 17.16058
  },
  "poiCount": 27,
  "leafCount": 27,
  "averagePosition": [
    16.27040955925926,
    46.66863007777778
  ],
  "data": [
    {
      "type": "Feature",
      "properties": {
        "id": "96028058",
        "osm_type": "node",
        "lat": 46.5386688,
        "lon": 15.5139415,
        "ele": "307.7",
        "name": "Ruše",
        "name:de": "Maria Rast",
        "name:en": "Ruše",
        "name:ru": "Руше",
        "name:sl": "Ruše",
        "name:sr": "Руше",
        "old_name:de": "Maria Rast",
        "place": "town",
        "population": "4500",
        "source:population": "http://www.stat.si/KrajevnaImena/",
        "wikidata": "Q15914",
        "wikipedia": "sl:Ruše"
      },
      "geometry": {
        "type": "Point",
        "coordinates": [
          15.5139415,
          46.5386688
        ]
      }
    },
    {
      "type": "Feature",
      "properties": {
        "id": "34911640",
        "osm_type": "node",
        "lat": 46.7804762,
        "lon": 15.5407005,
        "name": "Leibnitz",
        "name:de": "Leibnitz",
        "name:sl": "Lipnica",
        "place": "town",
        "wikidata": "Q659860",
        "wikipedia": "de:Leibnitz"
      },
      "geometry": {
        "type": "Point",
        "coordinates": [
          15.5407005,
          46.7804762
        ]
      }
    },
    {
      "type": "Feature",
      "properties": {
        "id": "34956200",
        "osm_type": "node",
        "lat": 46.707647,
        "lon": 15.7695211,
        "alt_name:hr": "Cmurek",
        "name": "Mureck",
        "name:de": "Mureck",
        "name:en": "Mureck",
        "name:hr": "Mureck",
        "name:hu": "Murahegy",
        "name:ru": "Мурек",
        "name:sl": "Cmurek",
        "name:uk": "Мурек",
        "place": "town",
        "population": "1690",
        "wikidata": "Q163474",
        "wikipedia": "en:Mureck"
      },
      "geometry": {
        "type": "Point",
        "coordinates": [
          15.7695211,
          46.707647
        ]
      }
    },
    {
      "type": "Feature",
      "properties": {
        "id": "35526498",
        "osm_type": "node",
        "lat": 46.4198096,
        "lon": 15.8717378,
        "alt_name:de": "Pettau",
        "alt_name:it": "Poetovio",
        "alt_name:la": "Poetovio;Colonia Ulpia Traiana Poetovio",
        "name": "Ptuj",
        "name:ar": "بيتوج",
        "name:ba": "Птуй",
        "name:be": "Птуй",
        "name:bg": "Птуй",
        "name:de": "Ptuj",
        "name:el": "Πτούι",
        "name:fa": "پتوی",
        "name:he": "פטוי",
        "name:hy": "Պտույ",
        "name:ja": "プトゥイ",
        "name:ka": "პტუი",
        "name:ko": "프투이",
        "name:la": "Poetovium",
        "name:lt": "Ptujus",
        "name:mdf": "Птуй",
        "name:mk": "Птуј",
        "name:ml": "ടൂയ്",
        "name:pnb": "پتوئی",
        "name:ru": "Птуй",
        "name:sl": "Ptuj",
        "name:sr": "Птуј",
        "name:th": "ปตูย",
        "name:uk": "Птуй",
        "name:zh-Hans": "普图伊",
        "name:zh-Hant": "普圖伊",
        "old_name:hu": "Potoly",
        "place": "town",
        "population": "18339",
        "postal_code": "2250",
        "source:population": "http://www.stat.si/KrajevnaImena/",
        "website": "https://www.ptuj.si/",
        "wikidata": "Q15906",
        "wikimedia_commons": "File:Ptuj_above_Drava.jpg",
        "wikipedia": "sl:Ptuj"
      },
      "geometry": {
        "type": "Point",
        "coordinates": [
          15.8717378,
          46.4198096
        ]
      }
    },
    {
      "type": "Feature",
      "properties": {
        "id": "39284817",
        "osm_type": "node",
        "lat": 46.391944,
        "lon": 15.5727757,
        "name": "Slovenska Bistrica",
        "name:lt": "Slovenska Bistrica",
        "name:ru": "Словенска-Бистрица",
        "name:sl": "Slovenska Bistrica",
        "name:sr": "Словенска Бистрица",
        "old_name:de": "Windisch-Feistritz",
        "place": "town",
        "population": "7400",
        "source:population": "http://www.stat.si/KrajevnaImena/",
        "wikidata": "Q15917",
        "wikipedia": "sl:Slovenska Bistrica"
      },
      "geometry": {
        "type": "Point",
        "coordinates": [
          15.5727757,
          46.391944
        ]
      }
    },
    {
      "type": "Feature",
      "properties": {
        "id": "95920483",
        "osm_type": "node",
        "lat": 46.6769963,
        "lon": 15.9913176,
        "name": "Gornja Radgona",
        "name:de": "Oberradkersburg",
        "name:hu": "Felsőregede",
        "name:ru": "Горня-Радгона",
        "name:sl": "Gornja Radgona",
        "name:sr": "Горња Радгона",
        "place": "town",
        "population": "3200",
        "source:population": "http://www.stat.si/KrajevnaImena/",
        "wikidata": "Q15868",
        "wikipedia": "sl:Gornja Radgona"
      },
      "geometry": {
        "type": "Point",
        "coordinates": [
          15.9913176,
          46.6769963
        ]
      }
    },
    {
      "type": "Feature",
      "properties": {
        "id": "160235617",
        "osm_type": "node",
        "lat": 46.5763667,
        "lon": 15.830971,
        "long_name": "Lenart v Slovenskih goricah",
        "name": "Lenart",
        "name:de": "Sankt Leonhard in Windischbüheln",
        "name:ru": "Ленарт",
        "name:sl": "Lenart v Slovenskih goricah",
        "name:sr": "Ленарт в Словенских Горицах",
        "place": "town",
        "population": "3184",
        "source:population": "http://www.stat.si/KrajevnaImena/",
        "wikidata": "Q15889",
        "wikipedia": "sl:Lenart v Slovenskih goricah"
      },
      "geometry": {
        "type": "Point",
        "coordinates": [
          15.830971,
          46.5763667
        ]
      }
    },
    {
      "type": "Feature",
      "properties": {
        "id": "240041310",
        "osm_type": "node",
        "lat": 46.6880556,
        "lon": 15.9880546,
        "name": "Bad Radkersburg",
        "name:hu": "Regede",
        "name:sl": "Radgona",
        "openGeoDB:postal_codes": "8490",
        "place": "town",
        "population": "1474"
      },
      "geometry": {
        "type": "Point",
        "coordinates": [
          15.9880546,
          46.6880556
        ]
      }
    },
    {
      "type": "Feature",
      "properties": {
        "id": "29524465",
        "osm_type": "node",
        "lat": 46.6624644,
        "lon": 16.1655256,
        "alt_name:la": "Muraszombota;Murazombatya;Murazombatha;Murazumbota;Sobota",
        "name": "Murska Sobota",
        "name:ar": "موسكا سوبوتا",
        "name:be": "Мурска-Собата",
        "name:bg": "Мурска Собота",
        "name:ce": "Мурська Собота",
        "name:de": "Olsnitz",
        "name:fa": "مورسکا سبتا",
        "name:he": "מורסקה סובוטה",
        "name:hu": "Muraszombat",
        "name:hy": "Մուրսկա Սոբոտա",
        "name:ja": "ムルスカ・ソボタ",
        "name:ka": "მურსკა-სობოტა",
        "name:ko": "무르스카소보타",
        "name:la": "Belmura",
        "name:lt": "Murska Sobota",
        "name:mk": "Мурска Собота",
        "name:ru": "Мурска-Собота",
        "name:sl": "Murska Sobota",
        "name:sr": "Мурска Собота",
        "name:th": "มูร์สกาโซบอตา",
        "name:tt": "Мурска Собота",
        "name:uk": "Мурська Собота",
        "name:ur": "مورسکا سوبوتا",
        "name:zh-Hans": "穆尔斯卡索博塔",
        "name:zh-Hant": "穆爾斯卡索博塔",
        "place": "town",
        "population": "11700",
        "source:population": "http://www.stat.si/KrajevnaImena/",
        "website": "https://www.murska-sobota.si/",
        "wikidata": "Q15899",
        "wikipedia": "sl:Murska Sobota"
      },
      "geometry": {
        "type": "Point",
        "coordinates": [
          16.1655256,
          46.6624644
        ]
      }
    },
    {
      "type": "Feature",
      "properties": {
        "id": "96591043",
        "osm_type": "node",
        "lat": 46.4072383,
        "lon": 16.1489255,
        "ele": "218",
        "name": "Ormož",
        "name:de": "Friedau",
        "name:hu": "Ormosd",
        "name:ru": "Ормож",
        "name:sl": "Ormož",
        "name:sr": "Ормож",
        "place": "town",
        "population": "1914",
        "population:date": "2022",
        "source:population": "http://www.stat.si/KrajevnaImena/",
        "wikidata": "Q1944509",
        "wikipedia": "sl:Ormož"
      },
      "geometry": {
        "type": "Point",
        "coordinates": [
          16.1489255,
          46.4072383
        ]
      }
    },
    {
      "type": "Feature",
      "properties": {
        "id": "203397917",
        "osm_type": "node",
        "lat": 46.5639639,
        "lon": 16.4526468,
        "ele": "161",
        "name": "Lendava / Lendva",
        "name:de": "Unter-Limbach",
        "name:hu": "Lendva",
        "name:ru": "Лендава",
        "name:sl": "Lendava",
        "name:sr": "Лендава",
        "old_name:hu": "Alsólendva",
        "place": "town",
        "population": "2954",
        "source:population": "http://www.stat.si/KrajevnaImena/",
        "website": "https://www.lendava.si/",
        "wikidata": "Q15890",
        "wikipedia": "en:Lendava"
      },
      "geometry": {
        "type": "Point",
        "coordinates": [
          16.4526468,
          46.5639639
        ]
      }
    },
    {
      "type": "Feature",
      "properties": {
        "id": "268436671",
        "osm_type": "node",
        "lat": 46.5187046,
        "lon": 16.1967404,
        "ele": "175.1",
        "name": "Ljutomer",
        "name:de": "Luttenberg in der Steiermark",
        "name:ru": "Лютомер",
        "name:sl": "Ljutomer",
        "name:sr": "Љутомер",
        "place": "town",
        "population": "3400",
        "source:population": "http://www.stat.si/KrajevnaImena/",
        "wikidata": "Q13377820",
        "wikipedia": "sl:Ljutomer"
      },
      "geometry": {
        "type": "Point",
        "coordinates": [
          16.1967404,
          46.5187046
        ]
      }
    },
    {
      "type": "Feature",
      "properties": {
        "id": "276952211",
        "osm_type": "node",
        "lat": 46.8415658,
        "lon": 16.4182244,
        "ksh_ref": "10630",
        "name": "Őriszentpéter",
        "name:de": "St. Peter in der Wart",
        "name:ru": "Эрисентпетер",
        "name:sl": "Šempeter",
        "name:sr": "Ерисентпетер",
        "place": "town",
        "place:hu": "város",
        "population": "1022",
        "population:date": "2024-01-01",
        "postal_code": "9941",
        "source:population": "KSH (www.ksh.hu)",
        "source:population:date": "2024-01-01",
        "source:postal_code": "Magyar Posta (posta.hu)",
        "source:postal_code:date": "2009-03-01"
      },
      "geometry": {
        "type": "Point",
        "coordinates": [
          16.4182244,
          46.8415658
        ]
      }
    },
    {
      "type": "Feature",
      "properties": {
        "id": "568674747",
        "osm_type": "node",
        "lat": 46.3892305,
        "lon": 16.4368593,
        "alt_name:de": "Tschakathurn",
        "alt_name:hr": "Čakaturn",
        "alt_name:la": "Halicanum",
        "name": "Čakovec",
        "name:ar": "تشاكوفيتش",
        "name:az": "Çakovets",
        "name:be": "Чакавец",
        "name:bg": "Чаковец",
        "name:ce": "Чаковец",
        "name:ckb": "چاکۆڤێتس",
        "name:de": "Čakovec",
        "name:fa": "چاکوتس",
        "name:he": "צ'אקובץ",
        "name:hu": "Csáktornya",
        "name:hy": "Չակովեց",
        "name:ja": "チャコヴェツ",
        "name:ka": "ჩაკოვეცი",
        "name:ko": "차코베츠",
        "name:la": "Aquama",
        "name:lt": "Čakovecas",
        "name:mk": "Чаковец",
        "name:ru": "Чаковец",
        "name:rue": "Чаковец",
        "name:sq": "Çakovec",
        "name:sr": "Чаковец",
        "name:uk": "Чаковець",
        "name:ur": "چاکووتس",
        "name:zh-Hans": "查科韦茨",
        "name:zh-Hant": "查科韋茨",
        "place": "town",
        "population": "15078",
        "population:date": "2021-08-31",
        "source:population": "DZS 2021",
        "website": "https://www.cakovec.hr/web/",
        "wikidata": "Q167839",
        "wikipedia": "hr:Čakovec"
      },
      "geometry": {
        "type": "Point",
        "coordinates": [
          16.4368593,
          46.3892305
        ]
      }
    },
    {
      "type": "Feature",
      "properties": {
        "id": "1207922933",
        "osm_type": "node",
        "lat": 46.5123914,
        "lon": 16.438546,
        "name": "Mursko Središće",
        "name:ckb": "مورسکۆ سرێدیشچێ",
        "name:fa": "مورسکو سردیشچه",
        "name:hr": "Mursko Središće",
        "name:hu": "Muraszerdahely",
        "name:mk": "Мурско Средишќе",
        "name:ru": "Мурско-Средишче",
        "name:sl": "Mursko Središče",
        "name:sq": "Mursko Sredishqe",
        "name:sr": "Мурско Средишће",
        "name:uk": "Мурско Средіще",
        "name:zh-Hans": "穆尔斯科斯雷迪什切",
        "name:zh-Hant": "穆爾斯科斯雷迪什切",
        "place": "town",
        "population": "3321",
        "population:date": "2021-08-31",
        "source:population": "DZS 2021",
        "website": "https://mursko-sredisce.hr/",
        "wikidata": "Q326952",
        "wikipedia": "hr:Mursko Središće"
      },
      "geometry": {
        "type": "Point",
        "coordinates": [
          16.438546,
          46.5123914
        ]
      }
    },
    {
      "type": "Feature",
      "properties": {
        "id": "21371958",
        "osm_type": "node",
        "lat": 46.433204,
        "lon": 16.7230843,
        "ksh_ref": "12122",
        "name": "Letenye",
        "name:hr": "Letinja",
        "name:ru": "Летенье",
        "name:sl": "Letina",
        "name:sr": "Летење",
        "place": "town",
        "place:hu": "város",
        "population": "3745",
        "population:date": "2024-01-01",
        "postal_code": "8868",
        "source:population": "KSH (www.ksh.hu)",
        "source:population:date": "2024-01-01",
        "source:postal_code": "Magyar Posta (posta.hu)",
        "source:postal_code:date": "2009-03-01",
        "wikidata": "Q854969",
        "wikipedia": "en:Letenye"
      },
      "geometry": {
        "type": "Point",
        "coordinates": [
          16.7230843,
          46.433204
        ]
      }
    },
    {
      "type": "Feature",
      "properties": {
        "id": "88976335",
        "osm_type": "node",
        "lat": 46.72254,
        "lon": 17.0097774,
        "ksh_ref": "31741",
        "name": "Pacsa",
        "name:ru": "Пача",
        "name:sr": "Пача",
        "place": "town",
        "place:hu": "város",
        "population": "1528",
        "population:date": "2024-01-01",
        "postal_code": "8761",
        "source:population": "KSH (www.ksh.hu)",
        "source:population:date": "2024-01-01",
        "source:postal_code": "Magyar Posta (posta.hu)",
        "source:postal_code:date": "2009-03-01"
      },
      "geometry": {
        "type": "Point",
        "coordinates": [
          17.0097774,
          46.72254
        ]
      }
    },
    {
      "type": "Feature",
      "properties": {
        "id": "276105600",
        "osm_type": "node",
        "lat": 46.8461983,
        "lon": 16.5852286,
        "ksh_ref": "30313",
        "name": "Zalalövő",
        "name:la": "Municipium Aelium Salla",
        "name:ru": "Залалёвё",
        "name:sr": "Залалеве",
        "place": "town",
        "place:hu": "város",
        "population": "2727",
        "population:date": "2024-01-01",
        "postal_code": "8999",
        "source:population": "KSH (www.ksh.hu)",
        "source:population:date": "2024-01-01",
        "source:postal_code": "Magyar Posta (posta.hu)",
        "source:postal_code:date": "2009-03-01"
      },
      "geometry": {
        "type": "Point",
        "coordinates": [
          16.5852286,
          46.8461983
        ]
      }
    },
    {
      "type": "Feature",
      "properties": {
        "id": "285944075",
        "osm_type": "node",
        "lat": 46.6245749,
        "lon": 16.5366668,
        "ksh_ref": "12575",
        "name": "Lenti",
        "name:hr": "Lentiba",
        "name:ru": "Ленти",
        "name:sr": "Ленти",
        "old_name:de": "Nempthy",
        "place": "town",
        "place:hu": "város",
        "population": "6955",
        "population:date": "2024-01-01",
        "postal_code": "8960",
        "source:population": "KSH (www.ksh.hu)",
        "source:population:date": "2024-01-01",
        "source:postal_code": "Magyar Posta (posta.hu)",
        "source:postal_code:date": "2009-03-01",
        "wikidata": "Q854965",
        "wikipedia": "hu:Lenti"
      },
      "geometry": {
        "type": "Point",
        "coordinates": [
          16.5366668,
          46.6245749
        ]
      }
    },
    {
      "type": "Feature",
      "properties": {
        "id": "286101602",
        "osm_type": "node",
        "lat": 46.4548261,
        "lon": 16.9923923,
        "alt_name:hr": "Nađkaniža",
        "ele": "140",
        "ksh_ref": "30933",
        "name": "Nagykanizsa",
        "name:de": "Großkirchen",
        "name:hr": "Velika Kaniža",
        "name:ru": "Надьканижа",
        "name:sk": "Veľká Kaniža",
        "name:sr": "Велика Кањижа",
        "name:tr": "Kanije",
        "name:uk": "Надьканіжа",
        "old_name": "Kanizsa",
        "old_name:de": "Kanischa",
        "place": "town",
        "place:hu": "megyei jogú város",
        "population": "42502",
        "population:date": "2024-01-01",
        "postal_code": "8800",
        "source:population": "KSH (www.ksh.hu)",
        "source:population:date": "2024-01-01",
        "source:postal_code": "Magyar Posta (posta.hu)",
        "source:postal_code:date": "2009-03-01",
        "website": "https://nagykanizsa.hu/",
        "wikidata": "Q14424",
        "wikipedia": "hu:Nagykanizsa"
      },
      "geometry": {
        "type": "Point",
        "coordinates": [
          16.9923923,
          46.4548261
        ]
      }
    },
    {
      "type": "Feature",
      "properties": {
        "id": "274683600",
        "osm_type": "node",
        "lat": 46.5607855,
        "lon": 17.1221529,
        "ksh_ref": "11785",
        "name": "Zalakaros",
        "name:de": "Zalakaros",
        "name:sr": "Залакарош",
        "place": "town",
        "place:hu": "város",
        "population": "2355",
        "population:date": "2024-01-01",
        "postal_code": "8749",
        "source:population": "KSH (www.ksh.hu)",
        "source:population:date": "2024-01-01",
        "source:postal_code": "Magyar Posta (posta.hu)",
        "source:postal_code:date": "2009-03-01"
      },
      "geometry": {
        "type": "Point",
        "coordinates": [
          17.1221529,
          46.5607855
        ]
      }
    },
    {
      "type": "Feature",
      "properties": {
        "id": "34847834",
        "osm_type": "node",
        "lat": 46.9360862,
        "lon": 16.0104462,
        "alt_name:hr": "Vering",
        "name": "Fehring",
        "name:de": "Fehring",
        "name:en": "Fehring",
        "name:hr": "Fehring",
        "name:hu": "Bérfő",
        "name:ru": "Феринг",
        "name:sl": "Veržej",
        "place": "town",
        "wikidata": "Q665198",
        "wikipedia": "en:Fehring"
      },
      "geometry": {
        "type": "Point",
        "coordinates": [
          16.0104462,
          46.9360862
        ]
      }
    },
    {
      "type": "Feature",
      "properties": {
        "id": "3653282655",
        "osm_type": "node",
        "lat": 46.9527822,
        "lon": 15.8886091,
        "alt_name:hr": "Polje",
        "name": "Feldbach",
        "name:de": "Feldbach",
        "name:en": "Feldbach",
        "name:hu": "Földvár",
        "name:ru": "Фельдбах",
        "name:sl": "Vrbna",
        "place": "town",
        "population": "13369",
        "population:date": "2018-01-01",
        "wikidata": "Q672717",
        "wikipedia": "en:Feldbach, Styria"
      },
      "geometry": {
        "type": "Point",
        "coordinates": [
          15.8886091,
          46.9527822
        ]
      }
    },
    {
      "type": "Feature",
      "properties": {
        "id": "34848074",
        "osm_type": "node",
        "lat": 46.9371733,
        "lon": 16.1412906,
        "name": "Jennersdorf",
        "name:hr": "Jeništrof",
        "name:hu": "Gyanafalva",
        "name:ru": "Йеннерсдорф",
        "name:sl": "Ženavci",
        "place": "town",
        "population": "2351"
      },
      "geometry": {
        "type": "Point",
        "coordinates": [
          16.1412906,
          46.9371733
        ]
      }
    },
    {
      "type": "Feature",
      "properties": {
        "id": "286106057",
        "osm_type": "node",
        "lat": 46.9528507,
        "lon": 16.2748541,
        "ksh_ref": "31583",
        "name": "Szentgotthárd",
        "name:de": "St. Gotthard",
        "name:hu": "Szentgotthárd",
        "name:ru": "Сентготхард",
        "name:sl": "Monošter",
        "name:sr": "Сентготард",
        "place": "town",
        "place:hu": "város",
        "population": "8287",
        "population:date": "2024-01-01",
        "postal_code": "9970",
        "source:population": "KSH (www.ksh.hu)",
        "source:population:date": "2024-01-01",
        "source:postal_code": "Magyar Posta (posta.hu)",
        "source:postal_code:date": "2009-03-01",
        "wikidata": "Q604516",
        "wikimedia_commons": "Category:Szentgotthárd",
        "wikipedia": "hu:Szentgotthárd"
      },
      "geometry": {
        "type": "Point",
        "coordinates": [
          16.2748541,
          46.9528507
        ]
      }
    },
    {
      "type": "Feature",
      "properties": {
        "id": "268197049",
        "osm_type": "node",
        "lat": 47.0126655,
        "lon": 16.6010475,
        "ksh_ref": "13532",
        "name": "Körmend",
        "name:de": "Kirment",
        "name:hr": "Kirmied",
        "name:ru": "Кёрменд",
        "name:sl": "Kermendin",
        "name:sr": "Керменд",
        "old_name:de": "Pinkamünd",
        "place": "town",
        "place:hu": "város",
        "population": "10177",
        "population:date": "2024-01-01",
        "postal_code": "9900",
        "source:population": "KSH (www.ksh.hu)",
        "source:population:date": "2024-01-01",
        "source:postal_code": "Magyar Posta (posta.hu)",
        "source:postal_code:date": "2009-03-01"
      },
      "geometry": {
        "type": "Point",
        "coordinates": [
          16.6010475,
          47.0126655
        ]
      }
    },
    {
      "type": "Feature",
      "properties": {
        "id": "286102448",
        "osm_type": "node",
        "lat": 46.9438023,
        "lon": 17.0790205,
        "ksh_ref": "32522",
        "name": "Zalaszentgrót",
        "name:ru": "Заласентгрот",
        "name:sr": "Заласентгрот",
        "place": "town",
        "place:hu": "város",
        "population": "5704",
        "population:date": "2024-01-01",
        "postal_code": "8790",
        "source:population": "KSH (www.ksh.hu)",
        "source:population:date": "2024-01-01",
        "source:postal_code": "Magyar Posta (posta.hu)",
        "source:postal_code:date": "2009-03-01"
      },
      "geometry": {
        "type": "Point",
        "coordinates": [
          17.0790205,
          46.9438023
        ]
      }
    }
  ],
  "children": []
}