{
  "bbox": {
    "south": 48.355971499999995,
    "west": 11.438358999999998,
    "north": 49.017078,
    "east": 13.345766
  },
  "poiCount": 45,
  "leafCount": 45,
  "averagePosition": [
    12.357020795555556,
    48.69240218
  ],
  "data": [
    {
      "type": "Feature",
      "properties": {
        "id": "240054231",
        "osm_type": "node",
        "lat": 48.3607951,
        "lon": 12.5083828,
        "name": "Neumarkt-Sankt Veit",
        "name:ar": "نويماركت-زانكت فايت",
        "name:bar": "Neimarkt-Sankt Veit",
        "name:fa": "نویمارک-زنکت فایت",
        "name:hy": "Նոյմարքթ Սանքթ Ֆայթ",
        "name:ru": "Ноймаркт-Санкт-Файт",
        "name:sr": "Нојмаркт-Санкт Фајт",
        "name:zh": "诺伊马尔克特-圣法伊特",
        "place": "town",
        "population": "6256",
        "website": "https://www.neumarkt-sankt-veit.de",
        "wikidata": "Q161129",
        "wikipedia": "de:Neumarkt-Sankt Veit"
      },
      "geometry": {
        "type": "Point",
        "coordinates": [
          12.5083828,
          48.3607951
        ]
      }
    },
    {
      "type": "Feature",
      "properties": {
        "id": "30646242",
        "osm_type": "node",
        "lat": 48.8109495,
        "lon": 11.5008798,
        "ele": "389",
        "is_in": "Eichstätt,Oberbayern,Bayern,Bundesrepublik Deutschland,Europe",
        "name": "Kösching",
        "name:bar": "Kesching",
        "openGeoDB:community_identification_number": "09176139",
        "openGeoDB:license_plate_code": "EI",
        "openGeoDB:loc_id": "19561",
        "openGeoDB:postal_codes": "85092",
        "openGeoDB:telephone_area_code": "08456",
        "openGeoDB:type": "Markt",
        "place": "town",
        "population": "8748",
        "population:date": "2023.01.02",
        "postal_code": "85092",
        "source:population": "www.markt-koesching.de",
        "wikidata": "Q519663",
        "wikipedia": "de:Kösching"
      },
      "geometry": {
        "type": "Point",
        "coordinates": [
          11.5008798,
          48.8109495
        ]
      }
    },
    {
      "type": "Feature",
      "properties": {
        "id": "240059158",
        "osm_type": "node",
        "lat": 48.5296743,
        "lon": 11.5084954,
        "ele": "428",
        "name": "Pfaffenhofen an der Ilm",
        "name:ar": "بفافنهوفن أن در إلم",
        "name:bar": "Pfahofa",
        "name:de": "Pfaffenhofen an der Ilm",
        "name:fa": "فافنهوفن آن در ایلم",
        "name:hy": "Իլմեի Պֆաֆենխոֆեն",
        "name:ru": "Пфаффенхофен-ан-дер-Ильм",
        "name:sr": "Пфафенхофен ан дер Илм",
        "openGeoDB:community_identification_number": "09186143",
        "openGeoDB:is_in_loc_id": "436",
        "openGeoDB:layer": "6",
        "openGeoDB:license_plate_code": "PAF",
        "openGeoDB:loc_id": "22409",
        "openGeoDB:telephone_area_code": "08441",
        "place": "town",
        "population": "27318",
        "population:date": "2022-12-31",
        "postal_code": "85276",
        "source:population": "https://pfaffenhofen.de/artikel/einwohnerzahlen-und-entwicklung/",
        "website": "https://pfaffenhofen.de",
        "wikidata": "Q490319",
        "wikipedia": "de:Pfaffenhofen an der Ilm"
      },
      "geometry": {
        "type": "Point",
        "coordinates": [
          11.5084954,
          48.5296743
        ]
      }
    },
    {
      "type": "Feature",
      "properties": {
        "id": "240076504",
        "osm_type": "node",
        "lat": 48.6576634,
        "lon": 11.4683491,
        "is_in": "Reichertshofen;Pfaffenhofen an der Ilm,Oberbayern,Bayern,Bundesrepublik Deutschland,Europe",
        "name": "Reichertshofen",
        "openGeoDB:is_in_loc_id": "436",
        "openGeoDB:loc_id": "22930",
        "place": "town",
        "population": "5000",
        "wikidata": "Q489285",
        "wikipedia": "de:Reichertshofen"
      },
      "geometry": {
        "type": "Point",
        "coordinates": [
          11.4683491,
          48.6576634
        ]
      }
    },
    {
      "type": "Feature",
      "properties": {
        "id": "429972276",
        "osm_type": "node",
        "lat": 48.7171356,
        "lon": 11.4940685,
        "ele": "366",
        "name": "Manching",
        "openGeoDB:community_identification_number": "09186137",
        "openGeoDB:license_plate_code": "PAF",
        "openGeoDB:loc_id": "20586",
        "openGeoDB:telephone_area_code": "08459",
        "openGeoDB:type": "Markt",
        "place": "town",
        "population": "12500",
        "website": "https://www.manching.de/",
        "wikidata": "Q252036",
        "wikipedia": "de:Manching"
      },
      "geometry": {
        "type": "Point",
        "coordinates": [
          11.4940685,
          48.7171356
        ]
      }
    },
    {
      "type": "Feature",
      "properties": {
        "id": "21622466",
        "osm_type": "node",
        "lat": 48.6842075,
        "lon": 11.6134032,
        "is_in": "Pfaffenhofen an der Ilm,Oberbayern,Bayern,Bundesrepublik Deutschland,Europe",
        "name": "Geisenfeld",
        "name:sr": "Гајзенфелд",
        "openGeoDB:combination_of_public_administration": "Verwaltungsgemeinschaft Geisenfeld",
        "openGeoDB:community_identification_number": "09186122",
        "openGeoDB:license_plate_code": "PAF",
        "openGeoDB:loc_id": "16898",
        "openGeoDB:telephone_area_code": "08452",
        "openGeoDB:type": "Stadt",
        "place": "town",
        "population": "9704",
        "wikidata": "Q259795",
        "wikipedia": "de:Geisenfeld"
      },
      "geometry": {
        "type": "Point",
        "coordinates": [
          11.6134032,
          48.6842075
        ]
      }
    },
    {
      "type": "Feature",
      "properties": {
        "id": "26597860",
        "osm_type": "node",
        "lat": 48.4008273,
        "lon": 11.7439565,
        "ele": "448",
        "name": "Freising",
        "name:ar": "فرايزنغ",
        "name:bar": "Freising",
        "name:bg": "Фрайзинг",
        "name:el": "Φράιζινγκ",
        "name:en": "Freising",
        "name:es": "Frisinga",
        "name:fa": "فرایزنگ",
        "name:fr": "Frisingue",
        "name:hy": "Ֆրայզինգ",
        "name:it": "Frisinga",
        "name:ja": "フライジンク",
        "name:kk": "Фрайзинг",
        "name:ko": "프라이징",
        "name:la": "Frisinga",
        "name:lt": "Freizingas",
        "name:ml": "ഫ്രൈസിംഗ്",
        "name:pl": "Fryzynga",
        "name:pnb": "فریزنگ",
        "name:ru": "Фрайзинг",
        "name:sr": "Фрајзинг",
        "name:uk": "Фрайзінг",
        "name:zh": "弗赖辛",
        "place": "town",
        "population": "45857",
        "source": "genesis-online",
        "wikidata": "Q6998",
        "wikipedia": "de:Freising"
      },
      "geometry": {
        "type": "Point",
        "coordinates": [
          11.7439565,
          48.4008273
        ]
      }
    },
    {
      "type": "Feature",
      "properties": {
        "id": "60404925",
        "osm_type": "node",
        "lat": 48.603,
        "lon": 11.6269977,
        "name": "Wolnzach",
        "name:bar": "Woinza",
        "openGeoDB:community_identification_number": "09186162",
        "openGeoDB:license_plate_code": "PAF",
        "openGeoDB:loc_id": "26417",
        "openGeoDB:telephone_area_code": "08442",
        "place": "town",
        "population": "10942",
        "wikidata": "Q491958",
        "wikipedia": "de:Wolnzach"
      },
      "geometry": {
        "type": "Point",
        "coordinates": [
          11.6269977,
          48.603
        ]
      }
    },
    {
      "type": "Feature",
      "properties": {
        "id": "240036520",
        "osm_type": "node",
        "lat": 48.7546033,
        "lon": 11.8492482,
        "ele": "423",
        "name": "Siegenburg",
        "place": "town",
        "population": "1783",
        "population:date": "1987-05-25",
        "wikidata": "Q503945",
        "wikipedia": "de:Siegenburg"
      },
      "geometry": {
        "type": "Point",
        "coordinates": [
          11.8492482,
          48.7546033
        ]
      }
    },
    {
      "type": "Feature",
      "properties": {
        "id": "240055145",
        "osm_type": "node",
        "lat": 48.7706825,
        "lon": 11.6167823,
        "name": "Vohburg an der Donau",
        "place": "town",
        "population": "4724",
        "wikidata": "Q251778",
        "wikipedia": "de:Vohburg an der Donau"
      },
      "geometry": {
        "type": "Point",
        "coordinates": [
          11.6167823,
          48.7706825
        ]
      }
    },
    {
      "type": "Feature",
      "properties": {
        "id": "240071816",
        "osm_type": "node",
        "lat": 48.6410502,
        "lon": 11.7864304,
        "ele": "422",
        "name": "Mainburg",
        "name:bar": "Moarburg",
        "place": "town",
        "population": "15517",
        "population:date": "2023-12-31",
        "source:population": "https://www.statistikdaten.bayern.de/genesis/online?operation=ergebnistabelleUmfang&levelindex=1&levelid=1729675506712&downloadname=12411-003r#abreadcrumb",
        "wikidata": "Q503661",
        "wikipedia": "de:Mainburg"
      },
      "geometry": {
        "type": "Point",
        "coordinates": [
          11.7864304,
          48.6410502
        ]
      }
    },
    {
      "type": "Feature",
      "properties": {
        "id": "240081388",
        "osm_type": "node",
        "lat": 48.8092638,
        "lon": 11.7638295,
        "name": "Neustadt an der Donau",
        "openGeoDB:auto_update": "population,place,is_in",
        "openGeoDB:community_identification_number": "09273152",
        "openGeoDB:is_in": "Kelheim,Niederbayern,Bayern,Bundesrepublik Deutschland,Europe",
        "openGeoDB:is_in_loc_id": "397",
        "openGeoDB:layer": "6",
        "openGeoDB:license_plate_code": "KEH",
        "openGeoDB:loc_id": "21561",
        "openGeoDB:location": "political_structure",
        "openGeoDB:name": "Neustadt an der Donau",
        "openGeoDB:population": "12786",
        "openGeoDB:postal_codes": "93333",
        "openGeoDB:sort_name": "NEUSTADT",
        "openGeoDB:telephone_area_code": "09445",
        "openGeoDB:type": "Stadt",
        "openGeoDB:version": "0.2.6.11 / 2007-12-04 / http://fa-technik.adfc.de/code/opengeodb/dump/",
        "place": "town",
        "population": "13670",
        "postal_code": "93333",
        "website": "https://www.neustadt-donau.de",
        "wikidata": "Q269010",
        "wikipedia": "de:Neustadt an der Donau"
      },
      "geometry": {
        "type": "Point",
        "coordinates": [
          11.7638295,
          48.8092638
        ]
      }
    },
    {
      "type": "Feature",
      "properties": {
        "id": "240095322",
        "osm_type": "node",
        "lat": 48.61371,
        "lon": 11.5631671,
        "ele": "411",
        "name": "Rohrbach an der Ilm",
        "openGeoDB:community_identification_number": "09186149",
        "openGeoDB:license_plate_code": "PAF",
        "openGeoDB:loc_id": "23255",
        "openGeoDB:telephone_area_code": "08442",
        "place": "town",
        "population": "5818",
        "postal_code": "85296",
        "wikidata": "Q490174",
        "wikipedia": "de:Rohrbach (Ilm)"
      },
      "geometry": {
        "type": "Point",
        "coordinates": [
          11.5631671,
          48.61371
        ]
      }
    },
    {
      "type": "Feature",
      "properties": {
        "id": "240103106",
        "osm_type": "node",
        "lat": 48.7001539,
        "lon": 12.0282878,
        "ele": "453",
        "name": "Rottenburg an der Laaber",
        "openGeoDB:community_identification_number": "09274176",
        "openGeoDB:license_plate_code": "LA",
        "openGeoDB:loc_id": "23364",
        "openGeoDB:telephone_area_code": "08781",
        "place": "town",
        "population": "7658",
        "postal_code": "84056",
        "wikidata": "Q170243",
        "wikipedia": "de:Rottenburg an der Laaber"
      },
      "geometry": {
        "type": "Point",
        "coordinates": [
          12.0282878,
          48.7001539
        ]
      }
    },
    {
      "type": "Feature",
      "properties": {
        "id": "240108949",
        "osm_type": "node",
        "lat": 48.4667,
        "lon": 11.9333,
        "alt_name": "Moosburg a.d. Isar",
        "ele": "421",
        "name": "Moosburg an der Isar",
        "name:ar": "موسبورغ",
        "name:bar": "Mooschbuag on da Isa",
        "name:de": "Moosburg an der Isar",
        "name:fa": "موسبورگ",
        "name:ml": "മൂസ്ബർഗ്",
        "name:ru": "Мосбург-ан-дер-Изар",
        "name:sr": "Мозбург на Изару",
        "name:zh": "伊萨尔河畔莫斯堡",
        "official_name": "Moosburg a.d.Isar",
        "place": "town",
        "population": "17363",
        "postal_code": "85368",
        "website": "https://www.moosburg.de/",
        "wikidata": "Q31872",
        "wikimedia_commons": "Category:Moosburg an der Isar",
        "wikipedia": "de:Moosburg an der Isar"
      },
      "geometry": {
        "type": "Point",
        "coordinates": [
          11.9333,
          48.4667
        ]
      }
    },
    {
      "type": "Feature",
      "properties": {
        "id": "240111905",
        "osm_type": "node",
        "lat": 48.8153229,
        "lon": 11.8459604,
        "ele": "370",
        "name": "Abensberg",
        "place": "town",
        "population": "5419",
        "population:date": "1987-05-25",
        "wikidata": "Q37843470",
        "wikimedia_commons": "Category:Abensberg",
        "wikipedia": "de:Abensberg"
      },
      "geometry": {
        "type": "Point",
        "coordinates": [
          11.8459604,
          48.8153229
        ]
      }
    },
    {
      "type": "Feature",
      "properties": {
        "id": "60601502",
        "osm_type": "node",
        "lat": 48.6300801,
        "lon": 12.4977434,
        "ele": "365",
        "name": "Dingolfing",
        "name:ru": "Дингольфинг",
        "place": "town",
        "population": "19145",
        "postal_code": "84130",
        "wikidata": "Q225909",
        "wikipedia": "de:Dingolfing"
      },
      "geometry": {
        "type": "Point",
        "coordinates": [
          12.4977434,
          48.6300801
        ]
      }
    },
    {
      "type": "Feature",
      "properties": {
        "id": "240051099",
        "osm_type": "node",
        "lat": 48.8258853,
        "lon": 12.3926046,
        "name": "Geiselhöring",
        "place": "town",
        "population": "6755",
        "wikidata": "Q33438088"
      },
      "geometry": {
        "type": "Point",
        "coordinates": [
          12.3926046,
          48.8258853
        ]
      }
    },
    {
      "type": "Feature",
      "properties": {
        "id": "240053773",
        "osm_type": "node",
        "lat": 48.536217,
        "lon": 12.1516551,
        "capital": "5",
        "ele": "445",
        "image": "File:Landshut-Panorama stempel.jpg",
        "name": "Landshut",
        "name:ar": "لاندسهوت",
        "name:bar": "Landshuat",
        "name:bg": "Ландсхут",
        "name:cv": "Ландсхут",
        "name:de": "Landshut",
        "name:el": "Λάντσχουτ",
        "name:fa": "لاندسهوت",
        "name:hy": "Լանդսհուտ",
        "name:ja": "ランツフート",
        "name:ka": "ლანდსჰუტი",
        "name:ko": "란츠후트",
        "name:la": "Landishuta",
        "name:lt": "Landshutas",
        "name:ml": "ലൻഡ്സ്ഹൂട്ട്",
        "name:ru": "Ландсхут",
        "name:sr": "Ландсхут",
        "name:th": "ลันด์สฮูท",
        "name:uk": "Ландсгут",
        "name:zh": "兰茨胡特",
        "place": "town",
        "population": "72404",
        "population:date": "2019-09-30",
        "source:population": "https://www.statistikportal.de/de/produkte/gemeindeverzeichnis",
        "start_date": "1204",
        "website": "https://www.landshut.de/portal/startseite.html",
        "wikidata": "Q3974",
        "wikipedia": "de:Landshut"
      },
      "geometry": {
        "type": "Point",
        "coordinates": [
          12.1516551,
          48.536217
        ]
      }
    },
    {
      "type": "Feature",
      "properties": {
        "id": "240067126",
        "osm_type": "node",
        "lat": 48.7743081,
        "lon": 12.2377855,
        "name": "Mallersdorf-Pfaffenberg",
        "place": "town",
        "population": "6622",
        "postal_code": "84066",
        "wikidata": "Q32119713"
      },
      "geometry": {
        "type": "Point",
        "coordinates": [
          12.2377855,
          48.7743081
        ]
      }
    },
    {
      "type": "Feature",
      "properties": {
        "id": "240083008",
        "osm_type": "node",
        "lat": 48.5763412,
        "lon": 12.1714786,
        "name": "Ergolding",
        "openGeoDB:community_identification_number": "09274126",
        "openGeoDB:license_plate_code": "LA",
        "openGeoDB:loc_id": "16267",
        "openGeoDB:telephone_area_code": "0871",
        "openGeoDB:type": "Markt",
        "place": "town",
        "population": "11497",
        "wikidata": "Q264256",
        "wikipedia": "de:Ergolding"
      },
      "geometry": {
        "type": "Point",
        "coordinates": [
          12.1714786,
          48.5763412
        ]
      }
    },
    {
      "type": "Feature",
      "properties": {
        "id": "305619291",
        "osm_type": "node",
        "lat": 48.448482,
        "lon": 12.355795,
        "name": "Vilsbiburg",
        "place": "town",
        "population": "11426",
        "source": "genesis-online",
        "wikidata": "Q521018"
      },
      "geometry": {
        "type": "Point",
        "coordinates": [
          12.355795,
          48.448482
        ]
      }
    },
    {
      "type": "Feature",
      "properties": {
        "id": "25478935",
        "osm_type": "node",
        "lat": 48.4031909,
        "lon": 12.7626208,
        "ele": "416",
        "name": "Eggenfelden",
        "name:sr": "Егенфелден",
        "openGeoDB:community_identification_number": "09277116",
        "openGeoDB:is_in_loc_id": "412",
        "openGeoDB:layer": "6",
        "openGeoDB:license_plate_code": "PAN",
        "openGeoDB:loc_id": "15981",
        "openGeoDB:telephone_area_code": "08721",
        "place": "town",
        "population": "13090",
        "postal_code": "84307",
        "wikidata": "Q255201",
        "wikipedia": "de:Eggenfelden"
      },
      "geometry": {
        "type": "Point",
        "coordinates": [
          12.7626208,
          48.4031909
        ]
      }
    },
    {
      "type": "Feature",
      "properties": {
        "id": "60601520",
        "osm_type": "node",
        "lat": 48.6699678,
        "lon": 12.6912228,
        "name": "Landau an der Isar",
        "name:ru": "Ландау-ан-дер-Изар",
        "official_name": "Landau a.d.Isar",
        "place": "town",
        "population": "12939",
        "wikidata": "Q509536",
        "wikipedia": "de:Landau an der Isar"
      },
      "geometry": {
        "type": "Point",
        "coordinates": [
          12.6912228,
          48.6699678
        ]
      }
    },
    {
      "type": "Feature",
      "properties": {
        "id": "240031628",
        "osm_type": "node",
        "lat": 48.7019635,
        "lon": 13.0201434,
        "name": "Osterhofen",
        "name:ru": "Остерхофен",
        "place": "town",
        "population": "11334",
        "wikidata": "Q503156"
      },
      "geometry": {
        "type": "Point",
        "coordinates": [
          13.0201434,
          48.7019635
        ]
      }
    },
    {
      "type": "Feature",
      "properties": {
        "id": "240066283",
        "osm_type": "node",
        "lat": 48.4320329,
        "lon": 12.9386266,
        "ele": "381",
        "name": "Pfarrkirchen",
        "name:sr": "Пфаркирхен",
        "place": "town",
        "population": "11816",
        "postal_code": "84347",
        "wikidata": "Q32222877"
      },
      "geometry": {
        "type": "Point",
        "coordinates": [
          12.9386266,
          48.4320329
        ]
      }
    },
    {
      "type": "Feature",
      "properties": {
        "id": "240073519",
        "osm_type": "node",
        "lat": 48.5610872,
        "lon": 12.8174767,
        "name": "Arnstorf",
        "openGeoDB:auto_update": "population",
        "openGeoDB:community_identification_number": "09277111",
        "openGeoDB:is_in": "Rottal-Inn,Niederbayern,Bayern,Bundesrepublik Deutschland,Europe",
        "openGeoDB:is_in_loc_id": "412",
        "openGeoDB:layer": "6",
        "openGeoDB:license_plate_code": "PAN",
        "openGeoDB:loc_id": "13742",
        "openGeoDB:location": "political_structure",
        "openGeoDB:name": "Arnstorf",
        "openGeoDB:population": "6627",
        "openGeoDB:postal_codes": "94424",
        "openGeoDB:sort_name": "ARNSTORF",
        "openGeoDB:telephone_area_code": "08723",
        "openGeoDB:type": "Markt",
        "openGeoDB:version": "0.2.6.11 / 2007-12-04 / http://fa-technik.adfc.de/code/opengeodb/dump/",
        "place": "town",
        "population": "6627",
        "postal_code": "94424",
        "website": "https://www.arnstorf.de/",
        "wikidata": "Q31884323"
      },
      "geometry": {
        "type": "Point",
        "coordinates": [
          12.8174767,
          48.5610872
        ]
      }
    },
    {
      "type": "Feature",
      "properties": {
        "id": "240083444",
        "osm_type": "node",
        "lat": 48.8333535,
        "lon": 12.96205,
        "ele": "314",
        "name": "Deggendorf",
        "name:ru": "Деггендорф",
        "old_name": "Deckendorff",
        "place": "town",
        "population": "36854",
        "wikidata": "Q16083",
        "wikipedia": "de:Deggendorf"
      },
      "geometry": {
        "type": "Point",
        "coordinates": [
          12.96205,
          48.8333535
        ]
      }
    },
    {
      "type": "Feature",
      "properties": {
        "id": "446250344",
        "osm_type": "node",
        "lat": 48.7766852,
        "lon": 12.8733655,
        "ele": "320",
        "name": "Plattling",
        "name:ml": "പ്ലാറ്റ്ലിംഗ്",
        "name:ru": "Платтлинг",
        "old_name": "Pledelingen",
        "place": "town",
        "population": "12401",
        "wikidata": "Q509566",
        "wikipedia": "de:Plattling"
      },
      "geometry": {
        "type": "Point",
        "coordinates": [
          12.8733655,
          48.7766852
        ]
      }
    },
    {
      "type": "Feature",
      "properties": {
        "id": "63655606",
        "osm_type": "node",
        "lat": 48.4015189,
        "lon": 13.3107683,
        "name": "Pocking",
        "openGeoDB:community_identification_number": "09275141",
        "openGeoDB:layer": "6",
        "openGeoDB:license_plate_code": "PA",
        "openGeoDB:loc_id": "22523",
        "openGeoDB:telephone_area_code": "08531",
        "place": "town",
        "population": "14560",
        "website": "https://www.pocking.de/",
        "wikidata": "Q279629",
        "wikipedia": "de:Pocking"
      },
      "geometry": {
        "type": "Point",
        "coordinates": [
          13.3107683,
          48.4015189
        ]
      }
    },
    {
      "type": "Feature",
      "properties": {
        "id": "63661947",
        "osm_type": "node",
        "lat": 48.5467319,
        "lon": 13.2262574,
        "name": "Ortenburg",
        "openGeoDB:auto_update": "population,is_in",
        "openGeoDB:community_identification_number": "09275138",
        "openGeoDB:is_in": "Passau,Niederbayern,Bayern,Bundesrepublik Deutschland,Europe",
        "openGeoDB:is_in_loc_id": "415",
        "openGeoDB:layer": "6",
        "openGeoDB:license_plate_code": "PA",
        "openGeoDB:loc_id": "22186",
        "openGeoDB:name": "Ortenburg",
        "openGeoDB:population": "7307",
        "openGeoDB:postal_codes": "94496",
        "openGeoDB:sort_name": "ORTENBURG",
        "openGeoDB:telephone_area_code": "08542",
        "openGeoDB:type": "Markt",
        "openGeoDB:version": "0.2.6.11 / 2007-12-04 / http://fa-technik.adfc.de/code/opengeodb/dump/",
        "opengeodb:lat": "48.5443662",
        "opengeodb:lon": "13.225005",
        "place": "town",
        "population": "7307",
        "postal_code": "94496",
        "website": "https://www.gemeinde-ortenburg.de/",
        "wikidata": "Q264999",
        "wikipedia": "de:Ortenburg"
      },
      "geometry": {
        "type": "Point",
        "coordinates": [
          13.2262574,
          48.5467319
        ]
      }
    },
    {
      "type": "Feature",
      "properties": {
        "id": "115303133",
        "osm_type": "node",
        "lat": 48.7556753,
        "lon": 13.1796853,
        "name": "Schöllnach",
        "openGeoDB:auto_update": "population,is_in",
        "openGeoDB:combination_of_public_administration": "Verwaltungsgemeinschaft Schöllnach",
        "openGeoDB:community_identification_number": "09271149",
        "openGeoDB:is_in": "Deggendorf,Niederbayern,Bayern,Bundesrepublik Deutschland,Europe",
        "openGeoDB:is_in_loc_id": "388",
        "openGeoDB:layer": "6",
        "openGeoDB:license_plate_code": "DEG",
        "openGeoDB:loc_id": "23838",
        "openGeoDB:name": "Schöllnach",
        "openGeoDB:population": "5133",
        "openGeoDB:postal_codes": "94508",
        "openGeoDB:sort_name": "SCHOELLNACH",
        "openGeoDB:telephone_area_code": "09903",
        "openGeoDB:type": "Markt",
        "openGeoDB:version": "0.2.6.11 / 2007-12-04 / http://fa-technik.adfc.de/code/opengeodb/dump/",
        "opengeodb:lat": "48.7548897",
        "opengeodb:lon": "13.1788405",
        "place": "town",
        "population": "4780",
        "website": "http://schoellnach.de",
        "wikidata": "Q503400"
      },
      "geometry": {
        "type": "Point",
        "coordinates": [
          13.1796853,
          48.7556753
        ]
      }
    },
    {
      "type": "Feature",
      "properties": {
        "id": "240039213",
        "osm_type": "node",
        "lat": 48.4513352,
        "lon": 13.1931047,
        "name": "Bad Griesbach im Rottal",
        "openGeoDB:auto_update": "population,place,is_in",
        "openGeoDB:community_identification_number": "09275124",
        "openGeoDB:is_in": "Passau,Niederbayern,Bayern,Bundesrepublik Deutschland,Europe",
        "openGeoDB:is_in_loc_id": "415",
        "openGeoDB:layer": "6",
        "openGeoDB:license_plate_code": "PA",
        "openGeoDB:loc_id": "13919",
        "openGeoDB:location": "political_structure",
        "openGeoDB:name": "Bad Griesbach im Rottal",
        "openGeoDB:population": "8485",
        "openGeoDB:postal_codes": "94086",
        "openGeoDB:sort_name": "BAD GRIESBACH",
        "openGeoDB:telephone_area_code": "08532",
        "openGeoDB:type": "Stadt",
        "openGeoDB:version": "0.2.6.11 / 2007-12-04 / http://fa-technik.adfc.de/code/opengeodb/dump/",
        "place": "town",
        "population": "8485",
        "short_name": "Bad Griesbach i.Rottal",
        "website": "http://www.badgriesbach.de",
        "wikidata": "Q253284",
        "wikipedia": "de:Bad Griesbach im Rottal"
      },
      "geometry": {
        "type": "Point",
        "coordinates": [
          13.1931047,
          48.4513352
        ]
      }
    },
    {
      "type": "Feature",
      "properties": {
        "id": "240058826",
        "osm_type": "node",
        "lat": 48.633762,
        "lon": 13.1868461,
        "ele": "308",
        "name": "Vilshofen an der Donau",
        "name:ru": "Фильсхофен-ан-дер-Донау",
        "place": "town",
        "population": "17960",
        "population:date": "2022-12-31",
        "postal_code": "94474",
        "source:population": "wikipedia",
        "wikidata": "Q33512080"
      },
      "geometry": {
        "type": "Point",
        "coordinates": [
          13.1868461,
          48.633762
        ]
      }
    },
    {
      "type": "Feature",
      "properties": {
        "id": "240121086",
        "osm_type": "node",
        "lat": 48.8397238,
        "lon": 13.3376741,
        "name": "Schönberg",
        "place": "town",
        "population": "3906",
        "wikidata": "Q255041"
      },
      "geometry": {
        "type": "Point",
        "coordinates": [
          13.3376741,
          48.8397238
        ]
      }
    },
    {
      "type": "Feature",
      "properties": {
        "id": "1408854624",
        "osm_type": "node",
        "lat": 48.4431424,
        "lon": 13.0893817,
        "name": "Bad Birnbach",
        "openGeoDB:auto_update": "population,place,is_in",
        "openGeoDB:combination_of_public_administration": "Verwaltungsgemeinschaft Bad Birnbach",
        "openGeoDB:community_identification_number": "09277113",
        "openGeoDB:is_in": "Rottal-Inn,Niederbayern,Bayern,Bundesrepublik Deutschland,Europe",
        "openGeoDB:is_in_loc_id": "412",
        "openGeoDB:layer": "6",
        "openGeoDB:license_plate_code": "PAN",
        "openGeoDB:loc_id": "13877",
        "openGeoDB:location": "political_structure",
        "openGeoDB:name": "Bad Birnbach, Rottal",
        "openGeoDB:population": "5583",
        "openGeoDB:postal_codes": "84364",
        "openGeoDB:sort_name": "BAD BIRNBACH",
        "openGeoDB:telephone_area_code": "08563",
        "openGeoDB:type": "Markt",
        "openGeoDB:version": "0.2.6.11 / 2007-12-04 / http://fa-technik.adfc.de/code/opengeodb/dump/",
        "place": "town",
        "population": "5583",
        "wikidata": "Q589058"
      },
      "geometry": {
        "type": "Point",
        "coordinates": [
          13.0893817,
          48.4431424
        ]
      }
    },
    {
      "type": "Feature",
      "properties": {
        "id": "1403293336",
        "osm_type": "node",
        "lat": 48.91849,
        "lon": 11.8722777,
        "de:amtlicher_gemeindeschluessel": "09273137",
        "name": "Kelheim",
        "name:ru": "Кельхайм",
        "place": "town",
        "population": "15648",
        "postal_code": "93309",
        "wikidata": "Q494305",
        "wikipedia": "de:Kelheim"
      },
      "geometry": {
        "type": "Point",
        "coordinates": [
          11.8722777,
          48.91849
        ]
      }
    },
    {
      "type": "Feature",
      "properties": {
        "id": "3991229705",
        "osm_type": "node",
        "lat": 48.9622789,
        "lon": 11.6835952,
        "ele": "353",
        "name": "Riedenburg",
        "place": "town",
        "population": "2160",
        "population:date": "1987-05-25",
        "wikidata": "Q114022652",
        "wikimedia_commons": "Category:Riedenburg",
        "wikipedia": "de:Riedenburg"
      },
      "geometry": {
        "type": "Point",
        "coordinates": [
          11.6835952,
          48.9622789
        ]
      }
    },
    {
      "type": "Feature",
      "properties": {
        "id": "33454191",
        "osm_type": "node",
        "lat": 48.9357145,
        "lon": 12.0401868,
        "name": "Bad Abbach",
        "openGeoDB:auto_update": "population,is_in",
        "openGeoDB:community_identification_number": "09273116",
        "openGeoDB:is_in": "Kelheim,Niederbayern,Bayern,Bundesrepublik Deutschland,Europe",
        "openGeoDB:is_in_loc_id": "397",
        "openGeoDB:layer": "6",
        "openGeoDB:license_plate_code": "KEH",
        "openGeoDB:loc_id": "13860",
        "openGeoDB:name": "Bad Abbach",
        "openGeoDB:population": "10953",
        "openGeoDB:postal_codes": "93077",
        "openGeoDB:sort_name": "BAD ABBACH",
        "openGeoDB:telephone_area_code": "09405",
        "openGeoDB:type": "Markt",
        "openGeoDB:version": "0.2.6.11 / 2007-12-04 / http://fa-technik.adfc.de/code/opengeodb/dump/",
        "opengeodb:lat": "48.93408",
        "opengeodb:lon": "12.0429885",
        "place": "town",
        "population": "7585",
        "wikidata": "Q177280"
      },
      "geometry": {
        "type": "Point",
        "coordinates": [
          12.0401868,
          48.9357145
        ]
      }
    },
    {
      "type": "Feature",
      "properties": {
        "id": "34207240",
        "osm_type": "node",
        "lat": 48.9926567,
        "lon": 12.1990753,
        "de:amtlicher_gemeindeschluessel": "09375174",
        "ele": "330",
        "name": "Neutraubling",
        "place": "town",
        "population": "13255",
        "postal_code": "93073",
        "wikidata": "Q32184833"
      },
      "geometry": {
        "type": "Point",
        "coordinates": [
          12.1990753,
          48.9926567
        ]
      }
    },
    {
      "type": "Feature",
      "properties": {
        "id": "240041829",
        "osm_type": "node",
        "lat": 49.0012229,
        "lon": 12.4041615,
        "is_in": "Regensburg,Oberpfalz,Bayern,Bundesrepublik Deutschland,Europe",
        "name": "Wörth an der Donau",
        "name:ru": "Вёрт-ан-дер-Донау",
        "openGeoDB:auto_update": "population,place,name,is_in",
        "openGeoDB:combination_of_public_administration": "Verwaltungsgemeinschaft Wörth an der Donau",
        "openGeoDB:community_identification_number": "09375210",
        "openGeoDB:is_in": "Regensburg,Oberpfalz,Bayern,Bundesrepublik Deutschland,Europe",
        "openGeoDB:is_in_loc_id": "468",
        "openGeoDB:layer": "6",
        "openGeoDB:license_plate_code": "R",
        "openGeoDB:loc_id": "26364",
        "openGeoDB:location": "political_structure",
        "openGeoDB:name": "Wörth an der Donau",
        "openGeoDB:population": "4488",
        "openGeoDB:postal_codes": "93086",
        "openGeoDB:sort_name": "WOERTH",
        "openGeoDB:telephone_area_code": "09482",
        "openGeoDB:type": "Stadt",
        "openGeoDB:version": "0.2.6.11 / 2007-12-04 / http://fa-technik.adfc.de/code/opengeodb/dump/",
        "place": "town",
        "population": "4488",
        "short_name": "Wörth/Do.",
        "wikidata": "Q488592"
      },
      "geometry": {
        "type": "Point",
        "coordinates": [
          12.4041615,
          49.0012229
        ]
      }
    },
    {
      "type": "Feature",
      "properties": {
        "id": "46902829",
        "osm_type": "node",
        "lat": 48.8819801,
        "lon": 12.569716,
        "ele": "322",
        "name": "Straubing",
        "name:la": "Sorviodurum",
        "name:prefix": "Wissenschaftsstadt",
        "name:ru": "Штраубинг",
        "place": "town",
        "population": "44741",
        "wikidata": "Q49278248"
      },
      "geometry": {
        "type": "Point",
        "coordinates": [
          12.569716,
          48.8819801
        ]
      }
    },
    {
      "type": "Feature",
      "properties": {
        "id": "240044080",
        "osm_type": "node",
        "lat": 48.9054199,
        "lon": 12.6920742,
        "ele": "322",
        "name": "Bogen",
        "name:ru": "Боген",
        "place": "town",
        "population": "5000",
        "postal_code": "94327",
        "wikidata": "Q31917151"
      },
      "geometry": {
        "type": "Point",
        "coordinates": [
          12.6920742,
          48.9054199
        ]
      }
    },
    {
      "type": "Feature",
      "properties": {
        "id": "38573096",
        "osm_type": "node",
        "lat": 49.0130274,
        "lon": 13.2307617,
        "name": "Zwiesel",
        "place": "town",
        "population": "9502",
        "population:date": "2017-12-31",
        "website": "http://zwiesel.de",
        "wikidata": "Q120755426",
        "wikimedia_commons": "Category:Zwiesel"
      },
      "geometry": {
        "type": "Point",
        "coordinates": [
          13.2307617,
          49.0130274
        ]
      }
    },
    {
      "type": "Feature",
      "properties": {
        "id": "240025021",
        "osm_type": "node",
        "lat": 48.9700842,
        "lon": 13.1262631,
        "name": "Regen",
        "place": "town",
        "population": "12298",
        "wikidata": "Q32250791"
      },
      "geometry": {
        "type": "Point",
        "coordinates": [
          13.1262631,
          48.9700842
        ]
      }
    }
  ],
  "children": []
}