{
  "bbox": {
    "south": 46.372652,
    "west": 9.530952,
    "north": 47.033758500000005,
    "east": 11.438358999999998
  },
  "poiCount": 9,
  "leafCount": 9,
  "averagePosition": [
    10.700124755555557,
    46.668892355555556
  ],
  "data": [
    {
      "type": "Feature",
      "properties": {
        "id": "26032384",
        "osm_type": "node",
        "lat": 46.796198,
        "lon": 9.8236892,
        "ele": "1560",
        "name": "Davos",
        "name:ar": "دافوس",
        "name:be": "Давос",
        "name:lt": "Davosas",
        "name:ru": "Давос",
        "name:uk": "Давос",
        "openGeoDB:community_identification_number": "G3851",
        "openGeoDB:is_in_loc_id": "78620",
        "openGeoDB:layer": "6",
        "openGeoDB:license_plate_code": "GR",
        "openGeoDB:loc_id": "79368",
        "openGeoDB:type": "Stadt",
        "place": "town",
        "population": "11211",
        "postal_code": "7270",
        "website": "https://www.gemeindedavos.ch/",
        "wikidata": "Q68097",
        "wikipedia": "de:Davos"
      },
      "geometry": {
        "type": "Point",
        "coordinates": [
          9.8236892,
          46.796198
        ]
      }
    },
    {
      "type": "Feature",
      "properties": {
        "id": "203453497",
        "osm_type": "node",
        "lat": 46.4978958,
        "lon": 9.8392428,
        "ele": "1822",
        "name": "Sankt Moritz",
        "name:cs": "Svatý Mořic",
        "name:de": "Sankt Moritz",
        "name:fr": "Saint-Moritz",
        "name:it": "San Maurizio",
        "name:rm": "San Murezzan",
        "name:ru": "Са́нкт-Мо́риц",
        "name:sk": "Svätý Móric",
        "name:uk": "Санкт-Моріц",
        "official_name": "St. Moritz",
        "official_name:de": "St. Moritz",
        "official_name:fr": "Saint-Moritz",
        "place": "town",
        "population": "4950",
        "website": "http://www.stmoritz.ch/",
        "wikidata": "Q68986",
        "wikimedia_commons": "Category:St. Moritz",
        "wikipedia": "de:St. Moritz"
      },
      "geometry": {
        "type": "Point",
        "coordinates": [
          9.8392428,
          46.4978958
        ]
      }
    },
    {
      "type": "Feature",
      "properties": {
        "id": "62516985",
        "osm_type": "node",
        "lat": 46.4692482,
        "lon": 10.3721712,
        "ele": "1225",
        "name": "Bormio",
        "name:rm": "Buorm",
        "name:ru": "Бормио",
        "old_name": "Worms im Veltlin",
        "place": "town",
        "population": "4096",
        "wikidata": "Q40516",
        "wikipedia": "en:Bormio"
      },
      "geometry": {
        "type": "Point",
        "coordinates": [
          10.3721712,
          46.4692482
        ]
      }
    },
    {
      "type": "Feature",
      "properties": {
        "id": "240077102",
        "osm_type": "node",
        "lat": 46.9666319,
        "lon": 11.0072845,
        "ele": "1368",
        "name": "Sölden",
        "name:ru": "Зёльден",
        "openGeoDB:auto_update": "population,place,name,is_in",
        "openGeoDB:community_identification_number": "70220",
        "openGeoDB:is_in": "Imst,Tirol,Österreich,Europe",
        "openGeoDB:is_in_loc_id": "77427",
        "openGeoDB:layer": "6",
        "openGeoDB:loc_id": "77476",
        "openGeoDB:location": "political_structure",
        "openGeoDB:name": "Sölden",
        "openGeoDB:population": "3488",
        "openGeoDB:postal_codes": "6450,6456,6458",
        "openGeoDB:sort_name": "SOELDEN",
        "openGeoDB:type": "Gemeinde",
        "openGeoDB:version": "0.2.6.11 / 2007-12-04 / http://fa-technik.adfc.de/code/opengeodb/dump/",
        "place": "town",
        "population": "3488",
        "website": "https://www.soelden.tirol.gv.at/",
        "wikidata": "Q570486"
      },
      "geometry": {
        "type": "Point",
        "coordinates": [
          11.0072845,
          46.9666319
        ]
      }
    },
    {
      "type": "Feature",
      "properties": {
        "id": "64777232",
        "osm_type": "node",
        "lat": 46.8963235,
        "lon": 11.4319398,
        "ele": "948",
        "gfoss_id": "2864",
        "name": "Sterzing - Vipiteno",
        "name:de": "Sterzing",
        "name:it": "Vipiteno",
        "place": "town",
        "population": "5785",
        "wikidata": "Q263305",
        "wikipedia": "de:Sterzing"
      },
      "geometry": {
        "type": "Point",
        "coordinates": [
          11.4319398,
          46.8963235
        ]
      }
    },
    {
      "type": "Feature",
      "properties": {
        "id": "64777105",
        "osm_type": "node",
        "lat": 46.6714924,
        "lon": 10.5539127,
        "ele": "908",
        "gfoss_id": "2787",
        "name": "Glurns - Glorenza",
        "name:de": "Glurns",
        "name:it": "Glorenza",
        "name:rm": "Gluorn",
        "note": "Glurns hat Stadtrecht => place=town",
        "place": "town",
        "population": "896",
        "source": "geodati.gfoss.it",
        "wikidata": "Q419357",
        "wikimedia_commons": "File:Glurns_vom_Verschleiberg.jpg",
        "wikipedia": "de:Glurns"
      },
      "geometry": {
        "type": "Point",
        "coordinates": [
          10.5539127,
          46.6714924
        ]
      }
    },
    {
      "type": "Feature",
      "properties": {
        "id": "64777154",
        "osm_type": "node",
        "lat": 46.6280688,
        "lon": 10.7734765,
        "ele": "721",
        "gfoss_id": "2842",
        "name": "Schlanders - Silandro",
        "name:de": "Schlanders",
        "name:it": "Silandro",
        "place": "town",
        "population": "6371",
        "population:date": "2025-01-01",
        "source": "geodati.gfoss.it",
        "source:population": "Istat",
        "wikidata": "Q494313",
        "wikimedia_commons": "Category:Schlanders",
        "wikipedia": "de:Schlanders"
      },
      "geometry": {
        "type": "Point",
        "coordinates": [
          10.7734765,
          46.6280688
        ]
      }
    },
    {
      "type": "Feature",
      "properties": {
        "id": "64777070",
        "osm_type": "node",
        "lat": 46.6713536,
        "lon": 11.1646348,
        "alt_name:en": "Meran",
        "alt_name:rm": "Maran",
        "gfoss_id": "2802",
        "name": "Merano - Meran",
        "name:de": "Meran",
        "name:fr": "Mérano",
        "name:it": "Merano",
        "name:ja": "メラーノ",
        "name:la": "Meranum",
        "name:lld": "Maran",
        "name:lmo": "Meran",
        "name:nl": "Meran",
        "name:pms": "Meran",
        "name:pt": "Merano",
        "name:rm": "Maraun",
        "name:ru": "Меран",
        "name:sv": "Meran",
        "place": "town",
        "population": "33656",
        "source": "geodati.gfoss.it",
        "wikidata": "Q131605",
        "wikipedia": "it:Merano"
      },
      "geometry": {
        "type": "Point",
        "coordinates": [
          11.1646348,
          46.6713536
        ]
      }
    },
    {
      "type": "Feature",
      "properties": {
        "id": "64777114",
        "osm_type": "node",
        "lat": 46.422819,
        "lon": 11.3347713,
        "gfoss_id": "2791",
        "name": "Laives - Leifers",
        "name:de": "Leifers",
        "name:it": "Laives",
        "name:ru": "Лайвес",
        "place": "town",
        "population": "15069",
        "source": "geodati.gfoss.it"
      },
      "geometry": {
        "type": "Point",
        "coordinates": [
          11.3347713,
          46.422819
        ]
      }
    }
  ],
  "children": []
}