{
  "bbox": {
    "south": 48.355971499999995,
    "west": 15.253173,
    "north": 49.017078,
    "east": 17.16058
  },
  "poiCount": 42,
  "leafCount": 42,
  "averagePosition": [
    16.31944305952381,
    48.73233930714285
  ],
  "data": [
    {
      "type": "Feature",
      "properties": {
        "id": "41843375",
        "osm_type": "node",
        "lat": 48.8146165,
        "lon": 15.284518,
        "alt_name:cs": "Český Bejdov",
        "ele": "510",
        "name": "Waidhofen an der Thaya",
        "name:cs": "Bejdov nad Dyjí",
        "place": "town",
        "population": "5459",
        "website": "http://www.waidhofen-thaya-stadt.at/",
        "wikidata": "Q660060",
        "wikipedia": "de:Waidhofen an der Thaya"
      },
      "geometry": {
        "type": "Point",
        "coordinates": [
          15.284518,
          48.8146165
        ]
      }
    },
    {
      "type": "Feature",
      "properties": {
        "id": "123531953",
        "osm_type": "node",
        "lat": 48.8474094,
        "lon": 15.4934343,
        "name": "Raabs an der Thaya",
        "name:cs": "Rakousy nad Dyjí",
        "place": "town",
        "population": "901",
        "website": "https://www.raabs-thaya.gv.at/",
        "wikipedia": "de:Raabs an der Thaya"
      },
      "geometry": {
        "type": "Point",
        "coordinates": [
          15.4934343,
          48.8474094
        ]
      }
    },
    {
      "type": "Feature",
      "properties": {
        "id": "269366799",
        "osm_type": "node",
        "lat": 48.516682,
        "lon": 15.4905293,
        "name": "Gföhl",
        "name:ru": "Гфёль",
        "place": "town",
        "population": "1888"
      },
      "geometry": {
        "type": "Point",
        "coordinates": [
          15.4905293,
          48.516682
        ]
      }
    },
    {
      "type": "Feature",
      "properties": {
        "id": "44905294",
        "osm_type": "node",
        "lat": 48.6432222,
        "lon": 15.8162695,
        "name": "Eggenburg",
        "name:ru": "Эггенбург",
        "place": "town",
        "population": "3092",
        "website": "https://www.eggenburg.gv.at/",
        "wikidata": "Q661774",
        "wikipedia": "de:Eggenburg"
      },
      "geometry": {
        "type": "Point",
        "coordinates": [
          15.8162695,
          48.6432222
        ]
      }
    },
    {
      "type": "Feature",
      "properties": {
        "id": "45018840",
        "osm_type": "node",
        "lat": 48.6636596,
        "lon": 15.6563147,
        "ele": "311",
        "name": "Horn",
        "name:cs": "Rohy",
        "name:hu": "Horn",
        "place": "town",
        "population": "6632",
        "wikidata": "Q659918",
        "wikipedia": "de:Horn (Niederösterreich)"
      },
      "geometry": {
        "type": "Point",
        "coordinates": [
          15.6563147,
          48.6636596
        ]
      }
    },
    {
      "type": "Feature",
      "properties": {
        "id": "59841472",
        "osm_type": "node",
        "lat": 48.7974749,
        "lon": 15.6724733,
        "name": "Geras",
        "name:cs": "Jeruš",
        "place": "town",
        "population": "1873",
        "source:population": "http://www.geras.gv.at/system/web/fakten.aspx?menuonr=218557110"
      },
      "geometry": {
        "type": "Point",
        "coordinates": [
          15.6724733,
          48.7974749
        ]
      }
    },
    {
      "type": "Feature",
      "properties": {
        "id": "60291887",
        "osm_type": "node",
        "lat": 48.5706932,
        "lon": 15.8259176,
        "ele": "341",
        "name": "Maissau",
        "place": "town",
        "population": "906",
        "population:date": "2023-01-01",
        "source:population": "wikipedia",
        "website": "https://www.maissau.gv.at/"
      },
      "geometry": {
        "type": "Point",
        "coordinates": [
          15.8259176,
          48.5706932
        ]
      }
    },
    {
      "type": "Feature",
      "properties": {
        "id": "119759840",
        "osm_type": "node",
        "lat": 48.7048968,
        "lon": 15.8609985,
        "name": "Pulkau",
        "name:hu": "Pulkau",
        "place": "town",
        "population": "967"
      },
      "geometry": {
        "type": "Point",
        "coordinates": [
          15.8609985,
          48.7048968
        ]
      }
    },
    {
      "type": "Feature",
      "properties": {
        "id": "126460646",
        "osm_type": "node",
        "lat": 48.5951053,
        "lon": 15.6594592,
        "name": "Gars am Kamp",
        "place": "town",
        "population": "1804"
      },
      "geometry": {
        "type": "Point",
        "coordinates": [
          15.6594592,
          48.5951053
        ]
      }
    },
    {
      "type": "Feature",
      "properties": {
        "id": "240028097",
        "osm_type": "node",
        "lat": 48.8684166,
        "lon": 15.619693,
        "name": "Drosendorf",
        "name:cs": "Drozdovice",
        "place": "town",
        "population": "522"
      },
      "geometry": {
        "type": "Point",
        "coordinates": [
          15.619693,
          48.8684166
        ]
      }
    },
    {
      "type": "Feature",
      "properties": {
        "id": "240040704",
        "osm_type": "node",
        "lat": 48.7569663,
        "lon": 15.9511119,
        "alt_name:cs": "Rec",
        "name": "Retz",
        "name:cs": "Reteč",
        "place": "town",
        "population": "4253",
        "population:date": "2024-01-01",
        "source:population": "wikipedia"
      },
      "geometry": {
        "type": "Point",
        "coordinates": [
          15.9511119,
          48.7569663
        ]
      }
    },
    {
      "type": "Feature",
      "properties": {
        "id": "340180405",
        "osm_type": "node",
        "lat": 48.4108382,
        "lon": 15.6003717,
        "name": "Krems an der Donau",
        "name:cs": "Kremže",
        "name:hu": "Krems an der Donau",
        "name:ka": "კრემზი დუნაიზე",
        "name:ru": "Кремз на Дунае",
        "name:sk": "Kremža",
        "place": "town",
        "population": "12500",
        "short_name": "Krems",
        "wikidata": "Q131266"
      },
      "geometry": {
        "type": "Point",
        "coordinates": [
          15.6003717,
          48.4108382
        ]
      }
    },
    {
      "type": "Feature",
      "properties": {
        "id": "443006267",
        "osm_type": "node",
        "lat": 48.472601,
        "lon": 15.676295,
        "name": "Langenlois",
        "name:ru": "Лангенлойс",
        "name:uk": "Лангенлойс",
        "name:zh": "朗根洛伊斯",
        "place": "town",
        "population": "4272",
        "wikidata": "Q672511",
        "wikipedia": "de:Langenlois"
      },
      "geometry": {
        "type": "Point",
        "coordinates": [
          15.676295,
          48.472601
        ]
      }
    },
    {
      "type": "Feature",
      "properties": {
        "id": "27270106",
        "osm_type": "node",
        "lat": 48.3846124,
        "lon": 16.2076303,
        "name": "Stockerau",
        "name:cs": "Štokrava",
        "name:hu": "Stockerau",
        "name:ml": "സ്റ്റോക്കറൗ",
        "name:ru": "Штоккерау",
        "name:sk": "Štokrava",
        "place": "town",
        "population": "16858",
        "wikidata": "Q494283",
        "wikipedia": "de:Stockerau"
      },
      "geometry": {
        "type": "Point",
        "coordinates": [
          16.2076303,
          48.3846124
        ]
      }
    },
    {
      "type": "Feature",
      "properties": {
        "id": "44848916",
        "osm_type": "node",
        "lat": 48.5282016,
        "lon": 16.3628114,
        "name": "Ernstbrunn",
        "name:ru": "Эрнстбрун",
        "place": "town",
        "population": "1332"
      },
      "geometry": {
        "type": "Point",
        "coordinates": [
          16.3628114,
          48.5282016
        ]
      }
    },
    {
      "type": "Feature",
      "properties": {
        "id": "44926987",
        "osm_type": "node",
        "lat": 48.7210387,
        "lon": 16.3853207,
        "ele": "183",
        "name": "Laa an der Thaya",
        "name:cs": "Láva nad Dyjí",
        "name:ru": "Ла-ан-дер-Тайя",
        "name:sk": "Lava nad Dyjou",
        "place": "town",
        "population": "4500"
      },
      "geometry": {
        "type": "Point",
        "coordinates": [
          16.3853207,
          48.7210387
        ]
      }
    },
    {
      "type": "Feature",
      "properties": {
        "id": "54790820",
        "osm_type": "node",
        "lat": 48.5625384,
        "lon": 16.0798033,
        "name": "Hollabrunn",
        "name:ru": "Холлабрунн",
        "place": "town",
        "population": "6005"
      },
      "geometry": {
        "type": "Point",
        "coordinates": [
          16.0798033,
          48.5625384
        ]
      }
    },
    {
      "type": "Feature",
      "properties": {
        "id": "240039905",
        "osm_type": "node",
        "lat": 48.3829773,
        "lon": 16.5181068,
        "name": "Wolkersdorf im Weinviertel",
        "name:ru": "Волькерсдорф-им-Вайнфиртель",
        "place": "town",
        "population": "3359",
        "ref:at:gkz": "31655",
        "ref:at:okz": "05138",
        "short_name": "Wolkersdorf"
      },
      "geometry": {
        "type": "Point",
        "coordinates": [
          16.5181068,
          48.3829773
        ]
      }
    },
    {
      "type": "Feature",
      "properties": {
        "id": "1601662652",
        "osm_type": "node",
        "lat": 48.8369264,
        "lon": 16.4934479,
        "name": "Novosedly",
        "name:cs": "Novosedly",
        "name:de": "Neusiedel",
        "place": "town",
        "population": "1145",
        "ref:cobe": "106976",
        "ref:zsj": "106976",
        "source": "csu:uir-zsj",
        "website": "https://www.novosedly.eu/",
        "wikidata": "Q748651",
        "wikipedia": "cs:Novosedly (okres Břeclav)"
      },
      "geometry": {
        "type": "Point",
        "coordinates": [
          16.4934479,
          48.8369264
        ]
      }
    },
    {
      "type": "Feature",
      "properties": {
        "id": "1601754750",
        "osm_type": "node",
        "lat": 48.8554341,
        "lon": 16.0489457,
        "ele": "290",
        "name": "Znojmo",
        "name:cs": "Znojmo",
        "name:de": "Znaim",
        "name:ru": "Зноймо",
        "name:uk": "Зноймо",
        "place": "town",
        "population": "33370",
        "postal_code": "66902",
        "ref:cobe": "412741",
        "source": "csu:uir-zsj",
        "website": "http://www.znojmocity.cz/",
        "wikidata": "Q214956",
        "wikipedia": "cs:Znojmo"
      },
      "geometry": {
        "type": "Point",
        "coordinates": [
          16.0489457,
          48.8554341
        ]
      }
    },
    {
      "type": "Feature",
      "properties": {
        "id": "1601754940",
        "osm_type": "node",
        "lat": 48.8299011,
        "lon": 16.4022403,
        "name": "Hrušovany nad Jevišovkou",
        "name:cs": "Hrušovany nad Jevišovkou",
        "name:de": "Grusbach",
        "place": "town",
        "population": "3314",
        "ref:cobe": "048801",
        "ref:zsj": "048801",
        "source": "csu:uir-zsj",
        "wikidata": "Q1632522",
        "wikipedia": "cs:Hrušovany nad Jevišovkou"
      },
      "geometry": {
        "type": "Point",
        "coordinates": [
          16.4022403,
          48.8299011
        ]
      }
    },
    {
      "type": "Feature",
      "properties": {
        "id": "26036837",
        "osm_type": "node",
        "lat": 48.4362992,
        "lon": 17.0200447,
        "city_id": "508063",
        "city_type": "county_city",
        "ele": "167",
        "import_ref": "city_import_sk_1",
        "name": "Malacky",
        "name:de": "Malatzka",
        "name:hu": "Malacka",
        "name:pl": "Malacky",
        "name:ru": "Малацки",
        "name:sk": "Malacky",
        "old_name:de": "Kirchlee;Kyrchle",
        "place": "town",
        "population": "17887",
        "postal_code": "901 01",
        "region_id": "106",
        "source:name": "http://earth-info.nga.mil/gns/html/cntry_files.html,www.statistics.sk",
        "website": "https://malacky.sk/",
        "wikidata": "Q837464",
        "wikipedia": "sk:Malacky"
      },
      "geometry": {
        "type": "Point",
        "coordinates": [
          17.0200447,
          48.4362992
        ]
      }
    },
    {
      "type": "Feature",
      "properties": {
        "id": "44833357",
        "osm_type": "node",
        "lat": 48.5447465,
        "lon": 16.7621379,
        "name": "Zistersdorf",
        "name:cs": "Čistějov",
        "name:ru": "Цистерсдорф",
        "name:sk": "Čistejov",
        "place": "town",
        "population": "3138",
        "website": "www.zistersdorf.at"
      },
      "geometry": {
        "type": "Point",
        "coordinates": [
          16.7621379,
          48.5447465
        ]
      }
    },
    {
      "type": "Feature",
      "properties": {
        "id": "44846322",
        "osm_type": "node",
        "lat": 48.5694535,
        "lon": 16.5720327,
        "name": "Mistelbach",
        "name:cs": "Mysliboch",
        "name:hu": "Mistelbach",
        "name:ru": "Мистельбах",
        "name:sk": "Mysliboch",
        "place": "town",
        "population": "10643",
        "website": "https://www.mistelbach.at/"
      },
      "geometry": {
        "type": "Point",
        "coordinates": [
          16.5720327,
          48.5694535
        ]
      }
    },
    {
      "type": "Feature",
      "properties": {
        "id": "87079818",
        "osm_type": "node",
        "lat": 48.6678922,
        "lon": 16.6291796,
        "name": "Poysdorf",
        "name:cs": "Pušdorf",
        "name:ru": "Пойсдорф",
        "name:sk": "Pušdorf",
        "place": "town",
        "population": "2480"
      },
      "geometry": {
        "type": "Point",
        "coordinates": [
          16.6291796,
          48.6678922
        ]
      }
    },
    {
      "type": "Feature",
      "properties": {
        "id": "1601662472",
        "osm_type": "node",
        "lat": 48.8493878,
        "lon": 16.892052,
        "name": "Velké Bílovice",
        "name:cs": "Velké Bílovice",
        "name:de": "Groß Billowitz",
        "place": "town",
        "population": "3914",
        "ref:cobe": "178675",
        "ref:zsj": "178675",
        "source": "csu:uir-zsj",
        "wikidata": "Q662194",
        "wikipedia": "cs:Velké Bílovice"
      },
      "geometry": {
        "type": "Point",
        "coordinates": [
          16.892052,
          48.8493878
        ]
      }
    },
    {
      "type": "Feature",
      "properties": {
        "id": "1601662497",
        "osm_type": "node",
        "lat": 48.7412949,
        "lon": 16.755758,
        "name": "Valtice",
        "name:cs": "Valtice",
        "name:de": "Feldsberg",
        "name:lt": "Valticė",
        "name:ru": "Вальтице",
        "place": "town",
        "population": "3538",
        "ref:cobe": "176699",
        "ref:zsj": "176699",
        "source": "csu:uir-zsj",
        "website": "https://www.valtice.eu/",
        "wikidata": "Q782147",
        "wikipedia": "cs:Valtice"
      },
      "geometry": {
        "type": "Point",
        "coordinates": [
          16.755758,
          48.7412949
        ]
      }
    },
    {
      "type": "Feature",
      "properties": {
        "id": "1601662702",
        "osm_type": "node",
        "lat": 48.8068577,
        "lon": 16.6383914,
        "name": "Mikulov",
        "name:cs": "Mikulov",
        "name:de": "Nikolsburg",
        "name:he": "מיקולוב",
        "name:ru": "Микулов",
        "name:uk": "Мікулов",
        "place": "town",
        "population": "7387",
        "ref:cobe": "412139",
        "source": "csu:uir-zsj",
        "website": "https://www.mikulov.cz/",
        "wikidata": "Q682544",
        "wikipedia": "cs:Mikulov"
      },
      "geometry": {
        "type": "Point",
        "coordinates": [
          16.6383914,
          48.8068577
        ]
      }
    },
    {
      "type": "Feature",
      "properties": {
        "id": "1601662729",
        "osm_type": "node",
        "lat": 48.7245476,
        "lon": 16.9667035,
        "name": "Lanžhot",
        "name:cs": "Lanžhot",
        "name:de": "Landshut in Mähren",
        "name:ru": "Ланжхот",
        "place": "town",
        "population": "3627",
        "population:date": "2024-01-01",
        "ref:cobe": "079111",
        "ref:zsj": "079111",
        "source": "csu:uir-zsj",
        "source:population": "ČSÚ",
        "wikidata": "Q946780",
        "wikipedia": "cs:Lanžhot"
      },
      "geometry": {
        "type": "Point",
        "coordinates": [
          16.9667035,
          48.7245476
        ]
      }
    },
    {
      "type": "Feature",
      "properties": {
        "id": "1601662907",
        "osm_type": "node",
        "lat": 48.7594008,
        "lon": 16.8813137,
        "name": "Břeclav",
        "name:cs": "Břeclav",
        "name:de": "Lundenburg",
        "name:pl": "Brzecław",
        "name:ru": "Бржецлав",
        "name:sr": "Брецлав",
        "name:uk": "Бржецлав",
        "place": "town",
        "population": "19502",
        "ref:cobe": "412112",
        "source": "csu:uir-zsj",
        "website": "http://www.breclav.org",
        "wikidata": "Q581478",
        "wikipedia": "cs:Břeclav"
      },
      "geometry": {
        "type": "Point",
        "coordinates": [
          16.8813137,
          48.7594008
        ]
      }
    },
    {
      "type": "Feature",
      "properties": {
        "id": "26035953",
        "osm_type": "node",
        "lat": 48.6380414,
        "lon": 17.1439377,
        "city_id": "504891",
        "ele": "181",
        "import_ref": "city_import_sk_1",
        "loc_name": "Sastin",
        "name": "Šaštín-Stráže",
        "name:de": "Schoßberg-Strascha",
        "name:hu": "Sasvár-Morvaőr",
        "name:pl": "Šaštín-Stráže",
        "name:sk": "Šaštín-Stráže",
        "place": "town",
        "population": "5061",
        "postal_code": "908 41",
        "region_id": "205",
        "source:name": "http://earth-info.nga.mil/gns/html/cntry_files.html,www.statistics.sk",
        "website": "https://www.mestosastinstraze.sk/",
        "wikidata": "Q135649",
        "wikipedia": "sk:Šaštín-Stráže"
      },
      "geometry": {
        "type": "Point",
        "coordinates": [
          17.1439377,
          48.6380414
        ]
      }
    },
    {
      "type": "Feature",
      "properties": {
        "id": "26037696",
        "osm_type": "node",
        "lat": 48.7181947,
        "lon": 17.1158164,
        "city_id": "504351",
        "ele": "199",
        "import_ref": "city_import_sk_1",
        "loc_name": "Egbell",
        "name": "Gbely",
        "name:de": "Egbell",
        "name:hu": "Egbell",
        "name:pl": "Gbely",
        "name:sk": "Gbely",
        "place": "town",
        "population": "5153",
        "postal_code": "908 45",
        "region_id": "206",
        "source:name": "http://earth-info.nga.mil/gns/html/cntry_files.html,www.statistics.sk",
        "website": "https://www.gbely.sk/",
        "wikidata": "Q846424",
        "wikipedia": "sk:Gbely"
      },
      "geometry": {
        "type": "Point",
        "coordinates": [
          17.1158164,
          48.7181947
        ]
      }
    },
    {
      "type": "Feature",
      "properties": {
        "id": "8929081105",
        "osm_type": "node",
        "lat": 48.8563914,
        "lon": 17.1234655,
        "name": "Hodonín",
        "name:cs": "Hodonín",
        "name:de": "Göding",
        "name:ru": "Годонин",
        "name:sr": "Ходоњин",
        "name:uk": "Годонін",
        "place": "town",
        "population": "27361",
        "ref:cobe": "412252",
        "source": "csu:uir-zsj",
        "website": "http://www.hodonin.eu",
        "wikidata": "Q321778",
        "wikipedia": "cs:Hodonín"
      },
      "geometry": {
        "type": "Point",
        "coordinates": [
          17.1234655,
          48.8563914
        ]
      }
    },
    {
      "type": "Feature",
      "properties": {
        "id": "1599164555",
        "osm_type": "node",
        "lat": 48.9975333,
        "lon": 15.3515379,
        "name": "Slavonice",
        "name:cs": "Slavonice",
        "name:de": "Zlabings",
        "place": "town",
        "population": "2268",
        "population:date": "2024",
        "ref:cobe": "150363",
        "ref:zsj": "150363",
        "source": "csu:uir-zsj",
        "source:population": "wikipedia",
        "website": "http://www.slavonice-mesto.cz",
        "wikidata": "Q1727398",
        "wikipedia": "cs:Slavonice"
      },
      "geometry": {
        "type": "Point",
        "coordinates": [
          15.3515379,
          48.9975333
        ]
      }
    },
    {
      "type": "Feature",
      "properties": {
        "id": "669333227",
        "osm_type": "node",
        "lat": 48.9874765,
        "lon": 15.9896915,
        "name": "Jevišovice",
        "name:cs": "Jevišovice",
        "name:de": "Jaispitz",
        "place": "town",
        "population": "1172",
        "ref:cobe": "059358",
        "ref:zsj": "059358",
        "source": "csu:uir-zsj"
      },
      "geometry": {
        "type": "Point",
        "coordinates": [
          15.9896915,
          48.9874765
        ]
      }
    },
    {
      "type": "Feature",
      "properties": {
        "id": "1601617012",
        "osm_type": "node",
        "lat": 48.9816868,
        "lon": 16.5242181,
        "alt_name:de": "Porlitz",
        "name": "Pohořelice",
        "name:cs": "Pohořelice",
        "name:de": "Pohrlitz",
        "name:ru": "Погоржелице",
        "place": "town",
        "population": "4961",
        "ref:cobe": "124869",
        "ref:zsj": "124869",
        "source": "csu:uir-zsj",
        "wikidata": "Q1641736",
        "wikipedia": "cs:Pohořelice"
      },
      "geometry": {
        "type": "Point",
        "coordinates": [
          16.5242181,
          48.9816868
        ]
      }
    },
    {
      "type": "Feature",
      "properties": {
        "id": "1601754915",
        "osm_type": "node",
        "lat": 48.9473112,
        "lon": 16.3134526,
        "name": "Miroslav",
        "name:cs": "Miroslav",
        "name:de": "Mißlitz",
        "name:ru": "Мирослав",
        "place": "town",
        "population": "2930",
        "ref:cobe": "095371",
        "ref:zsj": "095371",
        "source": "csu:uir-zsj",
        "wikidata": "Q763045",
        "wikipedia": "cs:Miroslav (okres Znojmo)"
      },
      "geometry": {
        "type": "Point",
        "coordinates": [
          16.3134526,
          48.9473112
        ]
      }
    },
    {
      "type": "Feature",
      "properties": {
        "id": "1601662386",
        "osm_type": "node",
        "lat": 48.9044074,
        "lon": 16.8164581,
        "alt_name:de": "Groß Paulowitz",
        "name": "Velké Pavlovice",
        "name:cs": "Velké Pavlovice",
        "name:de": "Groß Pawlowitz",
        "place": "town",
        "population": "3117",
        "ref:cobe": "179248",
        "ref:zsj": "179248",
        "source": "csu:uir-zsj",
        "wikidata": "Q1028003",
        "wikipedia": "cs:Velké Pavlovice"
      },
      "geometry": {
        "type": "Point",
        "coordinates": [
          16.8164581,
          48.9044074
        ]
      }
    },
    {
      "type": "Feature",
      "properties": {
        "id": "1601662796",
        "osm_type": "node",
        "lat": 48.9951795,
        "lon": 16.8597347,
        "name": "Klobouky u Brna",
        "name:cs": "Klobouky u Brna",
        "name:de": "Klobouk bei Brünn",
        "place": "town",
        "population": "2447",
        "ref:cobe": "066401",
        "ref:zsj": "066401",
        "source": "csu:uir-zsj"
      },
      "geometry": {
        "type": "Point",
        "coordinates": [
          16.8597347,
          48.9951795
        ]
      }
    },
    {
      "type": "Feature",
      "properties": {
        "id": "1601662830",
        "osm_type": "node",
        "lat": 48.9399831,
        "lon": 16.7369738,
        "name": "Hustopeče",
        "name:cs": "Hustopeče",
        "name:de": "Auspitz",
        "name:ru": "Густопече",
        "place": "town",
        "population": "5881",
        "ref:cobe": "412121",
        "source": "csu:uir-zsj",
        "wikidata": "Q1023875",
        "wikipedia": "cs:Hustopeče"
      },
      "geometry": {
        "type": "Point",
        "coordinates": [
          16.7369738,
          48.9399831
        ]
      }
    },
    {
      "type": "Feature",
      "properties": {
        "id": "1601694787",
        "osm_type": "node",
        "lat": 49.0104456,
        "lon": 17.1224867,
        "name": "Kyjov",
        "name:cs": "Kyjov",
        "name:de": "Gaya",
        "name:sr": "Кијов",
        "name:uk": "Кийов",
        "place": "town",
        "population": "11774",
        "ref:cobe": "412287",
        "source": "csu:uir-zsj",
        "website": "https://www.mestokyjov.cz/",
        "wikidata": "Q104587",
        "wikipedia": "cs:Kyjov"
      },
      "geometry": {
        "type": "Point",
        "coordinates": [
          17.1224867,
          49.0104456
        ]
      }
    },
    {
      "type": "Feature",
      "properties": {
        "id": "1601694862",
        "osm_type": "node",
        "lat": 48.9175078,
        "lon": 17.0955296,
        "name": "Dubňany",
        "name:cs": "Dubňany",
        "name:de": "Dubnian",
        "place": "town",
        "population": "6661",
        "ref:cobe": "412279",
        "source": "csu:uir-zsj",
        "wikidata": "Q579957"
      },
      "geometry": {
        "type": "Point",
        "coordinates": [
          17.0955296,
          48.9175078
        ]
      }
    }
  ],
  "children": []
}