{
  "bbox": {
    "south": 47.033758500000005,
    "west": 15.253173,
    "north": 47.694865,
    "east": 17.16058
  },
  "poiCount": 52,
  "leafCount": 0,
  "averagePosition": [
    15.843410123076925,
    47.375895792307695
  ],
  "data": [],
  "children": [
    {
      "bbox": {
        "south": 47.033758500000005,
        "west": 15.253173,
        "north": 47.36431175,
        "east": 16.2068765
      },
      "poiCount": 20,
      "leafCount": 20,
      "averagePosition": [
        15.477077360000001,
        47.12574996
      ],
      "data": [
        {
          "type": "Feature",
          "properties": {
            "id": "1308372124",
            "osm_type": "node",
            "lat": 47.0892548,
            "lon": 15.4321442,
            "addr:city": "Graz",
            "addr:country": "AT",
            "addr:housenumber": "113",
            "addr:postcode": "8010",
            "addr:street": "Grabenstraße",
            "contact:email": "landestierschutzverein@aon.at;tierheimgraz@aon.at",
            "contact:phone": "+43 316 8224 17;+43 316 684212",
            "contact:website": "https://www.landestierschutzverein.at/wp/",
            "name": "Tierschutz Steiermark",
            "office": "association",
            "source": "survey"
          },
          "geometry": {
            "type": "Point",
            "coordinates": [
              15.4321442,
              47.0892548
            ]
          }
        },
        {
          "type": "Feature",
          "properties": {
            "id": "1604790986",
            "osm_type": "node",
            "lat": 47.0668862,
            "lon": 15.4289575,
            "addr:city": "Graz",
            "addr:country": "AT",
            "addr:housenumber": "18",
            "addr:postcode": "8020",
            "addr:street": "Rösselmühlgasse",
            "name": "D.A.S. Rechtsschutz AG",
            "office": "insurance"
          },
          "geometry": {
            "type": "Point",
            "coordinates": [
              15.4289575,
              47.0668862
            ]
          }
        },
        {
          "type": "Feature",
          "properties": {
            "id": "2306463108",
            "osm_type": "node",
            "lat": 47.0676663,
            "lon": 15.3970901,
            "addr:city": "Graz",
            "addr:country": "AT",
            "addr:housenumber": "70",
            "addr:postcode": "8020",
            "addr:street": "Hauseggerstraße",
            "amenity": "kindergarten",
            "name": "Pfarrkindergarten Schutzengel"
          },
          "geometry": {
            "type": "Point",
            "coordinates": [
              15.3970901,
              47.0676663
            ]
          }
        },
        {
          "type": "Feature",
          "properties": {
            "id": "3419458713",
            "osm_type": "node",
            "lat": 47.0702256,
            "lon": 15.4295512,
            "addr:city": "Graz",
            "addr:country": "AT",
            "addr:housenumber": "7",
            "addr:postcode": "8020",
            "addr:street": "Dominikanergasse",
            "amenity": "social_facility",
            "capacity": "24",
            "contact:email": "vinzischutz@vinzi.at",
            "contact:mobile": "+43 676 87 42 31",
            "contact:phone": "+43 316 58 58 04",
            "name": "VinziSchutz",
            "opening_hours": "Mo-Su 18:00-07:00",
            "provides": "food+drink;housing",
            "social_facility": "shelter",
            "social_facility:for": "homeless,migrant,women",
            "source": "website",
            "website": "https://www.vinzi.at/de/vinzischutz/"
          },
          "geometry": {
            "type": "Point",
            "coordinates": [
              15.4295512,
              47.0702256
            ]
          }
        },
        {
          "type": "Feature",
          "properties": {
            "id": "3439240816",
            "osm_type": "node",
            "lat": 47.1750389,
            "lon": 15.2544838,
            "ele": "996",
            "name": "Mühlbacherhütte",
            "tourism": "alpine_hut"
          },
          "geometry": {
            "type": "Point",
            "coordinates": [
              15.2544838,
              47.1750389
            ]
          }
        },
        {
          "type": "Feature",
          "properties": {
            "id": "4315554167",
            "osm_type": "node",
            "lat": 47.0615301,
            "lon": 15.4457666,
            "addr:city": "Graz",
            "addr:country": "AT",
            "addr:floor": "7",
            "addr:housenumber": "85",
            "addr:postcode": "8010",
            "addr:street": "Steyrergasse",
            "brand": "oekosozialmarkt",
            "description": "Büroadresse",
            "name": "DI Jürgen Astner - Ingenieurbüro für Technischen Umweltschutz",
            "office": "it",
            "phone": "+43 (0)650/46 27 033",
            "source": "website, ARGE oekosozialmarkt",
            "url": "http://tb-astner.bosolei.com",
            "website": "https://www.tb-astner.at/"
          },
          "geometry": {
            "type": "Point",
            "coordinates": [
              15.4457666,
              47.0615301
            ]
          }
        },
        {
          "type": "Feature",
          "properties": {
            "id": "4663154700",
            "osm_type": "node",
            "lat": 47.0696605,
            "lon": 15.4541267,
            "addr:city": "Graz",
            "addr:country": "AT",
            "addr:housenumber": "61",
            "addr:postcode": "8010",
            "addr:street": "Sparbersbachgasse",
            "check_date": "2025-08-17",
            "contact:phone": "+43 316 384830",
            "contact:website": "http://www.mieterschutzverband.at/index.php?page=292",
            "level": "1",
            "name": "Mieterschutzverband",
            "office": "association",
            "opening_hours": "Mo 14:00-17:00; We 14:00-19:00; Fr 08:30-12:00; Mo-Fr 08:30-12:00 \"telefonic contact\"",
            "wheelchair": "no"
          },
          "geometry": {
            "type": "Point",
            "coordinates": [
              15.4541267,
              47.0696605
            ]
          }
        },
        {
          "type": "Feature",
          "properties": {
            "id": "5030736523",
            "osm_type": "node",
            "lat": 47.244259,
            "lon": 15.2921468,
            "addr:street": "Ramiweg",
            "name": "Adriach - Oberreising",
            "operator": "Rappold",
            "tourism": "chalet"
          },
          "geometry": {
            "type": "Point",
            "coordinates": [
              15.2921468,
              47.244259
            ]
          }
        },
        {
          "type": "Feature",
          "properties": {
            "id": "5734334970",
            "osm_type": "node",
            "lat": 47.0796359,
            "lon": 15.4185612,
            "addr:city": "Graz",
            "addr:country": "AT",
            "addr:housenumber": "98a",
            "addr:postcode": "8020",
            "addr:street": "Babenbergerstraße",
            "contact:email": "m.wulz@wulzmarkisen.at",
            "contact:mobile": "+43 664 26 25 253",
            "contact:phone": "+43 316 71 21 37",
            "contact:website": "www.wulzmarkisen.at",
            "fixme": "check exact position housnumber 98a",
            "name": "Sonnenschutz Wulz",
            "office": "company",
            "opening_hours": "Mo-Th 08:00-12:00,14:00-17:00;Apr-Oct Fr 08:00-12:00",
            "operator": "Sabine Wulz"
          },
          "geometry": {
            "type": "Point",
            "coordinates": [
              15.4185612,
              47.0796359
            ]
          }
        },
        {
          "type": "Feature",
          "properties": {
            "id": "6029950618",
            "osm_type": "node",
            "lat": 47.0476615,
            "lon": 15.4060299,
            "addr:city": "Graz",
            "addr:housenumber": "42b",
            "addr:postcode": "8053",
            "addr:street": "Frühlingstraße",
            "name": "EW Shuttleservice Personentransporte GmbH",
            "office": "yes"
          },
          "geometry": {
            "type": "Point",
            "coordinates": [
              15.4060299,
              47.0476615
            ]
          }
        },
        {
          "type": "Feature",
          "properties": {
            "id": "7082553440",
            "osm_type": "node",
            "lat": 47.0662742,
            "lon": 15.4312395,
            "addr:city": "Graz",
            "addr:country": "AT",
            "addr:housenumber": "32",
            "addr:postcode": "8020",
            "addr:street": "Griesplatz",
            "amenity": "social_facility",
            "contact:email": "graz@kinderschutz-zentrum.at",
            "contact:phone": "+43 316 83 19 41-0",
            "contact:website": "www.kinderschutz-zentrum.at",
            "name": "Kinderschutzzentrum",
            "office": "association"
          },
          "geometry": {
            "type": "Point",
            "coordinates": [
              15.4312395,
              47.0662742
            ]
          }
        },
        {
          "type": "Feature",
          "properties": {
            "id": "7082553441",
            "osm_type": "node",
            "lat": 47.0670993,
            "lon": 15.4302609,
            "addr:city": "Graz",
            "addr:country": "AT",
            "addr:housenumber": "4",
            "addr:postcode": "8020",
            "addr:street": "Granatengasse",
            "amenity": "social_facility",
            "contact:email": "office@gewaltschutzzentrum.at",
            "contact:phone": "+43 316 77 41 99",
            "contact:website": "www.gewaltschutzzentrum-steiermark.at",
            "gender": "women",
            "level": "2",
            "name": "Gewaltschutzzentrum",
            "office": "association"
          },
          "geometry": {
            "type": "Point",
            "coordinates": [
              15.4302609,
              47.0670993
            ]
          }
        },
        {
          "type": "Feature",
          "properties": {
            "id": "12092959496",
            "osm_type": "node",
            "lat": 47.1422259,
            "lon": 15.4354993,
            "barrier": "lift_gate",
            "name": "Maria Schutz Weg",
            "source": "survey",
            "surface": "compacted"
          },
          "geometry": {
            "type": "Point",
            "coordinates": [
              15.4354993,
              47.1422259
            ]
          }
        },
        {
          "type": "Feature",
          "properties": {
            "id": "12206848376",
            "osm_type": "node",
            "lat": 47.0413605,
            "lon": 15.47868,
            "addr:city": "Graz",
            "addr:country": "AT",
            "addr:housenumber": "15",
            "addr:postcode": "8042",
            "addr:street": "Messendorfgrund",
            "email": "office@bab-blitzschutz.at",
            "name": "BAB Blitzschutz GmbH",
            "office": "company",
            "opening_hours": "Mo-Fr 08:00-17:00",
            "phone": "+43 664 53 59 595",
            "website": "https://www.bab-blitzschutz.at/"
          },
          "geometry": {
            "type": "Point",
            "coordinates": [
              15.47868,
              47.0413605
            ]
          }
        },
        {
          "type": "Feature",
          "properties": {
            "id": "12873883980",
            "osm_type": "node",
            "lat": 47.0743914,
            "lon": 15.4401612,
            "addr:city": "Graz",
            "addr:housenumber": "4",
            "addr:postcode": "8010",
            "addr:street": "Paulustorgasse",
            "contact:email": "katastrophenschutz@stmk.gv.at",
            "contact:fax": "+43 316 3913",
            "contact:phone": "+43 316 8772218",
            "level": "1",
            "name": "Landesamtsdirektion FA Katastrophenschutz und Landesverteidigung",
            "office": "government",
            "website": "https://www.verwaltung.steiermark.at/cms/ziel/74965832/DE/"
          },
          "geometry": {
            "type": "Point",
            "coordinates": [
              15.4401612,
              47.0743914
            ]
          }
        },
        {
          "type": "Feature",
          "properties": {
            "id": "389786502",
            "osm_type": "node",
            "lat": 47.2702953,
            "lon": 15.6558544,
            "ele": "904",
            "massif": "Randgebirge östlich der Mur",
            "name": "Wittgruberhof, Jugendh.",
            "note": "Koordinaten vom ÖAV zur Verfügung gestellt",
            "operator": "Sektion Weiz",
            "tourism": "alpine_hut"
          },
          "geometry": {
            "type": "Point",
            "coordinates": [
              15.6558544,
              47.2702953
            ]
          }
        },
        {
          "type": "Feature",
          "properties": {
            "id": "6502780798",
            "osm_type": "node",
            "lat": 47.3234788,
            "lon": 15.590246,
            "addr:city": "Sankt Kathrein am Offenegg",
            "addr:country": "AT",
            "addr:housenumber": "43a",
            "addr:place": "Lacken",
            "addr:postcode": "8171",
            "at_bev:addr_date": "2018-10-01",
            "name": "Staber's Schmied'n Ferienhaus",
            "tourism": "chalet",
            "website": "https://almbauernhof.at/"
          },
          "geometry": {
            "type": "Point",
            "coordinates": [
              15.590246,
              47.3234788
            ]
          }
        },
        {
          "type": "Feature",
          "properties": {
            "id": "7561713005",
            "osm_type": "node",
            "lat": 47.2159577,
            "lon": 15.6305167,
            "addr:city": "Weiz",
            "addr:housenumber": "24",
            "addr:postcode": "8160",
            "addr:street": "Franz-Pichler-Straße",
            "healthcare": "psychotherapist",
            "name": "Kinderschutzzentrum Weiz",
            "phone": "+43317242559",
            "website": "https://www.rettet-das-kind-stmk.at/joomla/index.php/kinderschutzzentrum-weiz"
          },
          "geometry": {
            "type": "Point",
            "coordinates": [
              15.6305167,
              47.2159577
            ]
          }
        },
        {
          "type": "Feature",
          "properties": {
            "id": "7878961256",
            "osm_type": "node",
            "lat": 47.2308034,
            "lon": 15.785197,
            "name": "FW Eichtinger",
            "tourism": "chalet"
          },
          "geometry": {
            "type": "Point",
            "coordinates": [
              15.785197,
              47.2308034
            ]
          }
        },
        {
          "type": "Feature",
          "properties": {
            "id": "12856954259",
            "osm_type": "node",
            "lat": 47.1112939,
            "lon": 15.7050342,
            "email": "office@s-ds.at",
            "name": "SDS Planung & Vertrieb- Sonnenschutztechnik Dominik Scheer e.U.",
            "office": "company",
            "opening_hours": "\"Nach Vereinbarung\"",
            "phone": "+43 664 43 23 239",
            "website": "https://www.s-ds.at/"
          },
          "geometry": {
            "type": "Point",
            "coordinates": [
              15.7050342,
              47.1112939
            ]
          }
        }
      ],
      "children": []
    },
    {
      "bbox": {
        "south": 47.033758500000005,
        "west": 16.2068765,
        "north": 47.36431175,
        "east": 17.16058
      },
      "poiCount": 2,
      "leafCount": 2,
      "averagePosition": [
        17.014323949999998,
        47.20807175
      ],
      "data": [
        {
          "type": "Feature",
          "properties": {
            "id": "4067368342",
            "osm_type": "node",
            "lat": 47.2552205,
            "lon": 16.9297209,
            "addr:city": "Sárvár",
            "addr:housenumber": "25",
            "addr:postcode": "9600",
            "addr:street": "Petőfi Sándor utca",
            "beds": "6",
            "email": "sandor.katalin1@citromail.hu",
            "internet_access": "wlan",
            "internet_access:fee": "no",
            "name": "Kata Apartman",
            "operator": "Sándor Katalin",
            "phone": "+36 30 819 0074",
            "rooms": "3",
            "smoking": "no",
            "tourism": "chalet",
            "website": "https://szallas.hu/",
            "wheelchair": "no"
          },
          "geometry": {
            "type": "Point",
            "coordinates": [
              16.9297209,
              47.2552205
            ]
          }
        },
        {
          "type": "Feature",
          "properties": {
            "id": "3487697700",
            "osm_type": "node",
            "lat": 47.160923,
            "lon": 17.098927,
            "name": "Napsugár Üdülő",
            "tourism": "chalet"
          },
          "geometry": {
            "type": "Point",
            "coordinates": [
              17.098927,
              47.160923
            ]
          }
        }
      ],
      "children": []
    },
    {
      "bbox": {
        "south": 47.36431175,
        "west": 15.253173,
        "north": 47.694865,
        "east": 16.2068765
      },
      "poiCount": 22,
      "leafCount": 22,
      "averagePosition": [
        15.787029009090908,
        47.53580451818182
      ],
      "data": [
        {
          "type": "Feature",
          "properties": {
            "id": "1351497872",
            "osm_type": "node",
            "lat": 47.692696,
            "lon": 15.379432,
            "name": "Weißalm",
            "tourism": "alpine_hut"
          },
          "geometry": {
            "type": "Point",
            "coordinates": [
              15.379432,
              47.692696
            ]
          }
        },
        {
          "type": "Feature",
          "properties": {
            "id": "4855927662",
            "osm_type": "node",
            "lat": 47.598247,
            "lon": 15.3213923,
            "name": "Kobenkogelhütte",
            "tourism": "alpine_hut"
          },
          "geometry": {
            "type": "Point",
            "coordinates": [
              15.3213923,
              47.598247
            ]
          }
        },
        {
          "type": "Feature",
          "properties": {
            "id": "12152427764",
            "osm_type": "node",
            "lat": 47.5049096,
            "lon": 15.521575,
            "addr:housenumber": "48",
            "addr:street": "Spregnitz",
            "charge": "40 €",
            "check_date": "2024-09-02",
            "description": "Hütte mit Abendessen und Frühstück, Lagerbetten",
            "fee": "yes",
            "name": "Winkelmayer-Hütte",
            "reservation": "required",
            "shower": "no",
            "toilets:disposal": "pitlatrine",
            "tourism": "alpine_hut",
            "website": "https://www.winkelmayerhof.at/wir-bieten-an-...-offer/unsere-alm-chalet/"
          },
          "geometry": {
            "type": "Point",
            "coordinates": [
              15.521575,
              47.5049096
            ]
          }
        },
        {
          "type": "Feature",
          "properties": {
            "id": "34812295",
            "osm_type": "node",
            "lat": 47.6418285,
            "lon": 15.8500592,
            "highway": "motorway_junction",
            "name": "Maria Schutz",
            "ref": "25"
          },
          "geometry": {
            "type": "Point",
            "coordinates": [
              15.8500592,
              47.6418285
            ]
          }
        },
        {
          "type": "Feature",
          "properties": {
            "id": "389786044",
            "osm_type": "node",
            "lat": 47.582021,
            "lon": 15.7982186,
            "ele": "1450",
            "name": "Karl-Lechner-Haus",
            "note": "Koordinaten vom ÖAV zur Verfügung gestellt",
            "operator": "Sektion Stuhlecker",
            "start_date": "1907",
            "tourism": "alpine_hut",
            "website": "https://www.alpenverein.at/karllechnerhaus/"
          },
          "geometry": {
            "type": "Point",
            "coordinates": [
              15.7982186,
              47.582021
            ]
          }
        },
        {
          "type": "Feature",
          "properties": {
            "id": "575025927",
            "osm_type": "node",
            "lat": 47.519049,
            "lon": 15.6932815,
            "name": "Hauereckschutzhütte",
            "note": "neuer Pächter seit ca. 2020?",
            "operator": "Familie Lehofer",
            "tourism": "alpine_hut",
            "website": "https://www.hauereck.at/"
          },
          "geometry": {
            "type": "Point",
            "coordinates": [
              15.6932815,
              47.519049
            ]
          }
        },
        {
          "type": "Feature",
          "properties": {
            "id": "747134371",
            "osm_type": "node",
            "lat": 47.6053881,
            "lon": 15.8573829,
            "access": "permit",
            "ele": "1314",
            "name": "Alpkogelhütte",
            "operator": "ÖTK",
            "tourism": "wilderness_hut",
            "website": "https://www.oetk-neunkirchen.at/reservierung2/"
          },
          "geometry": {
            "type": "Point",
            "coordinates": [
              15.8573829,
              47.6053881
            ]
          }
        },
        {
          "type": "Feature",
          "properties": {
            "id": "747148944",
            "osm_type": "node",
            "lat": 47.5377073,
            "lon": 15.9297949,
            "name": "Marienseer Schwaig 1478 m",
            "tourism": "alpine_hut"
          },
          "geometry": {
            "type": "Point",
            "coordinates": [
              15.9297949,
              47.5377073
            ]
          }
        },
        {
          "type": "Feature",
          "properties": {
            "id": "886688657",
            "osm_type": "node",
            "lat": 47.5114208,
            "lon": 15.9568641,
            "name": "Vorauer Schwaig",
            "power_supply": "no",
            "shower": "no",
            "tourism": "alpine_hut"
          },
          "geometry": {
            "type": "Point",
            "coordinates": [
              15.9568641,
              47.5114208
            ]
          }
        },
        {
          "type": "Feature",
          "properties": {
            "id": "1189248589",
            "osm_type": "node",
            "lat": 47.5187018,
            "lon": 16.0091447,
            "tourism": "chalet"
          },
          "geometry": {
            "type": "Point",
            "coordinates": [
              16.0091447,
              47.5187018
            ]
          }
        },
        {
          "type": "Feature",
          "properties": {
            "id": "1453561181",
            "osm_type": "node",
            "lat": 47.5177155,
            "lon": 15.6921451,
            "name": "Sonnenhütte",
            "tourism": "alpine_hut"
          },
          "geometry": {
            "type": "Point",
            "coordinates": [
              15.6921451,
              47.5177155
            ]
          }
        },
        {
          "type": "Feature",
          "properties": {
            "id": "1453566709",
            "osm_type": "node",
            "lat": 47.5129507,
            "lon": 15.6978477,
            "name": "Schirmbar Königshofer",
            "tourism": "chalet"
          },
          "geometry": {
            "type": "Point",
            "coordinates": [
              15.6978477,
              47.5129507
            ]
          }
        },
        {
          "type": "Feature",
          "properties": {
            "id": "1453631950",
            "osm_type": "node",
            "lat": 47.5116863,
            "lon": 15.6423236,
            "name": "Kressbachalmhütte",
            "tourism": "alpine_hut"
          },
          "geometry": {
            "type": "Point",
            "coordinates": [
              15.6423236,
              47.5116863
            ]
          }
        },
        {
          "type": "Feature",
          "properties": {
            "id": "1711333201",
            "osm_type": "node",
            "lat": 47.6402943,
            "lon": 15.8499289,
            "highway": "motorway_junction",
            "name": "Maria Schutz",
            "ref": "25"
          },
          "geometry": {
            "type": "Point",
            "coordinates": [
              15.8499289,
              47.6402943
            ]
          }
        },
        {
          "type": "Feature",
          "properties": {
            "id": "1837710838",
            "osm_type": "node",
            "lat": 47.5697267,
            "lon": 15.7740887,
            "name": "Steinbachalm Sennerhütte",
            "tourism": "alpine_hut"
          },
          "geometry": {
            "type": "Point",
            "coordinates": [
              15.7740887,
              47.5697267
            ]
          }
        },
        {
          "type": "Feature",
          "properties": {
            "id": "2085795791",
            "osm_type": "node",
            "lat": 47.4840675,
            "lon": 15.9630702,
            "check_date": "2025-06-21",
            "name": "Glatzl Trahütten",
            "opening_hours": "Jun-sep 10:00-20:00",
            "tourism": "alpine_hut"
          },
          "geometry": {
            "type": "Point",
            "coordinates": [
              15.9630702,
              47.4840675
            ]
          }
        },
        {
          "type": "Feature",
          "properties": {
            "id": "2459144275",
            "osm_type": "node",
            "lat": 47.5438879,
            "lon": 15.5622729,
            "OGD-Stmk:ARZTNR": "3664.0",
            "OGD-Stmk:OBJECTID": "1986",
            "addr:city": "Krieglach",
            "addr:country": "AT",
            "addr:housenumber": "7",
            "addr:postcode": "8670",
            "addr:street": "Karl Morre-Gasse",
            "amenity": "doctors",
            "contact:phone": "+43 3855 2072",
            "email": "roland.hutter@gmail.com",
            "healthcare": "doctor",
            "healthcare:speciality": "general",
            "healthcare:speciality:de": "Arzt für Allgemeinmedizin",
            "insurance": "BVA,GKK, KFAG, KFAW, SVA, VA",
            "insurance:BVA": "yes",
            "insurance:GKK": "yes",
            "insurance:KFAG": "yes",
            "insurance:KFAW": "yes",
            "insurance:SVA": "yes",
            "insurance:VA": "yes",
            "name": "Dr. Roland Hutter",
            "phone": "+43 3855 2072",
            "source": "Land Steiermark - data.steiermark.gv.at",
            "website": "https://www.dr-hutter.at/",
            "wheelchair": "limited"
          },
          "geometry": {
            "type": "Point",
            "coordinates": [
              15.5622729,
              47.5438879
            ]
          }
        },
        {
          "type": "Feature",
          "properties": {
            "id": "6481649703",
            "osm_type": "node",
            "lat": 47.4976193,
            "lon": 15.6418263,
            "addr:city": "Krieglach",
            "addr:country": "AT",
            "addr:housenumber": "61",
            "addr:place": "Alpl",
            "addr:postcode": "8671",
            "at_bev:addr_date": "2019-04-01",
            "contact:email": "office@blockhausurlaub.at",
            "contact:phone": "+43 664 1029754",
            "tourism": "chalet",
            "website": "https://www.blockhausurlaub.at/"
          },
          "geometry": {
            "type": "Point",
            "coordinates": [
              15.6418263,
              47.4976193
            ]
          }
        },
        {
          "type": "Feature",
          "properties": {
            "id": "11835087669",
            "osm_type": "node",
            "lat": 47.6414466,
            "lon": 15.8649379,
            "amenity": "place_of_worship",
            "email": "sektetariat@mariaschutz.at",
            "name": "Lourdes Grotte Maria Schutz",
            "opening_hours": "24/7",
            "operator": "Wallfahrtskirche Maria Schutz",
            "website": "https://mariaschutz.at/"
          },
          "geometry": {
            "type": "Point",
            "coordinates": [
              15.8649379,
              47.6414466
            ]
          }
        },
        {
          "type": "Feature",
          "properties": {
            "id": "6034941889",
            "osm_type": "node",
            "lat": 47.382857,
            "lon": 16.1166262,
            "name": "Hundeschule",
            "tourism": "chalet"
          },
          "geometry": {
            "type": "Point",
            "coordinates": [
              16.1166262,
              47.382857
            ]
          }
        },
        {
          "type": "Feature",
          "properties": {
            "id": "6034943086",
            "osm_type": "node",
            "lat": 47.3980685,
            "lon": 16.1174831,
            "tourism": "chalet"
          },
          "geometry": {
            "type": "Point",
            "coordinates": [
              16.1174831,
              47.3980685
            ]
          }
        },
        {
          "type": "Feature",
          "properties": {
            "id": "6034943088",
            "osm_type": "node",
            "lat": 47.37541,
            "lon": 16.0749424,
            "name": "Bildstock",
            "tourism": "wilderness_hut"
          },
          "geometry": {
            "type": "Point",
            "coordinates": [
              16.0749424,
              47.37541
            ]
          }
        }
      ],
      "children": []
    },
    {
      "bbox": {
        "south": 47.36431175,
        "west": 16.2068765,
        "north": 47.694865,
        "east": 17.16058
      },
      "poiCount": 8,
      "leafCount": 8,
      "averagePosition": [
        16.6215616375,
        47.603467387500004
      ],
      "data": [
        {
          "type": "Feature",
          "properties": {
            "id": "1428846155",
            "osm_type": "node",
            "lat": 47.6771414,
            "lon": 16.5183978,
            "addr:city": "Sopron",
            "addr:postcode": "9400",
            "addr:street": "Brennbergi út",
            "name": "Ciklámen faházak",
            "operator": "Pannonia Hotel",
            "tourism": "chalet",
            "website": "http://ciklamenfahazak.hu/"
          },
          "geometry": {
            "type": "Point",
            "coordinates": [
              16.5183978,
              47.6771414
            ]
          }
        },
        {
          "type": "Feature",
          "properties": {
            "id": "4334134699",
            "osm_type": "node",
            "lat": 47.4082901,
            "lon": 16.498438,
            "amenity": "pub",
            "cuisine": "regional",
            "internet_access": "wlan",
            "name": "Hutter Loisl"
          },
          "geometry": {
            "type": "Point",
            "coordinates": [
              16.498438,
              47.4082901
            ]
          }
        },
        {
          "type": "Feature",
          "properties": {
            "id": "9451812032",
            "osm_type": "node",
            "lat": 47.6641621,
            "lon": 16.4359053,
            "fee": "yes",
            "fireplace": "yes",
            "name": "Roth Turistaház",
            "operator": "TAEG Zrt.",
            "tourism": "wilderness_hut"
          },
          "geometry": {
            "type": "Point",
            "coordinates": [
              16.4359053,
              47.6641621
            ]
          }
        },
        {
          "type": "Feature",
          "properties": {
            "id": "9452160854",
            "osm_type": "node",
            "lat": 47.6648051,
            "lon": 16.5275663,
            "access": "private",
            "operator": "TAEG Zrt.",
            "tourism": "wilderness_hut"
          },
          "geometry": {
            "type": "Point",
            "coordinates": [
              16.5275663,
              47.6648051
            ]
          }
        },
        {
          "type": "Feature",
          "properties": {
            "id": "6025818140",
            "osm_type": "node",
            "lat": 47.4640213,
            "lon": 16.6481239,
            "addr:city": "Lutzmannsburg",
            "addr:country": "AT",
            "addr:housenumber": "43",
            "addr:postcode": "7361",
            "addr:street": "Bahnhofgasse",
            "name": "Bungalow - Paradies - Heiss",
            "tourism": "chalet"
          },
          "geometry": {
            "type": "Point",
            "coordinates": [
              16.6481239,
              47.4640213
            ]
          }
        },
        {
          "type": "Feature",
          "properties": {
            "id": "7814154830",
            "osm_type": "node",
            "lat": 47.6284446,
            "lon": 16.6433749,
            "highway": "motorway_junction",
            "name": "Hutbájd pihenőhely"
          },
          "geometry": {
            "type": "Point",
            "coordinates": [
              16.6433749,
              47.6284446
            ]
          }
        },
        {
          "type": "Feature",
          "properties": {
            "id": "7814154831",
            "osm_type": "node",
            "lat": 47.6268417,
            "lon": 16.6496449,
            "highway": "motorway_junction",
            "name": "Hutbájd pihenőhely"
          },
          "geometry": {
            "type": "Point",
            "coordinates": [
              16.6496449,
              47.6268417
            ]
          }
        },
        {
          "type": "Feature",
          "properties": {
            "id": "7344263982",
            "osm_type": "node",
            "lat": 47.6940328,
            "lon": 17.051042,
            "name": "Békási Éger Menedékház",
            "tourism": "wilderness_hut"
          },
          "geometry": {
            "type": "Point",
            "coordinates": [
              17.051042,
              47.6940328
            ]
          }
        }
      ],
      "children": []
    }
  ]
}