{
  "bbox": {
    "south": 48.355971499999995,
    "west": 15.253173,
    "north": 49.017078,
    "east": 17.16058
  },
  "poiCount": 20,
  "leafCount": 20,
  "averagePosition": [
    15.957417154999998,
    48.610176385
  ],
  "data": [
    {
      "type": "Feature",
      "properties": {
        "id": "2951279390",
        "osm_type": "node",
        "lat": 48.5313988,
        "lon": 15.3566619,
        "addr:city": "Rastenfeld",
        "addr:country": "AT",
        "addr:housenumber": "30",
        "addr:place": "Niedergrünbach",
        "addr:postcode": "3532",
        "name": "Ferienwohungen Strohmayerhof",
        "operator": "Fam. Strohmayer",
        "tourism": "chalet"
      },
      "geometry": {
        "type": "Point",
        "coordinates": [
          15.3566619,
          48.5313988
        ]
      }
    },
    {
      "type": "Feature",
      "properties": {
        "id": "3486864348",
        "osm_type": "node",
        "lat": 48.5947522,
        "lon": 15.4669729,
        "addr:city": "Krumau am Kamp",
        "addr:country": "AT",
        "addr:housenumber": "80",
        "addr:postcode": "3544",
        "addr:street": "Seestraße Preinreichs",
        "contact:email": "gertraudseidl@gmx.net",
        "contact:phone": "+43 676 6053472",
        "contact:website": "http://www.ferienhausseidl.at/",
        "name": "Ferienhaus Seidl",
        "tourism": "chalet"
      },
      "geometry": {
        "type": "Point",
        "coordinates": [
          15.4669729,
          48.5947522
        ]
      }
    },
    {
      "type": "Feature",
      "properties": {
        "id": "3486891482",
        "osm_type": "node",
        "lat": 48.6012199,
        "lon": 15.4861624,
        "addr:city": "Krumau am Kamp",
        "addr:country": "AT",
        "addr:housenumber": "48",
        "addr:place": "Idolsberg",
        "addr:postcode": "3544",
        "contact:email": "evaweber@gmx.at",
        "contact:phone": "+43 664 1227415",
        "contact:website": "http://www.ferienhaus-idolsberg.at/",
        "name": "Ferienhaus Weber",
        "tourism": "chalet"
      },
      "geometry": {
        "type": "Point",
        "coordinates": [
          15.4861624,
          48.6012199
        ]
      }
    },
    {
      "type": "Feature",
      "properties": {
        "id": "2157534465",
        "osm_type": "node",
        "lat": 48.5977701,
        "lon": 15.6682988,
        "addr:city": "Gars am Kamp",
        "addr:country": "AT",
        "addr:housenumber": "307a",
        "addr:postcode": "3571",
        "addr:street": "Johann Straußgasse",
        "at_bev:addr_date": "2021-04-01",
        "contact:phone": "+43 2985 2148",
        "contact:website": "http://braun-gars.at",
        "craft": "sun_protection",
        "name": "Braun Sonnenschutztechnik GmbH"
      },
      "geometry": {
        "type": "Point",
        "coordinates": [
          15.6682988,
          48.5977701
        ]
      }
    },
    {
      "type": "Feature",
      "properties": {
        "id": "3408884893",
        "osm_type": "node",
        "lat": 48.5564365,
        "lon": 15.6863684,
        "addr:city": "Plank am Kamp",
        "addr:country": "AT",
        "addr:housenumber": "3",
        "addr:postcode": "3564",
        "addr:street": "Neustiftgasse",
        "name": "ferienwohnung kamptal",
        "phone": "+43 664 4448407",
        "toilets:wheelchair": "no",
        "tourism": "chalet",
        "website": "https://www.ferienwohnung-kamptal.at/",
        "wheelchair": "limited",
        "wheelchair:description": "Das Haus bietet mehrere Ferienwohnungen (drei davon rollstuhlgerecht) in ruhiger Lage neben einer alten Mühle direkt am Kamp. Alle Appartements sind mit Küche, Bad, WC und Sat-TV ausgestattet."
      },
      "geometry": {
        "type": "Point",
        "coordinates": [
          15.6863684,
          48.5564365
        ]
      }
    },
    {
      "type": "Feature",
      "properties": {
        "id": "4921172416",
        "osm_type": "node",
        "lat": 48.8278866,
        "lon": 15.8811877,
        "addr:city": "Merkersdorf",
        "addr:country": "AT",
        "addr:housenumber": "79",
        "addr:place": "Merkersdorf",
        "addr:postcode": "2082",
        "contact:website": "http://www.urlaub-hardegg.at/",
        "name": "Ferienhaus Sommerberg",
        "tourism": "chalet",
        "website": "http://www.urlaub-hardegg.at/"
      },
      "geometry": {
        "type": "Point",
        "coordinates": [
          15.8811877,
          48.8278866
        ]
      }
    },
    {
      "type": "Feature",
      "properties": {
        "id": "5730558169",
        "osm_type": "node",
        "lat": 48.4199386,
        "lon": 15.6249533,
        "addr:city": "Krems an der Donau",
        "addr:country": "AT",
        "addr:housenumber": "11",
        "addr:postcode": "3500",
        "addr:street": "Franziskusstraße",
        "amenity": "animal_shelter",
        "animal_shelter": "yes",
        "animal_shelter:adoption": "yes",
        "email": "info@tierheim-krems.at",
        "name": "Tierschutzverein Krems",
        "phone": "+43 2732 847 20",
        "website": "https://www.tierheim-krems.at"
      },
      "geometry": {
        "type": "Point",
        "coordinates": [
          15.6249533,
          48.4199386
        ]
      }
    },
    {
      "type": "Feature",
      "properties": {
        "id": "9593472969",
        "osm_type": "node",
        "lat": 48.5003108,
        "lon": 15.9532961,
        "description": "wurde aus dem Wald hierher versetzt",
        "historic": "wayside_shrine",
        "name": "Schutzengel",
        "origin": "node 7094021401",
        "religion": "christian"
      },
      "geometry": {
        "type": "Point",
        "coordinates": [
          15.9532961,
          48.5003108
        ]
      }
    },
    {
      "type": "Feature",
      "properties": {
        "id": "11116503093",
        "osm_type": "node",
        "lat": 48.4051752,
        "lon": 15.7218084,
        "historic": "memorial",
        "inscription": "...errichtet in den Jahren 1956 - 1965...",
        "material": "stone",
        "memorial": "stone",
        "name": "Hochwasserschutzdamm Krems-Theiss Kampdamm"
      },
      "geometry": {
        "type": "Point",
        "coordinates": [
          15.7218084,
          48.4051752
        ]
      }
    },
    {
      "type": "Feature",
      "properties": {
        "id": "12546612279",
        "osm_type": "node",
        "lat": 48.3983069,
        "lon": 15.5948728,
        "addr:city": "Mautern an der Donau",
        "addr:country": "AT",
        "addr:housenumber": "49",
        "addr:postcode": "3512",
        "addr:street": "Austraße",
        "craft": "sun_protection",
        "name": "Pickem Sonnenschutz",
        "phone": "+43 2732 23 1010",
        "website": "https://pickemsonne.at/"
      },
      "geometry": {
        "type": "Point",
        "coordinates": [
          15.5948728,
          48.3983069
        ]
      }
    },
    {
      "type": "Feature",
      "properties": {
        "id": "1614941365",
        "osm_type": "node",
        "lat": 48.4800122,
        "lon": 16.0677347,
        "amenity": "place_of_worship",
        "building": "chapel",
        "denomination": "roman_catholic",
        "name": "Huttererkapelle",
        "note": "erbaut 1906",
        "religion": "christian"
      },
      "geometry": {
        "type": "Point",
        "coordinates": [
          16.0677347,
          48.4800122
        ]
      }
    },
    {
      "type": "Feature",
      "properties": {
        "id": "8465361777",
        "osm_type": "node",
        "lat": 48.6498387,
        "lon": 16.7969434,
        "emergency": "fire_hydrant",
        "fire_hydrant:diameter": "80",
        "fire_hydrant:position": "green",
        "fire_hydrant:type": "pillar",
        "name": "1 Hutaaulbergstraße 405",
        "pillar:type": "wet_barrel",
        "water_source": "main"
      },
      "geometry": {
        "type": "Point",
        "coordinates": [
          16.7969434,
          48.6498387
        ]
      }
    },
    {
      "type": "Feature",
      "properties": {
        "id": "8465362118",
        "osm_type": "node",
        "lat": 48.6497694,
        "lon": 16.7953379,
        "emergency": "fire_hydrant",
        "fire_hydrant:diameter": "80",
        "fire_hydrant:position": "sidewalk",
        "fire_hydrant:type": "pillar",
        "name": "33 Hutsaulbergstraße 406",
        "pillar:type": "wet_barrel",
        "water_source": "main"
      },
      "geometry": {
        "type": "Point",
        "coordinates": [
          16.7953379,
          48.6497694
        ]
      }
    },
    {
      "type": "Feature",
      "properties": {
        "id": "8465417221",
        "osm_type": "node",
        "lat": 48.6493869,
        "lon": 16.7940791,
        "emergency": "fire_hydrant",
        "fire_hydrant:diameter": "80",
        "fire_hydrant:position": "green",
        "fire_hydrant:type": "pillar",
        "name": "32 Hutsaulbergstraße",
        "pillar:type": "wet_barrel",
        "water_source": "main"
      },
      "geometry": {
        "type": "Point",
        "coordinates": [
          16.7940791,
          48.6493869
        ]
      }
    },
    {
      "type": "Feature",
      "properties": {
        "id": "9954684881",
        "osm_type": "node",
        "lat": 48.5443343,
        "lon": 16.7191531,
        "name": "Jagdhütte",
        "operator": "örtliche Jäger",
        "tourism": "alpine_hut"
      },
      "geometry": {
        "type": "Point",
        "coordinates": [
          16.7191531,
          48.5443343
        ]
      }
    },
    {
      "type": "Feature",
      "properties": {
        "id": "10275407170",
        "osm_type": "node",
        "lat": 48.5675434,
        "lon": 16.5694884,
        "addr:city": "Mistelbach",
        "addr:country": "AT",
        "addr:housenumber": "2",
        "addr:postcode": "2130",
        "addr:street": "Gewerbeschulgasse",
        "amenity": "social_facility",
        "name": "Kinderschutzzentrum",
        "operator": "die möwe",
        "phone": "+43 2572 20450 410",
        "social_facility": "outreach",
        "website": "https://www.die-moewe.at/"
      },
      "geometry": {
        "type": "Point",
        "coordinates": [
          16.5694884,
          48.5675434
        ]
      }
    },
    {
      "type": "Feature",
      "properties": {
        "id": "13058359360",
        "osm_type": "node",
        "lat": 48.462654,
        "lon": 16.6477464,
        "addr:city": "Hohenruppersdorf",
        "addr:housenumber": "17",
        "addr:postcode": "2223",
        "addr:street": "Harrasser Straße",
        "amenity": "recycling",
        "email": "office@gvu-gf.at",
        "name": "Gemeindeverband für Aufgaben des Umweltschutzes im Bezirk Gänserndorf - GVU",
        "opening_hours": "Mo - Do 08.00 - 14.00 Uhr; Fr 08.00 - 13.00 Uhr",
        "phone": "02574/8954-0",
        "recycling_type": "centre",
        "website": "http://gaenserndorf.abfallverband.at/"
      },
      "geometry": {
        "type": "Point",
        "coordinates": [
          16.6477464,
          48.462654
        ]
      }
    },
    {
      "type": "Feature",
      "properties": {
        "id": "5089395053",
        "osm_type": "node",
        "lat": 48.977215,
        "lon": 15.4559459,
        "name": "Chalupa Modletice",
        "tourism": "chalet",
        "website": "www.modletice.eu"
      },
      "geometry": {
        "type": "Point",
        "coordinates": [
          15.4559459,
          48.977215
        ]
      }
    },
    {
      "type": "Feature",
      "properties": {
        "id": "11773846018",
        "osm_type": "node",
        "lat": 48.9160495,
        "lon": 15.3932234,
        "name": "Ferienhaus Thayahof",
        "tourism": "chalet"
      },
      "geometry": {
        "type": "Point",
        "coordinates": [
          15.3932234,
          48.9160495
        ]
      }
    },
    {
      "type": "Feature",
      "properties": {
        "id": "12752436079",
        "osm_type": "node",
        "lat": 48.8735287,
        "lon": 15.4681081,
        "name": "Hutterer Erich - Gefluegelmast",
        "office": "company"
      },
      "geometry": {
        "type": "Point",
        "coordinates": [
          15.4681081,
          48.8735287
        ]
      }
    }
  ],
  "children": []
}