{
  "bbox": {
    "south": 46.372652,
    "west": 15.253173,
    "north": 47.033758500000005,
    "east": 17.16058
  },
  "poiCount": 31,
  "leafCount": 31,
  "averagePosition": [
    15.744453125806452,
    46.755296687096774
  ],
  "data": [
    {
      "type": "Feature",
      "properties": {
        "id": "59264046",
        "osm_type": "node",
        "lat": 46.4375022,
        "lon": 15.4600805,
        "ele": "1181",
        "name": "Štuhecov dom",
        "tourism": "alpine_hut"
      },
      "geometry": {
        "type": "Point",
        "coordinates": [
          15.4600805,
          46.4375022
        ]
      }
    },
    {
      "type": "Feature",
      "properties": {
        "id": "303847394",
        "osm_type": "node",
        "lat": 46.4672016,
        "lon": 15.3439495,
        "ele": "1382",
        "name": "Koča na Pesku",
        "tourism": "alpine_hut",
        "wikidata": "Q11835733"
      },
      "geometry": {
        "type": "Point",
        "coordinates": [
          15.3439495,
          46.4672016
        ]
      }
    },
    {
      "type": "Feature",
      "properties": {
        "id": "410274100",
        "osm_type": "node",
        "lat": 46.4990872,
        "lon": 15.2551685,
        "tourism": "chalet"
      },
      "geometry": {
        "type": "Point",
        "coordinates": [
          15.2551685,
          46.4990872
        ]
      }
    },
    {
      "type": "Feature",
      "properties": {
        "id": "497379490",
        "osm_type": "node",
        "lat": 46.7464571,
        "lon": 15.405087,
        "name": "Silberschneider",
        "tourism": "chalet"
      },
      "geometry": {
        "type": "Point",
        "coordinates": [
          15.405087,
          46.7464571
        ]
      }
    },
    {
      "type": "Feature",
      "properties": {
        "id": "1701176287",
        "osm_type": "node",
        "lat": 46.4947368,
        "lon": 15.5078543,
        "name": "Tonetova Bajta",
        "tourism": "chalet"
      },
      "geometry": {
        "type": "Point",
        "coordinates": [
          15.5078543,
          46.4947368
        ]
      }
    },
    {
      "type": "Feature",
      "properties": {
        "id": "1701176340",
        "osm_type": "node",
        "lat": 46.4942197,
        "lon": 15.508244,
        "tourism": "chalet"
      },
      "geometry": {
        "type": "Point",
        "coordinates": [
          15.508244,
          46.4942197
        ]
      }
    },
    {
      "type": "Feature",
      "properties": {
        "id": "2366754456",
        "osm_type": "node",
        "lat": 46.7276832,
        "lon": 15.5104797,
        "name": "Ferienhaus Steiner",
        "tourism": "chalet"
      },
      "geometry": {
        "type": "Point",
        "coordinates": [
          15.5104797,
          46.7276832
        ]
      }
    },
    {
      "type": "Feature",
      "properties": {
        "id": "2394315449",
        "osm_type": "node",
        "lat": 46.7691667,
        "lon": 15.3533737,
        "addr:city": "Gleinstätten",
        "addr:country": "AT",
        "addr:housenumber": "45",
        "addr:place": "Gleinstätten",
        "addr:postcode": "8443",
        "name": "Wurzerlhof",
        "phone": "+43(0) 664/73875822",
        "tourism": "chalet",
        "wheelchair": "yes",
        "wheelchair:description": "empfehlenswert"
      },
      "geometry": {
        "type": "Point",
        "coordinates": [
          15.3533737,
          46.7691667
        ]
      }
    },
    {
      "type": "Feature",
      "properties": {
        "id": "3074426554",
        "osm_type": "node",
        "lat": 46.6981864,
        "lon": 15.4725674,
        "addr:city": "Leutschach an der Weinstraße",
        "addr:country": "AT",
        "addr:housenumber": "44",
        "addr:place": "Kranach",
        "addr:postcode": "8463",
        "ele": "543",
        "full_name": "Knappenhof-Eichberg \"Weingarten-Stöckl\"",
        "name": "Weingarten-Stöckl",
        "note": "1 Doppelzimmer für 2 Personen hochwertige antike Massivholzmöbel Betten mit erstklassigen 35 cm Boxspringmatratzen WC, Badezimmer mit Regenbrausendusche, Föhn, Handtücher, Hotelkosmetik..... voll ausgestattete Küche mit stilvollem Geschirr und Gläsern",
        "operator": "Knappenhof Eichberg",
        "phone": "+4369911102536",
        "smoking": "no",
        "tourism": "chalet",
        "website": "https://knappenhof-eichberg.at/"
      },
      "geometry": {
        "type": "Point",
        "coordinates": [
          15.4725674,
          46.6981864
        ]
      }
    },
    {
      "type": "Feature",
      "properties": {
        "id": "3074430068",
        "osm_type": "node",
        "lat": 46.6980007,
        "lon": 15.4729176,
        "addr:city": "Leutschach an der Weinstraße",
        "addr:country": "AT",
        "addr:housenumber": "44",
        "addr:place": "Kranach",
        "addr:postcode": "8463",
        "ele": "543",
        "full_name": "Knappenhof Eichberg \"Lannacher-Haus\"",
        "name": "Lannacher-Haus",
        "note": "3 Doppelzimmer für 6-7 Personen (1 Zusatzbett in einem Doppelzimmer möglich) hochwertige antike Massivholzmöbell Betten mit erstklassigen 35 cm Boxspringmatratzen 2 Badezimmer mit WC, Regenbrausendusche, Föhn, Handtücher, Hotelkosmetik.....",
        "operator": "Knappenhof Eichberg",
        "phone": "+4369911102536",
        "smoking": "no",
        "tourism": "chalet",
        "website": "https://knappenhof-eichberg.at/"
      },
      "geometry": {
        "type": "Point",
        "coordinates": [
          15.4729176,
          46.6980007
        ]
      }
    },
    {
      "type": "Feature",
      "properties": {
        "id": "3074441801",
        "osm_type": "node",
        "lat": 46.6980839,
        "lon": 15.4725351,
        "addr:city": "Leutschach an der Weinstraße",
        "addr:country": "AT",
        "addr:housenumber": "44",
        "addr:place": "Kranach",
        "addr:postcode": "8463",
        "ele": "543",
        "full_name": "Knappenhof Eichberg \"Muskateller-Haus\"",
        "name": "Muskateller-Haus",
        "note": "1 Doppelzimmer - inkl. 2 Zusatzbetten im Wohn-/Esszimmer - 80 m² Wohnfläche für 2 bis 4 Personen hochwertige antike Massivholzmöbel - Schlafzimmer Original \"Mariazeller-Zimmer\" restauriert. Betten mit erstklassigen 35 cm Boxspringmatratzen uvm.",
        "operator": "Knappenhof Eichberg",
        "phone": "+4369911102536",
        "smoking": "no",
        "tourism": "chalet",
        "website": "https://knappenhof-eichberg.at/"
      },
      "geometry": {
        "type": "Point",
        "coordinates": [
          15.4725351,
          46.6980839
        ]
      }
    },
    {
      "type": "Feature",
      "properties": {
        "id": "6630792486",
        "osm_type": "node",
        "lat": 46.6534532,
        "lon": 15.3986984,
        "name": "Remschnigg Almhütte",
        "tourism": "wilderness_hut"
      },
      "geometry": {
        "type": "Point",
        "coordinates": [
          15.3986984,
          46.6534532
        ]
      }
    },
    {
      "type": "Feature",
      "properties": {
        "id": "2753560971",
        "osm_type": "node",
        "lat": 46.6453355,
        "lon": 15.6055996,
        "addr:housenumber": "23",
        "addr:street": "Zgornja Kungota",
        "email": "tia.apartma@gmail.com",
        "name": "Tia",
        "phone": "+386 31 589232",
        "tourism": "chalet",
        "website": "http://www.prenocisca.blogspot.si/"
      },
      "geometry": {
        "type": "Point",
        "coordinates": [
          15.6055996,
          46.6453355
        ]
      }
    },
    {
      "type": "Feature",
      "properties": {
        "id": "5084502320",
        "osm_type": "node",
        "lat": 46.8000152,
        "lon": 15.9320986,
        "addr:city": "Tieschen",
        "addr:housenumber": "7",
        "addr:place": "Größing",
        "addr:postcode": "8355",
        "name": "Ferienhaus Pachler",
        "tourism": "chalet"
      },
      "geometry": {
        "type": "Point",
        "coordinates": [
          15.9320986,
          46.8000152
        ]
      }
    },
    {
      "type": "Feature",
      "properties": {
        "id": "5896667706",
        "osm_type": "node",
        "lat": 46.4246425,
        "lon": 15.870388,
        "denomination": "catholic",
        "historic": "tomb",
        "man_made": "grave",
        "name": "Hutter",
        "religion": "christian",
        "subject:birth": "1877-01-27",
        "subject:birth:2": "1849-09-15",
        "subject:birth:3": "1851-11-27",
        "subject:birth:4": "1872-07-27",
        "subject:birth:5": "1881-05-27",
        "subject:death": "1878-10-04",
        "subject:death:2": "1919-01-24",
        "subject:death:3": "1939-11-05",
        "subject:death:4": "1915-06-29",
        "subject:death:5": "1940-08-21",
        "subject:name": "Simon Hutter",
        "subject:name:2": "Simon Hutter",
        "subject:name:3": "Barbara Hutter",
        "subject:name:4": "Viktor Elsbacher",
        "subject:name:5": "Wilhelm Elsbacher",
        "subject:profession:de:2": "Industrieller",
        "subject:profession:de:4": "Finanzsekretär"
      },
      "geometry": {
        "type": "Point",
        "coordinates": [
          15.870388,
          46.4246425
        ]
      }
    },
    {
      "type": "Feature",
      "properties": {
        "id": "10027938128",
        "osm_type": "node",
        "lat": 46.850634,
        "lon": 15.5406227,
        "addr:city": "Lebring-Sankt Margarethen",
        "addr:country": "AT",
        "addr:housenumber": "24",
        "addr:postcode": "8403",
        "addr:street": "Florianistraße",
        "at_bev:addr_date": "2019-04-01",
        "government": "yes",
        "name": "Zivilschutzverband Steiermark",
        "office": "government"
      },
      "geometry": {
        "type": "Point",
        "coordinates": [
          15.5406227,
          46.850634
        ]
      }
    },
    {
      "type": "Feature",
      "properties": {
        "id": "6959700085",
        "osm_type": "node",
        "lat": 46.8051526,
        "lon": 16.3546558,
        "name": "Erdei ház",
        "tourism": "wilderness_hut"
      },
      "geometry": {
        "type": "Point",
        "coordinates": [
          16.3546558,
          46.8051526
        ]
      }
    },
    {
      "type": "Feature",
      "properties": {
        "id": "9744259917",
        "osm_type": "node",
        "lat": 46.7316171,
        "lon": 16.1236271,
        "internet_access": "wlan",
        "internet_access:fee": "no",
        "name": "Gruber",
        "survey:date": "2022-05-16",
        "tourism": "chalet",
        "wheelchair": "no"
      },
      "geometry": {
        "type": "Point",
        "coordinates": [
          16.1236271,
          46.7316171
        ]
      }
    },
    {
      "type": "Feature",
      "properties": {
        "id": "9908024251",
        "osm_type": "node",
        "lat": 46.8497645,
        "lon": 16.4037581,
        "addr:city": "Őriszentpéter",
        "addr:housenumber": "11",
        "addr:postcode": "9941",
        "addr:street": "Templomszer",
        "internet_access": "wlan",
        "internet_access:fee": "customers",
        "name": "Szentpéteri Rigó Vendégház",
        "tourism": "chalet",
        "website": "https://orsegirigovendeghaz.com/"
      },
      "geometry": {
        "type": "Point",
        "coordinates": [
          16.4037581,
          46.8497645
        ]
      }
    },
    {
      "type": "Feature",
      "properties": {
        "id": "2499775587",
        "osm_type": "node",
        "lat": 46.4546164,
        "lon": 16.9925454,
        "addr:city": "Nagykanizsa",
        "fixme": "please check position and improve",
        "historic": "memorial",
        "image": "File:Grünhut stolperstein Nagykanizsa Deák tér2.jpg",
        "inscription": "Itt lakott Grünhut Elemér Sz. 1889. 1944.IV.29-én deportálták Auschwitzban megölték",
        "memorial": "stolperstein",
        "name": "Grünhut Elemér",
        "source": "File:Grünhut stolperstein Nagykanizsa Deák tér2.jpg with additional description and geolocation"
      },
      "geometry": {
        "type": "Point",
        "coordinates": [
          16.9925454,
          46.4546164
        ]
      }
    },
    {
      "type": "Feature",
      "properties": {
        "id": "665953705",
        "osm_type": "node",
        "lat": 46.8331491,
        "lon": 17.0992854,
        "check_date": "2025-05-09",
        "contact:website": "https://www.fewokraft.de",
        "name": "Kis Kastély Vendégház",
        "tourism": "chalet"
      },
      "geometry": {
        "type": "Point",
        "coordinates": [
          17.0992854,
          46.8331491
        ]
      }
    },
    {
      "type": "Feature",
      "properties": {
        "id": "5351315114",
        "osm_type": "node",
        "lat": 46.9686011,
        "lon": 15.4039137,
        "addr:city": "Premstätten",
        "addr:country": "AT",
        "addr:housenumber": "169",
        "addr:postcode": "8141",
        "addr:street": "Hauptstraße",
        "name": "EW Shuttleservice Personentransporte GmbH",
        "office": "company"
      },
      "geometry": {
        "type": "Point",
        "coordinates": [
          15.4039137,
          46.9686011
        ]
      }
    },
    {
      "type": "Feature",
      "properties": {
        "id": "6786160775",
        "osm_type": "node",
        "lat": 46.9438933,
        "lon": 15.3329648,
        "name": "EW Shuttleservice Personentransporte GmbH",
        "office": "company"
      },
      "geometry": {
        "type": "Point",
        "coordinates": [
          15.3329648,
          46.9438933
        ]
      }
    },
    {
      "type": "Feature",
      "properties": {
        "id": "7098511367",
        "osm_type": "node",
        "lat": 47.0058164,
        "lon": 15.265513,
        "addr:city": "Söding-Sankt Johann",
        "addr:country": "AT",
        "addr:housenumber": "2",
        "addr:postcode": "8561",
        "addr:street": "Föhrenweg",
        "contact:phone": "+43 3137 3402-0",
        "craft": "yes",
        "name": "Sonnenschutz Neisser"
      },
      "geometry": {
        "type": "Point",
        "coordinates": [
          15.265513,
          47.0058164
        ]
      }
    },
    {
      "type": "Feature",
      "properties": {
        "id": "3655139089",
        "osm_type": "node",
        "lat": 46.9222099,
        "lon": 15.8694511,
        "addr:city": "Feldbach",
        "addr:housenumber": "2",
        "addr:place": "Reiting",
        "addr:postcode": "8330",
        "craft": "winery",
        "name": "Naturweingut Hutter",
        "website": "https://www.hutter-wein.at/"
      },
      "geometry": {
        "type": "Point",
        "coordinates": [
          15.8694511,
          46.9222099
        ]
      }
    },
    {
      "type": "Feature",
      "properties": {
        "id": "4143934324",
        "osm_type": "node",
        "lat": 46.9110879,
        "lon": 15.9126595,
        "addr:city": "Feldbach",
        "addr:housenumber": "6",
        "addr:place": "Höflach",
        "addr:postcode": "8330",
        "email": "urlaub@bauernhof-grain.at",
        "name": "Urlaub am Bauernhof",
        "operator": "Familie Grein",
        "phone": "+43 664 4364623",
        "tourism": "chalet",
        "website": "https://www.urlaubambauernhof.at/de/hoefe/bauernhof-grain"
      },
      "geometry": {
        "type": "Point",
        "coordinates": [
          15.9126595,
          46.9110879
        ]
      }
    },
    {
      "type": "Feature",
      "properties": {
        "id": "4788870116",
        "osm_type": "node",
        "lat": 47.0096251,
        "lon": 15.7578084,
        "addr:city": "Kirchberg an der Raab",
        "addr:housenumber": "173",
        "addr:place": "Studenzen",
        "addr:postcode": "8322",
        "name": "DM Sonnenschutz",
        "office": "company"
      },
      "geometry": {
        "type": "Point",
        "coordinates": [
          15.7578084,
          47.0096251
        ]
      }
    },
    {
      "type": "Feature",
      "properties": {
        "id": "6786174795",
        "osm_type": "node",
        "lat": 46.9979751,
        "lon": 15.5998692,
        "name": "EW Shuttleservice Personentransporte GmbH",
        "office": "company",
        "opening_hours": "Mo-Su 08:00-22:00"
      },
      "geometry": {
        "type": "Point",
        "coordinates": [
          15.5998692,
          46.9979751
        ]
      }
    },
    {
      "type": "Feature",
      "properties": {
        "id": "6786187189",
        "osm_type": "node",
        "lat": 47.0150417,
        "lon": 15.5560372,
        "name": "EW Shuttleservice Personentransporte GmbH",
        "office": "company",
        "opening_hours": "Mo-Su 08:00-22:00"
      },
      "geometry": {
        "type": "Point",
        "coordinates": [
          15.5560372,
          47.0150417
        ]
      }
    },
    {
      "type": "Feature",
      "properties": {
        "id": "5799478555",
        "osm_type": "node",
        "lat": 46.9603107,
        "lon": 16.0341556,
        "addr:city": "Fehring",
        "addr:housenumber": "79",
        "addr:place": "Weinberg an der Raab",
        "addr:postcode": "8350",
        "name": "Ferienhäuser im Weingarten",
        "operator": "Barbara & Christian Garnter",
        "tourism": "chalet",
        "website": "http://www.weingartenhaeuser.at/"
      },
      "geometry": {
        "type": "Point",
        "coordinates": [
          16.0341556,
          46.9603107
        ]
      }
    },
    {
      "type": "Feature",
      "properties": {
        "id": "13065078654",
        "osm_type": "node",
        "lat": 46.9009305,
        "lon": 16.262138,
        "addr:city": "Apátistvánfalva",
        "addr:housenumber": "130/A",
        "addr:postcode": "9982",
        "addr:street": "Fő út",
        "contact:facebook": "https://facebook.com/profile.php?id=61574739467693",
        "name": "Era's Home",
        "tourism": "chalet"
      },
      "geometry": {
        "type": "Point",
        "coordinates": [
          16.262138,
          46.9009305
        ]
      }
    }
  ],
  "children": []
}