{
  "bbox": {
    "south": 48.355971499999995,
    "west": 9.530952,
    "north": 49.017078,
    "east": 11.438358999999998
  },
  "poiCount": 56,
  "leafCount": 0,
  "averagePosition": [
    10.445982592857144,
    48.615731960714285
  ],
  "data": [],
  "children": [
    {
      "bbox": {
        "south": 48.355971499999995,
        "west": 9.530952,
        "north": 48.68652475,
        "east": 10.484655499999999
      },
      "poiCount": 20,
      "leafCount": 20,
      "averagePosition": [
        10.002014335,
        48.474383304999996
      ],
      "data": [
        {
          "type": "Feature",
          "properties": {
            "id": "329044711",
            "osm_type": "node",
            "lat": 48.6081066,
            "lon": 9.8414829,
            "man_made": "works",
            "name": "HELLA Sonnenschutztechnik GmbH"
          },
          "geometry": {
            "type": "Point",
            "coordinates": [
              9.8414829,
              48.6081066
            ]
          }
        },
        {
          "type": "Feature",
          "properties": {
            "id": "563834273",
            "osm_type": "node",
            "lat": 48.5109573,
            "lon": 9.5549286,
            "addr:city": "Römerstein",
            "addr:country": "DE",
            "addr:housenumber": "4",
            "addr:postcode": "72587",
            "addr:street": "Böhringer Straße",
            "addr:suburb": "Donnstetten",
            "capacity": "34",
            "name": "Naturfreundehaus Römerstein",
            "operator": "NaturFreunde Deutschland",
            "ref": "M 042",
            "source": "Datenspende der NaturFreunde Deutschland",
            "tourism": "chalet"
          },
          "geometry": {
            "type": "Point",
            "coordinates": [
              9.5549286,
              48.5109573
            ]
          }
        },
        {
          "type": "Feature",
          "properties": {
            "id": "603767647",
            "osm_type": "node",
            "lat": 48.4008638,
            "lon": 9.8697776,
            "tourism": "chalet"
          },
          "geometry": {
            "type": "Point",
            "coordinates": [
              9.8697776,
              48.4008638
            ]
          }
        },
        {
          "type": "Feature",
          "properties": {
            "id": "1291728822",
            "osm_type": "node",
            "lat": 48.4772887,
            "lon": 9.7449699,
            "name": "Heidehof Blockhütten",
            "tourism": "chalet"
          },
          "geometry": {
            "type": "Point",
            "coordinates": [
              9.7449699,
              48.4772887
            ]
          }
        },
        {
          "type": "Feature",
          "properties": {
            "id": "2575425710",
            "osm_type": "node",
            "lat": 48.4192746,
            "lon": 9.8989189,
            "historic": "memorial",
            "name": "Geleitschutzgrenze Ulm/Württemberg 1686"
          },
          "geometry": {
            "type": "Point",
            "coordinates": [
              9.8989189,
              48.4192746
            ]
          }
        },
        {
          "type": "Feature",
          "properties": {
            "id": "3316901361",
            "osm_type": "node",
            "lat": 48.4392633,
            "lon": 9.8179028,
            "name": "Lamm",
            "tourism": "chalet",
            "website": "https://www.fewo-lamm.de"
          },
          "geometry": {
            "type": "Point",
            "coordinates": [
              9.8179028,
              48.4392633
            ]
          }
        },
        {
          "type": "Feature",
          "properties": {
            "id": "3724753734",
            "osm_type": "node",
            "lat": 48.3961015,
            "lon": 9.9952621,
            "check_date": "2023-10-30",
            "disused:shop": "clothes",
            "name": "Hut-Honold"
          },
          "geometry": {
            "type": "Point",
            "coordinates": [
              9.9952621,
              48.3961015
            ]
          }
        },
        {
          "type": "Feature",
          "properties": {
            "id": "6126920798",
            "osm_type": "node",
            "lat": 48.3985233,
            "lon": 9.9945176,
            "name": "Maschuthi, Büro für Gestaltung",
            "office": "company",
            "website": "https://www.maschuthi.de/"
          },
          "geometry": {
            "type": "Point",
            "coordinates": [
              9.9945176,
              48.3985233
            ]
          }
        },
        {
          "type": "Feature",
          "properties": {
            "id": "6742497709",
            "osm_type": "node",
            "lat": 48.39566,
            "lon": 9.9596275,
            "addr:city": "Ulm",
            "addr:housenumber": "12",
            "addr:postcode": "89077",
            "addr:street": "Pfarrer-Weiß-Weg",
            "email": "info@schutzwerk.com",
            "name": "SCHUTZWERK GmbH",
            "office": "it",
            "phone": "+49 731 977191 0",
            "website": "https://www.schutzwerk.com"
          },
          "geometry": {
            "type": "Point",
            "coordinates": [
              9.9596275,
              48.39566
            ]
          }
        },
        {
          "type": "Feature",
          "properties": {
            "id": "10221684326",
            "osm_type": "node",
            "lat": 48.6164109,
            "lon": 9.8164259,
            "addr:city": "Geislingen an der Steige",
            "addr:housenumber": "102",
            "addr:postcode": "73312",
            "addr:street": "Bebelstraße",
            "name": "Deutscher Kinderschutzbund Ortsverband Geislingen",
            "office": "charity"
          },
          "geometry": {
            "type": "Point",
            "coordinates": [
              9.8164259,
              48.6164109
            ]
          }
        },
        {
          "type": "Feature",
          "properties": {
            "id": "375759597",
            "osm_type": "node",
            "lat": 48.4251294,
            "lon": 10.310038,
            "check_date": "2024-05-21",
            "name": "Legoland Feriendorf",
            "tourism": "chalet",
            "wheelchair": "yes"
          },
          "geometry": {
            "type": "Point",
            "coordinates": [
              10.310038,
              48.4251294
            ]
          }
        },
        {
          "type": "Feature",
          "properties": {
            "id": "2237149602",
            "osm_type": "node",
            "lat": 48.5395699,
            "lon": 10.0625016,
            "addr:city": "Börslingen",
            "addr:housenumber": "9",
            "addr:postcode": "89177",
            "addr:street": "Hauptstraße",
            "email": "boschferien@gmx.net",
            "name": "Ferienhof Bosch",
            "operator": "Familie Bosch",
            "tourism": "chalet"
          },
          "geometry": {
            "type": "Point",
            "coordinates": [
              10.0625016,
              48.5395699
            ]
          }
        },
        {
          "type": "Feature",
          "properties": {
            "id": "3703572639",
            "osm_type": "node",
            "lat": 48.499041,
            "lon": 10.1210323,
            "addr:city": "Langenau",
            "addr:housenumber": "2/1",
            "addr:postcode": "89129",
            "addr:street": "Marktplatz",
            "email": "info@poleschner.de",
            "fax": "+49 7345 9336665",
            "name": "Poleschner-Feuerschutz GmbH",
            "office": "company",
            "operator": "Frank Füllert",
            "phone": "+49 7345 9336655",
            "website": "https://www.poleschner.de"
          },
          "geometry": {
            "type": "Point",
            "coordinates": [
              10.1210323,
              48.499041
            ]
          }
        },
        {
          "type": "Feature",
          "properties": {
            "id": "4253125112",
            "osm_type": "node",
            "lat": 48.6393306,
            "lon": 10.0531114,
            "tourism": "chalet"
          },
          "geometry": {
            "type": "Point",
            "coordinates": [
              10.0531114,
              48.6393306
            ]
          }
        },
        {
          "type": "Feature",
          "properties": {
            "id": "5029912802",
            "osm_type": "node",
            "lat": 48.424217,
            "lon": 10.1164395,
            "addr:city": "Nersingen",
            "addr:housenumber": "11",
            "addr:postcode": "89278",
            "addr:street": "Spatzenweg",
            "beds": "3",
            "contact:email": "nikolaj.schleicher@web.de",
            "contact:phone": "+49 7308 922260",
            "contact:website": "http://www.fremdenzimmer-nersingen.de/",
            "name": "Fremdenzimmer Nersingen",
            "operator": "Nikolaj Schleicher",
            "rooms": "1",
            "tourism": "chalet",
            "wheelchair": "no"
          },
          "geometry": {
            "type": "Point",
            "coordinates": [
              10.1164395,
              48.424217
            ]
          }
        },
        {
          "type": "Feature",
          "properties": {
            "id": "8188175988",
            "osm_type": "node",
            "lat": 48.4278413,
            "lon": 10.1949537,
            "contact:phone": "+491703239815",
            "name": "Ferienhaus Gartenquartier",
            "tourism": "chalet"
          },
          "geometry": {
            "type": "Point",
            "coordinates": [
              10.1949537,
              48.4278413
            ]
          }
        },
        {
          "type": "Feature",
          "properties": {
            "id": "8211277880",
            "osm_type": "node",
            "lat": 48.581107,
            "lon": 10.2314128,
            "addr:city": "Giengen an der Brenz",
            "addr:housenumber": "4/1",
            "addr:postcode": "89537",
            "addr:street": "Stettbergstraße",
            "addr:suburb": "Burgberg",
            "name": "Elfie Keck",
            "phone": "+49 7322 6512",
            "tourism": "chalet",
            "website": "https://www.giengen.de/de/Freizeit+Tourismus/Schlemmen+Schlummern/Ferienwohnungen-in-Giengen?view=publish&item=host&id=106"
          },
          "geometry": {
            "type": "Point",
            "coordinates": [
              10.2314128,
              48.581107
            ]
          }
        },
        {
          "type": "Feature",
          "properties": {
            "id": "8762607240",
            "osm_type": "node",
            "lat": 48.3801731,
            "lon": 10.1501486,
            "addr:housenumber": "35",
            "addr:street": "Landstraße",
            "brand": "BUND",
            "brand:wikidata": "Q897009",
            "brand:wikipedia": "de:Bund für Umwelt und Naturschutz Deutschland",
            "name": "Bund Naturschutz Neu-Ulm",
            "office": "association",
            "official_name": "Bund für Umwelt und Naturschutz Deutschland",
            "operator": "BUND Naturschutz in Bayern",
            "phone": "+49 7307 4960",
            "website": "https://neu-ulm.bund-naturschutz.de/"
          },
          "geometry": {
            "type": "Point",
            "coordinates": [
              10.1501486,
              48.3801731
            ]
          }
        },
        {
          "type": "Feature",
          "properties": {
            "id": "10683436109",
            "osm_type": "node",
            "lat": 48.4210013,
            "lon": 10.1827973,
            "addr:housenumber": "5",
            "addr:street": "Ulmer Straße",
            "name": "Ferienhaus „An der Biber”",
            "tourism": "chalet",
            "website": "https://www.ferienhaus-bibertal.de/"
          },
          "geometry": {
            "type": "Point",
            "coordinates": [
              10.1827973,
              48.4210013
            ]
          }
        },
        {
          "type": "Feature",
          "properties": {
            "id": "12710461593",
            "osm_type": "node",
            "lat": 48.4878055,
            "lon": 10.1240377,
            "addr:housenumber": "6/1",
            "addr:postcode": "89129",
            "addr:street": "Dieselstraße",
            "craft": "lightning_protection",
            "name": "Blitzschutzanlagen Kraus & Kübrich GmbH",
            "website": "https://blitzschutzbau-krausundkuebrich.de/"
          },
          "geometry": {
            "type": "Point",
            "coordinates": [
              10.1240377,
              48.4878055
            ]
          }
        }
      ],
      "children": []
    },
    {
      "bbox": {
        "south": 48.355971499999995,
        "west": 10.484655499999999,
        "north": 48.68652475,
        "east": 11.438358999999998
      },
      "poiCount": 12,
      "leafCount": 12,
      "averagePosition": [
        10.855727983333333,
        48.40555385
      ],
      "data": [
        {
          "type": "Feature",
          "properties": {
            "id": "678851991",
            "osm_type": "node",
            "lat": 48.3682583,
            "lon": 10.8945985,
            "entrance": "yes",
            "name": "Amt für Verbraucherschutz und Marktwesen"
          },
          "geometry": {
            "type": "Point",
            "coordinates": [
              10.8945985,
              48.3682583
            ]
          }
        },
        {
          "type": "Feature",
          "properties": {
            "id": "869913080",
            "osm_type": "node",
            "lat": 48.3714199,
            "lon": 10.8924261,
            "addr:city": "Augsburg",
            "addr:country": "DE",
            "addr:housenumber": "6",
            "addr:postcode": "86152",
            "addr:street": "Heilig-Kreuz-Straße",
            "brand": "BUND",
            "brand:wikidata": "Q897009",
            "brand:wikipedia": "de:Bund für Umwelt und Naturschutz Deutschland",
            "name": "Bund Naturschutz in Bayern",
            "office": "association",
            "official_name": "Bund für Umwelt und Naturschutz Deutschland",
            "opening_hours": "Tu,Th 11:00-13:00",
            "operator": "BUND Naturschutz in Bayern"
          },
          "geometry": {
            "type": "Point",
            "coordinates": [
              10.8924261,
              48.3714199
            ]
          }
        },
        {
          "type": "Feature",
          "properties": {
            "id": "1712318776",
            "osm_type": "node",
            "lat": 48.3653932,
            "lon": 10.8908979,
            "addr:city": "Augsburg",
            "addr:country": "DE",
            "addr:housenumber": "8",
            "addr:postcode": "86150",
            "addr:street": "Schrannenstraße",
            "amenity": "doctors",
            "healthcare": "psychotherapist",
            "healthcare:for": "child",
            "healthcare:speciality": "child_psychiatry",
            "name": "Walter Huth - Kinder- und Jugendlichen-Psychotherapeut",
            "wheelchair": "limited"
          },
          "geometry": {
            "type": "Point",
            "coordinates": [
              10.8908979,
              48.3653932
            ]
          }
        },
        {
          "type": "Feature",
          "properties": {
            "id": "5110962592",
            "osm_type": "node",
            "lat": 48.3650353,
            "lon": 10.8585001,
            "addr:city": "Augsburg",
            "addr:housenumber": "99",
            "addr:postcode": "86157",
            "addr:street": "Stadtberger Straße",
            "name": "SAFE Schutzverein für Finanzen e.V.",
            "office": "yes",
            "opening_hours": "\"Nur nach telefonischer Vereinbarung.\"",
            "phone": "+49 821 65060140",
            "website": "https://www.schutzverein.de/"
          },
          "geometry": {
            "type": "Point",
            "coordinates": [
              10.8585001,
              48.3650353
            ]
          }
        },
        {
          "type": "Feature",
          "properties": {
            "id": "4395729225",
            "osm_type": "node",
            "lat": 48.5763558,
            "lon": 10.496416,
            "addr:city": "Dillingen a.d.Donau",
            "addr:housenumber": "21",
            "addr:postcode": "89407",
            "addr:street": "Am Stadtberg",
            "amenity": "social_facility",
            "name": "Kinderschutzbund",
            "social_facility": "outreach",
            "social_facility:for": "child",
            "website": "http://www.kinderschutzbund-dillingen.de/"
          },
          "geometry": {
            "type": "Point",
            "coordinates": [
              10.496416,
              48.5763558
            ]
          }
        },
        {
          "type": "Feature",
          "properties": {
            "id": "385382881",
            "osm_type": "node",
            "lat": 48.3847406,
            "lon": 10.5553862,
            "landuse": "landfill",
            "name": "Bauschutt- & Gartenabfalldeponie Gabelbach"
          },
          "geometry": {
            "type": "Point",
            "coordinates": [
              10.5553862,
              48.3847406
            ]
          }
        },
        {
          "type": "Feature",
          "properties": {
            "id": "1846037601",
            "osm_type": "node",
            "lat": 48.3883144,
            "lon": 10.8880441,
            "addr:city": "Augsburg",
            "addr:country": "DE",
            "addr:housenumber": "23 1/5",
            "addr:postcode": "86153",
            "addr:street": "Austraße",
            "craft": "yes",
            "name": "PM Brandschutzcenter GmbH",
            "phone": "+49 821 56 97 900"
          },
          "geometry": {
            "type": "Point",
            "coordinates": [
              10.8880441,
              48.3883144
            ]
          }
        },
        {
          "type": "Feature",
          "properties": {
            "id": "3548602759",
            "osm_type": "node",
            "lat": 48.377683,
            "lon": 10.8323314,
            "addr:city": "Neusäß",
            "addr:housenumber": "2",
            "addr:postcode": "86356",
            "addr:street": "Ulmer Straße",
            "amenity": "dojo",
            "name": "Hutton Academy Augsburg",
            "website": "https://hutton-academy.com/augsburg/",
            "wheelchair": "yes"
          },
          "geometry": {
            "type": "Point",
            "coordinates": [
              10.8323314,
              48.377683
            ]
          }
        },
        {
          "type": "Feature",
          "properties": {
            "id": "8267181558",
            "osm_type": "node",
            "lat": 48.4027348,
            "lon": 10.8392587,
            "addr:city": "Neusäß",
            "addr:housenumber": "3",
            "addr:postcode": "86356",
            "addr:street": "Wankelstraße",
            "name": "Weldishofer Brandschutz",
            "office": "engineer",
            "phone": "+49 821 2181920",
            "website": "https://www.wh-brandschutz.de/"
          },
          "geometry": {
            "type": "Point",
            "coordinates": [
              10.8392587,
              48.4027348
            ]
          }
        },
        {
          "type": "Feature",
          "properties": {
            "id": "9189556509",
            "osm_type": "node",
            "lat": 48.3840519,
            "lon": 10.9468997,
            "check_date": "2024-09-08",
            "club": "yes",
            "contact:website": "https://www.attis-tierschutz.de/",
            "name": "Attis Tierschutzverein"
          },
          "geometry": {
            "type": "Point",
            "coordinates": [
              10.9468997,
              48.3840519
            ]
          }
        },
        {
          "type": "Feature",
          "properties": {
            "id": "2357382068",
            "osm_type": "node",
            "lat": 48.4452632,
            "lon": 11.0554424,
            "addr:city": "Aichach",
            "addr:country": "DE",
            "addr:housenumber": "10",
            "addr:postcode": "86551",
            "addr:street": "Burgstraße",
            "addr:suburb": "Griesbeckerzell",
            "craft": "builder",
            "name": "WP Bautenschutz"
          },
          "geometry": {
            "type": "Point",
            "coordinates": [
              11.0554424,
              48.4452632
            ]
          }
        },
        {
          "type": "Feature",
          "properties": {
            "id": "4360004858",
            "osm_type": "node",
            "lat": 48.4373958,
            "lon": 11.1185347,
            "addr:city": "Aichach",
            "addr:country": "DE",
            "addr:housenumber": "6",
            "addr:postcode": "86551",
            "addr:street": "Peter-und-Paul-Straße",
            "name": "Roko Insektenschutz",
            "office": "company",
            "operator": "roko insektenschutz e.k.",
            "website": "http://www.roko-aic.de"
          },
          "geometry": {
            "type": "Point",
            "coordinates": [
              11.1185347,
              48.4373958
            ]
          }
        }
      ],
      "children": []
    },
    {
      "bbox": {
        "south": 48.68652475,
        "west": 9.530952,
        "north": 49.017078,
        "east": 10.484655499999999
      },
      "poiCount": 11,
      "leafCount": 11,
      "averagePosition": [
        9.941951000000001,
        48.84372557272727
      ],
      "data": [
        {
          "type": "Feature",
          "properties": {
            "id": "6070679385",
            "osm_type": "node",
            "lat": 48.7343497,
            "lon": 9.8457079,
            "name": "Sonneck-Hütte",
            "tourism": "chalet"
          },
          "geometry": {
            "type": "Point",
            "coordinates": [
              9.8457079,
              48.7343497
            ]
          }
        },
        {
          "type": "Feature",
          "properties": {
            "id": "12921715886",
            "osm_type": "node",
            "lat": 48.6998201,
            "lon": 9.626879,
            "amenity": "animal_shelter",
            "email": "info@tierheim-goeppingen.de",
            "name": "Tierschutzverein Göppingen u. Umgebung e.V.",
            "phone": "+49 7161 78969"
          },
          "geometry": {
            "type": "Point",
            "coordinates": [
              9.626879,
              48.6998201
            ]
          }
        },
        {
          "type": "Feature",
          "properties": {
            "id": "197362659",
            "osm_type": "node",
            "lat": 48.7757989,
            "lon": 10.4590843,
            "created_by": "JOSM",
            "historic": "ruins",
            "name": "Ungarn-Schutzwall"
          },
          "geometry": {
            "type": "Point",
            "coordinates": [
              10.4590843,
              48.7757989
            ]
          }
        },
        {
          "type": "Feature",
          "properties": {
            "id": "197362664",
            "osm_type": "node",
            "lat": 48.7801752,
            "lon": 10.4605226,
            "historic": "ruins",
            "name": "Schutzwall"
          },
          "geometry": {
            "type": "Point",
            "coordinates": [
              10.4605226,
              48.7801752
            ]
          }
        },
        {
          "type": "Feature",
          "properties": {
            "id": "9920421178",
            "osm_type": "node",
            "lat": 48.836898,
            "lon": 10.0943837,
            "name": "Deutscher Kinderschutzbund e.V.",
            "office": "association",
            "wheelchair": "limited"
          },
          "geometry": {
            "type": "Point",
            "coordinates": [
              10.0943837,
              48.836898
            ]
          }
        },
        {
          "type": "Feature",
          "properties": {
            "id": "12291396374",
            "osm_type": "node",
            "lat": 48.8206106,
            "lon": 10.2155554,
            "name": "AXOL Bautenschutz",
            "office": "company"
          },
          "geometry": {
            "type": "Point",
            "coordinates": [
              10.2155554,
              48.8206106
            ]
          }
        },
        {
          "type": "Feature",
          "properties": {
            "id": "299670506",
            "osm_type": "node",
            "lat": 48.8770418,
            "lon": 9.630994,
            "historic": "memorial",
            "material": "stone",
            "name": "Gedenkstätte Schutzhaftlager Welzheim",
            "wheelchair": "yes"
          },
          "geometry": {
            "type": "Point",
            "coordinates": [
              9.630994,
              48.8770418
            ]
          }
        },
        {
          "type": "Feature",
          "properties": {
            "id": "8341265746",
            "osm_type": "node",
            "lat": 48.9413501,
            "lon": 9.7069517,
            "addr:city": "Gschwend",
            "addr:housenumber": "11",
            "addr:postcode": "74417",
            "addr:street": "Am Hagberg",
            "name": "Ferienhaus Schwäbischer Wald",
            "tourism": "chalet"
          },
          "geometry": {
            "type": "Point",
            "coordinates": [
              9.7069517,
              48.9413501
            ]
          }
        },
        {
          "type": "Feature",
          "properties": {
            "id": "8367086961",
            "osm_type": "node",
            "lat": 48.9439338,
            "lon": 9.6367934,
            "addr:city": "Kaisersbach",
            "addr:housenumber": "30",
            "addr:postcode": "73667",
            "addr:street": "Bruch",
            "name": "Gästehaus Bruch",
            "tourism": "chalet"
          },
          "geometry": {
            "type": "Point",
            "coordinates": [
              9.6367934,
              48.9439338
            ]
          }
        },
        {
          "type": "Feature",
          "properties": {
            "id": "8486627499",
            "osm_type": "node",
            "lat": 48.9575877,
            "lon": 9.9007491,
            "tourism": "wilderness_hut"
          },
          "geometry": {
            "type": "Point",
            "coordinates": [
              9.9007491,
              48.9575877
            ]
          }
        },
        {
          "type": "Feature",
          "properties": {
            "id": "8646750960",
            "osm_type": "node",
            "lat": 48.9134154,
            "lon": 9.7838399,
            "addr:city": "Gschwend",
            "addr:housenumber": "2",
            "addr:street": "Wolfsmühle",
            "name": "Ferienhaus Welzheimer Wald",
            "tourism": "chalet"
          },
          "geometry": {
            "type": "Point",
            "coordinates": [
              9.7838399,
              48.9134154
            ]
          }
        }
      ],
      "children": []
    },
    {
      "bbox": {
        "south": 48.68652475,
        "west": 10.484655499999999,
        "north": 49.017078,
        "east": 11.438358999999998
      },
      "poiCount": 13,
      "leafCount": 13,
      "averagePosition": [
        11.177272438461538,
        48.83428432307692
      ],
      "data": [
        {
          "type": "Feature",
          "properties": {
            "id": "4235719600",
            "osm_type": "node",
            "lat": 48.8624056,
            "lon": 10.9888738,
            "addr:city": "Mörnsheim",
            "addr:housenumber": "11",
            "addr:postcode": "91804",
            "addr:street": "Solnhofer Straße",
            "email": "erhall@onlinehome.de",
            "fixme": "position estimated",
            "name": "Ferienhaus Walburga",
            "operator": "Haller Ernst",
            "phone": "+49 9092 603632",
            "tourism": "chalet"
          },
          "geometry": {
            "type": "Point",
            "coordinates": [
              10.9888738,
              48.8624056
            ]
          }
        },
        {
          "type": "Feature",
          "properties": {
            "id": "8762607242",
            "osm_type": "node",
            "lat": 48.7195327,
            "lon": 10.7741763,
            "addr:city": "Donauwörth",
            "addr:country": "DE",
            "addr:housenumber": "15",
            "addr:postcode": "86609",
            "addr:street": "Heilig-Kreuz-Straße",
            "brand": "BUND",
            "brand:wikidata": "Q897009",
            "brand:wikipedia": "de:Bund für Umwelt und Naturschutz Deutschland",
            "email": "donau-ries@bund-naturschutz.de",
            "name": "Bund Naturschutz Donau-Ries",
            "office": "association",
            "official_name": "Bund für Umwelt und Naturschutz Deutschland",
            "operator": "BUND Naturschutz in Bayern",
            "phone": "+49 906 23638",
            "website": "https://donauries.bund-naturschutz.de/"
          },
          "geometry": {
            "type": "Point",
            "coordinates": [
              10.7741763,
              48.7195327
            ]
          }
        },
        {
          "type": "Feature",
          "properties": {
            "id": "2187314515",
            "osm_type": "node",
            "lat": 48.7647173,
            "lon": 11.4005397,
            "denomination": "roman_catholic",
            "description": "Nachbildung der in der Franziskaner-Basilika befindlichen Statue der Schutter-Muttergottes",
            "historic": "wayside_shrine",
            "name": "Schutter-Muttergottes",
            "religion": "christian"
          },
          "geometry": {
            "type": "Point",
            "coordinates": [
              11.4005397,
              48.7647173
            ]
          }
        },
        {
          "type": "Feature",
          "properties": {
            "id": "2788835092",
            "osm_type": "node",
            "lat": 48.8530921,
            "lon": 11.0760612,
            "information": "guidepost",
            "name": "Beixenhart Naturschutzgebiet"
          },
          "geometry": {
            "type": "Point",
            "coordinates": [
              11.0760612,
              48.8530921
            ]
          }
        },
        {
          "type": "Feature",
          "properties": {
            "id": "3222540991",
            "osm_type": "node",
            "lat": 48.7961851,
            "lon": 11.2289837,
            "addr:housenumber": "1",
            "addr:street": "Schloß",
            "name": "Ferienhaus Burg Nassenfels",
            "tourism": "chalet"
          },
          "geometry": {
            "type": "Point",
            "coordinates": [
              11.2289837,
              48.7961851
            ]
          }
        },
        {
          "type": "Feature",
          "properties": {
            "id": "7281747101",
            "osm_type": "node",
            "lat": 48.7623975,
            "lon": 11.4280445,
            "building": "service",
            "name": "Schutterstraße",
            "operator": "Stadtwerke Ingolstadt Netze GmbH",
            "power": "substation",
            "ref": "Schutterstraße TG Theater West",
            "substation": "distribution",
            "utility": "power"
          },
          "geometry": {
            "type": "Point",
            "coordinates": [
              11.4280445,
              48.7623975
            ]
          }
        },
        {
          "type": "Feature",
          "properties": {
            "id": "8762607243",
            "osm_type": "node",
            "lat": 48.7371898,
            "lon": 11.1771969,
            "addr:city": "Neuburg a. d. Donau",
            "addr:country": "DE",
            "addr:housenumber": "A 20",
            "addr:postcode": "86633",
            "addr:street": "Amalienstraße",
            "brand": "BUND",
            "brand:wikidata": "Q897009",
            "brand:wikipedia": "de:Bund für Umwelt und Naturschutz Deutschland",
            "name": "Bund Naturschutz Neuburg-Schrobenhausen",
            "office": "association",
            "operator": "BUND Naturschutz in Bayern",
            "phone": "+49 8431 1705",
            "website": "https://neuburg-schrobenhausen.bund-naturschutz.de/"
          },
          "geometry": {
            "type": "Point",
            "coordinates": [
              11.1771969,
              48.7371898
            ]
          }
        },
        {
          "type": "Feature",
          "properties": {
            "id": "8762607244",
            "osm_type": "node",
            "lat": 48.7626824,
            "lon": 11.4211482,
            "addr:housenumber": "1 A",
            "addr:street": "Griesbadgasse",
            "brand": "BUND",
            "brand:wikidata": "Q897009",
            "brand:wikipedia": "de:Bund für Umwelt und Naturschutz Deutschland",
            "email": "ingolstadt@bund-naturschutz.de",
            "name": "Bund Naturschutz Ingolstadt",
            "office": "association",
            "operator": "BUND Naturschutz in Bayern",
            "phone": "+49 841 17510",
            "website": "https://ingolstadt.bund-naturschutz.de/"
          },
          "geometry": {
            "type": "Point",
            "coordinates": [
              11.4211482,
              48.7626824
            ]
          }
        },
        {
          "type": "Feature",
          "properties": {
            "id": "5194717021",
            "osm_type": "node",
            "lat": 48.9827863,
            "lon": 10.8827567,
            "addr:city": "Treuchtlingen",
            "addr:country": "DE",
            "addr:housenumber": "27",
            "addr:postcode": "91757",
            "addr:street": "Mühlstraße",
            "name": "FeWo Held",
            "toilets:wheelchair": "yes",
            "tourism": "chalet",
            "wheelchair": "yes"
          },
          "geometry": {
            "type": "Point",
            "coordinates": [
              10.8827567,
              48.9827863
            ]
          }
        },
        {
          "type": "Feature",
          "properties": {
            "id": "7596591192",
            "osm_type": "node",
            "lat": 48.8919178,
            "lon": 11.180227,
            "addr:city": "Eichstätt",
            "addr:housenumber": "2",
            "addr:postcode": "85072",
            "addr:street": "Frauenberg",
            "amenity": "animal_shelter",
            "animal_shelter": "dog;cat",
            "contact:email": "info@tierschutzverein-eichstaett.de",
            "name": "Tierschutzverein Eichstätt",
            "operator": "Tierschutzverein Eichstätt e.V.",
            "phone": "+49 8421 935155",
            "website": "https://www.tierschutzverein-eichstaett.de/"
          },
          "geometry": {
            "type": "Point",
            "coordinates": [
              11.180227,
              48.8919178
            ]
          }
        },
        {
          "type": "Feature",
          "properties": {
            "id": "8533369099",
            "osm_type": "node",
            "lat": 48.8941072,
            "lon": 11.1832657,
            "addr:city": "Eichstätt",
            "addr:housenumber": "7",
            "addr:postcode": "85072",
            "addr:street": "Westenstraße",
            "contact:email": "info@kinderschutzbund-eichstaett.de",
            "contact:facebook": "https://www.facebook.com/sharer.php?u=https://www.kinderschutzbund-eichstaett.de/kontaktinformationen/&t=Kontaktinformationen",
            "contact:phone": "+49 8421 8780",
            "contact:twitter": "https://twitter.com/share?text=Kontaktinformationen&url=https%3A%2F%2Fwww.kinderschutzbund-eichstaett.de%2Fkontaktinformationen%2F",
            "contact:website": "https://www.kinderschutzbund-eichstaett.de/",
            "contact:xing": "https://www.xing.com/social_plugins/share/new?url=https://www.kinderschutzbund-eichstaett.de/kontaktinformationen/",
            "name": "Kinderschutzbund Eichstätt",
            "office": "charity",
            "operator": "Kinderschutzbund Eichstätt e.V."
          },
          "geometry": {
            "type": "Point",
            "coordinates": [
              11.1832657,
              48.8941072
            ]
          }
        },
        {
          "type": "Feature",
          "properties": {
            "id": "8762276511",
            "osm_type": "node",
            "lat": 48.890259,
            "lon": 11.187375,
            "addr:housenumber": "12",
            "addr:street": "Ostenstraße",
            "brand": "BUND",
            "brand:wikidata": "Q897009",
            "brand:wikipedia": "de:Bund für Umwelt und Naturschutz Deutschland",
            "check_date:opening_hours": "2024-11-22",
            "email": "eichstaett@bund-naturschutz.de",
            "name": "Bund Naturschutz Eichstätt",
            "office": "association",
            "opening_hours:signed": "no",
            "operator": "BUND Naturschutz in Bayern",
            "phone": "+49 8421 3444",
            "website": "https://eichstaett.bund-naturschutz.de/"
          },
          "geometry": {
            "type": "Point",
            "coordinates": [
              11.187375,
              48.890259
            ]
          }
        },
        {
          "type": "Feature",
          "properties": {
            "id": "11876791721",
            "osm_type": "node",
            "lat": 48.9284234,
            "lon": 11.375893,
            "addr:city": "Kipfenberg",
            "addr:housenumber": "13",
            "addr:postcode": "85110",
            "addr:street": "Altmühlring",
            "name": "Göbel",
            "tourism": "chalet"
          },
          "geometry": {
            "type": "Point",
            "coordinates": [
              11.375893,
              48.9284234
            ]
          }
        }
      ],
      "children": []
    }
  ]
}