{
  "bbox": {
    "south": 47.694865,
    "west": 11.438358999999998,
    "north": 48.355971499999995,
    "east": 13.345766
  },
  "poiCount": 117,
  "leafCount": 0,
  "averagePosition": [
    12.092081827350427,
    48.0201143974359
  ],
  "data": [],
  "children": [
    {
      "bbox": {
        "south": 47.694865,
        "west": 11.438358999999998,
        "north": 48.02541825,
        "east": 12.392062499999998
      },
      "poiCount": 20,
      "leafCount": 20,
      "averagePosition": [
        11.890657615,
        47.78554321
      ],
      "data": [
        {
          "type": "Feature",
          "properties": {
            "id": "12752505551",
            "osm_type": "node",
            "lat": 47.7172675,
            "lon": 11.5141424,
            "tourism": "wilderness_hut"
          },
          "geometry": {
            "type": "Point",
            "coordinates": [
              11.5141424,
              47.7172675
            ]
          }
        },
        {
          "type": "Feature",
          "properties": {
            "id": "1706769860",
            "osm_type": "node",
            "lat": 47.709078,
            "lon": 11.7314851,
            "email": "erlacher.moarhof@t-online.de",
            "fax": "+49 8022 99564",
            "internet_access": "wired",
            "internet_access:fee": "yes",
            "name": "Moarhof",
            "phone": "+49 8022 82619",
            "smoking": "no",
            "tourism": "chalet",
            "website": "https://www.moarhof-bad-wiessee.de/"
          },
          "geometry": {
            "type": "Point",
            "coordinates": [
              11.7314851,
              47.709078
            ]
          }
        },
        {
          "type": "Feature",
          "properties": {
            "id": "2037794062",
            "osm_type": "node",
            "lat": 47.7031805,
            "lon": 11.9234125,
            "addr:city": "Fischbachau",
            "addr:country": "DE",
            "addr:housenumber": "6",
            "addr:postcode": "83730",
            "addr:street": "Alpenstraße",
            "name": "Wendelstein Lodge",
            "tourism": "chalet"
          },
          "geometry": {
            "type": "Point",
            "coordinates": [
              11.9234125,
              47.7031805
            ]
          }
        },
        {
          "type": "Feature",
          "properties": {
            "id": "2681105033",
            "osm_type": "node",
            "lat": 47.7577427,
            "lon": 11.8313099,
            "email": "info@ferienhaus-wurzer.de",
            "name": "Ferienhaus Wurzer",
            "phone": "+49 8026 58563",
            "tourism": "chalet",
            "website": "http://www.ferienhaus-wurzer.de"
          },
          "geometry": {
            "type": "Point",
            "coordinates": [
              11.8313099,
              47.7577427
            ]
          }
        },
        {
          "type": "Feature",
          "properties": {
            "id": "3275118012",
            "osm_type": "node",
            "lat": 47.7609981,
            "lon": 11.5580721,
            "addr:city": "Bad Tölz",
            "addr:country": "DE",
            "addr:housenumber": "13",
            "addr:postcode": "83646",
            "addr:street": "Marktstraße",
            "clothes": "hats",
            "disused:shop": "clothes",
            "name": "Franz Hillerbrand Hutmacher",
            "opening_hours": "Tu-Fr 10:00-12:30,13:30-18:00; Sa 10:00-14:00"
          },
          "geometry": {
            "type": "Point",
            "coordinates": [
              11.5580721,
              47.7609981
            ]
          }
        },
        {
          "type": "Feature",
          "properties": {
            "id": "3380873993",
            "osm_type": "node",
            "lat": 47.758815,
            "lon": 11.5511664,
            "addr:city": "Bad Tölz",
            "addr:country": "DE",
            "addr:housenumber": "5",
            "addr:postcode": "83646",
            "addr:street": "Ludwigstraße",
            "check_date": "2024-09-05",
            "name": "Villa Flora",
            "smoking": "no",
            "tourism": "chalet"
          },
          "geometry": {
            "type": "Point",
            "coordinates": [
              11.5511664,
              47.758815
            ]
          }
        },
        {
          "type": "Feature",
          "properties": {
            "id": "5239951431",
            "osm_type": "node",
            "lat": 47.710228,
            "lon": 11.860692,
            "name": "Schlierseehaus",
            "tourism": "chalet",
            "website": "http://www.schlierseehaus.de/"
          },
          "geometry": {
            "type": "Point",
            "coordinates": [
              11.860692,
              47.710228
            ]
          }
        },
        {
          "type": "Feature",
          "properties": {
            "id": "5455144969",
            "osm_type": "node",
            "lat": 47.7435732,
            "lon": 11.5458719,
            "addr:city": "Wackersberg",
            "addr:country": "DE",
            "addr:housenumber": "31",
            "addr:place": "Burgern",
            "addr:postcode": "83646",
            "contact:website": "http://www.grauburgerhof.de/",
            "name": "Pferdepension-Reitschule-Turnierstall Grauburgerhof",
            "tourism": "chalet"
          },
          "geometry": {
            "type": "Point",
            "coordinates": [
              11.5458719,
              47.7435732
            ]
          }
        },
        {
          "type": "Feature",
          "properties": {
            "id": "8549573242",
            "osm_type": "node",
            "lat": 47.7890517,
            "lon": 11.8345845,
            "addr:city": "Miesbach",
            "addr:housenumber": "13",
            "addr:postcode": "83714",
            "addr:street": "Stadtplatz",
            "name": "Der Kinderschutzbund",
            "office": "yes",
            "opening_hours": "Mo-Fr 09:00-12:00",
            "phone": "+49 8025 4444",
            "website": "https://kibu-miesbach.de"
          },
          "geometry": {
            "type": "Point",
            "coordinates": [
              11.8345845,
              47.7890517
            ]
          }
        },
        {
          "type": "Feature",
          "properties": {
            "id": "8594626130",
            "osm_type": "node",
            "lat": 47.7676425,
            "lon": 11.9761129,
            "name": "Haflingerzucht Obermaier - Ferienhof Stipfing",
            "tourism": "chalet"
          },
          "geometry": {
            "type": "Point",
            "coordinates": [
              11.9761129,
              47.7676425
            ]
          }
        },
        {
          "type": "Feature",
          "properties": {
            "id": "8762607225",
            "osm_type": "node",
            "lat": 47.7916281,
            "lon": 11.8237876,
            "addr:housenumber": "36",
            "addr:street": "Auf der Grün",
            "brand": "BUND",
            "brand:wikidata": "Q897009",
            "brand:wikipedia": "de:Bund für Umwelt und Naturschutz Deutschland",
            "check_date": "2025-02-14",
            "internet_access": "no",
            "name": "Bund Naturschutz Miesbach",
            "office": "association",
            "official_name": "Bund für Umwelt und Naturschutz Deutschland",
            "operator": "BUND Naturschutz in Bayern",
            "payment:cards": "no",
            "payment:cash": "yes",
            "payment:credit_cards": "no",
            "payment:debit_cards": "no",
            "phone": "+49 8025 1211",
            "website": "https://miesbach.bund-naturschutz.de/",
            "wheelchair": "no"
          },
          "geometry": {
            "type": "Point",
            "coordinates": [
              11.8237876,
              47.7916281
            ]
          }
        },
        {
          "type": "Feature",
          "properties": {
            "id": "9992739461",
            "osm_type": "node",
            "lat": 47.7896825,
            "lon": 11.8316186,
            "addr:postcode": "83714",
            "addr:street": "Manhardtwinkl",
            "government": "administrative",
            "name": "Landratsamt Miesbach - Untere Naturschutzbehörde FB.33",
            "office": "government"
          },
          "geometry": {
            "type": "Point",
            "coordinates": [
              11.8316186,
              47.7896825
            ]
          }
        },
        {
          "type": "Feature",
          "properties": {
            "id": "837935300",
            "osm_type": "node",
            "lat": 47.7770723,
            "lon": 12.1358326,
            "man_made": "adit",
            "name": "Ehem. Luftschutzkeller"
          },
          "geometry": {
            "type": "Point",
            "coordinates": [
              12.1358326,
              47.7770723
            ]
          }
        },
        {
          "type": "Feature",
          "properties": {
            "id": "1507068518",
            "osm_type": "node",
            "lat": 47.7010697,
            "lon": 12.1879436,
            "addr:city": "Erl",
            "addr:country": "AT",
            "addr:housenumber": "9",
            "addr:postcode": "6343",
            "addr:street": "Alm",
            "check_date": "2024-04-09",
            "ele": "1230",
            "fax": "+43 5373 8137",
            "name": "Kranzhorn Schutzhütte",
            "opening_hours": "May 1-Sep 15",
            "phone": "+43 5373 8137",
            "source": "local_knowledge",
            "source:ele": "label on hut",
            "source:name": "inscription",
            "tourism": "alpine_hut",
            "website": "https://www.kranzhorn.at/"
          },
          "geometry": {
            "type": "Point",
            "coordinates": [
              12.1879436,
              47.7010697
            ]
          }
        },
        {
          "type": "Feature",
          "properties": {
            "id": "5361145164",
            "osm_type": "node",
            "lat": 47.8086279,
            "lon": 12.3644318,
            "addr:city": "Bernau am Chiemsee",
            "addr:housenumber": "1",
            "addr:postcode": "83233",
            "addr:street": "Joseph-Decker-Straße",
            "email": "annemarie@ferienhaus-daxenberger.de",
            "name": "Ferienhaus Daxenberger",
            "operator": "Annemarie Daxenberger",
            "phone": "+4980517527",
            "tourism": "chalet",
            "website": "https://www.ferienhaus-daxenberger.de/"
          },
          "geometry": {
            "type": "Point",
            "coordinates": [
              12.3644318,
              47.8086279
            ]
          }
        },
        {
          "type": "Feature",
          "properties": {
            "id": "8762276513",
            "osm_type": "node",
            "lat": 47.8586347,
            "lon": 12.1255942,
            "addr:city": "Rosenheim",
            "addr:country": "DE",
            "addr:housenumber": "7",
            "addr:postcode": "83022",
            "addr:street": "Steinbökstraße",
            "brand": "BUND",
            "brand:wikidata": "Q897009",
            "brand:wikipedia": "de:Bund für Umwelt und Naturschutz Deutschland",
            "email": "rosenheim@bund-naturschutz.de",
            "name": "Bund Naturschutz Rosenheim",
            "office": "association",
            "official_name": "Bund für Umwelt und Naturschutz Deutschland",
            "operator": "BUND Naturschutz in Bayern",
            "phone": "+49 8031 12882",
            "website": "https://rosenheim.bund-naturschutz.de/"
          },
          "geometry": {
            "type": "Point",
            "coordinates": [
              12.1255942,
              47.8586347
            ]
          }
        },
        {
          "type": "Feature",
          "properties": {
            "id": "9146791603",
            "osm_type": "node",
            "lat": 47.8635254,
            "lon": 12.2168642,
            "addr:city": "Stephanskirchen",
            "addr:housenumber": "444",
            "addr:postcode": "83071",
            "addr:street": "Simsseestraße",
            "name": "Seehäus'l",
            "tourism": "chalet",
            "website": "https://www.wendlerhof.eu/seehaus/seehaeusl.htm"
          },
          "geometry": {
            "type": "Point",
            "coordinates": [
              12.2168642,
              47.8635254
            ]
          }
        },
        {
          "type": "Feature",
          "properties": {
            "id": "4225595121",
            "osm_type": "node",
            "lat": 47.8868871,
            "lon": 11.5041666,
            "addr:city": "Dietramszell",
            "addr:country": "DE",
            "addr:housenumber": "3a",
            "addr:postcode": "83623",
            "addr:street": "Hauptstraße",
            "addr:suburb": "Ascholding",
            "contact:email": "info@haus-laurenzi.de",
            "contact:phone": "+49 8171 21171",
            "contact:website": "http://haus-laurenzi.de/",
            "name": "Haus Laurenzi",
            "operator": "Familie Sappl",
            "rooms": "4",
            "tourism": "chalet"
          },
          "geometry": {
            "type": "Point",
            "coordinates": [
              11.5041666,
              47.8868871
            ]
          }
        },
        {
          "type": "Feature",
          "properties": {
            "id": "7820479285",
            "osm_type": "node",
            "lat": 47.9260912,
            "lon": 11.9916308,
            "addr:city": "Tuntenhausen",
            "addr:country": "DE",
            "addr:housenumber": "16",
            "addr:postcode": "83104",
            "addr:street": "Ostermünchener Straße",
            "addr:suburb": "Beyharting",
            "email": "info@bs-ips.de",
            "name": "Brandschutz & Industrieprüfservice BS-IPS oHG",
            "office": "security",
            "opening_hours": "Mo-Fr 08:00-18:00",
            "operator": "Sören Pfitzner",
            "phone": "+4915222924126",
            "website": "https://www.bs-ips.de"
          },
          "geometry": {
            "type": "Point",
            "coordinates": [
              11.9916308,
              47.9260912
            ]
          }
        },
        {
          "type": "Feature",
          "properties": {
            "id": "5307797121",
            "osm_type": "node",
            "lat": 47.8900681,
            "lon": 12.3044326,
            "addr:postcode": "83093",
            "email": "Info@fewo-hausbeate.de",
            "internet_access": "wlan",
            "name": "Ferienhaus Beate",
            "opening_hours": "24/7",
            "operator": "Beate Linner",
            "phone": "+49 8053 3437",
            "tourism": "chalet",
            "website": "https://www.fewo-hausbeate.de/"
          },
          "geometry": {
            "type": "Point",
            "coordinates": [
              12.3044326,
              47.8900681
            ]
          }
        }
      ],
      "children": []
    },
    {
      "bbox": {
        "south": 47.694865,
        "west": 12.392062499999998,
        "north": 48.02541825,
        "east": 13.345766
      },
      "poiCount": 28,
      "leafCount": 28,
      "averagePosition": [
        12.853197846428571,
        47.802512303571426
      ],
      "data": [
        {
          "type": "Feature",
          "properties": {
            "id": "4565697593",
            "osm_type": "node",
            "lat": 47.7296141,
            "lon": 12.4645352,
            "addr:city": "Unterwössen",
            "addr:country": "DE",
            "addr:housenumber": "2",
            "addr:postcode": "83246",
            "addr:street": "Schmidfeldweg",
            "contact:website": "http://www.lohei.de",
            "name": "Lohei",
            "tourism": "chalet"
          },
          "geometry": {
            "type": "Point",
            "coordinates": [
              12.4645352,
              47.7296141
            ]
          }
        },
        {
          "type": "Feature",
          "properties": {
            "id": "6419499321",
            "osm_type": "node",
            "lat": 47.7591846,
            "lon": 12.4628517,
            "check_date": "2025-01-06",
            "check_date:opening_hours": "2025-01-06",
            "name": "Amt für Ernährung, Landwirtschaft und Forsten Rosenheim - Fachstelle Schutzwaldmanagement",
            "office": "government",
            "opening_hours:signed": "no",
            "short_name": "AELF RO - Schutzwaldmanagement",
            "website": "https://www.aelf-ro.bayern.de/forstwirtschaft/wald/index.php"
          },
          "geometry": {
            "type": "Point",
            "coordinates": [
              12.4628517,
              47.7591846
            ]
          }
        },
        {
          "type": "Feature",
          "properties": {
            "id": "10036257400",
            "osm_type": "node",
            "lat": 47.8113461,
            "lon": 12.4929629,
            "addr:city": "Übersee am Chiemsee",
            "addr:housenumber": "3",
            "addr:place": "Almfischer",
            "addr:postcode": "83236",
            "name": "Almdorado",
            "phone": "+49 8642 9959787",
            "tourism": "chalet",
            "website": "https://almdorado.de/"
          },
          "geometry": {
            "type": "Point",
            "coordinates": [
              12.4929629,
              47.8113461
            ]
          }
        },
        {
          "type": "Feature",
          "properties": {
            "id": "1675993729",
            "osm_type": "node",
            "lat": 47.7618263,
            "lon": 12.7431649,
            "addr:housenumber": "6",
            "addr:street": "Prälat-Michael-Höck-Straße",
            "name": "Sternenvilla",
            "phone": "+49 8665 7891",
            "toilets:wheelchair": "yes",
            "tourism": "chalet",
            "website": "https://sternenvilla.de",
            "wheelchair": "yes",
            "wheelchair:description": "Behindertengerechte Ferienwohnungen. Alles ist auf die Anforderungen unserer Mitmenschen mit Behinderung des Bewegungsapparates oder der Sinnesorgane sowie Allergiker ausgerichtet."
          },
          "geometry": {
            "type": "Point",
            "coordinates": [
              12.7431649,
              47.7618263
            ]
          }
        },
        {
          "type": "Feature",
          "properties": {
            "id": "1690537578",
            "osm_type": "node",
            "lat": 47.777628,
            "lon": 12.7266213,
            "addr:city": "Inzell",
            "addr:housenumber": "19",
            "addr:postcode": "83334",
            "addr:street": "Windgrat",
            "air_conditioning": "no",
            "check_date": "2022-06-01",
            "internet_access": "wlan",
            "internet_access:fee": "customers",
            "name": "Gästehaus InzellBlick",
            "phone": "+49 8665 419",
            "tourism": "chalet",
            "website": "https://www.inzellblick.de/",
            "wheelchair": "yes",
            "wheelchair:description": "FeWo Sulzberg ist komplett barrierefrei"
          },
          "geometry": {
            "type": "Point",
            "coordinates": [
              12.7266213,
              47.777628
            ]
          }
        },
        {
          "type": "Feature",
          "properties": {
            "id": "2725531324",
            "osm_type": "node",
            "lat": 47.7334355,
            "lon": 12.8782896,
            "addr:city": "Bad Reichenhall",
            "addr:country": "DE",
            "addr:housenumber": "1 a",
            "addr:postcode": "83435",
            "addr:street": "Ludwig-Thoma-Straße",
            "email": "hans.mauerer@t-online.de",
            "fax": "+49 8651 965883",
            "internet_access": "no",
            "name": "Ferienappartements Mauerer",
            "operator": "Hans Mauerer",
            "phone": "+49 8651 717290",
            "smoking": "no",
            "stars": "4",
            "tourism": "chalet",
            "website": "https://www.hans-mauerer.de",
            "wheelchair": "no"
          },
          "geometry": {
            "type": "Point",
            "coordinates": [
              12.8782896,
              47.7334355
            ]
          }
        },
        {
          "type": "Feature",
          "properties": {
            "id": "3470922989",
            "osm_type": "node",
            "lat": 47.7548341,
            "lon": 12.7262053,
            "addr:housenumber": "2",
            "addr:place": "Kohlgrub",
            "name": "Kohlgrubhof",
            "operator": "Christl und Michael Maier",
            "smoking": "no",
            "tourism": "chalet"
          },
          "geometry": {
            "type": "Point",
            "coordinates": [
              12.7262053,
              47.7548341
            ]
          }
        },
        {
          "type": "Feature",
          "properties": {
            "id": "3598449803",
            "osm_type": "node",
            "lat": 47.7798918,
            "lon": 12.8659112,
            "email": "info@hoelbinger-alm.de",
            "fax": "+49 8656/9833930",
            "internet_access": "wlan",
            "internet_access:fee": "no",
            "name": "Ferienhaus “Hölbinger Alm”",
            "phone": "+49 8656/848",
            "smoking": "no",
            "tourism": "chalet",
            "website": "https://www.hoelbinger-alm.de/",
            "wheelchair": "yes"
          },
          "geometry": {
            "type": "Point",
            "coordinates": [
              12.8659112,
              47.7798918
            ]
          }
        },
        {
          "type": "Feature",
          "properties": {
            "id": "3953762313",
            "osm_type": "node",
            "lat": 47.7655067,
            "lon": 12.7612215,
            "addr:city": "Inzell",
            "addr:housenumber": "3",
            "addr:postcode": "83334",
            "addr:street": "Obereck",
            "name": "Staufenblick",
            "tourism": "chalet"
          },
          "geometry": {
            "type": "Point",
            "coordinates": [
              12.7612215,
              47.7655067
            ]
          }
        },
        {
          "type": "Feature",
          "properties": {
            "id": "3953762314",
            "osm_type": "node",
            "lat": 47.7652524,
            "lon": 12.7615192,
            "addr:city": "Inzell",
            "addr:housenumber": "4a",
            "addr:postcode": "83334",
            "addr:street": "Obereck",
            "name": "Haus Elisabeth",
            "tourism": "chalet"
          },
          "geometry": {
            "type": "Point",
            "coordinates": [
              12.7615192,
              47.7652524
            ]
          }
        },
        {
          "type": "Feature",
          "properties": {
            "id": "4026791103",
            "osm_type": "node",
            "lat": 47.869812,
            "lon": 12.6529219,
            "addr:city": "Traunstein",
            "addr:country": "DE",
            "addr:housenumber": "22",
            "addr:postcode": "83278",
            "addr:street": "Scheibenstraße",
            "brand": "BUND",
            "brand:wikidata": "Q897009",
            "brand:wikipedia": "de:Bund für Umwelt und Naturschutz Deutschland",
            "email": "traunstein@bund-naturschutz.de",
            "name": "BUND Naturschutz Kreisgruppe Traunstein",
            "office": "association",
            "official_name": "Bund für Umwelt und Naturschutz Deutschland",
            "operator": "BUND Naturschutz in Bayern",
            "website": "https://traunstein.bund-naturschutz.de/"
          },
          "geometry": {
            "type": "Point",
            "coordinates": [
              12.6529219,
              47.869812
            ]
          }
        },
        {
          "type": "Feature",
          "properties": {
            "id": "4476702018",
            "osm_type": "node",
            "lat": 47.7925983,
            "lon": 12.9031205,
            "contact:website": "http://www.mayerbauer.de/",
            "name": "Fagerer",
            "phone": "+49 8656 9833918",
            "tourism": "chalet"
          },
          "geometry": {
            "type": "Point",
            "coordinates": [
              12.9031205,
              47.7925983
            ]
          }
        },
        {
          "type": "Feature",
          "properties": {
            "id": "4476702019",
            "osm_type": "node",
            "lat": 47.7917651,
            "lon": 12.9038071,
            "contact:website": "http://www.fuchsbauernhof.de",
            "email": "info@fuchsbauernhof.de",
            "fax": "+49 8656 985822",
            "internet_access": "yes",
            "name": "Fuchsbauernhof",
            "operator": "Josef Willberger",
            "phone": "+49 8656 819",
            "tourism": "chalet"
          },
          "geometry": {
            "type": "Point",
            "coordinates": [
              12.9038071,
              47.7917651
            ]
          }
        },
        {
          "type": "Feature",
          "properties": {
            "id": "4476702020",
            "osm_type": "node",
            "lat": 47.7921508,
            "lon": 12.9017625,
            "addr:city": "Piding",
            "addr:housenumber": "60",
            "addr:postcode": "83451",
            "addr:street": "Högler Straße",
            "contact:website": "http://www.kochhof.de",
            "email": "info@kochhof.de",
            "fax": "+49 8656 983699",
            "name": "Kochhof",
            "operator": "Andreas Kuprian",
            "phone": "+49 8656 546",
            "tourism": "chalet"
          },
          "geometry": {
            "type": "Point",
            "coordinates": [
              12.9017625,
              47.7921508
            ]
          }
        },
        {
          "type": "Feature",
          "properties": {
            "id": "5493503927",
            "osm_type": "node",
            "lat": 47.7315188,
            "lon": 12.6610113,
            "addr:city": "Ruhpolding",
            "addr:housenumber": "10",
            "addr:postcode": "83324",
            "addr:street": "Waich",
            "name": "Chalets & Apartments Beim Waicher",
            "phone": "+49-8663-4169580",
            "toilets:wheelchair": "yes",
            "tourism": "chalet",
            "website": "https://www.beimwaicher.de/",
            "wheelchair": "limited",
            "wheelchair:description": "Unsere Chalets (Ferienhäuser) sind ebenerdig mit allen Räumen im Erdgeschoss. Die Türen Breit, der Bewegungsraum in den Badezimmern ist ausreichend. Die Duschen sind nicht barrierefrei, jedoch verfügen Sie über Sitzgelegenheiten."
          },
          "geometry": {
            "type": "Point",
            "coordinates": [
              12.6610113,
              47.7315188
            ]
          }
        },
        {
          "type": "Feature",
          "properties": {
            "id": "9790303274",
            "osm_type": "node",
            "lat": 47.777363,
            "lon": 12.7265326,
            "addr:housenumber": "21",
            "addr:place": "Windgrat",
            "check_date": "2022-06-02",
            "email": "info@louisenhof-inzell.de",
            "name": "Louisenhof",
            "phone": "+49 1573 6205466",
            "tourism": "chalet",
            "website": "http://www.louisenhof-inzell.de/"
          },
          "geometry": {
            "type": "Point",
            "coordinates": [
              12.7265326,
              47.777363
            ]
          }
        },
        {
          "type": "Feature",
          "properties": {
            "id": "12023205783",
            "osm_type": "node",
            "lat": 47.8322973,
            "lon": 12.9908998,
            "addr:city": "Salzburg",
            "addr:country": "AT",
            "addr:housenumber": "65",
            "addr:postcode": "5020",
            "addr:street": "Saalachstraße",
            "check_date": "2024-06-30",
            "contact:facebook": "holidaysun.at",
            "contact:instagram": "holidaysun.at",
            "internet_access": "wlan",
            "name": "City Villa Riva",
            "phone": "+43 664 4250025",
            "tourism": "chalet",
            "website": "https://www.holidaysun.at/de/chalets/city-villa-riva/"
          },
          "geometry": {
            "type": "Point",
            "coordinates": [
              12.9908998,
              47.8322973
            ]
          }
        },
        {
          "type": "Feature",
          "properties": {
            "id": "2291567338",
            "osm_type": "node",
            "lat": 47.7890726,
            "lon": 13.0496408,
            "addr:city": "Salzburg",
            "addr:country": "AT",
            "addr:housenumber": "8",
            "addr:postcode": "5020",
            "addr:street": "Peter-Singer-Gasse",
            "check_date": "2024-06-30",
            "contact:facebook": "holidaysun.at",
            "contact:instagram": "holidaysun.at",
            "internet_access": "wlan",
            "name": "City Villa Wellhouse",
            "phone": "+43 664 4250025",
            "tourism": "chalet",
            "website": "https://www.holidaysun.at/de/chalets/city-villa-wellhouse/"
          },
          "geometry": {
            "type": "Point",
            "coordinates": [
              13.0496408,
              47.7890726
            ]
          }
        },
        {
          "type": "Feature",
          "properties": {
            "id": "5343967863",
            "osm_type": "node",
            "lat": 47.8095902,
            "lon": 13.0485659,
            "addr:housenumber": "18",
            "addr:street": "Paracelsusstraße",
            "craft": "window_construction",
            "email": "office@ustalic.at",
            "name": "Fenster und Sonnenschutz",
            "phone": "+43 662 876 480",
            "website": "http://www.ustalic.at"
          },
          "geometry": {
            "type": "Point",
            "coordinates": [
              13.0485659,
              47.8095902
            ]
          }
        },
        {
          "type": "Feature",
          "properties": {
            "id": "5518356350",
            "osm_type": "node",
            "lat": 47.7604452,
            "lon": 13.2219198,
            "addr:city": "Faistenau",
            "addr:country": "AT",
            "addr:housenumber": "9",
            "addr:postcode": "5324",
            "addr:street": "Weißenbergstraße",
            "at_bev:addr_date": "2017-10-01",
            "name": "Ferienhaus Wimmer",
            "tourism": "chalet",
            "website": "https://www.letsbookhotel.com/de/austria/faistenau/hotel/ferienhaus-wimmer.aspx"
          },
          "geometry": {
            "type": "Point",
            "coordinates": [
              13.2219198,
              47.7604452
            ]
          }
        },
        {
          "type": "Feature",
          "properties": {
            "id": "5546984460",
            "osm_type": "node",
            "lat": 47.7084685,
            "lon": 13.1335504,
            "addr:city": "Adnet",
            "addr:country": "AT",
            "addr:housenumber": "67d",
            "addr:place": "Adnet",
            "addr:postcode": "5421",
            "at_bev:addr_date": "2017-10-01",
            "man_made": "works",
            "name": "Schlotterer Sonnenschutz Systeme GmbH"
          },
          "geometry": {
            "type": "Point",
            "coordinates": [
              13.1335504,
              47.7084685
            ]
          }
        },
        {
          "type": "Feature",
          "properties": {
            "id": "6440496210",
            "osm_type": "node",
            "lat": 47.8184812,
            "lon": 13.0446496,
            "craft": "window_construction",
            "name": "Christian Landrichter - Bodenbeläge und Sonnenschutz"
          },
          "geometry": {
            "type": "Point",
            "coordinates": [
              13.0446496,
              47.8184812
            ]
          }
        },
        {
          "type": "Feature",
          "properties": {
            "id": "7098439197",
            "osm_type": "node",
            "lat": 47.7866282,
            "lon": 13.0524809,
            "addr:city": "Salzburg",
            "addr:country": "AT",
            "addr:housenumber": "9-13",
            "addr:postcode": "5020",
            "addr:street": "Hofhaymer-Allee",
            "check_date": "2023-08-22",
            "contact:fax": "+43 662 84 12 52-5",
            "contact:phone": "+43 662 84 12 52",
            "name": "Mieterschutz Verband Salzburg",
            "office": "association",
            "opening_hours": "Mo-Fr 8:15-12:15; Mo, Tu, Th 14:00-16:00"
          },
          "geometry": {
            "type": "Point",
            "coordinates": [
              13.0524809,
              47.7866282
            ]
          }
        },
        {
          "type": "Feature",
          "properties": {
            "id": "11730719171",
            "osm_type": "node",
            "lat": 47.8048953,
            "lon": 13.0450314,
            "amenity": "social_facility",
            "email": "office.salzburg@gewaltschutzzentrum.at",
            "level": "1",
            "name": "Gewaltschutzzentrum Salzburg",
            "opening_hours": "Mo,Th 08:30-19:30; Tu-We 08:30-16:00; Fr 08:30-13:30",
            "phone": "+43 662 870 100",
            "social_facility": "outreach",
            "social_facility:for": "abused",
            "website": "https://www.gewaltschutzzentrum.at/"
          },
          "geometry": {
            "type": "Point",
            "coordinates": [
              13.0450314,
              47.8048953
            ]
          }
        },
        {
          "type": "Feature",
          "properties": {
            "id": "440687517",
            "osm_type": "node",
            "lat": 47.9747814,
            "lon": 12.5120346,
            "check_date": "2025-04-14",
            "name": "Huberhof, Niesgau",
            "tourism": "chalet"
          },
          "geometry": {
            "type": "Point",
            "coordinates": [
              12.5120346,
              47.9747814
            ]
          }
        },
        {
          "type": "Feature",
          "properties": {
            "id": "6541055086",
            "osm_type": "node",
            "lat": 47.9205187,
            "lon": 12.8361399,
            "tourism": "chalet"
          },
          "geometry": {
            "type": "Point",
            "coordinates": [
              12.8361399,
              47.9205187
            ]
          }
        },
        {
          "type": "Feature",
          "properties": {
            "id": "3359640949",
            "osm_type": "node",
            "lat": 47.937746,
            "lon": 13.082212,
            "craft": "metal_construction",
            "man_made": "craft",
            "name": "Trumer Schutzbauten GmbH"
          },
          "geometry": {
            "type": "Point",
            "coordinates": [
              13.082212,
              47.937746
            ]
          }
        },
        {
          "type": "Feature",
          "properties": {
            "id": "4859066712",
            "osm_type": "node",
            "lat": 47.9336923,
            "lon": 13.2399759,
            "addr:city": "Neumarkt am Wallersee",
            "addr:country": "AT",
            "addr:housenumber": "48",
            "addr:place": "Wertheim",
            "addr:postcode": "5202",
            "at_bev:addr_date": "2018-10-01",
            "craft": "metal_construction",
            "email": "office@zechner-sonnenschutz.at",
            "name": "F&M Zechner Sonnenschutz",
            "phone": "+4362165734",
            "website": "https://www.zechner-sonnenschutz.at/"
          },
          "geometry": {
            "type": "Point",
            "coordinates": [
              13.2399759,
              47.9336923
            ]
          }
        }
      ],
      "children": []
    },
    {
      "bbox": {
        "south": 48.02541825,
        "west": 11.438358999999998,
        "north": 48.355971499999995,
        "east": 12.392062499999998
      },
      "poiCount": 58,
      "leafCount": 0,
      "averagePosition": [
        11.634774886206896,
        48.16367907931035
      ],
      "data": [],
      "children": [
        {
          "bbox": {
            "south": 48.02541825,
            "west": 11.438358999999998,
            "north": 48.190694875,
            "east": 11.915210749999998
          },
          "poiCount": 36,
          "leafCount": 36,
          "averagePosition": [
            11.589494313888888,
            48.11557875277778
          ],
          "data": [
            {
              "type": "Feature",
              "properties": {
                "id": "2606791462",
                "osm_type": "node",
                "lat": 48.0891942,
                "lon": 11.4732975,
                "addr:city": "Neuried",
                "addr:country": "DE",
                "addr:housenumber": "7",
                "addr:postcode": "82061",
                "addr:street": "Kernbauernstraße",
                "craft": "sun_protection",
                "name": "Sonnenschutz Weidenauer"
              },
              "geometry": {
                "type": "Point",
                "coordinates": [
                  11.4732975,
                  48.0891942
                ]
              }
            },
            {
              "type": "Feature",
              "properties": {
                "id": "3722024710",
                "osm_type": "node",
                "lat": 48.1232459,
                "lon": 11.450918,
                "addr:city": "Gräfelfing",
                "addr:country": "DE",
                "addr:housenumber": "4",
                "addr:postcode": "82166",
                "addr:street": "Lochhamer Schlag",
                "check_date": "2025-02-05",
                "contact:email": "info@fiw-muenchen.de",
                "contact:fax": "+49 89 588 00 40",
                "contact:phone": "+49 89 858 00 20",
                "contact:website": "https://fiw-muenchen.de/de",
                "name": "Forschungsinstitut für Wärmeschutz München",
                "office": "research"
              },
              "geometry": {
                "type": "Point",
                "coordinates": [
                  11.450918,
                  48.1232459
                ]
              }
            },
            {
              "type": "Feature",
              "properties": {
                "id": "5194850722",
                "osm_type": "node",
                "lat": 48.1682923,
                "lon": 11.4660549,
                "addr:housenumber": "5",
                "addr:postcode": "81247",
                "addr:street": "Georg-Hann-Straße",
                "amenity": "driving_school",
                "email": "info@fahrschule-hutsteiner.de",
                "name": "Fahrschule Hutsteiner",
                "opening_hours": "Mo-Fr 17:00-19:00",
                "phone": "+49898112504",
                "website": "https://fahrschule-hutsteiner.de/"
              },
              "geometry": {
                "type": "Point",
                "coordinates": [
                  11.4660549,
                  48.1682923
                ]
              }
            },
            {
              "type": "Feature",
              "properties": {
                "id": "7723684074",
                "osm_type": "node",
                "lat": 48.0981116,
                "lon": 11.5264985,
                "emergency": "disaster_response",
                "name": "Katastrophenschutzzentrum Süd",
                "operator": "Landeshauptstadt München"
              },
              "geometry": {
                "type": "Point",
                "coordinates": [
                  11.5264985,
                  48.0981116
                ]
              }
            },
            {
              "type": "Feature",
              "properties": {
                "id": "7997035915",
                "osm_type": "node",
                "lat": 48.0287975,
                "lon": 11.4519691,
                "information": "sign",
                "name": "Wasser-Schutzgebiet"
              },
              "geometry": {
                "type": "Point",
                "coordinates": [
                  11.4519691,
                  48.0287975
                ]
              }
            },
            {
              "type": "Feature",
              "properties": {
                "id": "8623667474",
                "osm_type": "node",
                "lat": 48.0759768,
                "lon": 11.5244832,
                "amenity": "doctors",
                "healthcare": "doctor",
                "name": "Praxis für Physiotherapie Christiane Fleschhut"
              },
              "geometry": {
                "type": "Point",
                "coordinates": [
                  11.5244832,
                  48.0759768
                ]
              }
            },
            {
              "type": "Feature",
              "properties": {
                "id": "9500022468",
                "osm_type": "node",
                "lat": 48.061227,
                "lon": 11.4909879,
                "information": "sign",
                "name": "Wasserschutzgebiet"
              },
              "geometry": {
                "type": "Point",
                "coordinates": [
                  11.4909879,
                  48.061227
                ]
              }
            },
            {
              "type": "Feature",
              "properties": {
                "id": "9769553034",
                "osm_type": "node",
                "lat": 48.1430293,
                "lon": 11.5012566,
                "addr:city": "München",
                "addr:country": "DE",
                "addr:housenumber": "307",
                "addr:postcode": "80687",
                "addr:street": "Landsberger Straße",
                "email": "info@bfga.de",
                "healthcare": "counselling",
                "healthcare:speciality": "chiropractic;osteopathy;general",
                "level": "3",
                "name": "Beratungsgesellschaft für Arbeits- und Gesundheitsschutz",
                "operator": "BfGA - Beratungsgesellschaft für Arbeits- und Gesundheitsschutz mbH",
                "phone": "+49 89 88 97 842",
                "ref:vatin": "DE241194619",
                "short_name": "BfGA",
                "website": "https://www.bfga.de/",
                "wheelchair": "yes",
                "wikidata": "Q131384524"
              },
              "geometry": {
                "type": "Point",
                "coordinates": [
                  11.5012566,
                  48.1430293
                ]
              }
            },
            {
              "type": "Feature",
              "properties": {
                "id": "10212980523",
                "osm_type": "node",
                "lat": 48.0740836,
                "lon": 11.5127426,
                "addr:city": "München",
                "addr:housenumber": "6",
                "addr:postcode": "81479",
                "addr:street": "Muttenthalerstraße",
                "check_date": "2025-08-29",
                "name": "Brandschutz & Industrieprüfservice BS-IPS oHG",
                "office": "security",
                "opening_hours": "Mo-Fr 08:00-18:00",
                "phone": "01711600335",
                "website": "https://bs-ips.de/"
              },
              "geometry": {
                "type": "Point",
                "coordinates": [
                  11.5127426,
                  48.0740836
                ]
              }
            },
            {
              "type": "Feature",
              "properties": {
                "id": "293903566",
                "osm_type": "node",
                "lat": 48.1708444,
                "lon": 11.5561051,
                "description": "It is a memorial for the civil victims of the aerial warfare.",
                "historic": "memorial",
                "material": "bronze",
                "memorial": "war_memorial",
                "name": "Schuttblume",
                "start_date": "1972",
                "wikidata": "Q15846773",
                "wikimedia_commons": "Category:Blossom-Theme of Rudolf Belling (Schuttblume)",
                "wikipedia": "de:Schuttblume (München)"
              },
              "geometry": {
                "type": "Point",
                "coordinates": [
                  11.5561051,
                  48.1708444
                ]
              }
            },
            {
              "type": "Feature",
              "properties": {
                "id": "297050349",
                "osm_type": "node",
                "lat": 48.1395865,
                "lon": 11.6681219,
                "addr:city": "München",
                "addr:country": "DE",
                "addr:housenumber": "270",
                "addr:postcode": "81829",
                "addr:street": "Riemer Straße",
                "name": "Tierschutzverein München",
                "office": "ngo",
                "phone": "+49 (0)89-921 000-0"
              },
              "geometry": {
                "type": "Point",
                "coordinates": [
                  11.6681219,
                  48.1395865
                ]
              }
            },
            {
              "type": "Feature",
              "properties": {
                "id": "368354983",
                "osm_type": "node",
                "lat": 48.1409989,
                "lon": 11.6658816,
                "addr:city": "München",
                "addr:country": "DE",
                "addr:housenumber": "20",
                "addr:postcode": "81929",
                "addr:street": "Landshamer Straße",
                "club": "yes",
                "name": "Verein für Polizei- und Schutzhunde München 1912 e.V."
              },
              "geometry": {
                "type": "Point",
                "coordinates": [
                  11.6658816,
                  48.1409989
                ]
              }
            },
            {
              "type": "Feature",
              "properties": {
                "id": "388183268",
                "osm_type": "node",
                "lat": 48.1615512,
                "lon": 11.5882386,
                "addr:city": "München",
                "addr:country": "DE",
                "addr:housenumber": "11",
                "addr:postcode": "80802",
                "addr:street": "Feilitzschstraße",
                "amenity": "pub",
                "brewery": "Herzoglich Bayerisches Brauhaus Tegernsee",
                "brewery:Pils": "Warsteiner",
                "brewery:Weizen": "Franziskaner",
                "check_date": "2024-04-07",
                "contact:email": "info@zumneuenhut.de",
                "contact:mobile": "+49 179 5664975",
                "contact:website": "https://zumneuenhut.de/",
                "name": "Zum neuen Hut",
                "note": "heißt jetzt wirklich neuer Hut (eigenlich schon seit 2010), jetzt auch aussen, obwohl der Rechteinhaber vom \"Alten Hut\" inzwischen gestorben und der Name jetzt wieder frei wäre",
                "opening_hours": "Tu-Th 18:00-01:00; Fr,Sa 20:00-03:00",
                "operator": "Balwinder Singh"
              },
              "geometry": {
                "type": "Point",
                "coordinates": [
                  11.5882386,
                  48.1615512
                ]
              }
            },
            {
              "type": "Feature",
              "properties": {
                "id": "976177847",
                "osm_type": "node",
                "lat": 48.0348392,
                "lon": 11.6147695,
                "addr:city": "Taufkirchen",
                "addr:country": "DE",
                "addr:housenumber": "8",
                "addr:postcode": "82024",
                "addr:street": "Bergstraße",
                "name": "Biebl & Söhne Bautenschutz GmbH"
              },
              "geometry": {
                "type": "Point",
                "coordinates": [
                  11.6147695,
                  48.0348392
                ]
              }
            },
            {
              "type": "Feature",
              "properties": {
                "id": "2429526935",
                "osm_type": "node",
                "lat": 48.1609582,
                "lon": 11.5416562,
                "addr:city": "München",
                "addr:country": "DE",
                "addr:housenumber": "13",
                "addr:postcode": "80637",
                "addr:street": "Trivastraße",
                "brand": "BUND",
                "brand:wikidata": "Q897009",
                "brand:wikipedia": "de:Bund für Umwelt und Naturschutz Deutschland",
                "check_date:opening_hours": "2024-11-21",
                "contact:email": "info@jbn.de",
                "contact:fax": "+49 8915989633",
                "contact:phone": "+49 8915 98 96 30",
                "contact:website": "https://www.bundjugend-bayern.de/",
                "name": "JBN Jugendorganisation Bund Naturschutz Landesstelle",
                "office": "association",
                "official_name": "Jugendorganisation Bund Naturschutz in Bayern e.v.",
                "opening_hours:signed": "no",
                "operator": "BUND Naturschutz in Bayern",
                "topic": "environment"
              },
              "geometry": {
                "type": "Point",
                "coordinates": [
                  11.5416562,
                  48.1609582
                ]
              }
            },
            {
              "type": "Feature",
              "properties": {
                "id": "3929290113",
                "osm_type": "node",
                "lat": 48.134379,
                "lon": 11.5613233,
                "addr:city": "München",
                "addr:country": "DE",
                "addr:housenumber": "10a",
                "addr:postcode": "80336",
                "addr:street": "Pettenkoferstraße",
                "brand": "BUND",
                "brand:wikidata": "Q897009",
                "brand:wikipedia": "de:Bund für Umwelt und Naturschutz Deutschland",
                "check_date:opening_hours": "2022-08-24",
                "contact:email": "info@bn-muenchen.de",
                "contact:fax": "+49 89 515 676-77",
                "contact:phone": "+49 89 515 676-0",
                "contact:website": "https://bn-muenchen.de/",
                "level": "2",
                "name": "Bund Naturschutz in Bayern e.V. (BN) Kreisgruppe München",
                "office": "association",
                "official_name": "Bund für Umwelt und Naturschutz Deutschland",
                "opening_hours:signed": "no",
                "operator": "BUND Naturschutz in Bayern",
                "topic": "environment"
              },
              "geometry": {
                "type": "Point",
                "coordinates": [
                  11.5613233,
                  48.134379
                ]
              }
            },
            {
              "type": "Feature",
              "properties": {
                "id": "3929291586",
                "osm_type": "node",
                "lat": 48.130674,
                "lon": 11.5748853,
                "addr:city": "München",
                "addr:country": "DE",
                "addr:housenumber": "37",
                "addr:postcode": "80469",
                "addr:street": "Klenzestraße",
                "check_date": "2025-05-09",
                "club": "yes",
                "contact:email": "info@lbv-muenchen.de",
                "contact:phone": "+49 892002706",
                "contact:website": "https://www.lbv-muenchen.de/",
                "name": "Landesbund für Vogelschutz e.V. (LBV) Kreisgruppe München",
                "topic": "environment"
              },
              "geometry": {
                "type": "Point",
                "coordinates": [
                  11.5748853,
                  48.130674
                ]
              }
            },
            {
              "type": "Feature",
              "properties": {
                "id": "4156067568",
                "osm_type": "node",
                "lat": 48.1782237,
                "lon": 11.7720714,
                "name": "Tank-, Boden- und Umweltschutz & Thermo-Tank-Dienst GmbH",
                "office": "company",
                "website": "https://www.tank-boden-umweltschutz.de/"
              },
              "geometry": {
                "type": "Point",
                "coordinates": [
                  11.7720714,
                  48.1782237
                ]
              }
            },
            {
              "type": "Feature",
              "properties": {
                "id": "5687753743",
                "osm_type": "node",
                "lat": 48.1360502,
                "lon": 11.5748938,
                "addr:city": "München",
                "addr:housenumber": "3",
                "addr:postcode": "80331",
                "addr:street": "Rindermarkt",
                "alt_website": "http://www.cipra.de",
                "check_date:opening_hours": "2023-07-01",
                "email": "deutschland@cipra.org",
                "name": "Alpenschutzkommission CIPRA Deutschland e.V.",
                "office": "ngo",
                "opening_hours": "Mo-Fr 09:00-17:00",
                "website": "https://www.cipra.org",
                "wheelchair": "yes"
              },
              "geometry": {
                "type": "Point",
                "coordinates": [
                  11.5748938,
                  48.1360502
                ]
              }
            },
            {
              "type": "Feature",
              "properties": {
                "id": "5969060631",
                "osm_type": "node",
                "lat": 48.0679257,
                "lon": 11.6106999,
                "addr:city": "Unterhaching",
                "addr:housenumber": "10",
                "addr:postcode": "82008",
                "addr:street": "Münchner Straße",
                "check_date:opening_hours": "2023-08-04",
                "name": "Schäuffelhut Berger GmbH",
                "office": "it",
                "opening_hours": "Mo-Fr 09:00-17:00",
                "website": "https://www.schaeuffelhut-berger.de"
              },
              "geometry": {
                "type": "Point",
                "coordinates": [
                  11.6106999,
                  48.0679257
                ]
              }
            },
            {
              "type": "Feature",
              "properties": {
                "id": "6433211150",
                "osm_type": "node",
                "lat": 48.124998,
                "lon": 11.5668393,
                "addr:city": "München",
                "addr:country": "DE",
                "addr:housenumber": "9",
                "addr:postcode": "80469",
                "addr:street": "Baldestraße",
                "branch": "Informationsbüro München",
                "check_date:opening_hours": "2022-10-08",
                "email": "info@stiftung-patientenschutz.de",
                "fax": "+49 89 20208111",
                "level": "0",
                "name": "Deutsche Stiftung Patientenschutz",
                "office": "association",
                "opening_hours:signed": "no",
                "phone": "+49 89 2020810",
                "website": "https://www.stiftung-patientenschutz.de/",
                "wheelchair": "no",
                "wikidata": "Q2675488",
                "wikipedia": "de:Deutsche Stiftung Patientenschutz"
              },
              "geometry": {
                "type": "Point",
                "coordinates": [
                  11.5668393,
                  48.124998
                ]
              }
            },
            {
              "type": "Feature",
              "properties": {
                "id": "7640490076",
                "osm_type": "node",
                "lat": 48.1525217,
                "lon": 11.5364541,
                "addr:city": "München",
                "addr:housenumber": "45",
                "addr:postcode": "80637",
                "addr:street": "Landshuter Allee",
                "amenity": "doctors",
                "healthcare": "doctor",
                "name": "CoMedicum Landshuter Allee",
                "operator": "MVZ - Medizinisches Versorgungszentrum"
              },
              "geometry": {
                "type": "Point",
                "coordinates": [
                  11.5364541,
                  48.1525217
                ]
              }
            },
            {
              "type": "Feature",
              "properties": {
                "id": "7791879796",
                "osm_type": "node",
                "lat": 48.1710895,
                "lon": 11.7190089,
                "addr:city": "Aschheim",
                "addr:country": "DE",
                "addr:housenumber": "4",
                "addr:postcode": "85609",
                "addr:street": "Erdinger Straße",
                "description": "Hersteller von Anlagen zur Wasseraufbereitung. Enthärtungsanlagen, Rostschutz, Legionellenschutz.",
                "name": "KD Wassertechnik GmbH Enthärtungsanlagen Kalkschutz Legionellen Schutz",
                "office": "company",
                "start_date": "1977-10-01",
                "website": "https://kd-wassertechnik.de/"
              },
              "geometry": {
                "type": "Point",
                "coordinates": [
                  11.7190089,
                  48.1710895
                ]
              }
            },
            {
              "type": "Feature",
              "properties": {
                "id": "7838822453",
                "osm_type": "node",
                "lat": 48.0810445,
                "lon": 11.870406,
                "amenity": "vending_machine",
                "name": "Genuss Huttn",
                "operator": "Kanzler's Hofladen",
                "vending": "eggs;drinks;food"
              },
              "geometry": {
                "type": "Point",
                "coordinates": [
                  11.870406,
                  48.0810445
                ]
              }
            },
            {
              "type": "Feature",
              "properties": {
                "id": "8589944698",
                "osm_type": "node",
                "lat": 48.156772,
                "lon": 11.5559776,
                "addr:city": "München",
                "addr:country": "DE",
                "addr:housenumber": "120",
                "addr:postcode": "80797",
                "addr:street": "Heßstraße",
                "contact:website": "https://zentral2.bereitschaften.brk-muenchen.de/",
                "description": "Katastrophenschutz-Einheiten des BRK (Bayerisches Rotes Kreuz) und der JUH (Johanniter Unfall Hilfe) sind hier untergebracht.",
                "emergency": "disaster_response",
                "fixme": "emergency=disaster_response was added to this object before the proposal got accepted. Does it fit the definition in the wiki? https://wiki.openstreetmap.org/wiki/Tag:emergency=disaster_response",
                "name": "Zentrum für Katastrophenschutz",
                "short_name": "ZfK"
              },
              "geometry": {
                "type": "Point",
                "coordinates": [
                  11.5559776,
                  48.156772
                ]
              }
            },
            {
              "type": "Feature",
              "properties": {
                "id": "8696362972",
                "osm_type": "node",
                "lat": 48.1392276,
                "lon": 11.5527196,
                "addr:city": "München",
                "addr:country": "DE",
                "addr:housenumber": "28a",
                "addr:postcode": "80335",
                "addr:street": "Bayerstraße",
                "government": "yes",
                "name": "Referat für Klima und Umweltschutz",
                "office": "government",
                "operator": "Landeshauptstadt München"
              },
              "geometry": {
                "type": "Point",
                "coordinates": [
                  11.5527196,
                  48.1392276
                ]
              }
            },
            {
              "type": "Feature",
              "properties": {
                "id": "8850660264",
                "osm_type": "node",
                "lat": 48.0662577,
                "lon": 11.6203993,
                "addr:city": "Unterhaching",
                "addr:housenumber": "15",
                "addr:postcode": "82008",
                "addr:street": "Kapellenstraße",
                "man_made": "works",
                "name": "Hutteerer & Sohn"
              },
              "geometry": {
                "type": "Point",
                "coordinates": [
                  11.6203993,
                  48.0662577
                ]
              }
            },
            {
              "type": "Feature",
              "properties": {
                "id": "10106977746",
                "osm_type": "node",
                "lat": 48.1122461,
                "lon": 11.5779638,
                "addr:city": "München",
                "addr:country": "DE",
                "addr:housenumber": "15",
                "addr:postcode": "81539",
                "addr:street": "Wirtstraße",
                "craft": "parquet_layer",
                "name": "Bodenbeläge Sonnenschutz Müller",
                "opening_hours": "Mo-Fr 13:00-18:00",
                "website": "http://www.fussbodentechnik-alpay.de/"
              },
              "geometry": {
                "type": "Point",
                "coordinates": [
                  11.5779638,
                  48.1122461
                ]
              }
            },
            {
              "type": "Feature",
              "properties": {
                "id": "11118253461",
                "osm_type": "node",
                "lat": 48.028804,
                "lon": 11.6006532,
                "name": "bm-Brandschutz",
                "office": "engineer"
              },
              "geometry": {
                "type": "Point",
                "coordinates": [
                  11.6006532,
                  48.028804
                ]
              }
            },
            {
              "type": "Feature",
              "properties": {
                "id": "11328877067",
                "osm_type": "node",
                "lat": 48.1421747,
                "lon": 11.5887887,
                "addr:city": "München",
                "addr:housenumber": "18",
                "addr:postcode": "80538",
                "addr:street": "Wagmüllerstraße",
                "check_date:opening_hours": "2024-12-29",
                "email": "poststelle@datenschutz-bayern.de",
                "fax": "+49 89 212672 50",
                "government": "data_protection",
                "name": "Bayerischer Landesbeauftragte für den Datenschutz",
                "office": "government",
                "opening_hours:signed": "no",
                "phone": "+49 89 212672 0",
                "ref:vatin": "DE811335517",
                "short_name": "BayLfD",
                "website": "https://www.datenschutz-bayern.de/",
                "wikidata": "Q55499721"
              },
              "geometry": {
                "type": "Point",
                "coordinates": [
                  11.5887887,
                  48.1421747
                ]
              }
            },
            {
              "type": "Feature",
              "properties": {
                "id": "11599422878",
                "osm_type": "node",
                "lat": 48.118536,
                "lon": 11.57415,
                "addr:housenumber": "30",
                "addr:street": "Freibadstraße",
                "check_date": "2024-02-08",
                "name": "jmh datenschutzberatung",
                "office": "company"
              },
              "geometry": {
                "type": "Point",
                "coordinates": [
                  11.57415,
                  48.118536
                ]
              }
            },
            {
              "type": "Feature",
              "properties": {
                "id": "11681139721",
                "osm_type": "node",
                "lat": 48.1708847,
                "lon": 11.8131204,
                "addr:city": "Poing",
                "addr:country": "DE",
                "addr:housenumber": "5",
                "addr:postcode": "85586",
                "addr:street": "Hauptstraße",
                "name": "Barmenia Versicherung - Hans Wolff von Schutter",
                "office": "insurance",
                "phone": "+49 176 23983268",
                "website": "https://agentur.barmenia.de/hans_wolff-von-schutter"
              },
              "geometry": {
                "type": "Point",
                "coordinates": [
                  11.8131204,
                  48.1708847
                ]
              }
            },
            {
              "type": "Feature",
              "properties": {
                "id": "11681154158",
                "osm_type": "node",
                "lat": 48.1402114,
                "lon": 11.5757706,
                "addr:city": "München",
                "addr:housenumber": "11",
                "addr:postcode": "80333",
                "addr:street": "Theatinerstraße",
                "brand": "Barmenia",
                "brand:wikidata": "Q808353",
                "name": "Barmenia Versicherung - Maximilian Wolff von Schutter",
                "office": "insurance",
                "phone": "+49\t176\t21860125",
                "website": "https://agentur.barmenia.de/maximilian_wolff-von-schutter"
              },
              "geometry": {
                "type": "Point",
                "coordinates": [
                  11.5757706,
                  48.1402114
                ]
              }
            },
            {
              "type": "Feature",
              "properties": {
                "id": "11703400198",
                "osm_type": "node",
                "lat": 48.1127627,
                "lon": 11.7040267,
                "addr:city": "München",
                "addr:country": "DE",
                "addr:housenumber": "225",
                "addr:postcode": "81827",
                "addr:street": "Wasserburger Landstraße",
                "check_date": "2025-08-30",
                "contact:phone": "+49 89 4303935",
                "contact:website": "https://sonnenschutz-waschow.de/",
                "craft": "sun_protection",
                "name": "Sonnenschutz Waschow",
                "opening_hours": "Mo-Tu,Th 09:00-12:00,13:00-17:00; We,Sa-Su off; Fr 09:00-12:00"
              },
              "geometry": {
                "type": "Point",
                "coordinates": [
                  11.7040267,
                  48.1127627
                ]
              }
            },
            {
              "type": "Feature",
              "properties": {
                "id": "11933477315",
                "osm_type": "node",
                "lat": 48.0334054,
                "lon": 11.5849851,
                "name": "MAGELLAN Rechtsanwälte. Legal. Datenschutz. IT.",
                "office": "lawyer"
              },
              "geometry": {
                "type": "Point",
                "coordinates": [
                  11.5849851,
                  48.0334054
                ]
              }
            },
            {
              "type": "Feature",
              "properties": {
                "id": "12400027613",
                "osm_type": "node",
                "lat": 48.0919099,
                "lon": 11.6536771,
                "addr:city": "München",
                "addr:housenumber": "24",
                "addr:postcode": "81739",
                "addr:street": "Heidestraße",
                "email": "info@brandschutz-breit.de",
                "name": "Brandschutz Breit",
                "office": "company",
                "phone": "089 140 98 585",
                "website": "https://www.brandschutz-fritsch.de/"
              },
              "geometry": {
                "type": "Point",
                "coordinates": [
                  11.6536771,
                  48.0919099
                ]
              }
            }
          ],
          "children": []
        },
        {
          "bbox": {
            "south": 48.02541825,
            "west": 11.915210749999998,
            "north": 48.190694875,
            "east": 12.392062499999998
          },
          "poiCount": 3,
          "leafCount": 3,
          "averagePosition": [
            12.1231151,
            48.100767499999996
          ],
          "data": [
            {
              "type": "Feature",
              "properties": {
                "id": "3156235025",
                "osm_type": "node",
                "lat": 48.0800727,
                "lon": 11.9688901,
                "addr:city": "Ebersberg",
                "addr:country": "DE",
                "addr:housenumber": "2",
                "addr:postcode": "85560",
                "addr:street": "Lehrer-Schwab-Gasse",
                "brand": "BUND",
                "brand:wikidata": "Q897009",
                "brand:wikipedia": "de:Bund für Umwelt und Naturschutz Deutschland",
                "club": "charity",
                "fax": "+49 8092 88905",
                "name": "Bund Naturschutz, Kreisgeschäftsstelle",
                "office": "association",
                "official_name": "Bund für Umwelt und Naturschutz Deutschland",
                "operator": "BUND Naturschutz in Bayern",
                "phone": "+49 8092 88871",
                "website": "https://ebersberg.bund-naturschutz.de/"
              },
              "geometry": {
                "type": "Point",
                "coordinates": [
                  11.9688901,
                  48.0800727
                ]
              }
            },
            {
              "type": "Feature",
              "properties": {
                "id": "4557741989",
                "osm_type": "node",
                "lat": 48.0564253,
                "lon": 12.2243026,
                "addr:postcode": "83512",
                "amenity": "doctors",
                "contact:phone": "+49 8071 94440",
                "contact:website": "http://www.r-arnold.de",
                "healthcare": "doctor",
                "healthcare:speciality": "general",
                "name": "Hausarztpraxis Eisenhut / Arnold",
                "name:en": "GP Dr.Arnold",
                "opening_hours": "Mo-Tu 09:00-12:00,17:00-18:00; Fr 09:00-12:00"
              },
              "geometry": {
                "type": "Point",
                "coordinates": [
                  12.2243026,
                  48.0564253
                ]
              }
            },
            {
              "type": "Feature",
              "properties": {
                "id": "10685955009",
                "osm_type": "node",
                "lat": 48.1658045,
                "lon": 12.1761526,
                "addr:city": "Haag in Oberbayern",
                "addr:country": "DE",
                "addr:housenumber": "13",
                "addr:postcode": "83527",
                "addr:street": "Rainbachstraße",
                "craft": "tankschutz,tankreinigung",
                "email": "info@liko-tank.de",
                "name": "Liko Tankschutz",
                "opening_hours": "Mo-Fr 07:00-17:00",
                "operator": "Alexander Vujic",
                "phone": "089 46 35 52",
                "website": "https://www.liko-tank.de/"
              },
              "geometry": {
                "type": "Point",
                "coordinates": [
                  12.1761526,
                  48.1658045
                ]
              }
            }
          ],
          "children": []
        },
        {
          "bbox": {
            "south": 48.190694875,
            "west": 11.438358999999998,
            "north": 48.355971499999995,
            "east": 11.915210749999998
          },
          "poiCount": 19,
          "leafCount": 19,
          "averagePosition": [
            11.643463305263158,
            48.26474994736842
          ],
          "data": [
            {
              "type": "Feature",
              "properties": {
                "id": "5174932156",
                "osm_type": "node",
                "lat": 48.2722609,
                "lon": 11.4533762,
                "addr:city": "Dachau",
                "addr:housenumber": "33",
                "addr:postcode": "85221",
                "addr:street": "Roßwachtstraße",
                "amenity": "animal_shelter",
                "email": "tierschutz@dachau.net",
                "name": "Tierschutzverein Dachau",
                "name:en": "Animal Shelter Dachau",
                "opening_hours": "Tu-Su 14:00-16:00",
                "operator": "Tierschutzverein Dachau e. V.",
                "phone": "+49 8131 53610",
                "website": "https://tierschutz.dachau.net/"
              },
              "geometry": {
                "type": "Point",
                "coordinates": [
                  11.4533762,
                  48.2722609
                ]
              }
            },
            {
              "type": "Feature",
              "properties": {
                "id": "10266019407",
                "osm_type": "node",
                "lat": 48.2961117,
                "lon": 11.4826756,
                "addr:city": "Hebertshausen",
                "addr:country": "DE",
                "addr:housenumber": "11",
                "addr:postcode": "85241",
                "addr:street": "Bürgermeister-Bartel-Straße",
                "addr:suburb": "Deutenhofen",
                "amenity": "fire_station",
                "email": "info@kfv-dachau.de",
                "fax": "+49 8131 321462",
                "name": "Katastrophenschutzhalle Landkreis Dachau",
                "operator": "Landkreis Dachau",
                "phone": "+49 8131 356890",
                "source": "http://kfv-dachau.de/index.php?section=imprint;https://www.landratsamt-dachau.de/aktuelles/pressemitteilungen/einweihung-der-katastrophenschutzhalle-und-kreiseinsatzzentrale-14112022/",
                "start_date": "2022-11-12",
                "website": "https://www.kbi-dachau.de/"
              },
              "geometry": {
                "type": "Point",
                "coordinates": [
                  11.4826756,
                  48.2961117
                ]
              }
            },
            {
              "type": "Feature",
              "properties": {
                "id": "5072131693",
                "osm_type": "node",
                "lat": 48.292902,
                "lon": 11.9058123,
                "addr:city": "Erding",
                "addr:country": "DE",
                "addr:housenumber": "4",
                "addr:postcode": "85435",
                "addr:street": "Hofmarkplatz",
                "brand": "BUND",
                "brand:wikidata": "Q897009",
                "brand:wikipedia": "de:Bund für Umwelt und Naturschutz Deutschland",
                "email": "buero@bund-naturschutz-erding.de",
                "name": "Bund Naturschutz Kreisgruppe Erding",
                "office": "association",
                "official_name": "Bund für Umwelt und Naturschutz Deutschland",
                "operator": "BUND Naturschutz in Bayern",
                "phone": "+49 8122 138 01",
                "website": "https://www.bund-naturschutz.de"
              },
              "geometry": {
                "type": "Point",
                "coordinates": [
                  11.9058123,
                  48.292902
                ]
              }
            },
            {
              "type": "Feature",
              "properties": {
                "id": "6779084557",
                "osm_type": "node",
                "lat": 48.2919945,
                "lon": 11.6790312,
                "addr:city": "Neufahrn bei Freising",
                "addr:housenumber": "1",
                "addr:postcode": "85375",
                "addr:street": "Am Tierheim",
                "addr:suburb": "Mintraching (Grüneck)",
                "amenity": "animal_shelter",
                "name": "Tierschutzverein Freising e.V.",
                "operator": "Tierschutzverein Freising e.V.",
                "website": "https://www.tierschutzverein-freising.de/"
              },
              "geometry": {
                "type": "Point",
                "coordinates": [
                  11.6790312,
                  48.2919945
                ]
              }
            },
            {
              "type": "Feature",
              "properties": {
                "id": "6899068551",
                "osm_type": "node",
                "lat": 48.2350456,
                "lon": 11.6794846,
                "addr:city": "Ismaning",
                "addr:housenumber": "4",
                "addr:postcode": "85737",
                "addr:street": "Carl-Zeiss-Ring",
                "name": "Deutsche Gesellschaft für Datenschutz",
                "office": "it",
                "website": "https://dg-datenschutz.de/"
              },
              "geometry": {
                "type": "Point",
                "coordinates": [
                  11.6794846,
                  48.2350456
                ]
              }
            },
            {
              "type": "Feature",
              "properties": {
                "id": "7326395828",
                "osm_type": "node",
                "lat": 48.2210641,
                "lon": 11.589453,
                "government": "environment",
                "name": "Bundesamt für Strahlenschutz",
                "office": "government",
                "opening_hours": "Mo-Fr 09:00-15:00"
              },
              "geometry": {
                "type": "Point",
                "coordinates": [
                  11.589453,
                  48.2210641
                ]
              }
            },
            {
              "type": "Feature",
              "properties": {
                "id": "9175246535",
                "osm_type": "node",
                "lat": 48.305726,
                "lon": 11.614772,
                "addr:city": "Eching",
                "addr:country": "DE",
                "addr:housenumber": "5a",
                "addr:postcode": "85386",
                "addr:street": "Fürholzener Straße",
                "name": "Walter Göttel Tank- und Behälterschutz",
                "office": "company",
                "phone": "+49 89 37 00 1597",
                "website": "https://www.tankschutz-goettel.de/"
              },
              "geometry": {
                "type": "Point",
                "coordinates": [
                  11.614772,
                  48.305726
                ]
              }
            },
            {
              "type": "Feature",
              "properties": {
                "id": "9362555740",
                "osm_type": "node",
                "lat": 48.3084496,
                "lon": 11.9043472,
                "addr:city": "Erding",
                "addr:country": "DE",
                "addr:housenumber": "6",
                "addr:postcode": "85435",
                "addr:street": "Alois-Schießl-Platz",
                "email": "brandschutz@lra-ed.de",
                "fax": "+49 1822 58 1137",
                "government": "emergency",
                "name": "Brand- und Katastrophenschutz",
                "office": "government",
                "opening_hours": "Mo-Fr 07:30-12:30; Tu,Th 14:00-17:00",
                "website": "https://www.landkreis-erding.de/buerger-verwaltung/fahrzeug-verkehr-sicherheit-gewerbe/brand-katastrophenschutz-ils/"
              },
              "geometry": {
                "type": "Point",
                "coordinates": [
                  11.9043472,
                  48.3084496
                ]
              }
            },
            {
              "type": "Feature",
              "properties": {
                "id": "10906007051",
                "osm_type": "node",
                "lat": 48.308421,
                "lon": 11.8868426,
                "addr:city": "Erding",
                "addr:country": "DE",
                "addr:housenumber": "3",
                "addr:postcode": "85435",
                "addr:street": "Valentin-Kirmeyer-Straße",
                "email": "kontakt@pup-sprinkleranlagen.de",
                "fax": "+49 8121 250 86 29",
                "name": "P. u. P. Feuerschutz und Anlagenbau GmbH",
                "office": "company",
                "phone": "+49 (0) 8122 5 88 99 0",
                "website": "https://pup-sprinkleranlagen.de/"
              },
              "geometry": {
                "type": "Point",
                "coordinates": [
                  11.8868426,
                  48.308421
                ]
              }
            },
            {
              "type": "Feature",
              "properties": {
                "id": "11249099065",
                "osm_type": "node",
                "lat": 48.2653131,
                "lon": 11.673087,
                "name": "Hochschulreferat 6 - Gesundheit, Sicherheit und Strahlenschutz",
                "office": "yes"
              },
              "geometry": {
                "type": "Point",
                "coordinates": [
                  11.673087,
                  48.2653131
                ]
              }
            },
            {
              "type": "Feature",
              "properties": {
                "id": "11259996990",
                "osm_type": "node",
                "lat": 48.1927948,
                "lon": 11.5850025,
                "addr:housenumber": "3",
                "addr:street": "Maria-Probst-Straße",
                "craft": "sun_protection",
                "description": "Anbieter von Terrassenüberdachungen an",
                "name": "Aylux Sonnenschutzsysteme",
                "phone": "+49 89 56826988",
                "website": "https://aylux.de"
              },
              "geometry": {
                "type": "Point",
                "coordinates": [
                  11.5850025,
                  48.1927948
                ]
              }
            },
            {
              "type": "Feature",
              "properties": {
                "id": "11713800507",
                "osm_type": "node",
                "lat": 48.2329384,
                "lon": 11.6406855,
                "addr:city": "Garching bei München",
                "addr:housenumber": "24",
                "addr:postcode": "85748",
                "addr:street": "Dirnismaning",
                "email": "muenchen@svt.de",
                "name": "svt Brandschutz-Services",
                "office": "company",
                "opening_hours": "Mo-Do: 07:30-16:30; Fr: 7:30-13:30",
                "phone": "+49 172 4379991",
                "website": "https://svt-dienstleistung.de/niederlassungen/muenchen"
              },
              "geometry": {
                "type": "Point",
                "coordinates": [
                  11.6406855,
                  48.2329384
                ]
              }
            },
            {
              "type": "Feature",
              "properties": {
                "id": "12572121855",
                "osm_type": "node",
                "lat": 48.1919348,
                "lon": 11.5922807,
                "amenity": "social_facility",
                "name": "Kälteschutz",
                "operator": "Diakonie München",
                "social_facility": "shelter",
                "social_facility:for": "homeless"
              },
              "geometry": {
                "type": "Point",
                "coordinates": [
                  11.5922807,
                  48.1919348
                ]
              }
            },
            {
              "type": "Feature",
              "properties": {
                "id": "12752150740",
                "osm_type": "node",
                "lat": 48.232928,
                "lon": 11.6408597,
                "addr:city": "Garching bei München",
                "addr:housenumber": "24",
                "addr:place": "Dirnismaning",
                "addr:postcode": "85748",
                "description": "Kompetenzzentrum für Schadstoffsanierung",
                "email": "schadstoffsanierung-muenchen@svt.de",
                "name": "svt Brandschutz-Services",
                "office": "company",
                "opening_hours": "Mo-Do: 07:30-16:30; Fr: 7:30-13:30",
                "phone": "+49 172 4379991",
                "website": "https://svt-dienstleistung.de/niederlassungen/muenchen-schadstoffsanierung"
              },
              "geometry": {
                "type": "Point",
                "coordinates": [
                  11.6408597,
                  48.232928
                ]
              }
            },
            {
              "type": "Feature",
              "properties": {
                "id": "12974652397",
                "osm_type": "node",
                "lat": 48.2828872,
                "lon": 11.5779222,
                "name": "Brandschutz Peter Schnitzer",
                "office": "yes"
              },
              "geometry": {
                "type": "Point",
                "coordinates": [
                  11.5779222,
                  48.2828872
                ]
              }
            },
            {
              "type": "Feature",
              "properties": {
                "id": "13019742128",
                "osm_type": "node",
                "lat": 48.2917837,
                "lon": 11.6181805,
                "name": "EURA SCHUTZ Gesellschaft für Sicherheitssysteme und Konzeptentwicklung mbH",
                "office": "security",
                "website": "https://www.euraschutz.com/"
              },
              "geometry": {
                "type": "Point",
                "coordinates": [
                  11.6181805,
                  48.2917837
                ]
              }
            },
            {
              "type": "Feature",
              "properties": {
                "id": "13040888046",
                "osm_type": "node",
                "lat": 48.2820002,
                "lon": 11.5759687,
                "club": "yes",
                "name": "Tierschutzverein Schleissheim e.V.",
                "website": "https://www.tierschutzverein-schleissheim.de/"
              },
              "geometry": {
                "type": "Point",
                "coordinates": [
                  11.5759687,
                  48.2820002
                ]
              }
            },
            {
              "type": "Feature",
              "properties": {
                "id": "13041417819",
                "osm_type": "node",
                "lat": 48.2721532,
                "lon": 11.5772756,
                "name": "PARE-TEC Brandschutz München",
                "office": "yes",
                "website": "https://www.pare-tec.de/"
              },
              "geometry": {
                "type": "Point",
                "coordinates": [
                  11.5772756,
                  48.2721532
                ]
              }
            },
            {
              "type": "Feature",
              "properties": {
                "id": "13074748406",
                "osm_type": "node",
                "lat": 48.2535402,
                "lon": 11.5487457,
                "craft": "sun_protection",
                "name": "E-WSV Sonnenschutz"
              },
              "geometry": {
                "type": "Point",
                "coordinates": [
                  11.5487457,
                  48.2535402
                ]
              }
            }
          ],
          "children": []
        }
      ]
    },
    {
      "bbox": {
        "south": 48.02541825,
        "west": 12.392062499999998,
        "north": 48.355971499999995,
        "east": 13.345766
      },
      "poiCount": 11,
      "leafCount": 11,
      "averagePosition": [
        12.93217621818182,
        48.24352629090909
      ],
      "data": [
        {
          "type": "Feature",
          "properties": {
            "id": "1814159320",
            "osm_type": "node",
            "lat": 48.194924,
            "lon": 12.3981486,
            "contact:email": "info@holzhauserhof.de",
            "contact:website": "http://www.holzhauserhof.de",
            "name": "Holzhauser Hof",
            "tourism": "chalet"
          },
          "geometry": {
            "type": "Point",
            "coordinates": [
              12.3981486,
              48.194924
            ]
          }
        },
        {
          "type": "Feature",
          "properties": {
            "id": "10600475816",
            "osm_type": "node",
            "lat": 48.2385005,
            "lon": 12.6911053,
            "addr:city": "Neuötting",
            "addr:country": "DE",
            "addr:housenumber": "17",
            "addr:postcode": "84524",
            "addr:street": "Pfarrer-Leeb-Straße",
            "email": "puppechrista@gmail.com",
            "name": "Neuöttinger Stadtblick",
            "operator": "Christa Puppe",
            "tourism": "chalet"
          },
          "geometry": {
            "type": "Point",
            "coordinates": [
              12.6911053,
              48.2385005
            ]
          }
        },
        {
          "type": "Feature",
          "properties": {
            "id": "10804563362",
            "osm_type": "node",
            "lat": 48.1809379,
            "lon": 12.609284,
            "email": "info@fuertnerhof.de",
            "internet_access": "wlan",
            "name": "Fürtnerhof",
            "operator": "Robert Schönstetter",
            "phone": "+49 (0) 86 33/71 61",
            "tourism": "chalet",
            "website": "https://www.fuertnerhof.de/"
          },
          "geometry": {
            "type": "Point",
            "coordinates": [
              12.609284,
              48.1809379
            ]
          }
        },
        {
          "type": "Feature",
          "properties": {
            "id": "11582615581",
            "osm_type": "node",
            "lat": 48.0275189,
            "lon": 12.5531445,
            "addr:city": "Trostberg",
            "addr:country": "DE",
            "addr:housenumber": "10",
            "addr:postcode": "83308",
            "addr:street": "Marienplatz",
            "email": "info@brandschutz-alztal.de",
            "name": "Brandschutz Alztal",
            "office": "company",
            "phone": "+49 (0) 8621 975 0000",
            "website": "https://brandschutz-alztal.de/"
          },
          "geometry": {
            "type": "Point",
            "coordinates": [
              12.5531445,
              48.0275189
            ]
          }
        },
        {
          "type": "Feature",
          "properties": {
            "id": "511578170",
            "osm_type": "node",
            "lat": 48.3504334,
            "lon": 13.2727535,
            "addr:city": "Kirchham",
            "addr:country": "DE",
            "addr:housenumber": "24a",
            "addr:postcode": "94148",
            "addr:street": "Bad-Füssinger-Straße",
            "name": "Senator Kur- & Ferienwohnanlage",
            "phone": "+49-8533 - 91 08 60",
            "tourism": "chalet",
            "website": "http://www.ferienapartment-senator.de"
          },
          "geometry": {
            "type": "Point",
            "coordinates": [
              13.2727535,
              48.3504334
            ]
          }
        },
        {
          "type": "Feature",
          "properties": {
            "id": "1733188144",
            "osm_type": "node",
            "lat": 48.2683852,
            "lon": 13.2529118,
            "addr:city": "Altheim",
            "addr:country": "AT",
            "addr:housenumber": "17b",
            "addr:place": "Gallenberg",
            "addr:postcode": "4950",
            "contact:email": "office@kobe-fenster.at",
            "contact:fax": "+43 7723 44420-14",
            "contact:phone": "+43 7723 44420",
            "contact:website": "http://www.kobe-fenster.at/",
            "fixme": "Wo genau ist 17b? Was gehört ales zur Firma KOBE?",
            "name": "KOBE Fenster - Türen - Sonnenschutz GmbH"
          },
          "geometry": {
            "type": "Point",
            "coordinates": [
              13.2529118,
              48.2683852
            ]
          }
        },
        {
          "type": "Feature",
          "properties": {
            "id": "9483416924",
            "osm_type": "node",
            "lat": 48.0963586,
            "lon": 13.2932943,
            "leisure": "nature_reserve",
            "name": "Naturschutzgebiet Spiaßmoia",
            "wetland": "wet_meadow"
          },
          "geometry": {
            "type": "Point",
            "coordinates": [
              13.2932943,
              48.0963586
            ]
          }
        },
        {
          "type": "Feature",
          "properties": {
            "id": "11099646166",
            "osm_type": "node",
            "lat": 48.3270694,
            "lon": 13.0415171,
            "emergency": "water_tank",
            "name": "Schutzbereich FF Oberham",
            "survey:date": "2023-05-10",
            "water_tank:volume": "150 m³"
          },
          "geometry": {
            "type": "Point",
            "coordinates": [
              13.0415171,
              48.3270694
            ]
          }
        },
        {
          "type": "Feature",
          "properties": {
            "id": "11101726942",
            "osm_type": "node",
            "lat": 48.3316756,
            "lon": 13.0503953,
            "emergency": "water_tank",
            "name": "Schutzbereich FF Oberham",
            "survey:date": "2023-08-09",
            "water_tank:volume": "300 m³"
          },
          "geometry": {
            "type": "Point",
            "coordinates": [
              13.0503953,
              48.3316756
            ]
          }
        },
        {
          "type": "Feature",
          "properties": {
            "id": "11101726943",
            "osm_type": "node",
            "lat": 48.3320929,
            "lon": 13.0508834,
            "emergency": "water_tank",
            "name": "Schutzbereich FF Oberham",
            "survey:date": "2023-08-09",
            "water_tank:volume": "100 m³"
          },
          "geometry": {
            "type": "Point",
            "coordinates": [
              13.0508834,
              48.3320929
            ]
          }
        },
        {
          "type": "Feature",
          "properties": {
            "id": "11101776583",
            "osm_type": "node",
            "lat": 48.3308928,
            "lon": 13.0405006,
            "emergency": "water_tank",
            "name": "Schutzbereich FF Oberham",
            "survey:date": "2023-08-09",
            "water_tank:volume": "150 m³"
          },
          "geometry": {
            "type": "Point",
            "coordinates": [
              13.0405006,
              48.3308928
            ]
          }
        }
      ],
      "children": []
    }
  ]
}