{
  "bbox": {
    "south": 47.694865,
    "west": 11.438358999999998,
    "north": 48.355971499999995,
    "east": 13.345766
  },
  "poiCount": 18,
  "leafCount": 18,
  "averagePosition": [
    12.088822177777779,
    48.082110533333335
  ],
  "data": [
    {
      "type": "Feature",
      "properties": {
        "id": "98268688",
        "osm_type": "node",
        "lat": 47.7825833,
        "lon": 12.3277791,
        "addr:city": "Aschau im Chiemgau",
        "addr:housenumber": "18",
        "addr:postcode": "83229",
        "addr:street": "Bernauer Straße",
        "amenity": "hospital",
        "emergency": "no",
        "healthcare": "hospital",
        "healthcare:speciality": "orthopaedics",
        "name": "Orthopädische Kinderklinik Aschau",
        "operator": "Caritas",
        "toilets:wheelchair": "yes",
        "wheelchair": "yes"
      },
      "geometry": {
        "type": "Point",
        "coordinates": [
          12.3277791,
          47.7825833
        ]
      }
    },
    {
      "type": "Feature",
      "properties": {
        "id": "11822928584",
        "osm_type": "node",
        "lat": 47.8304255,
        "lon": 12.3812797,
        "amenity": "hospital",
        "name": "Haus Fraueninsel"
      },
      "geometry": {
        "type": "Point",
        "coordinates": [
          12.3812797,
          47.8304255
        ]
      }
    },
    {
      "type": "Feature",
      "properties": {
        "id": "11822928587",
        "osm_type": "node",
        "lat": 47.8300779,
        "lon": 12.3801672,
        "amenity": "hospital",
        "name": "Haus Kampenwand"
      },
      "geometry": {
        "type": "Point",
        "coordinates": [
          12.3801672,
          47.8300779
        ]
      }
    },
    {
      "type": "Feature",
      "properties": {
        "id": "12866238615",
        "osm_type": "node",
        "lat": 47.8060751,
        "lon": 13.0283207,
        "amenity": "hospital",
        "emergency": "yes",
        "healthcare": "hospital",
        "healthcare:speciality": "emergency",
        "name": "Notaufnahme Erwachsene"
      },
      "geometry": {
        "type": "Point",
        "coordinates": [
          13.0283207,
          47.8060751
        ]
      }
    },
    {
      "type": "Feature",
      "properties": {
        "id": "6667994585",
        "osm_type": "node",
        "lat": 47.8062598,
        "lon": 13.0325787,
        "amenity": "hospital",
        "healthcare": "hospital",
        "name": "PMU LKH Gynäkologie Geburtshilfe",
        "website": "https://salk.at/"
      },
      "geometry": {
        "type": "Point",
        "coordinates": [
          13.0325787,
          47.8062598
        ]
      }
    },
    {
      "type": "Feature",
      "properties": {
        "id": "275450877",
        "osm_type": "node",
        "lat": 48.1042723,
        "lon": 11.5394238,
        "addr:city": "München",
        "addr:country": "DE",
        "addr:housenumber": "3",
        "addr:postcode": "81369",
        "addr:street": "Steinerstraße",
        "amenity": "hospital",
        "email": "info-skm@sana.de",
        "emergency": "yes",
        "healthcare": "hospital",
        "name": "Sana Klinik",
        "phone": "+49 89 72403-0",
        "website": "https://www.sana.de/muenchen",
        "wheelchair": "yes"
      },
      "geometry": {
        "type": "Point",
        "coordinates": [
          11.5394238,
          48.1042723
        ]
      }
    },
    {
      "type": "Feature",
      "properties": {
        "id": "291898706",
        "osm_type": "node",
        "lat": 48.1515148,
        "lon": 11.5960485,
        "addr:city": "München",
        "addr:country": "DE",
        "addr:housenumber": "6",
        "addr:postcode": "80538",
        "addr:street": "Hirschauer Straße",
        "amenity": "hospital",
        "beds": "82",
        "emergency": "no",
        "healthcare": "hospital",
        "healthcare:speciality": "gynaecology",
        "name": "Frauenklinik Dr. Geisenhofer",
        "name:en": "Dr. Geisenhofer Women's Clinic",
        "opening_hours:visitors": "09:00-17:00",
        "operator": "Frauenklinik Dr. Geisenhofer GmbH",
        "operator:type": "private",
        "phone": "+49 89 38310",
        "website": "https://geisenhoferklinik.de/",
        "wheelchair": "no"
      },
      "geometry": {
        "type": "Point",
        "coordinates": [
          11.5960485,
          48.1515148
        ]
      }
    },
    {
      "type": "Feature",
      "properties": {
        "id": "332617267",
        "osm_type": "node",
        "lat": 48.1347002,
        "lon": 11.5650239,
        "addr:city": "München",
        "addr:country": "DE",
        "addr:housenumber": "24",
        "addr:postcode": "80331",
        "addr:street": "Sonnenstraße",
        "amenity": "hospital",
        "email": "info@isarklinikum.de",
        "emergency": "yes",
        "fax": "+49 89 149903-1990",
        "healthcare": "hospital",
        "name": "ISAR Klinikum",
        "operator": "Isar Kliniken GmbH",
        "phone": "+49 89 149903-0",
        "website": "https://www.isarklinikum.de",
        "wheelchair": "yes",
        "wikidata": "Q22674589"
      },
      "geometry": {
        "type": "Point",
        "coordinates": [
          11.5650239,
          48.1347002
        ]
      }
    },
    {
      "type": "Feature",
      "properties": {
        "id": "1285286391",
        "osm_type": "node",
        "lat": 48.1505955,
        "lon": 11.618485,
        "addr:city": "München",
        "addr:country": "DE",
        "addr:housenumber": "5",
        "addr:postcode": "81925",
        "addr:street": "Arabellastraße",
        "amenity": "hospital",
        "beds": "60",
        "emergency": "no",
        "healthcare": "hospital",
        "healthcare:speciality": "anaesthetics;ophthalmology;surgery;trauma;plastic_surgery;otolaryngology;dental_oral_maxillo_facial_surgery",
        "level": "19",
        "name": "Arabella-Klinik",
        "operator": "Arabella Klinik GmbH",
        "operator:type": "private",
        "phone": "+49 89 92 20 92 0",
        "website": "https://arabellaklinik.de/",
        "wheelchair": "limited",
        "wikidata": "Q106291752",
        "wikipedia": "de:Arabella Klinik"
      },
      "geometry": {
        "type": "Point",
        "coordinates": [
          11.618485,
          48.1505955
        ]
      }
    },
    {
      "type": "Feature",
      "properties": {
        "id": "1598962239",
        "osm_type": "node",
        "lat": 48.2018974,
        "lon": 11.5872598,
        "amenity": "hospital",
        "emergency": "no",
        "healthcare": "hospital",
        "name": "Klinik mednord",
        "operator": "Klinik mednord Dr. Pfützenreuter",
        "website": "https://klinik-mednord.de/"
      },
      "geometry": {
        "type": "Point",
        "coordinates": [
          11.5872598,
          48.2018974
        ]
      }
    },
    {
      "type": "Feature",
      "properties": {
        "id": "1598964034",
        "osm_type": "node",
        "lat": 48.2018439,
        "lon": 11.5872518,
        "amenity": "hospital",
        "emergency": "no",
        "healthcare": "hospital",
        "name": "Belegklinikfür Neurochirurgie, plastisch-ästhetische Chirurgie,Chirurgie und Orthopädie",
        "name:en": "Clinic for Neurosurgery, Plastic and Aesthetic Surgery, Surgery, and Orthopedics",
        "operator": "Klinik mednord Dr. Pfützenreuter"
      },
      "geometry": {
        "type": "Point",
        "coordinates": [
          11.5872518,
          48.2018439
        ]
      }
    },
    {
      "type": "Feature",
      "properties": {
        "id": "4922089971",
        "osm_type": "node",
        "lat": 48.1036903,
        "lon": 11.5398032,
        "addr:city": "München",
        "addr:country": "DE",
        "addr:housenumber": "3",
        "addr:postcode": "81369",
        "addr:street": "Steinerstraße",
        "amenity": "hospital",
        "check_date": "2025-08-30",
        "email": "info@sana-solln-sendling.de",
        "emergency": "no",
        "healthcare": "hospital",
        "name": "Sana Gesundheitscampus München",
        "phone": "+49 89 72403-0",
        "website": "https://www.sana.de/muenchen",
        "wheelchair": "yes"
      },
      "geometry": {
        "type": "Point",
        "coordinates": [
          11.5398032,
          48.1036903
        ]
      }
    },
    {
      "type": "Feature",
      "properties": {
        "id": "5110996243",
        "osm_type": "node",
        "lat": 48.1266722,
        "lon": 11.5493435,
        "addr:city": "München",
        "addr:country": "DE",
        "addr:housenumber": "46",
        "addr:postcode": "80336",
        "addr:street": "Bavariaring",
        "amenity": "hospital",
        "beds": "52",
        "email": "info@maria-theresia-klinik.de",
        "healthcare": "hospital",
        "healthcare:speciality": "internal;surgery",
        "name": "Maria-Theresia-Klinik",
        "official_name": "Maria-Theresia-Klinik - Fachklinik für Chirurgie und Innere Medizin",
        "operator": "Kongregation der Barmherzigen Schwestern vom hl. Vinzenz von Paul",
        "operator:type": "religious",
        "phone": "+49 89 7207-1",
        "website": "https://www.maria-theresia-klinik.de/",
        "wheelchair": "no",
        "wikidata": "Q98644173"
      },
      "geometry": {
        "type": "Point",
        "coordinates": [
          11.5493435,
          48.1266722
        ]
      }
    },
    {
      "type": "Feature",
      "properties": {
        "id": "6282993708",
        "osm_type": "node",
        "lat": 48.1040115,
        "lon": 11.5392429,
        "addr:city": "München",
        "addr:housenumber": "6",
        "addr:postcode": "81369",
        "addr:street": "Steinerstraße",
        "amenity": "hospital",
        "check_date": "2024-05-24",
        "emergency": "no",
        "healthcare": "hospital",
        "healthcare:speciality": "orthopaedics",
        "name": "OCM Orthopädische Chirurgie München",
        "website": "https://www.ocm-muenchen.de/"
      },
      "geometry": {
        "type": "Point",
        "coordinates": [
          11.5392429,
          48.1040115
        ]
      }
    },
    {
      "type": "Feature",
      "properties": {
        "id": "264294550",
        "osm_type": "node",
        "lat": 48.2767065,
        "lon": 12.1517614,
        "addr:city": "Dorfen",
        "addr:country": "DE",
        "addr:housenumber": "17",
        "addr:postcode": "84405",
        "addr:street": "Erdinger Straße",
        "amenity": "hospital",
        "emergency": "no",
        "healthcare": "hospital",
        "healthcare:speciality": "internal",
        "name": "Klinik Dorfen",
        "operator": "Landkreis Erding",
        "toilets:wheelchair": "yes",
        "wheelchair": "yes"
      },
      "geometry": {
        "type": "Point",
        "coordinates": [
          12.1517614,
          48.2767065
        ]
      }
    },
    {
      "type": "Feature",
      "properties": {
        "id": "9086806867",
        "osm_type": "node",
        "lat": 48.3445707,
        "lon": 12.1307118,
        "addr:city": "Taufkirchen (Vils)",
        "addr:country": "DE",
        "addr:housenumber": "8",
        "addr:postcode": "84416",
        "addr:street": "Landshuter Straße",
        "amenity": "hospital",
        "healthcare": "hospital",
        "name": "MVZ Dorfen, Kardiologische Filialpraxis Taufkirchen",
        "operator": "MVZ Dorfen, Kardiologische Filialpraxis Taufkirchen",
        "operator:type": "public"
      },
      "geometry": {
        "type": "Point",
        "coordinates": [
          12.1307118,
          48.3445707
        ]
      }
    },
    {
      "type": "Feature",
      "properties": {
        "id": "157004300",
        "osm_type": "node",
        "lat": 48.1677438,
        "lon": 12.842318,
        "amenity": "hospital",
        "name": "Kreiskrankenhaus Burghausen",
        "wheelchair": "yes"
      },
      "geometry": {
        "type": "Point",
        "coordinates": [
          12.842318,
          48.1677438
        ]
      }
    },
    {
      "type": "Feature",
      "properties": {
        "id": "276543686",
        "osm_type": "node",
        "lat": 48.3543489,
        "lon": 13.2020002,
        "addr:city": "Rotthalmünster",
        "addr:country": "DE",
        "addr:housenumber": "35",
        "addr:postcode": "94094",
        "addr:street": "Simbacher Straße",
        "amenity": "hospital",
        "contact:facebook": "https://fb.com/100063948463453",
        "emergency": "no",
        "name": "Kreiskrankenhaus Rotthalmünster",
        "wheelchair": "yes"
      },
      "geometry": {
        "type": "Point",
        "coordinates": [
          13.2020002,
          48.3543489
        ]
      }
    }
  ],
  "children": []
}