{
  "bbox": {
    "south": 47.694865,
    "west": 9.530952,
    "north": 48.355971499999995,
    "east": 11.438358999999998
  },
  "poiCount": 19,
  "leafCount": 19,
  "averagePosition": [
    10.347892915789473,
    47.92107643684211
  ],
  "data": [
    {
      "type": "Feature",
      "properties": {
        "id": "635831882",
        "osm_type": "node",
        "lat": 47.7811065,
        "lon": 9.6094139,
        "amenity": "hospital",
        "emergency": "no",
        "healthcare": "hospital",
        "name": "Heilig-Geist-Spital",
        "website": "https://www.spital-ravensburg.de/",
        "wheelchair": "yes",
        "wikidata": "Q34355079"
      },
      "geometry": {
        "type": "Point",
        "coordinates": [
          9.6094139,
          47.7811065
        ]
      }
    },
    {
      "type": "Feature",
      "properties": {
        "id": "765923915",
        "osm_type": "node",
        "lat": 47.7863565,
        "lon": 9.623197,
        "addr:city": "Ravensburg",
        "addr:housenumber": "14",
        "addr:postcode": "88212",
        "addr:street": "Nikolausstraße",
        "amenity": "hospital",
        "healthcare": "hospital",
        "name": "Sinova Klinik",
        "operator": "Sinova",
        "phone": "+49 751 35530"
      },
      "geometry": {
        "type": "Point",
        "coordinates": [
          9.623197,
          47.7863565
        ]
      }
    },
    {
      "type": "Feature",
      "properties": {
        "id": "4323753820",
        "osm_type": "node",
        "lat": 47.7866185,
        "lon": 9.623219,
        "addr:city": "Ravensburg",
        "addr:housenumber": "14",
        "addr:postcode": "88212",
        "addr:street": "Nikolausstraße",
        "amenity": "hospital",
        "healthcare": "hospital",
        "name": "Tagesklinik",
        "operator": "Sinova"
      },
      "geometry": {
        "type": "Point",
        "coordinates": [
          9.623219,
          47.7866185
        ]
      }
    },
    {
      "type": "Feature",
      "properties": {
        "id": "8906594704",
        "osm_type": "node",
        "lat": 47.7639917,
        "lon": 9.5978102,
        "amenity": "hospital",
        "contact:email": "poststelle@sfk-weissenau.schule.bwl.de",
        "contact:fax": "+49 751 7601-2057",
        "contact:phone": "+49 751 7601-2460",
        "contact:website": "http://www.sfk-weissenau.de",
        "healthcare": "hospital",
        "name": "Pforte"
      },
      "geometry": {
        "type": "Point",
        "coordinates": [
          9.5978102,
          47.7639917
        ]
      }
    },
    {
      "type": "Feature",
      "properties": {
        "id": "606149624",
        "osm_type": "node",
        "lat": 47.8712205,
        "lon": 10.2233054,
        "amenity": "hospital",
        "deaf:description:de": "Laut Website (https://www.vamed-gesundheit.de/reha/bad-groenenbach/ihre-reha-bei-uns/somatik/hoerbehinderung-tinnitus-und-schwindelerkrankungen/therapie-fuer-gehoerlose/) werden hier Reha-Therapien für gehörlose Menschen angeboten, und es gibt „gebärdensp",
        "healthcare": "hospital",
        "healthcare:speciality": "rehabilitation;physiatry;physiotherapy;cardiology",
        "name": "VAMED"
      },
      "geometry": {
        "type": "Point",
        "coordinates": [
          10.2233054,
          47.8712205
        ]
      }
    },
    {
      "type": "Feature",
      "properties": {
        "id": "10213940011",
        "osm_type": "node",
        "lat": 47.7096632,
        "lon": 10.0347099,
        "addr:city": "Isny im Allgäu",
        "addr:country": "DE",
        "addr:housenumber": "5",
        "addr:postcode": "88316",
        "addr:street": "Waldburgallee",
        "addr:suburb": "Neutrauchburg",
        "amenity": "hospital",
        "healthcare": "hospital",
        "healthcare:speciality": "internal",
        "name": "Klinik Schwabenland",
        "source": "Datenübernahme von Gebäude-Teil;Homepage",
        "website": "https://www.klinik-schwabenland.de/",
        "wheelchair": "yes"
      },
      "geometry": {
        "type": "Point",
        "coordinates": [
          10.0347099,
          47.7096632
        ]
      }
    },
    {
      "type": "Feature",
      "properties": {
        "id": "11370455010",
        "osm_type": "node",
        "lat": 47.8463345,
        "lon": 10.1222173,
        "addr:city": "Legau",
        "addr:housenumber": "2",
        "addr:postcode": "87764",
        "addr:street": "Leutkircher Straße",
        "amenity": "hospital",
        "emergency": "no",
        "healthcare": "hospital",
        "name": "AWO-Fachklinik Legau für suchtmittelabhängige Frauen",
        "operator": "Arbeiterwohlfahrt Bezirksverband Schwaben e.V.",
        "website": "https://www.fachklinik-legau.de/"
      },
      "geometry": {
        "type": "Point",
        "coordinates": [
          10.1222173,
          47.8463345
        ]
      }
    },
    {
      "type": "Feature",
      "properties": {
        "id": "10591915656",
        "osm_type": "node",
        "lat": 47.7845949,
        "lon": 10.6166917,
        "amenity": "hospital",
        "healthcare": "hospital",
        "healthcare:speciality": "dentist",
        "name": "Zahnarzt Andreas Schmid",
        "operator": "Dr. Manfred Schmid"
      },
      "geometry": {
        "type": "Point",
        "coordinates": [
          10.6166917,
          47.7845949
        ]
      }
    },
    {
      "type": "Feature",
      "properties": {
        "id": "345318747",
        "osm_type": "node",
        "lat": 47.9162172,
        "lon": 9.762232,
        "amenity": "hospital",
        "healthcare": "hospital",
        "name": "Kurklinik Mayenbad"
      },
      "geometry": {
        "type": "Point",
        "coordinates": [
          9.762232,
          47.9162172
        ]
      }
    },
    {
      "type": "Feature",
      "properties": {
        "id": "345318752",
        "osm_type": "node",
        "lat": 47.9149929,
        "lon": 9.762499,
        "amenity": "hospital",
        "healthcare": "hospital",
        "name": "Kurklinik Elisabethenbad"
      },
      "geometry": {
        "type": "Point",
        "coordinates": [
          9.762499,
          47.9149929
        ]
      }
    },
    {
      "type": "Feature",
      "properties": {
        "id": "8059588740",
        "osm_type": "node",
        "lat": 48.0677469,
        "lon": 9.6109477,
        "addr:city": "Bad Buchau",
        "addr:country": "DE",
        "addr:housenumber": "2",
        "addr:postcode": "88422",
        "addr:street": "Schloßplatz",
        "amenity": "hospital",
        "healthcare": "rehabilitation",
        "name": "Schlossklinik Bad Buchau",
        "website": "https://schlossklinik-buchau.de/"
      },
      "geometry": {
        "type": "Point",
        "coordinates": [
          9.6109477,
          48.0677469
        ]
      }
    },
    {
      "type": "Feature",
      "properties": {
        "id": "6917915497",
        "osm_type": "node",
        "lat": 47.9827901,
        "lon": 10.1695794,
        "amenity": "hospital",
        "check_date": "2025-08-02",
        "healthcare": "hospital",
        "name": "Bezirkskrankenhaus Memmingen"
      },
      "geometry": {
        "type": "Point",
        "coordinates": [
          10.1695794,
          47.9827901
        ]
      }
    },
    {
      "type": "Feature",
      "properties": {
        "id": "12779862802",
        "osm_type": "node",
        "lat": 48.2257483,
        "lon": 10.1054934,
        "addr:city": "Illertissen",
        "addr:housenumber": "7",
        "addr:postcode": "89257",
        "addr:street": "Krankenhausstraße",
        "amenity": "hospital",
        "healthcare": "hospital",
        "healthcare:speciality": "surgery;trauma",
        "name": "MVZ Weißenhorn - Filiale Illertissen"
      },
      "geometry": {
        "type": "Point",
        "coordinates": [
          10.1054934,
          48.2257483
        ]
      }
    },
    {
      "type": "Feature",
      "properties": {
        "id": "195415014",
        "osm_type": "node",
        "lat": 48.0662444,
        "lon": 11.3477617,
        "addr:city": "Gauting",
        "addr:country": "DE",
        "addr:housenumber": "6",
        "addr:postcode": "82131",
        "addr:street": "Robert-Koch-Allee",
        "amenity": "hospital",
        "email": "info@psychiatrie-gauting.de",
        "fax": "+49 89 89358 151",
        "healthcare": "hospital",
        "healthcare:speciality": "psychiatry",
        "name": "Fachklinik für Psychiatrie und Psychotherapie",
        "note": "bitte überprüfen",
        "phone": "+49 89 893580",
        "website": "http://www.psychiatrie-gauting.de"
      },
      "geometry": {
        "type": "Point",
        "coordinates": [
          11.3477617,
          48.0662444
        ]
      }
    },
    {
      "type": "Feature",
      "properties": {
        "id": "269510209",
        "osm_type": "node",
        "lat": 48.1179807,
        "lon": 11.421919,
        "addr:city": "Gräfelfing",
        "addr:country": "DE",
        "addr:housenumber": "7",
        "addr:postcode": "82166",
        "addr:street": "Waldstraße",
        "amenity": "hospital",
        "email": "info@wolfartklinik.de",
        "emergency": "yes",
        "healthcare": "hospital",
        "name": "Wolfartklinik",
        "phone": "+49 89 8587-0",
        "website": "https://wolfartklinik.de/",
        "wheelchair": "yes"
      },
      "geometry": {
        "type": "Point",
        "coordinates": [
          11.421919,
          48.1179807
        ]
      }
    },
    {
      "type": "Feature",
      "properties": {
        "id": "366594017",
        "osm_type": "node",
        "lat": 47.9946821,
        "lon": 11.1706069,
        "addr:city": "Herrsching am Ammersee",
        "addr:country": "DE",
        "addr:housenumber": "43",
        "addr:postcode": "82211",
        "addr:street": "Seestraße",
        "amenity": "hospital",
        "check_date": "2024-09-16",
        "email": "info@klinik-schindlbeck.de",
        "emergency": "yes",
        "fax": "+49 8152 29-216",
        "healthcare": "hospital",
        "name": "Klinik Dr. Robert Schindlbeck",
        "phone": "+49 8152 29-0",
        "start_date": "1946",
        "website": "https://www.klinik-schindlbeck.de",
        "wheelchair": "yes"
      },
      "geometry": {
        "type": "Point",
        "coordinates": [
          11.1706069,
          47.9946821
        ]
      }
    },
    {
      "type": "Feature",
      "properties": {
        "id": "1690348745",
        "osm_type": "node",
        "lat": 47.9880622,
        "lon": 11.3643046,
        "addr:city": "Berg",
        "addr:housenumber": "21",
        "addr:postcode": "82335",
        "addr:street": "Milchberg",
        "addr:suburb": "Kempfenhausen",
        "alt_name": "Marianne-Strauß-Klinik",
        "amenity": "hospital",
        "name": "Marianne-Strauss-Klinik",
        "toilets:wheelchair": "yes",
        "website": "https://www.ms-klinik.de/",
        "wheelchair": "yes"
      },
      "geometry": {
        "type": "Point",
        "coordinates": [
          11.3643046,
          47.9880622
        ]
      }
    },
    {
      "type": "Feature",
      "properties": {
        "id": "1777032314",
        "osm_type": "node",
        "lat": 47.9487454,
        "lon": 11.3467418,
        "amenity": "hospital",
        "name": "Heckscher-Klinikum Abt. Rottmannshöhe"
      },
      "geometry": {
        "type": "Point",
        "coordinates": [
          11.3467418,
          47.9487454
        ]
      }
    },
    {
      "type": "Feature",
      "properties": {
        "id": "12285535145",
        "osm_type": "node",
        "lat": 47.9473558,
        "lon": 11.0973155,
        "addr:city": "Dießen am Ammersee",
        "addr:housenumber": "20",
        "addr:postcode": "86911",
        "addr:street": "Klosterhof",
        "amenity": "hospital",
        "healthcare": "hospital",
        "healthcare:speciality": "psychosomatik",
        "name": "Psychosomatische Klinik Kloster Dießen",
        "operator": "Psychosomatische Klinik Kloster Dießen GmbH & Co. KG",
        "website": "https://www.psychosomatik-diessen.de/"
      },
      "geometry": {
        "type": "Point",
        "coordinates": [
          11.0973155,
          47.9473558
        ]
      }
    }
  ],
  "children": []
}