{
  "bbox": {
    "south": 48.355971499999995,
    "west": 11.438358999999998,
    "north": 49.017078,
    "east": 13.345766
  },
  "poiCount": 10,
  "leafCount": 10,
  "averagePosition": [
    12.73476191,
    48.62269033
  ],
  "data": [
    {
      "type": "Feature",
      "properties": {
        "id": "9878658545",
        "osm_type": "node",
        "lat": 48.5184792,
        "lon": 11.4971833,
        "amenity": "hospital",
        "check_date": "2025-04-03",
        "emergency": "yes",
        "healthcare": "hospital",
        "healthcare:speciality": "psychology",
        "name": "Danuvius Klinik",
        "operator": "Danuvius Klinik GmbH",
        "operator:type": "private",
        "phone": "+49 8441 4059 0",
        "website": "https://www.danuviusklinik.de/kliniken/pfaffenhofen/"
      },
      "geometry": {
        "type": "Point",
        "coordinates": [
          11.4971833,
          48.5184792
        ]
      }
    },
    {
      "type": "Feature",
      "properties": {
        "id": "393807826",
        "osm_type": "node",
        "lat": 48.6980355,
        "lon": 12.0032895,
        "addr:city": "Rottenburg a. d. Laaber",
        "addr:country": "DE",
        "addr:housenumber": "1",
        "addr:postcode": "84056",
        "addr:street": "Schloßstraße",
        "amenity": "hospital",
        "email": "verwaltung@schlossklinik-rottenburg.de",
        "emergency": "no",
        "healthcare": "hospital",
        "name": "Schlossklinik Rottenburg",
        "operator": "LakuMed",
        "phone": "+49 8781 94990",
        "website": "https://www.lakumed.de/fachgebiete/schlossklinik-rottenburg/"
      },
      "geometry": {
        "type": "Point",
        "coordinates": [
          12.0032895,
          48.6980355
        ]
      }
    },
    {
      "type": "Feature",
      "properties": {
        "id": "275051373",
        "osm_type": "node",
        "lat": 48.4367127,
        "lon": 12.9265198,
        "amenity": "hospital",
        "name": "Kreiskrankenhaus Pfarrkirchen",
        "wheelchair": "yes"
      },
      "geometry": {
        "type": "Point",
        "coordinates": [
          12.9265198,
          48.4367127
        ]
      }
    },
    {
      "type": "Feature",
      "properties": {
        "id": "277442836",
        "osm_type": "node",
        "lat": 48.4360012,
        "lon": 12.9259294,
        "amenity": "hospital",
        "name": "Dialysezentrum Pfarrkirchen",
        "wheelchair": "yes"
      },
      "geometry": {
        "type": "Point",
        "coordinates": [
          12.9259294,
          48.4360012
        ]
      }
    },
    {
      "type": "Feature",
      "properties": {
        "id": "9923992254",
        "osm_type": "node",
        "lat": 48.5556542,
        "lon": 12.810539,
        "addr:city": "Arnstorf",
        "addr:country": "DE",
        "addr:housenumber": "1",
        "addr:postcode": "94424",
        "addr:street": "Gerberstraße",
        "amenity": "hospital",
        "description": "Dr. B. Peter ist auf minimal-invasive Methoden zur Hautstraffung und Verjüngung des Erscheinungsbildes spezialisiert. Faltenbehandlung mittels Botox, Faltenunterspritzung, Eigenbluttherapie, Medical Needling, Mesolift und Mesotherapie in der Praxis für äs",
        "email": "info@falten-botox.de",
        "healthcare": "hospital",
        "healthcare:speciality": "plastic_surgery",
        "image": "https://falten-botox.de/fileadmin/_processed_/8/f/csm_3_Kontaktdaten_Praxisgeba%CC%88ude__a3f7e999e0.jpg",
        "name": "Dr. Peter – Faltenbehandlung mit Botox, Meso- & Eigenbluttherapie",
        "phone": "+49 8723 509",
        "website": "https://www.falten-botox.de/"
      },
      "geometry": {
        "type": "Point",
        "coordinates": [
          12.810539,
          48.5556542
        ]
      }
    },
    {
      "type": "Feature",
      "properties": {
        "id": "13003831873",
        "osm_type": "node",
        "lat": 48.8084926,
        "lon": 12.8967235,
        "amenity": "hospital",
        "healthcare": "hospital",
        "name": "SPZ - Sozialpsychiatrische Zentrum"
      },
      "geometry": {
        "type": "Point",
        "coordinates": [
          12.8967235,
          48.8084926
        ]
      }
    },
    {
      "type": "Feature",
      "properties": {
        "id": "644660464",
        "osm_type": "node",
        "lat": 48.4296787,
        "lon": 13.1848165,
        "addr:city": "Bad Griesbach i. Rottal",
        "addr:housenumber": "1",
        "addr:postcode": "94086",
        "addr:street": "Bürgermeister-Hartl-Platz",
        "amenity": "hospital",
        "healthcare": "hospital",
        "healthcare:speciality": "neurology;geriatrics;orthopaedics;cardiology",
        "name": "Passauer Wolf Reha-Zentrum Bad Griesbach",
        "note": "FIXME: drawn from memory"
      },
      "geometry": {
        "type": "Point",
        "coordinates": [
          13.1848165,
          48.4296787
        ]
      }
    },
    {
      "type": "Feature",
      "properties": {
        "id": "3085636017",
        "osm_type": "node",
        "lat": 48.426863,
        "lon": 13.1871215,
        "addr:city": "Bad Griesbach i.Rottal",
        "addr:country": "DE",
        "addr:housenumber": "20",
        "addr:postcode": "94086",
        "addr:street": "Thermalbadstraße",
        "amenity": "hospital",
        "description": "Appartementhotel",
        "healthcare": "rehabilitation",
        "name": "Passauer Wolf Lodge & Therme Bad Griesbach",
        "phone": "+49 8532 27-0",
        "ref:touristinfo": "12"
      },
      "geometry": {
        "type": "Point",
        "coordinates": [
          13.1871215,
          48.426863
        ]
      }
    },
    {
      "type": "Feature",
      "properties": {
        "id": "386158263",
        "osm_type": "node",
        "lat": 48.9096886,
        "lon": 12.6971313,
        "addr:city": "Bogen",
        "addr:housenumber": "8",
        "addr:postcode": "94327",
        "addr:street": "Mussinanstraße",
        "amenity": "hospital",
        "email": "info@klinik-bogen.de",
        "fax": "+49 9422 822280",
        "healthcare": "hospital",
        "name": "Klinik Bogen",
        "operator": "Kreiskliniken Bogen-Mallersdorf",
        "phone": "+49 9422 8220",
        "website": "https://www.kreiskliniken-bogen-mallersdorf.de",
        "wheelchair": "yes"
      },
      "geometry": {
        "type": "Point",
        "coordinates": [
          12.6971313,
          48.9096886
        ]
      }
    },
    {
      "type": "Feature",
      "properties": {
        "id": "479862703",
        "osm_type": "node",
        "lat": 49.0072976,
        "lon": 13.2183653,
        "addr:city": "Zwiesel",
        "addr:country": "DE",
        "addr:housenumber": "1",
        "addr:postcode": "94227",
        "addr:street": "Arberlandstraße",
        "amenity": "hospital",
        "healthcare": "hospital",
        "name": "ARBERLANDKlinik Zwiesel",
        "name:de": "Arberlandklinik",
        "phone": "+49 9922 990",
        "website": "https://www.arberlandkliniken.de",
        "wheelchair": "yes"
      },
      "geometry": {
        "type": "Point",
        "coordinates": [
          13.2183653,
          49.0072976
        ]
      }
    }
  ],
  "children": []
}