{
  "bbox": {
    "south": 46.372652,
    "west": 9.530952,
    "north": 47.033758500000005,
    "east": 11.438358999999998
  },
  "poiCount": 6,
  "leafCount": 6,
  "averagePosition": [
    10.695905266666665,
    46.67237746666667
  ],
  "data": [
    {
      "type": "Feature",
      "properties": {
        "id": "12889004981",
        "osm_type": "node",
        "lat": 46.8286753,
        "lon": 9.8558114,
        "addr:city": "Davos Wolfgang",
        "addr:housenumber": "1",
        "addr:postcode": "7265",
        "addr:street": "Herman-Burchard-Strasse",
        "alt_name": "Rehaklinik Davos Wolfgang",
        "amenity": "hospital",
        "emergency": "no",
        "healthcare": "hospital",
        "healthcare:speciality": "pulmonology;allergology;psychosomatik;paediatrics;dermatology;cardiology",
        "name": "Hochgebirgsklinik Davos",
        "operator": "Hochgebirgsklinik Davos AG",
        "website": "https://hochgebirgsklinik.ch/",
        "wheelchair": "yes",
        "wikidata": "Q1621810",
        "wikipedia": "de:Hochgebirgsklinik Davos"
      },
      "geometry": {
        "type": "Point",
        "coordinates": [
          9.8558114,
          46.8286753
        ]
      }
    },
    {
      "type": "Feature",
      "properties": {
        "id": "12818424603",
        "osm_type": "node",
        "lat": 46.9696081,
        "lon": 9.5637212,
        "addr:housenumber": "14a",
        "addr:street": "Karlihofstrasse",
        "amenity": "hospital"
      },
      "geometry": {
        "type": "Point",
        "coordinates": [
          9.5637212,
          46.9696081
        ]
      }
    },
    {
      "type": "Feature",
      "properties": {
        "id": "12397496737",
        "osm_type": "node",
        "lat": 46.5502272,
        "lon": 11.0060915,
        "amenity": "hospital",
        "healthcare": "hospital",
        "name": "Ambulatorium"
      },
      "geometry": {
        "type": "Point",
        "coordinates": [
          11.0060915,
          46.5502272
        ]
      }
    },
    {
      "type": "Feature",
      "properties": {
        "id": "12759650667",
        "osm_type": "node",
        "lat": 46.5486943,
        "lon": 11.0033788,
        "amenity": "hospital",
        "healthcare": "hospital",
        "name": "Ambulatorium"
      },
      "geometry": {
        "type": "Point",
        "coordinates": [
          11.0033788,
          46.5486943
        ]
      }
    },
    {
      "type": "Feature",
      "properties": {
        "id": "1597396516",
        "osm_type": "node",
        "lat": 46.6422599,
        "lon": 11.3560954,
        "amenity": "hospital",
        "healthcare": "hospital",
        "name": "Spital Sarnthein"
      },
      "geometry": {
        "type": "Point",
        "coordinates": [
          11.3560954,
          46.6422599
        ]
      }
    },
    {
      "type": "Feature",
      "properties": {
        "id": "12478209223",
        "osm_type": "node",
        "lat": 46.4948,
        "lon": 11.3903333,
        "amenity": "hospital",
        "healthcare": "hospital",
        "name": "Gesundheitssprengel Kardaun - Azienda Sanitaria Comprensorio Salto-Sciliar",
        "name:de": "Gesundheitssprengel Kardaun",
        "name:it": "Azienda Sanitaria Comprensorio Salto-Sciliar",
        "operator": "ASL",
        "operator:wikidata": "Q3631467"
      },
      "geometry": {
        "type": "Point",
        "coordinates": [
          11.3903333,
          46.4948
        ]
      }
    }
  ],
  "children": []
}