{
  "bbox": {
    "south": 47.033758500000005,
    "west": 11.438358999999998,
    "north": 47.694865,
    "east": 13.345766
  },
  "poiCount": 137,
  "leafCount": 0,
  "averagePosition": [
    12.300642330656936,
    47.45540720729927
  ],
  "data": [],
  "children": [
    {
      "bbox": {
        "south": 47.033758500000005,
        "west": 11.438358999999998,
        "north": 47.36431175,
        "east": 12.392062499999998
      },
      "poiCount": 22,
      "leafCount": 22,
      "averagePosition": [
        11.693880340909091,
        47.233888240909096
      ],
      "data": [
        {
          "type": "Feature",
          "properties": {
            "id": "280697584",
            "osm_type": "node",
            "lat": 47.1398798,
            "lon": 11.4478975,
            "amenity": "fuel",
            "brand": "Eni",
            "brand:wikidata": "Q565594",
            "compressed_air": "no",
            "fuel:GTL_diesel": "yes",
            "fuel:HGV_diesel": "yes",
            "fuel:adblue": "yes",
            "fuel:cng": "yes",
            "fuel:diesel": "yes",
            "fuel:octane_100": "yes",
            "fuel:octane_95": "yes",
            "name": "Eni Matreiwald Ost",
            "self_service": "yes"
          },
          "geometry": {
            "type": "Point",
            "coordinates": [
              11.4478975,
              47.1398798
            ]
          }
        },
        {
          "type": "Feature",
          "properties": {
            "id": "349198885",
            "osm_type": "node",
            "lat": 47.0376531,
            "lon": 11.4736509,
            "amenity": "fuel",
            "brand": "BP",
            "brand:wikidata": "Q152057",
            "name": "BP"
          },
          "geometry": {
            "type": "Point",
            "coordinates": [
              11.4736509,
              47.0376531
            ]
          }
        },
        {
          "type": "Feature",
          "properties": {
            "id": "1372799188",
            "osm_type": "node",
            "lat": 47.0631689,
            "lon": 11.4873314,
            "amenity": "fuel",
            "compressed_air": "yes",
            "name": "disk",
            "operator": "diskount tank"
          },
          "geometry": {
            "type": "Point",
            "coordinates": [
              11.4873314,
              47.0631689
            ]
          }
        },
        {
          "type": "Feature",
          "properties": {
            "id": "1464185755",
            "osm_type": "node",
            "lat": 47.0353133,
            "lon": 11.4819557,
            "amenity": "fuel",
            "brand": "Eni",
            "brand:wikidata": "Q565594",
            "name": "Eni Gutman",
            "operator": "Eni"
          },
          "geometry": {
            "type": "Point",
            "coordinates": [
              11.4819557,
              47.0353133
            ]
          }
        },
        {
          "type": "Feature",
          "properties": {
            "id": "1662758268",
            "osm_type": "node",
            "lat": 47.1285966,
            "lon": 11.4525972,
            "addr:city": "Matrei am Brenner",
            "addr:country": "AT",
            "addr:housenumber": "114",
            "addr:postcode": "6143",
            "addr:street": "Brenner Straße",
            "amenity": "fuel",
            "brand": "OMV",
            "brand:wikidata": "Q168238",
            "brand:wikipedia": "en:OMV",
            "contact:phone": "+43 5273631713",
            "fuel:diesel": "yes",
            "fuel:octane_95": "yes",
            "name": "OMV",
            "operator": "Stoll Christian",
            "self_service": "yes",
            "wheelchair": "yes"
          },
          "geometry": {
            "type": "Point",
            "coordinates": [
              11.4525972,
              47.1285966
            ]
          }
        },
        {
          "type": "Feature",
          "properties": {
            "id": "9128047583",
            "osm_type": "node",
            "lat": 47.2632328,
            "lon": 11.4531809,
            "addr:city": "Innsbruck",
            "addr:country": "AT",
            "addr:housenumber": "67",
            "addr:postcode": "6020",
            "addr:street": "Hermann-Gmeiner-Straße",
            "addr:suburb": "Amras",
            "amenity": "fuel",
            "brand": "BP",
            "brand:wikidata": "Q152057",
            "brand:wikipedia": "en:BP",
            "compressed_air": "yes",
            "fuel:GTL_diesel": "yes",
            "fuel:autogas": "yes",
            "fuel:diesel": "yes",
            "fuel:octane_100": "yes",
            "fuel:octane_95": "yes",
            "name": "BP",
            "operator": "BP"
          },
          "geometry": {
            "type": "Point",
            "coordinates": [
              11.4531809,
              47.2632328
            ]
          }
        },
        {
          "type": "Feature",
          "properties": {
            "id": "10182525765",
            "osm_type": "node",
            "lat": 47.0906892,
            "lon": 11.4690775,
            "amenity": "fuel",
            "compressed_air": "no",
            "name": "Heizöle Nagele"
          },
          "geometry": {
            "type": "Point",
            "coordinates": [
              11.4690775,
              47.0906892
            ]
          }
        },
        {
          "type": "Feature",
          "properties": {
            "id": "12444408018",
            "osm_type": "node",
            "lat": 47.1408116,
            "lon": 11.4462153,
            "amenity": "fuel",
            "brand": "Eni",
            "brand:wikidata": "Q565594",
            "brand:wikipedia": "en:Eni",
            "compressed_air": "yes",
            "fuel:GTL_diesel": "yes",
            "fuel:HGV_diesel": "yes",
            "fuel:adblue": "yes",
            "fuel:cng": "yes",
            "fuel:diesel": "yes",
            "fuel:octane_100": "yes",
            "fuel:octane_95": "yes",
            "name": "Eni Matreiwald West",
            "self_service": "yes",
            "wheelchair": "yes"
          },
          "geometry": {
            "type": "Point",
            "coordinates": [
              11.4462153,
              47.1408116
            ]
          }
        },
        {
          "type": "Feature",
          "properties": {
            "id": "300411433",
            "osm_type": "node",
            "lat": 47.352743,
            "lon": 11.7004363,
            "addr:city": "Vomp",
            "addr:country": "AT",
            "addr:housenumber": "12",
            "addr:postcode": "6134",
            "addr:street": "Industriestraße",
            "amenity": "fuel",
            "brand": "Eni",
            "brand:wikidata": "Q565594",
            "compressed_air": "yes",
            "fuel:biodiesel": "no",
            "fuel:biogas": "no",
            "fuel:cng": "yes",
            "fuel:diesel": "yes",
            "fuel:octane_91": "yes",
            "fuel:octane_95": "yes",
            "name": "Eni - Gutmann",
            "operator": "Eni"
          },
          "geometry": {
            "type": "Point",
            "coordinates": [
              11.7004363,
              47.352743
            ]
          }
        },
        {
          "type": "Feature",
          "properties": {
            "id": "442589821",
            "osm_type": "node",
            "lat": 47.346921,
            "lon": 11.6902671,
            "addr:full": "Inntalautobahn bei km 49, 6134 Vomp",
            "amenity": "fuel",
            "brand": "OMV",
            "brand:wikidata": "Q168238",
            "brand:wikipedia": "en:OMV",
            "compressed_air": "yes",
            "fuel:adblue": "yes",
            "fuel:diesel": "yes",
            "fuel:octane_100": "yes",
            "fuel:octane_91": "yes",
            "fuel:octane_95": "yes",
            "name": "OMV",
            "official_name": "OMV Tankstelle",
            "opening_hours": "24/7",
            "operator": "Rosenberger Fuels GmbH",
            "phone": "+43 5242 64357",
            "ref": "5750",
            "ref:vatin": "ATU66291568",
            "wheelchair": "yes"
          },
          "geometry": {
            "type": "Point",
            "coordinates": [
              11.6902671,
              47.346921
            ]
          }
        },
        {
          "type": "Feature",
          "properties": {
            "id": "560321120",
            "osm_type": "node",
            "lat": 47.3183235,
            "lon": 11.6537949,
            "addr:city": "Weer",
            "addr:country": "AT",
            "addr:housename": "Raststation Weer Nord",
            "addr:housenumber": "2",
            "addr:postcode": "6116",
            "addr:street": "Inntal Autobahn",
            "amenity": "fuel",
            "brand": "BP",
            "brand:wikidata": "Q152057",
            "brand:wikipedia": "en:BP",
            "fuel:GTL_diesel": "yes",
            "fuel:diesel": "yes",
            "fuel:octane_100": "yes",
            "fuel:octane_95": "yes",
            "name": "BP",
            "opening_hours": "Mo-Su 05:00-24:00",
            "operator": "Engleder Handels GmbH",
            "phone": "+43 522468388",
            "wheelchair": "yes"
          },
          "geometry": {
            "type": "Point",
            "coordinates": [
              11.6537949,
              47.3183235
            ]
          }
        },
        {
          "type": "Feature",
          "properties": {
            "id": "611206118",
            "osm_type": "node",
            "lat": 47.3173581,
            "lon": 11.8652633,
            "amenity": "fuel",
            "brand": "OIL!",
            "brand:wikidata": "Q2007561",
            "brand:wikipedia": "de:OIL! Tankstellen",
            "compressed_air": "yes",
            "fuel:diesel": "yes",
            "fuel:lpg": "yes",
            "fuel:octane_91": "yes",
            "fuel:octane_95": "yes",
            "fuel:octane_98": "yes",
            "name": "OIL!",
            "opening_hours": "Mo-Fr 06:00-22:00; Sa-Su 07:00-22:00",
            "operator": "OIL!",
            "phone": "+43 5288 63697",
            "wheelchair": "limited"
          },
          "geometry": {
            "type": "Point",
            "coordinates": [
              11.8652633,
              47.3173581
            ]
          }
        },
        {
          "type": "Feature",
          "properties": {
            "id": "3257021012",
            "osm_type": "node",
            "lat": 47.210206,
            "lon": 11.8727849,
            "amenity": "fuel",
            "compressed_air": "no",
            "fuel:diesel": "yes",
            "fuel:octane_95": "yes",
            "fuel:octane_98": "yes",
            "name": "disk",
            "opening_hours": "Mo-Sa 07:00-19:00; Su 08:00-19:00",
            "wheelchair": "yes"
          },
          "geometry": {
            "type": "Point",
            "coordinates": [
              11.8727849,
              47.210206
            ]
          }
        },
        {
          "type": "Feature",
          "properties": {
            "id": "3265435009",
            "osm_type": "node",
            "lat": 47.3426222,
            "lon": 11.708213,
            "amenity": "fuel",
            "name": "Schaller Heizöle",
            "website": "http://www.heizoele-schaller.at/"
          },
          "geometry": {
            "type": "Point",
            "coordinates": [
              11.708213,
              47.3426222
            ]
          }
        },
        {
          "type": "Feature",
          "properties": {
            "id": "7050437470",
            "osm_type": "node",
            "lat": 47.3565698,
            "lon": 11.7052382,
            "amenity": "fuel",
            "brand": "Diesel24",
            "fuel:HGV_diesel": "yes",
            "fuel:adblue": "yes",
            "fuel:diesel": "no"
          },
          "geometry": {
            "type": "Point",
            "coordinates": [
              11.7052382,
              47.3565698
            ]
          }
        },
        {
          "type": "Feature",
          "properties": {
            "id": "9124383372",
            "osm_type": "node",
            "lat": 47.3181492,
            "lon": 11.6529166,
            "amenity": "fuel",
            "brand": "BP",
            "brand:wikidata": "Q152057",
            "brand:wikipedia": "en:BP",
            "fuel:HGV_diesel": "yes",
            "fuel:adblue": "yes",
            "name": "BP"
          },
          "geometry": {
            "type": "Point",
            "coordinates": [
              11.6529166,
              47.3181492
            ]
          }
        },
        {
          "type": "Feature",
          "properties": {
            "id": "9133414837",
            "osm_type": "node",
            "lat": 47.2977398,
            "lon": 11.58825,
            "addr:city": "Wattens",
            "addr:country": "AT",
            "addr:housename": "Shell Tankstelle",
            "addr:housenumber": "55",
            "addr:postcode": "6112",
            "addr:street": "Bahnhofstraße",
            "amenity": "fuel",
            "brand": "Shell Express",
            "brand:wikidata": "Q2289188",
            "brand:wikipedia": "nl:Shell Express",
            "compressed_air": "yes",
            "fuel:diesel": "yes",
            "fuel:octane_100": "yes",
            "fuel:octane_95": "yes",
            "name": "Shell Express"
          },
          "geometry": {
            "type": "Point",
            "coordinates": [
              11.58825,
              47.2977398
            ]
          }
        },
        {
          "type": "Feature",
          "properties": {
            "id": "9133414863",
            "osm_type": "node",
            "lat": 47.2919223,
            "lon": 11.5993377,
            "addr:city": "Wattens",
            "addr:country": "AT",
            "addr:housenumber": "26",
            "addr:postcode": "6112",
            "addr:street": "Salzburger Straße",
            "amenity": "fuel",
            "brand": "Eni",
            "brand:wikidata": "Q565594",
            "brand:wikipedia": "en:Eni",
            "compressed_air": "yes",
            "fuel:diesel": "yes",
            "fuel:octane_95": "yes",
            "fuel:octane_98": "yes",
            "name": "Eni",
            "payment:routex": "yes"
          },
          "geometry": {
            "type": "Point",
            "coordinates": [
              11.5993377,
              47.2919223
            ]
          }
        },
        {
          "type": "Feature",
          "properties": {
            "id": "12622904147",
            "osm_type": "node",
            "lat": 47.3454266,
            "lon": 11.8528332,
            "amenity": "fuel",
            "brand": "BP",
            "brand:wikidata": "Q152057",
            "brand:wikipedia": "en:BP",
            "contact:phone": "+43528862413",
            "fuel:GTL_diesel": "yes",
            "fuel:diesel": "yes",
            "fuel:octane_100": "yes",
            "fuel:octane_95": "yes",
            "name": "BP",
            "operator": "BP",
            "ref": "0722261040",
            "ref:vatin": "ATU62861718"
          },
          "geometry": {
            "type": "Point",
            "coordinates": [
              11.8528332,
              47.3454266
            ]
          }
        },
        {
          "type": "Feature",
          "properties": {
            "id": "988120326",
            "osm_type": "node",
            "lat": 47.2677997,
            "lon": 12.3375686,
            "amenity": "fuel",
            "brand": "OMV",
            "brand:wikidata": "Q168238",
            "brand:wikipedia": "en:OMV",
            "fuel:adblue": "yes",
            "name": "OMV",
            "opening_hours": "Mo-Su 06:00-22:00",
            "phone": "+43 6566 7013"
          },
          "geometry": {
            "type": "Point",
            "coordinates": [
              12.3375686,
              47.2677997
            ]
          }
        },
        {
          "type": "Feature",
          "properties": {
            "id": "1313136478",
            "osm_type": "node",
            "lat": 47.2518116,
            "lon": 12.2785354,
            "addr:city": "Neukirchen am Großvenediger",
            "addr:country": "AT",
            "addr:housenumber": "347",
            "addr:postcode": "5741",
            "addr:street": "Postfeld",
            "amenity": "fuel",
            "brand": "Turmöl",
            "brand:wikidata": "Q1473279",
            "brand:wikipedia": "de:Turmöl",
            "name": "Turmöl"
          },
          "geometry": {
            "type": "Point",
            "coordinates": [
              12.2785354,
              47.2518116
            ]
          }
        },
        {
          "type": "Feature",
          "properties": {
            "id": "8575522685",
            "osm_type": "node",
            "lat": 47.2286032,
            "lon": 12.0480219,
            "addr:city": "Gerlos",
            "addr:housenumber": "297",
            "addr:postcode": "6281",
            "addr:street": "Innertal",
            "amenity": "fuel",
            "fuel:diesel": "yes",
            "name": "TurboStopp",
            "opening_hours": "Mo-Su 08:00-19:00",
            "payment:app": "yes",
            "payment:credit_cards": "yes",
            "payment:debit_cards": "yes",
            "phone": "+43 5284 5378"
          },
          "geometry": {
            "type": "Point",
            "coordinates": [
              12.0480219,
              47.2286032
            ]
          }
        }
      ],
      "children": []
    },
    {
      "bbox": {
        "south": 47.033758500000005,
        "west": 12.392062499999998,
        "north": 47.36431175,
        "east": 13.345766
      },
      "poiCount": 19,
      "leafCount": 19,
      "averagePosition": [
        12.82087682631579,
        47.28424743157895
      ],
      "data": [
        {
          "type": "Feature",
          "properties": {
            "id": "1211242181",
            "osm_type": "node",
            "lat": 47.2851827,
            "lon": 12.4929571,
            "amenity": "fuel",
            "brand": "Turmöl",
            "brand:wikidata": "Q1473279",
            "brand:wikipedia": "de:Turmöl",
            "compressed_air": "yes",
            "name": "Turmöl"
          },
          "geometry": {
            "type": "Point",
            "coordinates": [
              12.4929571,
              47.2851827
            ]
          }
        },
        {
          "type": "Feature",
          "properties": {
            "id": "1211242184",
            "osm_type": "node",
            "lat": 47.2852355,
            "lon": 12.4913281,
            "amenity": "fuel",
            "brand": "Turmöl",
            "brand:wikidata": "Q1473279",
            "brand:wikipedia": "de:Turmöl",
            "name": "Turmöl"
          },
          "geometry": {
            "type": "Point",
            "coordinates": [
              12.4913281,
              47.2852355
            ]
          }
        },
        {
          "type": "Feature",
          "properties": {
            "id": "1211242187",
            "osm_type": "node",
            "lat": 47.2851094,
            "lon": 12.4947898,
            "addr:city": "Mittersill",
            "addr:country": "AT",
            "addr:housenumber": "38",
            "addr:postcode": "5730",
            "addr:street": "Zeller Straße",
            "amenity": "fuel",
            "at_bev:addr_date": "2017-10-01",
            "brand": "Eni",
            "brand:wikidata": "Q565594",
            "brand:wikipedia": "en:Eni",
            "name": "Eni"
          },
          "geometry": {
            "type": "Point",
            "coordinates": [
              12.4947898,
              47.2851094
            ]
          }
        },
        {
          "type": "Feature",
          "properties": {
            "id": "2960687219",
            "osm_type": "node",
            "lat": 47.2779314,
            "lon": 12.4532127,
            "amenity": "fuel",
            "name": "Koidl"
          },
          "geometry": {
            "type": "Point",
            "coordinates": [
              12.4532127,
              47.2779314
            ]
          }
        },
        {
          "type": "Feature",
          "properties": {
            "id": "26590967",
            "osm_type": "node",
            "lat": 47.276958,
            "lon": 12.7574069,
            "addr:city": "Kaprun",
            "addr:country": "AT",
            "addr:housenumber": "30",
            "addr:postcode": "5710",
            "addr:street": "Landesstraße",
            "amenity": "fuel",
            "compressed_air": "yes",
            "name": "Shell Tankstelle",
            "operator": "Kaufmann"
          },
          "geometry": {
            "type": "Point",
            "coordinates": [
              12.7574069,
              47.276958
            ]
          }
        },
        {
          "type": "Feature",
          "properties": {
            "id": "208387813",
            "osm_type": "node",
            "lat": 47.3594879,
            "lon": 12.799741,
            "amenity": "fuel",
            "brand": "Turmöl",
            "brand:wikidata": "Q1473279",
            "brand:wikipedia": "de:Turmöl",
            "name": "Turmöl"
          },
          "geometry": {
            "type": "Point",
            "coordinates": [
              12.799741,
              47.3594879
            ]
          }
        },
        {
          "type": "Feature",
          "properties": {
            "id": "288378147",
            "osm_type": "node",
            "lat": 47.2318018,
            "lon": 12.8252824,
            "amenity": "fuel",
            "compressed_air": "yes",
            "name": "LM Energy",
            "shop": "kiosk"
          },
          "geometry": {
            "type": "Point",
            "coordinates": [
              12.8252824,
              47.2318018
            ]
          }
        },
        {
          "type": "Feature",
          "properties": {
            "id": "316077200",
            "osm_type": "node",
            "lat": 47.3506212,
            "lon": 12.8004516,
            "addr:city": "Maishofen",
            "addr:country": "AT",
            "addr:housenumber": "29",
            "addr:postcode": "5751",
            "addr:street": "Zeller Straße",
            "amenity": "fuel",
            "brand": "BP",
            "brand:wikidata": "Q152057",
            "brand:wikipedia": "en:BP",
            "fuel:cng": "yes",
            "fuel:octane_95": "yes",
            "fuel:octane_98": "yes",
            "name": "BP",
            "opening_hours": "Mo-Su 06:00-24:00"
          },
          "geometry": {
            "type": "Point",
            "coordinates": [
              12.8004516,
              47.3506212
            ]
          }
        },
        {
          "type": "Feature",
          "properties": {
            "id": "1648466171",
            "osm_type": "node",
            "lat": 47.1912093,
            "lon": 12.9790651,
            "amenity": "fuel",
            "name": "Tankstelle Wörth",
            "payment:debit_cards": "yes"
          },
          "geometry": {
            "type": "Point",
            "coordinates": [
              12.9790651,
              47.1912093
            ]
          }
        },
        {
          "type": "Feature",
          "properties": {
            "id": "1937389663",
            "osm_type": "node",
            "lat": 47.2894128,
            "lon": 12.9053226,
            "amenity": "fuel",
            "brand": "Eni",
            "brand:wikidata": "Q565594",
            "brand:wikipedia": "en:Eni",
            "compressed_air": "yes",
            "name": "Eni",
            "wheelchair": "yes"
          },
          "geometry": {
            "type": "Point",
            "coordinates": [
              12.9053226,
              47.2894128
            ]
          }
        },
        {
          "type": "Feature",
          "properties": {
            "id": "1937389683",
            "osm_type": "node",
            "lat": 47.29651,
            "lon": 12.7960293,
            "addr:city": "Zell am See",
            "addr:country": "AT",
            "addr:housenumber": "57",
            "addr:postcode": "5700",
            "addr:street": "Brucker Bundesstraße",
            "amenity": "fuel",
            "brand": "Shell",
            "brand:wikidata": "Q110716465",
            "brand:wikipedia": "en:Royal Dutch Shell",
            "contact:phone": "+43 6542 53 858",
            "name": "Shell",
            "opening_hours": "Mo-Sa 06:00-22:00; Su 06:00-21:00",
            "website": "https://find.shell.com/at/fuel/10022832-zell-am-see-brucker-bundesstrasse"
          },
          "geometry": {
            "type": "Point",
            "coordinates": [
              12.7960293,
              47.29651
            ]
          }
        },
        {
          "type": "Feature",
          "properties": {
            "id": "1937389694",
            "osm_type": "node",
            "lat": 47.2979238,
            "lon": 12.7944978,
            "addr:city": "Zell am See",
            "addr:country": "AT",
            "addr:housenumber": "110",
            "addr:postcode": "5700",
            "addr:street": "Brucker Bundesstraße",
            "amenity": "fuel",
            "brand": "OMV",
            "brand:wikidata": "Q168238",
            "brand:wikipedia": "en:OMV",
            "contact:phone": "+43 6542 53 742",
            "name": "OMV",
            "opening_hours": "Mo-Su 06:00-22:00",
            "operator": "OMV"
          },
          "geometry": {
            "type": "Point",
            "coordinates": [
              12.7944978,
              47.2979238
            ]
          }
        },
        {
          "type": "Feature",
          "properties": {
            "id": "1937389699",
            "osm_type": "node",
            "lat": 47.2831814,
            "lon": 12.6238765,
            "amenity": "fuel",
            "brand": "Eni",
            "brand:wikidata": "Q565594",
            "brand:wikipedia": "en:Eni",
            "compressed_air": "yes",
            "name": "Eni"
          },
          "geometry": {
            "type": "Point",
            "coordinates": [
              12.6238765,
              47.2831814
            ]
          }
        },
        {
          "type": "Feature",
          "properties": {
            "id": "2074545675",
            "osm_type": "node",
            "lat": 47.3255952,
            "lon": 12.7963707,
            "amenity": "fuel",
            "brand": "Jet",
            "brand:wikidata": "Q568940",
            "brand:wikipedia": "en:Jet (brand)",
            "compressed_air": "yes",
            "name": "Jet",
            "opening_hours": "Mo-Su 06:00-23:30",
            "phone": "+43 654273225",
            "website": "https://www.jet-tankstellen.at/"
          },
          "geometry": {
            "type": "Point",
            "coordinates": [
              12.7963707,
              47.3255952
            ]
          }
        },
        {
          "type": "Feature",
          "properties": {
            "id": "10560355071",
            "osm_type": "node",
            "lat": 47.2874037,
            "lon": 12.8089586,
            "amenity": "fuel"
          },
          "geometry": {
            "type": "Point",
            "coordinates": [
              12.8089586,
              47.2874037
            ]
          }
        },
        {
          "type": "Feature",
          "properties": {
            "id": "255160618",
            "osm_type": "node",
            "lat": 47.3364557,
            "lon": 13.3026604,
            "addr:city": "Wagrain",
            "addr:housenumber": "130",
            "addr:postcode": "5602",
            "addr:street": "Markt",
            "amenity": "fuel",
            "brand": "BP",
            "brand:wikidata": "Q152057",
            "name": "BP",
            "opening_hours": "Mo-Sa 06:00-20:00; Su 07:00-20:00",
            "phone": "+4364138289",
            "website": "https://map.bp.com/de-AT/AT/tankstelle/wagrain/wagrain-markt-130/819646853"
          },
          "geometry": {
            "type": "Point",
            "coordinates": [
              13.3026604,
              47.3364557
            ]
          }
        },
        {
          "type": "Feature",
          "properties": {
            "id": "1139492567",
            "osm_type": "node",
            "lat": 47.2404095,
            "lon": 13.2000284,
            "addr:city": "Großarl",
            "addr:housenumber": "171",
            "addr:postcode": "5611",
            "addr:street": "Marktstraße",
            "amenity": "fuel",
            "brand": "Eni",
            "brand:wikidata": "Q565594",
            "fuel:diesel": "yes",
            "fuel:octane_95": "yes",
            "fuel:octane_98": "yes",
            "name": "Eni",
            "payment:cash": "yes",
            "payment:dkv": "yes",
            "payment:maestro": "yes",
            "payment:mastercard": "yes",
            "payment:uta": "yes",
            "payment:visa": "yes",
            "self_service": "yes"
          },
          "geometry": {
            "type": "Point",
            "coordinates": [
              13.2000284,
              47.2404095
            ]
          }
        },
        {
          "type": "Feature",
          "properties": {
            "id": "10982782194",
            "osm_type": "node",
            "lat": 47.176829,
            "lon": 13.1011091,
            "amenity": "fuel",
            "brand": "Eni",
            "brand:wikidata": "Q565594",
            "brand:wikipedia": "en:Eni",
            "name": "eni",
            "source": "geoimage.at"
          },
          "geometry": {
            "type": "Point",
            "coordinates": [
              13.1011091,
              47.176829
            ]
          }
        },
        {
          "type": "Feature",
          "properties": {
            "id": "12231559256",
            "osm_type": "node",
            "lat": 47.3234429,
            "lon": 13.1735716,
            "amenity": "fuel",
            "compressed_air": "no",
            "name": "M3 Energy",
            "opening_hours": "24/7",
            "payment:cards": "yes",
            "payment:cash": "no",
            "payment:contactless": "yes",
            "payment:credit_cards": "yes",
            "payment:debit_cards": "yes",
            "self_service": "yes"
          },
          "geometry": {
            "type": "Point",
            "coordinates": [
              13.1735716,
              47.3234429
            ]
          }
        }
      ],
      "children": []
    },
    {
      "bbox": {
        "south": 47.36431175,
        "west": 11.438358999999998,
        "north": 47.694865,
        "east": 12.392062499999998
      },
      "poiCount": 63,
      "leafCount": 0,
      "averagePosition": [
        12.079528133333334,
        47.53289152539682
      ],
      "data": [],
      "children": [
        {
          "bbox": {
            "south": 47.36431175,
            "west": 11.438358999999998,
            "north": 47.529588375,
            "east": 11.915210749999998
          },
          "poiCount": 7,
          "leafCount": 7,
          "averagePosition": [
            11.778717728571428,
            47.44508342857143
          ],
          "data": [
            {
              "type": "Feature",
              "properties": {
                "id": "596084526",
                "osm_type": "node",
                "lat": 47.3830781,
                "lon": 11.7721219,
                "addr:city": "Buch in Tirol",
                "addr:housenumber": "151b",
                "addr:postcode": "6220",
                "addr:street": "Sankt Margarethen",
                "amenity": "fuel",
                "brand": "BP",
                "brand:wikidata": "Q152057",
                "car_wash": "no",
                "fuel:diesel": "yes",
                "fuel:octane_95": "yes",
                "name": "BP Express",
                "opening_hours": "24/7",
                "operator": "Troppacher",
                "payment:maestro": "yes",
                "payment:mastercard": "yes",
                "payment:visa": "yes",
                "self_service": "yes"
              },
              "geometry": {
                "type": "Point",
                "coordinates": [
                  11.7721219,
                  47.3830781
                ]
              }
            },
            {
              "type": "Feature",
              "properties": {
                "id": "1686042585",
                "osm_type": "node",
                "lat": 47.44794,
                "lon": 11.8835312,
                "amenity": "fuel",
                "compressed_air": "yes",
                "description": "self service",
                "name": "Duftner"
              },
              "geometry": {
                "type": "Point",
                "coordinates": [
                  11.8835312,
                  47.44794
                ]
              }
            },
            {
              "type": "Feature",
              "properties": {
                "id": "5252865758",
                "osm_type": "node",
                "lat": 47.4033233,
                "lon": 11.8029273,
                "addr:city": "Wiesing",
                "addr:housenumber": "23d",
                "addr:place": "Dorf",
                "addr:postcode": "6210",
                "amenity": "fuel",
                "brand": "Eni",
                "brand:wikidata": "Q565594",
                "brand:wikipedia": "en:Eni",
                "building": "yes",
                "compressed_air": "yes",
                "fuel:GTL_diesel": "yes",
                "fuel:cng": "yes",
                "fuel:diesel": "yes",
                "fuel:diesel_tech": "yes",
                "fuel:octane_91": "yes",
                "fuel:octane_95": "yes",
                "fuel:octane_98": "yes",
                "internet_access": "wlan",
                "name": "Eni",
                "name:ru": "Заправка",
                "opening_hours": "Mo-Su 06:00-23:00",
                "payment:dkv": "yes",
                "payment:uta": "yes"
              },
              "geometry": {
                "type": "Point",
                "coordinates": [
                  11.8029273,
                  47.4033233
                ]
              }
            },
            {
              "type": "Feature",
              "properties": {
                "id": "9051815313",
                "osm_type": "node",
                "lat": 47.5160939,
                "lon": 11.708474,
                "access": "private",
                "amenity": "fuel",
                "compressed_air": "no",
                "fuel:diesel": "yes",
                "name": "Egger"
              },
              "geometry": {
                "type": "Point",
                "coordinates": [
                  11.708474,
                  47.5160939
                ]
              }
            },
            {
              "type": "Feature",
              "properties": {
                "id": "9106297522",
                "osm_type": "node",
                "lat": 47.528982,
                "lon": 11.7079423,
                "addr:city": "Achenkirch",
                "addr:country": "AT",
                "addr:housenumber": "385a",
                "addr:postcode": "6215",
                "addr:street": "Achenseestraße",
                "amenity": "fuel",
                "brand": "OMV",
                "brand:wikidata": "Q168238",
                "brand:wikipedia": "en:OMV",
                "compressed_air": "yes",
                "fuel:diesel": "yes",
                "fuel:octane_100": "yes",
                "fuel:octane_95": "yes",
                "fuel:super": "yes",
                "name": "OMV",
                "opening_hours": "Mo-Su 07:00-21:00",
                "operator": "OMV",
                "phone": "+43 52 466441",
                "wheelchair": "yes"
              },
              "geometry": {
                "type": "Point",
                "coordinates": [
                  11.7079423,
                  47.528982
                ]
              }
            },
            {
              "type": "Feature",
              "properties": {
                "id": "9107486378",
                "osm_type": "node",
                "lat": 47.4331021,
                "lon": 11.7355805,
                "addr:city": "Eben am Achensee",
                "addr:country": "AT",
                "addr:housenumber": "70",
                "addr:postcode": "6212",
                "addr:street": "Achenseestraße",
                "amenity": "fuel",
                "brand": "Eni",
                "brand:wikidata": "Q565594",
                "brand:wikipedia": "en:Eni",
                "car_wash": "yes",
                "fuel:diesel": "yes",
                "fuel:octane_95": "yes",
                "fuel:octane_98": "yes",
                "name": "Eni",
                "operator": "Gutman"
              },
              "geometry": {
                "type": "Point",
                "coordinates": [
                  11.7355805,
                  47.4331021
                ]
              }
            },
            {
              "type": "Feature",
              "properties": {
                "id": "10207441644",
                "osm_type": "node",
                "lat": 47.4030646,
                "lon": 11.8404469,
                "amenity": "fuel",
                "name": "Tankstelle Rahm"
              },
              "geometry": {
                "type": "Point",
                "coordinates": [
                  11.8404469,
                  47.4030646
                ]
              }
            }
          ],
          "children": []
        },
        {
          "bbox": {
            "south": 47.36431175,
            "west": 11.915210749999998,
            "north": 47.529588375,
            "east": 12.392062499999998
          },
          "poiCount": 30,
          "leafCount": 30,
          "averagePosition": [
            12.144885463333333,
            47.48086781666667
          ],
          "data": [
            {
              "type": "Feature",
              "properties": {
                "id": "94593350",
                "osm_type": "node",
                "lat": 47.4832541,
                "lon": 12.0289472,
                "amenity": "fuel",
                "brand": "Shell",
                "brand:wikidata": "Q110716465",
                "hgv": "designated",
                "name": "Shell",
                "opening_hours": "24/7"
              },
              "geometry": {
                "type": "Point",
                "coordinates": [
                  12.0289472,
                  47.4832541
                ]
              }
            },
            {
              "type": "Feature",
              "properties": {
                "id": "313793076",
                "osm_type": "node",
                "lat": 47.4670397,
                "lon": 11.9899621,
                "amenity": "fuel",
                "brand": "BP",
                "brand:wikidata": "Q152057",
                "brand:wikipedia": "en:BP",
                "name": "BP",
                "opening_hours": "Mo-Fr 07:00-20:00; Sa,Su,PH 08:00-20:00"
              },
              "geometry": {
                "type": "Point",
                "coordinates": [
                  11.9899621,
                  47.4670397
                ]
              }
            },
            {
              "type": "Feature",
              "properties": {
                "id": "380924342",
                "osm_type": "node",
                "lat": 47.4555052,
                "lon": 11.9568644,
                "amenity": "fuel",
                "brand": "Grenztank",
                "operator": "Augustin Quehenberger Group"
              },
              "geometry": {
                "type": "Point",
                "coordinates": [
                  11.9568644,
                  47.4555052
                ]
              }
            },
            {
              "type": "Feature",
              "properties": {
                "id": "725895687",
                "osm_type": "node",
                "lat": 47.3964399,
                "lon": 11.9223503,
                "amenity": "fuel",
                "brand": "Shell",
                "compressed_air": "yes",
                "fuel:diesel": "yes",
                "fuel:octane_100": "yes",
                "fuel:octane_91": "yes",
                "fuel:octane_95": "yes",
                "operator": "Shell"
              },
              "geometry": {
                "type": "Point",
                "coordinates": [
                  11.9223503,
                  47.3964399
                ]
              }
            },
            {
              "type": "Feature",
              "properties": {
                "id": "730674160",
                "osm_type": "node",
                "lat": 47.4760111,
                "lon": 12.0188246,
                "addr:city": "Kundl",
                "addr:country": "AT",
                "addr:housenumber": "32",
                "addr:postcode": "6250",
                "addr:street": "Luna",
                "amenity": "fuel",
                "fuel:HGV_diesel": "yes",
                "fuel:adblue": "yes",
                "fuel:biodiesel": "yes",
                "fuel:diesel": "yes",
                "fuel:e10": "no",
                "fuel:lpg": "no",
                "fuel:octane_100": "no",
                "fuel:octane_91": "no",
                "fuel:octane_95": "no",
                "fuel:octane_98": "no",
                "name": "Unterer Tankstelle",
                "opening_hours": "24/7",
                "operator": "Unterer Tank und Service GmbH",
                "payment:fuel_cards": "M-OIL",
                "website": "https://www.unterer-tankstelle.at/"
              },
              "geometry": {
                "type": "Point",
                "coordinates": [
                  12.0188246,
                  47.4760111
                ]
              }
            },
            {
              "type": "Feature",
              "properties": {
                "id": "27260497",
                "osm_type": "node",
                "lat": 47.444833,
                "lon": 12.2335576,
                "amenity": "fuel",
                "compressed_air": "yes",
                "name": "BP"
              },
              "geometry": {
                "type": "Point",
                "coordinates": [
                  12.2335576,
                  47.444833
                ]
              }
            },
            {
              "type": "Feature",
              "properties": {
                "id": "27288970",
                "osm_type": "node",
                "lat": 47.5019449,
                "lon": 12.0835275,
                "amenity": "fuel",
                "compressed_air": "yes",
                "fuel:1_25": "yes",
                "fuel:1_50": "yes",
                "fuel:GTL_diesel": "no",
                "fuel:HGV_diesel": "no",
                "fuel:diesel": "yes",
                "fuel:octane_95": "yes",
                "fuel:octane_98": "yes",
                "name": "Gutmann"
              },
              "geometry": {
                "type": "Point",
                "coordinates": [
                  12.0835275,
                  47.5019449
                ]
              }
            },
            {
              "type": "Feature",
              "properties": {
                "id": "94600508",
                "osm_type": "node",
                "lat": 47.5063898,
                "lon": 12.0659231,
                "alt_name": "Diskont Tankstelle",
                "amenity": "fuel",
                "fuel:1_25": "yes",
                "fuel:1_50": "yes",
                "fuel:GTL_diesel": "no",
                "fuel:HGV_diesel": "no",
                "fuel:diesel": "yes",
                "fuel:octane_95": "yes",
                "fuel:octane_98": "yes",
                "name": "disk",
                "name:en": "Disk",
                "opening_hours": "24/7",
                "operator": "Gutmann",
                "website": "https://www.gutmann.cc/"
              },
              "geometry": {
                "type": "Point",
                "coordinates": [
                  12.0659231,
                  47.5063898
                ]
              }
            },
            {
              "type": "Feature",
              "properties": {
                "id": "248086090",
                "osm_type": "node",
                "lat": 47.4902615,
                "lon": 12.0736093,
                "addr:city": "Wörgl",
                "addr:country": "AT",
                "addr:housenumber": "55",
                "addr:postcode": "6300",
                "addr:street": "Salzburger Straße",
                "amenity": "fuel",
                "at_bev:addr_date": "2017-10-01",
                "brand": "OMV",
                "brand:wikidata": "Q168238",
                "compressed_air": "yes",
                "fuel:diesel": "yes",
                "fuel:octane_100": "yes",
                "fuel:octane_91": "yes",
                "fuel:octane_95": "yes",
                "name": "OMV",
                "opening_hours": "24/7",
                "operator": "OMV",
                "wheelchair": "yes"
              },
              "geometry": {
                "type": "Point",
                "coordinates": [
                  12.0736093,
                  47.4902615
                ]
              }
            },
            {
              "type": "Feature",
              "properties": {
                "id": "248089929",
                "osm_type": "node",
                "lat": 47.4826982,
                "lon": 12.058765,
                "addr:city": "Wörgl",
                "addr:housenumber": "36",
                "addr:postcode": "6300",
                "addr:street": "Innsbrucker Straße",
                "amenity": "fuel",
                "brand": "Eni",
                "brand:wikidata": "Q565594",
                "car_wash": "yes",
                "compressed_air": "yes",
                "fuel:cng": "yes",
                "fuel:diesel": "yes",
                "fuel:octane_91": "yes",
                "fuel:octane_95": "yes",
                "fuel:octane_98": "yes",
                "name": "Eni",
                "opening_hours": "06:00-22:00",
                "operator": "Eni",
                "phone": "+43 5332 73910"
              },
              "geometry": {
                "type": "Point",
                "coordinates": [
                  12.058765,
                  47.4826982
                ]
              }
            },
            {
              "type": "Feature",
              "properties": {
                "id": "248089937",
                "osm_type": "node",
                "lat": 47.4816632,
                "lon": 12.0568017,
                "amenity": "fuel",
                "brand": "JET",
                "brand:wikidata": "Q568940",
                "brand:wikipedia": "en:Jet (brand)",
                "fuel:diesel": "yes",
                "fuel:octane_91": "yes",
                "fuel:octane_95": "yes",
                "fuel:octane_98": "yes",
                "name": "Jet",
                "opening_hours": "Mo-Sa 06:00-24:00; Su 07:00-24:00",
                "operator": "Jet",
                "phone": "+43 533270488",
                "website": "https://www.jet-tankstellen.at/"
              },
              "geometry": {
                "type": "Point",
                "coordinates": [
                  12.0568017,
                  47.4816632
                ]
              }
            },
            {
              "type": "Feature",
              "properties": {
                "id": "248158552",
                "osm_type": "node",
                "lat": 47.5179979,
                "lon": 12.0669701,
                "amenity": "fuel",
                "brand": "BP",
                "brand:wikidata": "Q152057",
                "brand:wikipedia": "en:BP",
                "check_date": "2025-07-03",
                "check_date:compressed_air": "2025-07-03",
                "check_date:opening_hours": "2025-07-03",
                "compressed_air": "no",
                "fuel:diesel": "yes",
                "name": "BP Angath/Süd",
                "opening_hours": "Mo-Su,PH 00:00-23:59",
                "operator": "BP"
              },
              "geometry": {
                "type": "Point",
                "coordinates": [
                  12.0669701,
                  47.5179979
                ]
              }
            },
            {
              "type": "Feature",
              "properties": {
                "id": "290797195",
                "osm_type": "node",
                "lat": 47.4531474,
                "lon": 12.1515976,
                "amenity": "fuel",
                "compressed_air": "no",
                "name": "OMV",
                "wheelchair": "limited"
              },
              "geometry": {
                "type": "Point",
                "coordinates": [
                  12.1515976,
                  47.4531474
                ]
              }
            },
            {
              "type": "Feature",
              "properties": {
                "id": "422044982",
                "osm_type": "node",
                "lat": 47.4393589,
                "lon": 12.04271,
                "amenity": "fuel",
                "brand": "Eni",
                "brand:wikidata": "Q565594",
                "brand:wikipedia": "en:Eni",
                "compressed_air": "yes",
                "name": "ENI"
              },
              "geometry": {
                "type": "Point",
                "coordinates": [
                  12.04271,
                  47.4393589
                ]
              }
            },
            {
              "type": "Feature",
              "properties": {
                "id": "454332354",
                "osm_type": "node",
                "lat": 47.4500988,
                "lon": 12.3910485,
                "amenity": "fuel",
                "brand": "JET",
                "brand:wikidata": "Q568940",
                "brand:wikipedia": "en:Jet (brand)",
                "compressed_air": "yes",
                "name": "Jet",
                "opening_hours": "Mo-Su 06:00-24:00",
                "phone": "+43 535665882",
                "website": "https://www.jet-tankstellen.at/"
              },
              "geometry": {
                "type": "Point",
                "coordinates": [
                  12.3910485,
                  47.4500988
                ]
              }
            },
            {
              "type": "Feature",
              "properties": {
                "id": "667028204",
                "osm_type": "node",
                "lat": 47.4900168,
                "lon": 12.072709,
                "addr:city": "Wörgl",
                "addr:country": "AT",
                "addr:housenumber": "48",
                "addr:postcode": "6300",
                "addr:street": "Salzburger Straße",
                "amenity": "fuel",
                "brand": "Avanti",
                "brand:wikidata": "Q124350461",
                "brand:wikipedia": "en:OMV",
                "compressed_air": "no",
                "contact:phone": "+43 800 202055",
                "fuel:diesel": "yes",
                "fuel:octane_95": "yes",
                "name": "Avanti",
                "opening_hours": "24/7",
                "operator": "Avanti"
              },
              "geometry": {
                "type": "Point",
                "coordinates": [
                  12.072709,
                  47.4900168
                ]
              }
            },
            {
              "type": "Feature",
              "properties": {
                "id": "799678868",
                "osm_type": "node",
                "lat": 47.4962683,
                "lon": 12.3887086,
                "addr:city": "Oberndorf in Tirol",
                "addr:country": "AT",
                "addr:housename": "Tankstelle, ENI Gutmann",
                "addr:housenumber": "11a",
                "addr:postcode": "6372",
                "addr:street": "Bahnhofstraße",
                "amenity": "fuel",
                "brand": "Eni",
                "brand:wikidata": "Q565594",
                "brand:wikipedia": "en:Eni",
                "compressed_air": "yes",
                "fuel:cng": "yes",
                "name": "ENI Gutmann",
                "operator": "Esso"
              },
              "geometry": {
                "type": "Point",
                "coordinates": [
                  12.3887086,
                  47.4962683
                ]
              }
            },
            {
              "type": "Feature",
              "properties": {
                "id": "807784725",
                "osm_type": "node",
                "lat": 47.5210029,
                "lon": 12.2509857,
                "amenity": "fuel",
                "brand": "Eni",
                "brand:wikidata": "Q565594",
                "brand:wikipedia": "en:Eni",
                "fuel:diesel": "yes",
                "fuel:octane_91": "yes",
                "fuel:octane_95": "yes",
                "fuel:octane_98": "yes",
                "name": "eni-Tankstelle Blaiken",
                "opening_hours": "24/7",
                "operator": "eni Tankstelle",
                "phone": "+43 5358 8464",
                "website": "https://www.eni.com/de_AT/"
              },
              "geometry": {
                "type": "Point",
                "coordinates": [
                  12.2509857,
                  47.5210029
                ]
              }
            },
            {
              "type": "Feature",
              "properties": {
                "id": "937458604",
                "osm_type": "node",
                "lat": 47.5213159,
                "lon": 12.2689257,
                "amenity": "fuel",
                "brand": "OMV",
                "brand:wikidata": "Q168238",
                "name": "OMV",
                "opening_hours": "Mo-Su 05:00-24:00",
                "phone": "+43 5358 3661",
                "website": "https://www.omv.at/"
              },
              "geometry": {
                "type": "Point",
                "coordinates": [
                  12.2689257,
                  47.5213159
                ]
              }
            },
            {
              "type": "Feature",
              "properties": {
                "id": "937458607",
                "osm_type": "node",
                "lat": 47.458225,
                "lon": 12.3865677,
                "amenity": "fuel",
                "brand": "BP",
                "brand:wikidata": "Q152057",
                "brand:wikipedia": "en:BP",
                "compressed_air": "yes",
                "fuel:diesel": "yes",
                "fuel:octane_95": "yes",
                "name": "BP"
              },
              "geometry": {
                "type": "Point",
                "coordinates": [
                  12.3865677,
                  47.458225
                ]
              }
            },
            {
              "type": "Feature",
              "properties": {
                "id": "937458609",
                "osm_type": "node",
                "lat": 47.4561081,
                "lon": 12.3863837,
                "amenity": "fuel",
                "brand": "OMV",
                "brand:wikidata": "Q168238",
                "brand:wikipedia": "en:OMV",
                "check_date": "2024-11-02",
                "compressed_air": "yes",
                "name": "OMV"
              },
              "geometry": {
                "type": "Point",
                "coordinates": [
                  12.3863837,
                  47.4561081
                ]
              }
            },
            {
              "type": "Feature",
              "properties": {
                "id": "1461556142",
                "osm_type": "node",
                "lat": 47.5196576,
                "lon": 12.0659365,
                "amenity": "fuel",
                "brand": "OMV",
                "brand:wikidata": "Q168238",
                "brand:wikipedia": "en:OMV",
                "check_date": "2023-10-17",
                "contact:phone": "+43533274373",
                "name": "OMV",
                "opening_hours": "24/7",
                "operator": "Karakus Barbara",
                "ref": "5550",
                "ref:vatin": "ATU62902256",
                "shop": "yes"
              },
              "geometry": {
                "type": "Point",
                "coordinates": [
                  12.0659365,
                  47.5196576
                ]
              }
            },
            {
              "type": "Feature",
              "properties": {
                "id": "1594519071",
                "osm_type": "node",
                "lat": 47.516996,
                "lon": 12.1969778,
                "amenity": "fuel",
                "fuel:adblue": "yes",
                "fuel:diesel": "yes",
                "fuel:octane_95": "yes",
                "fuel:octane_98": "yes",
                "name": "Freie Tankstelle Haselsberger"
              },
              "geometry": {
                "type": "Point",
                "coordinates": [
                  12.1969778,
                  47.516996
                ]
              }
            },
            {
              "type": "Feature",
              "properties": {
                "id": "1894949660",
                "osm_type": "node",
                "lat": 47.4776613,
                "lon": 12.0454346,
                "addr:city": "Wörgl",
                "addr:country": "AT",
                "addr:housenumber": "104",
                "addr:postcode": "6300",
                "addr:street": "Innsbrucker Straße",
                "amenity": "fuel",
                "brand": "OMV",
                "brand:wikidata": "Q168238",
                "fuel:diesel": "yes",
                "fuel:octane_91": "yes",
                "fuel:octane_95": "yes",
                "fuel:octane_98": "yes",
                "name": "OMV",
                "opening_hours": "24/7",
                "operator": "OMV"
              },
              "geometry": {
                "type": "Point",
                "coordinates": [
                  12.0454346,
                  47.4776613
                ]
              }
            },
            {
              "type": "Feature",
              "properties": {
                "id": "2245170692",
                "osm_type": "node",
                "lat": 47.4817871,
                "lon": 12.1468636,
                "addr:city": "Itter",
                "addr:country": "AT",
                "addr:housenumber": "19",
                "addr:postcode": "6305",
                "addr:street": "Mühltal",
                "amenity": "fuel",
                "brand": "Eni",
                "brand:wikidata": "Q565594",
                "brand:wikipedia": "en:Eni",
                "compressed_air": "yes",
                "contact:phone": "+43 5332/23398",
                "fuel:adblue": "yes",
                "fuel:diesel": "yes",
                "fuel:octane_91": "yes",
                "fuel:octane_95": "yes",
                "fuel:octane_98": "yes",
                "name": "Eni",
                "opening_hours": "Mo-Su 06:00-22:00",
                "payment:routex": "yes"
              },
              "geometry": {
                "type": "Point",
                "coordinates": [
                  12.1468636,
                  47.4817871
                ]
              }
            },
            {
              "type": "Feature",
              "properties": {
                "id": "3542210937",
                "osm_type": "node",
                "lat": 47.4852855,
                "lon": 12.0397384,
                "addr:city": "Wörgl",
                "addr:country": "AT",
                "addr:housenumber": "13a",
                "addr:postcode": "6300",
                "addr:street": "Gewerbepark",
                "amenity": "fuel",
                "hgv": "yes",
                "name": "IDS - International Diesel Service",
                "website": "https://www.ids.q8.com/"
              },
              "geometry": {
                "type": "Point",
                "coordinates": [
                  12.0397384,
                  47.4852855
                ]
              }
            },
            {
              "type": "Feature",
              "properties": {
                "id": "8569125402",
                "osm_type": "node",
                "lat": 47.4487733,
                "lon": 12.3242163,
                "amenity": "fuel",
                "brand": "Shell",
                "brand:wikidata": "Q154950",
                "brand:wikipedia": "en:Royal Dutch Shell",
                "compressed_air": "yes",
                "name": "Shell",
                "opening_hours": "Mo-Su,PH 06:00-22:00",
                "toilets": "yes",
                "toilets:access": "customers"
              },
              "geometry": {
                "type": "Point",
                "coordinates": [
                  12.3242163,
                  47.4487733
                ]
              }
            },
            {
              "type": "Feature",
              "properties": {
                "id": "9141531992",
                "osm_type": "node",
                "lat": 47.5182039,
                "lon": 12.0674333,
                "amenity": "fuel",
                "brand": "BP",
                "brand:wikidata": "Q152057",
                "brand:wikipedia": "en:BP",
                "check_date": "2025-07-03",
                "check_date:compressed_air": "2025-07-03",
                "check_date:opening_hours": "2025-07-03",
                "compressed_air": "no",
                "fuel:HGV_diesel": "yes",
                "name": "BP Angath/Süd (LKW)",
                "opening_hours": "Mo-Su,PH 00:00-23:59",
                "operator": "BP"
              },
              "geometry": {
                "type": "Point",
                "coordinates": [
                  12.0674333,
                  47.5182039
                ]
              }
            },
            {
              "type": "Feature",
              "properties": {
                "id": "9547576001",
                "osm_type": "node",
                "lat": 47.488731,
                "lon": 12.3758465,
                "amenity": "fuel",
                "fuel:HGV_diesel": "yes",
                "fuel:adblue": "yes",
                "fuel:diesel": "yes",
                "name": "HWK",
                "payment:cash": "no",
                "payment:coins": "no",
                "payment:mastercard": "yes",
                "payment:visa": "yes",
                "website": "https://www.hwk.at/de/dieseltankstelle.html"
              },
              "geometry": {
                "type": "Point",
                "coordinates": [
                  12.3758465,
                  47.488731
                ]
              }
            },
            {
              "type": "Feature",
              "properties": {
                "id": "12167449315",
                "osm_type": "node",
                "lat": 47.4993582,
                "lon": 12.1883775,
                "amenity": "fuel",
                "brand": "BP",
                "brand:wikidata": "Q152057",
                "brand:wikipedia": "en:BP",
                "name": "BP"
              },
              "geometry": {
                "type": "Point",
                "coordinates": [
                  12.1883775,
                  47.4993582
                ]
              }
            }
          ],
          "children": []
        },
        {
          "bbox": {
            "south": 47.529588375,
            "west": 11.438358999999998,
            "north": 47.694865,
            "east": 11.915210749999998
          },
          "poiCount": 5,
          "leafCount": 5,
          "averagePosition": [
            11.69119886,
            47.68560212
          ],
          "data": [
            {
              "type": "Feature",
              "properties": {
                "id": "30040118",
                "osm_type": "node",
                "lat": 47.6943528,
                "lon": 11.7726387,
                "amenity": "fuel",
                "brand": "Agip",
                "brand:wikidata": "Q377915",
                "brand:wikipedia": "en:Agip",
                "car_wash": "yes",
                "compressed_air": "yes",
                "fuel:diesel": "yes",
                "fuel:octane_91": "yes",
                "fuel:octane_95": "yes",
                "fuel:octane_98": "yes",
                "name": "Agip",
                "wheelchair": "yes"
              },
              "geometry": {
                "type": "Point",
                "coordinates": [
                  11.7726387,
                  47.6943528
                ]
              }
            },
            {
              "type": "Feature",
              "properties": {
                "id": "347602855",
                "osm_type": "node",
                "lat": 47.6890539,
                "lon": 11.7689206,
                "addr:city": "Rottach-Egern",
                "amenity": "fuel",
                "brand": "HEM",
                "brand:wikidata": "Q109930239",
                "compressed_air": "yes",
                "fuel:diesel": "yes",
                "fuel:e10": "yes",
                "fuel:super": "yes",
                "name": "HEM",
                "vacuum_cleaner": "yes"
              },
              "geometry": {
                "type": "Point",
                "coordinates": [
                  11.7689206,
                  47.6890539
                ]
              }
            },
            {
              "type": "Feature",
              "properties": {
                "id": "347602858",
                "osm_type": "node",
                "lat": 47.6892283,
                "lon": 11.767139,
                "addr:city": "Rottach-Egern",
                "addr:country": "DE",
                "addr:housenumber": "16",
                "addr:postcode": "83700",
                "addr:street": "Südliche Hauptstraße",
                "amenity": "fuel",
                "brand": "Esso",
                "brand:wikidata": "Q867662",
                "car_repair": "yes",
                "fuel:diesel": "yes",
                "fuel:octane_91": "yes",
                "fuel:octane_95": "yes",
                "fuel:octane_98": "yes",
                "name": "Esso",
                "service": "carwash"
              },
              "geometry": {
                "type": "Point",
                "coordinates": [
                  11.767139,
                  47.6892283
                ]
              }
            },
            {
              "type": "Feature",
              "properties": {
                "id": "11034537042",
                "osm_type": "node",
                "lat": 47.6776218,
                "lon": 11.5736578,
                "access": "private",
                "amenity": "fuel",
                "fuel:adblue": "yes"
              },
              "geometry": {
                "type": "Point",
                "coordinates": [
                  11.5736578,
                  47.6776218
                ]
              }
            },
            {
              "type": "Feature",
              "properties": {
                "id": "11034537043",
                "osm_type": "node",
                "lat": 47.6777538,
                "lon": 11.5736382,
                "access": "private",
                "amenity": "fuel",
                "fuel:adblue": "yes"
              },
              "geometry": {
                "type": "Point",
                "coordinates": [
                  11.5736382,
                  47.6777538
                ]
              }
            }
          ],
          "children": []
        },
        {
          "bbox": {
            "south": 47.529588375,
            "west": 11.915210749999998,
            "north": 47.694865,
            "east": 12.392062499999998
          },
          "poiCount": 21,
          "leafCount": 21,
          "averagePosition": [
            12.178890004761904,
            47.60012080952381
          ],
          "data": [
            {
              "type": "Feature",
              "properties": {
                "id": "34032566",
                "osm_type": "node",
                "lat": 47.6100551,
                "lon": 12.2007483,
                "amenity": "fuel",
                "brand": "Agip",
                "brand:wikidata": "Q377915",
                "brand:wikipedia": "en:Agip",
                "fuel:HGV_diesel": "yes",
                "fuel:adblue": "yes",
                "fuel:diesel": "yes",
                "fuel:e10": "yes",
                "fuel:octane_95": "yes",
                "fuel:octane_98": "yes",
                "name": "Agip",
                "opening_hours": "24/7",
                "operator": "Agip",
                "shop": "convenience"
              },
              "geometry": {
                "type": "Point",
                "coordinates": [
                  12.2007483,
                  47.6100551
                ]
              }
            },
            {
              "type": "Feature",
              "properties": {
                "id": "146410382",
                "osm_type": "node",
                "lat": 47.6334047,
                "lon": 12.2145217,
                "amenity": "fuel",
                "brand": "Eni",
                "brand:wikidata": "Q565594",
                "brand:wikipedia": "en:Eni",
                "name": "Eni",
                "operator": "Eni Austria GmbH",
                "phone": "+43 5373 42384"
              },
              "geometry": {
                "type": "Point",
                "coordinates": [
                  12.2145217,
                  47.6334047
                ]
              }
            },
            {
              "type": "Feature",
              "properties": {
                "id": "253854774",
                "osm_type": "node",
                "lat": 47.5665172,
                "lon": 12.1564549,
                "amenity": "fuel",
                "name": "Eni",
                "wheelchair": "yes"
              },
              "geometry": {
                "type": "Point",
                "coordinates": [
                  12.1564549,
                  47.5665172
                ]
              }
            },
            {
              "type": "Feature",
              "properties": {
                "id": "282832371",
                "osm_type": "node",
                "lat": 47.6669229,
                "lon": 12.1697052,
                "addr:city": "Oberaudorf",
                "addr:country": "DE",
                "addr:housenumber": "116",
                "addr:postcode": "83080",
                "addr:street": "Rosenheimer Straße",
                "amenity": "fuel",
                "brand": "Total",
                "brand:wikidata": "Q154037",
                "name": "Total",
                "phone": "+49 8033 1501"
              },
              "geometry": {
                "type": "Point",
                "coordinates": [
                  12.1697052,
                  47.6669229
                ]
              }
            },
            {
              "type": "Feature",
              "properties": {
                "id": "300544379",
                "osm_type": "node",
                "lat": 47.5660388,
                "lon": 12.1554402,
                "alt_name": "Autohof Kufstein",
                "amenity": "fuel",
                "name": "AP-Kufstein",
                "wheelchair": "yes"
              },
              "geometry": {
                "type": "Point",
                "coordinates": [
                  12.1554402,
                  47.5660388
                ]
              }
            },
            {
              "type": "Feature",
              "properties": {
                "id": "357999663",
                "osm_type": "node",
                "lat": 47.5891657,
                "lon": 12.1744214,
                "addr:city": "Kufstein",
                "addr:country": "AT",
                "addr:housenumber": "32",
                "addr:postcode": "6330",
                "addr:street": "Oskar Pirlo-Straße",
                "amenity": "fuel",
                "brand": "OMV",
                "brand:wikidata": "Q168238",
                "brand:wikipedia": "en:OMV",
                "check_date": "2024-06-27",
                "compressed_air": "yes",
                "contact:phone": "+43 5372 64549",
                "fuel:HGV_diesel": "yes",
                "fuel:cng": "yes",
                "fuel:diesel": "yes",
                "fuel:lpg": "no",
                "fuel:octane_95": "yes",
                "name": "OMV",
                "opening_hours": "Mo-Su 06:00-24:00",
                "operator": "OMV",
                "shop": "convenience"
              },
              "geometry": {
                "type": "Point",
                "coordinates": [
                  12.1744214,
                  47.5891657
                ]
              }
            },
            {
              "type": "Feature",
              "properties": {
                "id": "360163475",
                "osm_type": "node",
                "lat": 47.5742244,
                "lon": 12.1578419,
                "amenity": "fuel",
                "brand": "JET",
                "brand:wikidata": "Q568940",
                "brand:wikipedia": "en:Jet (brand)",
                "name": "Jet",
                "opening_hours": "Mo-Fr 06:00-22:00; Sa-Su 08:00-20:00",
                "phone": "+43 537261008",
                "website": "https://www.jet-tankstellen.at/",
                "wheelchair": "yes"
              },
              "geometry": {
                "type": "Point",
                "coordinates": [
                  12.1578419,
                  47.5742244
                ]
              }
            },
            {
              "type": "Feature",
              "properties": {
                "id": "414173901",
                "osm_type": "node",
                "lat": 47.6495842,
                "lon": 12.312857,
                "addr:city": "Walchsee",
                "addr:country": "AT",
                "addr:housenumber": "29",
                "addr:postcode": "6344",
                "addr:street": "Dorfstraße",
                "amenity": "fuel",
                "brand": "BP",
                "brand:wikidata": "Q152057",
                "brand:wikipedia": "en:BP",
                "compressed_air": "no",
                "fuel:diesel": "yes",
                "fuel:lpg": "yes",
                "fuel:octane_95": "yes",
                "name": "BP",
                "opening_hours": "Mo, We-Sa 07:30-19:00; Su, Tu 07:00-19:00",
                "operator": "Heidi Hausschild",
                "payment:coins": "yes",
                "payment:contactless": "yes",
                "payment:cryptocurrencies": "no",
                "payment:girocard": "yes",
                "payment:maestro": "yes",
                "payment:mastercard": "yes",
                "payment:notes": "yes",
                "payment:visa": "yes",
                "payment:visa_debit": "yes",
                "shop": "convenience",
                "source": "geoimage.at MaxRes",
                "wheelchair": "yes"
              },
              "geometry": {
                "type": "Point",
                "coordinates": [
                  12.312857,
                  47.6495842
                ]
              }
            },
            {
              "type": "Feature",
              "properties": {
                "id": "444830313",
                "osm_type": "node",
                "lat": 47.5863726,
                "lon": 12.1622694,
                "addr:city": "Kufstein",
                "addr:housenumber": "20",
                "addr:postcode": "6330",
                "addr:street": "Schubertstraße",
                "amenity": "fuel",
                "brand": "Avanti",
                "brand:wikidata": "Q124350461",
                "brand:wikipedia": "en:OMV",
                "fuel:1_25": "no",
                "fuel:1_50": "no",
                "fuel:GTL_diesel": "no",
                "fuel:HGV_diesel": "no",
                "fuel:biodiesel": "no",
                "fuel:biogas": "no",
                "fuel:diesel": "yes",
                "fuel:e10": "no",
                "fuel:e85": "no",
                "fuel:electricity": "no",
                "fuel:lpg": "no",
                "fuel:octane_100": "no",
                "fuel:octane_91": "no",
                "fuel:octane_95": "yes",
                "fuel:octane_98": "no",
                "name": "Avanti",
                "opening_hours": "24/7",
                "operator": "Avanti",
                "payment:apple_pay": "yes",
                "payment:cash": "no",
                "payment:contactless": "yes",
                "payment:diners_club": "yes",
                "payment:dkv": "yes",
                "payment:google_pay": "yes",
                "payment:maestro": "yes",
                "payment:mastercard": "yes",
                "payment:omv_card": "yes",
                "payment:visa": "yes",
                "phone": "+43 800 202055",
                "self_service": "yes",
                "shop": "no",
                "toilets": "no"
              },
              "geometry": {
                "type": "Point",
                "coordinates": [
                  12.1622694,
                  47.5863726
                ]
              }
            },
            {
              "type": "Feature",
              "properties": {
                "id": "444842984",
                "osm_type": "node",
                "lat": 47.576601,
                "lon": 12.1606201,
                "addr:city": "Kufstein",
                "addr:country": "AT",
                "addr:housenumber": "28",
                "addr:postcode": "6330",
                "addr:street": "Salurner Straße",
                "amenity": "fuel",
                "brand": "Eni",
                "brand:wikidata": "Q565594",
                "brand:wikipedia": "en:Eni",
                "fuel:diesel": "yes",
                "fuel:octane_91": "yes",
                "fuel:octane_95": "yes",
                "name": "Eni",
                "opening_hours": "Mo-Fr 06:00-22:00; Sa 06:00-22:30; Su,PH 06:00-22:00",
                "operator": "G. Haslinger",
                "payment:american_express": "yes",
                "payment:diners_club": "yes",
                "payment:discover_card": "yes",
                "payment:dkv": "yes",
                "payment:logpay": "yes",
                "payment:mastercard": "yes",
                "payment:routex": "yes",
                "payment:uta": "yes",
                "payment:visa": "yes",
                "source": "survey"
              },
              "geometry": {
                "type": "Point",
                "coordinates": [
                  12.1606201,
                  47.576601
                ]
              }
            },
            {
              "type": "Feature",
              "properties": {
                "id": "444858771",
                "osm_type": "node",
                "lat": 47.5655819,
                "lon": 12.1502783,
                "amenity": "fuel",
                "brand": "EuroTruck",
                "fuel:diesel": "yes",
                "fuel:octane_91": "yes",
                "fuel:octane_95": "yes",
                "fuel:octane_98": "yes",
                "name": "EuroTruck",
                "opening_hours": "24/7",
                "operator": "EuroTruck",
                "wheelchair": "yes"
              },
              "geometry": {
                "type": "Point",
                "coordinates": [
                  12.1502783,
                  47.5655819
                ]
              }
            },
            {
              "type": "Feature",
              "properties": {
                "id": "716921527",
                "osm_type": "node",
                "lat": 47.5790915,
                "lon": 12.1686641,
                "amenity": "fuel",
                "fuel:diesel": "yes",
                "fuel:super": "yes",
                "fuel:super_plus": "yes",
                "name": "Disk",
                "wheelchair": "yes"
              },
              "geometry": {
                "type": "Point",
                "coordinates": [
                  12.1686641,
                  47.5790915
                ]
              }
            },
            {
              "type": "Feature",
              "properties": {
                "id": "890417936",
                "osm_type": "node",
                "lat": 47.6169082,
                "lon": 12.1977747,
                "access": "private",
                "amenity": "fuel",
                "fuel:HGV_diesel": "yes",
                "fuel:diesel": "yes",
                "name": "tankpool24"
              },
              "geometry": {
                "type": "Point",
                "coordinates": [
                  12.1977747,
                  47.6169082
                ]
              }
            },
            {
              "type": "Feature",
              "properties": {
                "id": "1180706329",
                "osm_type": "node",
                "lat": 47.6135515,
                "lon": 12.2013094,
                "amenity": "fuel",
                "brand": "OMV",
                "brand:wikidata": "Q168238",
                "fuel:GTL_diesel": "yes",
                "fuel:HGV_diesel": "yes",
                "fuel:adblue": "yes",
                "fuel:diesel": "yes",
                "fuel:e10": "yes",
                "fuel:lpg": "yes",
                "fuel:octane_100": "yes",
                "fuel:octane_95": "yes",
                "fuel:octane_98": "yes",
                "name": "OMV Inntal West",
                "opening_hours": "24/7",
                "shop": "convenience"
              },
              "geometry": {
                "type": "Point",
                "coordinates": [
                  12.2013094,
                  47.6135515
                ]
              }
            },
            {
              "type": "Feature",
              "properties": {
                "id": "1434105019",
                "osm_type": "node",
                "lat": 47.5853455,
                "lon": 12.1618578,
                "addr:city": "Kufstein",
                "addr:housenumber": "25",
                "addr:postcode": "6330",
                "addr:street": "Schubertstraße",
                "amenity": "fuel",
                "brand": "BP",
                "brand:wikidata": "Q152057",
                "brand:wikipedia": "en:BP",
                "fuel:diesel": "yes",
                "fuel:diesel_ultimate": "yes",
                "fuel:octane_95": "yes",
                "fuel:ultimate_super": "yes",
                "name": "BP",
                "opening_hours": "Mo-Sa 07:00-21:00; Su,PH 08:00-20:00",
                "operator": "BP",
                "payment:american_express": "yes",
                "payment:diners_club": "yes",
                "payment:dkv": "yes",
                "payment:jcb": "yes",
                "payment:logpay": "yes",
                "payment:maestro": "yes",
                "payment:mastercard": "yes",
                "payment:routex": "yes",
                "payment:uta": "yes",
                "payment:visa": "yes",
                "payment:vpay": "yes",
                "source": "knowledge;survey"
              },
              "geometry": {
                "type": "Point",
                "coordinates": [
                  12.1618578,
                  47.5853455
                ]
              }
            },
            {
              "type": "Feature",
              "properties": {
                "id": "1442062292",
                "osm_type": "node",
                "lat": 47.5749566,
                "lon": 12.1578631,
                "amenity": "fuel",
                "brand": "JET",
                "brand:wikidata": "Q568940",
                "brand:wikipedia": "en:Jet (brand)",
                "fuel:diesel": "yes",
                "fuel:octane_91": "yes",
                "fuel:octane_95": "yes",
                "fuel:octane_98": "yes",
                "name": "Jet",
                "opening_hours": "Mo-Su,PH 06:00-23:00",
                "phone": "+43 537271794",
                "website": "https://www.jet-tankstellen.at/",
                "wheelchair": "yes"
              },
              "geometry": {
                "type": "Point",
                "coordinates": [
                  12.1578631,
                  47.5749566
                ]
              }
            },
            {
              "type": "Feature",
              "properties": {
                "id": "1510061679",
                "osm_type": "node",
                "lat": 47.6785381,
                "lon": 12.254407,
                "amenity": "fuel",
                "brand": "none",
                "contact:phone": "+43 5373 62161",
                "fuel:diesel": "yes",
                "fuel:octane_95": "yes",
                "fuel:octane_98": "yes",
                "name": "Tankstelle Reinpold",
                "opening_hours": "Mo-Su 07:00-19:30",
                "operator": "Walter Reinpold WR GmbH",
                "payment:cash": "yes",
                "payment:credit_cards": "yes",
                "payment:debit_cards": "yes",
                "payment:maestro": "yes",
                "shop": "yes"
              },
              "geometry": {
                "type": "Point",
                "coordinates": [
                  12.254407,
                  47.6785381
                ]
              }
            },
            {
              "type": "Feature",
              "properties": {
                "id": "1557007321",
                "osm_type": "node",
                "lat": 47.5916274,
                "lon": 12.1327245,
                "amenity": "fuel",
                "brand": "Inntaler",
                "fuel:diesel": "yes",
                "fuel:octane_91": "yes",
                "fuel:octane_95": "yes",
                "name": "Inntaler",
                "opening_hours": "24/7",
                "payment:coins": "no",
                "payment:contactless": "yes",
                "payment:maestro": "yes",
                "payment:mastercard": "yes",
                "payment:notes": "yes",
                "payment:visa": "yes",
                "payment:vpay": "yes",
                "self_service": "yes",
                "shop": "no"
              },
              "geometry": {
                "type": "Point",
                "coordinates": [
                  12.1327245,
                  47.5916274
                ]
              }
            },
            {
              "type": "Feature",
              "properties": {
                "id": "2946982343",
                "osm_type": "node",
                "lat": 47.5938775,
                "lon": 12.1772342,
                "amenity": "fuel",
                "brand": "BP",
                "brand:wikidata": "Q152057",
                "brand:wikipedia": "en:BP",
                "check_date": "2024-06-27",
                "compressed_air": "yes",
                "fuel:GTL_diesel": "yes",
                "fuel:diesel": "yes",
                "fuel:octane_95": "yes",
                "fuel:ultimate_super": "yes",
                "name": "BP",
                "opening_hours": "24/7",
                "source": "geoimage.at MaxRes"
              },
              "geometry": {
                "type": "Point",
                "coordinates": [
                  12.1772342,
                  47.5938775
                ]
              }
            },
            {
              "type": "Feature",
              "properties": {
                "id": "7742011911",
                "osm_type": "node",
                "lat": 47.535431,
                "lon": 12.0932182,
                "addr:city": "Langkampfen",
                "addr:country": "AT",
                "addr:housenumber": "21",
                "addr:postcode": "6336",
                "addr:street": "Kirchbichler Straße",
                "amenity": "fuel",
                "fuel:diesel": "yes",
                "fuel:octane_91": "yes",
                "fuel:octane_95": "yes",
                "name": "Inn-Tank",
                "opening_hours": "24/7",
                "operator": "Inntaler Transporte GmbH",
                "payment:cards": "yes",
                "payment:cash": "no",
                "payment:notes": "yes",
                "phone": "+43 5376 21166",
                "self_service": "yes",
                "toilets": "yes",
                "website": "https://www.inntaler.at/"
              },
              "geometry": {
                "type": "Point",
                "coordinates": [
                  12.0932182,
                  47.535431
                ]
              }
            },
            {
              "type": "Feature",
              "properties": {
                "id": "7937507046",
                "osm_type": "node",
                "lat": 47.6487412,
                "lon": 12.1964787,
                "addr:city": "Niederndorf",
                "addr:country": "AT",
                "addr:housenumber": "41",
                "addr:postcode": "6342",
                "addr:street": "Audorfer Straße",
                "amenity": "fuel",
                "check_date": "2024-04-06",
                "description": "22h bis 6h Tankautomaten",
                "email": "info@thrainer.eu",
                "fuel:GTL_diesel": "yes",
                "fuel:adblue": "yes",
                "fuel:cng": "yes",
                "fuel:cng_gas": "yes",
                "fuel:diesel": "yes",
                "fuel:e10": "yes",
                "fuel:octane_98": "yes",
                "name": "Thrainer",
                "opening_hours": "24/7",
                "operator": "Karl Thrainer Handels GmbH",
                "phone": "+43 5373 61268",
                "self_service": "yes",
                "shop": "yes",
                "source": "geoimage.at MaxRes;Website",
                "website": "https://www.thrainer.eu"
              },
              "geometry": {
                "type": "Point",
                "coordinates": [
                  12.1964787,
                  47.6487412
                ]
              }
            }
          ],
          "children": []
        }
      ]
    },
    {
      "bbox": {
        "south": 47.36431175,
        "west": 12.392062499999998,
        "north": 47.694865,
        "east": 13.345766
      },
      "poiCount": 33,
      "leafCount": 33,
      "averagePosition": [
        12.827748475757575,
        47.55370844848485
      ],
      "data": [
        {
          "type": "Feature",
          "properties": {
            "id": "90507151",
            "osm_type": "node",
            "lat": 47.6617346,
            "lon": 12.4129367,
            "amenity": "fuel",
            "brand": "BP",
            "brand:wikidata": "Q152057",
            "brand:wikipedia": "en:BP",
            "name": "BP",
            "operator": "Autohaus Aicher",
            "phone": "+4353756394",
            "wheelchair": "yes"
          },
          "geometry": {
            "type": "Point",
            "coordinates": [
              12.4129367,
              47.6617346
            ]
          }
        },
        {
          "type": "Feature",
          "properties": {
            "id": "265980060",
            "osm_type": "node",
            "lat": 47.6472391,
            "lon": 12.4045535,
            "addr:city": "Schwendt",
            "addr:housenumber": "46",
            "addr:postcode": "6385",
            "addr:street": "Unterschwendt",
            "amenity": "fuel",
            "fuel:diesel": "yes",
            "fuel:octane_95": "yes",
            "fuel:octane_98": "yes",
            "name": "Bellinger",
            "opening_hours": "24/7",
            "operator": "Josef Bellinger GmbH",
            "phone": "+43 5375 6473",
            "self_service": "yes",
            "website": "https://www.bellinger.at/"
          },
          "geometry": {
            "type": "Point",
            "coordinates": [
              12.4045535,
              47.6472391
            ]
          }
        },
        {
          "type": "Feature",
          "properties": {
            "id": "302688785",
            "osm_type": "node",
            "lat": 47.5328554,
            "lon": 12.4371787,
            "amenity": "fuel",
            "brand": "Shell",
            "brand:wikidata": "Q110716465",
            "brand:wikipedia": "en:Royal Dutch Shell",
            "compressed_air": "yes",
            "covered": "yes",
            "fuel:GTL_diesel": "yes",
            "fuel:diesel": "yes",
            "fuel:octane_100": "yes",
            "fuel:octane_95": "yes",
            "name": "Shell",
            "note": "Stiglechner Tankstellen West GmbH",
            "operator": "Shell",
            "payment:dkv": "yes"
          },
          "geometry": {
            "type": "Point",
            "coordinates": [
              12.4371787,
              47.5328554
            ]
          }
        },
        {
          "type": "Feature",
          "properties": {
            "id": "669908811",
            "osm_type": "node",
            "lat": 47.5196612,
            "lon": 12.4177905,
            "alt_name": "disk",
            "amenity": "fuel",
            "brand": "Disk",
            "fuel:diesel": "yes",
            "fuel:octane_95": "yes",
            "fuel:octane_98": "yes",
            "name": "Diskont-Tank Tankautomat",
            "not:brand:wikidata": "Q107803455",
            "opening_hours": "24/7",
            "operator": "Gutmann",
            "shop": "no",
            "vending": "fuel",
            "vending_machine": "yes"
          },
          "geometry": {
            "type": "Point",
            "coordinates": [
              12.4177905,
              47.5196612
            ]
          }
        },
        {
          "type": "Feature",
          "properties": {
            "id": "1364241018",
            "osm_type": "node",
            "lat": 47.525291,
            "lon": 12.4230564,
            "addr:city": "St. Johann in Tirol",
            "addr:housenumber": "13",
            "addr:postcode": "6380",
            "addr:street": "Salzburgerstraße",
            "amenity": "fuel",
            "check_date": "2023-08-23",
            "compressed_air": "yes",
            "name": "BP Tankstelle Cafe Salcher",
            "operator": "Salcher August"
          },
          "geometry": {
            "type": "Point",
            "coordinates": [
              12.4230564,
              47.525291
            ]
          }
        },
        {
          "type": "Feature",
          "properties": {
            "id": "1784969626",
            "osm_type": "node",
            "lat": 47.6688541,
            "lon": 12.4946924,
            "addr:city": "Reit im Winkl",
            "addr:country": "DE",
            "addr:housenumber": "4",
            "addr:street": "Alpenstraße",
            "amenity": "fuel",
            "fuel:diesel": "yes",
            "fuel:e10": "yes",
            "fuel:octane_95": "yes",
            "name": "SB-Tankstelle",
            "opening_hours": "24/7",
            "phone": "+49 8640 8237",
            "self_service": "yes"
          },
          "geometry": {
            "type": "Point",
            "coordinates": [
              12.4946924,
              47.6688541
            ]
          }
        },
        {
          "type": "Feature",
          "properties": {
            "id": "2453811935",
            "osm_type": "node",
            "lat": 47.5200064,
            "lon": 12.4318061,
            "access": "private",
            "amenity": "fuel",
            "brand": "Lagerhaus",
            "operator": "Lagerhaus"
          },
          "geometry": {
            "type": "Point",
            "coordinates": [
              12.4318061,
              47.5200064
            ]
          }
        },
        {
          "type": "Feature",
          "properties": {
            "id": "4265564443",
            "osm_type": "node",
            "lat": 47.5383057,
            "lon": 12.4410284,
            "addr:city": "Kirchdorf in Tirol",
            "addr:country": "AT",
            "addr:housenumber": "68",
            "addr:postcode": "6382",
            "addr:street": "Innsbrucker Straße",
            "alt_name": "Eurotank Sinnesberger",
            "amenity": "fuel",
            "check_date": "2023-08-23",
            "fuel:1_25": "yes",
            "fuel:1_50": "yes",
            "fuel:GTL_diesel": "yes",
            "fuel:HGV_diesel": "yes",
            "fuel:adblue": "yes",
            "fuel:diesel": "yes",
            "fuel:lpg": "yes",
            "fuel:octane_95": "yes",
            "fuel:octane_98": "yes",
            "name": "OMV",
            "opening_hours": "Mo-Sa 06:00-20:45; Su,PH 07:00-20:45",
            "phone": "+43 5352 61088",
            "website": "https://www.eurotank-sinnesberger.at/",
            "wheelchair": "yes"
          },
          "geometry": {
            "type": "Point",
            "coordinates": [
              12.4410284,
              47.5383057
            ]
          }
        },
        {
          "type": "Feature",
          "properties": {
            "id": "21650201",
            "osm_type": "node",
            "lat": 47.5850672,
            "lon": 12.6973063,
            "amenity": "fuel",
            "compressed_air": "yes",
            "name": "Shell"
          },
          "geometry": {
            "type": "Point",
            "coordinates": [
              12.6973063,
              47.5850672
            ]
          }
        },
        {
          "type": "Feature",
          "properties": {
            "id": "316077205",
            "osm_type": "node",
            "lat": 47.4309898,
            "lon": 12.8448817,
            "addr:city": "Saalfelden am Steinernen Meer",
            "addr:housenumber": "76",
            "addr:postcode": "5760",
            "addr:street": "Loferer Bundesstraße",
            "amenity": "fuel",
            "brand": "Shell",
            "brand:wikidata": "Q110716465",
            "brand:wikipedia": "en:Royal Dutch Shell",
            "name": "Shell",
            "official_name": "Shell Station",
            "operator": "Shell Austria GmbH",
            "phone": "+43 6582 72079",
            "ref": "4443",
            "ref:vatin": "ATU14189803"
          },
          "geometry": {
            "type": "Point",
            "coordinates": [
              12.8448817,
              47.4309898
            ]
          }
        },
        {
          "type": "Feature",
          "properties": {
            "id": "316077207",
            "osm_type": "node",
            "lat": 47.4288523,
            "lon": 12.8427008,
            "amenity": "fuel",
            "brand": "OMV",
            "brand:wikidata": "Q168238",
            "brand:wikipedia": "en:OMV",
            "name": "OMV",
            "opening_hours": "Mo-Su 06:00-22:00",
            "website": "https://www.omv.at/"
          },
          "geometry": {
            "type": "Point",
            "coordinates": [
              12.8427008,
              47.4288523
            ]
          }
        },
        {
          "type": "Feature",
          "properties": {
            "id": "329205089",
            "osm_type": "node",
            "lat": 47.429786,
            "lon": 12.8425375,
            "amenity": "fuel",
            "brand": "Jet",
            "brand:wikidata": "Q568940",
            "brand:wikipedia": "en:Jet (brand)",
            "name": "Jet",
            "opening_hours": "Mo-Sa 06:00-22:00; Su 07:00-22:00",
            "phone": "+43 658272376",
            "website": "https://www.jet-tankstellen.at/"
          },
          "geometry": {
            "type": "Point",
            "coordinates": [
              12.8425375,
              47.429786
            ]
          }
        },
        {
          "type": "Feature",
          "properties": {
            "id": "599814160",
            "osm_type": "node",
            "lat": 47.4797,
            "lon": 12.538512,
            "amenity": "fuel",
            "name": "eni"
          },
          "geometry": {
            "type": "Point",
            "coordinates": [
              12.538512,
              47.4797
            ]
          }
        },
        {
          "type": "Feature",
          "properties": {
            "id": "766664210",
            "osm_type": "node",
            "lat": 47.4230602,
            "lon": 12.8500448,
            "amenity": "fuel",
            "brand": "Avanti",
            "brand:wikidata": "Q168238",
            "brand:wikipedia": "en:OMV",
            "compressed_air": "no",
            "name": "Avanti",
            "opening_hours": "24/7",
            "operator": "Avanti",
            "phone": "+43 800 202055"
          },
          "geometry": {
            "type": "Point",
            "coordinates": [
              12.8500448,
              47.4230602
            ]
          }
        },
        {
          "type": "Feature",
          "properties": {
            "id": "1435374343",
            "osm_type": "node",
            "lat": 47.4077834,
            "lon": 12.8941605,
            "amenity": "fuel",
            "brand": "Shell",
            "brand:wikidata": "Q110716465",
            "fuel:diesel": "yes",
            "name": "Shell"
          },
          "geometry": {
            "type": "Point",
            "coordinates": [
              12.8941605,
              47.4077834
            ]
          }
        },
        {
          "type": "Feature",
          "properties": {
            "id": "1723249085",
            "osm_type": "node",
            "lat": 47.4262439,
            "lon": 12.8399716,
            "amenity": "fuel",
            "brand": "Eni",
            "brand:wikidata": "Q565594",
            "brand:wikipedia": "en:Eni",
            "compressed_air": "yes",
            "name": "Eni"
          },
          "geometry": {
            "type": "Point",
            "coordinates": [
              12.8399716,
              47.4262439
            ]
          }
        },
        {
          "type": "Feature",
          "properties": {
            "id": "3041510643",
            "osm_type": "node",
            "lat": 47.4392311,
            "lon": 12.7647135,
            "amenity": "fuel",
            "name": "Lagerhaus Tankstelle"
          },
          "geometry": {
            "type": "Point",
            "coordinates": [
              12.7647135,
              47.4392311
            ]
          }
        },
        {
          "type": "Feature",
          "properties": {
            "id": "4606649010",
            "osm_type": "node",
            "lat": 47.3884811,
            "lon": 12.8032745,
            "amenity": "fuel",
            "name": "Dieselhammer"
          },
          "geometry": {
            "type": "Point",
            "coordinates": [
              12.8032745,
              47.3884811
            ]
          }
        },
        {
          "type": "Feature",
          "properties": {
            "id": "4899620789",
            "osm_type": "node",
            "lat": 47.6303784,
            "lon": 13.0042595,
            "addr:city": "Berchtesgaden",
            "addr:country": "DE",
            "addr:housenumber": "21",
            "addr:postcode": "83471",
            "addr:street": "Bahnhofstraße",
            "amenity": "fuel",
            "brand": "Esso",
            "brand:wikidata": "Q867662",
            "brand:wikipedia": "en:Esso",
            "check_date": "2023-05-27",
            "email": "info@buchwinkler.de",
            "fuel:diesel": "yes",
            "fuel:octane_95": "yes",
            "fuel:octane_98": "yes",
            "name": "Esso",
            "operator": "Buchwinkler GmbH & Co. KG",
            "phone": "+49 8652 94 90 0",
            "self_service": "yes"
          },
          "geometry": {
            "type": "Point",
            "coordinates": [
              13.0042595,
              47.6303784
            ]
          }
        },
        {
          "type": "Feature",
          "properties": {
            "id": "5497532582",
            "osm_type": "node",
            "lat": 47.65739,
            "lon": 12.7428545,
            "amenity": "fuel",
            "brand": "Eni",
            "brand:wikidata": "Q565594",
            "brand:wikipedia": "en:Eni",
            "check_date": "2023-08-23",
            "contact:phone": "+43 6589/7291",
            "fuel:diesel": "yes",
            "fuel:octane_91": "yes",
            "fuel:octane_95": "yes",
            "fuel:octane_98": "yes",
            "name": "Eni",
            "opening_hours": "Mo-Su 06:00-22:00",
            "payment:routex": "yes"
          },
          "geometry": {
            "type": "Point",
            "coordinates": [
              12.7428545,
              47.65739
            ]
          }
        },
        {
          "type": "Feature",
          "properties": {
            "id": "10300850294",
            "osm_type": "node",
            "lat": 47.473947,
            "lon": 12.6345559,
            "access": "private",
            "amenity": "fuel"
          },
          "geometry": {
            "type": "Point",
            "coordinates": [
              12.6345559,
              47.473947
            ]
          }
        },
        {
          "type": "Feature",
          "properties": {
            "id": "11837225518",
            "osm_type": "node",
            "lat": 47.6282216,
            "lon": 13.0008869,
            "addr:city": "Berchtesgaden",
            "addr:country": "DE",
            "addr:housenumber": "2",
            "addr:postcode": "83471",
            "addr:street": "Salinenplatz",
            "amenity": "fuel",
            "email": "boehnlein-schnurrer@gmx.de",
            "fuel:diesel": "yes",
            "name": "Diesel-Tankport Schnurrer",
            "note": "für registrierte Gewerbekunden (Tankkarte)",
            "operator": "Schnurrer-Brennstoffe",
            "phone": "+49 8652-2532",
            "self_service": "yes",
            "website": "https://schnurrer-berchtesgaden.de/produkte/tankstellen/"
          },
          "geometry": {
            "type": "Point",
            "coordinates": [
              13.0008869,
              47.6282216
            ]
          }
        },
        {
          "type": "Feature",
          "properties": {
            "id": "12727098534",
            "osm_type": "node",
            "lat": 47.5926588,
            "lon": 12.9874304,
            "addr:city": "Schönau am Königssee",
            "addr:country": "DE",
            "addr:housenumber": "1",
            "addr:postcode": "83471",
            "addr:street": "Seestraße",
            "amenity": "fuel",
            "brand": "Aral",
            "brand:wikidata": "Q565734",
            "brand:wikipedia": "en:Aral AG",
            "fuel:diesel": "yes",
            "fuel:lpg": "yes",
            "fuel:octane_91": "yes",
            "fuel:octane_95": "yes",
            "fuel:octane_98": "yes",
            "name": "Aral",
            "opening_hours": "Mo-Sa 06:30-21:00, Su 07:00-21:00",
            "self_service": "yes",
            "service": "carwash",
            "vacuum_cleaner": "yes"
          },
          "geometry": {
            "type": "Point",
            "coordinates": [
              12.9874304,
              47.5926588
            ]
          }
        },
        {
          "type": "Feature",
          "properties": {
            "id": "13142819080",
            "osm_type": "node",
            "lat": 47.6694453,
            "lon": 12.9431872,
            "amenity": "fuel",
            "brand": "Agip",
            "fuel:diesel": "yes",
            "fuel:e10": "yes",
            "fuel:octane_91": "yes",
            "fuel:octane_95": "yes",
            "fuel:octane_98": "yes",
            "layer": "1",
            "opening_hours": "Mo-Fr 06:00-19:30; Sa,Su,PH 06:00-19:00",
            "operator": "Schnurrer"
          },
          "geometry": {
            "type": "Point",
            "coordinates": [
              12.9431872,
              47.6694453
            ]
          }
        },
        {
          "type": "Feature",
          "properties": {
            "id": "34017419",
            "osm_type": "node",
            "lat": 47.5834682,
            "lon": 13.15647,
            "amenity": "fuel",
            "brand": "Eni",
            "brand:wikidata": "Q565594",
            "brand:wikipedia": "en:Eni",
            "check_date": "2023-08-30",
            "name": "Eni",
            "operator": "Eni",
            "website": "www.agip.at"
          },
          "geometry": {
            "type": "Point",
            "coordinates": [
              13.15647,
              47.5834682
            ]
          }
        },
        {
          "type": "Feature",
          "properties": {
            "id": "330029050",
            "osm_type": "node",
            "lat": 47.5840214,
            "lon": 13.1574137,
            "amenity": "fuel",
            "brand": "OMV",
            "brand:wikidata": "Q168238",
            "brand:wikipedia": "en:OMV",
            "fuel:adblue": "yes",
            "name": "OMV",
            "opening_hours": "24/7",
            "operator": "OMV",
            "phone": "+43 6244 6061"
          },
          "geometry": {
            "type": "Point",
            "coordinates": [
              13.1574137,
              47.5840214
            ]
          }
        },
        {
          "type": "Feature",
          "properties": {
            "id": "339236086",
            "osm_type": "node",
            "lat": 47.6798439,
            "lon": 13.1044693,
            "amenity": "fuel",
            "brand": "Eni",
            "brand:wikidata": "Q565594",
            "contact:phone": "+43 6245 83029",
            "name": "Eni",
            "opening_hours": "Mo-Su 06:00-22:00"
          },
          "geometry": {
            "type": "Point",
            "coordinates": [
              13.1044693,
              47.6798439
            ]
          }
        },
        {
          "type": "Feature",
          "properties": {
            "id": "339236094",
            "osm_type": "node",
            "lat": 47.6822529,
            "lon": 13.1004639,
            "addr:city": "Hallein",
            "addr:country": "AT",
            "addr:housenumber": "16",
            "addr:postcode": "5400",
            "addr:street": "Salzachtalstraße",
            "amenity": "fuel",
            "brand": "Turmöl",
            "brand:wikidata": "Q1473279",
            "check_date": "2023-08-22",
            "fuel:cng": "yes",
            "fuel:diesel": "yes",
            "fuel:octane_95": "yes",
            "fuel:octane_98": "yes",
            "name": "Turmöl",
            "opening_hours": "24/7",
            "operator": "Turmöl",
            "self_service": "yes"
          },
          "geometry": {
            "type": "Point",
            "coordinates": [
              13.1004639,
              47.6822529
            ]
          }
        },
        {
          "type": "Feature",
          "properties": {
            "id": "430259294",
            "osm_type": "node",
            "lat": 47.5824331,
            "lon": 13.1824267,
            "amenity": "fuel",
            "check_date": "2023-08-30",
            "name": "Esso"
          },
          "geometry": {
            "type": "Point",
            "coordinates": [
              13.1824267,
              47.5824331
            ]
          }
        },
        {
          "type": "Feature",
          "properties": {
            "id": "1059125472",
            "osm_type": "node",
            "lat": 47.686596,
            "lon": 13.0987153,
            "addr:city": "Hallein",
            "addr:country": "AT",
            "addr:housenumber": "3",
            "addr:postcode": "5400",
            "addr:street": "Franz-Dückher-Weg",
            "amenity": "fuel",
            "compressed_air": "yes",
            "name": "Diskonttankstelle",
            "operator": "Lagerhaus",
            "source": "Bing"
          },
          "geometry": {
            "type": "Point",
            "coordinates": [
              13.0987153,
              47.686596
            ]
          }
        },
        {
          "type": "Feature",
          "properties": {
            "id": "4665038354",
            "osm_type": "node",
            "lat": 47.5659355,
            "lon": 13.3413013,
            "amenity": "fuel",
            "brand": "Eni",
            "brand:wikidata": "Q565594",
            "brand:wikipedia": "en:Eni",
            "fuel:diesel": "yes",
            "fuel:octane_98": "yes",
            "name": "Eni"
          },
          "geometry": {
            "type": "Point",
            "coordinates": [
              13.3413013,
              47.5659355
            ]
          }
        },
        {
          "type": "Feature",
          "properties": {
            "id": "4665038355",
            "osm_type": "node",
            "lat": 47.5649042,
            "lon": 13.3421592,
            "amenity": "fuel",
            "brand": "Independent",
            "fuel:diesel": "yes",
            "fuel:octane_95": "yes",
            "name": "Lm energy",
            "operator": "Leikermoser Energiehandel GmbH"
          },
          "geometry": {
            "type": "Point",
            "coordinates": [
              13.3421592,
              47.5649042
            ]
          }
        },
        {
          "type": "Feature",
          "properties": {
            "id": "5304377621",
            "osm_type": "node",
            "lat": 47.63774,
            "lon": 13.13796,
            "amenity": "fuel",
            "brand": "Hofer Diskont",
            "brand:wikidata": "Q107803455",
            "name": "Hofer Diskont",
            "opening_hours": "24/7",
            "operator": "Hofer Diskont",
            "website": "https://www.diskonttanken.at"
          },
          "geometry": {
            "type": "Point",
            "coordinates": [
              13.13796,
              47.63774
            ]
          }
        }
      ],
      "children": []
    }
  ]
}