{
  "bbox": {
    "south": 47.033758500000005,
    "west": 13.345766,
    "north": 47.694865,
    "east": 15.253173
  },
  "poiCount": 99,
  "leafCount": 0,
  "averagePosition": [
    14.453535193939397,
    47.28845466363637
  ],
  "data": [],
  "children": [
    {
      "bbox": {
        "south": 47.033758500000005,
        "west": 13.345766,
        "north": 47.36431175,
        "east": 14.2994695
      },
      "poiCount": 11,
      "leafCount": 11,
      "averagePosition": [
        13.849392463636365,
        47.147900772727276
      ],
      "data": [
        {
          "type": "Feature",
          "properties": {
            "id": "846425086",
            "osm_type": "node",
            "lat": 47.3622296,
            "lon": 13.3833973,
            "addr:city": "Flachau",
            "amenity": "fuel",
            "name": "Austro Petrol Diskont",
            "note": "closed, maybe permanently"
          },
          "geometry": {
            "type": "Point",
            "coordinates": [
              13.3833973,
              47.3622296
            ]
          }
        },
        {
          "type": "Feature",
          "properties": {
            "id": "3077723078",
            "osm_type": "node",
            "lat": 47.1482732,
            "lon": 13.5148807,
            "addr:city": "Zederhaus",
            "addr:country": "AT",
            "addr:housenumber": "107",
            "addr:place": "Zederhaus",
            "addr:postcode": "5584",
            "addr:street": "Zederhaus",
            "amenity": "fuel",
            "at_bev:addr_date": "2018-04-02",
            "name": "Lagerhaus",
            "phone": "+43 5478 302",
            "shop": "doityourself",
            "url": "www.salzburger-lagerhaus.at/standorte/standort/lagerhaus+zederhaus_l195"
          },
          "geometry": {
            "type": "Point",
            "coordinates": [
              13.5148807,
              47.1482732
            ]
          }
        },
        {
          "type": "Feature",
          "properties": {
            "id": "320952114",
            "osm_type": "node",
            "lat": 47.0962431,
            "lon": 13.6335751,
            "addr:city": "Sankt Michael im Lungau",
            "addr:housenumber": "579",
            "addr:street": "Murtalstraße",
            "amenity": "fuel",
            "brand": "BP",
            "brand:wikidata": "Q152057",
            "brand:wikipedia": "en:BP",
            "compressed_air": "yes",
            "name": "BP",
            "opening_hours": "Mo-Su 06:00-21:00",
            "operator": "Leikermoser Energiehandel GmbH",
            "phone": "+43 6477 20010",
            "wheelchair": "no"
          },
          "geometry": {
            "type": "Point",
            "coordinates": [
              13.6335751,
              47.0962431
            ]
          }
        },
        {
          "type": "Feature",
          "properties": {
            "id": "516727436",
            "osm_type": "node",
            "lat": 47.0889266,
            "lon": 13.9836574,
            "addr:city": "Stadl-Predlitz",
            "addr:country": "AT",
            "addr:postcode": "8862",
            "amenity": "fuel",
            "brand": "Socar",
            "brand:wikidata": "Q1622293",
            "contact:phone": "+43 3534 2318",
            "fuel:diesel": "yes",
            "fuel:octane_95": "yes",
            "name": "SOCAR",
            "old_name": "A1 Tankstelle"
          },
          "geometry": {
            "type": "Point",
            "coordinates": [
              13.9836574,
              47.0889266
            ]
          }
        },
        {
          "type": "Feature",
          "properties": {
            "id": "1106799377",
            "osm_type": "node",
            "lat": 47.0948299,
            "lon": 13.636229,
            "addr:city": "Sankt Michael im Lungau",
            "addr:housenumber": "21",
            "addr:street": "Austraße",
            "amenity": "fuel",
            "brand": "Shell",
            "brand:wikidata": "Q154950",
            "brand:wikipedia": "en:Royal Dutch Shell",
            "contact:phone": "+43 6477 8400",
            "name": "Holleis",
            "opening_hours": "Mo-Sa 07:00-20:00; Su,PH 08:00-20:00"
          },
          "geometry": {
            "type": "Point",
            "coordinates": [
              13.636229,
              47.0948299
            ]
          }
        },
        {
          "type": "Feature",
          "properties": {
            "id": "1260690050",
            "osm_type": "node",
            "lat": 47.094079,
            "lon": 13.6754468,
            "addr:city": "Sankt Michael im Lungau",
            "addr:housenumber": "112",
            "addr:street": "Murtalstraße",
            "amenity": "fuel",
            "brand": "OMV",
            "brand:wikidata": "Q168238",
            "brand:wikipedia": "en:OMV",
            "compressed_air": "yes",
            "name": "OMV",
            "opening_hours": "Mo-Su 06:00-22:00",
            "phone": "+43 6477 8908",
            "wheelchair": "limited"
          },
          "geometry": {
            "type": "Point",
            "coordinates": [
              13.6754468,
              47.094079
            ]
          }
        },
        {
          "type": "Feature",
          "properties": {
            "id": "2656254682",
            "osm_type": "node",
            "lat": 47.1337966,
            "lon": 13.684046,
            "amenity": "fuel",
            "name": "Autohaus Griessner"
          },
          "geometry": {
            "type": "Point",
            "coordinates": [
              13.684046,
              47.1337966
            ]
          }
        },
        {
          "type": "Feature",
          "properties": {
            "id": "897596971",
            "osm_type": "node",
            "lat": 47.1865707,
            "lon": 14.1816613,
            "addr:city": "St. Peter am Kammersberg",
            "addr:country": "AT",
            "addr:housenumber": "181",
            "addr:place": "St. Peter a. Kbg.",
            "addr:postcode": "8843",
            "amenity": "fuel",
            "name": "Lagerhaus"
          },
          "geometry": {
            "type": "Point",
            "coordinates": [
              14.1816613,
              47.1865707
            ]
          }
        },
        {
          "type": "Feature",
          "properties": {
            "id": "897694870",
            "osm_type": "node",
            "lat": 47.2032953,
            "lon": 14.2812255,
            "amenity": "fuel",
            "name": "Shell"
          },
          "geometry": {
            "type": "Point",
            "coordinates": [
              14.2812255,
              47.2032953
            ]
          }
        },
        {
          "type": "Feature",
          "properties": {
            "id": "8888773267",
            "osm_type": "node",
            "lat": 47.1087449,
            "lon": 14.1775104,
            "amenity": "fuel",
            "fuel:diesel": "yes",
            "name": "Rumpold",
            "self_service": "yes"
          },
          "geometry": {
            "type": "Point",
            "coordinates": [
              14.1775104,
              47.1087449
            ]
          }
        },
        {
          "type": "Feature",
          "properties": {
            "id": "12723760137",
            "osm_type": "node",
            "lat": 47.1099196,
            "lon": 14.1916876,
            "amenity": "fuel",
            "fuel:diesel": "yes",
            "fuel:octane_95": "yes",
            "name": "Sprint / Landforst",
            "opening_hours": "24/7"
          },
          "geometry": {
            "type": "Point",
            "coordinates": [
              14.1916876,
              47.1099196
            ]
          }
        }
      ],
      "children": []
    },
    {
      "bbox": {
        "south": 47.033758500000005,
        "west": 14.2994695,
        "north": 47.36431175,
        "east": 15.253173
      },
      "poiCount": 48,
      "leafCount": 48,
      "averagePosition": [
        14.817069616666666,
        47.16657608125001
      ],
      "data": [
        {
          "type": "Feature",
          "properties": {
            "id": "31239852",
            "osm_type": "node",
            "lat": 47.1528011,
            "lon": 14.4141871,
            "addr:city": "Scheifling",
            "addr:country": "AT",
            "addr:housenumber": "2",
            "addr:postcode": "8811",
            "addr:street": "Kärntner Straße",
            "amenity": "fuel",
            "brand": "Turmöl",
            "brand:wikidata": "Q1473279",
            "changing_table": "no",
            "compressed_air": "yes",
            "name": "Turmöl",
            "valves": "schrader",
            "wheelchair": "yes"
          },
          "geometry": {
            "type": "Point",
            "coordinates": [
              14.4141871,
              47.1528011
            ]
          }
        },
        {
          "type": "Feature",
          "properties": {
            "id": "249278661",
            "osm_type": "node",
            "lat": 47.0791403,
            "lon": 14.4247614,
            "addr:city": "Neumarkt in der Steiermark",
            "addr:country": "AT",
            "addr:housenumber": "19",
            "addr:postcode": "8820",
            "addr:street": "Wiener Straße",
            "amenity": "fuel",
            "brand": "Turmöl",
            "brand:wikidata": "Q1473279",
            "compressed_air": "yes",
            "name": "Turmöl",
            "opening_hours": "Mo-Sa 06:00-20:00",
            "operator": "Radauer",
            "phone": "+4335842477",
            "website": "https://www.turmöl.at/",
            "wheelchair": "yes"
          },
          "geometry": {
            "type": "Point",
            "coordinates": [
              14.4247614,
              47.0791403
            ]
          }
        },
        {
          "type": "Feature",
          "properties": {
            "id": "683550825",
            "osm_type": "node",
            "lat": 47.0794615,
            "lon": 14.3147518,
            "amenity": "fuel",
            "brand": "OIL!",
            "brand:wikidata": "Q2007561",
            "fuel:HGV_diesel": "yes",
            "fuel:diesel": "yes",
            "fuel:octane_91": "yes",
            "fuel:octane_95": "yes",
            "name": "Josef Kreuzer",
            "operator": "Oil!"
          },
          "geometry": {
            "type": "Point",
            "coordinates": [
              14.3147518,
              47.0794615
            ]
          }
        },
        {
          "type": "Feature",
          "properties": {
            "id": "1485521724",
            "osm_type": "node",
            "lat": 47.0675802,
            "lon": 14.4302072,
            "addr:city": "Neumarkt in der Steiermark",
            "addr:country": "AT",
            "addr:housenumber": "22",
            "addr:postcode": "8820",
            "addr:street": "Kärntner Straße",
            "amenity": "fuel",
            "at_bev:addr_date": "2018-10-01",
            "name": "OMV"
          },
          "geometry": {
            "type": "Point",
            "coordinates": [
              14.4302072,
              47.0675802
            ]
          }
        },
        {
          "type": "Feature",
          "properties": {
            "id": "2153692989",
            "osm_type": "node",
            "lat": 47.154334,
            "lon": 14.4155177,
            "addr:city": "Scheifling",
            "addr:country": "AT",
            "addr:postcode": "8811",
            "addr:street": "Gewerbepark",
            "amenity": "fuel",
            "brand": "Hofer Diskont",
            "brand:wikidata": "Q107803455",
            "changing_table": "no",
            "check_date": "2025-04-13",
            "name": "Hofer Diskont",
            "opening_hours": "24/7",
            "operator": "Hofer Diskont",
            "self_service": "yes",
            "website": "https://www.diskonttanken.at",
            "wheelchair": "yes"
          },
          "geometry": {
            "type": "Point",
            "coordinates": [
              14.4155177,
              47.154334
            ]
          }
        },
        {
          "type": "Feature",
          "properties": {
            "id": "4426290498",
            "osm_type": "node",
            "lat": 47.1392624,
            "lon": 14.4250696,
            "addr:city": "Scheifling",
            "addr:housenumber": "1",
            "addr:place": "Puchfeld",
            "addr:postcode": "8811",
            "amenity": "fuel",
            "changing_table": "no",
            "check_date": "2025-04-12",
            "check_date:opening_hours": "2025-04-12",
            "name": "Rumpold",
            "opening_hours": "24/7",
            "website": "https://www.rumpold.net/tankstellen",
            "wheelchair": "yes"
          },
          "geometry": {
            "type": "Point",
            "coordinates": [
              14.4250696,
              47.1392624
            ]
          }
        },
        {
          "type": "Feature",
          "properties": {
            "id": "6620359085",
            "osm_type": "node",
            "lat": 47.0624053,
            "lon": 14.4315948,
            "amenity": "fuel",
            "brand": "Turmöl",
            "brand:wikidata": "Q1473279",
            "brand:wikipedia": "de:Turmöl",
            "changing_table": "no",
            "check_date": "2025-04-12",
            "compressed_air": "yes",
            "fuel:GTL_diesel": "yes",
            "fuel:diesel": "yes",
            "fuel:octane_95": "yes",
            "name": "Turmöl",
            "operator": "Harald Moser",
            "valves": "schrader",
            "wheelchair": "yes"
          },
          "geometry": {
            "type": "Point",
            "coordinates": [
              14.4315948,
              47.0624053
            ]
          }
        },
        {
          "type": "Feature",
          "properties": {
            "id": "31239970",
            "osm_type": "node",
            "lat": 47.1780021,
            "lon": 14.6063766,
            "addr:city": "Rothenthurm",
            "addr:country": "AT",
            "addr:district": "Murtal",
            "addr:housenumber": "14",
            "addr:postcode": "8755",
            "addr:street": "Triesterstraße",
            "amenity": "fuel",
            "brand": "Turmöl",
            "brand:wikidata": "Q1473279",
            "brand:wikipedia": "de:Turmöl",
            "email": "rothenturm@doppler-tankstellen.at",
            "fax": "+43 0357 247187",
            "name": "Turmöl",
            "phone": "+43 0357 24718"
          },
          "geometry": {
            "type": "Point",
            "coordinates": [
              14.6063766,
              47.1780021
            ]
          }
        },
        {
          "type": "Feature",
          "properties": {
            "id": "302130657",
            "osm_type": "node",
            "lat": 47.1592555,
            "lon": 14.7340224,
            "addr:city": "Weißkirchen in Steiermark",
            "addr:housenumber": "37",
            "addr:postcode": "8741",
            "addr:street": "Fisching",
            "amenity": "fuel",
            "brand": "Sprint",
            "name": "Landforst Sprint Tankstelle Weißkirchen",
            "operator": "F.Leitner",
            "self_service": "yes"
          },
          "geometry": {
            "type": "Point",
            "coordinates": [
              14.7340224,
              47.1592555
            ]
          }
        },
        {
          "type": "Feature",
          "properties": {
            "id": "370320006",
            "osm_type": "node",
            "lat": 47.350277,
            "lon": 15.0084629,
            "addr:country": "AT",
            "addr:housenumber": "59",
            "addr:postcode": "8770",
            "addr:street": "Bundesstraße",
            "amenity": "fuel",
            "brand": "BP",
            "brand:wikidata": "Q152057",
            "brand:wikipedia": "en:BP",
            "fuel:diesel": "yes",
            "fuel:octane_95": "yes",
            "fuel:octane_98": "yes",
            "name": "BP"
          },
          "geometry": {
            "type": "Point",
            "coordinates": [
              15.0084629,
              47.350277
            ]
          }
        },
        {
          "type": "Feature",
          "properties": {
            "id": "800979216",
            "osm_type": "node",
            "lat": 47.1824797,
            "lon": 14.6735537,
            "addr:city": "Hetzendorf",
            "addr:country": "AT",
            "addr:district": "Murtal",
            "addr:housenumber": "28",
            "addr:postcode": "8753",
            "addr:street": "Bundesstraße",
            "amenity": "fuel",
            "at_bev:addr_date": "2017-04-07",
            "brand": "Eni",
            "brand:wikidata": "Q565594",
            "brand:wikipedia": "en:Eni",
            "fuel:cng": "no",
            "fuel:diesel": "yes",
            "fuel:octane_95": "yes",
            "name": "Eni",
            "opening_hours": "Mo-Su 06:00-21:00"
          },
          "geometry": {
            "type": "Point",
            "coordinates": [
              14.6735537,
              47.1824797
            ]
          }
        },
        {
          "type": "Feature",
          "properties": {
            "id": "869160647",
            "osm_type": "node",
            "lat": 47.0719983,
            "lon": 14.6939833,
            "addr:city": "Obdach",
            "addr:country": "AT",
            "addr:housenumber": "8d",
            "addr:postcode": "8742",
            "addr:street": "Hauptstraße",
            "amenity": "fuel",
            "brand": "Socar",
            "brand:wikidata": "Q1622293",
            "brand:wikipedia": "de:State Oil Company of Azerbaijan Republic",
            "contact:phone": "+43 3578 2374",
            "name": "SOCAR",
            "old_name": "A1",
            "opening_hours": "Mo-Sa 06:00-21:00; Su 07:00-20:00",
            "operator": "A1 Tankstellenbetrieb GmbH"
          },
          "geometry": {
            "type": "Point",
            "coordinates": [
              14.6939833,
              47.0719983
            ]
          }
        },
        {
          "type": "Feature",
          "properties": {
            "id": "1163024352",
            "osm_type": "node",
            "lat": 47.1943246,
            "lon": 14.7226902,
            "amenity": "fuel",
            "fuel:HGV_diesel": "yes",
            "fuel:diesel": "no",
            "name": "M-Rast",
            "shop": "yes"
          },
          "geometry": {
            "type": "Point",
            "coordinates": [
              14.7226902,
              47.1943246
            ]
          }
        },
        {
          "type": "Feature",
          "properties": {
            "id": "1363873425",
            "osm_type": "node",
            "lat": 47.2108453,
            "lon": 14.8175782,
            "addr:city": "Knittelfeld",
            "addr:housenumber": "58",
            "addr:postcode": "8720",
            "addr:street": "Kärntner Straße",
            "amenity": "fuel",
            "brand": "JET",
            "brand:wikidata": "Q568940",
            "brand:wikipedia": "en:Jet (brand)",
            "name": "Jet",
            "operator": "Sorko",
            "phone": "+43 3512 71939"
          },
          "geometry": {
            "type": "Point",
            "coordinates": [
              14.8175782,
              47.2108453
            ]
          }
        },
        {
          "type": "Feature",
          "properties": {
            "id": "1363891675",
            "osm_type": "node",
            "lat": 47.2174827,
            "lon": 14.8274376,
            "amenity": "fuel",
            "brand": "Shell",
            "brand:wikidata": "Q154950",
            "brand:wikipedia": "en:Royal Dutch Shell",
            "name": "Shell"
          },
          "geometry": {
            "type": "Point",
            "coordinates": [
              14.8274376,
              47.2174827
            ]
          }
        },
        {
          "type": "Feature",
          "properties": {
            "id": "1575083268",
            "osm_type": "node",
            "lat": 47.169659,
            "lon": 14.6467206,
            "addr:city": "Judenburg",
            "addr:country": "AT",
            "addr:housenumber": "85a",
            "addr:postcode": "8750",
            "addr:street": "Burggasse",
            "amenity": "fuel",
            "brand": "SOCAR",
            "brand:wikidata": "Q1622293",
            "fuel:diesel": "yes",
            "fuel:octane_95": "yes",
            "name": "SOCAR",
            "opening_hours": "Mo-Sa 06:00-22:00; Su 07:00-21:00",
            "phone": "+43 3572 82 469",
            "shop": "kiosk"
          },
          "geometry": {
            "type": "Point",
            "coordinates": [
              14.6467206,
              47.169659
            ]
          }
        },
        {
          "type": "Feature",
          "properties": {
            "id": "1658843357",
            "osm_type": "node",
            "lat": 47.1976234,
            "lon": 14.7676103,
            "amenity": "fuel"
          },
          "geometry": {
            "type": "Point",
            "coordinates": [
              14.7676103,
              47.1976234
            ]
          }
        },
        {
          "type": "Feature",
          "properties": {
            "id": "1659268054",
            "osm_type": "node",
            "lat": 47.1975116,
            "lon": 14.7667521,
            "amenity": "fuel",
            "brand": "BP",
            "brand:wikidata": "Q152057",
            "fuel:GTL_diesel": "yes",
            "fuel:diesel": "yes",
            "fuel:octane_95": "yes",
            "mobile": "+43 3577 24800",
            "name": "bp",
            "opening_hours": "Mo-Fr 06:00-22:00; Sa,Su 07:00-21:30",
            "website": "https://map.bp.com/de-AT/AT/tankstelle/zeltweg/zeltweg-hauptstr-2/2100411926",
            "wheelchair": "yes"
          },
          "geometry": {
            "type": "Point",
            "coordinates": [
              14.7667521,
              47.1975116
            ]
          }
        },
        {
          "type": "Feature",
          "properties": {
            "id": "1718032589",
            "osm_type": "node",
            "lat": 47.3500299,
            "lon": 15.0089975,
            "addr:country": "AT",
            "addr:housenumber": "50",
            "addr:postcode": "8770",
            "addr:street": "Bundesstraße",
            "amenity": "fuel",
            "brand": "Rumpold",
            "fuel:diesel": "yes",
            "fuel:octane_95": "yes",
            "fuel:octane_98": "yes",
            "name": "Rumpold",
            "phone": "+433843 2471 0",
            "website": "https://www.rumpold.net"
          },
          "geometry": {
            "type": "Point",
            "coordinates": [
              15.0089975,
              47.3500299
            ]
          }
        },
        {
          "type": "Feature",
          "properties": {
            "id": "2009121513",
            "osm_type": "node",
            "lat": 47.1950287,
            "lon": 14.7135084,
            "addr:city": "Aichdorf",
            "addr:housenumber": "33",
            "addr:postcode": "8753",
            "addr:street": "Bundesstraße",
            "amenity": "fuel",
            "fuel:GTL_diesel": "yes",
            "fuel:diesel": "yes",
            "fuel:octane_95": "yes",
            "fuel:octane_98": "yes",
            "name": "AUTO-WILDBOLZ",
            "opening_hours": "24/7",
            "operator": "AUTO-WILDBOLZ",
            "payment:american_express": "yes",
            "payment:cash": "yes",
            "payment:credit_cards": "yes",
            "payment:customer_card": "yes",
            "payment:maestro": "yes",
            "payment:mastercard": "yes",
            "payment:visa": "yes",
            "website": "https://www.auto-wildbolz.at"
          },
          "geometry": {
            "type": "Point",
            "coordinates": [
              14.7135084,
              47.1950287
            ]
          }
        },
        {
          "type": "Feature",
          "properties": {
            "id": "3835616514",
            "osm_type": "node",
            "lat": 47.1942634,
            "lon": 14.7223382,
            "amenity": "fuel",
            "fuel:diesel": "yes",
            "fuel:octane_95": "yes",
            "name": "M-Rast",
            "shop": "yes"
          },
          "geometry": {
            "type": "Point",
            "coordinates": [
              14.7223382,
              47.1942634
            ]
          }
        },
        {
          "type": "Feature",
          "properties": {
            "id": "3964583517",
            "osm_type": "node",
            "lat": 47.1953071,
            "lon": 14.7410773,
            "addr:city": "Zeltweg",
            "addr:country": "AT",
            "addr:housenumber": "28",
            "addr:postcode": "8740",
            "addr:street": "Bundesstraße",
            "amenity": "fuel",
            "brand": "Hofer Diskont",
            "brand:wikidata": "Q107803455",
            "fuel:diesel": "yes",
            "fuel:octane_95": "yes",
            "name": "Hofer Diskont",
            "opening_hours": "Mo-Su 06:00-22:00",
            "operator": "Hofer Diskont",
            "payment:maestro": "yes",
            "website": "https://www.diskonttanken.at"
          },
          "geometry": {
            "type": "Point",
            "coordinates": [
              14.7410773,
              47.1953071
            ]
          }
        },
        {
          "type": "Feature",
          "properties": {
            "id": "4592321393",
            "osm_type": "node",
            "lat": 47.2061154,
            "lon": 14.6783757,
            "addr:city": "Fohnsdorf",
            "addr:country": "AT",
            "addr:district": "Murtal",
            "addr:housenumber": "12",
            "addr:postcode": "8753",
            "addr:street": "Judenburger Straße",
            "amenity": "fuel",
            "brand": "Turmöl",
            "brand:wikidata": "Q1473279",
            "brand:wikipedia": "de:Turmöl",
            "fuel:HGV_diesel": "yes",
            "fuel:diesel": "yes",
            "name": "Turmöl Quick",
            "opening_hours": "24/7",
            "phone": "+43 (0) 7242 2490",
            "website": "https://xn--turml-mua.at/kontakt/"
          },
          "geometry": {
            "type": "Point",
            "coordinates": [
              14.6783757,
              47.2061154
            ]
          }
        },
        {
          "type": "Feature",
          "properties": {
            "id": "4869441100",
            "osm_type": "node",
            "lat": 47.2279669,
            "lon": 14.7597545,
            "addr:city": "Spielberg",
            "addr:housenumber": "1",
            "addr:postcode": "8724",
            "addr:street": "Red-Bull-Ring-Straße",
            "amenity": "fuel",
            "fuel:diesel": "yes",
            "fuel:octane_100": "yes",
            "fuel:octane_95": "yes",
            "opening_hours": "24/7"
          },
          "geometry": {
            "type": "Point",
            "coordinates": [
              14.7597545,
              47.2279669
            ]
          }
        },
        {
          "type": "Feature",
          "properties": {
            "id": "5478266477",
            "osm_type": "node",
            "lat": 47.1942127,
            "lon": 14.5922685,
            "amenity": "fuel"
          },
          "geometry": {
            "type": "Point",
            "coordinates": [
              14.5922685,
              47.1942127
            ]
          }
        },
        {
          "type": "Feature",
          "properties": {
            "id": "5569687257",
            "osm_type": "node",
            "lat": 47.2101132,
            "lon": 14.8150749,
            "addr:city": "Knittefeld",
            "addr:country": "AT",
            "addr:housenumber": "61a",
            "addr:postcode": "8720",
            "addr:street": "Kärntner Straße",
            "amenity": "fuel",
            "brand": "Socar",
            "brand:wikidata": "Q1622293",
            "brand:wikipedia": "de:State Oil Company of Azerbaijan Republic",
            "contact:fax": "+43 3512 73 112-13",
            "contact:phone": "+43 3512 73112",
            "fuel:diesel": "yes",
            "fuel:octane_95": "yes",
            "name": "SOCAR",
            "old_name": "A1 Tankstellenbetrieb GmbH",
            "opening_hours": "Mo-Sa 06:00-22:00; Su 07:00-21:00"
          },
          "geometry": {
            "type": "Point",
            "coordinates": [
              14.8150749,
              47.2101132
            ]
          }
        },
        {
          "type": "Feature",
          "properties": {
            "id": "5606437021",
            "osm_type": "node",
            "lat": 47.1322924,
            "lon": 14.738782,
            "amenity": "fuel",
            "compressed_air": "yes",
            "fuel:diesel": "yes",
            "name": "Land lebt auf",
            "opening_hours": "24/7",
            "operator": "Andreas Perfler GmbH",
            "payment:credit_cards": "yes",
            "payment:debit_cards": "yes",
            "shop": "yes",
            "wheelchair": "yes"
          },
          "geometry": {
            "type": "Point",
            "coordinates": [
              14.738782,
              47.1322924
            ]
          }
        },
        {
          "type": "Feature",
          "properties": {
            "id": "5621542620",
            "osm_type": "node",
            "lat": 47.2173073,
            "lon": 14.8397371,
            "addr:city": "Knittelfeld",
            "addr:housenumber": "9",
            "addr:postcode": "8720",
            "addr:street": "Leobner Straße",
            "amenity": "fuel",
            "fuel:diesel": "yes",
            "name": "Landforst Sprint",
            "payment:bancomat": "yes",
            "payment:cash": "yes"
          },
          "geometry": {
            "type": "Point",
            "coordinates": [
              14.8397371,
              47.2173073
            ]
          }
        },
        {
          "type": "Feature",
          "properties": {
            "id": "5633142108",
            "osm_type": "node",
            "lat": 47.2180551,
            "lon": 14.8159164,
            "addr:city": "Knittelfeld",
            "addr:country": "AT",
            "addr:district": "Murtal",
            "addr:housenumber": "59",
            "addr:postcode": "8720",
            "addr:street": "Anton-Regner-Straße",
            "amenity": "fuel",
            "brand": "Eni",
            "brand:wikidata": "Q565594",
            "brand:wikipedia": "en:Eni",
            "fuel:diesel": "yes",
            "fuel:octane_95": "yes",
            "name": "Eni",
            "payment:routex": "yes"
          },
          "geometry": {
            "type": "Point",
            "coordinates": [
              14.8159164,
              47.2180551
            ]
          }
        },
        {
          "type": "Feature",
          "properties": {
            "id": "5831950886",
            "osm_type": "node",
            "lat": 47.2099772,
            "lon": 14.8082672,
            "addr:city": "Knittelfeld",
            "addr:country": "AT",
            "addr:district": "Murtal",
            "addr:housenumber": "75",
            "addr:postcode": "8720",
            "addr:street": "Kärntner Straße",
            "amenity": "fuel",
            "brand": "Avanti",
            "brand:wikidata": "Q168238",
            "brand:wikipedia": "en:OMV",
            "fuel:diesel": "yes",
            "fuel:octane_95": "yes",
            "name": "Avanti",
            "opening_hours": "24/7",
            "operator": "Avanti"
          },
          "geometry": {
            "type": "Point",
            "coordinates": [
              14.8082672,
              47.2099772
            ]
          }
        },
        {
          "type": "Feature",
          "properties": {
            "id": "6211244794",
            "osm_type": "node",
            "lat": 47.1688406,
            "lon": 14.6544352,
            "addr:city": "Judenburg",
            "addr:country": "AT",
            "addr:housenumber": "42",
            "addr:postcode": "8750",
            "addr:street": "Burggasse",
            "amenity": "fuel",
            "brand": "Turmöl",
            "brand:wikidata": "Q1473279",
            "brand:wikipedia": "de:Turmöl",
            "fuel:diesel": "yes",
            "fuel:octane_95": "yes",
            "fuel:octane_98": "yes",
            "name": "Turmöl",
            "opening_hours": "24/7",
            "operator": "Doppler Mineralöle GmbH",
            "payment:cash": "yes",
            "payment:credit_cards": "yes",
            "payment:debit_cards": "yes",
            "payment:maestro": "yes",
            "payment:mastercard": "yes",
            "payment:routex": "yes",
            "payment:visa": "yes",
            "self_service": "yes",
            "shop": "yes"
          },
          "geometry": {
            "type": "Point",
            "coordinates": [
              14.6544352,
              47.1688406
            ]
          }
        },
        {
          "type": "Feature",
          "properties": {
            "id": "6848667683",
            "osm_type": "node",
            "lat": 47.3088069,
            "lon": 14.9418072,
            "addr:city": "Kraubath an der Mur",
            "addr:country": "AT",
            "addr:housenumber": "1",
            "addr:postcode": "8714",
            "addr:street": "Bundesstraße",
            "amenity": "fuel",
            "name": "F.Leitner",
            "opening_hours": "Mo-Su 00:00-24:00",
            "phone": "+43 316 777",
            "website": "https://www.leitner-mineraloele.at/",
            "wheelchair": "yes"
          },
          "geometry": {
            "type": "Point",
            "coordinates": [
              14.9418072,
              47.3088069
            ]
          }
        },
        {
          "type": "Feature",
          "properties": {
            "id": "8400254464",
            "osm_type": "node",
            "lat": 47.2106044,
            "lon": 14.784784,
            "amenity": "fuel",
            "brand": "Socar",
            "brand:wikidata": "Q1622293",
            "brand:wikipedia": "en:SOCAR",
            "email": "office@ringrast.at",
            "fixme": "Es gibt noch kein aktuelles Luftbild davon 04.02.2021",
            "fuel:diesel": "yes",
            "fuel:octane_100": "yes",
            "name": "Socar",
            "opening_hours": "Mo-Su 06:00-21:00",
            "payment:bancomat": "no",
            "payment:coins": "yes",
            "payment:credit_cards": "yes",
            "payment:notes": "yes",
            "phone": "+43351220420",
            "website": "https://ringrast.at/#topic",
            "wheelchair": "yes"
          },
          "geometry": {
            "type": "Point",
            "coordinates": [
              14.784784,
              47.2106044
            ]
          }
        },
        {
          "type": "Feature",
          "properties": {
            "id": "9394256438",
            "osm_type": "node",
            "lat": 47.1844344,
            "lon": 14.5958036,
            "amenity": "fuel",
            "brand": "Turmöl",
            "brand:wikidata": "Q1473279",
            "fuel:diesel": "yes",
            "fuel:octane_95": "yes",
            "name": "Turmöl Quick",
            "opening_hours": "24/7",
            "payment:mastercard": "yes",
            "payment:notes": "yes",
            "payment:visa": "yes",
            "shop": "no",
            "wheelchair": "yes"
          },
          "geometry": {
            "type": "Point",
            "coordinates": [
              14.5958036,
              47.1844344
            ]
          }
        },
        {
          "type": "Feature",
          "properties": {
            "id": "326031208",
            "osm_type": "node",
            "lat": 47.0941078,
            "lon": 15.1822904,
            "amenity": "fuel",
            "operator": "BP"
          },
          "geometry": {
            "type": "Point",
            "coordinates": [
              15.1822904,
              47.0941078
            ]
          }
        },
        {
          "type": "Feature",
          "properties": {
            "id": "493224477",
            "osm_type": "node",
            "lat": 47.0546599,
            "lon": 15.1365991,
            "amenity": "fuel",
            "name": "Hohl GesmbH."
          },
          "geometry": {
            "type": "Point",
            "coordinates": [
              15.1365991,
              47.0546599
            ]
          }
        },
        {
          "type": "Feature",
          "properties": {
            "id": "559601983",
            "osm_type": "node",
            "lat": 47.035491,
            "lon": 15.169799,
            "addr:city": "Voitsberg",
            "addr:country": "AT",
            "addr:housenumber": "2",
            "addr:postcode": "8570",
            "addr:street": "Umfahrungsstraße",
            "amenity": "fuel",
            "at_bev:addr_date": "2018-10-01",
            "brand": "Turmöl",
            "brand:wikidata": "Q1473279",
            "brand:wikipedia": "de:Turmöl",
            "fuel:diesel": "yes",
            "fuel:octane_91": "yes",
            "fuel:octane_95": "yes",
            "name": "Turmöl",
            "note": "No Service !!",
            "operator": "BP"
          },
          "geometry": {
            "type": "Point",
            "coordinates": [
              15.169799,
              47.035491
            ]
          }
        },
        {
          "type": "Feature",
          "properties": {
            "id": "1374893627",
            "osm_type": "node",
            "lat": 47.0619222,
            "lon": 15.0921621,
            "addr:city": "Köflach",
            "addr:country": "AT",
            "addr:housenumber": "24",
            "addr:postcode": "8580",
            "addr:street": "Grazerstraße",
            "amenity": "fuel",
            "brand": "Treibstoffparadies",
            "contact:phone": "+43 3144 2625",
            "fuel:1_25": "yes",
            "fuel:1_50": "yes",
            "fuel:GTL_diesel": "no",
            "fuel:HGV_diesel": "no",
            "fuel:biodiesel": "no",
            "fuel:biogas": "no",
            "fuel:cng": "no",
            "fuel:diesel": "yes",
            "fuel:e10": "no",
            "fuel:e85": "no",
            "fuel:electricity": "no",
            "fuel:lpg": "no",
            "fuel:octane_100": "no",
            "fuel:octane_91": "yes",
            "fuel:octane_95": "yes",
            "fuel:octane_98": "yes",
            "name": "Treibstoffparadies Kohlhammer",
            "opening_hours": "Mo-Sa 06:00-21:00; Su 07:00-21:00",
            "website": "https://www.treibstoffparadies.at/"
          },
          "geometry": {
            "type": "Point",
            "coordinates": [
              15.0921621,
              47.0619222
            ]
          }
        },
        {
          "type": "Feature",
          "properties": {
            "id": "1417890893",
            "osm_type": "node",
            "lat": 47.0510571,
            "lon": 15.219154,
            "amenity": "fuel",
            "brand": "Turmöl",
            "brand:wikidata": "Q1473279",
            "brand:wikipedia": "de:Turmöl",
            "name": "Turmöl"
          },
          "geometry": {
            "type": "Point",
            "coordinates": [
              15.219154,
              47.0510571
            ]
          }
        },
        {
          "type": "Feature",
          "properties": {
            "id": "2201625206",
            "osm_type": "node",
            "lat": 47.1313791,
            "lon": 15.034817,
            "amenity": "fuel"
          },
          "geometry": {
            "type": "Point",
            "coordinates": [
              15.034817,
              47.1313791
            ]
          }
        },
        {
          "type": "Feature",
          "properties": {
            "id": "2362824609",
            "osm_type": "node",
            "lat": 47.224723,
            "lon": 15.2391888,
            "amenity": "fuel",
            "brand": "Lagerhaus",
            "fuel:1_25": "yes",
            "fuel:1_50": "yes",
            "fuel:diesel": "yes",
            "fuel:octane_95": "yes",
            "operator": "Ein u. Verkaufsgenossenschaft Frohnleiten",
            "shop": "yes"
          },
          "geometry": {
            "type": "Point",
            "coordinates": [
              15.2391888,
              47.224723
            ]
          }
        },
        {
          "type": "Feature",
          "properties": {
            "id": "3235264981",
            "osm_type": "node",
            "lat": 47.1374476,
            "lon": 15.0959789,
            "amenity": "fuel",
            "fuel:diesel": "yes",
            "name": "Tankstelle (nur mit Berechtigung)",
            "note": "Nur mit Berechtigung Diesel",
            "operator": "Gemeinde Kainach",
            "self_service": "yes"
          },
          "geometry": {
            "type": "Point",
            "coordinates": [
              15.0959789,
              47.1374476
            ]
          }
        },
        {
          "type": "Feature",
          "properties": {
            "id": "3361720169",
            "osm_type": "node",
            "lat": 47.044609,
            "lon": 15.1591096,
            "addr:city": "Voitsberg",
            "addr:country": "AT",
            "addr:housenumber": "70",
            "addr:postcode": "8570",
            "addr:street": "Grazer Vorstadt",
            "amenity": "fuel",
            "brand": "Turmöl",
            "brand:wikidata": "Q1473279",
            "brand:wikipedia": "de:Turmöl",
            "name": "Turmöl",
            "opening_hours": "Mo-Su 06:00-23:00",
            "phone": "+43 3142 22283"
          },
          "geometry": {
            "type": "Point",
            "coordinates": [
              15.1591096,
              47.044609
            ]
          }
        },
        {
          "type": "Feature",
          "properties": {
            "id": "3408662575",
            "osm_type": "node",
            "lat": 47.0614736,
            "lon": 15.0794169,
            "addr:city": "Köflach",
            "addr:country": "AT",
            "addr:housenumber": "20",
            "addr:postcode": "8580",
            "addr:street": "Kärntnerstraße",
            "amenity": "fuel",
            "brand": "Turmöl",
            "brand:wikidata": "Q1473279",
            "contact:email": "koeflach.kaerntnerstr@doppler-tankstellen.at",
            "contact:phone": "+43 3144 2638",
            "fuel:1_25": "yes",
            "fuel:1_50": "yes",
            "fuel:diesel": "yes",
            "fuel:octane_95": "yes",
            "fuel:octane_98": "yes",
            "name": "Turmöl",
            "opening_hours": "24/7"
          },
          "geometry": {
            "type": "Point",
            "coordinates": [
              15.0794169,
              47.0614736
            ]
          }
        },
        {
          "type": "Feature",
          "properties": {
            "id": "4970888028",
            "osm_type": "node",
            "lat": 47.0392264,
            "lon": 15.1648108,
            "amenity": "fuel",
            "brand": "Hofer Diskont",
            "brand:wikidata": "Q107803455",
            "fuel:diesel": "yes",
            "fuel:octane_95": "yes",
            "name": "Hofer Diskont",
            "opening_hours": "Apr-Oct: 00:00-24:00; Nov-Mar: Mo-Su 06:00-22:00",
            "start_date": "2017-06-16",
            "website": "https://www.diskonttanken.at"
          },
          "geometry": {
            "type": "Point",
            "coordinates": [
              15.1648108,
              47.0392264
            ]
          }
        },
        {
          "type": "Feature",
          "properties": {
            "id": "5711128821",
            "osm_type": "node",
            "lat": 47.3640604,
            "lon": 15.0962824,
            "addr:city": "Leoben",
            "addr:country": "AT",
            "addr:housenumber": "7",
            "addr:postcode": "8700",
            "addr:street": "Hirschgraben",
            "addr:suburb": "Göß",
            "amenity": "fuel",
            "at_bev:addr_date": "2017-10-01",
            "brand": "BP",
            "brand:wikidata": "Q152057",
            "brand:wikipedia": "en:BP",
            "capacity": "6",
            "name": "BP",
            "opening_hours": "24/7",
            "self_service": "yes"
          },
          "geometry": {
            "type": "Point",
            "coordinates": [
              15.0962824,
              47.3640604
            ]
          }
        },
        {
          "type": "Feature",
          "properties": {
            "id": "6989736074",
            "osm_type": "node",
            "lat": 47.355296,
            "lon": 15.0852638,
            "addr:city": "Leoben",
            "addr:country": "AT",
            "addr:housenumber": "2",
            "addr:postcode": "8700",
            "addr:street": "Prettachstraße",
            "amenity": "fuel",
            "brand": "Leitner Mineralöle",
            "email": "office@leitner-mineraloele.at",
            "fax": "+43 316 777 22",
            "fuel:adblue": "yes",
            "fuel:diesel": "yes",
            "name": "F. Leitner",
            "operator": "Mag. Harald LEITNER",
            "phone": "+43 316 777",
            "website": "https://leitner-mineraloele.at"
          },
          "geometry": {
            "type": "Point",
            "coordinates": [
              15.0852638,
              47.355296
            ]
          }
        },
        {
          "type": "Feature",
          "properties": {
            "id": "7988244265",
            "osm_type": "node",
            "lat": 47.0523992,
            "lon": 15.1322636,
            "amenity": "fuel",
            "fuel:diesel": "yes",
            "fuel:octane_95": "yes",
            "fuel:octane_98": "yes",
            "name": "Lagerhaus",
            "self_service": "yes"
          },
          "geometry": {
            "type": "Point",
            "coordinates": [
              15.1322636,
              47.0523992
            ]
          }
        }
      ],
      "children": []
    },
    {
      "bbox": {
        "south": 47.36431175,
        "west": 13.345766,
        "north": 47.694865,
        "east": 14.2994695
      },
      "poiCount": 26,
      "leafCount": 26,
      "averagePosition": [
        13.799379561538462,
        47.470703430769234
      ],
      "data": [
        {
          "type": "Feature",
          "properties": {
            "id": "248662624",
            "osm_type": "node",
            "lat": 47.3868717,
            "lon": 13.4514816,
            "amenity": "fuel",
            "brand": "Eni",
            "brand:wikidata": "Q565594",
            "brand:wikipedia": "en:Eni",
            "name": "Eni"
          },
          "geometry": {
            "type": "Point",
            "coordinates": [
              13.4514816,
              47.3868717
            ]
          }
        },
        {
          "type": "Feature",
          "properties": {
            "id": "548788809",
            "osm_type": "node",
            "lat": 47.4211424,
            "lon": 13.3806431,
            "amenity": "fuel",
            "brand": "Shell",
            "brand:wikidata": "Q154950",
            "brand:wikipedia": "en:Royal Dutch Shell",
            "name": "Shell",
            "phone": "+43 6458 8401",
            "wheelchair": "yes"
          },
          "geometry": {
            "type": "Point",
            "coordinates": [
              13.3806431,
              47.4211424
            ]
          }
        },
        {
          "type": "Feature",
          "properties": {
            "id": "656251439",
            "osm_type": "node",
            "lat": 47.3811522,
            "lon": 13.4170011,
            "amenity": "fuel",
            "brand": "BP",
            "brand:wikidata": "Q152057",
            "brand:wikipedia": "en:BP",
            "fuel:diesel": "yes",
            "fuel:octane_98": "yes",
            "name": "BP",
            "opening_hours": "Mo-Su 06:00-20:00"
          },
          "geometry": {
            "type": "Point",
            "coordinates": [
              13.4170011,
              47.3811522
            ]
          }
        },
        {
          "type": "Feature",
          "properties": {
            "id": "1191909028",
            "osm_type": "node",
            "lat": 47.3865989,
            "lon": 13.4509463,
            "amenity": "fuel",
            "brand": "Eni",
            "brand:wikidata": "Q565594",
            "brand:wikipedia": "en:Eni",
            "compressed_air": "yes",
            "name": "Eni"
          },
          "geometry": {
            "type": "Point",
            "coordinates": [
              13.4509463,
              47.3865989
            ]
          }
        },
        {
          "type": "Feature",
          "properties": {
            "id": "1259564409",
            "osm_type": "node",
            "lat": 47.5896827,
            "lon": 13.4644137,
            "amenity": "fuel",
            "fuel:biodiesel": "no",
            "fuel:diesel": "yes",
            "fuel:ethanol": "no",
            "fuel:lpg": "no",
            "fuel:octane_100": "no",
            "fuel:octane_95": "yes",
            "fuel:octane_98": "no",
            "name": "lm energy Schwaighofer"
          },
          "geometry": {
            "type": "Point",
            "coordinates": [
              13.4644137,
              47.5896827
            ]
          }
        },
        {
          "type": "Feature",
          "properties": {
            "id": "1467975139",
            "osm_type": "node",
            "lat": 47.420858,
            "lon": 13.3840382,
            "amenity": "fuel",
            "brand": "Shell",
            "brand:wikidata": "Q154950",
            "brand:wikipedia": "en:Royal Dutch Shell",
            "fuel:adblue": "yes",
            "fuel:diesel": "yes",
            "fuel:octane_95": "yes",
            "name": "Shell",
            "phone": "+43 6458 8401"
          },
          "geometry": {
            "type": "Point",
            "coordinates": [
              13.3840382,
              47.420858
            ]
          }
        },
        {
          "type": "Feature",
          "properties": {
            "id": "3380369571",
            "osm_type": "node",
            "lat": 47.4695913,
            "lon": 13.3841217,
            "addr:city": "Sankt Martin am Tennengebirge",
            "addr:country": "AT",
            "addr:housenumber": "24",
            "addr:postcode": "5522",
            "addr:street": "Lammertalstraße",
            "amenity": "fuel",
            "at_bev:addr_date": "2017-10-01",
            "name": "RTA Hirscher"
          },
          "geometry": {
            "type": "Point",
            "coordinates": [
              13.3841217,
              47.4695913
            ]
          }
        },
        {
          "type": "Feature",
          "properties": {
            "id": "6543989605",
            "osm_type": "node",
            "lat": 47.4333953,
            "lon": 13.5193745,
            "addr:city": "Filzmoos",
            "addr:country": "AT",
            "addr:housenumber": "14",
            "addr:postcode": "5532",
            "addr:street": "Filzmooser Straße",
            "amenity": "fuel",
            "brand": "Independent",
            "contact:email": "office@lm-energy.at",
            "contact:phone": "+43 662 807 0303",
            "contact:website": "http://www.leikermoser.at",
            "fuel:diesel": "yes",
            "fuel:octane_95": "yes",
            "name": "LM Energy",
            "opening_hours": "06:00-22:00",
            "operator": "Leikermoser Energiehandel GmbH",
            "payment:american_express": "yes",
            "payment:notes": "yes",
            "payment:visa": "yes",
            "vending_machine": "fuel"
          },
          "geometry": {
            "type": "Point",
            "coordinates": [
              13.5193745,
              47.4333953
            ]
          }
        },
        {
          "type": "Feature",
          "properties": {
            "id": "8850821626",
            "osm_type": "node",
            "lat": 47.3825885,
            "lon": 13.4271277,
            "addr:city": "Altenmarkt im Pongau",
            "addr:postcode": "5541",
            "addr:street": "Bahnhofstraße",
            "amenity": "fuel",
            "description": "Tankstelle und SB-Lanzenwäsche.",
            "image": "https://www.salzburger-lagerhaus.at/standorte/image-thumb__81078__ccLocationDetail/altenmarkt-tankstelle-neu.webp",
            "opening_hours": "Mo-Su 06:00-22:00",
            "operator": "Lagerhaus Altenmarkt",
            "phone": "+43 6452 5531",
            "self_service": "yes"
          },
          "geometry": {
            "type": "Point",
            "coordinates": [
              13.4271277,
              47.3825885
            ]
          }
        },
        {
          "type": "Feature",
          "properties": {
            "id": "648552185",
            "osm_type": "node",
            "lat": 47.3896195,
            "lon": 13.6539084,
            "amenity": "fuel",
            "brand": "Eni",
            "brand:wikidata": "Q565594",
            "brand:wikipedia": "en:Eni",
            "name": "Eni"
          },
          "geometry": {
            "type": "Point",
            "coordinates": [
              13.6539084,
              47.3896195
            ]
          }
        },
        {
          "type": "Feature",
          "properties": {
            "id": "761547883",
            "osm_type": "node",
            "lat": 47.5529119,
            "lon": 13.648219,
            "addr:city": "Hallstatt",
            "addr:country": "AT",
            "addr:street": "Lahnstraße",
            "amenity": "fuel",
            "fuel:diesel": "yes",
            "fuel:octane_95": "yes",
            "name": "K&K Tankstelle Hallstatt",
            "opening_hours": "Mo-Su 07:00-19:00",
            "operator": "Karoly Keller",
            "outdoor_seating": "yes",
            "phone": "+4361348712",
            "self_service": "yes"
          },
          "geometry": {
            "type": "Point",
            "coordinates": [
              13.648219,
              47.5529119
            ]
          }
        },
        {
          "type": "Feature",
          "properties": {
            "id": "1044751348",
            "osm_type": "node",
            "lat": 47.3939122,
            "lon": 13.6816538,
            "amenity": "fuel",
            "fuel:diesel": "yes",
            "self_service": "yes"
          },
          "geometry": {
            "type": "Point",
            "coordinates": [
              13.6816538,
              47.3939122
            ]
          }
        },
        {
          "type": "Feature",
          "properties": {
            "id": "1358085314",
            "osm_type": "node",
            "lat": 47.4363445,
            "lon": 13.9415421,
            "addr:city": "Sölk",
            "addr:country": "AT",
            "addr:housenumber": "44",
            "addr:place": "Stein an der Enns",
            "addr:postcode": "8961",
            "addr:suburb": "Großsölk",
            "amenity": "fuel",
            "at_bev:addr_date": "2018-04-02",
            "name": "Shell Tankstelle Moser"
          },
          "geometry": {
            "type": "Point",
            "coordinates": [
              13.9415421,
              47.4363445
            ]
          }
        },
        {
          "type": "Feature",
          "properties": {
            "id": "2110380678",
            "osm_type": "node",
            "lat": 47.4491857,
            "lon": 13.9037719,
            "addr:city": "Gröbming",
            "addr:country": "AT",
            "addr:housenumber": "456",
            "addr:postcode": "8962",
            "addr:street": "Hauptstraße",
            "amenity": "fuel",
            "brand": "Eni",
            "contact:phone": "+43 3685/22195",
            "fuel:diesel": "yes",
            "fuel:octane_91": "yes",
            "fuel:octane_95": "yes",
            "fuel:octane_98": "yes",
            "name": "Eni Gröbming",
            "opening_hours": "Mo-Su,PH 06:00-20:00",
            "payment:routex": "yes"
          },
          "geometry": {
            "type": "Point",
            "coordinates": [
              13.9037719,
              47.4491857
            ]
          }
        },
        {
          "type": "Feature",
          "properties": {
            "id": "2860543355",
            "osm_type": "node",
            "lat": 47.4601767,
            "lon": 13.9852779,
            "addr:city": "Öblarn",
            "addr:country": "AT",
            "addr:housenumber": "172",
            "addr:place": "Öblarn",
            "addr:postcode": "8960",
            "amenity": "fuel",
            "at_bev:addr_date": "2019-10-01",
            "brand": "BP",
            "fuel:diesel": "yes",
            "fuel:octane_95": "yes",
            "name": "Tankstelle Thomas Knerzl",
            "opening_hours": "Mo-Su 07:00-20:00",
            "operator": "Knerzl Thomas",
            "phone": "+43 3684 2323",
            "shop": "convenience"
          },
          "geometry": {
            "type": "Point",
            "coordinates": [
              13.9852779,
              47.4601767
            ]
          }
        },
        {
          "type": "Feature",
          "properties": {
            "id": "2903385576",
            "osm_type": "node",
            "lat": 47.3958421,
            "lon": 13.7012969,
            "addr:city": "Schladming",
            "addr:housenumber": "43",
            "addr:postcode": "8970",
            "addr:street": "Pichlhof",
            "amenity": "fuel",
            "brand": "JET",
            "brand:wikidata": "Q568940",
            "brand:wikipedia": "en:Jet (brand)",
            "compressed_air": "yes",
            "name": "Jet",
            "opening_hours": "Mo-Su,PH 00:00+",
            "operator": "Jet"
          },
          "geometry": {
            "type": "Point",
            "coordinates": [
              13.7012969,
              47.3958421
            ]
          }
        },
        {
          "type": "Feature",
          "properties": {
            "id": "5609787864",
            "osm_type": "node",
            "lat": 47.4805079,
            "lon": 14.0100182,
            "amenity": "fuel",
            "compressed_air": "no"
          },
          "geometry": {
            "type": "Point",
            "coordinates": [
              14.0100182,
              47.4805079
            ]
          }
        },
        {
          "type": "Feature",
          "properties": {
            "id": "6775067994",
            "osm_type": "node",
            "lat": 47.4860639,
            "lon": 13.9835988,
            "addr:city": "St. Martin am Grimming",
            "addr:country": "AT",
            "addr:housenumber": "88",
            "addr:place": "St. Martin am Grimming",
            "addr:postcode": "8954",
            "amenity": "fuel",
            "brand": "Land lebt auf",
            "compressed_air": "yes",
            "contact:email": "maierl.st-martin@landlebtauf.at",
            "fuel:diesel": "yes",
            "fuel:octane_95": "yes",
            "fuel:octane_98": "yes",
            "name": "Land lebt auf",
            "opening_hours": "24/7",
            "operator": "Franz Maierl",
            "website": "http://www.landlebtauf.com/index.php?id=115"
          },
          "geometry": {
            "type": "Point",
            "coordinates": [
              13.9835988,
              47.4860639
            ]
          }
        },
        {
          "type": "Feature",
          "properties": {
            "id": "10991922934",
            "osm_type": "node",
            "lat": 47.3904415,
            "lon": 13.657324,
            "amenity": "fuel",
            "brand": "Hofer Diskont",
            "brand:wikidata": "Q107803455",
            "name": "Hofer",
            "opening_hours": "24/7",
            "operator": "Hofer"
          },
          "geometry": {
            "type": "Point",
            "coordinates": [
              13.657324,
              47.3904415
            ]
          }
        },
        {
          "type": "Feature",
          "properties": {
            "id": "1072275900",
            "osm_type": "node",
            "lat": 47.5611473,
            "lon": 14.2483807,
            "amenity": "fuel",
            "brand": "Hofer Diskont",
            "brand:wikidata": "Q107803455",
            "compressed_air": "no",
            "fuel:diesel": "yes",
            "fuel:octane_98": "yes",
            "name": "Hofer Diskont",
            "opening_hours": "24/7",
            "operator": "Hofer Diskont",
            "self_service": "yes",
            "website": "https://www.diskonttanken.at"
          },
          "geometry": {
            "type": "Point",
            "coordinates": [
              14.2483807,
              47.5611473
            ]
          }
        },
        {
          "type": "Feature",
          "properties": {
            "id": "5333970676",
            "osm_type": "node",
            "lat": 47.5602253,
            "lon": 14.258117,
            "amenity": "fuel",
            "brand": "JET",
            "brand:wikidata": "Q568940",
            "brand:wikipedia": "en:Jet (brand)",
            "compressed_air": "yes",
            "contact:phone": "+43 3612 222900",
            "fuel:diesel": "yes",
            "fuel:octane_95": "yes",
            "fuel:octane_98": "yes",
            "name": "Jet",
            "operator": "Jet",
            "tenant": "Michael Kurzidim",
            "website": "https://www.jet-austria.at/tankstellen-suche?location=Liezen"
          },
          "geometry": {
            "type": "Point",
            "coordinates": [
              14.258117,
              47.5602253
            ]
          }
        },
        {
          "type": "Feature",
          "properties": {
            "id": "5333971667",
            "osm_type": "node",
            "lat": 47.5595289,
            "lon": 14.2535247,
            "addr:city": "Liezen",
            "addr:country": "AT",
            "addr:housenumber": "18",
            "addr:postcode": "8940",
            "addr:street": "Gesäusestraße",
            "amenity": "fuel",
            "at_bev:addr_date": "2020-04-01",
            "brand": "Eni",
            "brand:wikidata": "Q565594",
            "brand:wikipedia": "en:Eni",
            "fuel:GTL_diesel": "yes",
            "fuel:diesel": "yes",
            "fuel:octane_95": "yes",
            "fuel:octane_98": "yes",
            "name": "Eni",
            "opening_hours": "24/7",
            "operator": "Franz Puster",
            "payment:routex": "yes",
            "phone": "+43 3612/24561"
          },
          "geometry": {
            "type": "Point",
            "coordinates": [
              14.2535247,
              47.5595289
            ]
          }
        },
        {
          "type": "Feature",
          "properties": {
            "id": "5333971674",
            "osm_type": "node",
            "lat": 47.5636913,
            "lon": 14.2422694,
            "amenity": "fuel",
            "brand": "Shell",
            "brand:wikidata": "Q110716465",
            "brand:wikipedia": "en:Royal Dutch Shell",
            "building": "yes",
            "compressed_air": "yes",
            "contact:phone": "+43 3612 22701",
            "fuel:diesel": "yes",
            "fuel:octane_91": "yes",
            "fuel:octane_95": "yes",
            "fuel:octane_98": "yes",
            "name": "Shell",
            "opening_hours": "Mo-Su 05:00-24:00",
            "operator": "Shell",
            "website": "https://www.shell.at/tanken/shell-tankstellensuche/standorte.html/10022916-liezen-salzburgerstrasse"
          },
          "geometry": {
            "type": "Point",
            "coordinates": [
              14.2422694,
              47.5636913
            ]
          }
        },
        {
          "type": "Feature",
          "properties": {
            "id": "5333971678",
            "osm_type": "node",
            "lat": 47.5683151,
            "lon": 14.2282467,
            "amenity": "fuel",
            "brand": "BP",
            "brand:wikidata": "Q152057",
            "building": "yes",
            "fuel:diesel": "yes",
            "fuel:octane_95": "yes",
            "fuel:octane_98": "yes",
            "name": "BP"
          },
          "geometry": {
            "type": "Point",
            "coordinates": [
              14.2282467,
              47.5683151
            ]
          }
        },
        {
          "type": "Feature",
          "properties": {
            "id": "5338087923",
            "osm_type": "node",
            "lat": 47.5593069,
            "lon": 14.2538632,
            "amenity": "fuel",
            "fuel:lpg": "yes",
            "operator": "Franz Puster"
          },
          "geometry": {
            "type": "Point",
            "coordinates": [
              14.2538632,
              47.5593069
            ]
          }
        },
        {
          "type": "Feature",
          "properties": {
            "id": "6823348784",
            "osm_type": "node",
            "lat": 47.5591875,
            "lon": 14.253708,
            "amenity": "fuel",
            "fuel:cng": "yes",
            "operator": "Franz Puster"
          },
          "geometry": {
            "type": "Point",
            "coordinates": [
              14.253708,
              47.5591875
            ]
          }
        }
      ],
      "children": []
    },
    {
      "bbox": {
        "south": 47.36431175,
        "west": 14.2994695,
        "north": 47.694865,
        "east": 15.253173
      },
      "poiCount": 14,
      "leafCount": 14,
      "averagePosition": [
        14.896675492857144,
        47.47829729285714
      ],
      "data": [
        {
          "type": "Feature",
          "properties": {
            "id": "4741541881",
            "osm_type": "node",
            "lat": 47.4904963,
            "lon": 14.4863842,
            "amenity": "fuel",
            "compressed_air": "yes",
            "name": "TRT Ringl",
            "opening_hours": "24/7",
            "shop": "no"
          },
          "geometry": {
            "type": "Point",
            "coordinates": [
              14.4863842,
              47.4904963
            ]
          }
        },
        {
          "type": "Feature",
          "properties": {
            "id": "4983401802",
            "osm_type": "node",
            "lat": 47.5822776,
            "lon": 14.4547033,
            "amenity": "fuel",
            "compressed_air": "no"
          },
          "geometry": {
            "type": "Point",
            "coordinates": [
              14.4547033,
              47.5822776
            ]
          }
        },
        {
          "type": "Feature",
          "properties": {
            "id": "29393296",
            "osm_type": "node",
            "lat": 47.3990527,
            "lon": 14.8273588,
            "amenity": "fuel",
            "name": "Lagerhaus"
          },
          "geometry": {
            "type": "Point",
            "coordinates": [
              14.8273588,
              47.3990527
            ]
          }
        },
        {
          "type": "Feature",
          "properties": {
            "id": "30763342",
            "osm_type": "node",
            "lat": 47.386109,
            "lon": 14.8991176,
            "amenity": "fuel",
            "brand": "Eni",
            "brand:wikidata": "Q565594",
            "brand:wikipedia": "en:Eni",
            "name": "Eni",
            "operator": "Reihburg GmbH"
          },
          "geometry": {
            "type": "Point",
            "coordinates": [
              14.8991176,
              47.386109
            ]
          }
        },
        {
          "type": "Feature",
          "properties": {
            "id": "201721142",
            "osm_type": "node",
            "lat": 47.5400289,
            "lon": 14.5841778,
            "amenity": "fuel",
            "compressed_air": "yes",
            "name": "Tankstelle Pichler",
            "opening_hours": "PH,Mo-Su 00:00-24:00"
          },
          "geometry": {
            "type": "Point",
            "coordinates": [
              14.5841778,
              47.5400289
            ]
          }
        },
        {
          "type": "Feature",
          "properties": {
            "id": "265739667",
            "osm_type": "node",
            "lat": 47.6650223,
            "lon": 14.9841583,
            "addr:housenumber": "2a",
            "addr:postcode": "8924",
            "addr:street": "Wildalpen",
            "amenity": "fuel",
            "brand": "OIL!",
            "brand:wikidata": "Q2007561",
            "brand:wikipedia": "de:OIL! Tankstellen",
            "fuel:diesel": "yes",
            "fuel:octane_91": "yes",
            "fuel:octane_95": "yes",
            "fuel:octane_98": "yes",
            "name": "OIL!",
            "operator": "Edlinger Peter"
          },
          "geometry": {
            "type": "Point",
            "coordinates": [
              14.9841583,
              47.6650223
            ]
          }
        },
        {
          "type": "Feature",
          "properties": {
            "id": "265962950",
            "osm_type": "node",
            "lat": 47.6540405,
            "lon": 14.7645779,
            "addr:city": "Landl",
            "addr:housenumber": "138",
            "addr:place": "Mooslandl",
            "addr:postcode": "8921",
            "amenity": "fuel",
            "brand": "Avia",
            "brand:wikidata": "Q300147",
            "brand:wikipedia": "de:Avia International",
            "contact:phone": "+43 2822 501-0",
            "fuel:diesel": "yes",
            "fuel:octane_95": "yes",
            "fuel:octane_98": "yes",
            "name": "Avia",
            "opening_hours": "24/7",
            "operator": "Avia",
            "payment:credit_cards": "yes",
            "payment:debit_cards": "yes",
            "self_service": "yes"
          },
          "geometry": {
            "type": "Point",
            "coordinates": [
              14.7645779,
              47.6540405
            ]
          }
        },
        {
          "type": "Feature",
          "properties": {
            "id": "679354347",
            "osm_type": "node",
            "lat": 47.4636289,
            "lon": 14.9914701,
            "addr:city": "Vordernberg",
            "addr:postcode": "8794",
            "amenity": "fuel",
            "name": "Rumpold",
            "operator": "Rumpold"
          },
          "geometry": {
            "type": "Point",
            "coordinates": [
              14.9914701,
              47.4636289
            ]
          }
        },
        {
          "type": "Feature",
          "properties": {
            "id": "2419279119",
            "osm_type": "node",
            "lat": 47.4204044,
            "lon": 15.0140073,
            "addr:city": "Trofaiach",
            "addr:country": "AT",
            "addr:housenumber": "9a",
            "addr:postcode": "8793",
            "addr:street": "Hauptstraße",
            "amenity": "fuel",
            "at_bev:addr_date": "2018-10-01",
            "brand": "BP",
            "brand:wikidata": "Q152057",
            "name": "Stückelschwaiger"
          },
          "geometry": {
            "type": "Point",
            "coordinates": [
              15.0140073,
              47.4204044
            ]
          }
        },
        {
          "type": "Feature",
          "properties": {
            "id": "2423744183",
            "osm_type": "node",
            "lat": 47.4205428,
            "lon": 15.0149284,
            "addr:city": "Trofaiach",
            "addr:country": "AT",
            "addr:housenumber": "12",
            "addr:postcode": "8793",
            "addr:street": "Hauptstraße",
            "amenity": "fuel",
            "at_bev:addr_date": "2018-10-01",
            "brand": "Shell",
            "brand:wikidata": "Q110716465",
            "name": "Shell"
          },
          "geometry": {
            "type": "Point",
            "coordinates": [
              15.0149284,
              47.4205428
            ]
          }
        },
        {
          "type": "Feature",
          "properties": {
            "id": "840572483",
            "osm_type": "node",
            "lat": 47.3740854,
            "lon": 15.0807842,
            "amenity": "fuel",
            "name": "Stadtwerke Fuhrhof"
          },
          "geometry": {
            "type": "Point",
            "coordinates": [
              15.0807842,
              47.3740854
            ]
          }
        },
        {
          "type": "Feature",
          "properties": {
            "id": "845976411",
            "osm_type": "node",
            "lat": 47.3806189,
            "lon": 15.1069311,
            "amenity": "fuel",
            "brand": "Shell",
            "brand:wikidata": "Q110716465",
            "name": "Shell"
          },
          "geometry": {
            "type": "Point",
            "coordinates": [
              15.1069311,
              47.3806189
            ]
          }
        },
        {
          "type": "Feature",
          "properties": {
            "id": "1172129615",
            "osm_type": "node",
            "lat": 47.3802219,
            "lon": 15.1056191,
            "addr:city": "Leoben",
            "addr:country": "AT",
            "addr:postcode": "8700",
            "amenity": "fuel",
            "brand": "Socar",
            "brand:wikidata": "Q1622293",
            "contact:phone": "+43 316 4111 0",
            "fuel:diesel": "yes",
            "fuel:octane_95": "yes",
            "name": "SOCAR"
          },
          "geometry": {
            "type": "Point",
            "coordinates": [
              15.1056191,
              47.3802219
            ]
          }
        },
        {
          "type": "Feature",
          "properties": {
            "id": "3530638353",
            "osm_type": "node",
            "lat": 47.5396325,
            "lon": 15.2392388,
            "amenity": "fuel",
            "brand": "Turmöl",
            "fuel:1_25": "yes",
            "fuel:1_50": "yes",
            "fuel:diesel": "yes",
            "fuel:octane_95": "yes",
            "fuel:octane_98": "yes",
            "name": "Tankstelle Aflenz Kurort",
            "self_service": "yes"
          },
          "geometry": {
            "type": "Point",
            "coordinates": [
              15.2392388,
              47.5396325
            ]
          }
        }
      ],
      "children": []
    }
  ]
}