{
  "bbox": {
    "south": 47.033758500000005,
    "west": 15.253173,
    "north": 47.694865,
    "east": 17.16058
  },
  "poiCount": 227,
  "leafCount": 0,
  "averagePosition": [
    16.024207670044053,
    47.3059311568282
  ],
  "data": [],
  "children": [
    {
      "bbox": {
        "south": 47.033758500000005,
        "west": 15.253173,
        "north": 47.36431175,
        "east": 16.2068765
      },
      "poiCount": 103,
      "leafCount": 0,
      "averagePosition": [
        15.683730365048543,
        47.161310037864084
      ],
      "data": [],
      "children": [
        {
          "bbox": {
            "south": 47.033758500000005,
            "west": 15.253173,
            "north": 47.199035125,
            "east": 15.73002475
          },
          "poiCount": 42,
          "leafCount": 42,
          "averagePosition": [
            15.452920076190475,
            47.09343778333333
          ],
          "data": [
            {
              "type": "Feature",
              "properties": {
                "id": "21260971",
                "osm_type": "node",
                "lat": 47.0671988,
                "lon": 15.4824463,
                "addr:city": "Graz",
                "addr:country": "AT",
                "addr:housenumber": "88",
                "addr:postcode": "8010",
                "addr:street": "Waltendorfer Hauptstraße",
                "amenity": "fuel",
                "brand": "Rumpold",
                "fuel:diesel": "yes",
                "fuel:octane_95": "yes",
                "fuel:octane_98": "yes",
                "name": "Rumpold",
                "self_service": "yes"
              },
              "geometry": {
                "type": "Point",
                "coordinates": [
                  15.4824463,
                  47.0671988
                ]
              }
            },
            {
              "type": "Feature",
              "properties": {
                "id": "31239981",
                "osm_type": "node",
                "lat": 47.0982957,
                "lon": 15.4041101,
                "addr:city": "Graz",
                "addr:country": "AT",
                "addr:housenumber": "304",
                "addr:postcode": "8051",
                "addr:street": "Wiener Straße",
                "amenity": "fuel",
                "brand": "Eni",
                "brand:wikidata": "Q565594",
                "brand:wikipedia": "en:Eni",
                "compressed_air": "yes",
                "fuel:cng": "yes",
                "name": "Eni"
              },
              "geometry": {
                "type": "Point",
                "coordinates": [
                  15.4041101,
                  47.0982957
                ]
              }
            },
            {
              "type": "Feature",
              "properties": {
                "id": "31619963",
                "osm_type": "node",
                "lat": 47.0486788,
                "lon": 15.4524255,
                "addr:city": "Graz",
                "addr:country": "AT",
                "addr:housenumber": "160",
                "addr:postcode": "8010",
                "addr:street": "Conrad-von-Hötzendorf-Straße",
                "amenity": "fuel",
                "check_date": "2023-06-15",
                "name": "Tank Roth",
                "opening_hours": "24/7",
                "operator": "Roth",
                "wheelchair": "no"
              },
              "geometry": {
                "type": "Point",
                "coordinates": [
                  15.4524255,
                  47.0486788
                ]
              }
            },
            {
              "type": "Feature",
              "properties": {
                "id": "45075977",
                "osm_type": "node",
                "lat": 47.059163,
                "lon": 15.4264755,
                "addr:city": "Graz",
                "addr:country": "AT",
                "addr:housenumber": "29",
                "addr:postcode": "8020",
                "addr:street": "Fabriksgasse",
                "amenity": "fuel",
                "brand": "Turmöl",
                "brand:wikidata": "Q1473279",
                "brand:wikipedia": "de:Turmöl",
                "check_date": "2025-08-11",
                "compressed_air": "no",
                "fuel:cng": "yes",
                "name": "Turmöl",
                "opening_hours": "24/7",
                "operator": "Turmöl"
              },
              "geometry": {
                "type": "Point",
                "coordinates": [
                  15.4264755,
                  47.059163
                ]
              }
            },
            {
              "type": "Feature",
              "properties": {
                "id": "249322897",
                "osm_type": "node",
                "lat": 47.0595743,
                "lon": 15.4227381,
                "amenity": "fuel",
                "name": "Postgarage"
              },
              "geometry": {
                "type": "Point",
                "coordinates": [
                  15.4227381,
                  47.0595743
                ]
              }
            },
            {
              "type": "Feature",
              "properties": {
                "id": "255590647",
                "osm_type": "node",
                "lat": 47.0591033,
                "lon": 15.4288158,
                "addr:city": "Graz",
                "addr:country": "AT",
                "addr:housenumber": "20",
                "addr:postcode": "8020",
                "addr:street": "Fabriksgasse",
                "amenity": "fuel",
                "brand": "Socar",
                "brand:wikidata": "Q1622293",
                "contact:phone": "+43 316 766 767",
                "fuel:diesel": "yes",
                "fuel:octane_91": "yes",
                "fuel:octane_95": "yes",
                "fuel:octane_98": "yes",
                "name": "SOCAR-Citypark",
                "opening_hours": "Mo-Sa 06:00-22:00; Su 08:00-20:00",
                "source": "survey"
              },
              "geometry": {
                "type": "Point",
                "coordinates": [
                  15.4288158,
                  47.0591033
                ]
              }
            },
            {
              "type": "Feature",
              "properties": {
                "id": "258848300",
                "osm_type": "node",
                "lat": 47.0624948,
                "lon": 15.4230134,
                "addr:city": "Graz",
                "addr:country": "AT",
                "addr:housenumber": "4",
                "addr:postcode": "8020",
                "addr:street": "Kärntner Straße",
                "amenity": "fuel",
                "compressed_air": "yes",
                "contact:email": "office@leitner-mineraloele.at",
                "contact:phone": "+43 316 777",
                "full_name": "F. Leitner Mineralöle",
                "name": "F. Leitner",
                "operator": "Harald Leitner; Markus Leitner",
                "start_date": "1953"
              },
              "geometry": {
                "type": "Point",
                "coordinates": [
                  15.4230134,
                  47.0624948
                ]
              }
            },
            {
              "type": "Feature",
              "properties": {
                "id": "273764576",
                "osm_type": "node",
                "lat": 47.1406612,
                "lon": 15.5238792,
                "addr:city": "Weinitzen",
                "addr:housenumber": "4",
                "addr:postcode": "8044",
                "addr:street": "Weizerstraße",
                "amenity": "fuel",
                "brand": "Turmöl",
                "brand:wikidata": "Q1473279",
                "brand:wikipedia": "de:Turmöl",
                "check_date": "2024-12-23",
                "fuel:HGV_diesel": "yes",
                "fuel:diesel": "yes",
                "fuel:octane_95": "yes",
                "fuel:octane_98": "yes",
                "name": "Turmöl",
                "opening_hours": "Mo-Fr 06:00-18:00; Sa 07:30-17:00; Su,PH off",
                "operator": "Sauseng",
                "self_service": "yes"
              },
              "geometry": {
                "type": "Point",
                "coordinates": [
                  15.5238792,
                  47.1406612
                ]
              }
            },
            {
              "type": "Feature",
              "properties": {
                "id": "278471306",
                "osm_type": "node",
                "lat": 47.0765866,
                "lon": 15.4073194,
                "addr:city": "Graz",
                "addr:country": "AT",
                "addr:housenumber": "87",
                "addr:postcode": "8020",
                "addr:street": "Alte Poststraße",
                "amenity": "fuel",
                "brand": "Eni",
                "brand:wikidata": "Q565594",
                "brand:wikipedia": "en:Eni",
                "compressed_air": "yes",
                "fuel:cng": "yes",
                "fuel:diesel": "yes",
                "fuel:octane_95": "yes",
                "name": "Eni",
                "operator": "Eni"
              },
              "geometry": {
                "type": "Point",
                "coordinates": [
                  15.4073194,
                  47.0765866
                ]
              }
            },
            {
              "type": "Feature",
              "properties": {
                "id": "278579148",
                "osm_type": "node",
                "lat": 47.0346514,
                "lon": 15.3004794,
                "addr:city": "Hitzendorf",
                "addr:country": "AT",
                "addr:housenumber": "134",
                "addr:place": "Hitzendorf",
                "addr:postcode": "8151",
                "amenity": "fuel",
                "at_bev:addr_date": "2018-10-01"
              },
              "geometry": {
                "type": "Point",
                "coordinates": [
                  15.3004794,
                  47.0346514
                ]
              }
            },
            {
              "type": "Feature",
              "properties": {
                "id": "288806506",
                "osm_type": "node",
                "lat": 47.130012,
                "lon": 15.3235763,
                "amenity": "fuel",
                "brand": "Shell",
                "brand:wikidata": "Q154950",
                "brand:wikipedia": "en:Royal Dutch Shell",
                "name": "Shell"
              },
              "geometry": {
                "type": "Point",
                "coordinates": [
                  15.3235763,
                  47.130012
                ]
              }
            },
            {
              "type": "Feature",
              "properties": {
                "id": "288806671",
                "osm_type": "node",
                "lat": 47.1333625,
                "lon": 15.3225619,
                "amenity": "fuel",
                "brand": "JET",
                "brand:wikidata": "Q568940",
                "brand:wikipedia": "en:Jet (brand)",
                "name": "Jet"
              },
              "geometry": {
                "type": "Point",
                "coordinates": [
                  15.3225619,
                  47.1333625
                ]
              }
            },
            {
              "type": "Feature",
              "properties": {
                "id": "289414403",
                "osm_type": "node",
                "lat": 47.1032105,
                "lon": 15.4144717,
                "addr:city": "Graz",
                "addr:country": "AT",
                "addr:housenumber": "7-15",
                "addr:postcode": "8045",
                "addr:street": "Weinzöttlstraße",
                "amenity": "fuel",
                "description": "CNG",
                "fuel:cng": "yes",
                "fuel:diesel": "yes",
                "fuel:octane_95": "yes",
                "fuel:octane_98": "yes",
                "name": "Kuss",
                "operator": "VW",
                "shop": "no",
                "wheelchair": "limited"
              },
              "geometry": {
                "type": "Point",
                "coordinates": [
                  15.4144717,
                  47.1032105
                ]
              }
            },
            {
              "type": "Feature",
              "properties": {
                "id": "330202620",
                "osm_type": "node",
                "lat": 47.0875837,
                "lon": 15.4124085,
                "addr:city": "Graz",
                "addr:country": "AT",
                "addr:housenumber": "180",
                "addr:postcode": "8051",
                "addr:street": "Wiener Straße",
                "amenity": "fuel",
                "brand": "Shell",
                "brand:wikidata": "Q110716465",
                "brand:wikipedia": "en:Royal Dutch Shell",
                "name": "Shell",
                "payment:credit_cards": "yes",
                "payment:debit_cards": "yes"
              },
              "geometry": {
                "type": "Point",
                "coordinates": [
                  15.4124085,
                  47.0875837
                ]
              }
            },
            {
              "type": "Feature",
              "properties": {
                "id": "344227141",
                "osm_type": "node",
                "lat": 47.1024345,
                "lon": 15.4249691,
                "amenity": "fuel",
                "brand": "Avanti",
                "brand:wikidata": "Q168238",
                "brand:wikipedia": "en:OMV",
                "name": "Avanti",
                "opening_hours": "Mo-Su 06:00-24:00",
                "operator": "Avanti",
                "phone": "+43 800 202055",
                "vending": "fuel"
              },
              "geometry": {
                "type": "Point",
                "coordinates": [
                  15.4249691,
                  47.1024345
                ]
              }
            },
            {
              "type": "Feature",
              "properties": {
                "id": "447985422",
                "osm_type": "node",
                "lat": 47.0819841,
                "lon": 15.4542366,
                "addr:city": "Graz",
                "addr:country": "AT",
                "addr:housenumber": "91",
                "addr:postcode": "8010",
                "addr:street": "Heinrichstraße",
                "amenity": "fuel",
                "brand": "OMV",
                "brand:wikidata": "Q168238",
                "brand:wikipedia": "en:OMV",
                "compressed_air": "yes",
                "name": "OMV",
                "opening_hours": "Mo-Su 06:00 - 22:00",
                "operator": "OMV",
                "phone": "+43 316 323151"
              },
              "geometry": {
                "type": "Point",
                "coordinates": [
                  15.4542366,
                  47.0819841
                ]
              }
            },
            {
              "type": "Feature",
              "properties": {
                "id": "619516502",
                "osm_type": "node",
                "lat": 47.0433028,
                "lon": 15.5194532,
                "addr:city": "Hart bei Graz",
                "addr:housenumber": "6",
                "addr:postcode": "8075",
                "addr:street": "Harter Süd Straße",
                "amenity": "fuel",
                "compressed_air": "yes",
                "email": "office@leitner-mineraloele.at",
                "fuel:diesel": "yes",
                "fuel:octane_95": "yes",
                "name": "Tankstelle Leitner",
                "operator": "Autohaus Pachern",
                "phone": "+43 (0)316/777"
              },
              "geometry": {
                "type": "Point",
                "coordinates": [
                  15.5194532,
                  47.0433028
                ]
              }
            },
            {
              "type": "Feature",
              "properties": {
                "id": "762199277",
                "osm_type": "node",
                "lat": 47.0928946,
                "lon": 15.4069589,
                "addr:city": "Graz",
                "addr:country": "AT",
                "addr:housenumber": "240",
                "addr:postcode": "8051",
                "addr:street": "Wiener Straße",
                "amenity": "fuel",
                "brand": "JET",
                "brand:wikidata": "Q568940",
                "brand:wikipedia": "en:Jet (brand)",
                "fuel:1_25": "no",
                "fuel:1_50": "yes",
                "fuel:GTL_diesel": "no",
                "fuel:HGV_diesel": "no",
                "fuel:biodiesel": "no",
                "fuel:biogas": "no",
                "fuel:cng": "no",
                "fuel:diesel": "yes",
                "fuel:e10": "yes",
                "fuel:e85": "no",
                "fuel:electricity": "no",
                "fuel:lpg": "no",
                "fuel:octane_100": "yes",
                "fuel:octane_91": "yes",
                "fuel:octane_95": "yes",
                "fuel:octane_98": "no",
                "name": "Jet Gösting"
              },
              "geometry": {
                "type": "Point",
                "coordinates": [
                  15.4069589,
                  47.0928946
                ]
              }
            },
            {
              "type": "Feature",
              "properties": {
                "id": "835390923",
                "osm_type": "node",
                "lat": 47.0511124,
                "lon": 15.4513144,
                "addr:city": "Graz",
                "addr:country": "AT",
                "addr:housenumber": "135",
                "addr:postcode": "8010",
                "addr:street": "Conrad-von-Hötzendorf-Straße",
                "amenity": "fuel",
                "brand": "Turmöl",
                "brand:wikidata": "Q1473279",
                "brand:wikipedia": "de:Turmöl",
                "compressed_air": "yes",
                "fuel:diesel": "yes",
                "fuel:octane_95": "yes",
                "name": "Turmöl",
                "opening_hours": "Mo-Su,PH 06:00-24:00",
                "self_service": "only"
              },
              "geometry": {
                "type": "Point",
                "coordinates": [
                  15.4513144,
                  47.0511124
                ]
              }
            },
            {
              "type": "Feature",
              "properties": {
                "id": "876221801",
                "osm_type": "node",
                "lat": 47.0523579,
                "lon": 15.3691382,
                "addr:city": "Graz",
                "addr:country": "AT",
                "addr:housenumber": "70",
                "addr:postcode": "8052",
                "addr:street": "Steinbergstraße",
                "amenity": "fuel",
                "brand": "SOCAR",
                "last_checked": "2016-07-29",
                "name": "SOCAR",
                "opening_hours": "Mo-Sa 06:00 - 22:00; Su 07:00 - 21:00",
                "operator": "SOCAR Energy Austria GmbH",
                "phone": "+43316 586245",
                "website": "http://www.a1-tankstellen.at/web/tankstellen/steiermark/item/graz-steinbergstrasse"
              },
              "geometry": {
                "type": "Point",
                "coordinates": [
                  15.3691382,
                  47.0523579
                ]
              }
            },
            {
              "type": "Feature",
              "properties": {
                "id": "981479265",
                "osm_type": "node",
                "lat": 47.1954091,
                "lon": 15.3465567,
                "amenity": "fuel",
                "brand": "OIL!",
                "brand:wikidata": "Q2007561",
                "brand:wikipedia": "de:OIL! Tankstellen",
                "fuel:diesel": "yes",
                "fuel:octane_95": "yes",
                "fuel:octane_98": "yes",
                "name": "OIL!",
                "self_service": "yes"
              },
              "geometry": {
                "type": "Point",
                "coordinates": [
                  15.3465567,
                  47.1954091
                ]
              }
            },
            {
              "type": "Feature",
              "properties": {
                "id": "1111823423",
                "osm_type": "node",
                "lat": 47.0389601,
                "lon": 15.4523117,
                "amenity": "fuel",
                "brand": "Independent",
                "fuel:diesel": "yes",
                "fuel:octane_95": "yes",
                "name": "F. Leitner"
              },
              "geometry": {
                "type": "Point",
                "coordinates": [
                  15.4523117,
                  47.0389601
                ]
              }
            },
            {
              "type": "Feature",
              "properties": {
                "id": "1359790753",
                "osm_type": "node",
                "lat": 47.0912079,
                "lon": 15.4302161,
                "addr:city": "Graz",
                "addr:country": "AT",
                "addr:housenumber": "166",
                "addr:postcode": "8010",
                "addr:street": "Grabenstraße",
                "amenity": "fuel",
                "brand": "Socar",
                "brand:wikidata": "Q1622293",
                "brand:wikipedia": "en:SOCAR",
                "compressed_air": "no",
                "fuel:diesel": "yes",
                "fuel:octane_95": "yes",
                "fuel:octane_98": "yes",
                "name": "Socar",
                "opening_hours": "24/7",
                "operator": "A1 Tankstellenbetrieb GmbH",
                "payment:debit_cards": "yes",
                "self_service": "yes"
              },
              "geometry": {
                "type": "Point",
                "coordinates": [
                  15.4302161,
                  47.0912079
                ]
              }
            },
            {
              "type": "Feature",
              "properties": {
                "id": "1424941724",
                "osm_type": "node",
                "lat": 47.0604806,
                "lon": 15.4305458,
                "amenity": "fuel",
                "brand": "Independent",
                "compressed_air": "no",
                "fuel:diesel": "yes",
                "fuel:octane_95": "yes",
                "fuel:octane_98": "yes",
                "name": "Rumpold",
                "opening_hours": "24/7",
                "self_service": "yes",
                "shop": "no"
              },
              "geometry": {
                "type": "Point",
                "coordinates": [
                  15.4305458,
                  47.0604806
                ]
              }
            },
            {
              "type": "Feature",
              "properties": {
                "id": "1586931323",
                "osm_type": "node",
                "lat": 47.0926453,
                "lon": 15.4063351,
                "addr:city": "Graz",
                "addr:country": "AT",
                "addr:housenumber": "247",
                "addr:postcode": "8051",
                "addr:street": "Wiener Straße",
                "amenity": "fuel",
                "fuel:1_25": "no",
                "fuel:1_50": "no",
                "fuel:GTL_diesel": "no",
                "fuel:HGV_diesel": "no",
                "fuel:biodiesel": "no",
                "fuel:biogas": "no",
                "fuel:cng": "no",
                "fuel:diesel": "yes",
                "fuel:e10": "no",
                "fuel:e85": "no",
                "fuel:electricity": "no",
                "fuel:lpg": "no",
                "fuel:octane_100": "no",
                "fuel:octane_91": "no",
                "fuel:octane_95": "yes",
                "fuel:octane_98": "no",
                "info": "Billigster Tankautomat im Norden von Graz",
                "name": "Tankautomat Treibstoffparadies"
              },
              "geometry": {
                "type": "Point",
                "coordinates": [
                  15.4063351,
                  47.0926453
                ]
              }
            },
            {
              "type": "Feature",
              "properties": {
                "id": "1798786733",
                "osm_type": "node",
                "lat": 47.0986466,
                "lon": 15.4181551,
                "addr:city": "Graz",
                "addr:country": "AT",
                "addr:housenumber": "2",
                "addr:postcode": "8045",
                "addr:street": "Weinzöttlstraße",
                "amenity": "fuel",
                "brand": "Eni",
                "brand:wikidata": "Q565594",
                "brand:wikipedia": "en:Eni",
                "compressed_air": "yes",
                "fuel:diesel": "yes",
                "fuel:octane_95": "yes",
                "fuel:octane_98": "yes",
                "name": "Eni",
                "opening_hours": "Mo-Su 06:00-22:00",
                "phone": "+43 316 683425",
                "source": "data.graz.gv.at",
                "website": "https://www.eni.com/de_AT/home.page"
              },
              "geometry": {
                "type": "Point",
                "coordinates": [
                  15.4181551,
                  47.0986466
                ]
              }
            },
            {
              "type": "Feature",
              "properties": {
                "id": "1917114980",
                "osm_type": "node",
                "lat": 47.0547345,
                "lon": 15.4163906,
                "addr:city": "Graz",
                "addr:country": "AT",
                "addr:housenumber": "86",
                "addr:postcode": "8053",
                "addr:street": "Kärntner Straße",
                "amenity": "fuel",
                "brand": "Eni",
                "brand:wikidata": "Q565594",
                "brand:wikipedia": "en:Eni",
                "contact:fax": "+43 316 27 24 53-4",
                "contact:phone": "+43 316 27 24 53",
                "fuel:diesel": "yes",
                "fuel:octane_91": "no",
                "fuel:octane_95": "yes",
                "name": "Eni",
                "payment:cash": "yes",
                "payment:credit_cards": "yes",
                "payment:debit_cards": "yes",
                "payment:maestro": "yes",
                "payment:mastercard": "yes",
                "payment:visa": "yes"
              },
              "geometry": {
                "type": "Point",
                "coordinates": [
                  15.4163906,
                  47.0547345
                ]
              }
            },
            {
              "type": "Feature",
              "properties": {
                "id": "1952483272",
                "osm_type": "node",
                "lat": 47.0460916,
                "lon": 15.3951988,
                "addr:city": "Graz",
                "addr:country": "AT",
                "addr:housenumber": "243",
                "addr:postcode": "8053",
                "addr:street": "Straßganger Straße",
                "amenity": "fuel",
                "brand": "JET",
                "brand:wikidata": "Q568940",
                "compressed_air": "yes",
                "contact:phone": "+43 316 283731",
                "fuel:diesel": "yes",
                "fuel:octane_95": "yes",
                "name": "Jet",
                "opening_hours": "Mo-Su 05:30-24:00",
                "shop": "convenience"
              },
              "geometry": {
                "type": "Point",
                "coordinates": [
                  15.3951988,
                  47.0460916
                ]
              }
            },
            {
              "type": "Feature",
              "properties": {
                "id": "4019093189",
                "osm_type": "node",
                "lat": 47.1219466,
                "lon": 15.360335,
                "amenity": "fuel",
                "brand": "BP",
                "brand:wikidata": "Q152057",
                "brand:wikipedia": "en:BP",
                "name": "BP"
              },
              "geometry": {
                "type": "Point",
                "coordinates": [
                  15.360335,
                  47.1219466
                ]
              }
            },
            {
              "type": "Feature",
              "properties": {
                "id": "4019093194",
                "osm_type": "node",
                "lat": 47.1222628,
                "lon": 15.3584589,
                "amenity": "fuel",
                "name": "M3",
                "opening_hours": "24/7"
              },
              "geometry": {
                "type": "Point",
                "coordinates": [
                  15.3584589,
                  47.1222628
                ]
              }
            },
            {
              "type": "Feature",
              "properties": {
                "id": "5429004589",
                "osm_type": "node",
                "lat": 47.056809,
                "lon": 15.4288842,
                "amenity": "fuel",
                "brand": "Hofer Diskont",
                "brand:wikidata": "Q107803455",
                "fuel:diesel": "yes",
                "fuel:octane_95": "yes",
                "name": "Hofer Diskont",
                "opening_hours": "24/7",
                "operator": "Avanti",
                "payment:contactless": "yes",
                "payment:girocard": "yes",
                "payment:maestro": "yes",
                "shop": "no",
                "website": "https://www.diskonttanken.at"
              },
              "geometry": {
                "type": "Point",
                "coordinates": [
                  15.4288842,
                  47.056809
                ]
              }
            },
            {
              "type": "Feature",
              "properties": {
                "id": "8416617618",
                "osm_type": "node",
                "lat": 47.0558987,
                "lon": 15.4483397,
                "addr:city": "Graz",
                "addr:country": "AT",
                "addr:housenumber": "45",
                "addr:postcode": "8010",
                "addr:street": "Fröhlichgasse",
                "amenity": "fuel",
                "brand": "BP",
                "brand:wikidata": "Q152057",
                "brand:wikipedia": "en:BP",
                "compressed_air": "yes",
                "contact:phone": "+43 316 472595",
                "fuel:GTL_diesel": "yes",
                "fuel:diesel": "yes",
                "fuel:discount": "payback",
                "fuel:octane_95": "yes",
                "fuel:octane_98": "yes",
                "name": "BP",
                "opening_hours": "24/7",
                "payment:routex": "yes"
              },
              "geometry": {
                "type": "Point",
                "coordinates": [
                  15.4483397,
                  47.0558987
                ]
              }
            },
            {
              "type": "Feature",
              "properties": {
                "id": "9512306067",
                "osm_type": "node",
                "lat": 47.1857933,
                "lon": 15.3305064,
                "amenity": "fuel",
                "name": "Rumpold"
              },
              "geometry": {
                "type": "Point",
                "coordinates": [
                  15.3305064,
                  47.1857933
                ]
              }
            },
            {
              "type": "Feature",
              "properties": {
                "id": "11203283179",
                "osm_type": "node",
                "lat": 47.0990035,
                "lon": 15.4742237,
                "amenity": "fuel",
                "brand": "Roth",
                "fuel:diesel": "yes",
                "fuel:octane_95": "yes",
                "payment:dkv": "yes"
              },
              "geometry": {
                "type": "Point",
                "coordinates": [
                  15.4742237,
                  47.0990035
                ]
              }
            },
            {
              "type": "Feature",
              "properties": {
                "id": "11280464387",
                "osm_type": "node",
                "lat": 47.0419783,
                "lon": 15.4640426,
                "addr:city": "Graz",
                "addr:country": "AT",
                "addr:housenumber": "10",
                "addr:postcode": "8041",
                "addr:street": "Ostbahnstraße",
                "amenity": "fuel",
                "brand": "OMV",
                "brand:wikidata": "Q168238",
                "covered": "yes",
                "fuel:LH2": "yes",
                "fuel:h70": "yes",
                "name": "OMV"
              },
              "geometry": {
                "type": "Point",
                "coordinates": [
                  15.4640426,
                  47.0419783
                ]
              }
            },
            {
              "type": "Feature",
              "properties": {
                "id": "1678328674",
                "osm_type": "node",
                "lat": 47.1068901,
                "lon": 15.6636379,
                "amenity": "fuel",
                "brand": "Eni",
                "brand:wikidata": "Q565594",
                "brand:wikipedia": "en:Eni",
                "fuel:diesel": "yes",
                "fuel:octane_95": "yes",
                "fuel:octane_98": "yes",
                "name": "Eni",
                "opening_hours": "06:00-20:00",
                "operator": "Eni",
                "source": "survey"
              },
              "geometry": {
                "type": "Point",
                "coordinates": [
                  15.6636379,
                  47.1068901
                ]
              }
            },
            {
              "type": "Feature",
              "properties": {
                "id": "1912697781",
                "osm_type": "node",
                "lat": 47.1572066,
                "lon": 15.5596796,
                "addr:housenumber": "76",
                "addr:postcode": "8062",
                "addr:street": "Grazerstraße",
                "amenity": "fuel",
                "brand": "Diskont",
                "name": "Diskont Tankstelle - Rezk",
                "operator": "Rezk",
                "phone": "+4331325433"
              },
              "geometry": {
                "type": "Point",
                "coordinates": [
                  15.5596796,
                  47.1572066
                ]
              }
            },
            {
              "type": "Feature",
              "properties": {
                "id": "2347276796",
                "osm_type": "node",
                "lat": 47.1140347,
                "lon": 15.7103718,
                "addr:city": "Gleisdorf",
                "addr:country": "AT",
                "addr:housenumber": "54",
                "addr:postcode": "8200",
                "addr:street": "Hartberger Straße",
                "amenity": "fuel",
                "brand": "Shell",
                "brand:wikidata": "Q110716465",
                "brand:wikipedia": "en:Royal Dutch Shell",
                "contact:email": "shell70192@netway.at",
                "name": "Shell",
                "official_name": "Shell-Tankstelle"
              },
              "geometry": {
                "type": "Point",
                "coordinates": [
                  15.7103718,
                  47.1140347
                ]
              }
            },
            {
              "type": "Feature",
              "properties": {
                "id": "2609217614",
                "osm_type": "node",
                "lat": 47.1440337,
                "lon": 15.5482514,
                "addr:city": "Kumberg",
                "addr:housenumber": "45",
                "addr:postcode": "8062",
                "addr:street": "Grazer Straße",
                "amenity": "fuel",
                "email": "office@tankallin.at",
                "fuel:HGV_diesel": "yes",
                "fuel:diesel": "yes",
                "fuel:octane_95": "yes",
                "fuel:octane_98": "yes",
                "name": "Tankstelle All-in",
                "opening_hours": "24/7",
                "phone": "+43313231329",
                "self_service": "yes",
                "shop": "yes",
                "start_date": "2013-01-03",
                "toilets": "yes",
                "website": "http://www.tankallin.at/",
                "wheelchair": "yes"
              },
              "geometry": {
                "type": "Point",
                "coordinates": [
                  15.5482514,
                  47.1440337
                ]
              }
            },
            {
              "type": "Feature",
              "properties": {
                "id": "3496418966",
                "osm_type": "node",
                "lat": 47.1022507,
                "lon": 15.7135294,
                "addr:city": "Gleisdorf",
                "addr:housenumber": "20",
                "addr:postcode": "8200",
                "addr:street": "Franz-Josef-Straße",
                "amenity": "fuel",
                "brand": "Eni",
                "brand:wikidata": "Q565594",
                "brand:wikipedia": "en:Eni",
                "email": "office@bierbauer.at",
                "name": "ENI"
              },
              "geometry": {
                "type": "Point",
                "coordinates": [
                  15.7135294,
                  47.1022507
                ]
              }
            },
            {
              "type": "Feature",
              "properties": {
                "id": "4012996376",
                "osm_type": "node",
                "lat": 47.191472,
                "lon": 15.6339639,
                "amenity": "fuel",
                "check_date": "2025-04-17",
                "fuel:diesel": "yes",
                "fuel:octane_95": "yes",
                "name": "Treibstoffparadies Greith b. Weiz",
                "opening_hours": "24/7",
                "payment:cash": "no",
                "payment:credit_cards": "yes",
                "payment:debit_cards": "yes",
                "self_service": "yes",
                "source": "survey"
              },
              "geometry": {
                "type": "Point",
                "coordinates": [
                  15.6339639,
                  47.191472
                ]
              }
            },
            {
              "type": "Feature",
              "properties": {
                "id": "5131074813",
                "osm_type": "node",
                "lat": 47.1619683,
                "lon": 15.6619173,
                "amenity": "fuel",
                "automated": "yes",
                "opening_hours": "24/7",
                "operator": "F. Leitner"
              },
              "geometry": {
                "type": "Point",
                "coordinates": [
                  15.6619173,
                  47.1619683
                ]
              }
            }
          ],
          "children": []
        },
        {
          "bbox": {
            "south": 47.033758500000005,
            "west": 15.73002475,
            "north": 47.199035125,
            "east": 16.2068765
          },
          "poiCount": 22,
          "leafCount": 22,
          "averagePosition": [
            15.93459259090909,
            47.1075143
          ],
          "data": [
            {
              "type": "Feature",
              "properties": {
                "id": "301445062",
                "osm_type": "node",
                "lat": 47.0813601,
                "lon": 15.7392984,
                "addr:country": "AT",
                "addr:postcode": "8200",
                "amenity": "fuel",
                "brand": "BP",
                "brand:wikidata": "Q152057",
                "car_wash": "yes",
                "compressed_air": "yes",
                "name": "BP",
                "phone": "+433112 5900",
                "shop": "convenience"
              },
              "geometry": {
                "type": "Point",
                "coordinates": [
                  15.7392984,
                  47.0813601
                ]
              }
            },
            {
              "type": "Feature",
              "properties": {
                "id": "301445063",
                "osm_type": "node",
                "lat": 47.0894588,
                "lon": 15.7323972,
                "addr:city": "Gleisdorf",
                "addr:country": "AT",
                "addr:housenumber": "97",
                "addr:place": "Pirching",
                "addr:postcode": "8200",
                "amenity": "fuel",
                "brand": "Eni",
                "brand:wikidata": "Q565594",
                "brand:wikipedia": "en:Eni",
                "fuel:cng": "yes",
                "name": "Eni",
                "phone": "+433112 57414",
                "wheelchair": "yes"
              },
              "geometry": {
                "type": "Point",
                "coordinates": [
                  15.7323972,
                  47.0894588
                ]
              }
            },
            {
              "type": "Feature",
              "properties": {
                "id": "301445064",
                "osm_type": "node",
                "lat": 47.0470179,
                "lon": 15.7462295,
                "amenity": "fuel",
                "brand": "Avanti",
                "brand:wikidata": "Q168238",
                "brand:wikipedia": "en:OMV",
                "name": "Avanti",
                "opening_hours": "24/7",
                "operator": "Avanti",
                "phone": "+43 800 202055"
              },
              "geometry": {
                "type": "Point",
                "coordinates": [
                  15.7462295,
                  47.0470179
                ]
              }
            },
            {
              "type": "Feature",
              "properties": {
                "id": "331330672",
                "osm_type": "node",
                "lat": 47.1014494,
                "lon": 15.8189882,
                "amenity": "fuel",
                "compressed_air": "yes",
                "name": "P&W Diskont Sinabelkirchen",
                "wheelchair": "yes"
              },
              "geometry": {
                "type": "Point",
                "coordinates": [
                  15.8189882,
                  47.1014494
                ]
              }
            },
            {
              "type": "Feature",
              "properties": {
                "id": "1607795530",
                "osm_type": "node",
                "lat": 47.1210039,
                "lon": 15.8129665,
                "amenity": "fuel",
                "brand": "Diskont",
                "name": "Höfler"
              },
              "geometry": {
                "type": "Point",
                "coordinates": [
                  15.8129665,
                  47.1210039
                ]
              }
            },
            {
              "type": "Feature",
              "properties": {
                "id": "1781424943",
                "osm_type": "node",
                "lat": 47.1495912,
                "lon": 15.7693911,
                "amenity": "fuel",
                "brand": "yes",
                "fuel:1_25": "yes",
                "fuel:1_50": "yes",
                "fuel:GTL_diesel": "yes",
                "fuel:HGV_diesel": "no",
                "fuel:biodiesel": "no",
                "fuel:biogas": "no",
                "fuel:cng": "no",
                "fuel:diesel": "yes",
                "fuel:e10": "no",
                "fuel:e85": "no",
                "fuel:electricity": "no",
                "fuel:lpg": "no",
                "fuel:octane_100": "no",
                "fuel:octane_91": "yes",
                "fuel:octane_95": "yes",
                "fuel:octane_98": "yes",
                "name": "yes",
                "operator": "Rath GmbH&CoKG",
                "source": "owner",
                "wheelchair": "yes"
              },
              "geometry": {
                "type": "Point",
                "coordinates": [
                  15.7693911,
                  47.1495912
                ]
              }
            },
            {
              "type": "Feature",
              "properties": {
                "id": "2552462624",
                "osm_type": "node",
                "lat": 47.1714036,
                "lon": 15.8048063,
                "addr:country": "AT",
                "addr:postcode": "8212",
                "alt_name": "carstop Durlacher",
                "amenity": "fuel",
                "name": "Tankstelle Durlacher",
                "operator": "Peter Durlacher"
              },
              "geometry": {
                "type": "Point",
                "coordinates": [
                  15.8048063,
                  47.1714036
                ]
              }
            },
            {
              "type": "Feature",
              "properties": {
                "id": "2909024459",
                "osm_type": "node",
                "lat": 47.1937464,
                "lon": 15.8274775,
                "addr:country": "AT",
                "addr:postcode": "8221",
                "amenity": "fuel",
                "brand": "BP",
                "name": "Huber",
                "operator": "Reifen Huber"
              },
              "geometry": {
                "type": "Point",
                "coordinates": [
                  15.8274775,
                  47.1937464
                ]
              }
            },
            {
              "type": "Feature",
              "properties": {
                "id": "4768371053",
                "osm_type": "node",
                "lat": 47.0795696,
                "lon": 15.9572811,
                "amenity": "fuel",
                "name": "24h Spar"
              },
              "geometry": {
                "type": "Point",
                "coordinates": [
                  15.9572811,
                  47.0795696
                ]
              }
            },
            {
              "type": "Feature",
              "properties": {
                "id": "4785824396",
                "osm_type": "node",
                "lat": 47.086233,
                "lon": 15.9289545,
                "amenity": "fuel",
                "name": "Treibstoffparadies Kohlhammer"
              },
              "geometry": {
                "type": "Point",
                "coordinates": [
                  15.9289545,
                  47.086233
                ]
              }
            },
            {
              "type": "Feature",
              "properties": {
                "id": "5612429369",
                "osm_type": "node",
                "lat": 47.0812833,
                "lon": 15.9683152,
                "amenity": "fuel",
                "brand": "UTA",
                "contact:email": "dispo@freytrans.com",
                "contact:fax": "+43 3322446654",
                "contact:phone": "+43 332244665",
                "fuel:HGV_diesel": "yes",
                "fuel:diesel": "yes",
                "note": "this fuel station has ONLY diesel",
                "opening_hours": "24/7",
                "payment:maestro": "yes",
                "self_service": "yes"
              },
              "geometry": {
                "type": "Point",
                "coordinates": [
                  15.9683152,
                  47.0812833
                ]
              }
            },
            {
              "type": "Feature",
              "properties": {
                "id": "5612429404",
                "osm_type": "node",
                "lat": 47.0792641,
                "lon": 15.9625181,
                "addr:city": "Ilz",
                "addr:country": "AT",
                "addr:housenumber": "56",
                "addr:place": "Ilz-Hainfeld",
                "addr:postcode": "8262",
                "amenity": "fuel",
                "brand": "Shell",
                "brand:wikidata": "Q154950",
                "brand:wikipedia": "en:Royal Dutch Shell",
                "contact:phone": "+43 33857055",
                "fuel:GTL_diesel": "yes",
                "fuel:diesel": "yes",
                "fuel:octane_100": "yes",
                "fuel:octane_95": "yes",
                "name": "Shell",
                "opening_hours": "24/7",
                "ref": "10022908"
              },
              "geometry": {
                "type": "Point",
                "coordinates": [
                  15.9625181,
                  47.0792641
                ]
              }
            },
            {
              "type": "Feature",
              "properties": {
                "id": "5636164245",
                "osm_type": "node",
                "lat": 47.1052388,
                "lon": 15.7679885,
                "addr:city": "Arnwiesen",
                "addr:postcode": "8200",
                "addr:street": "Süd Autobahn A2",
                "amenity": "fuel",
                "brand": "BP",
                "brand:wikidata": "Q152057",
                "brand:wikipedia": "en:BP",
                "fixme": "rechck or fuel:HGV_diesel",
                "fuel:GTL_diesel": "yes",
                "fuel:adblue": "yes",
                "fuel:diesel": "yes",
                "fuel:octane_95": "yes",
                "fuel:octane_98": "yes",
                "name": "BP",
                "opening_hours": "24/7",
                "operator": "Bertram Pölzelbauer",
                "payment:routex": "yes",
                "wheelchair": "yes"
              },
              "geometry": {
                "type": "Point",
                "coordinates": [
                  15.7679885,
                  47.1052388
                ]
              }
            },
            {
              "type": "Feature",
              "properties": {
                "id": "8973356010",
                "osm_type": "node",
                "lat": 47.1014294,
                "lon": 15.8180979,
                "amenity": "fuel",
                "brand": "AS 24",
                "brand:wikidata": "Q2819394",
                "brand:wikipedia": "fr:AS 24 (entreprise)",
                "hgv": "only",
                "name": "AS 24 Tankstelle Sinabelkirchen",
                "wheelchair": "yes"
              },
              "geometry": {
                "type": "Point",
                "coordinates": [
                  15.8180979,
                  47.1014294
                ]
              }
            },
            {
              "type": "Feature",
              "properties": {
                "id": "82717263",
                "osm_type": "node",
                "lat": 47.1445892,
                "lon": 16.1894596,
                "addr:city": "Bocksdorf",
                "addr:country": "AT",
                "addr:housenumber": "1",
                "addr:postcode": "7551",
                "addr:street": "Gewerbegebiet",
                "amenity": "fuel",
                "at_bev:addr_date": "2020-10-01",
                "name": "Spritkönig"
              },
              "geometry": {
                "type": "Point",
                "coordinates": [
                  16.1894596,
                  47.1445892
                ]
              }
            },
            {
              "type": "Feature",
              "properties": {
                "id": "316699769",
                "osm_type": "node",
                "lat": 47.0586685,
                "lon": 16.0671308,
                "addr:city": "Altenmarkt bei Fürstenfeld",
                "addr:country": "AT",
                "addr:housenumber": "191",
                "addr:place": "Altenmarkt bei Fürstenfeld",
                "addr:postcode": "8280",
                "amenity": "fuel",
                "brand": "Eni",
                "brand:wikidata": "Q565594",
                "brand:wikipedia": "en:Eni",
                "fuel:GTL_diesel": "no",
                "fuel:HGV_diesel": "no",
                "fuel:LH2": "no",
                "fuel:adblue": "no",
                "fuel:adblue:canister": "no",
                "fuel:biodiesel": "no",
                "fuel:cng": "no",
                "fuel:e10": "no",
                "fuel:e85": "no",
                "fuel:h70": "no",
                "fuel:lpg": "no",
                "fuel:octane_100": "no",
                "fuel:octane_80": "no",
                "fuel:octane_85": "no",
                "fuel:octane_87": "no",
                "fuel:octane_88": "no",
                "fuel:octane_89": "no",
                "fuel:octane_90": "no",
                "fuel:octane_92": "no",
                "fuel:octane_93": "no",
                "fuel:octane_97": "no",
                "fuel:octane_98": "yes",
                "fuel:propane": "no",
                "name": "Eni"
              },
              "geometry": {
                "type": "Point",
                "coordinates": [
                  16.0671308,
                  47.0586685
                ]
              }
            },
            {
              "type": "Feature",
              "properties": {
                "id": "947409714",
                "osm_type": "node",
                "lat": 47.1616265,
                "lon": 16.1646109,
                "addr:housenumber": "3",
                "addr:postcode": "7551",
                "addr:street": "Wiener Straße",
                "amenity": "fuel",
                "brand": "Avanti",
                "brand:wikidata": "Q168238",
                "brand:wikipedia": "en:OMV",
                "fuel:diesel": "yes",
                "fuel:octane_95": "yes",
                "name": "Avanti",
                "opening_hours": "24/7",
                "operator": "Avanti",
                "payment:routex": "yes",
                "phone": "+43 800 202055"
              },
              "geometry": {
                "type": "Point",
                "coordinates": [
                  16.1646109,
                  47.1616265
                ]
              }
            },
            {
              "type": "Feature",
              "properties": {
                "id": "1361201059",
                "osm_type": "node",
                "lat": 47.1178321,
                "lon": 16.1646849,
                "amenity": "fuel",
                "name": "Hirschbeck Tankstelle"
              },
              "geometry": {
                "type": "Point",
                "coordinates": [
                  16.1646849,
                  47.1178321
                ]
              }
            },
            {
              "type": "Feature",
              "properties": {
                "id": "4036874823",
                "osm_type": "node",
                "lat": 47.1474944,
                "lon": 16.1025925,
                "addr:city": "Burgau",
                "addr:country": "AT",
                "addr:housenumber": "270",
                "addr:postcode": "8291",
                "addr:street": "Neudauer Straße",
                "amenity": "fuel",
                "brand": "Socar",
                "brand:wikidata": "Q1622293",
                "contact:phone": "+43 3383 2230",
                "name": "SOCAR",
                "old_name": "A1 Tankstelle",
                "operator": "Veronika Dampf"
              },
              "geometry": {
                "type": "Point",
                "coordinates": [
                  16.1025925,
                  47.1474944
                ]
              }
            },
            {
              "type": "Feature",
              "properties": {
                "id": "7663771718",
                "osm_type": "node",
                "lat": 47.1154964,
                "lon": 16.0583929,
                "addr:city": "Bad Blumau",
                "addr:country": "AT",
                "addr:housenumber": "73",
                "addr:postcode": "8283",
                "addr:street": "Bad Blumau",
                "amenity": "fuel",
                "brand": "M3",
                "compressed_air": "yes",
                "fuel:biodiesel": "yes",
                "fuel:diesel": "yes",
                "fuel:octane_95": "yes",
                "name": "M3 Tankstelle Bad Blumau",
                "payment:cash": "yes",
                "payment:credit_cards": "yes",
                "payment:debit_cards": "yes",
                "phone": "+43 3383 300 00",
                "self_service": "yes"
              },
              "geometry": {
                "type": "Point",
                "coordinates": [
                  16.0583929,
                  47.1154964
                ]
              }
            },
            {
              "type": "Feature",
              "properties": {
                "id": "11498021165",
                "osm_type": "node",
                "lat": 47.0657089,
                "lon": 16.0792873,
                "amenity": "fuel",
                "brand": "Shell",
                "brand:wikidata": "Q110716465",
                "name": "Shell",
                "wheelchair": "yes"
              },
              "geometry": {
                "type": "Point",
                "coordinates": [
                  16.0792873,
                  47.0657089
                ]
              }
            },
            {
              "type": "Feature",
              "properties": {
                "id": "11498021166",
                "osm_type": "node",
                "lat": 47.0658491,
                "lon": 16.0801681,
                "amenity": "fuel",
                "brand": "JET",
                "brand:wikidata": "Q568940",
                "name": "JET",
                "wheelchair": "yes"
              },
              "geometry": {
                "type": "Point",
                "coordinates": [
                  16.0801681,
                  47.0658491
                ]
              }
            }
          ],
          "children": []
        },
        {
          "bbox": {
            "south": 47.199035125,
            "west": 15.253173,
            "north": 47.36431175,
            "east": 15.73002475
          },
          "poiCount": 17,
          "leafCount": 17,
          "averagePosition": [
            15.510835241176471,
            47.25696805882353
          ],
          "data": [
            {
              "type": "Feature",
              "properties": {
                "id": "449103995",
                "osm_type": "node",
                "lat": 47.2804182,
                "lon": 15.5135711,
                "amenity": "fuel",
                "name": "F. Leitner",
                "wheelchair": "no"
              },
              "geometry": {
                "type": "Point",
                "coordinates": [
                  15.5135711,
                  47.2804182
                ]
              }
            },
            {
              "type": "Feature",
              "properties": {
                "id": "669191623",
                "osm_type": "node",
                "lat": 47.2685438,
                "lon": 15.4804772,
                "amenity": "fuel",
                "brand": "BP",
                "name": "Leitner",
                "operator": "BP"
              },
              "geometry": {
                "type": "Point",
                "coordinates": [
                  15.4804772,
                  47.2685438
                ]
              }
            },
            {
              "type": "Feature",
              "properties": {
                "id": "981479260",
                "osm_type": "node",
                "lat": 47.1994115,
                "lon": 15.3459252,
                "amenity": "fuel",
                "brand": "Independent",
                "fuel:diesel": "yes",
                "fuel:octane_95": "yes",
                "name": "Jogrei"
              },
              "geometry": {
                "type": "Point",
                "coordinates": [
                  15.3459252,
                  47.1994115
                ]
              }
            },
            {
              "type": "Feature",
              "properties": {
                "id": "1213439457",
                "osm_type": "node",
                "lat": 47.2424863,
                "lon": 15.3233105,
                "amenity": "fuel",
                "name": "Leitner Tankstelle Schrauding",
                "operator": "Leitner"
              },
              "geometry": {
                "type": "Point",
                "coordinates": [
                  15.3233105,
                  47.2424863
                ]
              }
            },
            {
              "type": "Feature",
              "properties": {
                "id": "2284341392",
                "osm_type": "node",
                "lat": 47.216849,
                "lon": 15.403677,
                "addr:country": "AT",
                "addr:housenumber": "1",
                "addr:postcode": "8102",
                "addr:street": "Semriacherstraße",
                "amenity": "fuel",
                "fuel:diesel": "yes",
                "fuel:octane_95": "yes",
                "name": "Tankstelle Leitner"
              },
              "geometry": {
                "type": "Point",
                "coordinates": [
                  15.403677,
                  47.216849
                ]
              }
            },
            {
              "type": "Feature",
              "properties": {
                "id": "3918089901",
                "osm_type": "node",
                "lat": 47.2675873,
                "lon": 15.3258976,
                "amenity": "fuel",
                "name": "Lagerhaus Tankstelle",
                "operator": "Genol"
              },
              "geometry": {
                "type": "Point",
                "coordinates": [
                  15.3258976,
                  47.2675873
                ]
              }
            },
            {
              "type": "Feature",
              "properties": {
                "id": "4163586989",
                "osm_type": "node",
                "lat": 47.2831624,
                "lon": 15.5144281,
                "amenity": "fuel",
                "contact:phone": "+43317923301-77",
                "contact:website": "http://www.reisinger.st/DIESELTANKSTELLE.362.0.html",
                "operator": "Reisinger"
              },
              "geometry": {
                "type": "Point",
                "coordinates": [
                  15.5144281,
                  47.2831624
                ]
              }
            },
            {
              "type": "Feature",
              "properties": {
                "id": "7559179588",
                "osm_type": "node",
                "lat": 47.3434111,
                "lon": 15.349505,
                "addr:city": "Pernegg an der Mur",
                "addr:country": "AT",
                "addr:housenumber": "2",
                "addr:postcode": "8132",
                "addr:street": "Gewerbestraße",
                "amenity": "fuel",
                "at_bev:addr_date": "2020-04-01",
                "brand": "Socar",
                "brand:wikidata": "Q1622293",
                "brand:wikipedia": "en:SOCAR",
                "name": "Socar",
                "opening_hours": "24/7",
                "operator": "Socar"
              },
              "geometry": {
                "type": "Point",
                "coordinates": [
                  15.349505,
                  47.3434111
                ]
              }
            },
            {
              "type": "Feature",
              "properties": {
                "id": "9117362866",
                "osm_type": "node",
                "lat": 47.2054502,
                "lon": 15.3158517,
                "amenity": "fuel",
                "brand": "OMV",
                "brand:wikidata": "Q168238",
                "brand:wikipedia": "en:OMV",
                "name": "OMV",
                "opening_hours": "24/7",
                "operator": "OMV",
                "phone": "+43 3127 40920"
              },
              "geometry": {
                "type": "Point",
                "coordinates": [
                  15.3158517,
                  47.2054502
                ]
              }
            },
            {
              "type": "Feature",
              "properties": {
                "id": "669201099",
                "osm_type": "node",
                "lat": 47.2800512,
                "lon": 15.5514312,
                "amenity": "fuel",
                "operator": "iQ",
                "wheelchair": "limited"
              },
              "geometry": {
                "type": "Point",
                "coordinates": [
                  15.5514312,
                  47.2800512
                ]
              }
            },
            {
              "type": "Feature",
              "properties": {
                "id": "669260401",
                "osm_type": "node",
                "lat": 47.2123193,
                "lon": 15.6292333,
                "addr:city": "Weiz",
                "addr:country": "AT",
                "addr:housenumber": "60",
                "addr:postcode": "8160",
                "addr:street": "Gleisdorfer Straße",
                "amenity": "fuel",
                "brand": "BP",
                "brand:wikidata": "Q152057",
                "brand:wikipedia": "en:BP",
                "fuel:cng": "no",
                "fuel:diesel": "yes",
                "fuel:octane_95": "yes",
                "name": "BP",
                "opening_hours": "Mo-Sa 05:00-24:00; Su 06:00-22:00",
                "operator": "Bertram Pölzelbauer",
                "phone": "+43 3172 2073"
              },
              "geometry": {
                "type": "Point",
                "coordinates": [
                  15.6292333,
                  47.2123193
                ]
              }
            },
            {
              "type": "Feature",
              "properties": {
                "id": "1322874774",
                "osm_type": "node",
                "lat": 47.2047104,
                "lon": 15.6397868,
                "addr:city": "Weiz",
                "addr:country": "AT",
                "addr:housenumber": "7",
                "addr:postcode": "8160",
                "addr:street": "Bundesstraße",
                "amenity": "fuel",
                "at_bev:addr_date": "2018-10-01",
                "brand": "Jet",
                "brand:wikidata": "Q568940",
                "brand:wikipedia": "en:Jet (brand)",
                "building": "roof",
                "name": "Jet",
                "self_service": "yes"
              },
              "geometry": {
                "type": "Point",
                "coordinates": [
                  15.6397868,
                  47.2047104
                ]
              }
            },
            {
              "type": "Feature",
              "properties": {
                "id": "1332784729",
                "osm_type": "node",
                "lat": 47.2666907,
                "lon": 15.7021755,
                "amenity": "fuel",
                "brand": "Genol",
                "fuel:diesel": "yes",
                "name": "Genol",
                "opening_hours": "24/7",
                "operator": "Genol",
                "shop": "no"
              },
              "geometry": {
                "type": "Point",
                "coordinates": [
                  15.7021755,
                  47.2666907
                ]
              }
            },
            {
              "type": "Feature",
              "properties": {
                "id": "4372549335",
                "osm_type": "node",
                "lat": 47.3096726,
                "lon": 15.5627011,
                "amenity": "fuel"
              },
              "geometry": {
                "type": "Point",
                "coordinates": [
                  15.5627011,
                  47.3096726
                ]
              }
            },
            {
              "type": "Feature",
              "properties": {
                "id": "5932333493",
                "osm_type": "node",
                "lat": 47.2482872,
                "lon": 15.6987601,
                "addr:city": "Feistritz bei Anger",
                "addr:housenumber": "46",
                "addr:postcode": "8184",
                "addr:street": "Viertelfeistritz",
                "amenity": "fuel",
                "brand": "Leitner",
                "capacity": "4",
                "fuel:diesel": "yes",
                "fuel:octane_95": "yes",
                "name": "Leitner Mineralöle",
                "opening_hours": "Mo-Su 05:00-23:00",
                "operator": "Leitner Mineralöle",
                "self_service": "yes",
                "website": "https://www.leitner-mineraloele.at"
              },
              "geometry": {
                "type": "Point",
                "coordinates": [
                  15.6987601,
                  47.2482872
                ]
              }
            },
            {
              "type": "Feature",
              "properties": {
                "id": "6491096650",
                "osm_type": "node",
                "lat": 47.2195535,
                "lon": 15.6345642,
                "addr:city": "Weiz",
                "addr:country": "AT",
                "addr:housenumber": "63",
                "addr:postcode": "8160",
                "addr:street": "Birkfelder Straße",
                "amenity": "fuel",
                "brand": "Shell",
                "brand:wikidata": "Q110716465",
                "brand:wikipedia": "en:Royal Dutch Shell",
                "contact:phone": "+43 3172 2050",
                "name": "Shell",
                "opening_hours": "Mo-Su 06:00-22:00"
              },
              "geometry": {
                "type": "Point",
                "coordinates": [
                  15.6345642,
                  47.2195535
                ]
              }
            },
            {
              "type": "Feature",
              "properties": {
                "id": "6512036193",
                "osm_type": "node",
                "lat": 47.3198523,
                "lon": 15.6929035,
                "addr:city": "Koglhof",
                "addr:housenumber": "50",
                "addr:postcode": "8191",
                "addr:street": "Weizerstraße",
                "amenity": "fuel",
                "cafe": "yes",
                "fuel:diesel": "yes",
                "fuel:octane_95": "yes",
                "indoor_seating": "yes",
                "name": "Kaiser",
                "opening_hours": "Mo-Su 07:00-19:00",
                "operator": "IQ",
                "self_service": "yes",
                "shop": "convenience",
                "snack": "yes"
              },
              "geometry": {
                "type": "Point",
                "coordinates": [
                  15.6929035,
                  47.3198523
                ]
              }
            }
          ],
          "children": []
        },
        {
          "bbox": {
            "south": 47.199035125,
            "west": 15.73002475,
            "north": 47.36431175,
            "east": 16.2068765
          },
          "poiCount": 22,
          "leafCount": 22,
          "averagePosition": [
            16.00710674090909,
            47.27076251818182
          ],
          "data": [
            {
              "type": "Feature",
              "properties": {
                "id": "413889992",
                "osm_type": "node",
                "lat": 47.2344275,
                "lon": 15.8356056,
                "amenity": "fuel",
                "brand": "Shell",
                "brand:wikidata": "Q110716465",
                "compressed_air": "yes",
                "fuel:diesel": "yes",
                "fuel:octane_100": "yes",
                "fuel:octane_95": "yes",
                "name": "Shell",
                "opening_hours": "Mo-Su 00:00-24:00",
                "self_service": "yes"
              },
              "geometry": {
                "type": "Point",
                "coordinates": [
                  15.8356056,
                  47.2344275
                ]
              }
            },
            {
              "type": "Feature",
              "properties": {
                "id": "1238290678",
                "osm_type": "node",
                "lat": 47.2338713,
                "lon": 15.996014,
                "amenity": "fuel",
                "fuel:diesel": "yes",
                "fuel:octane_95": "yes",
                "name": "Falk & Falk"
              },
              "geometry": {
                "type": "Point",
                "coordinates": [
                  15.996014,
                  47.2338713
                ]
              }
            },
            {
              "type": "Feature",
              "properties": {
                "id": "1238291516",
                "osm_type": "node",
                "lat": 47.2195507,
                "lon": 16.0253815,
                "amenity": "fuel",
                "fuel:diesel": "yes",
                "fuel:octane_95": "yes",
                "fuel:octane_98": "yes",
                "name": "Grabner",
                "operator": "Grabner"
              },
              "geometry": {
                "type": "Point",
                "coordinates": [
                  16.0253815,
                  47.2195507
                ]
              }
            },
            {
              "type": "Feature",
              "properties": {
                "id": "1534161921",
                "osm_type": "node",
                "lat": 47.2835597,
                "lon": 16.0013841,
                "amenity": "fuel",
                "compressed_air": "yes",
                "compressed_air:fee": "no",
                "fuel:diesel": "yes",
                "fuel:octane_95": "yes",
                "name": "Teubl",
                "opening_hours": "Mo-Su 05:00-22:00",
                "operator": "Teubl",
                "payment:account_cards": "yes",
                "payment:coins": "no",
                "payment:notes": "yes",
                "shop": "no"
              },
              "geometry": {
                "type": "Point",
                "coordinates": [
                  16.0013841,
                  47.2835597
                ]
              }
            },
            {
              "type": "Feature",
              "properties": {
                "id": "1599331952",
                "osm_type": "node",
                "lat": 47.2190071,
                "lon": 15.9015024,
                "addr:city": "Kaindorf",
                "addr:country": "AT",
                "addr:housenumber": "224",
                "addr:place": "Kaindorf",
                "addr:postcode": "8224",
                "amenity": "fuel",
                "at_bev:addr_date": "2018-10-01",
                "brand": "OMV",
                "brand:wikidata": "Q168238",
                "fuel:adblue": "yes",
                "fuel:diesel": "yes",
                "fuel:octane_100": "yes",
                "fuel:octane_95": "yes",
                "name": "OMV Tankstelle Prem",
                "name:de": "OMV Tankstelle Prem",
                "name:en": "OMV Tankstelle Prem",
                "opening_hours": "Mo-Sa 06:00-22:00; Su 08:00-21:00"
              },
              "geometry": {
                "type": "Point",
                "coordinates": [
                  15.9015024,
                  47.2190071
                ]
              }
            },
            {
              "type": "Feature",
              "properties": {
                "id": "2375871576",
                "osm_type": "node",
                "lat": 47.3096643,
                "lon": 15.830621,
                "amenity": "fuel",
                "brand": "Shell",
                "brand:wikidata": "Q110716465",
                "brand:wikipedia": "en:Royal Dutch Shell",
                "name": "Shell",
                "operator": "Herbert Gaugl Autoservice e.U."
              },
              "geometry": {
                "type": "Point",
                "coordinates": [
                  15.830621,
                  47.3096643
                ]
              }
            },
            {
              "type": "Feature",
              "properties": {
                "id": "2710641720",
                "osm_type": "node",
                "lat": 47.2984414,
                "lon": 15.8379879,
                "addr:city": "Pöllau",
                "addr:country": "AT",
                "addr:postcode": "8225",
                "amenity": "fuel",
                "compressed_air": "yes",
                "name": "Turmöl",
                "opening_hours": "Mo-Sa 06:00-20:00; Su 07:00-20:00",
                "phone": "+43 3335 2214"
              },
              "geometry": {
                "type": "Point",
                "coordinates": [
                  15.8379879,
                  47.2984414
                ]
              }
            },
            {
              "type": "Feature",
              "properties": {
                "id": "4190197110",
                "osm_type": "node",
                "lat": 47.2306418,
                "lon": 15.7347754,
                "amenity": "fuel",
                "opening_hours": "00:00 - 24:00"
              },
              "geometry": {
                "type": "Point",
                "coordinates": [
                  15.7347754,
                  47.2306418
                ]
              }
            },
            {
              "type": "Feature",
              "properties": {
                "id": "10576034832",
                "osm_type": "node",
                "lat": 47.2195294,
                "lon": 15.9022175,
                "addr:city": "Kaindorf",
                "addr:country": "AT",
                "addr:housenumber": "340",
                "addr:place": "Kaindorf",
                "addr:postcode": "8224",
                "amenity": "fuel",
                "fuel:diesel": "yes",
                "fuel:octane_95": "yes",
                "name": "Tankstelle Gschiel",
                "operator": "Gschiel Franz A. Ges. m.b.H.",
                "self_service": "yes"
              },
              "geometry": {
                "type": "Point",
                "coordinates": [
                  15.9022175,
                  47.2195294
                ]
              }
            },
            {
              "type": "Feature",
              "properties": {
                "id": "11924881450",
                "osm_type": "node",
                "lat": 47.282594,
                "lon": 15.9754193,
                "addr:city": "Hartberg",
                "addr:country": "AT",
                "addr:housenumber": "50",
                "addr:postcode": "8230",
                "addr:street": "Ressavarstraße",
                "amenity": "fuel",
                "fuel:diesel": "yes",
                "fuel:octane_95": "yes",
                "fuel:octane_98": "yes",
                "name": "M3 Energy",
                "opening_hours": "Mo-Su 06:00-22:00",
                "phone": "+4350146220",
                "self_service": "yes"
              },
              "geometry": {
                "type": "Point",
                "coordinates": [
                  15.9754193,
                  47.282594
                ]
              }
            },
            {
              "type": "Feature",
              "properties": {
                "id": "11924881452",
                "osm_type": "node",
                "lat": 47.2825254,
                "lon": 15.9745325,
                "addr:city": "Hartberg",
                "addr:country": "AT",
                "addr:housenumber": "31",
                "addr:postcode": "8230",
                "addr:street": "Ressavarstraße",
                "amenity": "fuel",
                "brand": "JET",
                "brand:wikidata": "Q568940",
                "brand:wikipedia": "en:Jet (brand)",
                "fuel:diesel": "yes",
                "fuel:octane_95": "yes",
                "fuel:octane_98": "yes",
                "name": "Jet",
                "opening_hours": "Mo-Sa 05:00-23:00; Su,PH 06:00-23:00",
                "website": "https://www.jet-tankstellen.at/de/tankstellen/details.php?TSNr=J05548"
              },
              "geometry": {
                "type": "Point",
                "coordinates": [
                  15.9745325,
                  47.2825254
                ]
              }
            },
            {
              "type": "Feature",
              "properties": {
                "id": "13057867104",
                "osm_type": "node",
                "lat": 47.2385251,
                "lon": 15.7973485,
                "amenity": "fuel",
                "brand": "Lagerhaus",
                "fuel:LH2": "no",
                "fuel:cng": "no",
                "fuel:diesel": "yes",
                "fuel:e10": "no",
                "fuel:e5": "no",
                "fuel:e85": "no",
                "fuel:h70": "no",
                "fuel:lng": "no",
                "fuel:lpg": "no",
                "fuel:octane_100": "no",
                "fuel:octane_80": "no",
                "fuel:octane_85": "no",
                "fuel:octane_87": "no",
                "fuel:octane_88": "no",
                "fuel:octane_89": "no",
                "fuel:octane_90": "no",
                "fuel:octane_91": "no",
                "fuel:octane_92": "no",
                "fuel:octane_93": "no",
                "fuel:octane_95": "no",
                "fuel:octane_97": "no",
                "fuel:octane_98": "no",
                "fuel:propane": "no",
                "name": "Landring SB-Dieseltankstelle"
              },
              "geometry": {
                "type": "Point",
                "coordinates": [
                  15.7973485,
                  47.2385251
                ]
              }
            },
            {
              "type": "Feature",
              "properties": {
                "id": "449222197",
                "osm_type": "node",
                "lat": 47.2929219,
                "lon": 16.2067254,
                "amenity": "fuel",
                "name": "AWI Diskont",
                "wheelchair": "limited"
              },
              "geometry": {
                "type": "Point",
                "coordinates": [
                  16.2067254,
                  47.2929219
                ]
              }
            },
            {
              "type": "Feature",
              "properties": {
                "id": "449222245",
                "osm_type": "node",
                "lat": 47.2935638,
                "lon": 16.2050841,
                "amenity": "fuel",
                "name": "Landestankstelle"
              },
              "geometry": {
                "type": "Point",
                "coordinates": [
                  16.2050841,
                  47.2935638
                ]
              }
            },
            {
              "type": "Feature",
              "properties": {
                "id": "1050214085",
                "osm_type": "node",
                "lat": 47.2487287,
                "lon": 16.1525822,
                "amenity": "fuel",
                "brand": "Diskont Tankstelle",
                "fuel:diesel": "yes",
                "fuel:octane_91": "yes",
                "fuel:octane_95": "yes",
                "name": "Diskont",
                "operator": "Tatjana Koller",
                "phone": "+433352 5119"
              },
              "geometry": {
                "type": "Point",
                "coordinates": [
                  16.1525822,
                  47.2487287
                ]
              }
            },
            {
              "type": "Feature",
              "properties": {
                "id": "1562156376",
                "osm_type": "node",
                "lat": 47.3630517,
                "lon": 16.0643656,
                "amenity": "fuel",
                "brand": "Independent",
                "operator": "Schröck"
              },
              "geometry": {
                "type": "Point",
                "coordinates": [
                  16.0643656,
                  47.3630517
                ]
              }
            },
            {
              "type": "Feature",
              "properties": {
                "id": "3430716541",
                "osm_type": "node",
                "lat": 47.212402,
                "lon": 16.1628611,
                "addr:housenumber": "2",
                "addr:postcode": "7532",
                "addr:street": "Bundesstraße",
                "amenity": "fuel",
                "brand": "Shell",
                "fax": "+433358 2415-40",
                "name": "Shell",
                "phone": "+433358 2415 0"
              },
              "geometry": {
                "type": "Point",
                "coordinates": [
                  16.1628611,
                  47.212402
                ]
              }
            },
            {
              "type": "Feature",
              "properties": {
                "id": "4504284902",
                "osm_type": "node",
                "lat": 47.3371513,
                "lon": 16.1451856,
                "addr:city": "Riedlingsdorf",
                "addr:country": "AT",
                "addr:housenumber": "153",
                "addr:postcode": "7422",
                "addr:street": "Untere Hauptstraße",
                "amenity": "fuel",
                "at_bev:addr_date": "2020-10-01",
                "name": "Fuel",
                "operator": "Etsch",
                "wheelchair": "limited"
              },
              "geometry": {
                "type": "Point",
                "coordinates": [
                  16.1451856,
                  47.3371513
                ]
              }
            },
            {
              "type": "Feature",
              "properties": {
                "id": "5604991322",
                "osm_type": "node",
                "lat": 47.2892222,
                "lon": 16.0815073,
                "amenity": "fuel",
                "compressed_air": "yes",
                "fuel:GTL_diesel": "yes",
                "fuel:diesel": "yes",
                "fuel:octane_95": "yes"
              },
              "geometry": {
                "type": "Point",
                "coordinates": [
                  16.0815073,
                  47.2892222
                ]
              }
            },
            {
              "type": "Feature",
              "properties": {
                "id": "6327304557",
                "osm_type": "node",
                "lat": 47.3360689,
                "lon": 16.077877,
                "amenity": "fuel"
              },
              "geometry": {
                "type": "Point",
                "coordinates": [
                  16.077877,
                  47.3360689
                ]
              }
            },
            {
              "type": "Feature",
              "properties": {
                "id": "6851477634",
                "osm_type": "node",
                "lat": 47.2748682,
                "lon": 16.1578042,
                "addr:city": "Kemeten",
                "addr:country": "AT",
                "addr:housenumber": "12a",
                "addr:postcode": "7531",
                "addr:street": "Steinbrückl",
                "amenity": "fuel",
                "at_bev:addr_date": "2020-10-01",
                "brand": "Avanti",
                "brand:wikidata": "Q168238",
                "brand:wikipedia": "en:OMV",
                "name": "Avanti"
              },
              "geometry": {
                "type": "Point",
                "coordinates": [
                  16.1578042,
                  47.2748682
                ]
              }
            },
            {
              "type": "Feature",
              "properties": {
                "id": "12015280963",
                "osm_type": "node",
                "lat": 47.256459,
                "lon": 16.0895661,
                "amenity": "fuel",
                "fuel:diesel": "yes"
              },
              "geometry": {
                "type": "Point",
                "coordinates": [
                  16.0895661,
                  47.256459
                ]
              }
            }
          ],
          "children": []
        }
      ]
    },
    {
      "bbox": {
        "south": 47.033758500000005,
        "west": 16.2068765,
        "north": 47.36431175,
        "east": 17.16058
      },
      "poiCount": 38,
      "leafCount": 38,
      "averagePosition": [
        16.605638218421053,
        47.224063384210524
      ],
      "data": [
        {
          "type": "Feature",
          "properties": {
            "id": "340518823",
            "osm_type": "node",
            "lat": 47.3633208,
            "lon": 16.2407176,
            "addr:city": "Mariasdorf",
            "addr:country": "AT",
            "addr:housenumber": "54a",
            "addr:place": "Mariasdorf",
            "addr:postcode": "7433",
            "amenity": "fuel",
            "at_bev:addr_date": "2019-04-01",
            "fuel:diesel": "yes",
            "fuel:octane_95": "yes",
            "name": "A&O",
            "note": "position along the right street",
            "postal_code": "7433",
            "ref": "7433",
            "shop": "kiosk",
            "type": "Post-Servicestelle"
          },
          "geometry": {
            "type": "Point",
            "coordinates": [
              16.2407176,
              47.3633208
            ]
          }
        },
        {
          "type": "Feature",
          "properties": {
            "id": "540863732",
            "osm_type": "node",
            "lat": 47.1774208,
            "lon": 16.3530263,
            "amenity": "fuel",
            "name": "Diskont",
            "wheelchair": "no"
          },
          "geometry": {
            "type": "Point",
            "coordinates": [
              16.3530263,
              47.1774208
            ]
          }
        },
        {
          "type": "Feature",
          "properties": {
            "id": "951801854",
            "osm_type": "node",
            "lat": 47.2484241,
            "lon": 16.2968226,
            "addr:city": "Jabing",
            "addr:housenumber": "1",
            "addr:postcode": "7503",
            "addr:street": "Bundesstraße",
            "amenity": "fuel",
            "brand": "Turmöl",
            "brand:wikidata": "Q1473279",
            "brand:wikipedia": "de:Turmöl",
            "compressed_air": "yes",
            "name": "Turmöl",
            "opening_hours": "Mo-Sa 06:00-22:00; Su 07:00-22:00",
            "phone": "+43 3362 4022",
            "website": "https://www.turmöl.at/",
            "wheelchair": "limited"
          },
          "geometry": {
            "type": "Point",
            "coordinates": [
              16.2968226,
              47.2484241
            ]
          }
        },
        {
          "type": "Feature",
          "properties": {
            "id": "963591387",
            "osm_type": "node",
            "lat": 47.3454811,
            "lon": 16.2240028,
            "addr:city": "Bad Tatzmannsdorf",
            "addr:country": "AT",
            "addr:housenumber": "52",
            "addr:postcode": "7431",
            "addr:street": "Jormannsdorfer-Straße",
            "amenity": "fuel",
            "at_bev:addr_date": "2020-10-01",
            "brand": "Shell",
            "brand:wikidata": "Q110716465",
            "fuel:diesel": "yes",
            "fuel:e10": "yes",
            "name": "Shell",
            "operator": "Shell"
          },
          "geometry": {
            "type": "Point",
            "coordinates": [
              16.2240028,
              47.3454811
            ]
          }
        },
        {
          "type": "Feature",
          "properties": {
            "id": "965265205",
            "osm_type": "node",
            "lat": 47.2423965,
            "lon": 16.3126794,
            "addr:city": "Großpetersdorf",
            "addr:country": "AT",
            "addr:housenumber": "1",
            "addr:postcode": "7503",
            "addr:street": "Schlainingerstraße",
            "amenity": "fuel",
            "at_bev:addr_date": "2020-10-01",
            "name": "GP Diskont",
            "wheelchair": "no"
          },
          "geometry": {
            "type": "Point",
            "coordinates": [
              16.3126794,
              47.2423965
            ]
          }
        },
        {
          "type": "Feature",
          "properties": {
            "id": "974073644",
            "osm_type": "node",
            "lat": 47.047318,
            "lon": 16.3180229,
            "addr:city": "Güssing",
            "addr:housenumber": "54-56",
            "addr:postcode": "7540",
            "addr:street": "Grazer Straße",
            "amenity": "fuel",
            "compressed_air": "yes",
            "name": "Awi",
            "opening_hours": "Mo-Sa 06:00-21:00; Su,PH 07:00-21:00"
          },
          "geometry": {
            "type": "Point",
            "coordinates": [
              16.3180229,
              47.047318
            ]
          }
        },
        {
          "type": "Feature",
          "properties": {
            "id": "1672169671",
            "osm_type": "node",
            "lat": 47.3624745,
            "lon": 16.2840924,
            "addr:city": "Stadtschlaining",
            "addr:country": "AT",
            "addr:hamlet": "Goberling",
            "addr:housenumber": "65",
            "addr:place": "Goberling",
            "addr:postcode": "7461",
            "amenity": "fuel",
            "at_bev:addr_date": "2019-04-01",
            "name": "Tankstelle Gerald Polster"
          },
          "geometry": {
            "type": "Point",
            "coordinates": [
              16.2840924,
              47.3624745
            ]
          }
        },
        {
          "type": "Feature",
          "properties": {
            "id": "1786182648",
            "osm_type": "node",
            "lat": 47.0675713,
            "lon": 16.3230821,
            "amenity": "fuel",
            "brand": "AWI"
          },
          "geometry": {
            "type": "Point",
            "coordinates": [
              16.3230821,
              47.0675713
            ]
          }
        },
        {
          "type": "Feature",
          "properties": {
            "id": "1833987773",
            "osm_type": "node",
            "lat": 47.0696393,
            "lon": 16.3222907,
            "amenity": "fuel"
          },
          "geometry": {
            "type": "Point",
            "coordinates": [
              16.3222907,
              47.0696393
            ]
          }
        },
        {
          "type": "Feature",
          "properties": {
            "id": "1878369549",
            "osm_type": "node",
            "lat": 47.3027827,
            "lon": 16.4422177,
            "amenity": "fuel",
            "brand": "OMV",
            "brand:wikidata": "Q168238",
            "fuel:diesel": "yes",
            "fuel:octane_95": "yes",
            "name": "Simon Karl"
          },
          "geometry": {
            "type": "Point",
            "coordinates": [
              16.4422177,
              47.3027827
            ]
          }
        },
        {
          "type": "Feature",
          "properties": {
            "id": "2982807153",
            "osm_type": "node",
            "lat": 47.2385367,
            "lon": 16.5218106,
            "amenity": "fuel"
          },
          "geometry": {
            "type": "Point",
            "coordinates": [
              16.5218106,
              47.2385367
            ]
          }
        },
        {
          "type": "Feature",
          "properties": {
            "id": "3964007840",
            "osm_type": "node",
            "lat": 47.2568097,
            "lon": 16.4664553,
            "amenity": "fuel",
            "self_service": "yes"
          },
          "geometry": {
            "type": "Point",
            "coordinates": [
              16.4664553,
              47.2568097
            ]
          }
        },
        {
          "type": "Feature",
          "properties": {
            "id": "6476233065",
            "osm_type": "node",
            "lat": 47.0645419,
            "lon": 16.3254636,
            "addr:city": "Güssing",
            "addr:country": "AT",
            "addr:housenumber": "2a",
            "addr:postcode": "7540",
            "addr:street": "Wiener Straße",
            "amenity": "fuel",
            "contact:phone": "+43 3322 434 79",
            "name": "Tankstelle Roth"
          },
          "geometry": {
            "type": "Point",
            "coordinates": [
              16.3254636,
              47.0645419
            ]
          }
        },
        {
          "type": "Feature",
          "properties": {
            "id": "9485782609",
            "osm_type": "node",
            "lat": 47.2923013,
            "lon": 16.3952728,
            "addr:city": "Markt Neuhodis",
            "addr:country": "AT",
            "addr:housenumber": "7",
            "addr:postcode": "7464",
            "addr:street": "Am Meierhof",
            "amenity": "fuel",
            "at_bev:addr_date": "2024-04-01",
            "description": "Waschstraße und Cafe",
            "fuel:diesel": "yes",
            "fuel:heating_oil": "yes",
            "fuel:octane_95": "yes",
            "fuel:premium_diesel": "yes",
            "name": "Tankstelle Kaiser"
          },
          "geometry": {
            "type": "Point",
            "coordinates": [
              16.3952728,
              47.2923013
            ]
          }
        },
        {
          "type": "Feature",
          "properties": {
            "id": "623646134",
            "osm_type": "node",
            "lat": 47.2580431,
            "lon": 16.9381728,
            "amenity": "fuel",
            "operator": "Shell"
          },
          "geometry": {
            "type": "Point",
            "coordinates": [
              16.9381728,
              47.2580431
            ]
          }
        },
        {
          "type": "Feature",
          "properties": {
            "id": "693276731",
            "osm_type": "node",
            "lat": 47.2424389,
            "lon": 16.652417,
            "addr:city": "Szombathely",
            "addr:housenumber": "29",
            "addr:postcode": "9700",
            "addr:street": "Zanati út",
            "air_conditioning": "yes",
            "amenity": "fuel",
            "brand": "MOL",
            "brand:wikidata": "Q549181",
            "brand:wikipedia": "hu:MOL Magyar Olaj- és Gázipari Nyrt.",
            "compressed_air": "yes",
            "contact:facebook": "https://www.facebook.com/mol.magyarorszag/",
            "contact:instagram": "https://www.instagram.com/mol.magyarorszag/",
            "contact:website": "https://www.mol.hu",
            "contact:youtube": "https://www.youtube.com/user/molgrouptv",
            "food": "yes",
            "fuel:GTL_diesel": "yes",
            "fuel:adblue": "yes",
            "fuel:diesel": "yes",
            "fuel:lpg": "yes",
            "fuel:octane_100": "yes",
            "fuel:octane_95": "yes",
            "fuel:octane_98": "yes",
            "name": "MOL",
            "opening_hours": "24/7",
            "operator": "MOL Nyrt.",
            "operator:addr": "1117 Budapest, Dombóvári út 28.",
            "payment:cash": "yes",
            "payment:contactless": "yes",
            "payment:maestro": "yes",
            "payment:mastercard": "yes",
            "payment:mastercard_contactless": "yes",
            "payment:mastercard_electronic": "yes",
            "payment:visa": "yes",
            "payment:visa_electron": "yes",
            "ref:HU:company": "01-10-041683",
            "ref:HU:vatin": "10625790-4-44",
            "rent:lpg_bottles": "yes",
            "source": "website",
            "source:date": "2022-05-21",
            "truck": "no",
            "wheelchair": "yes"
          },
          "geometry": {
            "type": "Point",
            "coordinates": [
              16.652417,
              47.2424389
            ]
          }
        },
        {
          "type": "Feature",
          "properties": {
            "id": "834681878",
            "osm_type": "node",
            "lat": 47.2548025,
            "lon": 16.6198121,
            "addr:city": "Szombathely",
            "addr:housenumber": "1",
            "addr:postcode": "9700",
            "addr:street": "Viktória utca",
            "air_conditioning": "yes",
            "amenity": "fuel",
            "brand": "MOL",
            "brand:wikidata": "Q549181",
            "brand:wikipedia": "hu:MOL Magyar Olaj- és Gázipari Nyrt.",
            "check_date:opening_hours": "2024-02-10",
            "compressed_air": "yes",
            "contact:facebook": "https://www.facebook.com/mol.magyarorszag/",
            "contact:instagram": "https://www.instagram.com/mol.magyarorszag/",
            "contact:website": "https://www.mol.hu",
            "contact:youtube": "https://www.youtube.com/user/molgrouptv",
            "food": "yes",
            "fuel:GTL_diesel": "yes",
            "fuel:adblue": "no",
            "fuel:diesel": "yes",
            "fuel:e85": "yes",
            "fuel:lpg": "yes",
            "fuel:octane_100": "yes",
            "fuel:octane_95": "yes",
            "name": "MOL",
            "opening_hours": "Mo-Su 06:00-22:00",
            "operator": "MOL Nyrt.",
            "operator:addr": "1117 Budapest, Dombóvári út 28.",
            "payment:cash": "yes",
            "payment:contactless": "yes",
            "payment:maestro": "yes",
            "payment:mastercard": "yes",
            "payment:mastercard_contactless": "yes",
            "payment:mastercard_electronic": "yes",
            "payment:visa": "yes",
            "payment:visa_electron": "yes",
            "ref:HU:company": "01-10-041683",
            "ref:HU:vatin": "10625790-4-44",
            "rent:lpg_bottles": "yes",
            "source": "website",
            "source:date": "2022-05-21",
            "truck": "no",
            "wheelchair": "yes"
          },
          "geometry": {
            "type": "Point",
            "coordinates": [
              16.6198121,
              47.2548025
            ]
          }
        },
        {
          "type": "Feature",
          "properties": {
            "id": "1134273495",
            "osm_type": "node",
            "lat": 47.2421163,
            "lon": 16.5907415,
            "amenity": "fuel",
            "brand": "Shell",
            "name": "Shell",
            "operator": "Shell",
            "website": "https://www.shell.hu/"
          },
          "geometry": {
            "type": "Point",
            "coordinates": [
              16.5907415,
              47.2421163
            ]
          }
        },
        {
          "type": "Feature",
          "properties": {
            "id": "1572239920",
            "osm_type": "node",
            "lat": 47.0999608,
            "lon": 16.8782892,
            "addr:city": "Kám",
            "addr:housenumber": "2",
            "addr:postcode": "9841",
            "addr:street": "Jókai Mór utca",
            "air_conditioning": "yes",
            "amenity": "fuel",
            "brand": "MOL",
            "brand:wikidata": "Q549181",
            "brand:wikipedia": "hu:MOL Magyar Olaj- és Gázipari Nyrt.",
            "compressed_air": "yes",
            "contact:facebook": "https://www.facebook.com/mol.magyarorszag/",
            "contact:instagram": "https://www.instagram.com/mol.magyarorszag/",
            "contact:website": "https://www.mol.hu",
            "contact:youtube": "https://www.youtube.com/user/molgrouptv",
            "food": "no",
            "fuel:GTL_diesel": "yes",
            "fuel:adblue": "no",
            "fuel:diesel": "yes",
            "fuel:lpg": "no",
            "fuel:octane_100": "yes",
            "fuel:octane_95": "yes",
            "name": "MOL",
            "operator": "MOL Nyrt.",
            "operator:addr": "1117 Budapest, Dombóvári út 28.",
            "payment:cash": "yes",
            "payment:contactless": "yes",
            "payment:maestro": "yes",
            "payment:mastercard": "yes",
            "payment:mastercard_contactless": "yes",
            "payment:mastercard_electronic": "yes",
            "payment:visa": "yes",
            "payment:visa_electron": "yes",
            "ref:HU:company": "01-10-041683",
            "ref:HU:vatin": "10625790-4-44",
            "rent:lpg_bottles": "yes",
            "source": "website",
            "source:date": "2022-05-21",
            "truck": "no"
          },
          "geometry": {
            "type": "Point",
            "coordinates": [
              16.8782892,
              47.0999608
            ]
          }
        },
        {
          "type": "Feature",
          "properties": {
            "id": "1944240581",
            "osm_type": "node",
            "lat": 47.2278252,
            "lon": 16.6549107,
            "amenity": "fuel",
            "name": "Magyar benzinkút"
          },
          "geometry": {
            "type": "Point",
            "coordinates": [
              16.6549107,
              47.2278252
            ]
          }
        },
        {
          "type": "Feature",
          "properties": {
            "id": "2379280211",
            "osm_type": "node",
            "lat": 47.2582992,
            "lon": 16.6128368,
            "amenity": "fuel",
            "brand": "Shell",
            "compressed_air": "yes",
            "name": "Shell",
            "opening_hours": "24/7",
            "operator": "Shell",
            "website": "https://www.shell.hu/",
            "wheelchair": "yes"
          },
          "geometry": {
            "type": "Point",
            "coordinates": [
              16.6128368,
              47.2582992
            ]
          }
        },
        {
          "type": "Feature",
          "properties": {
            "id": "2385552075",
            "osm_type": "node",
            "lat": 47.2155119,
            "lon": 16.6358026,
            "addr:city": "Szombathely",
            "addr:postcode": "9700",
            "addr:street": "Rumi út",
            "air_conditioning": "yes",
            "amenity": "fuel",
            "brand": "OMV",
            "brand:wikidata": "Q168238",
            "brand:wikipedia": "en:OMV",
            "compressed_air": "yes",
            "contact:email": "info.hungary@omv.com",
            "contact:facebook": "https://www.facebook.com/omvmagyarorszag",
            "contact:fax": "+36 1 381 9899",
            "contact:instagram": "https://www.instagram.com/omv/",
            "contact:linkedin": "https://www.linkedin.com/company/omv",
            "contact:phone": "+36 94 312 160",
            "contact:twitter": "omv",
            "contact:website": "https://www.omv.hu",
            "contact:youtube": "https://www.youtube.com/user/omvofficial",
            "fuel:GTL_diesel": "yes",
            "fuel:diesel": "yes",
            "fuel:octane_100": "yes",
            "fuel:octane_95": "yes",
            "fuel:octane_98": "yes",
            "name": "OMV",
            "opening_hours": "Mo-Su 07:00-19:00; PH off",
            "operator": "OMV Hungária Kft.",
            "operator:addr": "1117 Budapest, Október huszonharmadika utca 6-10 5. emelet 5/A.",
            "payment:cash": "yes",
            "payment:contactless": "yes",
            "payment:maestro": "yes",
            "payment:mastercard": "yes",
            "payment:mastercard_contactless": "yes",
            "payment:mastercard_electronic": "yes",
            "payment:visa": "yes",
            "payment:visa_electron": "yes",
            "ref:HU:company": "01-09-071584",
            "ref:HU:vatin": "10542925-2-44",
            "ref:vatin": "HU10542925",
            "self_service": "yes",
            "source": "website",
            "source:date": "2020-10-03"
          },
          "geometry": {
            "type": "Point",
            "coordinates": [
              16.6358026,
              47.2155119
            ]
          }
        },
        {
          "type": "Feature",
          "properties": {
            "id": "2390611100",
            "osm_type": "node",
            "lat": 47.2413674,
            "lon": 16.6529595,
            "addr:city": "Szombathely",
            "addr:housenumber": "70",
            "addr:postcode": "9700",
            "addr:street": "Zanati út",
            "amenity": "fuel",
            "brand": "Shell",
            "brand:wikidata": "Q154950",
            "brand:wikipedia": "en:Royal Dutch Shell",
            "fuel:diesel": "yes",
            "fuel:octane_95": "yes",
            "name": "Szombathely IV.",
            "opening_hours": "Mo-Su 06:00-18:00",
            "operator": "Shell",
            "self_service": "yes",
            "shop": "yes",
            "website": "https://find.shell.com/hu/fuel/11367859-szombathely-iv"
          },
          "geometry": {
            "type": "Point",
            "coordinates": [
              16.6529595,
              47.2413674
            ]
          }
        },
        {
          "type": "Feature",
          "properties": {
            "id": "2466797079",
            "osm_type": "node",
            "lat": 47.2548107,
            "lon": 16.905029,
            "amenity": "fuel",
            "building": "yes",
            "name": "Magyar Kúthálózat"
          },
          "geometry": {
            "type": "Point",
            "coordinates": [
              16.905029,
              47.2548107
            ]
          }
        },
        {
          "type": "Feature",
          "properties": {
            "id": "2510920571",
            "osm_type": "node",
            "lat": 47.2514959,
            "lon": 16.9106197,
            "addr:city": "Sárvár",
            "addr:housenumber": "18",
            "addr:postcode": "9600",
            "addr:street": "Ikervári utca",
            "amenity": "fuel",
            "brand": "Avia",
            "brand:wikidata": "Q300147",
            "brand:wikipedia": "de:Avia International",
            "compressed_air": "yes",
            "contact:email": "avia@avia.hu",
            "contact:facebook": "https://www.facebook.com/AVIAHungary",
            "contact:phone": "+36 95 326 373;+36 20 205 6121",
            "contact:website": "https://www.avia.hu/toltoallomas/?id=4",
            "contact:youtube": "https://www.youtube.com/channel/UCjvjkjf2RgmKBuTnKSXk-Rg",
            "food": "yes",
            "fuel:diesel": "yes",
            "fuel:e85": "no",
            "fuel:lpg": "yes",
            "fuel:octane_95": "yes",
            "fuel:octane_98": "no",
            "name": "Avia",
            "operator": "AVIA Hungária Kft.",
            "payment:cash": "yes",
            "payment:contactless": "yes",
            "payment:maestro": "yes",
            "payment:mastercard": "yes",
            "payment:mastercard_contactless": "yes",
            "payment:mastercard_electronic": "yes",
            "payment:visa": "yes",
            "payment:visa_electron": "yes",
            "rent:lpg_bottles": "yes",
            "restaurant": "no",
            "source": "import;website",
            "source:date": "2025-01-07",
            "truck": "no"
          },
          "geometry": {
            "type": "Point",
            "coordinates": [
              16.9106197,
              47.2514959
            ]
          }
        },
        {
          "type": "Feature",
          "properties": {
            "id": "2532784515",
            "osm_type": "node",
            "lat": 47.3597864,
            "lon": 16.8979807,
            "addr:city": "Hegyfalu",
            "addr:postcode": "9631",
            "addr:street": "84. számú főközlekedési út",
            "air_conditioning": "yes",
            "amenity": "fuel",
            "brand": "OMV",
            "brand:wikidata": "Q168238",
            "brand:wikipedia": "en:OMV",
            "compressed_air": "yes",
            "contact:email": "info.hungary@omv.com",
            "contact:facebook": "https://www.facebook.com/omvmagyarorszag",
            "contact:fax": "+36 95 340 267",
            "contact:instagram": "https://www.instagram.com/omv/",
            "contact:linkedin": "https://www.linkedin.com/company/omv",
            "contact:phone": "+36 95 340 267",
            "contact:twitter": "omv",
            "contact:website": "https://www.omv.hu",
            "contact:youtube": "https://www.youtube.com/user/omvofficial",
            "fuel:GTL_diesel": "yes",
            "fuel:diesel": "yes",
            "fuel:octane_100": "yes",
            "fuel:octane_95": "yes",
            "name": "OMV",
            "opening_hours": "24/7",
            "operator": "OMV Hungária Kft.",
            "operator:addr": "1117 Budapest, Október huszonharmadika utca 6-10 5. emelet 5/A.",
            "payment:cash": "yes",
            "payment:contactless": "yes",
            "payment:maestro": "yes",
            "payment:mastercard": "yes",
            "payment:mastercard_contactless": "yes",
            "payment:mastercard_electronic": "yes",
            "payment:visa": "yes",
            "payment:visa_electron": "yes",
            "ref:HU:company": "01-09-071584",
            "ref:HU:vatin": "10542925-2-44",
            "ref:vatin": "HU10542925",
            "source": "website",
            "source:date": "2020-10-03"
          },
          "geometry": {
            "type": "Point",
            "coordinates": [
              16.8979807,
              47.3597864
            ]
          }
        },
        {
          "type": "Feature",
          "properties": {
            "id": "2989860790",
            "osm_type": "node",
            "lat": 47.2541144,
            "lon": 16.6169315,
            "addr:city": "Szombathely",
            "addr:housenumber": "210",
            "addr:postcode": "9700",
            "addr:street": "11-es huszár út",
            "amenity": "fuel",
            "brand": "ENVI",
            "fuel:diesel": "yes",
            "fuel:octane_95": "yes",
            "name": "ENVI",
            "operator": "METRO"
          },
          "geometry": {
            "type": "Point",
            "coordinates": [
              16.6169315,
              47.2541144
            ]
          }
        },
        {
          "type": "Feature",
          "properties": {
            "id": "3049242440",
            "osm_type": "node",
            "lat": 47.054487,
            "lon": 16.7905253,
            "addr:city": "Vasvár",
            "addr:housenumber": "54",
            "addr:postcode": "9800",
            "addr:street": "Járdányi professzor utca",
            "air_conditioning": "yes",
            "amenity": "fuel",
            "brand": "MOL",
            "brand:wikidata": "Q549181",
            "brand:wikipedia": "hu:MOL Magyar Olaj- és Gázipari Nyrt.",
            "compressed_air": "yes",
            "contact:facebook": "https://www.facebook.com/mol.magyarorszag/",
            "contact:instagram": "https://www.instagram.com/mol.magyarorszag/",
            "contact:website": "https://www.mol.hu",
            "contact:youtube": "https://www.youtube.com/user/molgrouptv",
            "food": "no",
            "fuel:GTL_diesel": "yes",
            "fuel:adblue": "no",
            "fuel:diesel": "yes",
            "fuel:lpg": "yes",
            "fuel:octane_100": "yes",
            "fuel:octane_95": "yes",
            "name": "MOL",
            "operator": "MOL Nyrt.",
            "operator:addr": "1117 Budapest, Dombóvári út 28.",
            "payment:cash": "yes",
            "payment:contactless": "yes",
            "payment:maestro": "yes",
            "payment:mastercard": "yes",
            "payment:mastercard_contactless": "yes",
            "payment:mastercard_electronic": "yes",
            "payment:visa": "yes",
            "payment:visa_electron": "yes",
            "ref:HU:company": "01-10-041683",
            "ref:HU:vatin": "10625790-4-44",
            "rent:lpg_bottles": "yes",
            "source": "website",
            "source:date": "2022-05-21",
            "truck": "no"
          },
          "geometry": {
            "type": "Point",
            "coordinates": [
              16.7905253,
              47.054487
            ]
          }
        },
        {
          "type": "Feature",
          "properties": {
            "id": "3394440850",
            "osm_type": "node",
            "lat": 47.2472696,
            "lon": 16.6018541,
            "amenity": "fuel",
            "brand": "Independent",
            "fuel:diesel": "yes",
            "fuel:octane_95": "yes",
            "name": "Magánkút"
          },
          "geometry": {
            "type": "Point",
            "coordinates": [
              16.6018541,
              47.2472696
            ]
          }
        },
        {
          "type": "Feature",
          "properties": {
            "id": "3469861443",
            "osm_type": "node",
            "lat": 47.3492781,
            "lon": 16.9070168,
            "amenity": "fuel",
            "brand": "Agip",
            "name": "Agip",
            "source": "turistautak.hu",
            "source:date": "2015-03-03",
            "url": "http://turistautak.hu/poi.php?id=66800"
          },
          "geometry": {
            "type": "Point",
            "coordinates": [
              16.9070168,
              47.3492781
            ]
          }
        },
        {
          "type": "Feature",
          "properties": {
            "id": "3471869148",
            "osm_type": "node",
            "lat": 47.2514807,
            "lon": 16.6298618,
            "amenity": "fuel",
            "name": "Crazy Cargo benzinkút",
            "source": "turistautak.hu",
            "source:date": "2015-03-03",
            "url": "http://turistautak.hu/poi.php?id=73595",
            "wheelchair": "limited"
          },
          "geometry": {
            "type": "Point",
            "coordinates": [
              16.6298618,
              47.2514807
            ]
          }
        },
        {
          "type": "Feature",
          "properties": {
            "id": "3471878038",
            "osm_type": "node",
            "lat": 47.205065,
            "lon": 16.630883,
            "amenity": "fuel",
            "fixme": "resurvey",
            "source": "turistautak.hu",
            "source:date": "2011-09-06",
            "url": "http://turistautak.hu/poi.php?id=17115"
          },
          "geometry": {
            "type": "Point",
            "coordinates": [
              16.630883,
              47.205065
            ]
          }
        },
        {
          "type": "Feature",
          "properties": {
            "id": "3964007843",
            "osm_type": "node",
            "lat": 47.2533388,
            "lon": 16.6306641,
            "amenity": "fuel",
            "compressed_air": "yes",
            "name": "Magyar Benzinkút"
          },
          "geometry": {
            "type": "Point",
            "coordinates": [
              16.6306641,
              47.2533388
            ]
          }
        },
        {
          "type": "Feature",
          "properties": {
            "id": "4741840453",
            "osm_type": "node",
            "lat": 47.0571349,
            "lon": 16.8146762,
            "amenity": "fuel",
            "name": "Boxutca",
            "opening_hours": "24/7"
          },
          "geometry": {
            "type": "Point",
            "coordinates": [
              16.8146762,
              47.0571349
            ]
          }
        },
        {
          "type": "Feature",
          "properties": {
            "id": "6952077171",
            "osm_type": "node",
            "lat": 47.2389746,
            "lon": 16.6261322,
            "addr:city": "Szombathely",
            "addr:housenumber": "10",
            "addr:postcode": "9700",
            "addr:street": "Márkus Emília utca",
            "air_conditioning": "yes",
            "amenity": "fuel",
            "brand": "MOL",
            "brand:wikidata": "Q549181",
            "brand:wikipedia": "hu:MOL Magyar Olaj- és Gázipari Nyrt.",
            "compressed_air": "yes",
            "contact:facebook": "https://www.facebook.com/mol.magyarorszag/",
            "contact:instagram": "https://www.instagram.com/mol.magyarorszag/",
            "contact:website": "https://www.mol.hu",
            "contact:youtube": "https://www.youtube.com/user/molgrouptv",
            "food": "yes",
            "fuel:GTL_diesel": "yes",
            "fuel:adblue": "no",
            "fuel:diesel": "yes",
            "fuel:lpg": "no",
            "fuel:octane_100": "yes",
            "fuel:octane_95": "yes",
            "name": "MOL",
            "operator": "MOL Nyrt.",
            "operator:addr": "1117 Budapest, Dombóvári út 28.",
            "payment:cash": "yes",
            "payment:contactless": "yes",
            "payment:maestro": "yes",
            "payment:mastercard": "yes",
            "payment:mastercard_contactless": "yes",
            "payment:mastercard_electronic": "yes",
            "payment:visa": "yes",
            "payment:visa_electron": "yes",
            "ref:HU:company": "01-10-041683",
            "ref:HU:vatin": "10625790-4-44",
            "rent:lpg_bottles": "no",
            "source": "website",
            "source:date": "2022-05-21",
            "truck": "no"
          },
          "geometry": {
            "type": "Point",
            "coordinates": [
              16.6261322,
              47.2389746
            ]
          }
        },
        {
          "type": "Feature",
          "properties": {
            "id": "7110505117",
            "osm_type": "node",
            "lat": 47.0359255,
            "lon": 16.8109443,
            "addr:city": "Vasvár",
            "addr:housenumber": "113",
            "addr:postcode": "9800",
            "addr:street": "Győrvári utca",
            "amenity": "fuel",
            "brand": "Avia",
            "compressed_air": "no",
            "contact:email": "avia@avia.hu",
            "contact:facebook": "https://www.facebook.com/AVIAHungary",
            "contact:phone": "+36 94 505 391",
            "contact:website": "https://www.avia.hu/toltoallomas/?id=56",
            "contact:youtube": "https://www.youtube.com/channel/UCjvjkjf2RgmKBuTnKSXk-Rg",
            "fixme": "verify import",
            "food": "no",
            "fuel:diesel": "yes",
            "fuel:e85": "no",
            "fuel:lpg": "no",
            "fuel:octane_95": "no",
            "fuel:octane_98": "no",
            "name": "Avia",
            "operator": "AVIA Hungária Kft.",
            "payment:cash": "yes",
            "payment:contactless": "yes",
            "payment:maestro": "yes",
            "payment:mastercard": "yes",
            "payment:mastercard_contactless": "yes",
            "payment:mastercard_electronic": "yes",
            "payment:visa": "yes",
            "payment:visa_electron": "yes",
            "rent:lpg_bottles": "no",
            "restaurant": "no",
            "source": "import;website",
            "source:date": "2023-11-12",
            "truck": "no"
          },
          "geometry": {
            "type": "Point",
            "coordinates": [
              16.8109443,
              47.0359255
            ]
          }
        },
        {
          "type": "Feature",
          "properties": {
            "id": "293136215",
            "osm_type": "node",
            "lat": 47.253233,
            "lon": 17.1409446,
            "amenity": "fuel"
          },
          "geometry": {
            "type": "Point",
            "coordinates": [
              17.1409446,
              47.253233
            ]
          }
        },
        {
          "type": "Feature",
          "properties": {
            "id": "7110505120",
            "osm_type": "node",
            "lat": 47.32863,
            "lon": 17.03829,
            "addr:city": "Ostffyasszonyfa",
            "addr:housenumber": "24",
            "addr:postcode": "9512",
            "addr:street": "Bajcsy-Zsilinszky Endre utca",
            "amenity": "fuel",
            "brand": "Avia",
            "compressed_air": "yes",
            "contact:email": "avia@avia.hu",
            "contact:facebook": "https://www.facebook.com/AVIAHungary",
            "contact:phone": "+36 20 525 0074",
            "contact:website": "https://www.avia.hu/toltoallomas/?id=8",
            "contact:youtube": "https://www.youtube.com/channel/UCjvjkjf2RgmKBuTnKSXk-Rg",
            "fixme": "verify import",
            "food": "no",
            "fuel:diesel": "yes",
            "fuel:e85": "no",
            "fuel:lpg": "no",
            "fuel:octane_95": "yes",
            "fuel:octane_98": "no",
            "name": "Avia",
            "operator": "AVIA Hungária Kft.",
            "payment:cash": "yes",
            "payment:contactless": "yes",
            "payment:maestro": "yes",
            "payment:mastercard": "yes",
            "payment:mastercard_contactless": "yes",
            "payment:mastercard_electronic": "yes",
            "payment:visa": "yes",
            "payment:visa_electron": "yes",
            "rent:lpg_bottles": "yes",
            "restaurant": "no",
            "source": "import;website",
            "source:date": "2025-01-07",
            "truck": "no"
          },
          "geometry": {
            "type": "Point",
            "coordinates": [
              17.03829,
              47.32863
            ]
          }
        }
      ],
      "children": []
    },
    {
      "bbox": {
        "south": 47.36431175,
        "west": 15.253173,
        "north": 47.694865,
        "east": 16.2068765
      },
      "poiCount": 45,
      "leafCount": 45,
      "averagePosition": [
        15.764544217777777,
        47.50840513777777
      ],
      "data": [
        {
          "type": "Feature",
          "properties": {
            "id": "4227270803",
            "osm_type": "node",
            "lat": 47.3721371,
            "lon": 15.7633464,
            "amenity": "fuel",
            "name": "OIL!"
          },
          "geometry": {
            "type": "Point",
            "coordinates": [
              15.7633464,
              47.3721371
            ]
          }
        },
        {
          "type": "Feature",
          "properties": {
            "id": "266859532",
            "osm_type": "node",
            "lat": 47.4662766,
            "lon": 15.3373845,
            "amenity": "fuel",
            "brand": "OIL!",
            "brand:wikidata": "Q2007561",
            "brand:wikipedia": "de:OIL! Tankstellen",
            "fuel:diesel": "yes",
            "fuel:octane_95": "yes",
            "fuel:octane_98": "yes",
            "name": "OIL!",
            "wheelchair": "limited"
          },
          "geometry": {
            "type": "Point",
            "coordinates": [
              15.3373845,
              47.4662766
            ]
          }
        },
        {
          "type": "Feature",
          "properties": {
            "id": "747164087",
            "osm_type": "node",
            "lat": 47.5719541,
            "lon": 15.3138778,
            "addr:city": "Turnau",
            "addr:country": "AT",
            "addr:housenumber": "110",
            "addr:place": "Au bei Turnau",
            "addr:postcode": "8624",
            "amenity": "fuel",
            "at_bev:addr_date": "2019-04-01",
            "name": "M&S Brennstoffhandel",
            "operator": "MS"
          },
          "geometry": {
            "type": "Point",
            "coordinates": [
              15.3138778,
              47.5719541
            ]
          }
        },
        {
          "type": "Feature",
          "properties": {
            "id": "800933289",
            "osm_type": "node",
            "lat": 47.4192573,
            "lon": 15.2739899,
            "addr:city": "Bruck an der Mur",
            "addr:country": "AT",
            "addr:housenumber": "53-55",
            "addr:postcode": "8600",
            "addr:street": "Wiener Straße",
            "amenity": "fuel",
            "fuel:cng": "yes",
            "name": "Marcher",
            "wheelchair": "yes"
          },
          "geometry": {
            "type": "Point",
            "coordinates": [
              15.2739899,
              47.4192573
            ]
          }
        },
        {
          "type": "Feature",
          "properties": {
            "id": "1596279273",
            "osm_type": "node",
            "lat": 47.4477285,
            "lon": 15.3012144,
            "amenity": "fuel",
            "fuel:diesel": "yes",
            "fuel:e10": "no",
            "fuel:e85": "no",
            "fuel:octane_100": "no",
            "fuel:octane_95": "yes",
            "fuel:octane_98": "no",
            "name": "Stadtwerke Kapfenberg Tankstelle"
          },
          "geometry": {
            "type": "Point",
            "coordinates": [
              15.3012144,
              47.4477285
            ]
          }
        },
        {
          "type": "Feature",
          "properties": {
            "id": "1891099112",
            "osm_type": "node",
            "lat": 47.4674948,
            "lon": 15.3396909,
            "amenity": "fuel",
            "brand": "Jet",
            "brand:wikidata": "Q568940",
            "brand:wikipedia": "en:Jet (brand)",
            "fuel:diesel": "yes",
            "fuel:octane_95": "yes",
            "fuel:octane_98": "yes",
            "name": "Jet",
            "operator": "Jet"
          },
          "geometry": {
            "type": "Point",
            "coordinates": [
              15.3396909,
              47.4674948
            ]
          }
        },
        {
          "type": "Feature",
          "properties": {
            "id": "1891140628",
            "osm_type": "node",
            "lat": 47.483231,
            "lon": 15.393598,
            "addr:country": "AT",
            "addr:postcode": "8644",
            "amenity": "fuel",
            "brand": "Turmöl",
            "fuel:1_25": "yes",
            "fuel:1_50": "yes",
            "fuel:diesel": "yes",
            "fuel:octane_95": "yes",
            "name": "Turmöl",
            "operator": "Zöscher"
          },
          "geometry": {
            "type": "Point",
            "coordinates": [
              15.393598,
              47.483231
            ]
          }
        },
        {
          "type": "Feature",
          "properties": {
            "id": "2293773532",
            "osm_type": "node",
            "lat": 47.4669427,
            "lon": 15.3735958,
            "amenity": "fuel",
            "compressed_air": "yes",
            "name": "AGIP"
          },
          "geometry": {
            "type": "Point",
            "coordinates": [
              15.3735958,
              47.4669427
            ]
          }
        },
        {
          "type": "Feature",
          "properties": {
            "id": "3870864736",
            "osm_type": "node",
            "lat": 47.5122085,
            "lon": 15.4567665,
            "addr:city": "Kindberg",
            "addr:country": "AT",
            "addr:housenumber": "12",
            "addr:postcode": "8650",
            "addr:street": "Wiener Straße",
            "addr:suburb": "Kindberg",
            "amenity": "fuel",
            "at_bev:addr_date": "2019-10-01",
            "brand": "Eni",
            "brand:wikidata": "Q565594",
            "compressed_air": "yes",
            "contact:phone": "+43 3865 2539",
            "fuel:diesel": "yes",
            "fuel:octane_95": "yes",
            "name": "Eni",
            "opening_hours": "Mo-Fr 06:00-22:00; Sa, Su 07:00-21:00",
            "operator": "Prusnik"
          },
          "geometry": {
            "type": "Point",
            "coordinates": [
              15.4567665,
              47.5122085
            ]
          }
        },
        {
          "type": "Feature",
          "properties": {
            "id": "3996807740",
            "osm_type": "node",
            "lat": 47.4853331,
            "lon": 15.3974349,
            "amenity": "fuel",
            "name": "Zöscher"
          },
          "geometry": {
            "type": "Point",
            "coordinates": [
              15.3974349,
              47.4853331
            ]
          }
        },
        {
          "type": "Feature",
          "properties": {
            "id": "5271606936",
            "osm_type": "node",
            "lat": 47.4546783,
            "lon": 15.3177206,
            "amenity": "fuel",
            "brand": "Eni",
            "brand:wikidata": "Q565594",
            "brand:wikipedia": "en:Eni",
            "fuel:diesel": "yes",
            "fuel:octane_95": "yes",
            "name": "Eni"
          },
          "geometry": {
            "type": "Point",
            "coordinates": [
              15.3177206,
              47.4546783
            ]
          }
        },
        {
          "type": "Feature",
          "properties": {
            "id": "6171399780",
            "osm_type": "node",
            "lat": 47.5752627,
            "lon": 15.497801,
            "amenity": "fuel"
          },
          "geometry": {
            "type": "Point",
            "coordinates": [
              15.497801,
              47.5752627
            ]
          }
        },
        {
          "type": "Feature",
          "properties": {
            "id": "8875740891",
            "osm_type": "node",
            "lat": 47.469995,
            "lon": 15.3511326,
            "addr:city": "Sankt Lorenzen im Mürztal",
            "addr:country": "AT",
            "addr:housenumber": "13",
            "addr:postcode": "8642",
            "addr:street": "Mühlweg",
            "amenity": "fuel",
            "fuel:diesel": "yes",
            "fuel:octane_98": "yes",
            "name": "M3",
            "payment:credit_cards": "yes",
            "payment:maestro": "yes",
            "self_service": "yes"
          },
          "geometry": {
            "type": "Point",
            "coordinates": [
              15.3511326,
              47.469995
            ]
          }
        },
        {
          "type": "Feature",
          "properties": {
            "id": "11609690184",
            "osm_type": "node",
            "lat": 47.4524928,
            "lon": 15.2666536,
            "amenity": "fuel",
            "fuel:cng": "no",
            "fuel:diesel": "yes",
            "fuel:lpg": "no",
            "fuel:octane_100": "no",
            "fuel:octane_80": "no",
            "fuel:octane_87": "no",
            "fuel:octane_91": "no",
            "fuel:octane_92": "no",
            "fuel:octane_95": "no",
            "fuel:octane_98": "no",
            "name": "Tankautomat",
            "opening_hours": "Mo-Su 00:00-24:00"
          },
          "geometry": {
            "type": "Point",
            "coordinates": [
              15.2666536,
              47.4524928
            ]
          }
        },
        {
          "type": "Feature",
          "properties": {
            "id": "320163241",
            "osm_type": "node",
            "lat": 47.6489991,
            "lon": 15.8582671,
            "addr:city": "Schottwien",
            "addr:housenumber": "2",
            "addr:postcode": "2641",
            "addr:street": "Schnellstraße",
            "amenity": "fuel",
            "brand": "Eni",
            "brand:wikidata": "Q565594",
            "brand:wikipedia": "en:Eni",
            "compressed_air": "yes",
            "name": "Eni",
            "opening_hours": "PH,Mo-Su 00:00-24:00"
          },
          "geometry": {
            "type": "Point",
            "coordinates": [
              15.8582671,
              47.6489991
            ]
          }
        },
        {
          "type": "Feature",
          "properties": {
            "id": "539468752",
            "osm_type": "node",
            "lat": 47.5583394,
            "lon": 15.5900552,
            "amenity": "fuel",
            "brand": "Shell",
            "brand:wikidata": "Q154950",
            "brand:wikipedia": "en:Royal Dutch Shell",
            "name": "Shell"
          },
          "geometry": {
            "type": "Point",
            "coordinates": [
              15.5900552,
              47.5583394
            ]
          }
        },
        {
          "type": "Feature",
          "properties": {
            "id": "539468757",
            "osm_type": "node",
            "lat": 47.5588692,
            "lon": 15.5908217,
            "addr:city": "Langenwang",
            "addr:country": "AT",
            "addr:housenumber": "70",
            "addr:place": "Schwöbing",
            "addr:postcode": "8665",
            "amenity": "fuel",
            "at_bev:addr_date": "2019-04-01",
            "brand": "OMV",
            "brand:wikidata": "Q168238",
            "brand:wikipedia": "en:OMV",
            "name": "OMV"
          },
          "geometry": {
            "type": "Point",
            "coordinates": [
              15.5908217,
              47.5588692
            ]
          }
        },
        {
          "type": "Feature",
          "properties": {
            "id": "1286472967",
            "osm_type": "node",
            "lat": 47.4291323,
            "lon": 15.7795517,
            "amenity": "fuel",
            "fuel:diesel": "yes",
            "fuel:octane_95": "yes"
          },
          "geometry": {
            "type": "Point",
            "coordinates": [
              15.7795517,
              47.4291323
            ]
          }
        },
        {
          "type": "Feature",
          "properties": {
            "id": "1335709054",
            "osm_type": "node",
            "lat": 47.39745,
            "lon": 15.8712743,
            "amenity": "fuel"
          },
          "geometry": {
            "type": "Point",
            "coordinates": [
              15.8712743,
              47.39745
            ]
          }
        },
        {
          "type": "Feature",
          "properties": {
            "id": "1838784735",
            "osm_type": "node",
            "lat": 47.5907806,
            "lon": 15.6634434,
            "amenity": "fuel",
            "name": "Raiff. Lagerhaus"
          },
          "geometry": {
            "type": "Point",
            "coordinates": [
              15.6634434,
              47.5907806
            ]
          }
        },
        {
          "type": "Feature",
          "properties": {
            "id": "1838787517",
            "osm_type": "node",
            "lat": 47.6063741,
            "lon": 15.6810841,
            "addr:city": "Mürzzuschlag",
            "addr:country": "AT",
            "addr:housenumber": "90",
            "addr:postcode": "8680",
            "addr:street": "Wiener Straße",
            "amenity": "fuel",
            "brand": "Socar",
            "brand:wikidata": "Q1622293",
            "brand:wikipedia": "en:Socar",
            "name": "SOCAR",
            "old_name": "A1 Tankstelle",
            "website": "https://socarenergy.at"
          },
          "geometry": {
            "type": "Point",
            "coordinates": [
              15.6810841,
              47.6063741
            ]
          }
        },
        {
          "type": "Feature",
          "properties": {
            "id": "2007762974",
            "osm_type": "node",
            "lat": 47.4094547,
            "lon": 15.718495,
            "amenity": "fuel",
            "name": "Tankstelle"
          },
          "geometry": {
            "type": "Point",
            "coordinates": [
              15.718495,
              47.4094547
            ]
          }
        },
        {
          "type": "Feature",
          "properties": {
            "id": "4263461343",
            "osm_type": "node",
            "lat": 47.6728741,
            "lon": 15.9573313,
            "amenity": "fuel",
            "name": "Turmöl"
          },
          "geometry": {
            "type": "Point",
            "coordinates": [
              15.9573313,
              47.6728741
            ]
          }
        },
        {
          "type": "Feature",
          "properties": {
            "id": "4263461344",
            "osm_type": "node",
            "lat": 47.6730906,
            "lon": 15.95621,
            "addr:city": "Gloggnitz",
            "addr:country": "AT",
            "addr:housenumber": "93",
            "addr:postcode": "2640",
            "addr:street": "Wiener Straße",
            "amenity": "fuel",
            "brand": "Eni",
            "brand:wikidata": "Q565594",
            "brand:wikipedia": "en:Eni",
            "name": "Eni"
          },
          "geometry": {
            "type": "Point",
            "coordinates": [
              15.95621,
              47.6730906
            ]
          }
        },
        {
          "type": "Feature",
          "properties": {
            "id": "4561364251",
            "osm_type": "node",
            "lat": 47.5870693,
            "lon": 15.6600136,
            "amenity": "fuel",
            "brand": "Avanti",
            "brand:wikidata": "Q168238",
            "brand:wikipedia": "en:OMV",
            "fuel:diesel": "yes",
            "fuel:octane_95": "yes",
            "name": "Avanti",
            "opening_hours": "24/7",
            "operator": "Avanti",
            "phone": "+43 800 202055",
            "self_service": "yes"
          },
          "geometry": {
            "type": "Point",
            "coordinates": [
              15.6600136,
              47.5870693
            ]
          }
        },
        {
          "type": "Feature",
          "properties": {
            "id": "4973198761",
            "osm_type": "node",
            "lat": 47.6592446,
            "lon": 15.5894284,
            "addr:city": "Neuberg an der Mürz",
            "addr:country": "AT",
            "addr:housenumber": "53",
            "addr:postcode": "8692",
            "addr:street": "Hauptstraße",
            "amenity": "fuel",
            "at_bev:addr_date": "2018-10-01",
            "brand": "OMV",
            "brand:wikidata": "Q168238",
            "brand:wikipedia": "en:OMV",
            "building": "yes",
            "name": "OMV",
            "opening_hours": "Mo-Sa 06:00-19:00; Su 08:00-18:00; PH 08:00-18:00",
            "operator": "OMV"
          },
          "geometry": {
            "type": "Point",
            "coordinates": [
              15.5894284,
              47.6592446
            ]
          }
        },
        {
          "type": "Feature",
          "properties": {
            "id": "5018731409",
            "osm_type": "node",
            "lat": 47.6166514,
            "lon": 15.9662613,
            "amenity": "fuel",
            "brand": "Turmöl",
            "fuel:diesel": "yes",
            "fuel:octane_95": "yes",
            "fuel:octane_98": "yes",
            "name": "Turmöl",
            "operator": "Rettensteiner Alexandra",
            "shop": "yes"
          },
          "geometry": {
            "type": "Point",
            "coordinates": [
              15.9662613,
              47.6166514
            ]
          }
        },
        {
          "type": "Feature",
          "properties": {
            "id": "6372011622",
            "osm_type": "node",
            "lat": 47.414297,
            "lon": 16.0228079,
            "amenity": "fuel"
          },
          "geometry": {
            "type": "Point",
            "coordinates": [
              16.0228079,
              47.414297
            ]
          }
        },
        {
          "type": "Feature",
          "properties": {
            "id": "6372011623",
            "osm_type": "node",
            "lat": 47.4156507,
            "lon": 16.0200789,
            "amenity": "fuel"
          },
          "geometry": {
            "type": "Point",
            "coordinates": [
              16.0200789,
              47.4156507
            ]
          }
        },
        {
          "type": "Feature",
          "properties": {
            "id": "11117307506",
            "osm_type": "node",
            "lat": 47.4429011,
            "lon": 15.6499644,
            "amenity": "fuel",
            "name": "SOMA",
            "phone": "03170 225",
            "self_service": "yes",
            "website": "https://www.soma.at/"
          },
          "geometry": {
            "type": "Point",
            "coordinates": [
              15.6499644,
              47.4429011
            ]
          }
        },
        {
          "type": "Feature",
          "properties": {
            "id": "11806588647",
            "osm_type": "node",
            "lat": 47.6023745,
            "lon": 15.7189993,
            "amenity": "fuel",
            "brand": "Turmöl",
            "brand:wikidata": "Q1473279",
            "fuel:diesel": "yes",
            "fuel:octane_95": "yes",
            "name": "Turmöl",
            "self_service": "yes"
          },
          "geometry": {
            "type": "Point",
            "coordinates": [
              15.7189993,
              47.6023745
            ]
          }
        },
        {
          "type": "Feature",
          "properties": {
            "id": "36312847",
            "osm_type": "node",
            "lat": 47.6197343,
            "lon": 16.128322,
            "amenity": "fuel",
            "brand": "Eni",
            "name": "Eni",
            "source": "survey"
          },
          "geometry": {
            "type": "Point",
            "coordinates": [
              16.128322,
              47.6197343
            ]
          }
        },
        {
          "type": "Feature",
          "properties": {
            "id": "316702897",
            "osm_type": "node",
            "lat": 47.542669,
            "lon": 16.1172898,
            "addr:city": "Zöbern",
            "addr:country": "AT",
            "addr:housenumber": "30",
            "addr:place": "Maierhöfen",
            "addr:postcode": "2870",
            "amenity": "fuel",
            "brand": "Shell",
            "brand:wikidata": "Q154950",
            "brand:wikipedia": "en:Royal Dutch Shell",
            "compressed_air": "yes",
            "description": "Raststation Zöbern A2",
            "fuel:adblue": "yes",
            "fuel:diesel": "yes",
            "fuel:octane_100": "yes",
            "fuel:octane_95": "yes",
            "name": "Shell",
            "name:pl": "Shell MOP Zöbern A2",
            "opening_hours": "24/7",
            "wheelchair": "yes"
          },
          "geometry": {
            "type": "Point",
            "coordinates": [
              16.1172898,
              47.542669
            ]
          }
        },
        {
          "type": "Feature",
          "properties": {
            "id": "1214499748",
            "osm_type": "node",
            "lat": 47.6620853,
            "lon": 16.129292,
            "addr:city": "Scheiblingkirchen",
            "addr:country": "AT",
            "addr:housenumber": "62",
            "addr:postcode": "2831",
            "addr:street": "Bundesstraße",
            "amenity": "fuel",
            "brand": "Eni",
            "brand:wikidata": "Q565594",
            "brand:wikipedia": "en:Eni",
            "fuel:diesel": "yes",
            "fuel:octane_91": "yes",
            "fuel:octane_95": "yes",
            "fuel:octane_98": "yes",
            "name": "Eni",
            "opening_hours": "Mo-Sa 06:00-19:00; Su 07:00-19:00",
            "operator": "Eni",
            "phone": "+43 2629 2237"
          },
          "geometry": {
            "type": "Point",
            "coordinates": [
              16.129292,
              47.6620853
            ]
          }
        },
        {
          "type": "Feature",
          "properties": {
            "id": "1445144917",
            "osm_type": "node",
            "lat": 47.5196694,
            "lon": 16.1927934,
            "alt_name": "Diskonttankstelle Gras",
            "amenity": "fuel",
            "fuel:diesel": "yes",
            "fuel:octane_95": "yes",
            "fuel:octane_98": "yes",
            "name": "Gras Diskont"
          },
          "geometry": {
            "type": "Point",
            "coordinates": [
              16.1927934,
              47.5196694
            ]
          }
        },
        {
          "type": "Feature",
          "properties": {
            "id": "1758643273",
            "osm_type": "node",
            "lat": 47.4251479,
            "lon": 16.0896585,
            "amenity": "fuel",
            "brand": "Eni",
            "brand:wikidata": "Q565594",
            "brand:wikipedia": "en:Eni",
            "name": "Eni",
            "payment:routex": "yes"
          },
          "geometry": {
            "type": "Point",
            "coordinates": [
              16.0896585,
              47.4251479
            ]
          }
        },
        {
          "type": "Feature",
          "properties": {
            "id": "2070801664",
            "osm_type": "node",
            "lat": 47.4292917,
            "lon": 16.0593652,
            "addr:city": "Friedberg",
            "addr:country": "AT",
            "addr:housenumber": "46",
            "addr:postcode": "8240",
            "addr:street": "Hauptstraße",
            "amenity": "fuel",
            "at_bev:addr_date": "2023-04-15",
            "name": "Tankstelle"
          },
          "geometry": {
            "type": "Point",
            "coordinates": [
              16.0593652,
              47.4292917
            ]
          }
        },
        {
          "type": "Feature",
          "properties": {
            "id": "2073590974",
            "osm_type": "node",
            "lat": 47.4438592,
            "lon": 16.0632272,
            "amenity": "fuel"
          },
          "geometry": {
            "type": "Point",
            "coordinates": [
              16.0632272,
              47.4438592
            ]
          }
        },
        {
          "type": "Feature",
          "properties": {
            "id": "2300098868",
            "osm_type": "node",
            "lat": 47.3816469,
            "lon": 16.1202037,
            "amenity": "fuel",
            "fuel:1_25": "yes",
            "fuel:1_50": "yes",
            "fuel:GTL_diesel": "no",
            "fuel:HGV_diesel": "no",
            "fuel:biogas": "no",
            "fuel:diesel": "yes",
            "fuel:e10": "no",
            "fuel:e85": "no",
            "fuel:electricity": "no",
            "fuel:lpg": "no",
            "fuel:octane_100": "no",
            "fuel:octane_95": "yes",
            "fuel:octane_98": "yes",
            "name": "Diskont Tankstelle"
          },
          "geometry": {
            "type": "Point",
            "coordinates": [
              16.1202037,
              47.3816469
            ]
          }
        },
        {
          "type": "Feature",
          "properties": {
            "id": "2300105295",
            "osm_type": "node",
            "lat": 47.379037,
            "lon": 16.1222261,
            "amenity": "fuel",
            "brand": "Eni",
            "brand:wikidata": "Q565594",
            "brand:wikipedia": "en:Eni",
            "compressed_air": "yes",
            "fuel:diesel": "yes",
            "fuel:octane_95": "yes",
            "fuel:octane_98": "yes",
            "name": "Eni"
          },
          "geometry": {
            "type": "Point",
            "coordinates": [
              16.1222261,
              47.379037
            ]
          }
        },
        {
          "type": "Feature",
          "properties": {
            "id": "2300126129",
            "osm_type": "node",
            "lat": 47.3744145,
            "lon": 16.1255253,
            "amenity": "fuel",
            "brand": "Avanti",
            "brand:wikidata": "Q168238",
            "brand:wikipedia": "en:OMV",
            "fuel:diesel": "yes",
            "fuel:octane_95": "yes",
            "fuel:octane_98": "yes",
            "name": "Avanti",
            "opening_hours": "Mo-Su 05:00-23:00",
            "operator": "Avanti",
            "phone": "+43 800 202055",
            "self_service": "yes"
          },
          "geometry": {
            "type": "Point",
            "coordinates": [
              16.1255253,
              47.3744145
            ]
          }
        },
        {
          "type": "Feature",
          "properties": {
            "id": "3116685890",
            "osm_type": "node",
            "lat": 47.5032538,
            "lon": 16.2047365,
            "amenity": "fuel",
            "brand": "Lagerhaus",
            "fuel:diesel": "yes",
            "shop": "no"
          },
          "geometry": {
            "type": "Point",
            "coordinates": [
              16.2047365,
              47.5032538
            ]
          }
        },
        {
          "type": "Feature",
          "properties": {
            "id": "4360334289",
            "osm_type": "node",
            "lat": 47.6472617,
            "lon": 16.126388,
            "amenity": "fuel",
            "name": "Diskont",
            "not:brand:wikidata": "Q107803455"
          },
          "geometry": {
            "type": "Point",
            "coordinates": [
              16.126388,
              47.6472617
            ]
          }
        },
        {
          "type": "Feature",
          "properties": {
            "id": "5063403918",
            "osm_type": "node",
            "lat": 47.540759,
            "lon": 16.1551263,
            "amenity": "fuel",
            "fuel:diesel": "yes",
            "name": "Automatentankstelle Pürrer",
            "opening_hours": "24/7",
            "operator": "Pürrer Transporte GmbH",
            "payment:cash": "no",
            "shop": "no",
            "toilets": "no"
          },
          "geometry": {
            "type": "Point",
            "coordinates": [
              16.1551263,
              47.540759
            ]
          }
        },
        {
          "type": "Feature",
          "properties": {
            "id": "8969161641",
            "osm_type": "node",
            "lat": 47.4808563,
            "lon": 16.0920413,
            "addr:city": "Haberl",
            "addr:postcode": "8244",
            "addr:street": "Süd Autobahn A2",
            "amenity": "fuel",
            "brand": "BP",
            "brand:wikidata": "Q152057",
            "brand:wikipedia": "en:Royal Dutch Shell",
            "fuel:diesel": "yes",
            "fuel:octane_100": "yes",
            "fuel:octane_95": "yes",
            "name": "BP Tankstelle",
            "opening_hours": "24/7"
          },
          "geometry": {
            "type": "Point",
            "coordinates": [
              16.0920413,
              47.4808563
            ]
          }
        }
      ],
      "children": []
    },
    {
      "bbox": {
        "south": 47.36431175,
        "west": 16.2068765,
        "north": 47.694865,
        "east": 17.16058
      },
      "poiCount": 41,
      "leafCount": 41,
      "averagePosition": [
        16.625662717073173,
        47.52289753414634
      ],
      "data": [
        {
          "type": "Feature",
          "properties": {
            "id": "800198347",
            "osm_type": "node",
            "lat": 47.5095782,
            "lon": 16.5002596,
            "addr:city": "Oberpullendorf",
            "addr:country": "AT",
            "addr:housenumber": "6",
            "addr:postcode": "7350",
            "addr:street": "Stoob-Süd",
            "amenity": "fuel",
            "brand": "OMV",
            "brand:wikidata": "Q168238",
            "brand:wikipedia": "en:OMV",
            "fuel:cng": "yes",
            "name": "OMV",
            "opening_hours": "Mo-Su 05:00-22:00",
            "operator": "OMV",
            "phone": "+43 2612 42982"
          },
          "geometry": {
            "type": "Point",
            "coordinates": [
              16.5002596,
              47.5095782
            ]
          }
        },
        {
          "type": "Feature",
          "properties": {
            "id": "871180803",
            "osm_type": "node",
            "lat": 47.5084556,
            "lon": 16.5036359,
            "addr:city": "Oberpullendorf",
            "addr:housenumber": "26",
            "addr:postcode": "7350",
            "addr:street": "Wiener Straße",
            "amenity": "fuel",
            "name": "TankeBlaguss",
            "operator": "Blaguss",
            "self_service": "yes"
          },
          "geometry": {
            "type": "Point",
            "coordinates": [
              16.5036359,
              47.5084556
            ]
          }
        },
        {
          "type": "Feature",
          "properties": {
            "id": "1365320728",
            "osm_type": "node",
            "lat": 47.4987963,
            "lon": 16.2899081,
            "amenity": "fuel",
            "brand": "OMV",
            "brand:wikidata": "Q168238",
            "name": "OMV",
            "opening_hours": "Mo-Su 06:00-21:00",
            "phone": "+43 2646 2252"
          },
          "geometry": {
            "type": "Point",
            "coordinates": [
              16.2899081,
              47.4987963
            ]
          }
        },
        {
          "type": "Feature",
          "properties": {
            "id": "1365320736",
            "osm_type": "node",
            "lat": 47.4941901,
            "lon": 16.282528,
            "amenity": "fuel",
            "name": "Diskont",
            "operator": "Rembart"
          },
          "geometry": {
            "type": "Point",
            "coordinates": [
              16.282528,
              47.4941901
            ]
          }
        },
        {
          "type": "Feature",
          "properties": {
            "id": "1381574536",
            "osm_type": "node",
            "lat": 47.4065026,
            "lon": 16.2609752,
            "amenity": "fuel",
            "name": "Tanja Stöckl",
            "operator": "Awi",
            "shop": "motorcycle",
            "website": "www.krug-motorrad.at/"
          },
          "geometry": {
            "type": "Point",
            "coordinates": [
              16.2609752,
              47.4065026
            ]
          }
        },
        {
          "type": "Feature",
          "properties": {
            "id": "1540229408",
            "osm_type": "node",
            "lat": 47.6211092,
            "lon": 16.2872771,
            "amenity": "fuel",
            "name": "Braunstorfer"
          },
          "geometry": {
            "type": "Point",
            "coordinates": [
              16.2872771,
              47.6211092
            ]
          }
        },
        {
          "type": "Feature",
          "properties": {
            "id": "1603677302",
            "osm_type": "node",
            "lat": 47.4947226,
            "lon": 16.5106928,
            "addr:city": "Oberpullendorf",
            "addr:country": "AT",
            "addr:housenumber": "1",
            "addr:postcode": "7350",
            "addr:street": "Günserstraße",
            "amenity": "fuel",
            "compressed_air": "yes",
            "contact:phone": "+43 2612 42340",
            "name": "Reiner",
            "opening_hours": "Mo-Fr 07:00-19:00; Sa 07:00-18:00"
          },
          "geometry": {
            "type": "Point",
            "coordinates": [
              16.5106928,
              47.4947226
            ]
          }
        },
        {
          "type": "Feature",
          "properties": {
            "id": "1603677305",
            "osm_type": "node",
            "lat": 47.4988906,
            "lon": 16.5123236,
            "amenity": "fuel",
            "name": "Genol"
          },
          "geometry": {
            "type": "Point",
            "coordinates": [
              16.5123236,
              47.4988906
            ]
          }
        },
        {
          "type": "Feature",
          "properties": {
            "id": "2620801831",
            "osm_type": "node",
            "lat": 47.5829786,
            "lon": 16.4610226,
            "amenity": "fuel",
            "name": "Tanktreff"
          },
          "geometry": {
            "type": "Point",
            "coordinates": [
              16.4610226,
              47.5829786
            ]
          }
        },
        {
          "type": "Feature",
          "properties": {
            "id": "3520238960",
            "osm_type": "node",
            "lat": 47.4479201,
            "lon": 16.4179859,
            "addr:city": "Piringsdorf",
            "addr:country": "AT",
            "addr:housenumber": "50",
            "addr:postcode": "7373",
            "addr:street": "Bundesstraße",
            "amenity": "fuel",
            "brand": "Turmöl",
            "brand:wikidata": "Q1473279",
            "contact:phone": "+43 2616 8668",
            "fuel:diesel": "yes",
            "fuel:octane_95": "yes",
            "name": "Turmöl",
            "old_name": "A1 Tankstelle",
            "opening_hours": "24/7",
            "operator": "Gottfried Peter Loibl",
            "website": "https://www.logo1.at/"
          },
          "geometry": {
            "type": "Point",
            "coordinates": [
              16.4179859,
              47.4479201
            ]
          }
        },
        {
          "type": "Feature",
          "properties": {
            "id": "3595746564",
            "osm_type": "node",
            "lat": 47.4104977,
            "lon": 16.415221,
            "amenity": "fuel",
            "brand": "Eni",
            "brand:wikidata": "Q565594",
            "name": "Eni"
          },
          "geometry": {
            "type": "Point",
            "coordinates": [
              16.415221,
              47.4104977
            ]
          }
        },
        {
          "type": "Feature",
          "properties": {
            "id": "4519231929",
            "osm_type": "node",
            "lat": 47.5144353,
            "lon": 16.4883362,
            "amenity": "fuel",
            "brand": "Hofer Diskont",
            "brand:wikidata": "Q107803455",
            "fuel:diesel": "yes",
            "fuel:octane_95": "yes",
            "name": "Hofer Diskont",
            "opening_hours": "Apr-Oct: 00:00-24:00; Nov-Mar: Mo-Su 06:00-22:00",
            "operator": "Avanti",
            "website": "https://www.diskonttanken.at"
          },
          "geometry": {
            "type": "Point",
            "coordinates": [
              16.4883362,
              47.5144353
            ]
          }
        },
        {
          "type": "Feature",
          "properties": {
            "id": "6404949236",
            "osm_type": "node",
            "lat": 47.5760887,
            "lon": 16.4266795,
            "addr:city": "Weppersdorf",
            "addr:country": "AT",
            "addr:housenumber": "98",
            "addr:postcode": "7331",
            "addr:street": "Hauptstraße",
            "amenity": "fuel",
            "name": "PP-Skont",
            "operator": "Pia Plöchl",
            "phone": "+43 2618 2276",
            "source": "https://weppersdorf.at/firmen.php"
          },
          "geometry": {
            "type": "Point",
            "coordinates": [
              16.4266795,
              47.5760887
            ]
          }
        },
        {
          "type": "Feature",
          "properties": {
            "id": "7057793106",
            "osm_type": "node",
            "lat": 47.4445023,
            "lon": 16.5139075,
            "addr:city": "Oberloisdorf",
            "addr:postcode": "7451",
            "addr:street": "Untere Rabitzstraße",
            "amenity": "fuel",
            "fuel:diesel": "yes",
            "self_service": "yes"
          },
          "geometry": {
            "type": "Point",
            "coordinates": [
              16.5139075,
              47.4445023
            ]
          }
        },
        {
          "type": "Feature",
          "properties": {
            "id": "7057793110",
            "osm_type": "node",
            "lat": 47.4463323,
            "lon": 16.5163861,
            "addr:city": "Oberloisdorf",
            "addr:postcode": "7451",
            "amenity": "fuel",
            "operator": "Fa. Obradovits",
            "self_service": "yes"
          },
          "geometry": {
            "type": "Point",
            "coordinates": [
              16.5163861,
              47.4463323
            ]
          }
        },
        {
          "type": "Feature",
          "properties": {
            "id": "7662963257",
            "osm_type": "node",
            "lat": 47.559184,
            "lon": 16.432579,
            "addr:city": "Markt Sankt Martin",
            "addr:country": "AT",
            "addr:housenumber": "78",
            "addr:postcode": "7341",
            "addr:street": "Hauptstraße",
            "amenity": "fuel",
            "brand": "Turmöl",
            "brand:wikidata": "Q1473279",
            "compressed_air": "no",
            "email": "wallach@doppler.at",
            "fuel:adblue": "yes",
            "fuel:diesel": "yes",
            "fuel:octane_95": "yes",
            "name": "Turmöl Quick",
            "opening_hours": "24/7",
            "payment:dkv": "yes",
            "payment:uta": "yes",
            "phone": "+43 664 452 01 94",
            "website": "https://www.turmöl.at"
          },
          "geometry": {
            "type": "Point",
            "coordinates": [
              16.432579,
              47.559184
            ]
          }
        },
        {
          "type": "Feature",
          "properties": {
            "id": "11131940704",
            "osm_type": "node",
            "lat": 47.3921527,
            "lon": 16.3462615,
            "addr:city": "Unterkohlstätten",
            "addr:housenumber": "102",
            "addr:postcode": "7435",
            "addr:street": "Holzschlag",
            "amenity": "fuel",
            "brand": "Avia",
            "brand:wikidata": "Q300147",
            "name": "Avia"
          },
          "geometry": {
            "type": "Point",
            "coordinates": [
              16.3462615,
              47.3921527
            ]
          }
        },
        {
          "type": "Feature",
          "properties": {
            "id": "1396880108",
            "osm_type": "node",
            "lat": 47.5976194,
            "lon": 16.6277976,
            "addr:city": "Deutschkreutz",
            "addr:country": "AT",
            "addr:housenumber": "85",
            "addr:postcode": "7301",
            "addr:street": "Hauptstraße",
            "amenity": "fuel",
            "brand": "Socar",
            "compressed_air": "yes",
            "fuel:GTL_diesel": "yes",
            "fuel:adblue": "yes",
            "fuel:diesel": "yes",
            "fuel:octane_95": "yes",
            "fuel:octane_98": "yes",
            "name": "Socar Tankstelle Dorner",
            "opening_hours": "Mo-Su 06:00-22:00",
            "operator": "Dorner GmbH",
            "phone": "+43 2613 80296",
            "shop": "yes",
            "website": "https://www.dorner.info"
          },
          "geometry": {
            "type": "Point",
            "coordinates": [
              16.6277976,
              47.5976194
            ]
          }
        },
        {
          "type": "Feature",
          "properties": {
            "id": "1415546352",
            "osm_type": "node",
            "lat": 47.3863852,
            "lon": 16.5482258,
            "addr:city": "Kőszeg",
            "addr:postcode": "9730",
            "addr:street": "Petőfi tér",
            "air_conditioning": "yes",
            "amenity": "fuel",
            "brand": "MOL",
            "brand:wikidata": "Q549181",
            "brand:wikipedia": "hu:MOL Magyar Olaj- és Gázipari Nyrt.",
            "compressed_air": "yes",
            "contact:facebook": "https://www.facebook.com/mol.magyarorszag/",
            "contact:instagram": "https://www.instagram.com/mol.magyarorszag/",
            "contact:website": "https://www.mol.hu",
            "contact:youtube": "https://www.youtube.com/user/molgrouptv",
            "food": "no",
            "fuel:GTL_diesel": "yes",
            "fuel:adblue": "no",
            "fuel:diesel": "yes",
            "fuel:lpg": "no",
            "fuel:octane_100": "yes",
            "fuel:octane_95": "yes",
            "name": "MOL",
            "operator": "MOL Nyrt.",
            "operator:addr": "1117 Budapest, Dombóvári út 28.",
            "payment:cash": "yes",
            "payment:contactless": "yes",
            "payment:maestro": "yes",
            "payment:mastercard": "yes",
            "payment:mastercard_contactless": "yes",
            "payment:mastercard_electronic": "yes",
            "payment:visa": "yes",
            "payment:visa_electron": "yes",
            "ref:HU:company": "01-10-041683",
            "ref:HU:vatin": "10625790-4-44",
            "rent:lpg_bottles": "yes",
            "source": "website",
            "source:date": "2022-05-21",
            "truck": "no",
            "wheelchair": "yes"
          },
          "geometry": {
            "type": "Point",
            "coordinates": [
              16.5482258,
              47.3863852
            ]
          }
        },
        {
          "type": "Feature",
          "properties": {
            "id": "1791465853",
            "osm_type": "node",
            "lat": 47.5022079,
            "lon": 16.7800441,
            "addr:city": "Lövő",
            "addr:conscriptionnumber": "1252",
            "addr:postcode": "9461",
            "addr:street": "Kőszegi út",
            "air_conditioning": "yes",
            "amenity": "fuel",
            "brand": "MOL",
            "brand:wikidata": "Q549181",
            "brand:wikipedia": "hu:MOL Magyar Olaj- és Gázipari Nyrt.",
            "compressed_air": "yes",
            "contact:facebook": "https://www.facebook.com/mol.magyarorszag/",
            "contact:instagram": "https://www.instagram.com/mol.magyarorszag/",
            "contact:website": "https://www.mol.hu",
            "contact:youtube": "https://www.youtube.com/user/molgrouptv",
            "food": "yes",
            "fuel:GTL_diesel": "yes",
            "fuel:adblue": "no",
            "fuel:diesel": "yes",
            "fuel:lpg": "no",
            "fuel:octane_100": "yes",
            "fuel:octane_95": "yes",
            "name": "MOL",
            "opening_hours": "Mo-Su 05:00-20:00",
            "operator": "MOL Nyrt.",
            "operator:addr": "1117 Budapest, Dombóvári út 28.",
            "payment:cash": "yes",
            "payment:contactless": "yes",
            "payment:maestro": "yes",
            "payment:mastercard": "yes",
            "payment:mastercard_contactless": "yes",
            "payment:mastercard_electronic": "yes",
            "payment:visa": "yes",
            "payment:visa_electron": "yes",
            "ref:HU:company": "01-10-041683",
            "ref:HU:vatin": "10625790-4-44",
            "rent:lpg_bottles": "yes",
            "source": "website",
            "source:date": "2022-05-21",
            "truck": "no"
          },
          "geometry": {
            "type": "Point",
            "coordinates": [
              16.7800441,
              47.5022079
            ]
          }
        },
        {
          "type": "Feature",
          "properties": {
            "id": "1887155770",
            "osm_type": "node",
            "lat": 47.3729696,
            "lon": 16.7767578,
            "addr:city": "Bük",
            "addr:conscriptionnumber": "0131/3",
            "addr:postcode": "9737",
            "amenity": "fuel",
            "brand": "Avia",
            "brand:wikidata": "Q300147",
            "compressed_air": "yes",
            "contact:email": "avia@avia.hu",
            "contact:facebook": "https://www.facebook.com/AVIAHungary",
            "contact:phone": "+36 94 358 050;+36 20 595 5367",
            "contact:website": "https://www.avia.hu/toltoallomas/?id=24",
            "contact:youtube": "https://www.youtube.com/channel/UCjvjkjf2RgmKBuTnKSXk-Rg",
            "food": "no",
            "fuel:diesel": "yes",
            "fuel:e85": "no",
            "fuel:lpg": "yes",
            "fuel:octane_95": "yes",
            "fuel:octane_98": "no",
            "name": "Avia",
            "opening_hours": "Mo-Su 06:00-22:00",
            "operator": "AVIA Hungária Kft.",
            "payment:cash": "yes",
            "payment:contactless": "yes",
            "payment:maestro": "yes",
            "payment:mastercard": "yes",
            "payment:mastercard_contactless": "yes",
            "payment:mastercard_electronic": "yes",
            "payment:visa": "yes",
            "payment:visa_electron": "yes",
            "rent:lpg_bottles": "yes",
            "restaurant": "no",
            "source": "import;website",
            "source:date": "2025-01-07",
            "truck": "no"
          },
          "geometry": {
            "type": "Point",
            "coordinates": [
              16.7767578,
              47.3729696
            ]
          }
        },
        {
          "type": "Feature",
          "properties": {
            "id": "2074453876",
            "osm_type": "node",
            "lat": 47.6850687,
            "lon": 16.5727926,
            "addr:city": "Sopron",
            "addr:housenumber": "4/d",
            "addr:postcode": "9400",
            "addr:street": "Bánfalvi út",
            "amenity": "fuel",
            "brand": "Full Energy",
            "name": "Full Energy",
            "opening_hours": "24/7",
            "operator": "Full-Sopron"
          },
          "geometry": {
            "type": "Point",
            "coordinates": [
              16.5727926,
              47.6850687
            ]
          }
        },
        {
          "type": "Feature",
          "properties": {
            "id": "2293577680",
            "osm_type": "node",
            "lat": 47.5906826,
            "lon": 16.5794482,
            "addr:city": "Horitschon",
            "addr:housenumber": "21",
            "addr:postcode": "7312",
            "addr:street": "Hofstatt",
            "amenity": "fuel",
            "name": "Diskont Pöltl"
          },
          "geometry": {
            "type": "Point",
            "coordinates": [
              16.5794482,
              47.5906826
            ]
          }
        },
        {
          "type": "Feature",
          "properties": {
            "id": "2313253896",
            "osm_type": "node",
            "lat": 47.6183217,
            "lon": 16.8491601,
            "addr:city": "Fertőszéplak",
            "addr:housenumber": "87",
            "addr:postcode": "9436",
            "addr:street": "Nagy Lajos király utca",
            "amenity": "fuel",
            "brand": "OIL!",
            "brand:wikidata": "Q2007561",
            "brand:wikipedia": "de:OIL! Tankstellen",
            "fuel:diesel": "yes",
            "fuel:octane_95": "yes",
            "name": "OIL!",
            "opening_hours": "Mo-Su 05:00-20:00",
            "phone": "+36205489222",
            "self_service": "yes",
            "shop": "convenience",
            "website": "https://www.oil-benzinkutak.hu/kuthalozat/oil-fertoszeplak/"
          },
          "geometry": {
            "type": "Point",
            "coordinates": [
              16.8491601,
              47.6183217
            ]
          }
        },
        {
          "type": "Feature",
          "properties": {
            "id": "2385496834",
            "osm_type": "node",
            "lat": 47.591345,
            "lon": 16.5395088,
            "addr:city": "Horitschon",
            "addr:postcode": "7312",
            "addr:street": "Hauptstraße",
            "amenity": "fuel",
            "name": "Genol"
          },
          "geometry": {
            "type": "Point",
            "coordinates": [
              16.5395088,
              47.591345
            ]
          }
        },
        {
          "type": "Feature",
          "properties": {
            "id": "2811743814",
            "osm_type": "node",
            "lat": 47.5882541,
            "lon": 16.8619653,
            "amenity": "fuel"
          },
          "geometry": {
            "type": "Point",
            "coordinates": [
              16.8619653,
              47.5882541
            ]
          }
        },
        {
          "type": "Feature",
          "properties": {
            "id": "3355562587",
            "osm_type": "node",
            "lat": 47.4132313,
            "lon": 17.0030401,
            "addr:city": "Répcelak",
            "addr:conscriptionnumber": "86",
            "addr:postcode": "9653",
            "addr:street": "86-os főút",
            "amenity": "fuel",
            "brand": "Avia",
            "brand:wikidata": "Q300147",
            "brand:wikipedia": "de:Avia International",
            "compressed_air": "yes",
            "contact:email": "avia@avia.hu",
            "contact:facebook": "https://www.facebook.com/AVIAHungary",
            "contact:phone": "+36 20 205 6212",
            "contact:website": "https://www.avia.hu/toltoallomas/?id=6",
            "contact:youtube": "https://www.youtube.com/channel/UCjvjkjf2RgmKBuTnKSXk-Rg",
            "food": "no",
            "fuel:diesel": "yes",
            "fuel:e85": "no",
            "fuel:lpg": "yes",
            "fuel:octane_95": "yes",
            "fuel:octane_98": "no",
            "name": "Avia",
            "operator": "AVIA Hungária Kft.",
            "payment:cash": "yes",
            "payment:contactless": "yes",
            "payment:maestro": "yes",
            "payment:mastercard": "yes",
            "payment:mastercard_contactless": "yes",
            "payment:mastercard_electronic": "yes",
            "payment:visa": "yes",
            "payment:visa_electron": "yes",
            "rent:lpg_bottles": "yes",
            "restaurant": "no",
            "source": "https://www.avia.hu/toltoallomas/?id=6;import;website",
            "source:date": "2025-01-07",
            "truck": "yes",
            "url": "http://turistautak.hu/poi.php?id=22542"
          },
          "geometry": {
            "type": "Point",
            "coordinates": [
              17.0030401,
              47.4132313
            ]
          }
        },
        {
          "type": "Feature",
          "properties": {
            "id": "4589545735",
            "osm_type": "node",
            "lat": 47.6704604,
            "lon": 16.6103412,
            "amenity": "fuel",
            "name": "Diszkont benzinkút",
            "operator": "Familie Tank Kft."
          },
          "geometry": {
            "type": "Point",
            "coordinates": [
              16.6103412,
              47.6704604
            ]
          }
        },
        {
          "type": "Feature",
          "properties": {
            "id": "4695993112",
            "osm_type": "node",
            "lat": 47.5401232,
            "lon": 16.5501452,
            "amenity": "fuel",
            "fuel:diesel": "yes"
          },
          "geometry": {
            "type": "Point",
            "coordinates": [
              16.5501452,
              47.5401232
            ]
          }
        },
        {
          "type": "Feature",
          "properties": {
            "id": "4695993113",
            "osm_type": "node",
            "lat": 47.5384001,
            "lon": 16.5614652,
            "amenity": "fuel"
          },
          "geometry": {
            "type": "Point",
            "coordinates": [
              16.5614652,
              47.5384001
            ]
          }
        },
        {
          "type": "Feature",
          "properties": {
            "id": "6182337699",
            "osm_type": "node",
            "lat": 47.4632812,
            "lon": 16.6340263,
            "amenity": "fuel",
            "fuel:diesel": "yes",
            "fuel:octane_95": "forward",
            "name": "Sonnentank",
            "opening_hours": "Mo-Su 06:00-22:00"
          },
          "geometry": {
            "type": "Point",
            "coordinates": [
              16.6340263,
              47.4632812
            ]
          }
        },
        {
          "type": "Feature",
          "properties": {
            "id": "6952077172",
            "osm_type": "node",
            "lat": 47.4084031,
            "lon": 16.858635,
            "addr:city": "Sajtoskál",
            "addr:postcode": "9632",
            "addr:street": "84. számú főközlekedési út",
            "air_conditioning": "yes",
            "amenity": "fuel",
            "brand": "Orlen",
            "brand:wikidata": "Q971649",
            "brand:wikipedia": "en:Orlen",
            "compressed_air": "yes",
            "contact:email": "info@orlen.hu",
            "contact:fax": "+36 1 799 1008",
            "contact:instagram": "https://www.instagram.com/orlen.magyarorszag/",
            "contact:phone": "+36 1 465 7600",
            "contact:website": "https://www.orlen.hu/",
            "contact:youtube": "https://www.youtube.com/@orlenmagyarorszag",
            "food": "no",
            "fuel:GTL_diesel": "yes",
            "fuel:adblue": "no",
            "fuel:diesel": "yes",
            "fuel:lpg": "no",
            "fuel:octane_100": "yes",
            "fuel:octane_95": "yes",
            "name": "Orlen",
            "old_brand": "MOL",
            "old_name": "MOL",
            "operator": "Orlen Hungary KFt.",
            "operator:addr": "1112 Budapest, Boldizsár utca 2",
            "payment:cash": "yes",
            "payment:contactless": "yes",
            "payment:maestro": "yes",
            "payment:mastercard": "yes",
            "payment:mastercard_contactless": "yes",
            "payment:mastercard_electronic": "yes",
            "payment:visa": "yes",
            "payment:visa_electron": "yes",
            "rent:lpg_bottles": "yes",
            "source": "website",
            "truck": "no"
          },
          "geometry": {
            "type": "Point",
            "coordinates": [
              16.858635,
              47.4084031
            ]
          }
        },
        {
          "type": "Feature",
          "properties": {
            "id": "7110505118",
            "osm_type": "node",
            "lat": 47.41536,
            "lon": 16.72103,
            "addr:city": "Csepreg",
            "addr:conscriptionnumber": "020/38",
            "addr:postcode": "9735",
            "amenity": "fuel",
            "brand": "Avia",
            "brand:wikidata": "Q300147",
            "compressed_air": "yes",
            "contact:email": "avia@avia.hu",
            "contact:facebook": "https://www.facebook.com/AVIAHungary",
            "contact:phone": "+36 20 205 6240",
            "contact:website": "https://www.avia.hu/toltoallomas/?id=7",
            "contact:youtube": "https://www.youtube.com/channel/UCjvjkjf2RgmKBuTnKSXk-Rg",
            "food": "no",
            "fuel:adblue": "yes",
            "fuel:diesel": "yes",
            "fuel:e85": "no",
            "fuel:lpg": "no",
            "fuel:octane_95": "yes",
            "fuel:octane_98": "no",
            "name": "Avia",
            "operator": "AVIA Hungária Kft.",
            "payment:cash": "yes",
            "payment:contactless": "yes",
            "payment:maestro": "yes",
            "payment:mastercard": "yes",
            "payment:mastercard_contactless": "yes",
            "payment:mastercard_electronic": "yes",
            "payment:visa": "yes",
            "payment:visa_electron": "yes",
            "rent:lpg_bottles": "yes",
            "restaurant": "no",
            "source": "import;website",
            "source:date": "2025-01-07",
            "truck": "yes"
          },
          "geometry": {
            "type": "Point",
            "coordinates": [
              16.72103,
              47.41536
            ]
          }
        },
        {
          "type": "Feature",
          "properties": {
            "id": "7669621587",
            "osm_type": "node",
            "lat": 47.6704901,
            "lon": 16.6170822,
            "amenity": "fuel",
            "name": "ALDI Diszkont benzinkút",
            "operator": "ALDI Süd"
          },
          "geometry": {
            "type": "Point",
            "coordinates": [
              16.6170822,
              47.6704901
            ]
          }
        },
        {
          "type": "Feature",
          "properties": {
            "id": "12096001603",
            "osm_type": "node",
            "lat": 47.5423857,
            "lon": 16.6586638,
            "amenity": "fuel",
            "fuel:diesel": "yes",
            "fuel:super": "yes",
            "name": "Lagerhaus",
            "self_service": "yes"
          },
          "geometry": {
            "type": "Point",
            "coordinates": [
              16.6586638,
              47.5423857
            ]
          }
        },
        {
          "type": "Feature",
          "properties": {
            "id": "12396529472",
            "osm_type": "node",
            "lat": 47.621477,
            "lon": 16.8805013,
            "addr:city": "Fertőd",
            "addr:housenumber": "11",
            "addr:postcode": "9431",
            "addr:street": "Gábor Áron utca",
            "amenity": "fuel",
            "contact:email": "tankolkft@gmail.com",
            "contact:facebook": "https://www.facebook.com/pg/TankOlBenzinkutEsKavezo/",
            "contact:fax": "+36 96 595 017",
            "contact:website": "http://tank-ol.hu/",
            "name": "Magán",
            "opening_hours": "Mo-Fr 05:00-21:00; Sa-Su 07:00-21:00",
            "operator": "Tank-ol Kft.",
            "operator:addr": "1113 Budapest, Bocskai út 52-54. földszint 1.",
            "ref:HU:vatin": "11466844-2-43",
            "ref:vatin": "HU11466844",
            "start_date": "2012"
          },
          "geometry": {
            "type": "Point",
            "coordinates": [
              16.8805013,
              47.621477
            ]
          }
        },
        {
          "type": "Feature",
          "properties": {
            "id": "2696496707",
            "osm_type": "node",
            "lat": 47.4579019,
            "lon": 17.0910993,
            "addr:city": "Beled",
            "addr:postcode": "9343",
            "addr:street": "86. számú főközlekedési út",
            "air_conditioning": "yes",
            "amenity": "fuel",
            "brand": "MOL",
            "brand:wikidata": "Q549181",
            "brand:wikipedia": "hu:MOL Magyar Olaj- és Gázipari Nyrt.",
            "compressed_air": "yes",
            "contact:facebook": "https://www.facebook.com/mol.magyarorszag/",
            "contact:instagram": "https://www.instagram.com/mol.magyarorszag/",
            "contact:website": "https://www.mol.hu",
            "contact:youtube": "https://www.youtube.com/user/molgrouptv",
            "food": "no",
            "fuel:1_25": "no",
            "fuel:1_50": "no",
            "fuel:GTL_diesel": "yes",
            "fuel:adblue": "no",
            "fuel:biodiesel": "no",
            "fuel:biogas": "no",
            "fuel:cng": "no",
            "fuel:diesel": "yes",
            "fuel:e10": "no",
            "fuel:e85": "no",
            "fuel:electricity": "no",
            "fuel:lpg": "no",
            "fuel:octane_100": "yes",
            "fuel:octane_91": "no",
            "fuel:octane_95": "yes",
            "fuel:octane_98": "no",
            "name": "MOL",
            "operator": "MOL Nyrt.",
            "operator:addr": "1117 Budapest, Dombóvári út 28.",
            "payment:cash": "yes",
            "payment:contactless": "yes",
            "payment:maestro": "yes",
            "payment:mastercard": "yes",
            "payment:mastercard_contactless": "yes",
            "payment:mastercard_electronic": "yes",
            "payment:visa": "yes",
            "payment:visa_electron": "yes",
            "ref:HU:company": "01-10-041683",
            "ref:HU:vatin": "10625790-4-44",
            "rent:lpg_bottles": "yes",
            "source": "website",
            "source:date": "2022-05-21",
            "truck": "no"
          },
          "geometry": {
            "type": "Point",
            "coordinates": [
              17.0910993,
              47.4579019
            ]
          }
        },
        {
          "type": "Feature",
          "properties": {
            "id": "8258381867",
            "osm_type": "node",
            "lat": 47.5888213,
            "lon": 17.0423011,
            "amenity": "fuel",
            "name": "Tank-Ol benzinkút",
            "website": "http://tank-ol.hu"
          },
          "geometry": {
            "type": "Point",
            "coordinates": [
              17.0423011,
              47.5888213
            ]
          }
        },
        {
          "type": "Feature",
          "properties": {
            "id": "9453382936",
            "osm_type": "node",
            "lat": 47.5889056,
            "lon": 17.0447201,
            "amenity": "fuel",
            "name": "FullEnergy"
          },
          "geometry": {
            "type": "Point",
            "coordinates": [
              17.0447201,
              47.5889056
            ]
          }
        },
        {
          "type": "Feature",
          "properties": {
            "id": "11350894106",
            "osm_type": "node",
            "lat": 47.5882,
            "lon": 17.0448,
            "addr:city": "Kapuvár",
            "addr:housenumber": "8",
            "addr:postcode": "9330",
            "addr:street": "Ipartelepi út",
            "amenity": "fuel",
            "fixme": "GLS csomagpont, össze kell vonni ezt a pontot a hozzátartozó üzlettel",
            "name": "Fullenergy Töltőállomás",
            "post_office": "post_partner",
            "post_office:brand": "GLS",
            "post_office:brand:wikidata": "Q366182",
            "post_office:parcel_from": "yes",
            "post_office:parcel_to": "yes",
            "post_office:ref": "9330-FULLSOPRON"
          },
          "geometry": {
            "type": "Point",
            "coordinates": [
              17.0448,
              47.5882
            ]
          }
        },
        {
          "type": "Feature",
          "properties": {
            "id": "11815449136",
            "osm_type": "node",
            "lat": 47.5921669,
            "lon": 17.0326407,
            "addr:city": "Kapuvár",
            "addr:postcode": "9330",
            "addr:street": "Győri út",
            "air_conditioning": "yes",
            "amenity": "fuel",
            "brand": "MOL",
            "brand:wikidata": "Q549181",
            "brand:wikipedia": "hu:MOL Magyar Olaj- és Gázipari Nyrt.",
            "compressed_air": "yes",
            "contact:facebook": "https://www.facebook.com/mol.magyarorszag/",
            "contact:instagram": "https://www.instagram.com/mol.magyarorszag/",
            "contact:website": "https://www.mol.hu",
            "contact:youtube": "https://www.youtube.com/user/molgrouptv",
            "food": "no",
            "fuel:1_25": "no",
            "fuel:1_50": "no",
            "fuel:GTL_diesel": "yes",
            "fuel:adblue": "no",
            "fuel:biogas": "no",
            "fuel:cng": "no",
            "fuel:diesel": "yes",
            "fuel:e10": "no",
            "fuel:e85": "no",
            "fuel:electricity": "no",
            "fuel:lpg": "no",
            "fuel:octane_100": "yes",
            "fuel:octane_91": "no",
            "fuel:octane_95": "yes",
            "fuel:octane_98": "no",
            "name": "MOL",
            "operator": "MOL Nyrt.",
            "operator:addr": "1117 Budapest, Dombóvári út 28.",
            "payment:cash": "yes",
            "payment:contactless": "yes",
            "payment:maestro": "yes",
            "payment:mastercard": "yes",
            "payment:mastercard_contactless": "yes",
            "payment:mastercard_electronic": "yes",
            "payment:visa": "yes",
            "payment:visa_electron": "yes",
            "ref:HU:company": "01-10-041683",
            "ref:HU:vatin": "10625790-4-44",
            "rent:lpg_bottles": "yes",
            "shop": "yes",
            "source": "website",
            "source:date": "2022-05-21",
            "truck": "no"
          },
          "geometry": {
            "type": "Point",
            "coordinates": [
              17.0326407,
              47.5921669
            ]
          }
        }
      ],
      "children": []
    }
  ]
}