{
  "bbox": {
    "south": 46.372652,
    "west": 11.438358999999998,
    "north": 47.033758500000005,
    "east": 13.345766
  },
  "poiCount": 116,
  "leafCount": 0,
  "averagePosition": [
    12.306273668965519,
    46.637127324137936
  ],
  "data": [],
  "children": [
    {
      "bbox": {
        "south": 46.372652,
        "west": 11.438358999999998,
        "north": 46.70320525,
        "east": 12.392062499999998
      },
      "poiCount": 30,
      "leafCount": 30,
      "averagePosition": [
        11.771889346666667,
        46.52026384333333
      ],
      "data": [
        {
          "type": "Feature",
          "properties": {
            "id": "227815676",
            "osm_type": "node",
            "lat": 46.5143794,
            "lon": 11.4777035,
            "amenity": "fuel",
            "brand": "Eni",
            "compressed_air": "yes",
            "fuel:GTL_diesel": "yes",
            "fuel:diesel": "yes",
            "fuel:octane_95": "yes",
            "name": "Eni",
            "operator": "Thurner Helena",
            "ref:mise": "18674",
            "source": "MISE - Ministero Sviluppo Economico"
          },
          "geometry": {
            "type": "Point",
            "coordinates": [
              11.4777035,
              46.5143794
            ]
          }
        },
        {
          "type": "Feature",
          "properties": {
            "id": "272279908",
            "osm_type": "node",
            "lat": 46.5177554,
            "lon": 11.5045085,
            "amenity": "fuel",
            "brand": "Q8",
            "brand:wikidata": "Q4119207",
            "compressed_air": "yes",
            "fuel:GTL_diesel": "yes",
            "fuel:diesel": "yes",
            "fuel:octane_95": "yes",
            "name": "Q8",
            "operator": "Baumgartner Martin",
            "ref:mise": "32811",
            "self_service": "yes",
            "source": "MISE - Ministero Sviluppo Economico"
          },
          "geometry": {
            "type": "Point",
            "coordinates": [
              11.5045085,
              46.5177554
            ]
          }
        },
        {
          "type": "Feature",
          "properties": {
            "id": "292562668",
            "osm_type": "node",
            "lat": 46.5313887,
            "lon": 11.4906465,
            "amenity": "fuel",
            "brand": "Sarni Oil",
            "compressed_air": "yes",
            "fuel:GTL_diesel": "yes",
            "fuel:diesel": "yes",
            "fuel:octane_95": "yes",
            "operator": "Sarni S.R.L.",
            "ref:mise": "45898",
            "self_service": "yes",
            "source": "MISE - Ministero Sviluppo Economico"
          },
          "geometry": {
            "type": "Point",
            "coordinates": [
              11.4906465,
              46.5313887
            ]
          }
        },
        {
          "type": "Feature",
          "properties": {
            "id": "751963100",
            "osm_type": "node",
            "lat": 46.5401613,
            "lon": 11.4551771,
            "addr:city": "Ritten - Renon",
            "addr:city:de": "Ritten",
            "addr:city:it": "Renon",
            "addr:hamlet": "Klobenstein - Collalbo",
            "addr:hamlet:de": "Klobenstein",
            "addr:hamlet:it": "Collalbo",
            "addr:housenumber": "36",
            "addr:postcode": "39054",
            "addr:street": "Peter-Mayr-Straße - Via Peter Mayr",
            "addr:street:de": "Peter-Mayr-Straße",
            "addr:street:it": "Via Peter Mayr",
            "amenity": "fuel",
            "brand": "Esso",
            "fuel:GTL_diesel": "yes",
            "fuel:diesel": "yes",
            "fuel:octane_95": "yes",
            "operator": "Schweigkofler Florian",
            "ref:mise": "24864",
            "source": "MISE - Ministero Sviluppo Economico"
          },
          "geometry": {
            "type": "Point",
            "coordinates": [
              11.4551771,
              46.5401613
            ]
          }
        },
        {
          "type": "Feature",
          "properties": {
            "id": "1724391370",
            "osm_type": "node",
            "lat": 46.5279644,
            "lon": 11.4505089,
            "amenity": "fuel",
            "brand": "Kostner",
            "fuel:diesel": "yes",
            "fuel:octane_100": "yes",
            "fuel:octane_95": "yes",
            "name": "Kostner",
            "operator": "Kostner Service S.R.L.",
            "ref:mise": "29121"
          },
          "geometry": {
            "type": "Point",
            "coordinates": [
              11.4505089,
              46.5279644
            ]
          }
        },
        {
          "type": "Feature",
          "properties": {
            "id": "2206836935",
            "osm_type": "node",
            "lat": 46.5799678,
            "lon": 11.5228413,
            "amenity": "fuel",
            "brand": "Esso",
            "fuel:GTL_diesel": "yes",
            "fuel:diesel": "yes",
            "fuel:diesel:class2": "yes",
            "fuel:octane_95": "yes",
            "ref:mise": "25041",
            "source": "MISE - Ministero Sviluppo Economico"
          },
          "geometry": {
            "type": "Point",
            "coordinates": [
              11.5228413,
              46.5799678
            ]
          }
        },
        {
          "type": "Feature",
          "properties": {
            "id": "12149648827",
            "osm_type": "node",
            "lat": 46.5702754,
            "lon": 11.5231479,
            "amenity": "fuel",
            "brand": "Eni",
            "brand:wikidata": "Q565594",
            "brand:wikipedia": "en:Agip",
            "fuel:GTL_diesel": "yes",
            "fuel:HGV_diesel": "yes",
            "fuel:diesel": "yes",
            "fuel:octane_100": "yes",
            "fuel:octane_95": "yes",
            "name": "Eni",
            "ref:mise": "45903",
            "source": "MISE - Ministero Sviluppo Economico"
          },
          "geometry": {
            "type": "Point",
            "coordinates": [
              11.5231479,
              46.5702754
            ]
          }
        },
        {
          "type": "Feature",
          "properties": {
            "id": "61100893",
            "osm_type": "node",
            "lat": 46.465078,
            "lon": 11.5396612,
            "amenity": "fuel",
            "brand": "Api-Ip",
            "fuel:diesel": "yes",
            "fuel:octane_95": "yes",
            "name": "Api-Ip",
            "operator": "Ip Services S.R.L.",
            "ref:mise": "30627",
            "source": "MISE - Ministero Sviluppo Economico"
          },
          "geometry": {
            "type": "Point",
            "coordinates": [
              11.5396612,
              46.465078
            ]
          }
        },
        {
          "type": "Feature",
          "properties": {
            "id": "227549130",
            "osm_type": "node",
            "lat": 46.5633934,
            "lon": 11.5568512,
            "addr:city": "Kastelruth - Castelrotto",
            "addr:housenumber": "51",
            "addr:postcode": "39040",
            "addr:street": "Oswald-von-Wolkenstein-Straße - Via Oswald von Wolkenstein",
            "amenity": "fuel",
            "brand": "GNP",
            "compressed_air": "yes",
            "fuel:diesel": "yes",
            "fuel:octane_95": "yes",
            "name": "GNP-Tankstelle Kastelruth - Stazione di servizio GNP - Castelrotto",
            "name:de": "GNP-Tankstelle Kastelruth",
            "ref:mise": "35174",
            "self_service": "yes",
            "wheelchair": "yes"
          },
          "geometry": {
            "type": "Point",
            "coordinates": [
              11.5568512,
              46.5633934
            ]
          }
        },
        {
          "type": "Feature",
          "properties": {
            "id": "272279913",
            "osm_type": "node",
            "lat": 46.5446896,
            "lon": 11.5623571,
            "amenity": "fuel",
            "brand": "Esso",
            "brand:wikidata": "Q867662",
            "compressed_air": "yes",
            "fuel:GTL_diesel": "yes",
            "fuel:diesel": "yes",
            "fuel:diesel:class2": "yes",
            "fuel:octane_95": "yes",
            "name": "Esso",
            "operator": "Werkstaette Und Tankstelle Pardeller K. G. Des Malfertheiner Igna Z & Co.",
            "ref:mise": "7806",
            "self_service": "yes",
            "source": "MISE - Ministero Sviluppo Economico",
            "wheelchair": "yes"
          },
          "geometry": {
            "type": "Point",
            "coordinates": [
              11.5623571,
              46.5446896
            ]
          }
        },
        {
          "type": "Feature",
          "properties": {
            "id": "272333336",
            "osm_type": "node",
            "lat": 46.4197614,
            "lon": 11.6806829,
            "amenity": "fuel",
            "brand": "Q8",
            "fuel:GTL_diesel": "yes",
            "fuel:diesel": "yes",
            "fuel:octane_95": "yes",
            "name": "Q8",
            "operator": "Alpichem Service di Blasco Andrea",
            "ref:mise": "38427",
            "source": "MISE - Ministero Sviluppo Economico"
          },
          "geometry": {
            "type": "Point",
            "coordinates": [
              11.6806829,
              46.4197614
            ]
          }
        },
        {
          "type": "Feature",
          "properties": {
            "id": "296423324",
            "osm_type": "node",
            "lat": 46.6403799,
            "lon": 11.6750418,
            "amenity": "fuel",
            "brand": "Firmin",
            "fuel:adblue": "yes",
            "fuel:diesel": "yes",
            "fuel:octane_95": "yes",
            "name": "Firmin",
            "operator": "Oscars",
            "ref:mise": "13692",
            "vending_machine": "fuel"
          },
          "geometry": {
            "type": "Point",
            "coordinates": [
              11.6750418,
              46.6403799
            ]
          }
        },
        {
          "type": "Feature",
          "properties": {
            "id": "866792871",
            "osm_type": "node",
            "lat": 46.3985829,
            "lon": 11.6691938,
            "amenity": "fuel",
            "brand": "Tamoil",
            "fuel:diesel": "yes",
            "fuel:diesel:class2": "yes",
            "fuel:octane_100": "yes",
            "fuel:octane_95": "yes",
            "operator": "Stazione di Servizio Soraga di Lastei Mariacristina & C. S.A.S.",
            "ref:mise": "9407",
            "source": "MISE - Ministero Sviluppo Economico"
          },
          "geometry": {
            "type": "Point",
            "coordinates": [
              11.6691938,
              46.3985829
            ]
          }
        },
        {
          "type": "Feature",
          "properties": {
            "id": "939347802",
            "osm_type": "node",
            "lat": 46.645238,
            "lon": 11.5730748,
            "amenity": "fuel",
            "brand": "Q8",
            "brand:wikidata": "Q1634762",
            "compressed_air": "yes",
            "fuel:GTL_diesel": "yes",
            "fuel:diesel": "yes",
            "fuel:diesel:class2": "yes",
            "fuel:octane_95": "yes",
            "name": "Q8",
            "operator": "Steiner Norbert & Manfred S.N.C.",
            "ref:mise": "8134",
            "self_service": "yes",
            "source": "MISE - Ministero Sviluppo Economico",
            "vending_machine": "fuel",
            "wheelchair": "yes"
          },
          "geometry": {
            "type": "Point",
            "coordinates": [
              11.5730748,
              46.645238
            ]
          }
        },
        {
          "type": "Feature",
          "properties": {
            "id": "2303784684",
            "osm_type": "node",
            "lat": 46.6708735,
            "lon": 11.6011413,
            "addr:city": "Feldthurns - Velturno",
            "addr:housenumber": "2",
            "addr:postcode": "39040",
            "addr:street": "Dorfstraße - Via Paese",
            "amenity": "fuel",
            "brand": "GNP",
            "compressed_air": "yes",
            "fuel:diesel": "yes",
            "fuel:octane_95": "yes",
            "name": "GNP",
            "ref:mise": "4401",
            "self_service": "yes"
          },
          "geometry": {
            "type": "Point",
            "coordinates": [
              11.6011413,
              46.6708735
            ]
          }
        },
        {
          "type": "Feature",
          "properties": {
            "id": "3133876322",
            "osm_type": "node",
            "lat": 46.6049093,
            "lon": 11.8958496,
            "amenity": "fuel",
            "brand": "Tamoil",
            "brand:wikidata": "Q706793",
            "fuel:cng": "yes",
            "fuel:diesel": "yes",
            "fuel:diesel:class2": "yes",
            "fuel:octane_100": "yes",
            "fuel:octane_95": "yes",
            "name": "Tamoil",
            "operator": "Auto Alta Badia S.R.L.",
            "ref:mise": "19890",
            "source": "MISE - Ministero Sviluppo Economico"
          },
          "geometry": {
            "type": "Point",
            "coordinates": [
              11.8958496,
              46.6049093
            ]
          }
        },
        {
          "type": "Feature",
          "properties": {
            "id": "3666956074",
            "osm_type": "node",
            "lat": 46.4268123,
            "lon": 12.0053403,
            "addr:city": "Alleghe",
            "addr:country": "IT",
            "addr:housenumber": "16a",
            "addr:postcode": "32022",
            "addr:street": "Via Nazionale",
            "amenity": "fuel",
            "fuel:diesel": "yes",
            "fuel:lpg": "yes",
            "fuel:octane_91": "yes",
            "fuel:octane_95": "yes",
            "name": "Beyfin",
            "operator": "Pellini Elvio",
            "ref:mise": "35610",
            "website": "http://www.beyfinenergia.it/energia/index.php?option=com_sobi2&sobi2Task=sobi2Details&catid=57&sobi2Id=153&Itemid=46"
          },
          "geometry": {
            "type": "Point",
            "coordinates": [
              12.0053403,
              46.4268123
            ]
          }
        },
        {
          "type": "Feature",
          "properties": {
            "id": "4796622381",
            "osm_type": "node",
            "lat": 46.6871137,
            "lon": 11.6308006,
            "amenity": "fuel",
            "brand": "Agip Eni",
            "fuel:GTL_diesel": "yes",
            "fuel:diesel": "yes",
            "fuel:lpg": "yes",
            "fuel:octane_95": "yes",
            "operator": "Bazzoli Mattia",
            "payment:cards": "yes",
            "ref:mise": "53567",
            "source": "MISE - Ministero Sviluppo Economico",
            "vending_machine": "fuel"
          },
          "geometry": {
            "type": "Point",
            "coordinates": [
              11.6308006,
              46.6871137
            ]
          }
        },
        {
          "type": "Feature",
          "properties": {
            "id": "5169813749",
            "osm_type": "node",
            "lat": 46.4199221,
            "lon": 11.6715412,
            "amenity": "fuel",
            "brand": "IP",
            "brand:wikidata": "Q646807",
            "brand:wikipedia": "en:Anonima Petroli Italiana",
            "fuel:diesel": "yes",
            "fuel:octane_95": "yes",
            "name": "IP",
            "operator": "Mattioli Giovanni",
            "ref:mise": "18977",
            "self_service": "yes"
          },
          "geometry": {
            "type": "Point",
            "coordinates": [
              11.6715412,
              46.4199221
            ]
          }
        },
        {
          "type": "Feature",
          "properties": {
            "id": "5953395596",
            "osm_type": "node",
            "lat": 46.5679391,
            "lon": 11.6853954,
            "addr:city": "Urtijëi - St.Ulrich - Ortisei",
            "addr:city:de": "St.Ulrich",
            "addr:city:it": "Ortisei",
            "addr:city:lld": "Urtijëi",
            "addr:housenumber": "82",
            "addr:postcode": "39046",
            "addr:street": "Streda Tresval",
            "addr:street:de": "Tresvalstraße",
            "addr:street:it": "Streda Tresval",
            "addr:street:lld": "Streda Tresval",
            "amenity": "fuel",
            "brand": "Eni",
            "brand:wikidata": "Q565594",
            "fuel:GTL_diesel": "yes",
            "fuel:cng": "yes",
            "fuel:diesel": "yes",
            "fuel:lpg": "yes",
            "fuel:octane_100": "yes",
            "fuel:octane_95": "yes",
            "name": "Eni Insam",
            "operator": "Dima Des Insam Erwin Johann",
            "ref:mise": "27752",
            "shop": "kiosk",
            "source": "MISE - Ministero Sviluppo Economico"
          },
          "geometry": {
            "type": "Point",
            "coordinates": [
              11.6853954,
              46.5679391
            ]
          }
        },
        {
          "type": "Feature",
          "properties": {
            "id": "6025184887",
            "osm_type": "node",
            "lat": 46.5660767,
            "lon": 11.6908999,
            "amenity": "fuel",
            "brand": "Firmin",
            "fuel:GTL_diesel": "yes",
            "fuel:diesel": "yes",
            "fuel:lpg": "yes",
            "fuel:octane_100": "yes",
            "fuel:octane_95": "yes",
            "name": "Firmin",
            "operator": "Firmin S.R.L.",
            "ref:mise": "35013",
            "source": "MISE - Ministero Sviluppo Economico"
          },
          "geometry": {
            "type": "Point",
            "coordinates": [
              11.6908999,
              46.5660767
            ]
          }
        },
        {
          "type": "Feature",
          "properties": {
            "id": "8130718661",
            "osm_type": "node",
            "lat": 46.6020201,
            "lon": 11.5591807,
            "addr:city": "Lajen - Laion",
            "addr:housenumber": "118",
            "addr:postcode": "39040",
            "addr:street": "Via Novale",
            "amenity": "fuel",
            "brand": "GNP",
            "fuel:diesel": "yes",
            "fuel:octane_95": "yes",
            "name": "GNP",
            "operator": "Gruppo Nord Petroli S.R.L.",
            "ref:mise": "35960",
            "self_service": "yes",
            "source": "MISE - Ministero Sviluppo Economico"
          },
          "geometry": {
            "type": "Point",
            "coordinates": [
              11.5591807,
              46.6020201
            ]
          }
        },
        {
          "type": "Feature",
          "properties": {
            "id": "227021471",
            "osm_type": "node",
            "lat": 46.435654,
            "lon": 12.223299,
            "amenity": "fuel",
            "brand": "Eni",
            "brand:wikidata": "Q565594",
            "name": "Agip",
            "operator": "Agip Distributore di Troncon Patrizia & C. - S.A.S.",
            "ref:mise": "8798"
          },
          "geometry": {
            "type": "Point",
            "coordinates": [
              12.223299,
              46.435654
            ]
          }
        },
        {
          "type": "Feature",
          "properties": {
            "id": "227898440",
            "osm_type": "node",
            "lat": 46.384286,
            "lon": 12.117233,
            "amenity": "fuel",
            "brand": "Tamoil",
            "fuel:lpg": "no",
            "name": "Tamoil",
            "operator": "Carlo Aliprandi Carburanti S.R.L.",
            "ref:mise": "21805"
          },
          "geometry": {
            "type": "Point",
            "coordinates": [
              12.117233,
              46.384286
            ]
          }
        },
        {
          "type": "Feature",
          "properties": {
            "id": "228028677",
            "osm_type": "node",
            "lat": 46.4233125,
            "lon": 12.3593982,
            "amenity": "fuel",
            "brand": "IP",
            "brand:wikidata": "Q3788748",
            "name": "IP",
            "operator": "Olivotto Ugo & C. S.N.C.",
            "ref:mise": "20218"
          },
          "geometry": {
            "type": "Point",
            "coordinates": [
              12.3593982,
              46.4233125
            ]
          }
        },
        {
          "type": "Feature",
          "properties": {
            "id": "228225924",
            "osm_type": "node",
            "lat": 46.5320973,
            "lon": 12.1400307,
            "amenity": "fuel",
            "brand": "IP",
            "brand:wikidata": "Q646807",
            "fixme": "Position",
            "name": "IP",
            "operator": "R.C. di Recrucolo Achille & C. S.A.S.",
            "ref:mise": "28892"
          },
          "geometry": {
            "type": "Point",
            "coordinates": [
              12.1400307,
              46.5320973
            ]
          }
        },
        {
          "type": "Feature",
          "properties": {
            "id": "228249315",
            "osm_type": "node",
            "lat": 46.417254,
            "lon": 12.331295,
            "amenity": "fuel",
            "brand": "Oil Italia",
            "fuel:diesel": "yes",
            "fuel:octane_95": "yes",
            "name": "Azzalini Energie",
            "operator": "New Dynamic Line Srl",
            "ref:mise": "38215",
            "self_service": "only"
          },
          "geometry": {
            "type": "Point",
            "coordinates": [
              12.331295,
              46.417254
            ]
          }
        },
        {
          "type": "Feature",
          "properties": {
            "id": "5851837558",
            "osm_type": "node",
            "lat": 46.4539709,
            "lon": 12.033307,
            "amenity": "fuel",
            "brand": "San Marco Petroli",
            "operator": "San Marco Petroli Distribuzione S.R.L.",
            "ref:mise": "31498"
          },
          "geometry": {
            "type": "Point",
            "coordinates": [
              12.033307,
              46.4539709
            ]
          }
        },
        {
          "type": "Feature",
          "properties": {
            "id": "5851837580",
            "osm_type": "node",
            "lat": 46.5142211,
            "lon": 12.1480079,
            "amenity": "fuel",
            "brand": "Esso",
            "operator": "Alessandro Ferriolo",
            "ref:mise": "31369"
          },
          "geometry": {
            "type": "Point",
            "coordinates": [
              12.1480079,
              46.5142211
            ]
          }
        },
        {
          "type": "Feature",
          "properties": {
            "id": "12487023765",
            "osm_type": "node",
            "lat": 46.4424371,
            "lon": 12.3825641,
            "amenity": "fuel",
            "brand": "Tamoil",
            "brand:wikidata": "Q706793",
            "name": "Tamoil"
          },
          "geometry": {
            "type": "Point",
            "coordinates": [
              12.3825641,
              46.4424371
            ]
          }
        }
      ],
      "children": []
    },
    {
      "bbox": {
        "south": 46.372652,
        "west": 12.392062499999998,
        "north": 46.70320525,
        "east": 13.345766
      },
      "poiCount": 37,
      "leafCount": 37,
      "averagePosition": [
        12.855606362162161,
        46.493077491891896
      ],
      "data": [
        {
          "type": "Feature",
          "properties": {
            "id": "228249516",
            "osm_type": "node",
            "lat": 46.556913,
            "lon": 12.427683,
            "amenity": "fuel",
            "brand": "Esso",
            "name": "Esso",
            "operator": "Esso"
          },
          "geometry": {
            "type": "Point",
            "coordinates": [
              12.427683,
              46.556913
            ]
          }
        },
        {
          "type": "Feature",
          "properties": {
            "id": "228249522",
            "osm_type": "node",
            "lat": 46.5437447,
            "lon": 12.4593056,
            "amenity": "fuel",
            "brand": "Tamoil",
            "brand:wikidata": "Q706793",
            "brand:wikipedia": "en:Tamoil",
            "name": "Tamoil",
            "operator": "Corte Pause Mariantonia",
            "ref:mise": "39703"
          },
          "geometry": {
            "type": "Point",
            "coordinates": [
              12.4593056,
              46.5437447
            ]
          }
        },
        {
          "type": "Feature",
          "properties": {
            "id": "228249525",
            "osm_type": "node",
            "lat": 46.5489705,
            "lon": 12.448918,
            "addr:city": "Auronzo di Cadore",
            "addr:postcode": "32041",
            "addr:street": "Via Unione",
            "amenity": "fuel",
            "brand": "Esso",
            "fuel:diesel": "yes",
            "fuel:octane_95": "yes",
            "name": "Esso",
            "operator": "Monti Nia Osvaldo",
            "ref:mise": "21612"
          },
          "geometry": {
            "type": "Point",
            "coordinates": [
              12.448918,
              46.5489705
            ]
          }
        },
        {
          "type": "Feature",
          "properties": {
            "id": "228249533",
            "osm_type": "node",
            "lat": 46.4482459,
            "lon": 12.3930031,
            "amenity": "fuel",
            "brand": "Total",
            "fixme": "what does it mean \"ex\"? is it no more active?",
            "name": "Total",
            "name:it": "Ex distributore carburante",
            "operator": "Total"
          },
          "geometry": {
            "type": "Point",
            "coordinates": [
              12.3930031,
              46.4482459
            ]
          }
        },
        {
          "type": "Feature",
          "properties": {
            "id": "897193859",
            "osm_type": "node",
            "lat": 46.4628493,
            "lon": 12.4209737,
            "amenity": "fuel",
            "brand": "Esso",
            "operator": "Pagnin Paolo",
            "phone": "+3943 572136",
            "ref:mise": "20993"
          },
          "geometry": {
            "type": "Point",
            "coordinates": [
              12.4209737,
              46.4628493
            ]
          }
        },
        {
          "type": "Feature",
          "properties": {
            "id": "1105108227",
            "osm_type": "node",
            "lat": 46.6014734,
            "lon": 12.5238201,
            "amenity": "fuel",
            "fuel:diesel": "yes",
            "fuel:lpg": "no",
            "operator": "Repsol"
          },
          "geometry": {
            "type": "Point",
            "coordinates": [
              12.5238201,
              46.6014734
            ]
          }
        },
        {
          "type": "Feature",
          "properties": {
            "id": "5018730483",
            "osm_type": "node",
            "lat": 46.4576374,
            "lon": 12.4095119,
            "amenity": "fuel",
            "brand": "Esso",
            "name": "Esso",
            "operator": "Meneghin Gianmario",
            "ref:mise": "8693"
          },
          "geometry": {
            "type": "Point",
            "coordinates": [
              12.4095119,
              46.4576374
            ]
          }
        },
        {
          "type": "Feature",
          "properties": {
            "id": "227710334",
            "osm_type": "node",
            "lat": 46.4152831,
            "lon": 12.7967519,
            "amenity": "fuel",
            "brand": "Retitalia",
            "compressed_air": "yes",
            "fuel:diesel": "yes",
            "fuel:octane_95": "yes",
            "name": "Retitalia",
            "operator": "Leonardo Frare",
            "ref:mise": "53730"
          },
          "geometry": {
            "type": "Point",
            "coordinates": [
              12.7967519,
              46.4152831
            ]
          }
        },
        {
          "type": "Feature",
          "properties": {
            "id": "227714901",
            "osm_type": "node",
            "lat": 46.4027055,
            "lon": 13.0175193,
            "amenity": "fuel",
            "brand": "Q8",
            "compressed_air": "yes",
            "fuel:diesel": "yes",
            "fuel:octane_100": "yes",
            "fuel:octane_95": "yes",
            "name": "Q8",
            "operator": "Servizi & Gestioni Italia S.R.L.",
            "ref:mise": "11909"
          },
          "geometry": {
            "type": "Point",
            "coordinates": [
              13.0175193,
              46.4027055
            ]
          }
        },
        {
          "type": "Feature",
          "properties": {
            "id": "227715541",
            "osm_type": "node",
            "lat": 46.4148157,
            "lon": 12.9313779,
            "amenity": "fuel",
            "brand": "Q8",
            "brand:wikidata": "Q1634762",
            "fuel:diesel": "yes",
            "fuel:octane_100": "yes",
            "fuel:octane_95": "yes",
            "name": "Q8",
            "operator": "Servizi & Gestioni Italia S.R.L.",
            "ref:mise": "11906"
          },
          "geometry": {
            "type": "Point",
            "coordinates": [
              12.9313779,
              46.4148157
            ]
          }
        },
        {
          "type": "Feature",
          "properties": {
            "id": "228249728",
            "osm_type": "node",
            "lat": 46.4203023,
            "lon": 13.0210435,
            "amenity": "fuel",
            "brand": "Q8",
            "brand:wikidata": "Q1806948",
            "brand:wikipedia": "nl:Q8 Easy",
            "fuel:diesel": "yes",
            "fuel:lpg": "yes",
            "fuel:octane_95": "yes",
            "name": "Q8 Easy",
            "operator": "Servizi & Gestioni Italia S.R.L.",
            "ref:mise": "7269"
          },
          "geometry": {
            "type": "Point",
            "coordinates": [
              13.0210435,
              46.4203023
            ]
          }
        },
        {
          "type": "Feature",
          "properties": {
            "id": "228249938",
            "osm_type": "node",
            "lat": 46.3895909,
            "lon": 13.0260795,
            "amenity": "fuel",
            "brand": "San Marco Petroli",
            "fuel:diesel": "yes",
            "fuel:octane_101": "yes",
            "fuel:octane_95": "yes",
            "name": "SMP",
            "operator": "Smp Tolmezzo",
            "ref:mise": "29516"
          },
          "geometry": {
            "type": "Point",
            "coordinates": [
              13.0260795,
              46.3895909
            ]
          }
        },
        {
          "type": "Feature",
          "properties": {
            "id": "228250156",
            "osm_type": "node",
            "lat": 46.4010866,
            "lon": 13.0223111,
            "amenity": "fuel",
            "brand": "Agip Eni",
            "fuel:diesel": "yes",
            "fuel:octane_95": "yes",
            "name": "Agip",
            "operator": "Carboil S.A.S. di Romanini Ivan & C.",
            "ref:mise": "33192"
          },
          "geometry": {
            "type": "Point",
            "coordinates": [
              13.0223111,
              46.4010866
            ]
          }
        },
        {
          "type": "Feature",
          "properties": {
            "id": "228275035",
            "osm_type": "node",
            "lat": 46.417165,
            "lon": 12.790039,
            "amenity": "fuel",
            "brand": "Tamoil",
            "fuel:diesel": "yes",
            "fuel:octane_95": "yes",
            "name": "Tamoil",
            "operator": "Martinis Maria Dora",
            "ref:mise": "40931"
          },
          "geometry": {
            "type": "Point",
            "coordinates": [
              12.790039,
              46.417165
            ]
          }
        },
        {
          "type": "Feature",
          "properties": {
            "id": "228275446",
            "osm_type": "node",
            "lat": 46.415538,
            "lon": 12.928011,
            "amenity": "fuel",
            "brand": "Agip Eni",
            "fuel:diesel": "yes",
            "fuel:octane_100": "yes",
            "fuel:octane_95": "yes",
            "name": "Agip",
            "operator": "Gesticarb S.N.C. di Lucchini Gian Pietro e Luca Sonia",
            "ref:mise": "4595"
          },
          "geometry": {
            "type": "Point",
            "coordinates": [
              12.928011,
              46.415538
            ]
          }
        },
        {
          "type": "Feature",
          "properties": {
            "id": "228305683",
            "osm_type": "node",
            "lat": 46.5150276,
            "lon": 12.8657683,
            "amenity": "fuel",
            "brand": "Agip Eni",
            "fixme": "name",
            "fuel:diesel": "yes",
            "fuel:octane_100": "yes",
            "fuel:octane_95": "yes",
            "name": "IP",
            "operator": "G.T S.N.C. di Reputin Vittorio e Bellondi Gianmaria",
            "ref:mise": "46034"
          },
          "geometry": {
            "type": "Point",
            "coordinates": [
              12.8657683,
              46.5150276
            ]
          }
        },
        {
          "type": "Feature",
          "properties": {
            "id": "228306633",
            "osm_type": "node",
            "lat": 46.583775,
            "lon": 12.781756,
            "amenity": "fuel",
            "brand": "Costantin",
            "fuel:diesel": "yes",
            "fuel:octane_95": "yes",
            "name": "COSTANTIN",
            "operator": "Enertop S.R.L.",
            "ref:mise": "11271"
          },
          "geometry": {
            "type": "Point",
            "coordinates": [
              12.781756,
              46.583775
            ]
          }
        },
        {
          "type": "Feature",
          "properties": {
            "id": "228314700",
            "osm_type": "node",
            "lat": 46.4872916,
            "lon": 12.8647991,
            "amenity": "fuel",
            "brand": "Api-Ip",
            "fixme": "name forse IP",
            "fuel:diesel": "yes",
            "fuel:octane_95": "yes",
            "name": "Total",
            "operator": "Cimenti Cristian",
            "ref:mise": "43101"
          },
          "geometry": {
            "type": "Point",
            "coordinates": [
              12.8647991,
              46.4872916
            ]
          }
        },
        {
          "type": "Feature",
          "properties": {
            "id": "228314915",
            "osm_type": "node",
            "lat": 46.4788771,
            "lon": 12.8677096,
            "amenity": "fuel",
            "brand": "San Marco Petroli",
            "fuel:diesel": "yes",
            "fuel:octane_101": "yes",
            "fuel:octane_95": "yes",
            "name": "SM",
            "operator": "San Marco Petroli Distribuzione S.R.L.",
            "ref:mise": "39053"
          },
          "geometry": {
            "type": "Point",
            "coordinates": [
              12.8677096,
              46.4788771
            ]
          }
        },
        {
          "type": "Feature",
          "properties": {
            "id": "228315117",
            "osm_type": "node",
            "lat": 46.4883737,
            "lon": 12.8649368,
            "amenity": "fuel",
            "brand": "IP",
            "fixme": "This object might have been dismantled, please check",
            "name": "IP",
            "operator": "IP"
          },
          "geometry": {
            "type": "Point",
            "coordinates": [
              12.8649368,
              46.4883737
            ]
          }
        },
        {
          "type": "Feature",
          "properties": {
            "id": "228319934",
            "osm_type": "node",
            "lat": 46.548989,
            "lon": 12.854369,
            "amenity": "fuel",
            "brand": "Api-Ip",
            "fuel:diesel": "yes",
            "fuel:octane_95": "yes",
            "name": "IP",
            "operator": "Geff S.R.L.",
            "ref:mise": "47037"
          },
          "geometry": {
            "type": "Point",
            "coordinates": [
              12.854369,
              46.548989
            ]
          }
        },
        {
          "type": "Feature",
          "properties": {
            "id": "228735991",
            "osm_type": "node",
            "lat": 46.4030844,
            "lon": 13.0188014,
            "amenity": "fuel",
            "brand": "Esso",
            "fuel:diesel": "yes",
            "fuel:octane_95": "yes",
            "name": "Esso",
            "operator": "Mb.Service di Mella Nicola e Bearzi Michele S.N.C.",
            "ref:mise": "46396"
          },
          "geometry": {
            "type": "Point",
            "coordinates": [
              13.0188014,
              46.4030844
            ]
          }
        },
        {
          "type": "Feature",
          "properties": {
            "id": "1105107822",
            "osm_type": "node",
            "lat": 46.5606023,
            "lon": 12.5476762,
            "amenity": "fuel",
            "brand": "Azzalini Energie srl",
            "fuel:diesel": "yes",
            "fuel:lpg": "no",
            "fuel:octane_95": "yes",
            "name": "Azzalini Energie",
            "ref:mise": "30684"
          },
          "geometry": {
            "type": "Point",
            "coordinates": [
              12.5476762,
              46.5606023
            ]
          }
        },
        {
          "type": "Feature",
          "properties": {
            "id": "3728234291",
            "osm_type": "node",
            "lat": 46.4162521,
            "lon": 12.9191631,
            "amenity": "fuel",
            "brand": "Esso",
            "brand:wikidata": "Q867662",
            "fuel:diesel": "yes",
            "fuel:octane_95": "yes",
            "name": "Esso",
            "operator": "Centro Auto di Polonia Valerio",
            "ref:mise": "14798"
          },
          "geometry": {
            "type": "Point",
            "coordinates": [
              12.9191631,
              46.4162521
            ]
          }
        },
        {
          "type": "Feature",
          "properties": {
            "id": "5311136107",
            "osm_type": "node",
            "lat": 46.5529859,
            "lon": 12.5488704,
            "amenity": "fuel",
            "brand": "Esso",
            "email": "paolosolagna@legalmail.it",
            "fuel:diesel": "yes",
            "fuel:octane_95": "yes",
            "name": "Esso",
            "operator": "Solagna Paolo",
            "phone": "+39 333 1042416",
            "ref:mise": "22876"
          },
          "geometry": {
            "type": "Point",
            "coordinates": [
              12.5488704,
              46.5529859
            ]
          }
        },
        {
          "type": "Feature",
          "properties": {
            "id": "5311136108",
            "osm_type": "node",
            "lat": 46.5671738,
            "lon": 12.586872,
            "amenity": "fuel",
            "brand": "Tamoil",
            "fuel:diesel": "yes",
            "fuel:octane_95": "yes",
            "name": "Tamoil",
            "operator": "T.D.M. S.R.L.",
            "ref:mise": "40112"
          },
          "geometry": {
            "type": "Point",
            "coordinates": [
              12.586872,
              46.5671738
            ]
          }
        },
        {
          "type": "Feature",
          "properties": {
            "id": "5392731901",
            "osm_type": "node",
            "lat": 46.41746,
            "lon": 12.5847248,
            "amenity": "fuel",
            "brand": "Api-Ip",
            "fuel:diesel": "yes",
            "fuel:octane_95": "yes",
            "name": "Api-Ip",
            "opening_hours": "unknown",
            "operator": "D'Andrea Stefano",
            "ref:mise": "37517"
          },
          "geometry": {
            "type": "Point",
            "coordinates": [
              12.5847248,
              46.41746
            ]
          }
        },
        {
          "type": "Feature",
          "properties": {
            "id": "5851837166",
            "osm_type": "node",
            "lat": 46.4034439,
            "lon": 12.8238704,
            "amenity": "fuel",
            "brand": "Api-Ip",
            "fuel:diesel": "yes",
            "fuel:octane_95": "yes",
            "operator": "Bar Alla Posta di Pacelli Giovanni",
            "ref:mise": "33487"
          },
          "geometry": {
            "type": "Point",
            "coordinates": [
              12.8238704,
              46.4034439
            ]
          }
        },
        {
          "type": "Feature",
          "properties": {
            "id": "7892313869",
            "osm_type": "node",
            "lat": 46.5265771,
            "lon": 13.0127002,
            "amenity": "fuel",
            "brand": "Oil Italia",
            "fixme": "This object might have been dismantled, please check",
            "fuel:diesel": "yes",
            "fuel:octane_95": "yes",
            "name": "Oil Italia",
            "operator": "Oil Italia S.R.L. Oil Italia Gmbh",
            "payment:card": "only",
            "ref:mise": "47902",
            "self_service": "yes"
          },
          "geometry": {
            "type": "Point",
            "coordinates": [
              13.0127002,
              46.5265771
            ]
          }
        },
        {
          "type": "Feature",
          "properties": {
            "id": "228316904",
            "osm_type": "node",
            "lat": 46.500715,
            "lon": 13.3016832,
            "amenity": "fuel",
            "brand": "IP",
            "brand:wikidata": "Q3788748",
            "changing_table": "no",
            "compressed_air": "yes",
            "fuel:diesel": "yes",
            "fuel:octane_95": "yes",
            "name": "IP",
            "opening_hours": "24/7",
            "ref:mise": "16933",
            "self_service": "yes",
            "valves": "schrader",
            "wheelchair": "yes"
          },
          "geometry": {
            "type": "Point",
            "coordinates": [
              13.3016832,
              46.500715
            ]
          }
        },
        {
          "type": "Feature",
          "properties": {
            "id": "228319930",
            "osm_type": "node",
            "lat": 46.39499,
            "lon": 13.215276,
            "amenity": "fuel",
            "brand": "Esso",
            "changing_table": "no",
            "check_date": "2025-04-11",
            "check_date:compressed_air": "2025-04-11",
            "check_date:opening_hours": "2025-04-11",
            "compressed_air": "yes",
            "fuel:diesel": "yes",
            "fuel:octane_95": "yes",
            "name": "Esso",
            "opening_hours": "24/7",
            "operator": "01959 Esso - Resiutta",
            "ref:mise": "50781",
            "self_service": "yes",
            "valves": "schrader",
            "wheelchair": "yes"
          },
          "geometry": {
            "type": "Point",
            "coordinates": [
              13.215276,
              46.39499
            ]
          }
        },
        {
          "type": "Feature",
          "properties": {
            "id": "228740323",
            "osm_type": "node",
            "lat": 46.527354,
            "lon": 13.119285,
            "amenity": "fuel",
            "brand": "Api-Ip",
            "fuel:diesel": "yes",
            "fuel:octane_95": "yes",
            "name": "IP",
            "operator": "Matiz Alberto",
            "ref:mise": "10570"
          },
          "geometry": {
            "type": "Point",
            "coordinates": [
              13.119285,
              46.527354
            ]
          }
        },
        {
          "type": "Feature",
          "properties": {
            "id": "1431403028",
            "osm_type": "node",
            "lat": 46.6424446,
            "lon": 13.1797525,
            "amenity": "fuel",
            "brand": "Turmöl",
            "name": "Tankstelle Schwarz"
          },
          "geometry": {
            "type": "Point",
            "coordinates": [
              13.1797525,
              46.6424446
            ]
          }
        },
        {
          "type": "Feature",
          "properties": {
            "id": "3962388722",
            "osm_type": "node",
            "lat": 46.6150033,
            "lon": 13.2805349,
            "addr:postcode": "9631",
            "amenity": "fuel",
            "brand": "Turmöl",
            "brand:wikidata": "Q1473279",
            "brand:wikipedia": "de:Turmöl",
            "compressed_air": "yes",
            "name": "Brandner",
            "opening_hours": "Mo-Sa 07:00-20:00; Su 08:00-20:00",
            "shop": "convenience",
            "toilets": "yes"
          },
          "geometry": {
            "type": "Point",
            "coordinates": [
              13.2805349,
              46.6150033
            ]
          }
        },
        {
          "type": "Feature",
          "properties": {
            "id": "3963824721",
            "osm_type": "node",
            "lat": 46.6279893,
            "lon": 13.2523065,
            "amenity": "fuel"
          },
          "geometry": {
            "type": "Point",
            "coordinates": [
              13.2523065,
              46.6279893
            ]
          }
        },
        {
          "type": "Feature",
          "properties": {
            "id": "7832335134",
            "osm_type": "node",
            "lat": 46.6836409,
            "lon": 13.2541493,
            "amenity": "fuel",
            "fixme": "auch Gas, entweder LPG oder CNG",
            "fuel:octane_95": "yes"
          },
          "geometry": {
            "type": "Point",
            "coordinates": [
              13.2541493,
              46.6836409
            ]
          }
        },
        {
          "type": "Feature",
          "properties": {
            "id": "8960087979",
            "osm_type": "node",
            "lat": 46.4054953,
            "lon": 13.2960821,
            "amenity": "fuel",
            "brand": "Agip Eni",
            "fuel:diesel": "yes",
            "fuel:octane_100": "yes",
            "fuel:octane_95": "yes",
            "name": "Agip",
            "operator": "Geff S.R.L.",
            "ref:mise": "45333",
            "self_service": "yes"
          },
          "geometry": {
            "type": "Point",
            "coordinates": [
              13.2960821,
              46.4054953
            ]
          }
        }
      ],
      "children": []
    },
    {
      "bbox": {
        "south": 46.70320525,
        "west": 11.438358999999998,
        "north": 47.033758500000005,
        "east": 12.392062499999998
      },
      "poiCount": 32,
      "leafCount": 32,
      "averagePosition": [
        11.86387690625,
        46.814602378125
      ],
      "data": [
        {
          "type": "Feature",
          "properties": {
            "id": "285494062",
            "osm_type": "node",
            "lat": 47.0144427,
            "lon": 11.5058709,
            "amenity": "fuel",
            "brand": "OMV",
            "brand:wikidata": "Q168238",
            "brand:wikipedia": "en:OMV",
            "name": "OMV",
            "opening_hours": "24/7",
            "operator": "OMV",
            "phone": "+43 5274 87281"
          },
          "geometry": {
            "type": "Point",
            "coordinates": [
              11.5058709,
              47.0144427
            ]
          }
        },
        {
          "type": "Feature",
          "properties": {
            "id": "1782790090",
            "osm_type": "node",
            "lat": 47.0177656,
            "lon": 11.5074228,
            "amenity": "fuel",
            "brand": "OMV",
            "brand:wikidata": "Q168238",
            "brand:wikipedia": "en:OMV",
            "fuel:adblue": "yes",
            "fuel:diesel": "yes",
            "fuel:octane_95": "yes",
            "name": "OMV",
            "opening_hours": "24/7",
            "phone": "+43 5274 87223"
          },
          "geometry": {
            "type": "Point",
            "coordinates": [
              11.5074228,
              47.0177656
            ]
          }
        },
        {
          "type": "Feature",
          "properties": {
            "id": "2118872387",
            "osm_type": "node",
            "lat": 46.8887076,
            "lon": 11.4410401,
            "amenity": "fuel",
            "brand": "Agip Eni",
            "fuel:GTL_diesel": "yes",
            "fuel:diesel": "yes",
            "fuel:octane_95": "yes",
            "fuel:svo": "yes",
            "name": "Eni",
            "opening_hours": "Mo-Fr 07:30-12:30, 14:30-19:00; Sa 07:30-12:30; Su off",
            "operator": "Gschnitzer K.G. D. Gschnitzer Peter & Co. S.A.S.",
            "ref:mise": "9510",
            "source": "MISE - Ministero Sviluppo Economico"
          },
          "geometry": {
            "type": "Point",
            "coordinates": [
              11.4410401,
              46.8887076
            ]
          }
        },
        {
          "type": "Feature",
          "properties": {
            "id": "12434307060",
            "osm_type": "node",
            "lat": 47.0073581,
            "lon": 11.5092668,
            "addr:city": "Gries am Brenner",
            "addr:country": "AT",
            "addr:housenumber": "256",
            "addr:place": "Brenner",
            "addr:postcode": "6156",
            "amenity": "fuel",
            "brand": "OMV",
            "brand:wikidata": "Q168238",
            "brand:wikipedia": "en:OMV",
            "compressed_air": "yes",
            "compressed_air:fee": "no",
            "contact:phone": "+43 5274 87365",
            "fax": "+43 5274 87365 13",
            "fuel:GTL_diesel": "yes",
            "fuel:adblue": "yes",
            "fuel:diesel": "yes",
            "fuel:octane_100": "yes",
            "fuel:octane_95": "yes",
            "name": "OMV",
            "opening_hours": "24/7",
            "operator": "Rosenberger Fuels GmbH",
            "phone": "+43 5274 87365",
            "ref": "5005",
            "ref:vatin": "ATU66291568",
            "self_service": "yes"
          },
          "geometry": {
            "type": "Point",
            "coordinates": [
              11.5092668,
              47.0073581
            ]
          }
        },
        {
          "type": "Feature",
          "properties": {
            "id": "289246662",
            "osm_type": "node",
            "lat": 46.8913423,
            "lon": 11.9453679,
            "amenity": "fuel",
            "brand": "Eni",
            "brand:wikidata": "Q565594",
            "fixme": "position northward",
            "fuel:GTL_diesel": "yes",
            "fuel:diesel": "yes",
            "fuel:diesel:class2": "yes",
            "fuel:octane_100": "yes",
            "fuel:octane_95": "yes",
            "name": "Agip-Tankstelle - Stazione di servizio Agip",
            "name:de": "Agip-Tankstelle",
            "name:it": "Stazione di servizio Agip",
            "operator": "Energie Service S.A.S. di Zublasing Stefan & C. - Energie Service K.G. Des Zublasing Stefan & C.",
            "operator:de": "Energie Service KG des Zublasing Stefan & Co.",
            "operator:it": "Energie Service S.A.S. di Zublasing Stefan & C.",
            "ref:mise": "28099",
            "source": "MISE - Ministero Sviluppo Economico"
          },
          "geometry": {
            "type": "Point",
            "coordinates": [
              11.9453679,
              46.8913423
            ]
          }
        },
        {
          "type": "Feature",
          "properties": {
            "id": "299473822",
            "osm_type": "node",
            "lat": 46.9167917,
            "lon": 11.9515423,
            "amenity": "fuel",
            "brand": "Esso",
            "brand:wikidata": "Q867662",
            "brand:wikipedia": "en:Esso",
            "compressed_air": "yes",
            "fuel:diesel": "yes",
            "fuel:octane_95": "yes",
            "name": "Esso",
            "operator": "Kottersteger Horst",
            "ref:mise": "24224",
            "source": "MISE - Ministero Sviluppo Economico"
          },
          "geometry": {
            "type": "Point",
            "coordinates": [
              11.9515423,
              46.9167917
            ]
          }
        },
        {
          "type": "Feature",
          "properties": {
            "id": "4970329729",
            "osm_type": "node",
            "lat": 46.9469517,
            "lon": 11.9227166,
            "amenity": "fuel",
            "brand": "Agip Eni",
            "fuel:GTL_diesel": "yes",
            "fuel:diesel": "yes",
            "fuel:diesel:class2": "yes",
            "fuel:octane_100": "yes",
            "fuel:octane_95": "yes",
            "name": "Agip-Tankstelle",
            "operator": "A - Service KG des Abfalterer Karl & Co.",
            "ref:mise": "8167",
            "source": "MISE - Ministero Sviluppo Economico"
          },
          "geometry": {
            "type": "Point",
            "coordinates": [
              11.9227166,
              46.9469517
            ]
          }
        },
        {
          "type": "Feature",
          "properties": {
            "id": "10976685419",
            "osm_type": "node",
            "lat": 46.9182146,
            "lon": 12.334632,
            "addr:city": "St Jakob/Defereggen",
            "addr:country": "AT",
            "addr:housenumber": "53",
            "addr:street": "Innerrotte",
            "amenity": "fuel",
            "name": "SB Tankstelle",
            "operator": "Turmöl",
            "shop": "no"
          },
          "geometry": {
            "type": "Point",
            "coordinates": [
              12.334632,
              46.9182146
            ]
          }
        },
        {
          "type": "Feature",
          "properties": {
            "id": "11876862077",
            "osm_type": "node",
            "lat": 46.8688145,
            "lon": 11.4839329,
            "amenity": "fuel",
            "brand": "Esso",
            "brand:wikidata": "Q867662",
            "brand:wikipedia": "en:Esso",
            "compressed_air": "no",
            "fuel:diesel": "yes",
            "fuel:octane_95": "yes",
            "name": "Esso",
            "operator": "Aps Grill S.R.L.",
            "ref:mise": "51973",
            "source": "MISE - Ministero Sviluppo Economico"
          },
          "geometry": {
            "type": "Point",
            "coordinates": [
              11.4839329,
              46.8688145
            ]
          }
        },
        {
          "type": "Feature",
          "properties": {
            "id": "11876862082",
            "osm_type": "node",
            "lat": 46.8679688,
            "lon": 11.4843937,
            "amenity": "fuel",
            "brand": "Esso",
            "brand:wikidata": "Q867662",
            "brand:wikipedia": "en:Esso",
            "fuel:diesel": "yes",
            "fuel:octane_95": "yes",
            "name": "Esso",
            "operator": "Aps Grill S.R.L.",
            "ref:mise": "51974",
            "source": "MISE - Ministero Sviluppo Economico"
          },
          "geometry": {
            "type": "Point",
            "coordinates": [
              11.4843937,
              46.8679688
            ]
          }
        },
        {
          "type": "Feature",
          "properties": {
            "id": "226929563",
            "osm_type": "node",
            "lat": 46.790584,
            "lon": 11.927011,
            "amenity": "fuel",
            "brand": "Eni",
            "brand:wikidata": "Q565594",
            "brand:wikipedia": "en:Eni",
            "name": "Eni",
            "operator": "Self Center Sas di J. Staggl & Co.",
            "ref:mise": "8154"
          },
          "geometry": {
            "type": "Point",
            "coordinates": [
              11.927011,
              46.790584
            ]
          }
        },
        {
          "type": "Feature",
          "properties": {
            "id": "227022054",
            "osm_type": "node",
            "lat": 46.720508,
            "lon": 11.6555492,
            "amenity": "fuel",
            "brand": "Eni",
            "brand:wikidata": "Q565594",
            "fuel:diesel": "yes",
            "fuel:octane_95": "yes",
            "fuel:svo": "yes",
            "name": "Eni",
            "operator": "Kofler Martin",
            "ref:mise": "52234",
            "vending_machine": "fuel",
            "wheelchair": "yes"
          },
          "geometry": {
            "type": "Point",
            "coordinates": [
              11.6555492,
              46.720508
            ]
          }
        },
        {
          "type": "Feature",
          "properties": {
            "id": "227578491",
            "osm_type": "node",
            "lat": 46.7330616,
            "lon": 11.6496936,
            "amenity": "fuel",
            "brand": "Q8",
            "brand:wikidata": "Q1634762",
            "brand:wikipedia": "en:Kuwait Petroleum Corporation",
            "fuel:GTL_diesel": "yes",
            "fuel:diesel": "yes",
            "fuel:diesel:class2": "yes",
            "fuel:octane_95": "yes",
            "name": "Q8",
            "opening_hours": "Mo-Fr 07:00-19:15; Sa 07:00-12:30",
            "operator": "Nafta S.A.S. di Lambert Claudio & Co. in Forma Abbreviata Nafta S.A.S.",
            "ref:mise": "50885",
            "source": "MISE - Ministero Sviluppo Economico",
            "vending_machine": "fuel",
            "wheelchair": "yes"
          },
          "geometry": {
            "type": "Point",
            "coordinates": [
              11.6496936,
              46.7330616
            ]
          }
        },
        {
          "type": "Feature",
          "properties": {
            "id": "286401142",
            "osm_type": "node",
            "lat": 46.7979254,
            "lon": 11.9468169,
            "amenity": "fuel",
            "brand": "Q8",
            "brand:wikidata": "Q4119207",
            "fuel:diesel": "yes",
            "fuel:lpg": "yes",
            "fuel:octane_95": "yes",
            "fuel:octane_98": "yes",
            "name": "Q8",
            "operator": "Reichegger Alfons",
            "ref:mise": "23827"
          },
          "geometry": {
            "type": "Point",
            "coordinates": [
              11.9468169,
              46.7979254
            ]
          }
        },
        {
          "type": "Feature",
          "properties": {
            "id": "1602237050",
            "osm_type": "node",
            "lat": 46.810131,
            "lon": 11.8816882,
            "amenity": "fuel",
            "brand": "Esso",
            "brand:wikidata": "Q867662",
            "name": "Esso",
            "operator": "Reichegger Albin",
            "ref:mise": "24106"
          },
          "geometry": {
            "type": "Point",
            "coordinates": [
              11.8816882,
              46.810131
            ]
          }
        },
        {
          "type": "Feature",
          "properties": {
            "id": "1929390468",
            "osm_type": "node",
            "lat": 46.7044973,
            "lon": 11.6490673,
            "amenity": "fuel",
            "brand": "Esso",
            "brand:wikidata": "Q867662",
            "brand:wikipedia": "en:Esso",
            "fuel:GTL_diesel": "yes",
            "fuel:diesel": "yes",
            "fuel:diesel:class2": "yes",
            "fuel:octane_95": "yes",
            "name": "Esso",
            "operator": "Unterleitner Klaus & Co. S.A.S.",
            "payment:cards": "yes",
            "ref:mise": "33041",
            "source": "MISE - Ministero Sviluppo Economico",
            "vending_machine": "fuel"
          },
          "geometry": {
            "type": "Point",
            "coordinates": [
              11.6490673,
              46.7044973
            ]
          }
        },
        {
          "type": "Feature",
          "properties": {
            "id": "2328413819",
            "osm_type": "node",
            "lat": 46.8297886,
            "lon": 11.7879438,
            "amenity": "fuel",
            "name": "Blasbichler",
            "operator": "Autoservice Blasbichler Paul Kg - Sas",
            "ref:mise": "35825"
          },
          "geometry": {
            "type": "Point",
            "coordinates": [
              11.7879438,
              46.8297886
            ]
          }
        },
        {
          "type": "Feature",
          "properties": {
            "id": "2506304875",
            "osm_type": "node",
            "lat": 46.7491178,
            "lon": 11.7427815,
            "amenity": "fuel",
            "fuel:diesel": "yes",
            "fuel:octane_95": "yes",
            "operator": "Kaser S.A.S. di Kaser Dorothea & C.",
            "operator:de": "Kaser KG der Kaser Dorothea & Co.",
            "operator:it": "Kaser S.A.S. di Kaser Dorothea & C.",
            "ref:mise": "9668",
            "source": "MISE - Ministero Sviluppo Economico"
          },
          "geometry": {
            "type": "Point",
            "coordinates": [
              11.7427815,
              46.7491178
            ]
          }
        },
        {
          "type": "Feature",
          "properties": {
            "id": "4329094593",
            "osm_type": "node",
            "lat": 46.8139982,
            "lon": 11.7220056,
            "amenity": "fuel",
            "brand": "Api-Ip",
            "fuel:cng": "yes",
            "fuel:lpg": "yes",
            "operator": "Hotel Alpenhof Kg Des Lechner Christof & Co.",
            "ref:mise": "8349"
          },
          "geometry": {
            "type": "Point",
            "coordinates": [
              11.7220056,
              46.8139982
            ]
          }
        },
        {
          "type": "Feature",
          "properties": {
            "id": "4329105791",
            "osm_type": "node",
            "lat": 46.7979593,
            "lon": 11.9244931,
            "amenity": "fuel",
            "brand": "Eni",
            "brand:wikidata": "Q565594",
            "fuel:cng": "yes",
            "fuel:diesel": "yes",
            "fuel:lpg": "yes",
            "fuel:octane_91": "no",
            "fuel:octane_95": "yes",
            "fuel:octane_98": "yes",
            "name": "Agip",
            "opening_hours": "Mo-Fr 07:30-12:15,14:30-18:45; Sa 07:30-12:15; Su off",
            "operator": "Nordoil Stegona S.A.S. di Kumar Kamal & Co. - Nordoil Stegen Kg Des Kumar Kamal & Co.",
            "operator:de": "Nordoil Stegen KG des Kumar Kamal & Co.",
            "operator:it": "Nordoil Stegona Sas di Kumar Kamal & Co.",
            "phone": "+39 0474 531 185",
            "ref:mise": "23495"
          },
          "geometry": {
            "type": "Point",
            "coordinates": [
              11.9244931,
              46.7979593
            ]
          }
        },
        {
          "type": "Feature",
          "properties": {
            "id": "10611569607",
            "osm_type": "node",
            "lat": 46.7762871,
            "lon": 11.8777513,
            "amenity": "fuel",
            "brand": "Tamoil",
            "brand:wikidata": "Q706793",
            "fuel:diesel": "yes",
            "fuel:lpg": "yes",
            "fuel:octane_100": "yes",
            "fuel:octane_95": "yes",
            "name": "Tamoil",
            "operator": "Chinaglia S.A.S. di Chinaglia Maurizio & Co.",
            "ref:mise": "43408",
            "source": "MISE - Ministero Sviluppo Economico"
          },
          "geometry": {
            "type": "Point",
            "coordinates": [
              11.8777513,
              46.7762871
            ]
          }
        },
        {
          "type": "Feature",
          "properties": {
            "id": "11928027654",
            "osm_type": "node",
            "lat": 46.759383,
            "lon": 11.6378502,
            "addr:city": "Vahrn - Varna",
            "addr:housenumber": "2",
            "addr:postcode": "39040",
            "addr:street": "Forch Straße - Via Forch",
            "amenity": "fuel",
            "brand": "Kostner",
            "email": "tsvahrn@kostner.net",
            "fuel:HGV_diesel": "yes",
            "fuel:adblue": "yes",
            "fuel:biodiesel": "yes",
            "fuel:diesel": "yes",
            "fuel:octane_100": "yes",
            "fuel:octane_95": "yes",
            "name": "Kostner",
            "note": "Attacco NGV1, Adattatore Italiano.",
            "opening_hours": "Mo-Fr 06:00-21:00; Sa 06:00-19:00; Su,PH 07:00-13:00",
            "operator": "Kostner Service S.R.L.",
            "payment:american_express": "yes",
            "payment:cash": "yes",
            "payment:credit_cards": "yes",
            "payment:debit_cards": "yes",
            "payment:diners_club": "yes",
            "payment:maestro": "yes",
            "payment:mastercard": "yes",
            "payment:v_pay": "yes",
            "payment:visa": "yes",
            "phone": "+39 0472 801 712",
            "vending_machine": "fuel",
            "website": "https://www.kostner.net/"
          },
          "geometry": {
            "type": "Point",
            "coordinates": [
              11.6378502,
              46.759383
            ]
          }
        },
        {
          "type": "Feature",
          "properties": {
            "id": "12232114094",
            "osm_type": "node",
            "lat": 46.7322925,
            "lon": 11.641665,
            "amenity": "fuel",
            "brand": "Ewo Fuel",
            "fuel:GTL_diesel": "yes",
            "fuel:HGV_diesel": "yes",
            "fuel:diesel": "yes",
            "fuel:e10": "no",
            "fuel:e85": "no",
            "fuel:octane_91": "no",
            "fuel:octane_95": "yes",
            "name": "Ewo Fuel",
            "operator": "Tiger S.R.L.",
            "ref:mise": "46748",
            "self_service": "yes",
            "source": "MISE - Ministero Sviluppo Economico"
          },
          "geometry": {
            "type": "Point",
            "coordinates": [
              11.641665,
              46.7322925
            ]
          }
        },
        {
          "type": "Feature",
          "properties": {
            "id": "12232114095",
            "osm_type": "node",
            "lat": 46.7294078,
            "lon": 11.6424497,
            "amenity": "fuel",
            "brand": "Tamoil",
            "brand:wikidata": "Q706793",
            "brand:wikipedia": "en:Tamoil",
            "fuel:HGV_diesel": "yes",
            "fuel:diesel": "yes",
            "fuel:diesel_plus": "yes",
            "fuel:octane_95": "yes",
            "name": "Tamoil",
            "operator": "Tiger S.R.L.",
            "ref:mise": "46791",
            "source": "MISE - Ministero Sviluppo Economico"
          },
          "geometry": {
            "type": "Point",
            "coordinates": [
              11.6424497,
              46.7294078
            ]
          }
        },
        {
          "type": "Feature",
          "properties": {
            "id": "227697677",
            "osm_type": "node",
            "lat": 46.7304945,
            "lon": 12.2662862,
            "amenity": "fuel",
            "brand": "Esso",
            "brand:wikidata": "Q867662",
            "brand:wikipedia": "en:Esso",
            "check_date": "2025-08-08",
            "fuel:GTL_diesel": "yes",
            "fuel:diesel:class2": "yes",
            "fuel:octane_95": "yes",
            "name": "Esso",
            "operator": "I.M.N.R. Company di Iannoli G. e Cavaliere L. S.N.C.",
            "payment:dkv": "yes",
            "ref:mise": "48987",
            "source": "MISE - Ministero Sviluppo Economico"
          },
          "geometry": {
            "type": "Point",
            "coordinates": [
              12.2662862,
              46.7304945
            ]
          }
        },
        {
          "type": "Feature",
          "properties": {
            "id": "227884909",
            "osm_type": "node",
            "lat": 46.758391,
            "lon": 12.1028276,
            "amenity": "fuel",
            "brand": "Api-Ip",
            "fuel:diesel": "yes",
            "fuel:octane_95": "yes",
            "name": "Total",
            "operator": "Oberhammer Renate Gmbh - Oberhammer Renate S.R.L.",
            "operator:de": "Oberhammer Renate GmbH",
            "operator:it": "Oberhammer Renate Srl",
            "payment:dkv": "yes",
            "ref:mise": "15777",
            "source": "MISE - Ministero Sviluppo Economico"
          },
          "geometry": {
            "type": "Point",
            "coordinates": [
              12.1028276,
              46.758391
            ]
          }
        },
        {
          "type": "Feature",
          "properties": {
            "id": "289206737",
            "osm_type": "node",
            "lat": 46.7403254,
            "lon": 12.3740816,
            "addr:city": "Sillian",
            "addr:country": "AT",
            "addr:housenumber": "75",
            "addr:place": "Arnbach",
            "addr:postcode": "9920",
            "addr:street": "Pustertalerstraße",
            "amenity": "fuel",
            "brand": "BP",
            "brand:wikidata": "Q152057",
            "brand:wikipedia": "en:BP",
            "fuel:diesel": "yes",
            "fuel:octane_95": "yes",
            "name": "BP",
            "phone": "+43-4842-6343",
            "shop": "convenience",
            "wheelchair": "yes"
          },
          "geometry": {
            "type": "Point",
            "coordinates": [
              12.3740816,
              46.7403254
            ]
          }
        },
        {
          "type": "Feature",
          "properties": {
            "id": "289236294",
            "osm_type": "node",
            "lat": 46.7752695,
            "lon": 12.0438639,
            "amenity": "fuel",
            "brand": "Agip Eni",
            "fuel:GTL_diesel": "yes",
            "fuel:biodiesel": "yes",
            "fuel:diesel": "yes",
            "fuel:diesel:class2": "yes",
            "fuel:octane_95": "yes",
            "name": "ENI",
            "opening_hours": "08:30-12:30,15:30-20:00",
            "operator": "Agip Tankstelle des Wieser Manuel",
            "payment:dkv": "yes",
            "payment:uta": "yes",
            "ref:mise": "18861",
            "shop": "yes",
            "source": "MISE - Ministero Sviluppo Economico",
            "wheelchair": "yes"
          },
          "geometry": {
            "type": "Point",
            "coordinates": [
              12.0438639,
              46.7752695
            ]
          }
        },
        {
          "type": "Feature",
          "properties": {
            "id": "4571965196",
            "osm_type": "node",
            "lat": 46.7402067,
            "lon": 12.3751251,
            "addr:city": "Sillian",
            "addr:country": "AT",
            "addr:housenumber": "75b",
            "addr:place": "Arnbach",
            "addr:postcode": "9920",
            "amenity": "fuel",
            "fax": "+4348426343 13",
            "fuel:GTL_diesel": "yes",
            "fuel:HGV_diesel": "yes",
            "fuel:diesel": "yes",
            "fuel:octane_95": "yes",
            "opening_hours": "Mo-Su 06:00-22:00",
            "payment:cash": "yes",
            "payment:coins": "yes",
            "payment:dkv": "yes",
            "payment:mastercard": "yes",
            "payment:notes": "yes",
            "payment:routex": "yes",
            "payment:uta": "yes",
            "payment:visa": "yes",
            "phone": "+4348426343",
            "shop": "convenience",
            "wheelchair": "yes"
          },
          "geometry": {
            "type": "Point",
            "coordinates": [
              12.3751251,
              46.7402067
            ]
          }
        },
        {
          "type": "Feature",
          "properties": {
            "id": "6775231024",
            "osm_type": "node",
            "lat": 46.763168,
            "lon": 12.0320552,
            "amenity": "fuel",
            "brand": "Q8",
            "check_date": "2024-01-29",
            "fuel:diesel": "yes",
            "fuel:diesel:class2": "yes",
            "fuel:octane_95": "yes",
            "name": "Q8",
            "operator": "Zaman Mohammad",
            "ref:mise": "36546",
            "source": "MISE - Ministero Sviluppo Economico"
          },
          "geometry": {
            "type": "Point",
            "coordinates": [
              12.0320552,
              46.763168
            ]
          }
        },
        {
          "type": "Feature",
          "properties": {
            "id": "9841488428",
            "osm_type": "node",
            "lat": 46.7422774,
            "lon": 12.3869462,
            "addr:city": "Sillian",
            "addr:housenumber": "41h",
            "addr:postcode": "9920",
            "addr:street": "Arnbach",
            "amenity": "fuel",
            "brand": "Gutmann Disk Tankstelle",
            "opening_hours": "24/7",
            "self_service": "yes"
          },
          "geometry": {
            "type": "Point",
            "coordinates": [
              12.3869462,
              46.7422774
            ]
          }
        },
        {
          "type": "Feature",
          "properties": {
            "id": "12453769594",
            "osm_type": "node",
            "lat": 46.7338444,
            "lon": 12.2899228,
            "amenity": "fuel",
            "check_date": "2025-08-08"
          },
          "geometry": {
            "type": "Point",
            "coordinates": [
              12.2899228,
              46.7338444
            ]
          }
        }
      ],
      "children": []
    },
    {
      "bbox": {
        "south": 46.70320525,
        "west": 12.392062499999998,
        "north": 47.033758500000005,
        "east": 13.345766
      },
      "poiCount": 17,
      "leafCount": 17,
      "averagePosition": [
        12.88644522352941,
        46.822806529411764
      ],
      "data": [
        {
          "type": "Feature",
          "properties": {
            "id": "280835126",
            "osm_type": "node",
            "lat": 46.9224757,
            "lon": 12.9102739,
            "amenity": "fuel",
            "compressed_air": "yes",
            "name": "eni"
          },
          "geometry": {
            "type": "Point",
            "coordinates": [
              12.9102739,
              46.9224757
            ]
          }
        },
        {
          "type": "Feature",
          "properties": {
            "id": "1446820841",
            "osm_type": "node",
            "lat": 47.0235296,
            "lon": 12.8619772,
            "addr:city": "Heiligenblut am Großglockner",
            "addr:housenumber": "29",
            "addr:postcode": "9844",
            "addr:street": "Pockhorn",
            "amenity": "fuel",
            "brand": "Socar",
            "brand:wikidata": "Q1622293",
            "fuel:diesel": "yes",
            "fuel:octane_95": "yes",
            "name": "Socar",
            "old_name": "A1 Tankstelle",
            "opening_hours": "Mo-Sa 06:00-22:00; Su 07:00 bis 21:00; PH 07:00 bis 21:00"
          },
          "geometry": {
            "type": "Point",
            "coordinates": [
              12.8619772,
              47.0235296
            ]
          }
        },
        {
          "type": "Feature",
          "properties": {
            "id": "5426339768",
            "osm_type": "node",
            "lat": 46.7484529,
            "lon": 12.4530734,
            "amenity": "fuel",
            "brand": "Hofer Diskont",
            "brand:wikidata": "Q107803455",
            "name": "Hofer Diskont",
            "opening_hours": "24/7",
            "operator": "Hofer Diskont",
            "website": "https://www.diskonttanken.at"
          },
          "geometry": {
            "type": "Point",
            "coordinates": [
              12.4530734,
              46.7484529
            ]
          }
        },
        {
          "type": "Feature",
          "properties": {
            "id": "31238776",
            "osm_type": "node",
            "lat": 46.8623897,
            "lon": 12.8904676,
            "amenity": "fuel",
            "brand": "Eni",
            "name": "Eni"
          },
          "geometry": {
            "type": "Point",
            "coordinates": [
              12.8904676,
              46.8623897
            ]
          }
        },
        {
          "type": "Feature",
          "properties": {
            "id": "31238779",
            "osm_type": "node",
            "lat": 46.8619076,
            "lon": 12.8903556,
            "amenity": "fuel",
            "name": "Lagerhaus"
          },
          "geometry": {
            "type": "Point",
            "coordinates": [
              12.8903556,
              46.8619076
            ]
          }
        },
        {
          "type": "Feature",
          "properties": {
            "id": "31238830",
            "osm_type": "node",
            "lat": 46.8303111,
            "lon": 12.7910743,
            "addr:city": "Lienz",
            "addr:housenumber": "110",
            "addr:postcode": "9900",
            "addr:street": "Kärntner Straße",
            "amenity": "fuel",
            "brand": "Lagerhaus",
            "country": "AT",
            "name": "Lagerhaus Tankstelle",
            "operator": "Unser Lagerhaus Warenhandelsges. m.b.H."
          },
          "geometry": {
            "type": "Point",
            "coordinates": [
              12.7910743,
              46.8303111
            ]
          }
        },
        {
          "type": "Feature",
          "properties": {
            "id": "31238837",
            "osm_type": "node",
            "lat": 46.8311547,
            "lon": 12.7830757,
            "amenity": "fuel",
            "brand": "Eni",
            "brand:wikidata": "Q565594",
            "brand:wikipedia": "en:Eni",
            "country": "AT",
            "name": "Eni",
            "operator": "Eni"
          },
          "geometry": {
            "type": "Point",
            "coordinates": [
              12.7830757,
              46.8311547
            ]
          }
        },
        {
          "type": "Feature",
          "properties": {
            "id": "31238840",
            "osm_type": "node",
            "lat": 46.8309901,
            "lon": 12.7841718,
            "addr:city": "Lienz",
            "addr:country": "AT",
            "addr:housenumber": "88",
            "addr:postcode": "9900",
            "addr:street": "Kärntner Straße",
            "amenity": "fuel",
            "brand": "JET",
            "brand:wikidata": "Q568940",
            "brand:wikipedia": "en:Jet (brand)",
            "compressed_air": "no",
            "name": "Jet",
            "opening_hours": "Mo-Su 06:00-23:00",
            "phone": "+43 485261402",
            "website": "https://www.jet-tankstellen.at/"
          },
          "geometry": {
            "type": "Point",
            "coordinates": [
              12.7841718,
              46.8309901
            ]
          }
        },
        {
          "type": "Feature",
          "properties": {
            "id": "345403229",
            "osm_type": "node",
            "lat": 46.8282162,
            "lon": 12.8082334,
            "amenity": "fuel",
            "country": "AT",
            "name": "Arriva"
          },
          "geometry": {
            "type": "Point",
            "coordinates": [
              12.8082334,
              46.8282162
            ]
          }
        },
        {
          "type": "Feature",
          "properties": {
            "id": "345403230",
            "osm_type": "node",
            "lat": 46.8309423,
            "lon": 12.7755104,
            "amenity": "fuel",
            "brand": "OMV",
            "brand:wikidata": "Q168238",
            "brand:wikipedia": "en:OMV",
            "compressed_air": "yes",
            "country": "AT",
            "name": "OMV",
            "opening_hours": "Mo-Su 06:00-22:00",
            "operator": "OMV",
            "phone": "+43 4852 63060"
          },
          "geometry": {
            "type": "Point",
            "coordinates": [
              12.7755104,
              46.8309423
            ]
          }
        },
        {
          "type": "Feature",
          "properties": {
            "id": "1720904749",
            "osm_type": "node",
            "lat": 46.8258179,
            "lon": 12.7955161,
            "amenity": "fuel",
            "brand": "Independent",
            "country": "AT",
            "fuel:HGV_diesel": "yes",
            "fuel:diesel": "yes",
            "fuel:octane_91": "no",
            "fuel:octane_95": "yes",
            "fuel:octane_98": "yes",
            "name": "Schedl",
            "opening_hours": "24/7",
            "operator": "Schedl",
            "shop": "no"
          },
          "geometry": {
            "type": "Point",
            "coordinates": [
              12.7955161,
              46.8258179
            ]
          }
        },
        {
          "type": "Feature",
          "properties": {
            "id": "5145234812",
            "osm_type": "node",
            "lat": 46.7912638,
            "lon": 12.6398765,
            "amenity": "fuel",
            "brand": "Independent",
            "fuel:diesel": "yes",
            "name": "RGO-Tankstelle Assling",
            "opening_hours": "24/7",
            "operator": "Raiffeisengenossenschaft Osttirol, reg. Gen.m.b.H.",
            "shop": "no",
            "website": "https://www.rgo.at/",
            "wheelchair": "limited"
          },
          "geometry": {
            "type": "Point",
            "coordinates": [
              12.6398765,
              46.7912638
            ]
          }
        },
        {
          "type": "Feature",
          "properties": {
            "id": "9465950815",
            "osm_type": "node",
            "lat": 46.8259252,
            "lon": 12.7950591,
            "addr:city": "Lienz",
            "addr:housenumber": "3",
            "addr:postcode": "9900",
            "addr:street": "Südbahnstraße",
            "amenity": "fuel",
            "country": "AT",
            "fuel:lpg": "yes",
            "name": "Autogas Tankstelle",
            "operator": "Schedl"
          },
          "geometry": {
            "type": "Point",
            "coordinates": [
              12.7950591,
              46.8259252
            ]
          }
        },
        {
          "type": "Feature",
          "properties": {
            "id": "345400091",
            "osm_type": "node",
            "lat": 46.7419689,
            "lon": 13.1297376,
            "addr:housenumber": "115",
            "addr:postcode": "9771",
            "addr:street": "Berg",
            "amenity": "fuel",
            "brand": "Turmöl",
            "brand:wikidata": "Q1473279",
            "brand:wikipedia": "de:Turmöl",
            "name": "Turmöl",
            "wheelchair": "yes"
          },
          "geometry": {
            "type": "Point",
            "coordinates": [
              13.1297376,
              46.7419689
            ]
          }
        },
        {
          "type": "Feature",
          "properties": {
            "id": "2264421630",
            "osm_type": "node",
            "lat": 46.7514633,
            "lon": 13.2496507,
            "amenity": "fuel",
            "brand": "Eni",
            "brand:wikidata": "Q565594",
            "brand:wikipedia": "en:Eni",
            "compressed_air": "yes",
            "fuel:diesel": "yes",
            "fuel:octane_95": "yes",
            "name": "Eni",
            "opening_hours": "24/7",
            "payment:routex": "yes",
            "shop": "no",
            "wheelchair": "limited"
          },
          "geometry": {
            "type": "Point",
            "coordinates": [
              13.2496507,
              46.7514633
            ]
          }
        },
        {
          "type": "Feature",
          "properties": {
            "id": "2264429564",
            "osm_type": "node",
            "lat": 46.7585904,
            "lon": 13.2515325,
            "amenity": "fuel"
          },
          "geometry": {
            "type": "Point",
            "coordinates": [
              13.2515325,
              46.7585904
            ]
          }
        },
        {
          "type": "Feature",
          "properties": {
            "id": "2358982270",
            "osm_type": "node",
            "lat": 46.7223116,
            "lon": 13.259983,
            "amenity": "fuel",
            "brand": "SOCAR",
            "brand:wikidata": "Q1622293",
            "fuel:adblue": "no",
            "fuel:diesel": "yes",
            "fuel:octane_95": "yes",
            "fuel:octane_98": "yes",
            "name": "SOCAR",
            "opening_hours": "24/7",
            "payment:cash": "no",
            "self_service": "yes",
            "shop": "no"
          },
          "geometry": {
            "type": "Point",
            "coordinates": [
              13.259983,
              46.7223116
            ]
          }
        }
      ],
      "children": []
    }
  ]
}