{
  "bbox": {
    "south": 47.694865,
    "west": 11.438358999999998,
    "north": 48.355971499999995,
    "east": 13.345766
  },
  "poiCount": 8,
  "leafCount": 8,
  "averagePosition": [
    11.526616675,
    48.13645315
  ],
  "data": [
    {
      "type": "Feature",
      "properties": {
        "id": "2674618201",
        "osm_type": "node",
        "lat": 48.1392999,
        "lon": 11.4979077,
        "addr:city": "München",
        "addr:country": "DE",
        "addr:housenumber": "2a",
        "addr:postcode": "80686",
        "addr:street": "Ossietzkystraße",
        "building": "residential"
      },
      "geometry": {
        "type": "Point",
        "coordinates": [
          11.4979077,
          48.1392999
        ]
      }
    },
    {
      "type": "Feature",
      "properties": {
        "id": "2674618210",
        "osm_type": "node",
        "lat": 48.1394109,
        "lon": 11.4979163,
        "addr:city": "München",
        "addr:country": "DE",
        "addr:housenumber": "2",
        "addr:postcode": "80686",
        "addr:street": "Ossietzkystraße",
        "building": "residential"
      },
      "geometry": {
        "type": "Point",
        "coordinates": [
          11.4979163,
          48.1394109
        ]
      }
    },
    {
      "type": "Feature",
      "properties": {
        "id": "2674624497",
        "osm_type": "node",
        "lat": 48.1409474,
        "lon": 11.4973374,
        "addr:city": "München",
        "addr:country": "DE",
        "addr:housenumber": "10a",
        "addr:postcode": "80687",
        "addr:street": "Neuburgerstraße",
        "building": "residential"
      },
      "geometry": {
        "type": "Point",
        "coordinates": [
          11.4973374,
          48.1409474
        ]
      }
    },
    {
      "type": "Feature",
      "properties": {
        "id": "2674624500",
        "osm_type": "node",
        "lat": 48.1409398,
        "lon": 11.4974151,
        "addr:city": "München",
        "addr:country": "DE",
        "addr:housenumber": "10",
        "addr:postcode": "80687",
        "addr:street": "Neuburgerstraße",
        "building": "residential"
      },
      "geometry": {
        "type": "Point",
        "coordinates": [
          11.4974151,
          48.1409398
        ]
      }
    },
    {
      "type": "Feature",
      "properties": {
        "id": "2674624505",
        "osm_type": "node",
        "lat": 48.1409529,
        "lon": 11.4972804,
        "addr:city": "München",
        "addr:country": "DE",
        "addr:housenumber": "10b",
        "addr:postcode": "80687",
        "addr:street": "Neuburgerstraße",
        "building": "residential"
      },
      "geometry": {
        "type": "Point",
        "coordinates": [
          11.4972804,
          48.1409529
        ]
      }
    },
    {
      "type": "Feature",
      "properties": {
        "id": "11026597675",
        "osm_type": "node",
        "lat": 48.1193734,
        "lon": 11.4757085,
        "building": "residential"
      },
      "geometry": {
        "type": "Point",
        "coordinates": [
          11.4757085,
          48.1193734
        ]
      }
    },
    {
      "type": "Feature",
      "properties": {
        "id": "3507847240",
        "osm_type": "node",
        "lat": 48.2085959,
        "lon": 11.5636995,
        "addr:city": "München",
        "addr:country": "DE",
        "addr:housenumber": "117",
        "addr:postcode": "80937",
        "addr:street": "Neuherbergstraße",
        "building": "residential",
        "entrance": "main",
        "source": "Bing"
      },
      "geometry": {
        "type": "Point",
        "coordinates": [
          11.5636995,
          48.2085959
        ]
      }
    },
    {
      "type": "Feature",
      "properties": {
        "id": "11105636798",
        "osm_type": "node",
        "lat": 48.062105,
        "lon": 11.6856685,
        "building": "residential",
        "building:levels": "2",
        "roof:levels": "1"
      },
      "geometry": {
        "type": "Point",
        "coordinates": [
          11.6856685,
          48.062105
        ]
      }
    }
  ],
  "children": []
}