{
  "bbox": {
    "south": 47.033758500000005,
    "west": 15.253173,
    "north": 47.694865,
    "east": 17.16058
  },
  "poiCount": 16,
  "leafCount": 16,
  "averagePosition": [
    16.5739962125,
    47.20417739375
  ],
  "data": [
    {
      "type": "Feature",
      "properties": {
        "id": "2872694730",
        "osm_type": "node",
        "lat": 47.1099396,
        "lon": 15.7145034,
        "building": "residential"
      },
      "geometry": {
        "type": "Point",
        "coordinates": [
          15.7145034,
          47.1099396
        ]
      }
    },
    {
      "type": "Feature",
      "properties": {
        "id": "9013209486",
        "osm_type": "node",
        "lat": 47.2074686,
        "lon": 16.5951061,
        "addr:city": "Szombathely",
        "addr:housenumber": "40",
        "addr:postcode": "9700",
        "addr:street": "Németh Pál utca",
        "building": "residential"
      },
      "geometry": {
        "type": "Point",
        "coordinates": [
          16.5951061,
          47.2074686
        ]
      }
    },
    {
      "type": "Feature",
      "properties": {
        "id": "9013209508",
        "osm_type": "node",
        "lat": 47.2067744,
        "lon": 16.5985984,
        "addr:city": "Szombathely",
        "addr:housenumber": "19",
        "addr:postcode": "9700",
        "addr:street": "Bertalan Árpád utca",
        "addr:unit": "B",
        "building": "residential"
      },
      "geometry": {
        "type": "Point",
        "coordinates": [
          16.5985984,
          47.2067744
        ]
      }
    },
    {
      "type": "Feature",
      "properties": {
        "id": "9013209509",
        "osm_type": "node",
        "lat": 47.2067015,
        "lon": 16.5983838,
        "addr:city": "Szombathely",
        "addr:housenumber": "19",
        "addr:postcode": "9700",
        "addr:street": "Bertalan Árpád utca",
        "addr:unit": "A",
        "building": "residential"
      },
      "geometry": {
        "type": "Point",
        "coordinates": [
          16.5983838,
          47.2067015
        ]
      }
    },
    {
      "type": "Feature",
      "properties": {
        "id": "9013223528",
        "osm_type": "node",
        "lat": 47.2099266,
        "lon": 16.6575292,
        "addr:city": "Szombathely",
        "addr:housenumber": "36",
        "addr:postcode": "9700",
        "addr:street": "Oroszlán utca",
        "building": "residential"
      },
      "geometry": {
        "type": "Point",
        "coordinates": [
          16.6575292,
          47.2099266
        ]
      }
    },
    {
      "type": "Feature",
      "properties": {
        "id": "9013223529",
        "osm_type": "node",
        "lat": 47.2102437,
        "lon": 16.6574165,
        "addr:city": "Szombathely",
        "addr:housenumber": "2",
        "addr:postcode": "9700",
        "addr:street": "Fiastyúk utca",
        "addr:unit": "A",
        "building": "residential"
      },
      "geometry": {
        "type": "Point",
        "coordinates": [
          16.6574165,
          47.2102437
        ]
      }
    },
    {
      "type": "Feature",
      "properties": {
        "id": "9013223532",
        "osm_type": "node",
        "lat": 47.2112021,
        "lon": 16.6563141,
        "addr:city": "Szombathely",
        "addr:housenumber": "13",
        "addr:postcode": "9700",
        "addr:street": "Göncöl utca",
        "building": "residential"
      },
      "geometry": {
        "type": "Point",
        "coordinates": [
          16.6563141,
          47.2112021
        ]
      }
    },
    {
      "type": "Feature",
      "properties": {
        "id": "9013223533",
        "osm_type": "node",
        "lat": 47.2102983,
        "lon": 16.6561934,
        "addr:city": "Szombathely",
        "addr:housenumber": "2",
        "addr:postcode": "9700",
        "addr:street": "Göncöl utca",
        "building": "residential"
      },
      "geometry": {
        "type": "Point",
        "coordinates": [
          16.6561934,
          47.2102983
        ]
      }
    },
    {
      "type": "Feature",
      "properties": {
        "id": "9013223534",
        "osm_type": "node",
        "lat": 47.2106281,
        "lon": 16.6548255,
        "addr:city": "Szombathely",
        "addr:housenumber": "6",
        "addr:postcode": "9700",
        "addr:street": "Skorpió utca",
        "building": "residential"
      },
      "geometry": {
        "type": "Point",
        "coordinates": [
          16.6548255,
          47.2106281
        ]
      }
    },
    {
      "type": "Feature",
      "properties": {
        "id": "9013223535",
        "osm_type": "node",
        "lat": 47.2101963,
        "lon": 16.6548389,
        "addr:city": "Szombathely",
        "addr:housenumber": "2",
        "addr:postcode": "9700",
        "addr:street": "Skorpió utca",
        "addr:unit": "2",
        "building": "residential"
      },
      "geometry": {
        "type": "Point",
        "coordinates": [
          16.6548389,
          47.2101963
        ]
      }
    },
    {
      "type": "Feature",
      "properties": {
        "id": "9013223536",
        "osm_type": "node",
        "lat": 47.2102236,
        "lon": 16.6550803,
        "addr:city": "Szombathely",
        "addr:housenumber": "2",
        "addr:postcode": "9700",
        "addr:street": "Skorpió utca",
        "addr:unit": "1",
        "building": "residential"
      },
      "geometry": {
        "type": "Point",
        "coordinates": [
          16.6550803,
          47.2102236
        ]
      }
    },
    {
      "type": "Feature",
      "properties": {
        "id": "9013223537",
        "osm_type": "node",
        "lat": 47.2103931,
        "lon": 16.6554505,
        "addr:city": "Szombathely",
        "addr:housenumber": "3",
        "addr:postcode": "9700",
        "addr:street": "Skorpió utca",
        "building": "residential"
      },
      "geometry": {
        "type": "Point",
        "coordinates": [
          16.6554505,
          47.2103931
        ]
      }
    },
    {
      "type": "Feature",
      "properties": {
        "id": "9013223538",
        "osm_type": "node",
        "lat": 47.2105534,
        "lon": 16.6553941,
        "addr:city": "Szombathely",
        "addr:housenumber": "5",
        "addr:postcode": "9700",
        "addr:street": "Skorpió utca",
        "building": "residential"
      },
      "geometry": {
        "type": "Point",
        "coordinates": [
          16.6553941,
          47.2105534
        ]
      }
    },
    {
      "type": "Feature",
      "properties": {
        "id": "9013746767",
        "osm_type": "node",
        "lat": 47.2072299,
        "lon": 16.5964472,
        "addr:city": "Szombathely",
        "addr:housenumber": "5",
        "addr:postcode": "9700",
        "addr:street": "Tóth István utca",
        "building": "residential"
      },
      "geometry": {
        "type": "Point",
        "coordinates": [
          16.5964472,
          47.2072299
        ]
      }
    },
    {
      "type": "Feature",
      "properties": {
        "id": "9013746768",
        "osm_type": "node",
        "lat": 47.2075142,
        "lon": 16.59623,
        "addr:city": "Szombathely",
        "addr:housenumber": "1",
        "addr:postcode": "9700",
        "addr:street": "Tóth István utca",
        "building": "residential"
      },
      "geometry": {
        "type": "Point",
        "coordinates": [
          16.59623,
          47.2075142
        ]
      }
    },
    {
      "type": "Feature",
      "properties": {
        "id": "9013746769",
        "osm_type": "node",
        "lat": 47.2275449,
        "lon": 16.581628,
        "addr:city": "Szombathely",
        "addr:housenumber": "97",
        "addr:postcode": "9700",
        "addr:street": "Szent II. János Pál pápa körút",
        "building": "residential"
      },
      "geometry": {
        "type": "Point",
        "coordinates": [
          16.581628,
          47.2275449
        ]
      }
    }
  ],
  "children": []
}