{
  "bbox": {
    "south": 48.355971499999995,
    "west": 11.438358999999998,
    "north": 49.017078,
    "east": 13.345766
  },
  "poiCount": 3,
  "leafCount": 3,
  "averagePosition": [
    12.5000516,
    48.6338782
  ],
  "data": [
    {
      "type": "Feature",
      "properties": {
        "id": "2856196274",
        "osm_type": "node",
        "lat": 48.6408421,
        "lon": 11.7817465,
        "building": "residential"
      },
      "geometry": {
        "type": "Point",
        "coordinates": [
          11.7817465,
          48.6408421
        ]
      }
    },
    {
      "type": "Feature",
      "properties": {
        "id": "4519499631",
        "osm_type": "node",
        "lat": 48.6305044,
        "lon": 12.8601818,
        "addr:city": "Eichendorf",
        "addr:country": "DE",
        "addr:housenumber": "9",
        "addr:postcode": "94428",
        "addr:street": "Joseph-von-Eichendorff-Straße",
        "building": "residential"
      },
      "geometry": {
        "type": "Point",
        "coordinates": [
          12.8601818,
          48.6305044
        ]
      }
    },
    {
      "type": "Feature",
      "properties": {
        "id": "4519499634",
        "osm_type": "node",
        "lat": 48.6302881,
        "lon": 12.8582265,
        "addr:city": "Eichendorf",
        "addr:country": "DE",
        "addr:housenumber": "2",
        "addr:postcode": "94428",
        "addr:street": "Joseph-von-Eichendorff-Straße",
        "building": "residential"
      },
      "geometry": {
        "type": "Point",
        "coordinates": [
          12.8582265,
          48.6302881
        ]
      }
    }
  ],
  "children": []
}