{
  "bbox": {
    "south": 48.355971499999995,
    "west": 9.530952,
    "north": 49.017078,
    "east": 11.438358999999998
  },
  "poiCount": 7,
  "leafCount": 7,
  "averagePosition": [
    10.274724371428572,
    48.633729214285715
  ],
  "data": [
    {
      "type": "Feature",
      "properties": {
        "id": "2001112342",
        "osm_type": "node",
        "lat": 48.8047378,
        "lon": 9.5377787,
        "building": "residential"
      },
      "geometry": {
        "type": "Point",
        "coordinates": [
          9.5377787,
          48.8047378
        ]
      }
    },
    {
      "type": "Feature",
      "properties": {
        "id": "12802757836",
        "osm_type": "node",
        "lat": 48.4077173,
        "lon": 10.0293114,
        "addr:housenumber": "39/1",
        "addr:street": "Friedrichsaustraße",
        "building": "residential"
      },
      "geometry": {
        "type": "Point",
        "coordinates": [
          10.0293114,
          48.4077173
        ]
      }
    },
    {
      "type": "Feature",
      "properties": {
        "id": "12806215337",
        "osm_type": "node",
        "lat": 48.4073647,
        "lon": 10.0284974,
        "building": "residential"
      },
      "geometry": {
        "type": "Point",
        "coordinates": [
          10.0284974,
          48.4073647
        ]
      }
    },
    {
      "type": "Feature",
      "properties": {
        "id": "2556046565",
        "osm_type": "node",
        "lat": 48.5430241,
        "lon": 10.3669033,
        "addr:city": "Gundelfingen an der Donau",
        "addr:country": "DE",
        "addr:housenumber": "66",
        "addr:postcode": "89423",
        "addr:street": "Günzburger Straße",
        "building": "residential"
      },
      "geometry": {
        "type": "Point",
        "coordinates": [
          10.3669033,
          48.5430241
        ]
      }
    },
    {
      "type": "Feature",
      "properties": {
        "id": "13065275748",
        "osm_type": "node",
        "lat": 48.6659639,
        "lon": 10.1657396,
        "addr:city": "Heidenheim an der Brenz",
        "addr:housenumber": "96",
        "addr:postcode": "89522",
        "addr:street": "Giengener Straße",
        "building": "residential",
        "entrance": "home"
      },
      "geometry": {
        "type": "Point",
        "coordinates": [
          10.1657396,
          48.6659639
        ]
      }
    },
    {
      "type": "Feature",
      "properties": {
        "id": "12713784971",
        "osm_type": "node",
        "lat": 48.860155,
        "lon": 10.5740565,
        "addr:city": "Deiningen",
        "addr:housenumber": "19",
        "addr:postcode": "86738",
        "addr:street": "Schulstraße",
        "building": "residential",
        "craft": "cleaning",
        "email": "info@ac-reinigung.com",
        "mobile": "+49 174 9557479",
        "name": "A.C. Gebäudereinigung",
        "phone": "+49 174 9557479",
        "website": "https://ac-gebaeudereinigung.com/"
      },
      "geometry": {
        "type": "Point",
        "coordinates": [
          10.5740565,
          48.860155
        ]
      }
    },
    {
      "type": "Feature",
      "properties": {
        "id": "3000915119",
        "osm_type": "node",
        "lat": 48.7471417,
        "lon": 11.2207837,
        "addr:city": "Neuburg an der Donau",
        "addr:housenumber": "14",
        "addr:postcode": "86633",
        "addr:street": "Zur Au",
        "building": "residential"
      },
      "geometry": {
        "type": "Point",
        "coordinates": [
          11.2207837,
          48.7471417
        ]
      }
    }
  ],
  "children": []
}