{
  "bbox": {
    "south": 47.033758500000005,
    "west": 13.345766,
    "north": 47.694865,
    "east": 15.253173
  },
  "poiCount": 100,
  "leafCount": 0,
  "averagePosition": [
    14.349464431000001,
    47.272076023
  ],
  "data": [],
  "children": [
    {
      "bbox": {
        "south": 47.033758500000005,
        "west": 13.345766,
        "north": 47.36431175,
        "east": 14.2994695
      },
      "poiCount": 25,
      "leafCount": 25,
      "averagePosition": [
        13.889218384000001,
        47.144350128
      ],
      "data": [
        {
          "type": "Feature",
          "properties": {
            "id": "550050826",
            "osm_type": "node",
            "lat": 47.3627593,
            "lon": 13.3827067,
            "addr:city": "Flachau",
            "addr:housenumber": "319",
            "addr:postcode": "5542",
            "addr:street": "Feuersang",
            "brand": "Penny",
            "brand:wikidata": "Q284688",
            "brand:wikipedia": "en:Penny (supermarket)",
            "name": "Penny",
            "opening_hours": "Apr-Nov: Mo-Sa 07:30-19:00; Dec-Mar: Mo-Sa 07:30-18:00",
            "phone": "+43 6457 3296",
            "shop": "supermarket",
            "wheelchair": "yes"
          },
          "geometry": {
            "type": "Point",
            "coordinates": [
              13.3827067,
              47.3627593
            ]
          }
        },
        {
          "type": "Feature",
          "properties": {
            "id": "9017321558",
            "osm_type": "node",
            "lat": 47.0990616,
            "lon": 13.4977782,
            "name": "Murtalladen",
            "shop": "supermarket",
            "website": "http://www.muhr.gv.at/Murtalladen"
          },
          "geometry": {
            "type": "Point",
            "coordinates": [
              13.4977782,
              47.0990616
            ]
          }
        },
        {
          "type": "Feature",
          "properties": {
            "id": "10878065925",
            "osm_type": "node",
            "lat": 47.1513928,
            "lon": 13.509178,
            "name": "Nah & Frisch",
            "shop": "supermarket"
          },
          "geometry": {
            "type": "Point",
            "coordinates": [
              13.509178,
              47.1513928
            ]
          }
        },
        {
          "type": "Feature",
          "properties": {
            "id": "495381699",
            "osm_type": "node",
            "lat": 47.0886712,
            "lon": 13.9830189,
            "addr:city": "Stadl-Predlitz",
            "addr:country": "AT",
            "addr:housenumber": "118a",
            "addr:place": "Stadl an der Mur",
            "addr:postcode": "8862",
            "at_bev:addr_date": "2017-10-01",
            "brand": "Nah & Frisch",
            "brand:wikidata": "Q1963643",
            "brand:wikipedia": "de:Nah & Frisch",
            "name": "Nah & Frisch",
            "phone": "+433534 2001",
            "shop": "supermarket"
          },
          "geometry": {
            "type": "Point",
            "coordinates": [
              13.9830189,
              47.0886712
            ]
          }
        },
        {
          "type": "Feature",
          "properties": {
            "id": "880154013",
            "osm_type": "node",
            "lat": 47.2471275,
            "lon": 13.5608209,
            "addr:city": "Tweng",
            "addr:country": "AT",
            "addr:housenumber": "70",
            "addr:postcode": "5562",
            "addr:street": "Römerstraße",
            "at_bev:addr_date": "2018-04-02",
            "brand": "Spar",
            "brand:wikidata": "Q610492",
            "brand:wikipedia": "en:SPAR (retailer)",
            "name": "Spar",
            "opening_hours": "Mo-Sa 08:00-18:00; PH,Su 14:00-18:00",
            "shop": "supermarket"
          },
          "geometry": {
            "type": "Point",
            "coordinates": [
              13.5608209,
              47.2471275
            ]
          }
        },
        {
          "type": "Feature",
          "properties": {
            "id": "1107651214",
            "osm_type": "node",
            "lat": 47.0578912,
            "lon": 13.6140819,
            "name": "Lärchenhof",
            "shop": "supermarket"
          },
          "geometry": {
            "type": "Point",
            "coordinates": [
              13.6140819,
              47.0578912
            ]
          }
        },
        {
          "type": "Feature",
          "properties": {
            "id": "2289056489",
            "osm_type": "node",
            "lat": 47.0973461,
            "lon": 13.6370402,
            "addr:city": "Sankt Michael im Lungau",
            "addr:housenumber": "6",
            "addr:street": "Postplatz",
            "atm": "yes",
            "brand": "Spar",
            "brand:wikidata": "Q610492",
            "brand:wikipedia": "en:SPAR (retailer)",
            "contact:email": "eh20417@sparmarkt.at",
            "contact:fax": "+43 6477/7161-4",
            "contact:phone": "+43 6477 7161",
            "contact:website": "http://www.spar.at/de_AT/index/standorte.html",
            "name": "Spar",
            "opening_hours": "Mo-Fr 06:50-18:30; Sa 06:50-18:00",
            "shop": "supermarket",
            "wheelchair": "yes"
          },
          "geometry": {
            "type": "Point",
            "coordinates": [
              13.6370402,
              47.0973461
            ]
          }
        },
        {
          "type": "Feature",
          "properties": {
            "id": "3025033374",
            "osm_type": "node",
            "lat": 47.096054,
            "lon": 13.6328516,
            "addr:city": "Sankt Michael im Lungau",
            "addr:country": "AT",
            "addr:housenumber": "582",
            "addr:postcode": "5582",
            "addr:street": "Gewerbestraße",
            "at_bev:addr_date": "2018-04-02",
            "brand": "Billa",
            "brand:wikidata": "Q537781",
            "brand:wikipedia": "de:Billa",
            "contact:phone": "+43 6477 69952",
            "designation": "Supermarket",
            "name": "Billa",
            "opening_hours": "Mo-Fr 07:00-19:00; Sa 07:15-18:00; Su,PH 09:00-13:00",
            "shop": "supermarket",
            "wheelchair": "yes"
          },
          "geometry": {
            "type": "Point",
            "coordinates": [
              13.6328516,
              47.096054
            ]
          }
        },
        {
          "type": "Feature",
          "properties": {
            "id": "3058537588",
            "osm_type": "node",
            "lat": 47.0948752,
            "lon": 13.6396351,
            "addr:city": "Sankt Michael im Lungau",
            "addr:housenumber": "630",
            "addr:postcode": "5582",
            "addr:street": "Murtalstraße",
            "brand": "Hofer",
            "brand:wikidata": "Q15815751",
            "brand:wikipedia": "de:Hofer KG",
            "contact:phone": "+43 57030 35057",
            "int_name": "ALDI",
            "name": "Hofer",
            "opening_hours": "Mo-Fr 07:30-19:15; Sa 07:30-18:00; Su 09:00-13:00",
            "operator": "Hofer KG",
            "shop": "supermarket",
            "wheelchair": "yes"
          },
          "geometry": {
            "type": "Point",
            "coordinates": [
              13.6396351,
              47.0948752
            ]
          }
        },
        {
          "type": "Feature",
          "properties": {
            "id": "3066357418",
            "osm_type": "node",
            "lat": 47.0950218,
            "lon": 13.6386886,
            "addr:city": "Sankt Michael im Lungau",
            "addr:country": "AT",
            "addr:housenumber": "499",
            "addr:postcode": "5582",
            "addr:street": "Murtalstraße",
            "at_bev:addr_date": "2021-04-01",
            "contact:phone": "+43 50321 927767",
            "contact:website": "www.tundg.at",
            "name": "T & G",
            "opening_hours": "Mo-Fr 08:00-19:00; Sa 08:00-18:00",
            "shop": "supermarket"
          },
          "geometry": {
            "type": "Point",
            "coordinates": [
              13.6386886,
              47.0950218
            ]
          }
        },
        {
          "type": "Feature",
          "properties": {
            "id": "9044773594",
            "osm_type": "node",
            "lat": 47.1276022,
            "lon": 13.8114077,
            "brand": "Eurospar",
            "brand:wikidata": "Q12309283",
            "name": "Eurospar",
            "opening_hours": "Mo-Fr 06:50-19:00; Sa 06:50-18:00",
            "phone": "+43647469260",
            "shop": "supermarket",
            "website": "https://www.spar.at/standorte/eurospar-tamsweg-5580-kuenburgstrasse-4"
          },
          "geometry": {
            "type": "Point",
            "coordinates": [
              13.8114077,
              47.1276022
            ]
          }
        },
        {
          "type": "Feature",
          "properties": {
            "id": "9893205998",
            "osm_type": "node",
            "lat": 47.0714239,
            "lon": 13.9097827,
            "brand": "Spar",
            "brand:wikidata": "Q610492",
            "name": "Spar",
            "opening_hours": "Mo-Sa 07:30-12:00, Mo,Tu,Th,Fr 15:30-18:00",
            "shop": "supermarket"
          },
          "geometry": {
            "type": "Point",
            "coordinates": [
              13.9097827,
              47.0714239
            ]
          }
        },
        {
          "type": "Feature",
          "properties": {
            "id": "9982034233",
            "osm_type": "node",
            "lat": 47.0792762,
            "lon": 13.6961433,
            "addr:city": "Sankt Margarethen im Lungau",
            "addr:housenumber": "151",
            "addr:postcode": "5581",
            "addr:street": "Schulgasse",
            "brand": "Nah & Frisch",
            "brand:wikidata": "Q1963643",
            "name": "Nah & Frisch Kroma",
            "opening_hours": "Mo-Tu 06:30-13:00, 15:00-18:00, We 06:30-13:00, Th-Fr 06:30-13:00, 15:00-18:00, Sa 06:30-12:00",
            "shop": "supermarket"
          },
          "geometry": {
            "type": "Point",
            "coordinates": [
              13.6961433,
              47.0792762
            ]
          }
        },
        {
          "type": "Feature",
          "properties": {
            "id": "12139896806",
            "osm_type": "node",
            "lat": 47.0756251,
            "lon": 13.8418809,
            "addr:city": "Ramingstein",
            "addr:housenumber": "2",
            "addr:postcode": "5591",
            "addr:street": "Gemeindeplatz",
            "brand": "Spar",
            "brand:wikidata": "Q610492",
            "name": "Spar",
            "opening_hours": "Mo-Fr 7:00-18:30; Mo-Fr 12:30-14:30 off; Sat 7:00-13:00",
            "shop": "supermarket"
          },
          "geometry": {
            "type": "Point",
            "coordinates": [
              13.8418809,
              47.0756251
            ]
          }
        },
        {
          "type": "Feature",
          "properties": {
            "id": "324694041",
            "osm_type": "node",
            "lat": 47.1044538,
            "lon": 14.0995,
            "addr:postcode": "8861",
            "name": "Spar Wandaler",
            "shop": "supermarket"
          },
          "geometry": {
            "type": "Point",
            "coordinates": [
              14.0995,
              47.1044538
            ]
          }
        },
        {
          "type": "Feature",
          "properties": {
            "id": "471292286",
            "osm_type": "node",
            "lat": 47.3191298,
            "lon": 14.0466196,
            "brand": "ADEG",
            "name": "ADEG",
            "opening_hours": "Mo-Tu,Th-Fr 09:00-12:00,15:00-17:00; We,Sa 08:00-12:00;Su,PH off",
            "shop": "supermarket",
            "wheelchair": "no"
          },
          "geometry": {
            "type": "Point",
            "coordinates": [
              14.0466196,
              47.3191298
            ]
          }
        },
        {
          "type": "Feature",
          "properties": {
            "id": "683080287",
            "osm_type": "node",
            "lat": 47.0684959,
            "lon": 14.2987029,
            "addr:city": "St. Lambrecht",
            "addr:housenumber": "19",
            "addr:postcode": "8813",
            "addr:street": "Hauptstraße",
            "brand": "ADEG",
            "brand:wikidata": "Q290211",
            "brand:wikipedia": "de:ADEG Österreich",
            "name": "ADEG",
            "opening_hours": "Mo-Fr 07:30-18:00; Sa 07:30-12:00",
            "operator": "Grasser",
            "phone": "+43 3585 2272",
            "shop": "supermarket"
          },
          "geometry": {
            "type": "Point",
            "coordinates": [
              14.2987029,
              47.0684959
            ]
          }
        },
        {
          "type": "Feature",
          "properties": {
            "id": "925590983",
            "osm_type": "node",
            "lat": 47.1113111,
            "lon": 14.1892143,
            "addr:country": "AT",
            "addr:housenumber": "76a",
            "addr:postcode": "8850",
            "addr:street": "Sankt Egidi",
            "brand": "Spar",
            "brand:wikidata": "Q610492",
            "brand:wikipedia": "en:Spar (retailer)",
            "contact:phone": "+43 3532 44772",
            "name": "Spar",
            "opening_hours": "Mo-Fr 06:50-19:00; Sa 06:50-18:00",
            "shop": "supermarket",
            "website": "https://www.spar.at/standorte/spar-murau-8850-st-egidi-76a",
            "wheelchair": "limited"
          },
          "geometry": {
            "type": "Point",
            "coordinates": [
              14.1892143,
              47.1113111
            ]
          }
        },
        {
          "type": "Feature",
          "properties": {
            "id": "1075463354",
            "osm_type": "node",
            "lat": 47.1107417,
            "lon": 14.1869862,
            "addr:city": "Laßnitz bei Murau",
            "addr:country": "AT",
            "addr:housenumber": "300",
            "addr:postcode": "8850",
            "addr:street": "Römersiedlungsweg",
            "brand": "Lidl",
            "brand:wikidata": "Q151954",
            "brand:wikipedia": "en:Lidl",
            "contact:phone": "+43 800 500 810",
            "name": "Lidl",
            "opening_hours": "Mo-Fr 07:15-19:30; Sa 07:15-18:00",
            "shop": "supermarket",
            "wheelchair": "yes"
          },
          "geometry": {
            "type": "Point",
            "coordinates": [
              14.1869862,
              47.1107417
            ]
          }
        },
        {
          "type": "Feature",
          "properties": {
            "id": "1096055298",
            "osm_type": "node",
            "lat": 47.1090502,
            "lon": 14.1816421,
            "addr:city": "Murau",
            "addr:country": "AT",
            "addr:housenumber": "31",
            "addr:postcode": "8850",
            "addr:street": "Bahnhofviertel",
            "brand": "Hofer",
            "brand:wikidata": "Q15815751",
            "brand:wikipedia": "de:Hofer KG",
            "contact:phone": "+43 57 0303 5500",
            "name": "Hofer",
            "opening_hours": "Mo-Fr 07:15-19:00; Sa 07:15-18:00",
            "operator": "Hofer KG",
            "shop": "supermarket",
            "wheelchair": "limited"
          },
          "geometry": {
            "type": "Point",
            "coordinates": [
              14.1816421,
              47.1090502
            ]
          }
        },
        {
          "type": "Feature",
          "properties": {
            "id": "1360534804",
            "osm_type": "node",
            "lat": 47.3440207,
            "lon": 14.0322643,
            "name": "Mörschbacher",
            "opening_hours": "Mo-Fr 08:00-12:00,15:00-18:00; We,Sa 08:00-12:00",
            "shop": "supermarket"
          },
          "geometry": {
            "type": "Point",
            "coordinates": [
              14.0322643,
              47.3440207
            ]
          }
        },
        {
          "type": "Feature",
          "properties": {
            "id": "2922004704",
            "osm_type": "node",
            "lat": 47.2033526,
            "lon": 14.2770724,
            "addr:city": "Oberwölz",
            "addr:country": "AT",
            "addr:housenumber": "81",
            "addr:place": "Vorstadt",
            "addr:postcode": "8832",
            "at_bev:addr_date": "2018-10-01",
            "name": "Adeg Hörbiger",
            "shop": "supermarket"
          },
          "geometry": {
            "type": "Point",
            "coordinates": [
              14.2770724,
              47.2033526
            ]
          }
        },
        {
          "type": "Feature",
          "properties": {
            "id": "2922005587",
            "osm_type": "node",
            "lat": 47.2033552,
            "lon": 14.2812304,
            "name": "Spar Prieler Michael",
            "shop": "supermarket"
          },
          "geometry": {
            "type": "Point",
            "coordinates": [
              14.2812304,
              47.2033552
            ]
          }
        },
        {
          "type": "Feature",
          "properties": {
            "id": "3223284214",
            "osm_type": "node",
            "lat": 47.1099927,
            "lon": 14.1700756,
            "addr:city": "Murau",
            "addr:country": "AT",
            "addr:housenumber": "8",
            "addr:postcode": "8850",
            "addr:street": "Anna-Neumann-Straße",
            "at_bev:addr_date": "2018-10-01",
            "name": "Naturstub'n Pirkner",
            "organic": "only",
            "phone": "+43 3532 4387",
            "shop": "supermarket"
          },
          "geometry": {
            "type": "Point",
            "coordinates": [
              14.1700756,
              47.1099927
            ]
          }
        },
        {
          "type": "Feature",
          "properties": {
            "id": "11752169550",
            "osm_type": "node",
            "lat": 47.1807214,
            "lon": 14.1121371,
            "brand": "ADEG",
            "brand:wikidata": "Q290211",
            "name": "ADEG",
            "shop": "supermarket"
          },
          "geometry": {
            "type": "Point",
            "coordinates": [
              14.1121371,
              47.1807214
            ]
          }
        }
      ],
      "children": []
    },
    {
      "bbox": {
        "south": 47.033758500000005,
        "west": 14.2994695,
        "north": 47.36431175,
        "east": 15.253173
      },
      "poiCount": 38,
      "leafCount": 38,
      "averagePosition": [
        14.852450094736843,
        47.15093723157894
      ],
      "data": [
        {
          "type": "Feature",
          "properties": {
            "id": "475553988",
            "osm_type": "node",
            "lat": 47.0791654,
            "lon": 14.4253943,
            "addr:city": "Neumarkt in der Steiermark",
            "addr:country": "AT",
            "addr:housenumber": "29",
            "addr:postcode": "8820",
            "addr:street": "Wiener Straße",
            "brand": "Billa",
            "brand:wikidata": "Q537781",
            "brand:wikipedia": "en:Billa (supermarket)",
            "name": "Billa",
            "opening_hours": "Mo-Fr 07:15-19:30; Sa 07:15-18:00",
            "operator": "Rewe",
            "phone": "+43 3584 4126",
            "shop": "supermarket",
            "wheelchair": "yes"
          },
          "geometry": {
            "type": "Point",
            "coordinates": [
              14.4253943,
              47.0791654
            ]
          }
        },
        {
          "type": "Feature",
          "properties": {
            "id": "477264268",
            "osm_type": "node",
            "lat": 47.1306805,
            "lon": 14.359671,
            "addr:city": "Teufenbach-Katsch",
            "addr:housenumber": "10",
            "addr:postcode": "8833",
            "addr:street": "Hauptstraße",
            "name": "ADEG Glanzer",
            "shop": "supermarket"
          },
          "geometry": {
            "type": "Point",
            "coordinates": [
              14.359671,
              47.1306805
            ]
          }
        },
        {
          "type": "Feature",
          "properties": {
            "id": "2385306599",
            "osm_type": "node",
            "lat": 47.0727178,
            "lon": 14.4302198,
            "addr:city": "Neumarkt in der Steiermark",
            "addr:country": "AT",
            "addr:housenumber": "14",
            "addr:postcode": "8820",
            "addr:street": "Schwimmbadstraße",
            "at_bev:addr_date": "2017-10-01",
            "name": "Landforst",
            "shop": "supermarket"
          },
          "geometry": {
            "type": "Point",
            "coordinates": [
              14.4302198,
              47.0727178
            ]
          }
        },
        {
          "type": "Feature",
          "properties": {
            "id": "6856381516",
            "osm_type": "node",
            "lat": 47.1986619,
            "lon": 14.4447832,
            "addr:city": "Unzmarkt",
            "addr:housenumber": "1",
            "addr:postcode": "8800",
            "addr:street": "Kärntnerstraße",
            "branch": "Tilger",
            "brand": "ADEG",
            "brand:wikidata": "Q290211",
            "name": "ADEG",
            "opening_hours": "Mo-Fr 07:15-12:30,15:00-18:00; Sa 07:15-12:30",
            "phone": "+43 660 3227592",
            "shop": "supermarket",
            "website": "https://www.adeg.at/services/maerkte-oeffnungszeiten/adeg-tilger"
          },
          "geometry": {
            "type": "Point",
            "coordinates": [
              14.4447832,
              47.1986619
            ]
          }
        },
        {
          "type": "Feature",
          "properties": {
            "id": "869160477",
            "osm_type": "node",
            "lat": 47.0674492,
            "lon": 14.6959589,
            "addr:city": "Obdach",
            "addr:country": "AT",
            "addr:housenumber": "40",
            "addr:postcode": "8742",
            "addr:street": "Hauptstraße",
            "name": "Billa",
            "opening_hours": "Mo-Fr 07:15-19:30; Sa 07:15-18:00",
            "phone": "+43 59915 06271",
            "shop": "supermarket",
            "wheelchair": "yes"
          },
          "geometry": {
            "type": "Point",
            "coordinates": [
              14.6959589,
              47.0674492
            ]
          }
        },
        {
          "type": "Feature",
          "properties": {
            "id": "869160783",
            "osm_type": "node",
            "lat": 47.0680307,
            "lon": 14.6957309,
            "addr:country": "AT",
            "addr:housenumber": "37",
            "addr:postcode": "8742",
            "addr:street": "Hauptstraße",
            "name": "Spar",
            "opening_hours": "Mo-Fr 07:00-18:30; Sa 07:00-13:00",
            "shop": "supermarket",
            "survey:date": "2022-06-18"
          },
          "geometry": {
            "type": "Point",
            "coordinates": [
              14.6957309,
              47.0680307
            ]
          }
        },
        {
          "type": "Feature",
          "properties": {
            "id": "1365674166",
            "osm_type": "node",
            "lat": 47.1941948,
            "lon": 14.7220766,
            "name": "M-Rast",
            "shop": "supermarket"
          },
          "geometry": {
            "type": "Point",
            "coordinates": [
              14.7220766,
              47.1941948
            ]
          }
        },
        {
          "type": "Feature",
          "properties": {
            "id": "1670043596",
            "osm_type": "node",
            "lat": 47.1848375,
            "lon": 14.6840809,
            "addr:city": "Fohnsdorf",
            "addr:country": "AT",
            "addr:district": "Murtal",
            "addr:housenumber": "8",
            "addr:postcode": "8753",
            "addr:street": "Arena am Waldfeld",
            "brand": "Lidl",
            "brand:wikidata": "Q151954",
            "brand:wikipedia": "en:Lidl",
            "name": "Lidl",
            "opening_hours": "Mo-Fr 07:15-19:30; Sa 07:15-18:00",
            "shop": "supermarket",
            "website": "https://www.lidl.at/de/index.htm"
          },
          "geometry": {
            "type": "Point",
            "coordinates": [
              14.6840809,
              47.1848375
            ]
          }
        },
        {
          "type": "Feature",
          "properties": {
            "id": "1678540863",
            "osm_type": "node",
            "lat": 47.1834462,
            "lon": 14.6752157,
            "addr:city": "Fohnsdorf",
            "addr:country": "AT",
            "addr:district": "Murtal",
            "addr:housenumber": "1",
            "addr:postcode": "8753",
            "addr:street": "Marktstraße",
            "at_bev:addr_date": "2017-04-07",
            "branch": "Gabelhofen",
            "brand": "Eurospar",
            "brand:wikidata": "Q12309283",
            "brand:wikipedia": "da:Eurospar",
            "name": "Eurospar",
            "opening_hours": "Mo-Fr 06:50-19:00; Sa 06:50-18:00",
            "phone": "+43 3572/84545",
            "shop": "supermarket",
            "website": "https://www.spar.at/standorte/eurospar-fohnsdorf-8753-marktstrasse-1",
            "wheelchair": "yes"
          },
          "geometry": {
            "type": "Point",
            "coordinates": [
              14.6752157,
              47.1834462
            ]
          }
        },
        {
          "type": "Feature",
          "properties": {
            "id": "1685152544",
            "osm_type": "node",
            "lat": 47.2101624,
            "lon": 14.8139724,
            "addr:city": "Knittelfeld",
            "addr:country": "AT",
            "addr:housenumber": "26",
            "addr:postcode": "8720",
            "addr:street": "Ghegastraße",
            "contact:phone": "+43 3512 71350",
            "name": "Fleischabholmarkt",
            "shop": "supermarket",
            "wheelchair": "yes"
          },
          "geometry": {
            "type": "Point",
            "coordinates": [
              14.8139724,
              47.2101624
            ]
          }
        },
        {
          "type": "Feature",
          "properties": {
            "id": "1699971844",
            "osm_type": "node",
            "lat": 47.2145871,
            "lon": 14.8269361,
            "addr:city": "Knittelfeld",
            "addr:country": "AT",
            "addr:housenumber": "1",
            "addr:postcode": "8720",
            "addr:street": "Kapuzinerplatz",
            "contact:mobile": "+43 664 7510 7005",
            "name": "Bioladen",
            "opening_hours": "Mo-Fr 08:00-18:00; Sa 08:00-12:30",
            "organic": "Bioladen",
            "shop": "supermarket",
            "website": "https://bioladen-bioleben.weebly.com/"
          },
          "geometry": {
            "type": "Point",
            "coordinates": [
              14.8269361,
              47.2145871
            ]
          }
        },
        {
          "type": "Feature",
          "properties": {
            "id": "2045975993",
            "osm_type": "node",
            "lat": 47.2185574,
            "lon": 14.8278412,
            "addr:city": "Knittelfeld",
            "addr:country": "AT",
            "addr:district": "Murtal",
            "addr:housenumber": "25",
            "addr:postcode": "8720",
            "addr:street": "Wiener Straße",
            "brand": "Lidl",
            "brand:wikidata": "Q151954",
            "brand:wikipedia": "en:Lidl",
            "name": "Lidl",
            "opening_hours": "Mo-Fr 07:15-19:30; Sa 07:15-18:00",
            "shop": "supermarket",
            "website": "https://www.lidl.at/de/index.htm"
          },
          "geometry": {
            "type": "Point",
            "coordinates": [
              14.8278412,
              47.2185574
            ]
          }
        },
        {
          "type": "Feature",
          "properties": {
            "id": "3908010589",
            "osm_type": "node",
            "lat": 47.2158182,
            "lon": 14.7925382,
            "addr:city": "Spielberg",
            "addr:country": "AT",
            "addr:housenumber": "54",
            "addr:postcode": "8724",
            "addr:street": "Maßweger-Straße",
            "at_bev:addr_date": "2017-10-01",
            "email": "eh50022@sparmarkt.at",
            "fax": "+43 3512/83208",
            "name": "Trettenbrein",
            "phone": "+43 3512/83208",
            "shop": "supermarket",
            "website": "https://www.spar.at/standorte/spar-spielberg-8724-masswegerstrasse-54"
          },
          "geometry": {
            "type": "Point",
            "coordinates": [
              14.7925382,
              47.2158182
            ]
          }
        },
        {
          "type": "Feature",
          "properties": {
            "id": "4544755389",
            "osm_type": "node",
            "lat": 47.2108377,
            "lon": 14.815219,
            "addr:city": "Knittelfeld",
            "addr:housenumber": "74",
            "addr:postcode": "8720",
            "addr:street": "Kärntner Straße",
            "brand": "Billa",
            "brand:wikidata": "Q537781",
            "brand:wikipedia": "de:Billa",
            "name": "Billa",
            "opening_hours": "Mo-Fr 07:15-19:30; Sa 07:15-18:00",
            "phone": "+43 59915 06864",
            "shop": "supermarket",
            "wheelchair": "yes"
          },
          "geometry": {
            "type": "Point",
            "coordinates": [
              14.815219,
              47.2108377
            ]
          }
        },
        {
          "type": "Feature",
          "properties": {
            "id": "4764167714",
            "osm_type": "node",
            "lat": 47.2097849,
            "lon": 14.8133334,
            "addr:city": "Knittelfeld",
            "addr:housenumber": "69",
            "addr:postcode": "8720",
            "addr:street": "Kärntner Straße",
            "brand": "Hofer",
            "brand:wikidata": "Q15815751",
            "brand:wikipedia": "de:Hofer KG",
            "contact:phone": "+43 57 0303 5035",
            "name": "Hofer",
            "opening_hours": "Mo-Fr 07:30-19:00; Sa 07:30-18:00",
            "operator": "Hofer KG",
            "shop": "supermarket"
          },
          "geometry": {
            "type": "Point",
            "coordinates": [
              14.8133334,
              47.2097849
            ]
          }
        },
        {
          "type": "Feature",
          "properties": {
            "id": "4764169391",
            "osm_type": "node",
            "lat": 47.2107755,
            "lon": 14.8081093,
            "addr:city": "Knittelfeld",
            "addr:housenumber": "100",
            "addr:postcode": "8720",
            "addr:street": "Kärntner Straße",
            "brand": "Eurospar",
            "brand:wikidata": "Q12309283",
            "brand:wikipedia": "da:Eurospar",
            "name": "Eurospar",
            "opening_hours": "Mo-Fr 07:15-19:30; Sa 07:15-18:00",
            "phone": "+43 3512 60503",
            "shop": "supermarket"
          },
          "geometry": {
            "type": "Point",
            "coordinates": [
              14.8081093,
              47.2107755
            ]
          }
        },
        {
          "type": "Feature",
          "properties": {
            "id": "4876553821",
            "osm_type": "node",
            "lat": 47.2164426,
            "lon": 14.5758202,
            "addr:city": "Pöls-Oberkurzheim",
            "addr:country": "AT",
            "addr:housenumber": "22",
            "addr:postcode": "8761",
            "addr:street": "Tauernstraße",
            "at_bev:addr_date": "2017-04-07",
            "branch": "Pöls",
            "brand": "Spar",
            "brand:wikidata": "Q610492",
            "check_date": "2025-04-13",
            "contact:phone": "+43 3579 20550",
            "name": "Spar",
            "opening_hours": "Mo-Fr 07:00-19:00; Sa 07:00-18:00",
            "shop": "supermarket",
            "wheelchair": "yes"
          },
          "geometry": {
            "type": "Point",
            "coordinates": [
              14.5758202,
              47.2164426
            ]
          }
        },
        {
          "type": "Feature",
          "properties": {
            "id": "5060542923",
            "osm_type": "node",
            "lat": 47.2709107,
            "lon": 14.7039098,
            "name": "Spar",
            "name:de": "Spar",
            "name:en": "Spar",
            "shop": "supermarket"
          },
          "geometry": {
            "type": "Point",
            "coordinates": [
              14.7039098,
              47.2709107
            ]
          }
        },
        {
          "type": "Feature",
          "properties": {
            "id": "5076499458",
            "osm_type": "node",
            "lat": 47.219348,
            "lon": 14.8422926,
            "branch": "Markt",
            "brand": "Spar",
            "brand:wikidata": "Q610492",
            "email": "office@landforst.at",
            "name": "Spar",
            "opening_hours": "Mo-Fr 07:30-18:30; Sa 07:30-17:00",
            "phone": "+43 3512 86160150",
            "shop": "supermarket"
          },
          "geometry": {
            "type": "Point",
            "coordinates": [
              14.8422926,
              47.219348
            ]
          }
        },
        {
          "type": "Feature",
          "properties": {
            "id": "5352417456",
            "osm_type": "node",
            "lat": 47.1695161,
            "lon": 14.6542838,
            "addr:city": "Judenburg",
            "addr:country": "AT",
            "addr:housenumber": "2",
            "addr:postcode": "8750",
            "addr:street": "Frauengasse",
            "at_bev:addr_date": "2017-10-01",
            "branch": "Judenburg",
            "brand": "Eurospar",
            "brand:wikidata": "Q12309283",
            "name": "Eurospar",
            "opening_hours": "Mo-Fr 06:50-19:00; Sa 06:50-18:00",
            "shop": "supermarket",
            "source:address": "basemap.at"
          },
          "geometry": {
            "type": "Point",
            "coordinates": [
              14.6542838,
              47.1695161
            ]
          }
        },
        {
          "type": "Feature",
          "properties": {
            "id": "5600399747",
            "osm_type": "node",
            "lat": 47.1681485,
            "lon": 14.6609464,
            "addr:city": "Judenburg",
            "addr:country": "AT",
            "addr:district": "Murtal",
            "addr:housenumber": "18",
            "addr:postcode": "8750",
            "addr:street": "Hauptplatz",
            "name": "bio, chic & fair",
            "organic": "yes",
            "phone": "+43 3572 42801",
            "shop": "supermarket",
            "website": "https://www.facebook.com/pg/bio.chic.fair/about/?ref=page_internal"
          },
          "geometry": {
            "type": "Point",
            "coordinates": [
              14.6609464,
              47.1681485
            ]
          }
        },
        {
          "type": "Feature",
          "properties": {
            "id": "8400254455",
            "osm_type": "node",
            "lat": 47.2103776,
            "lon": 14.7849758,
            "addr:city": "Spielberg",
            "addr:country": "AT",
            "addr:housenumber": "4",
            "addr:postcode": "8724",
            "addr:street": "Ring Rast Straße",
            "email": "office@ringrast.at",
            "name": "Ringrast Shop",
            "opening_hours": "Mo-Su 06:00-21:00",
            "phone": "+43351220420",
            "shop": "supermarket",
            "website": "https://ringrast.at/car-cleaning/",
            "wheelchair": "yes"
          },
          "geometry": {
            "type": "Point",
            "coordinates": [
              14.7849758,
              47.2103776
            ]
          }
        },
        {
          "type": "Feature",
          "properties": {
            "id": "10812630503",
            "osm_type": "node",
            "lat": 47.319625,
            "lon": 14.9760578,
            "addr:city": "Sankt Stefan ob Leoben",
            "addr:housenumber": "2",
            "addr:postcode": "8713",
            "addr:street": "Untere Dorfstraße",
            "brand": "Unimarkt",
            "brand:wikidata": "Q1169599",
            "email": "859@unimarkt.at",
            "name": "Unimarkt",
            "opening_hours": "Mo-Fr 07:00-18:30; Sa 07:30-13:00; PH closed",
            "phone": "+43 3832 33711",
            "shop": "supermarket",
            "website": "https://unimarkt.at/standort/unimarkt-st-stefan-ob-leoben/"
          },
          "geometry": {
            "type": "Point",
            "coordinates": [
              14.9760578,
              47.319625
            ]
          }
        },
        {
          "type": "Feature",
          "properties": {
            "id": "12444197281",
            "osm_type": "node",
            "lat": 47.1941088,
            "lon": 14.7438186,
            "name": "Billa",
            "shop": "supermarket",
            "wheelchair": "yes"
          },
          "geometry": {
            "type": "Point",
            "coordinates": [
              14.7438186,
              47.1941088
            ]
          }
        },
        {
          "type": "Feature",
          "properties": {
            "id": "12820429881",
            "osm_type": "node",
            "lat": 47.1853439,
            "lon": 14.8096012,
            "addr:country": "AT",
            "addr:housenumber": "10",
            "addr:place": "Großlobming",
            "addr:postcode": "8734",
            "addr:state": "Steiermark",
            "addr:street": "Hauptstraße",
            "brand": "ADEG",
            "name": "ADEG",
            "opening_hours": "Mo-Fr 07:30-18:00, Sa 07:30-12:00",
            "shop": "supermarket"
          },
          "geometry": {
            "type": "Point",
            "coordinates": [
              14.8096012,
              47.1853439
            ]
          }
        },
        {
          "type": "Feature",
          "properties": {
            "id": "26759221",
            "osm_type": "node",
            "lat": 47.0632022,
            "lon": 15.0932397,
            "addr:city": "Köflach",
            "addr:country": "AT",
            "addr:housenumber": "17",
            "addr:postcode": "8580",
            "addr:street": "Mühlgasse",
            "brand": "Billa Plus",
            "brand:wikidata": "Q115431077",
            "contact:phone": "+43 3144 715 16",
            "name": "Billa Plus",
            "old_name": "Merkur",
            "opening_hours": "Mo-Fr 07:15-19:30; Sa 07:15-18:00",
            "roof:colour": "grey",
            "roof:shape": "flat",
            "shop": "supermarket",
            "website": "https://www.billa.at",
            "wheelchair": "yes"
          },
          "geometry": {
            "type": "Point",
            "coordinates": [
              15.0932397,
              47.0632022
            ]
          }
        },
        {
          "type": "Feature",
          "properties": {
            "id": "550178281",
            "osm_type": "node",
            "lat": 47.0534971,
            "lon": 15.1295305,
            "addr:city": "Bärnbach",
            "addr:country": "AT",
            "addr:housenumber": "18",
            "addr:postcode": "8572",
            "addr:street": "Packer Straße",
            "at_bev:addr_date": "2018-10-01",
            "brand": "Spar",
            "brand:wikidata": "Q610492",
            "brand:wikipedia": "en:SPAR (retailer)",
            "name": "Spar",
            "opening_hours": "Mo-Fr 07:15-19:00; Sa 07:15-18:00",
            "shop": "supermarket"
          },
          "geometry": {
            "type": "Point",
            "coordinates": [
              15.1295305,
              47.0534971
            ]
          }
        },
        {
          "type": "Feature",
          "properties": {
            "id": "1273384822",
            "osm_type": "node",
            "lat": 47.0474443,
            "lon": 15.1572025,
            "addr:housenumber": "21",
            "addr:postcode": "8570",
            "addr:street": "Grazer Vorstadt",
            "brand": "Spar",
            "brand:wikidata": "Q610492",
            "brand:wikipedia": "en:SPAR (retailer)",
            "contact:phone": "+43 3142 28524",
            "name": "Spar",
            "opening_hours": "Mo-Fr 07:15-19:30; Sa 07:15-18:00",
            "operator": "Spar",
            "shop": "supermarket",
            "wheelchair": "yes"
          },
          "geometry": {
            "type": "Point",
            "coordinates": [
              15.1572025,
              47.0474443
            ]
          }
        },
        {
          "type": "Feature",
          "properties": {
            "id": "1417890894",
            "osm_type": "node",
            "lat": 47.0489388,
            "lon": 15.2194987,
            "addr:city": "Stallhofen",
            "addr:country": "AT",
            "addr:housenumber": "1",
            "addr:postcode": "8152",
            "addr:street": "Marktplatz",
            "branch": "Kaufhaus Pammer",
            "brand": "Spar",
            "brand:wikidata": "Q610492",
            "contact:phone": "+43 3142 221 61",
            "level": "0",
            "name": "Spar",
            "opening_hours": "Mo-Fr 06:00-18:30; Sa 07:00-18:00",
            "shop": "supermarket",
            "website": "https://spar-pammer.at/kontakt"
          },
          "geometry": {
            "type": "Point",
            "coordinates": [
              15.2194987,
              47.0489388
            ]
          }
        },
        {
          "type": "Feature",
          "properties": {
            "id": "1630564471",
            "osm_type": "node",
            "lat": 47.0515824,
            "lon": 15.1416203,
            "addr:city": "Voitsberg",
            "addr:country": "AT",
            "addr:housenumber": "27",
            "addr:postcode": "8570",
            "addr:street": "Conrad-von-Hötzendorf-Straße",
            "brand": "Eurospar",
            "brand:wikidata": "Q12309283",
            "brand:wikipedia": "da:Eurospar",
            "name": "Eurospar",
            "opening_hours": "Mo-Fr 07:15-19:00; Sa 07:15-18:00",
            "shop": "supermarket",
            "wheelchair": "yes"
          },
          "geometry": {
            "type": "Point",
            "coordinates": [
              15.1416203,
              47.0515824
            ]
          }
        },
        {
          "type": "Feature",
          "properties": {
            "id": "1702495254",
            "osm_type": "node",
            "lat": 47.0631496,
            "lon": 15.0820683,
            "addr:city": "Köflach",
            "addr:country": "AT",
            "addr:housenumber": "3",
            "addr:postcode": "8580",
            "addr:street": "Quergasse",
            "brand": "PENNY",
            "brand:wikidata": "Q284688",
            "brand:wikipedia": "en:Penny (supermarket)",
            "name": "PENNY",
            "opening_hours": "Mo-Fr 07:30-19:00; Sa 07:30-18:00",
            "shop": "supermarket",
            "wheelchair": "yes"
          },
          "geometry": {
            "type": "Point",
            "coordinates": [
              15.0820683,
              47.0631496
            ]
          }
        },
        {
          "type": "Feature",
          "properties": {
            "id": "1723096601",
            "osm_type": "node",
            "lat": 47.0706114,
            "lon": 15.1280191,
            "addr:city": "Bärnbach",
            "addr:country": "AT",
            "addr:housenumber": "2",
            "addr:postcode": "8572",
            "addr:street": "Hauptplatz",
            "brand": "Billa",
            "brand:wikidata": "Q537781",
            "brand:wikipedia": "en:Billa (supermarket)",
            "contact:phone": "+43 3142 62551",
            "contact:website": "+43 59 9150 6145",
            "name": "Billa",
            "opening_hours": "Mo-Fr 07:15-19:30; Sa 07:15-18:00",
            "shop": "supermarket",
            "wheelchair": "yes"
          },
          "geometry": {
            "type": "Point",
            "coordinates": [
              15.1280191,
              47.0706114
            ]
          }
        },
        {
          "type": "Feature",
          "properties": {
            "id": "1768650126",
            "osm_type": "node",
            "lat": 47.0388111,
            "lon": 15.1648732,
            "addr:city": "Voitsberg",
            "addr:country": "AT",
            "addr:housenumber": "116",
            "addr:postcode": "8570",
            "addr:street": "Grazer Vorstadt",
            "brand": "Hofer",
            "brand:wikidata": "Q15815751",
            "brand:wikipedia": "de:Hofer KG",
            "contact:phone": "+43 57 0303 1052",
            "name": "Hofer",
            "opening_hours": "Mo-Fr 07:15-19:30; Sa 07:15-18:00",
            "shop": "supermarket"
          },
          "geometry": {
            "type": "Point",
            "coordinates": [
              15.1648732,
              47.0388111
            ]
          }
        },
        {
          "type": "Feature",
          "properties": {
            "id": "2362824368",
            "osm_type": "node",
            "lat": 47.2237291,
            "lon": 15.2432253,
            "addr:housenumber": "267",
            "addr:postcode": "8124",
            "addr:street": "Am Sonnenhang",
            "branch": "Benedikt",
            "brand": "Nah & Frisch",
            "brand:wikidata": "Q1963643",
            "brand:wikipedia": "de:Nah & Frisch",
            "name": "Nah & Frisch",
            "operator": "Annemarie Benedikt",
            "phone": "+433125 20 970",
            "shop": "supermarket",
            "website": "https://www.nahundfrisch.at/"
          },
          "geometry": {
            "type": "Point",
            "coordinates": [
              15.2432253,
              47.2237291
            ]
          }
        },
        {
          "type": "Feature",
          "properties": {
            "id": "3235314750",
            "osm_type": "node",
            "lat": 47.1397371,
            "lon": 15.094924,
            "brand": "Spar",
            "brand:wikidata": "Q610492",
            "brand:wikipedia": "en:Spar (retailer)",
            "check_date": "2024-05-11",
            "name": "Spar",
            "shop": "supermarket"
          },
          "geometry": {
            "type": "Point",
            "coordinates": [
              15.094924,
              47.1397371
            ]
          }
        },
        {
          "type": "Feature",
          "properties": {
            "id": "4061576494",
            "osm_type": "node",
            "lat": 47.0794615,
            "lon": 15.1256963,
            "addr:city": "Bärnbach",
            "addr:country": "AT",
            "addr:housenumber": "58",
            "addr:postcode": "8572",
            "addr:street": "Hauptstraße",
            "brand": "Spar",
            "brand:wikidata": "Q610492",
            "brand:wikipedia": "en:Spar (retailer)",
            "name": "Spar",
            "phone": "+43 3142 62499",
            "shop": "supermarket",
            "website": "https://www.spar.at"
          },
          "geometry": {
            "type": "Point",
            "coordinates": [
              15.1256963,
              47.0794615
            ]
          }
        },
        {
          "type": "Feature",
          "properties": {
            "id": "7524058186",
            "osm_type": "node",
            "lat": 47.0623355,
            "lon": 15.0655402,
            "brand": "Nah & Frisch",
            "brand:wikidata": "Q1963643",
            "contact:phone": "+43 3144 71676",
            "name": "Nah & Frisch",
            "opening_hours": "Mo, We, Th 07:00-12:30, 14:30-18:00; Tu, Fr 07:00-12:30; Sa 08:00-12:00",
            "operator": "Waltraud Wölkart",
            "shop": "supermarket",
            "website": "https://www.nahundfrisch.at/de/kaufmann/woelkart-waltraud"
          },
          "geometry": {
            "type": "Point",
            "coordinates": [
              15.0655402,
              47.0623355
            ]
          }
        },
        {
          "type": "Feature",
          "properties": {
            "id": "11739780957",
            "osm_type": "node",
            "lat": 47.1695863,
            "lon": 15.1648784,
            "brand": "Nah & Frisch",
            "brand:wikidata": "Q1963643",
            "name": "Nah & Frisch",
            "shop": "supermarket"
          },
          "geometry": {
            "type": "Point",
            "coordinates": [
              15.1648784,
              47.1695863
            ]
          }
        }
      ],
      "children": []
    },
    {
      "bbox": {
        "south": 47.36431175,
        "west": 13.345766,
        "north": 47.694865,
        "east": 14.2994695
      },
      "poiCount": 24,
      "leafCount": 24,
      "averagePosition": [
        13.736600329166668,
        47.464679387500006
      ],
      "data": [
        {
          "type": "Feature",
          "properties": {
            "id": "656251429",
            "osm_type": "node",
            "lat": 47.379803,
            "lon": 13.4202745,
            "addr:city": "Altenmarkt im Pongau",
            "addr:housenumber": "26",
            "addr:postcode": "5541",
            "addr:street": "Obere Marktstraße",
            "brand": "Spar",
            "brand:wikidata": "Q610492",
            "brand:wikipedia": "en:SPAR (retailer)",
            "name": "Spar",
            "phone": "+43 6452 5813",
            "shop": "supermarket",
            "website": "https://www.spar.at/standorte/spar-altenmarkt-im-pongau-5541-obere-marktstrasse-26"
          },
          "geometry": {
            "type": "Point",
            "coordinates": [
              13.4202745,
              47.379803
            ]
          }
        },
        {
          "type": "Feature",
          "properties": {
            "id": "825450748",
            "osm_type": "node",
            "lat": 47.3791889,
            "lon": 13.4726416,
            "addr:city": "Radstadt",
            "addr:country": "AT",
            "addr:housenumber": "30",
            "addr:postcode": "5550",
            "addr:street": "Tauernstraße",
            "at_bev:addr_date": "2017-10-01",
            "brand": "Billa",
            "brand:wikidata": "Q537781",
            "brand:wikipedia": "de:Billa",
            "name": "Billa",
            "opening_hours": "Mo-Fr 07:00-19:15, Sa 07:15-18:00",
            "phone": "+435991505359",
            "shop": "supermarket",
            "website": "https://www.billa.at/",
            "wheelchair": "yes"
          },
          "geometry": {
            "type": "Point",
            "coordinates": [
              13.4726416,
              47.3791889
            ]
          }
        },
        {
          "type": "Feature",
          "properties": {
            "id": "850571326",
            "osm_type": "node",
            "lat": 47.3847672,
            "lon": 13.4584222,
            "addr:city": "Radstadt",
            "addr:housenumber": "9",
            "addr:postcode": "5550",
            "addr:street": "Salzburger Straße",
            "brand": "Penny",
            "brand:wikidata": "Q284688",
            "brand:wikipedia": "en:Penny (supermarket)",
            "name": "PENNY",
            "opening_hours": "Mo-Fr 07:15-19:00; Sa 07:15-18:00; Su off",
            "shop": "supermarket",
            "wheelchair": "yes"
          },
          "geometry": {
            "type": "Point",
            "coordinates": [
              13.4584222,
              47.3847672
            ]
          }
        },
        {
          "type": "Feature",
          "properties": {
            "id": "854358508",
            "osm_type": "node",
            "lat": 47.3812107,
            "lon": 13.4120954,
            "name": "AGM",
            "shop": "supermarket"
          },
          "geometry": {
            "type": "Point",
            "coordinates": [
              13.4120954,
              47.3812107
            ]
          }
        },
        {
          "type": "Feature",
          "properties": {
            "id": "1184554235",
            "osm_type": "node",
            "lat": 47.3845472,
            "lon": 13.4613138,
            "shop": "supermarket"
          },
          "geometry": {
            "type": "Point",
            "coordinates": [
              13.4613138,
              47.3845472
            ]
          }
        },
        {
          "type": "Feature",
          "properties": {
            "id": "2684231782",
            "osm_type": "node",
            "lat": 47.4086101,
            "lon": 13.3947719,
            "brand": "Spar",
            "brand:wikidata": "Q610492",
            "brand:wikipedia": "en:SPAR (retailer)",
            "name": "Spar",
            "shop": "supermarket",
            "wheelchair": "yes"
          },
          "geometry": {
            "type": "Point",
            "coordinates": [
              13.3947719,
              47.4086101
            ]
          }
        },
        {
          "type": "Feature",
          "properties": {
            "id": "4353438446",
            "osm_type": "node",
            "lat": 47.4324887,
            "lon": 13.523061,
            "addr:city": "Filzmoos",
            "addr:country": "AT",
            "addr:housenumber": "5",
            "addr:postcode": "5532",
            "addr:street": "Gemeindestraße",
            "alt_name": "MPreis, mpreis, M-Preis, Mpreis",
            "brand": "MPREIS",
            "brand:wikidata": "Q873491",
            "brand:wikipedia": "de:MPreis",
            "name": "MPREIS",
            "operator": "MPREIS Warenvertriebs GmbH",
            "shop": "supermarket"
          },
          "geometry": {
            "type": "Point",
            "coordinates": [
              13.523061,
              47.4324887
            ]
          }
        },
        {
          "type": "Feature",
          "properties": {
            "id": "8850792415",
            "osm_type": "node",
            "lat": 47.3819998,
            "lon": 13.4284438,
            "addr:city": "Altenmarkt im Pongau",
            "addr:housenumber": "1",
            "addr:postcode": "5541",
            "addr:street": "Bahnhofstraße",
            "description": "Supermarkt und Getränkehandel",
            "name": "T&G",
            "opening_hours": "Mo-Fr 08:00-19:00; Sa 08:00-18:00",
            "operator": "MPREIS Warenvertriebs GmbH",
            "phone": "+43 50321 927837",
            "shop": "supermarket",
            "website": "https://www.tundg.at"
          },
          "geometry": {
            "type": "Point",
            "coordinates": [
              13.4284438,
              47.3819998
            ]
          }
        },
        {
          "type": "Feature",
          "properties": {
            "id": "559500896",
            "osm_type": "node",
            "lat": 47.3911278,
            "lon": 13.6594836,
            "addr:city": "Schladming",
            "addr:housenumber": "239",
            "addr:postcode": "8970",
            "addr:street": "Salzburger Siedlung",
            "brand": "Penny",
            "brand:wikidata": "Q284688",
            "brand:wikipedia": "en:Penny (supermarket)",
            "name": "PENNY",
            "shop": "supermarket",
            "wheelchair": "yes"
          },
          "geometry": {
            "type": "Point",
            "coordinates": [
              13.6594836,
              47.3911278
            ]
          }
        },
        {
          "type": "Feature",
          "properties": {
            "id": "894235379",
            "osm_type": "node",
            "lat": 47.44756,
            "lon": 13.9030196,
            "brand": "Spar",
            "brand:wikidata": "Q610492",
            "brand:wikipedia": "en:Spar (retailer)",
            "contact:phone": "+43 3685 22311",
            "name": "Spar",
            "opening_hours": "Mo-Fr 07:00-19:00; Sa 07:00-18:00",
            "shop": "supermarket"
          },
          "geometry": {
            "type": "Point",
            "coordinates": [
              13.9030196,
              47.44756
            ]
          }
        },
        {
          "type": "Feature",
          "properties": {
            "id": "1044751358",
            "osm_type": "node",
            "lat": 47.393984,
            "lon": 13.681571,
            "name": "Eurogast",
            "shop": "supermarket"
          },
          "geometry": {
            "type": "Point",
            "coordinates": [
              13.681571,
              47.393984
            ]
          }
        },
        {
          "type": "Feature",
          "properties": {
            "id": "1044942371",
            "osm_type": "node",
            "lat": 47.3913717,
            "lon": 13.6830634,
            "addr:city": "Schladming",
            "addr:postcode": "8970",
            "addr:street": "Salzburgerstraße",
            "brand": "Unimarkt",
            "brand:wikidata": "Q1169599",
            "brand:wikipedia": "de:Unimarkt",
            "name": "Unimarkt",
            "opening_hours": "Mo-Fr 07:30-19:00; Sa 07:30-18:00",
            "shop": "supermarket",
            "wheelchair": "yes"
          },
          "geometry": {
            "type": "Point",
            "coordinates": [
              13.6830634,
              47.3913717
            ]
          }
        },
        {
          "type": "Feature",
          "properties": {
            "id": "2351445203",
            "osm_type": "node",
            "lat": 47.3931285,
            "lon": 13.6924145,
            "brand": "Billa",
            "brand:wikidata": "Q537781",
            "brand:wikipedia": "en:Billa (supermarket)",
            "name": "Billa",
            "opening_hours": "Mo-Fr 07:15-19:30; Sa 07:15-18:00",
            "operator": "Billa",
            "phone": "+43 3687 23396",
            "shop": "supermarket",
            "wheelchair": "yes"
          },
          "geometry": {
            "type": "Point",
            "coordinates": [
              13.6924145,
              47.3931285
            ]
          }
        },
        {
          "type": "Feature",
          "properties": {
            "id": "3007001632",
            "osm_type": "node",
            "lat": 47.6105428,
            "lon": 13.784891,
            "brand": "Billa",
            "brand:wikidata": "Q537781",
            "brand:wikipedia": "de:Billa",
            "name": "Billa",
            "opening_hours": "Mo-Fr 07:00-19:15; Sa 07:15-18:00",
            "shop": "supermarket",
            "website": "https://www.billa.at/",
            "wheelchair": "yes"
          },
          "geometry": {
            "type": "Point",
            "coordinates": [
              13.784891,
              47.6105428
            ]
          }
        },
        {
          "type": "Feature",
          "properties": {
            "id": "3325985343",
            "osm_type": "node",
            "lat": 47.6260643,
            "lon": 13.8365756,
            "addr:city": "Grundlsee",
            "addr:country": "AT",
            "addr:housenumber": "42",
            "addr:postcode": "8993",
            "addr:street": "Bräuhof",
            "brand": "Unimarkt",
            "brand:wikidata": "Q1169599",
            "brand:wikipedia": "de:Unimarkt",
            "name": "Unimarkt",
            "opening_hours": "Mo-Su 07:00-22:00",
            "shop": "supermarket",
            "website": "https://unimarkt.at/",
            "wheelchair": "yes"
          },
          "geometry": {
            "type": "Point",
            "coordinates": [
              13.8365756,
              47.6260643
            ]
          }
        },
        {
          "type": "Feature",
          "properties": {
            "id": "7796191707",
            "osm_type": "node",
            "lat": 47.6904644,
            "lon": 13.6234835,
            "branch": "Plus",
            "brand": "Billa Plus",
            "brand:wikidata": "Q115431077",
            "brand:wikipedia": "de:Billa",
            "name": "Billa Plus",
            "old_name": "Merkur",
            "opening_hours": "Mo-Th 07:20-19:30; Fr 07:20-20:00; Sa 07:20-18:00",
            "shop": "supermarket",
            "website": "https://www.billa.at",
            "wheelchair": "yes"
          },
          "geometry": {
            "type": "Point",
            "coordinates": [
              13.6234835,
              47.6904644
            ]
          }
        },
        {
          "type": "Feature",
          "properties": {
            "id": "8565065802",
            "osm_type": "node",
            "lat": 47.4493505,
            "lon": 13.9014959,
            "brand": "Unimarkt",
            "brand:wikidata": "Q1169599",
            "brand:wikipedia": "de:Unimarkt",
            "name": "Unimarkt",
            "shop": "supermarket"
          },
          "geometry": {
            "type": "Point",
            "coordinates": [
              13.9014959,
              47.4493505
            ]
          }
        },
        {
          "type": "Feature",
          "properties": {
            "id": "9066234690",
            "osm_type": "node",
            "lat": 47.5632739,
            "lon": 13.8214743,
            "name": "Genussladen",
            "opening_hours": "10:00-16:00",
            "shop": "supermarket"
          },
          "geometry": {
            "type": "Point",
            "coordinates": [
              13.8214743,
              47.5632739
            ]
          }
        },
        {
          "type": "Feature",
          "properties": {
            "id": "13023055631",
            "osm_type": "node",
            "lat": 47.3898363,
            "lon": 13.6129279,
            "addr:city": "Schladming",
            "addr:housenumber": "100",
            "addr:postcode": "8973",
            "addr:street": "Pichl",
            "name": "biochi",
            "opening_hours": "Tu-Th 11:00-18:00",
            "organic": "only",
            "payment:cash": "yes",
            "phone": "+43 3687 23927",
            "shop": "supermarket",
            "website": "https://www.biochi.at/bio-fachgesch%C3%A4ft-neu/"
          },
          "geometry": {
            "type": "Point",
            "coordinates": [
              13.6129279,
              47.3898363
            ]
          }
        },
        {
          "type": "Feature",
          "properties": {
            "id": "2865887146",
            "osm_type": "node",
            "lat": 47.5264395,
            "lon": 14.2632258,
            "alt_name": "Stieg",
            "brand": "Nah & Frisch",
            "brand:wikidata": "Q1963643",
            "contact:phone": "+43 3612 827 77",
            "name": "Nah & Frisch",
            "opening_hours": "Mo-Fr 07:30-12:00, 15:00-18:00; Sa 07:30-12:00",
            "shop": "supermarket"
          },
          "geometry": {
            "type": "Point",
            "coordinates": [
              14.2632258,
              47.5264395
            ]
          }
        },
        {
          "type": "Feature",
          "properties": {
            "id": "3680098469",
            "osm_type": "node",
            "lat": 47.5522527,
            "lon": 14.1465686,
            "brand": "Spar",
            "brand:wikidata": "Q610492",
            "brand:wikipedia": "en:SPAR (retailer)",
            "name": "Spar",
            "opening_hours": "Mo-Fr 07:30-12:00,15:00-18:00; Sa 07:30-12:00",
            "shop": "supermarket"
          },
          "geometry": {
            "type": "Point",
            "coordinates": [
              14.1465686,
              47.5522527
            ]
          }
        },
        {
          "type": "Feature",
          "properties": {
            "id": "5000828689",
            "osm_type": "node",
            "lat": 47.5050034,
            "lon": 14.1040363,
            "addr:city": "Irdning-Donnersbachtal",
            "addr:housenumber": "4",
            "addr:postcode": "8952",
            "addr:street": "Klostergasse",
            "description": "Bioladen",
            "name": "GrimmGlöckerl",
            "opening_hours": "Mo,We,Fr 08:00-12:00,15:00-18:00; Tu,Th,Sa 08:00-12:00",
            "operator": "Karin Brunner",
            "shop": "supermarket",
            "website": "https://www.grimmgloeckerl.at/index.php/de/"
          },
          "geometry": {
            "type": "Point",
            "coordinates": [
              14.1040363,
              47.5050034
            ]
          }
        },
        {
          "type": "Feature",
          "properties": {
            "id": "5132958064",
            "osm_type": "node",
            "lat": 47.5248296,
            "lon": 14.1474075,
            "addr:city": "Aigen im Ennstal",
            "addr:country": "AT",
            "addr:housenumber": "109",
            "addr:place": "Aigen",
            "addr:postcode": "8943",
            "at_bev:addr_date": "2019-10-01",
            "brand": "Spar",
            "brand:wikidata": "Q610492",
            "brand:wikipedia": "en:SPAR (retailer)",
            "check_date:opening_hours": "2021-04-16",
            "name": "Spar",
            "opening_hours": "Mo-Fr 07:00-19:00; Sa 07:00-18:00",
            "shop": "supermarket",
            "website": "https://www.spar.at/standorte/spar-aigen-8943-nr-109"
          },
          "geometry": {
            "type": "Point",
            "coordinates": [
              14.1474075,
              47.5248296
            ]
          }
        },
        {
          "type": "Feature",
          "properties": {
            "id": "6833199761",
            "osm_type": "node",
            "lat": 47.5644603,
            "lon": 14.2457452,
            "brand": "Spar",
            "brand:wikidata": "Q610492",
            "brand:wikipedia": "da:Eurospar",
            "contact:phone": "+43 3612 30145",
            "name": "Eurospar",
            "opening_hours": "Mo-Fr 07:15-19:30; Sa 07:15-18:00",
            "shop": "supermarket",
            "website": "https://www.spar.at/standorte/eurospar-liezen-8940-hauptstrasse-35",
            "wheelchair": "yes"
          },
          "geometry": {
            "type": "Point",
            "coordinates": [
              14.2457452,
              47.5644603
            ]
          }
        }
      ],
      "children": []
    },
    {
      "bbox": {
        "south": 47.36431175,
        "west": 14.2994695,
        "north": 47.694865,
        "east": 15.253173
      },
      "poiCount": 13,
      "leafCount": 13,
      "averagePosition": [
        14.895728615384616,
        47.5162253076923
      ],
      "data": [
        {
          "type": "Feature",
          "properties": {
            "id": "1483461368",
            "osm_type": "node",
            "lat": 47.5725143,
            "lon": 14.459246,
            "addr:city": "Admont",
            "addr:housenumber": "155",
            "addr:postcode": "8911",
            "addr:street": "Obere Bachgasse",
            "branch": "Zimmermann",
            "brand": "ADEG",
            "brand:wikidata": "Q290211",
            "brand:wikipedia": "de:ADEG Österreich",
            "contact:phone": "+43 3613 2126",
            "name": "ADEG",
            "opening_hours": "Mo-Fr 07:30-18:00; Sa 07:00-13:00",
            "operator": "Zimmermann",
            "shop": "supermarket"
          },
          "geometry": {
            "type": "Point",
            "coordinates": [
              14.459246,
              47.5725143
            ]
          }
        },
        {
          "type": "Feature",
          "properties": {
            "id": "13015167010",
            "osm_type": "node",
            "lat": 47.5910913,
            "lon": 14.3637847,
            "changing_table": "no",
            "level": "0",
            "name": "Regional Regal",
            "opening_hours": "Mo-Fr 08:30-21:00; Sa 08:30-18:00; PH closed",
            "organic": "yes",
            "self_service": "yes",
            "shop": "supermarket",
            "toilets": "no",
            "wheelchair": "yes"
          },
          "geometry": {
            "type": "Point",
            "coordinates": [
              14.3637847,
              47.5910913
            ]
          }
        },
        {
          "type": "Feature",
          "properties": {
            "id": "680045158",
            "osm_type": "node",
            "lat": 47.6663327,
            "lon": 14.7122767,
            "addr:city": "Landl",
            "addr:country": "AT",
            "addr:housenumber": "19",
            "addr:place": "Großreifling",
            "addr:postcode": "8931",
            "at_bev:addr_date": "2016-10-02",
            "brand": "Nah & Frisch",
            "brand:wikidata": "Q1963643",
            "brand:wikipedia": "de:Nah & Frisch",
            "contact:phone": "+43 3633 221375",
            "name": "Nah & Frisch",
            "opening_hours": "Mo-Th, Sa 05:30-11:00; Fr 05:30-11:00, 14:00-17:00",
            "shop": "supermarket",
            "website": "https://www.nahundfrisch.at/de/kaufmann/schwarzlmueller"
          },
          "geometry": {
            "type": "Point",
            "coordinates": [
              14.7122767,
              47.6663327
            ]
          }
        },
        {
          "type": "Feature",
          "properties": {
            "id": "1314068748",
            "osm_type": "node",
            "lat": 47.6651495,
            "lon": 14.9839319,
            "brand": "Nah & Frisch",
            "brand:wikidata": "Q1963643",
            "brand:wikipedia": "de:Nah & Frisch",
            "name": "Nah & Frisch",
            "opening_hours": "Mo,We,Fr 07:30-12:00, 15:00-18:00; Tu,Th 07:30-12:00",
            "phone": "+433636216",
            "shop": "supermarket"
          },
          "geometry": {
            "type": "Point",
            "coordinates": [
              14.9839319,
              47.6651495
            ]
          }
        },
        {
          "type": "Feature",
          "properties": {
            "id": "1344333013",
            "osm_type": "node",
            "lat": 47.5457081,
            "lon": 14.8819129,
            "addr:city": "Eisenerz",
            "addr:country": "AT",
            "addr:housenumber": "22",
            "addr:postcode": "8790",
            "addr:street": "Hieflauer Straße",
            "at_bev:addr_date": "2017-10-01",
            "brand": "PENNY",
            "brand:wikidata": "Q284688",
            "brand:wikipedia": "en:Penny (supermarket)",
            "name": "PENNY",
            "opening_hours": "Mo-Fr 07:30-19:00; Sa 07:30-18:00",
            "shop": "supermarket",
            "website": "https://www.penny.at/",
            "wheelchair": "yes"
          },
          "geometry": {
            "type": "Point",
            "coordinates": [
              14.8819129,
              47.5457081
            ]
          }
        },
        {
          "type": "Feature",
          "properties": {
            "id": "1467201187",
            "osm_type": "node",
            "lat": 47.4877691,
            "lon": 14.9940009,
            "addr:city": "Vordernberg",
            "addr:country": "AT",
            "addr:housenumber": "12",
            "addr:postcode": "8794",
            "addr:street": "Hauptplatz",
            "brand": "Nah & Frisch",
            "brand:wikidata": "Q1963643",
            "brand:wikipedia": "de:Nah & Frisch",
            "name": "Nah & Frisch",
            "opening_hours": "Mo-Fr 07:30-12:30,15:00-18:00; We 07:30-12:30; Sa 07:30-13:00",
            "phone": "+43 3849 6020",
            "shop": "supermarket"
          },
          "geometry": {
            "type": "Point",
            "coordinates": [
              14.9940009,
              47.4877691
            ]
          }
        },
        {
          "type": "Feature",
          "properties": {
            "id": "4333827292",
            "osm_type": "node",
            "lat": 47.4288252,
            "lon": 14.7555242,
            "addr:city": "Kalwang",
            "addr:country": "AT",
            "addr:housenumber": "10",
            "addr:postcode": "8775",
            "addr:street": "Marktstraße",
            "at_bev:addr_date": "2021-10-01",
            "brand": "Nah & Frisch",
            "brand:wikidata": "Q1963643",
            "brand:wikipedia": "de:Nah & Frisch",
            "name": "Nah & Frisch",
            "opening_hours": "Mo-Fr 07:30-18:00; Sa 07:30-12:00",
            "operator": "Podratzky",
            "shop": "supermarket"
          },
          "geometry": {
            "type": "Point",
            "coordinates": [
              14.7555242,
              47.4288252
            ]
          }
        },
        {
          "type": "Feature",
          "properties": {
            "id": "5816269406",
            "osm_type": "node",
            "lat": 47.4243201,
            "lon": 15.0001144,
            "addr:city": "Trofaiach",
            "addr:country": "AT",
            "addr:housenumber": "8",
            "addr:postcode": "8793",
            "addr:street": "Langefelderstraße",
            "at_bev:addr_date": "2019-10-01",
            "brand": "Billa",
            "brand:wikidata": "Q537781",
            "brand:wikipedia": "de:Billa",
            "name": "Billa",
            "opening_hours": "Mo-We 07:00-19:00; Th,Fr 07:00-18:45; Sa 07:00-18:00",
            "phone": "+43 59915 06372",
            "shop": "supermarket"
          },
          "geometry": {
            "type": "Point",
            "coordinates": [
              15.0001144,
              47.4243201
            ]
          }
        },
        {
          "type": "Feature",
          "properties": {
            "id": "12337134715",
            "osm_type": "node",
            "lat": 47.5445768,
            "lon": 14.7616576,
            "addr:city": "Radmer",
            "addr:housenumber": "19a",
            "addr:place": "Radmer an der Stube",
            "addr:postcode": "8795",
            "name": "Kaufhaus Winter",
            "opening_hours": "Mo-Sa 08:00-12:00 und 14:00-18:00",
            "operator": "Gerhard Winter",
            "payment:cash": "yes",
            "payment:debit_cards": "yes",
            "phone": "036352109",
            "shop": "supermarket"
          },
          "geometry": {
            "type": "Point",
            "coordinates": [
              14.7616576,
              47.5445768
            ]
          }
        },
        {
          "type": "Feature",
          "properties": {
            "id": "1436582070",
            "osm_type": "node",
            "lat": 47.3825518,
            "lon": 15.0959716,
            "addr:city": "Leoben",
            "addr:postcode": "8700",
            "addr:street": "LCS Passage",
            "brand": "Eurospar",
            "brand:wikidata": "Q12309283",
            "name": "Eurospar",
            "operator": "Spar",
            "shop": "supermarket",
            "source": "survey"
          },
          "geometry": {
            "type": "Point",
            "coordinates": [
              15.0959716,
              47.3825518
            ]
          }
        },
        {
          "type": "Feature",
          "properties": {
            "id": "4544607499",
            "osm_type": "node",
            "lat": 47.5245657,
            "lon": 15.2334613,
            "addr:city": "Thörl",
            "addr:country": "AT",
            "addr:housenumber": "181",
            "addr:place": "Palbersdorf",
            "addr:postcode": "8621",
            "brand": "Billa",
            "brand:wikidata": "Q537781",
            "brand:wikipedia": "en:Billa (supermarket)",
            "check_date": "2025-05-31",
            "contact:phone": "+43 59 9150 6760",
            "name": "Billa",
            "opening_hours": "Mo-Fr 07:00-19:15; Sa 07:15-18:00",
            "shop": "supermarket",
            "wheelchair": "yes"
          },
          "geometry": {
            "type": "Point",
            "coordinates": [
              15.2334613,
              47.5245657
            ]
          }
        },
        {
          "type": "Feature",
          "properties": {
            "id": "6482892888",
            "osm_type": "node",
            "lat": 47.4708879,
            "lon": 15.1598024,
            "addr:city": "Tragöß-Sankt Katharein",
            "addr:country": "AT",
            "addr:housenumber": "94",
            "addr:place": "St. Katharein an der Laming",
            "addr:postcode": "8611",
            "at_bev:addr_date": "2019-04-01",
            "brand": "Spar",
            "brand:wikidata": "Q610492",
            "brand:wikipedia": "en:Spar (retailer)",
            "name": "Spar",
            "opening_hours": "Mo-Th 07:30-12:00,15:00-18:00; Fr 07:30-18:00; Sa 07:30-13:00",
            "shop": "supermarket",
            "website": "https://www.spar.at/standorte/spar-st-katharein-a-d-l-8611-nr-94",
            "wheelchair": "yes"
          },
          "geometry": {
            "type": "Point",
            "coordinates": [
              15.1598024,
              47.4708879
            ]
          }
        },
        {
          "type": "Feature",
          "properties": {
            "id": "11782209504",
            "osm_type": "node",
            "lat": 47.4066365,
            "lon": 15.2427874,
            "name": "Genussladen",
            "operator": "Gartenbau Schacherl GmbH",
            "organic": "only",
            "shop": "supermarket"
          },
          "geometry": {
            "type": "Point",
            "coordinates": [
              15.2427874,
              47.4066365
            ]
          }
        }
      ],
      "children": []
    }
  ]
}