{
  "bbox": {
    "south": 46.372652,
    "west": 13.345766,
    "north": 47.033758500000005,
    "east": 15.253173
  },
  "poiCount": 186,
  "leafCount": 0,
  "averagePosition": [
    14.255374167204302,
    46.67790972526881
  ],
  "data": [],
  "children": [
    {
      "bbox": {
        "south": 46.372652,
        "west": 13.345766,
        "north": 46.70320525,
        "east": 14.2994695
      },
      "poiCount": 66,
      "leafCount": 0,
      "averagePosition": [
        13.994461140909092,
        46.56432231363636
      ],
      "data": [],
      "children": [
        {
          "bbox": {
            "south": 46.372652,
            "west": 13.345766,
            "north": 46.537928625000006,
            "east": 13.82261775
          },
          "poiCount": 5,
          "leafCount": 5,
          "averagePosition": [
            13.63303984,
            46.46218604
          ],
          "data": [
            {
              "type": "Feature",
              "properties": {
                "id": "7953904185",
                "osm_type": "node",
                "lat": 46.3891188,
                "lon": 13.4735621,
                "addr:street": "Via Carinzia",
                "name": "Ai Poli",
                "shop": "supermarket"
              },
              "geometry": {
                "type": "Point",
                "coordinates": [
                  13.4735621,
                  46.3891188
                ]
              }
            },
            {
              "type": "Feature",
              "properties": {
                "id": "534284230",
                "osm_type": "node",
                "lat": 46.4849096,
                "lon": 13.7824987,
                "brand": "Mercator",
                "brand:wikidata": "Q738412",
                "diet:halal": "yes",
                "diet:kosher": "yes",
                "name": "Mercator",
                "opening_hours": "Mo-Th 08:00-19:00; Fr 08:00-20:00; Sa 07:00-20:00; Su off",
                "phone": "+38651285606",
                "shop": "supermarket",
                "website": "https://www.mercator.si/",
                "wheelchair": "yes"
              },
              "geometry": {
                "type": "Point",
                "coordinates": [
                  13.7824987,
                  46.4849096
                ]
              }
            },
            {
              "type": "Feature",
              "properties": {
                "id": "1339466014",
                "osm_type": "node",
                "lat": 46.487401,
                "lon": 13.7900977,
                "brand": "Mercator",
                "brand:wikidata": "Q738412",
                "brand:wikipedia": "en:Mercator (retail)",
                "check_date": "2025-07-19",
                "check_date:opening_hours": "2025-07-19",
                "level": "1",
                "name": "Mercator",
                "opening_hours": "Mo-Sa 07:00-20:00",
                "shop": "supermarket",
                "wheelchair": "yes"
              },
              "geometry": {
                "type": "Point",
                "coordinates": [
                  13.7900977,
                  46.487401
                ]
              }
            },
            {
              "type": "Feature",
              "properties": {
                "id": "7979792749",
                "osm_type": "node",
                "lat": 46.4416534,
                "lon": 13.5713972,
                "shop": "supermarket"
              },
              "geometry": {
                "type": "Point",
                "coordinates": [
                  13.5713972,
                  46.4416534
                ]
              }
            },
            {
              "type": "Feature",
              "properties": {
                "id": "9455400694",
                "osm_type": "node",
                "lat": 46.5078474,
                "lon": 13.5476435,
                "addr:city": "Tarvisio",
                "addr:country": "IT",
                "addr:housenumber": "9",
                "addr:postcode": "33018",
                "addr:street": "Via Alpi Giulie",
                "brand": "Spar",
                "brand:wikidata": "Q610492",
                "it:fvg:ctrn:code": "4AED",
                "it:fvg:ctrn:revision": "000",
                "name": "Eurospar",
                "opening_hours": "Mo-Sa 08:00-20:00, Su 08:00-19:30",
                "phone": "042840762",
                "shop": "supermarket",
                "website": "http://despar.it"
              },
              "geometry": {
                "type": "Point",
                "coordinates": [
                  13.5476435,
                  46.5078474
                ]
              }
            }
          ],
          "children": []
        },
        {
          "bbox": {
            "south": 46.372652,
            "west": 13.82261775,
            "north": 46.537928625000006,
            "east": 14.2994695
          },
          "poiCount": 15,
          "leafCount": 15,
          "averagePosition": [
            14.105998993333333,
            46.4508854
          ],
          "data": [
            {
              "type": "Feature",
              "properties": {
                "id": "528086888",
                "osm_type": "node",
                "lat": 46.4608172,
                "lon": 13.9386956,
                "brand": "Mercator",
                "brand:wikidata": "Q738412",
                "check_date": "2025-02-22",
                "name": "Mercator",
                "opening_hours": "Mo-Sa 07:00-19:00",
                "shop": "supermarket",
                "wheelchair": "yes"
              },
              "geometry": {
                "type": "Point",
                "coordinates": [
                  13.9386956,
                  46.4608172
                ]
              }
            },
            {
              "type": "Feature",
              "properties": {
                "id": "303545541",
                "osm_type": "node",
                "lat": 46.5211681,
                "lon": 14.1750669,
                "addr:city": "Feistritz/Rosental",
                "addr:housenumber": "311",
                "addr:postcode": "9181",
                "addr:street": "Hauptstraße",
                "brand": "PENNY",
                "brand:wikidata": "Q284688",
                "brand:wikipedia": "en:Penny (supermarket)",
                "name": "PENNY",
                "shop": "supermarket",
                "wheelchair": "yes"
              },
              "geometry": {
                "type": "Point",
                "coordinates": [
                  14.1750669,
                  46.5211681
                ]
              }
            },
            {
              "type": "Feature",
              "properties": {
                "id": "471786696",
                "osm_type": "node",
                "lat": 46.4378264,
                "lon": 14.0493546,
                "brand": "Mercator",
                "brand:wikidata": "Q738412",
                "name": "Mercator",
                "operator": "Mercator",
                "shop": "supermarket"
              },
              "geometry": {
                "type": "Point",
                "coordinates": [
                  14.0493546,
                  46.4378264
                ]
              }
            },
            {
              "type": "Feature",
              "properties": {
                "id": "471786697",
                "osm_type": "node",
                "lat": 46.4367193,
                "lon": 14.0554742,
                "brand": "Mercator",
                "brand:wikidata": "Q738412",
                "name": "Mercator",
                "opening_hours": "Mo-Sa 08:00-13:00",
                "operator": "Mercator",
                "shop": "supermarket"
              },
              "geometry": {
                "type": "Point",
                "coordinates": [
                  14.0554742,
                  46.4367193
                ]
              }
            },
            {
              "type": "Feature",
              "properties": {
                "id": "774088126",
                "osm_type": "node",
                "lat": 46.4322978,
                "lon": 14.0612862,
                "currency:BCH": "yes",
                "name": "Tuš Jesenice",
                "operator": "Tuš",
                "shop": "supermarket",
                "website": "https://www.tus.si/odpiralni-cas/poslovalnica/tus-supermarket-jesenice"
              },
              "geometry": {
                "type": "Point",
                "coordinates": [
                  14.0612862,
                  46.4322978
                ]
              }
            },
            {
              "type": "Feature",
              "properties": {
                "id": "1360566505",
                "osm_type": "node",
                "lat": 46.3802763,
                "lon": 14.0629269,
                "brand": "Mercator",
                "brand:wikidata": "Q738412",
                "check_date": "2024-06-24",
                "name": "Mercator",
                "opening_hours": "Mo-Fr 07:00-19:00; Sa 07:00-17:00; Su off",
                "shop": "supermarket"
              },
              "geometry": {
                "type": "Point",
                "coordinates": [
                  14.0629269,
                  46.3802763
                ]
              }
            },
            {
              "type": "Feature",
              "properties": {
                "id": "1582383978",
                "osm_type": "node",
                "lat": 46.528965,
                "lon": 14.2906109,
                "addr:city": "Ferlach",
                "addr:country": "AT",
                "addr:housenumber": "28",
                "addr:postcode": "9170",
                "addr:street": "Klagenfurter Straße",
                "brand": "Billa",
                "brand:wikidata": "Q537781",
                "brand:wikipedia": "de:Billa",
                "contact:phone": "+43 4227 26301",
                "name": "Billa",
                "opening_hours": "Mo-Fr 07:15-19:30; Sa 07:15-18:00",
                "payment:apple_pay": "yes",
                "payment:cash": "yes",
                "payment:credit_cards": "yes",
                "payment:debit_cards": "yes",
                "shop": "supermarket",
                "source": "geoimage.at",
                "wheelchair": "yes"
              },
              "geometry": {
                "type": "Point",
                "coordinates": [
                  14.2906109,
                  46.528965
                ]
              }
            },
            {
              "type": "Feature",
              "properties": {
                "id": "1800552077",
                "osm_type": "node",
                "lat": 46.3883696,
                "lon": 14.1055247,
                "brand": "Mercator",
                "brand:wikidata": "Q738412",
                "name": "Mercator",
                "opening_hours": "Mo-Fr 07:00-17:00; Sa 07:00-13:00",
                "shop": "supermarket"
              },
              "geometry": {
                "type": "Point",
                "coordinates": [
                  14.1055247,
                  46.3883696
                ]
              }
            },
            {
              "type": "Feature",
              "properties": {
                "id": "1962409059",
                "osm_type": "node",
                "lat": 46.5215631,
                "lon": 14.1755225,
                "addr:postcode": "9181",
                "brand": "Billa",
                "brand:wikidata": "Q537781",
                "brand:wikipedia": "de:Billa",
                "name": "Billa",
                "shop": "supermarket",
                "wheelchair": "yes"
              },
              "geometry": {
                "type": "Point",
                "coordinates": [
                  14.1755225,
                  46.5215631
                ]
              }
            },
            {
              "type": "Feature",
              "properties": {
                "id": "3760676012",
                "osm_type": "node",
                "lat": 46.5329108,
                "lon": 14.2714971,
                "addr:city": "Ferlach",
                "addr:country": "AT",
                "addr:housenumber": "62",
                "addr:place": "Kirschentheuer",
                "addr:postcode": "9162",
                "name": "Penny Markt",
                "shop": "supermarket",
                "wheelchair": "yes"
              },
              "geometry": {
                "type": "Point",
                "coordinates": [
                  14.2714971,
                  46.5329108
                ]
              }
            },
            {
              "type": "Feature",
              "properties": {
                "id": "4350979752",
                "osm_type": "node",
                "lat": 46.4326952,
                "lon": 14.0588079,
                "addr:city": "Jesenice",
                "addr:housenumber": "8",
                "addr:postcode": "4270",
                "addr:street": "Fužinska cesta",
                "branch": "Jesenice",
                "brand": "Spar",
                "brand:wikidata": "Q610492",
                "brand:wikipedia": "en:SPAR (retailer)",
                "name": "Spar",
                "opening_hours": "Mo-Sa 8:00-20:00; Su 8:00-13:00",
                "phone": "+386 4 583 6538",
                "ref:gurs:hs_mid": "17367609",
                "shop": "supermarket"
              },
              "geometry": {
                "type": "Point",
                "coordinates": [
                  14.0588079,
                  46.4326952
                ]
              }
            },
            {
              "type": "Feature",
              "properties": {
                "id": "4407979903",
                "osm_type": "node",
                "lat": 46.4397316,
                "lon": 14.043872,
                "brand": "Mercator",
                "brand:wikidata": "Q738412",
                "name": "Mercator",
                "shop": "supermarket"
              },
              "geometry": {
                "type": "Point",
                "coordinates": [
                  14.043872,
                  46.4397316
                ]
              }
            },
            {
              "type": "Feature",
              "properties": {
                "id": "4791270093",
                "osm_type": "node",
                "lat": 46.4041958,
                "lon": 14.1356804,
                "shop": "supermarket"
              },
              "geometry": {
                "type": "Point",
                "coordinates": [
                  14.1356804,
                  46.4041958
                ]
              }
            },
            {
              "type": "Feature",
              "properties": {
                "id": "11552536765",
                "osm_type": "node",
                "lat": 46.4417902,
                "lon": 14.0338674,
                "addr:street": "Spodnji Plavž",
                "branch": "Jesenice",
                "brand": "EuroSpin",
                "brand:wikidata": "Q1374674",
                "brand:wikipedia": "it:Eurospin",
                "contact:website": "http://www.eurospin.it/dettpv.cfm?idpv=300069",
                "name": "EuroSpin",
                "opening_hours": "Mo-Sa 08:00-20:00",
                "operator": "EuroSpin",
                "ref:gurs:hs_mid": "17365762",
                "shop": "supermarket"
              },
              "geometry": {
                "type": "Point",
                "coordinates": [
                  14.0338674,
                  46.4417902
                ]
              }
            },
            {
              "type": "Feature",
              "properties": {
                "id": "13052303186",
                "osm_type": "node",
                "lat": 46.4039546,
                "lon": 14.1317976,
                "addr:city": "Žirovnica",
                "addr:housenumber": "101",
                "addr:postcode": "4274",
                "addr:street": "Moste",
                "brand": "Mercator",
                "brand:wikidata": "Q738412",
                "brand:wikipedia": "en:Mercator (retail)",
                "check_date": "2025-07-24",
                "name": "Mercator",
                "opening_hours": "Mo-Sa 07:00-20:00",
                "operator": "Mercator",
                "shop": "supermarket"
              },
              "geometry": {
                "type": "Point",
                "coordinates": [
                  14.1317976,
                  46.4039546
                ]
              }
            }
          ],
          "children": []
        },
        {
          "bbox": {
            "south": 46.537928625000006,
            "west": 13.345766,
            "north": 46.70320525,
            "east": 13.82261775
          },
          "poiCount": 4,
          "leafCount": 4,
          "averagePosition": [
            13.435028899999999,
            46.616775425
          ],
          "data": [
            {
              "type": "Feature",
              "properties": {
                "id": "1363081480",
                "osm_type": "node",
                "lat": 46.6264791,
                "lon": 13.3700859,
                "brand": "Spar",
                "brand:wikidata": "Q610492",
                "brand:wikipedia": "en:Spar (retailer)",
                "name": "Spar",
                "opening_hours": "Mo-Fr 07:15-19:30; Sa 07:15-18:00",
                "shop": "supermarket"
              },
              "geometry": {
                "type": "Point",
                "coordinates": [
                  13.3700859,
                  46.6264791
                ]
              }
            },
            {
              "type": "Feature",
              "properties": {
                "id": "2493088166",
                "osm_type": "node",
                "lat": 46.6254513,
                "lon": 13.372483,
                "brand": "Billa",
                "brand:wikidata": "Q537781",
                "brand:wikipedia": "de:Billa",
                "name": "Billa",
                "shop": "supermarket",
                "wheelchair": "yes"
              },
              "geometry": {
                "type": "Point",
                "coordinates": [
                  13.372483,
                  46.6254513
                ]
              }
            },
            {
              "type": "Feature",
              "properties": {
                "id": "7968898388",
                "osm_type": "node",
                "lat": 46.6252775,
                "lon": 13.3741325,
                "brand": "ADEG",
                "brand:wikidata": "Q290211",
                "brand:wikipedia": "de:ADEG Österreich",
                "name": "ADEG",
                "shop": "supermarket"
              },
              "geometry": {
                "type": "Point",
                "coordinates": [
                  13.3741325,
                  46.6252775
                ]
              }
            },
            {
              "type": "Feature",
              "properties": {
                "id": "2099526313",
                "osm_type": "node",
                "lat": 46.5898938,
                "lon": 13.6234142,
                "addr:city": "Nötsch im Gailtal",
                "addr:housenumber": "64",
                "addr:postcode": "9611",
                "addr:street": "Nötsch im Gailtal",
                "brand": "ADEG",
                "brand:wikidata": "Q290211",
                "name": "ADEG Markt Kovsca",
                "shop": "supermarket"
              },
              "geometry": {
                "type": "Point",
                "coordinates": [
                  13.6234142,
                  46.5898938
                ]
              }
            }
          ],
          "children": []
        },
        {
          "bbox": {
            "south": 46.537928625000006,
            "west": 13.82261775,
            "north": 46.70320525,
            "east": 14.2994695
          },
          "poiCount": 42,
          "leafCount": 42,
          "averagePosition": [
            14.0509318,
            46.61199904285714
          ],
          "data": [
            {
              "type": "Feature",
              "properties": {
                "id": "311726339",
                "osm_type": "node",
                "lat": 46.6145766,
                "lon": 13.8424096,
                "addr:city": "Villach",
                "addr:country": "AT",
                "addr:housenumber": "9",
                "addr:postcode": "9500",
                "addr:street": "Ringmauergasse",
                "brand": "Interspar",
                "brand:wikidata": "Q15820339",
                "brand:wikipedia": "de:Interspar (Österreich)",
                "contact:email": "im54@interspar.at",
                "contact:fax": "+43 4242 29202 723",
                "contact:phone": "+43 4242 29202",
                "contact:website": "https://www.interspar.at",
                "internet_access": "wlan",
                "name": "Interspar",
                "opening_hours": "Mo-Fr 08:00-20:00; Sa 08:00-18:00",
                "shop": "supermarket",
                "wheelchair": "yes"
              },
              "geometry": {
                "type": "Point",
                "coordinates": [
                  13.8424096,
                  46.6145766
                ]
              }
            },
            {
              "type": "Feature",
              "properties": {
                "id": "311726340",
                "osm_type": "node",
                "lat": 46.6138191,
                "lon": 13.8442092,
                "addr:city": "Villach",
                "addr:country": "AT",
                "addr:housenumber": "28",
                "addr:postcode": "9500",
                "addr:street": "Widmanngasse",
                "name": "multi Store",
                "shop": "supermarket",
                "wheelchair": "yes"
              },
              "geometry": {
                "type": "Point",
                "coordinates": [
                  13.8442092,
                  46.6138191
                ]
              }
            },
            {
              "type": "Feature",
              "properties": {
                "id": "330390379",
                "osm_type": "node",
                "lat": 46.6038433,
                "lon": 13.8681197,
                "addr:city": "Villach",
                "addr:country": "AT",
                "addr:housenumber": "36",
                "addr:postcode": "9500",
                "addr:street": "Maria-Gailer-Straße",
                "email": "info@italmarkt.at",
                "fax": "+43 4242 35095",
                "name": "Italmarkt",
                "opening_hours": "Mo-Fr 09:00-18:30; Sa 09:00-17:00",
                "phone": "+43 4242 34008",
                "shop": "supermarket",
                "website": "https://www.italmarkt.eu"
              },
              "geometry": {
                "type": "Point",
                "coordinates": [
                  13.8681197,
                  46.6038433
                ]
              }
            },
            {
              "type": "Feature",
              "properties": {
                "id": "332018144",
                "osm_type": "node",
                "lat": 46.5969287,
                "lon": 13.8390961,
                "addr:city": "Villach",
                "addr:country": "AT",
                "addr:housenumber": "1",
                "addr:postcode": "9500",
                "addr:street": "Ackerweg",
                "brand": "Hofer",
                "brand:wikidata": "Q15815751",
                "brand:wikipedia": "de:Hofer KG",
                "name": "Hofer",
                "opening_hours": "Mo-Fr 07:40-20:00; Sa 07:40-18:00",
                "phone": "+43 57030 35051",
                "shop": "supermarket",
                "website": "https://www.hofer.at",
                "wheelchair": "yes"
              },
              "geometry": {
                "type": "Point",
                "coordinates": [
                  13.8390961,
                  46.5969287
                ]
              }
            },
            {
              "type": "Feature",
              "properties": {
                "id": "348034229",
                "osm_type": "node",
                "lat": 46.6150576,
                "lon": 13.8544721,
                "addr:city": "Villach",
                "addr:country": "AT",
                "addr:housenumber": "39",
                "addr:postcode": "9500",
                "addr:street": "Nikolaigasse",
                "brand": "Billa",
                "brand:wikidata": "Q537781",
                "contact:phone": "+43 4242 27258",
                "contact:website": "https://www.billa.at",
                "name": "Billa",
                "opening_hours": "Mo-Fr 07:15-19:30; Sa 07:15-18:00",
                "operator": "Billa AG",
                "shop": "supermarket",
                "wheelchair": "yes"
              },
              "geometry": {
                "type": "Point",
                "coordinates": [
                  13.8544721,
                  46.6150576
                ]
              }
            },
            {
              "type": "Feature",
              "properties": {
                "id": "348034232",
                "osm_type": "node",
                "lat": 46.6175922,
                "lon": 13.8492277,
                "addr:city": "Villach",
                "addr:country": "AT",
                "addr:housenumber": "4",
                "addr:postcode": "9500",
                "addr:street": "Bahnhofplatz",
                "brand": "Billa",
                "brand:wikidata": "Q537781",
                "brand:wikipedia": "en:Billa (supermarket)",
                "check_date:opening_hours": "2022-07-23",
                "contact:phone": "+43 4242 250761",
                "name": "Billa",
                "opening_hours": "Mo-Fr 07:15-19:30; Sa 07:15-18:00",
                "shop": "supermarket",
                "website": "https://www.billa.at",
                "wheelchair": "yes"
              },
              "geometry": {
                "type": "Point",
                "coordinates": [
                  13.8492277,
                  46.6175922
                ]
              }
            },
            {
              "type": "Feature",
              "properties": {
                "id": "540754921",
                "osm_type": "node",
                "lat": 46.6299001,
                "lon": 13.8261557,
                "addr:city": "Villach",
                "addr:housenumber": "93",
                "addr:postcode": "9500",
                "addr:street": "Badstubenweg",
                "brand": "Billa Plus",
                "brand:wikipedia": "de:Billa",
                "name": "Billa Plus",
                "old_name": "Merkur",
                "opening_hours": "Mo-Fr 07:40-20:00; Sa 07:40-18:00",
                "phone": "+43 4242 55312",
                "shop": "supermarket",
                "website": "https://www.billa.at",
                "wheelchair": "yes"
              },
              "geometry": {
                "type": "Point",
                "coordinates": [
                  13.8261557,
                  46.6299001
                ]
              }
            },
            {
              "type": "Feature",
              "properties": {
                "id": "1312148117",
                "osm_type": "node",
                "lat": 46.6160191,
                "lon": 13.8677937,
                "name": "Hausmann",
                "shop": "supermarket"
              },
              "geometry": {
                "type": "Point",
                "coordinates": [
                  13.8677937,
                  46.6160191
                ]
              }
            },
            {
              "type": "Feature",
              "properties": {
                "id": "1847410099",
                "osm_type": "node",
                "lat": 46.6639286,
                "lon": 13.9748885,
                "name": "ADEG Martinz",
                "opening_hours": "Mo-Su 07:30-20:00",
                "shop": "supermarket"
              },
              "geometry": {
                "type": "Point",
                "coordinates": [
                  13.9748885,
                  46.6639286
                ]
              }
            },
            {
              "type": "Feature",
              "properties": {
                "id": "2194127557",
                "osm_type": "node",
                "lat": 46.6033828,
                "lon": 13.8591212,
                "addr:city": "Villach",
                "addr:housenumber": "25",
                "addr:postcode": "9500",
                "addr:street": "Bruno-Kreisky-Straße",
                "brand": "Billa Plus",
                "brand:wikipedia": "de:Billa",
                "name": "Billa Plus",
                "old_name": "Merkur",
                "opening_hours": "Mo-Fr 07:40-20:00; Sa 07:40-18:00",
                "operator": "MERKUR Warenhandels AG",
                "phone": "+43 4242/321 75",
                "shop": "supermarket",
                "website": "https://www.billa.at",
                "wheelchair": "yes"
              },
              "geometry": {
                "type": "Point",
                "coordinates": [
                  13.8591212,
                  46.6033828
                ]
              }
            },
            {
              "type": "Feature",
              "properties": {
                "id": "3180735862",
                "osm_type": "node",
                "lat": 46.6142704,
                "lon": 13.8425858,
                "addr:city": "Villach",
                "addr:country": "AT",
                "addr:housenumber": "9",
                "addr:postcode": "9500",
                "addr:street": "Ringmauergasse",
                "name": "Reformhaus Martin",
                "organic": "only",
                "phone": "+43 4242 29565",
                "shop": "supermarket",
                "website": "https://www.reformstark.at/",
                "wheelchair": "yes"
              },
              "geometry": {
                "type": "Point",
                "coordinates": [
                  13.8425858,
                  46.6142704
                ]
              }
            },
            {
              "type": "Feature",
              "properties": {
                "id": "3291292769",
                "osm_type": "node",
                "lat": 46.6130335,
                "lon": 13.8353783,
                "addr:city": "Villach",
                "addr:country": "AT",
                "addr:housenumber": "19",
                "addr:postcode": "9500",
                "addr:street": "Tiroler Straße",
                "atm": "yes",
                "brand": "Spar",
                "brand:wikidata": "Q610492",
                "brand:wikipedia": "en:Spar (retailer)",
                "contact:email": "caritas.villach@sparmarkt.at",
                "contact:phone": "+43 4242 51607",
                "contact:website": "https://www.spar.at",
                "name": "Spar",
                "opening_hours": "Mo-Fr 07:00-19:00; Sa 07:00-18:00",
                "shop": "supermarket",
                "wheelchair": "yes"
              },
              "geometry": {
                "type": "Point",
                "coordinates": [
                  13.8353783,
                  46.6130335
                ]
              }
            },
            {
              "type": "Feature",
              "properties": {
                "id": "3521507047",
                "osm_type": "node",
                "lat": 46.5921193,
                "lon": 14.0196017,
                "addr:city": "Rosegg",
                "addr:housenumber": "7",
                "addr:postcode": "9232",
                "addr:street": "Mautweg",
                "name": "Il Gusto - Italienische Spezialitäten",
                "opening_hours": "Mo 15:00-18:30; Tu-Sa 08:30-13:00",
                "phone": "+43 664/7371248",
                "shop": "supermarket",
                "website": "http://www.il-gusto.info/"
              },
              "geometry": {
                "type": "Point",
                "coordinates": [
                  14.0196017,
                  46.5921193
                ]
              }
            },
            {
              "type": "Feature",
              "properties": {
                "id": "4360280788",
                "osm_type": "node",
                "lat": 46.6532309,
                "lon": 13.9338464,
                "addr:city": "Landskron",
                "addr:housenumber": "241",
                "addr:postcode": "9523",
                "addr:street": "Ossiachersee Süduferstraße",
                "atm": "yes",
                "contact:email": "bertl@seecamping-berghof.at",
                "contact:phone": "+43 4242 41133",
                "contact:website": "http://www.spar.at/ertl-villach/",
                "name": "SPAR Ertl GmbH",
                "opening_hours": "Mo-Su 08:00-13:00",
                "shop": "supermarket",
                "wheelchair": "yes"
              },
              "geometry": {
                "type": "Point",
                "coordinates": [
                  13.9338464,
                  46.6532309
                ]
              }
            },
            {
              "type": "Feature",
              "properties": {
                "id": "4978041914",
                "osm_type": "node",
                "lat": 46.5958632,
                "lon": 13.835292,
                "addr:city": "Villach",
                "addr:housenumber": "34",
                "addr:postcode": "9500",
                "addr:street": "Kärntner Straße",
                "brand": "Spar",
                "brand:wikidata": "Q610492",
                "brand:wikipedia": "de:Interspar (Österreich)",
                "email": "im82@interspar.at",
                "fax": "+43 4242 375 11 723",
                "name": "Interspar",
                "opening_hours": "Mo-Fr 08:00-20:00; Sa 08:00-18:00",
                "phone": "+43 4242 37 511",
                "shop": "supermarket",
                "website": "https://www.interspar.at",
                "wheelchair": "yes"
              },
              "geometry": {
                "type": "Point",
                "coordinates": [
                  13.835292,
                  46.5958632
                ]
              }
            },
            {
              "type": "Feature",
              "properties": {
                "id": "4978041916",
                "osm_type": "node",
                "lat": 46.5954721,
                "lon": 13.8353214,
                "addr:city": "Villach",
                "addr:housenumber": "34",
                "addr:postcode": "9500",
                "addr:street": "Kärntner Straße",
                "fax": "+43 4242 35 370",
                "name": "Martin reformstark",
                "opening_hours": "Mo-Fr 09:00-19:30; Sa 09:00-18:00",
                "organic": "only",
                "phone": "+43 4242 35 310",
                "shop": "supermarket",
                "website": "https://www.reformstark.at/",
                "wheelchair": "yes"
              },
              "geometry": {
                "type": "Point",
                "coordinates": [
                  13.8353214,
                  46.5954721
                ]
              }
            },
            {
              "type": "Feature",
              "properties": {
                "id": "7813540928",
                "osm_type": "node",
                "lat": 46.5954946,
                "lon": 13.8502508,
                "addr:city": "Villach",
                "addr:country": "AT",
                "addr:housenumber": "38a",
                "addr:postcode": "9500",
                "addr:street": "Karawankenweg",
                "brand": "Hofer",
                "brand:wikidata": "Q15815751",
                "brand:wikipedia": "de:Hofer KG",
                "contact:phone": "+43 57 0303 5037",
                "name": "Hofer",
                "opening_hours": "Mo-Fr 07:15-19:30; Sa 07:15-18:00",
                "operator": "Hofer KG",
                "shop": "supermarket"
              },
              "geometry": {
                "type": "Point",
                "coordinates": [
                  13.8502508,
                  46.5954946
                ]
              }
            },
            {
              "type": "Feature",
              "properties": {
                "id": "7813540929",
                "osm_type": "node",
                "lat": 46.5957783,
                "lon": 13.8508201,
                "addr:city": "Villach",
                "addr:housenumber": "38",
                "addr:postcode": "9500",
                "addr:street": "Karawankenweg",
                "brand": "Billa",
                "brand:wikidata": "Q537781",
                "brand:wikipedia": "en:Billa (supermarket)",
                "name": "Billa",
                "opening_hours": "Mo-Fr 07:15-19:30; Sa 07:15-18:00",
                "phone": "+43 59915 07606",
                "shop": "supermarket",
                "website": "https://www.billa.at"
              },
              "geometry": {
                "type": "Point",
                "coordinates": [
                  13.8508201,
                  46.5957783
                ]
              }
            },
            {
              "type": "Feature",
              "properties": {
                "id": "9692744502",
                "osm_type": "node",
                "lat": 46.574696,
                "lon": 13.9363983,
                "name": "House of Shopping Arneitz",
                "shop": "supermarket"
              },
              "geometry": {
                "type": "Point",
                "coordinates": [
                  13.9363983,
                  46.574696
                ]
              }
            },
            {
              "type": "Feature",
              "properties": {
                "id": "10169756556",
                "osm_type": "node",
                "lat": 46.6118989,
                "lon": 13.8549543,
                "addr:city": "Villach",
                "addr:housenumber": "31",
                "addr:postcode": "9500",
                "addr:street": "Dreschnigstraße",
                "brand": "Billa",
                "brand:wikidata": "Q537781",
                "brand:wikipedia": "de:Billa",
                "name": "Billa",
                "opening_hours": "Mo-Fr 07:15-19:30; Sa 07:15-18:00",
                "operator": "Billa",
                "phone": "+43 59915 07571",
                "shop": "supermarket",
                "website": "https://www.billa.at",
                "wheelchair": "yes"
              },
              "geometry": {
                "type": "Point",
                "coordinates": [
                  13.8549543,
                  46.6118989
                ]
              }
            },
            {
              "type": "Feature",
              "properties": {
                "id": "11528898442",
                "osm_type": "node",
                "lat": 46.604853,
                "lon": 13.8603218,
                "brand": "Denns BioMarkt",
                "brand:wikidata": "Q48883773",
                "name": "Denns BioMarkt",
                "operator": "Dennree GmbH",
                "operator:wikidata": "Q1189641",
                "organic": "only",
                "shop": "supermarket"
              },
              "geometry": {
                "type": "Point",
                "coordinates": [
                  13.8603218,
                  46.604853
                ]
              }
            },
            {
              "type": "Feature",
              "properties": {
                "id": "444624630",
                "osm_type": "node",
                "lat": 46.6341498,
                "lon": 14.1575752,
                "addr:city": "Pörtschach am Wörther See",
                "addr:country": "AT",
                "addr:housenumber": "70",
                "addr:postcode": "9210",
                "addr:street": "Hauptstraße",
                "brand": "Hofer",
                "brand:wikidata": "Q15815751",
                "name": "Hofer",
                "opening_hours": "Mo-Fr 8:00-18:50; Sa 8:00-17:50; Su 8:00-13:00, 15:00-18:00",
                "shop": "supermarket",
                "wheelchair": "yes"
              },
              "geometry": {
                "type": "Point",
                "coordinates": [
                  14.1575752,
                  46.6341498
                ]
              }
            },
            {
              "type": "Feature",
              "properties": {
                "id": "472650526",
                "osm_type": "node",
                "lat": 46.628299,
                "lon": 14.2952893,
                "addr:city": "Klagenfurt am Wörthersee",
                "addr:country": "AT",
                "addr:housenumber": "40",
                "addr:postcode": "9020",
                "addr:street": "Radetzkystraße",
                "check_date:opening_hours": "2023-05-01",
                "name": "Jäger",
                "opening_hours": "Mo-Fr 07:00-18:00; Sa 07:00-13:00",
                "shop": "supermarket",
                "wheelchair": "no"
              },
              "geometry": {
                "type": "Point",
                "coordinates": [
                  14.2952893,
                  46.628299
                ]
              }
            },
            {
              "type": "Feature",
              "properties": {
                "id": "528196062",
                "osm_type": "node",
                "lat": 46.6229212,
                "lon": 14.2843202,
                "addr:city": "Klagenfurt am Wörthersee",
                "addr:country": "AT",
                "addr:housenumber": "129",
                "addr:postcode": "9020",
                "addr:street": "Koschatstraße",
                "brand": "Billa",
                "brand:wikidata": "Q537781",
                "brand:wikipedia": "de:Billa",
                "check_date:opening_hours": "2025-09-13",
                "name": "Billa",
                "opening_hours": "Mo-Fr 07:15-19:30; Sa 07:15-18:00",
                "shop": "supermarket",
                "wheelchair": "yes"
              },
              "geometry": {
                "type": "Point",
                "coordinates": [
                  14.2843202,
                  46.6229212
                ]
              }
            },
            {
              "type": "Feature",
              "properties": {
                "id": "528196070",
                "osm_type": "node",
                "lat": 46.623614,
                "lon": 14.2847462,
                "addr:city": "Klagenfurt am Wörthersee",
                "addr:country": "AT",
                "addr:housenumber": "114",
                "addr:postcode": "9020",
                "addr:street": "Koschatstraße",
                "brand": "PENNY",
                "brand:wikidata": "Q284688",
                "brand:wikipedia": "en:Penny (supermarket)",
                "name": "PENNY",
                "opening_hours": "Mo-Fr 07:15-19:00; Sa 07:15-18:00",
                "shop": "supermarket",
                "wheelchair": "yes"
              },
              "geometry": {
                "type": "Point",
                "coordinates": [
                  14.2847462,
                  46.623614
                ]
              }
            },
            {
              "type": "Feature",
              "properties": {
                "id": "528319652",
                "osm_type": "node",
                "lat": 46.6108856,
                "lon": 14.280871,
                "brand": "Billa",
                "brand:wikidata": "Q537781",
                "brand:wikipedia": "en:Billa (supermarket)",
                "check_date": "2022-10-07",
                "check_date:opening_hours": "2024-05-04",
                "internet_access": "wlan",
                "internet_access:fee": "customers",
                "name": "Billa",
                "opening_hours": "Mo-Fr 07:15-19:30; Sa 07:15-18:00; PH off",
                "payment:cash": "yes",
                "payment:credit_cards": "yes",
                "payment:maestro": "yes",
                "shop": "supermarket",
                "wheelchair": "yes"
              },
              "geometry": {
                "type": "Point",
                "coordinates": [
                  14.280871,
                  46.6108856
                ]
              }
            },
            {
              "type": "Feature",
              "properties": {
                "id": "529657483",
                "osm_type": "node",
                "lat": 46.6261442,
                "lon": 14.2136519,
                "addr:city": "Krumpendorf am Wörthersee",
                "addr:country": "AT",
                "addr:housenumber": "147",
                "addr:postcode": "9201",
                "addr:street": "Hauptstraße",
                "brand": "PENNY",
                "brand:wikidata": "Q284688",
                "name": "PENNY",
                "shop": "supermarket",
                "wheelchair": "yes"
              },
              "geometry": {
                "type": "Point",
                "coordinates": [
                  14.2136519,
                  46.6261442
                ]
              }
            },
            {
              "type": "Feature",
              "properties": {
                "id": "1013764382",
                "osm_type": "node",
                "lat": 46.5926256,
                "lon": 14.2705508,
                "addr:city": "Klagenfurt am Wörthersee",
                "addr:country": "AT",
                "addr:housenumber": "4",
                "addr:postcode": "9073",
                "addr:street": "Ferdinand Wedenigstraße",
                "brand": "Penny",
                "brand:wikidata": "Q284688",
                "brand:wikipedia": "en:Penny (supermarket)",
                "ele": "495.0",
                "name": "Penny",
                "opening_hours": "Mo-Fr 07:30-19:00; Sa 07:30-18:00",
                "shop": "supermarket",
                "wheelchair": "yes"
              },
              "geometry": {
                "type": "Point",
                "coordinates": [
                  14.2705508,
                  46.5926256
                ]
              }
            },
            {
              "type": "Feature",
              "properties": {
                "id": "1077357121",
                "osm_type": "node",
                "lat": 46.6266446,
                "lon": 14.2093289,
                "addr:city": "Krumpendorf am Wörthersee",
                "addr:country": "AT",
                "addr:housenumber": "173",
                "addr:postcode": "9201",
                "addr:street": "Hauptstraße",
                "name": "Camoni Natur & Reform",
                "opening_hours": "Mo-Fr 09:00-18:00; Sa 9:00-12:00",
                "phone": "+43 4229 20800",
                "shop": "supermarket"
              },
              "geometry": {
                "type": "Point",
                "coordinates": [
                  14.2093289,
                  46.6266446
                ]
              }
            },
            {
              "type": "Feature",
              "properties": {
                "id": "1335360791",
                "osm_type": "node",
                "lat": 46.5471419,
                "lon": 14.0618315,
                "addr:city": "St. Jakob im Rosental",
                "addr:housenumber": "103",
                "addr:postcode": "9184",
                "addr:street": "Rosental Straße",
                "brand": "Billa",
                "brand:wikidata": "Q537781",
                "name": "Billa",
                "shop": "supermarket",
                "wheelchair": "yes"
              },
              "geometry": {
                "type": "Point",
                "coordinates": [
                  14.0618315,
                  46.5471419
                ]
              }
            },
            {
              "type": "Feature",
              "properties": {
                "id": "1368132559",
                "osm_type": "node",
                "lat": 46.6680972,
                "lon": 14.2590311,
                "name": "Spar",
                "shop": "supermarket"
              },
              "geometry": {
                "type": "Point",
                "coordinates": [
                  14.2590311,
                  46.6680972
                ]
              }
            },
            {
              "type": "Feature",
              "properties": {
                "id": "1433846657",
                "osm_type": "node",
                "lat": 46.6145247,
                "lon": 14.2930201,
                "addr:city": "Klagenfurt am Wörthersee",
                "addr:country": "AT",
                "addr:housenumber": "79",
                "addr:postcode": "9020",
                "addr:street": "Waidmannsdorfer Straße",
                "brand": "Mix Markt",
                "brand:wikidata": "Q327854",
                "name": "Mix Markt",
                "shop": "supermarket",
                "wheelchair": "yes"
              },
              "geometry": {
                "type": "Point",
                "coordinates": [
                  14.2930201,
                  46.6145247
                ]
              }
            },
            {
              "type": "Feature",
              "properties": {
                "id": "1665405275",
                "osm_type": "node",
                "lat": 46.6205242,
                "lon": 14.0599138,
                "addr:city": "Velden am Wörther See",
                "addr:housenumber": "47",
                "addr:postcode": "9220",
                "addr:street": "Klagenfurter Straße",
                "brand": "Lidl",
                "brand:wikidata": "Q151954",
                "name": "Lidl",
                "shop": "supermarket"
              },
              "geometry": {
                "type": "Point",
                "coordinates": [
                  14.0599138,
                  46.6205242
                ]
              }
            },
            {
              "type": "Feature",
              "properties": {
                "id": "1846925817",
                "osm_type": "node",
                "lat": 46.6251274,
                "lon": 14.2040847,
                "brand": "Spar",
                "brand:wikidata": "Q610492",
                "brand:wikipedia": "en:Spar (retailer)",
                "check_date:opening_hours": "2025-07-22",
                "name": "Spar",
                "opening_hours": "Mo-Fr 08:00-18:50; Sa 08:00-17:50; Su 08:00-13:00,15:00-18:00",
                "shop": "supermarket",
                "wheelchair": "yes"
              },
              "geometry": {
                "type": "Point",
                "coordinates": [
                  14.2040847,
                  46.6251274
                ]
              }
            },
            {
              "type": "Feature",
              "properties": {
                "id": "2307785845",
                "osm_type": "node",
                "lat": 46.5463861,
                "lon": 14.0594668,
                "addr:city": "St. Jakob im Rosental",
                "addr:country": "AT",
                "addr:housenumber": "86a",
                "addr:postcode": "9184",
                "addr:street": "Rosental Straße",
                "addr:suburb": "St. Jakob im Rosental",
                "at_bev:addr_date": "2023-10-01",
                "brand": "Spar",
                "brand:wikidata": "Q610492",
                "name": "Spar",
                "opening_hours": "Mo-Fr 07:15-19:30; Sa 07:15-18:00",
                "shop": "supermarket"
              },
              "geometry": {
                "type": "Point",
                "coordinates": [
                  14.0594668,
                  46.5463861
                ]
              }
            },
            {
              "type": "Feature",
              "properties": {
                "id": "2409455899",
                "osm_type": "node",
                "lat": 46.6246381,
                "lon": 14.2032674,
                "brand": "Billa",
                "brand:wikidata": "Q537781",
                "brand:wikipedia": "en:Billa (supermarket)",
                "name": "Billa",
                "shop": "supermarket",
                "wheelchair": "yes"
              },
              "geometry": {
                "type": "Point",
                "coordinates": [
                  14.2032674,
                  46.6246381
                ]
              }
            },
            {
              "type": "Feature",
              "properties": {
                "id": "2489374396",
                "osm_type": "node",
                "lat": 46.6133962,
                "lon": 14.2921894,
                "addr:city": "Klagenfurt am Wörthersee",
                "addr:country": "AT",
                "addr:housename": "Urbaneum",
                "addr:housenumber": "84",
                "addr:postcode": "9020",
                "addr:street": "Waidmannsdorferstraße",
                "brand": "PENNY",
                "brand:wikidata": "Q284688",
                "brand:wikipedia": "en:Penny (supermarket)",
                "check_date": "2022-10-10",
                "name": "PENNY",
                "opening_hours": "Mo-Fr 07:15-19:30; Sa 07:15-18:00",
                "shop": "supermarket",
                "wheelchair": "yes"
              },
              "geometry": {
                "type": "Point",
                "coordinates": [
                  14.2921894,
                  46.6133962
                ]
              }
            },
            {
              "type": "Feature",
              "properties": {
                "id": "7082026738",
                "osm_type": "node",
                "lat": 46.6066576,
                "lon": 14.2914132,
                "addr:city": "Klagenfurt am Wörthersee",
                "addr:housenumber": "13",
                "addr:postcode": "9020",
                "addr:street": "Petruigasse",
                "brand": "Billa",
                "brand:wikidata": "Q537781",
                "brand:wikipedia": "en:Billa (supermarket)",
                "name": "Billa",
                "opening_hours": "Mo-Fr 07:15-19:30; Sa 07:15-18:00",
                "shop": "supermarket"
              },
              "geometry": {
                "type": "Point",
                "coordinates": [
                  14.2914132,
                  46.6066576
                ]
              }
            },
            {
              "type": "Feature",
              "properties": {
                "id": "8360738651",
                "osm_type": "node",
                "lat": 46.6304956,
                "lon": 14.2971898,
                "addr:city": "Klagenfurt am Wörthersee",
                "addr:country": "AT",
                "addr:housenumber": "6",
                "addr:postcode": "9020",
                "addr:street": "Aichelburg-Labia-Straße",
                "name": "Feinkost Darrer",
                "opening_hours": "Mo-Fr 07:00-12:30, Mo,Tu,Th 15:00-18:00",
                "shop": "supermarket"
              },
              "geometry": {
                "type": "Point",
                "coordinates": [
                  14.2971898,
                  46.6304956
                ]
              }
            },
            {
              "type": "Feature",
              "properties": {
                "id": "9403351924",
                "osm_type": "node",
                "lat": 46.6216237,
                "lon": 14.2683996,
                "addr:city": "Klagenfurt am Wörthersee",
                "addr:housenumber": "100",
                "addr:postcode": "9020",
                "addr:street": "Kohldorfer Straße",
                "air_conditioning": "yes",
                "check_date": "2025-08-23",
                "description": "Bioladen mit Selbstbedienung und Automaten-Kasse.",
                "email": "office@erdengold.at",
                "internet_access": "no",
                "level": "0",
                "name": "MINI BIOMARKT Erdengold",
                "opening_hours": "24/7",
                "organic": "only",
                "payment:cash": "no",
                "payment:contactless": "yes",
                "payment:credit_cards": "yes",
                "payment:debit_cards": "yes",
                "phone": "+43 664 10 32 239",
                "ref:vatin": "ATU737 578 29",
                "shop": "supermarket",
                "website": "https://www.erdengold.at/",
                "wheelchair": "yes"
              },
              "geometry": {
                "type": "Point",
                "coordinates": [
                  14.2683996,
                  46.6216237
                ]
              }
            },
            {
              "type": "Feature",
              "properties": {
                "id": "10127798117",
                "osm_type": "node",
                "lat": 46.5924038,
                "lon": 14.2741469,
                "brand": "Eurospar",
                "brand:wikidata": "Q12309283",
                "name": "Eurospar",
                "opening_hours": "Mo-Fr 07:15-19:30; Sa 07:15-18:00",
                "shop": "supermarket"
              },
              "geometry": {
                "type": "Point",
                "coordinates": [
                  14.2741469,
                  46.5924038
                ]
              }
            },
            {
              "type": "Feature",
              "properties": {
                "id": "11482349974",
                "osm_type": "node",
                "lat": 46.605901,
                "lon": 14.2985834,
                "check_date": "2024-01-03",
                "description": "Fleisch- U. Wurstwaren",
                "name": "Abholmarkt",
                "shop": "supermarket"
              },
              "geometry": {
                "type": "Point",
                "coordinates": [
                  14.2985834,
                  46.605901
                ]
              }
            }
          ],
          "children": []
        }
      ]
    },
    {
      "bbox": {
        "south": 46.372652,
        "west": 14.2994695,
        "north": 46.70320525,
        "east": 15.253173
      },
      "poiCount": 46,
      "leafCount": 46,
      "averagePosition": [
        14.639944310869565,
        46.60974873043478
      ],
      "data": [
        {
          "type": "Feature",
          "properties": {
            "id": "820838453",
            "osm_type": "node",
            "lat": 46.5789533,
            "lon": 14.749231,
            "addr:city": "St. Michael bei Bleiburg",
            "addr:postcode": "9143",
            "brand": "Nah & Frisch",
            "brand:wikidata": "Q1963643",
            "name": "Nah & Frisch",
            "operator": "Nah & Frisch",
            "shop": "supermarket",
            "wheelchair": "yes"
          },
          "geometry": {
            "type": "Point",
            "coordinates": [
              14.749231,
              46.5789533
            ]
          }
        },
        {
          "type": "Feature",
          "properties": {
            "id": "823361967",
            "osm_type": "node",
            "lat": 46.5769181,
            "lon": 14.5645738,
            "brand": "ADEG",
            "brand:wikidata": "Q290211",
            "brand:wikipedia": "de:ADEG Österreich",
            "name": "ADEG",
            "shop": "supermarket"
          },
          "geometry": {
            "type": "Point",
            "coordinates": [
              14.5645738,
              46.5769181
            ]
          }
        },
        {
          "type": "Feature",
          "properties": {
            "id": "1330012753",
            "osm_type": "node",
            "lat": 46.5902069,
            "lon": 15.0162659,
            "brand": "Mercator",
            "brand:wikidata": "Q738412",
            "name": "Mercator",
            "opening_hours": "Mo-Fr 07:30-19:00; Sa 07:00-13:00; Su 08:00-12:00; PH 08:00-12:00",
            "shop": "supermarket",
            "wheelchair": "limited"
          },
          "geometry": {
            "type": "Point",
            "coordinates": [
              15.0162659,
              46.5902069
            ]
          }
        },
        {
          "type": "Feature",
          "properties": {
            "id": "1721667172",
            "osm_type": "node",
            "lat": 46.5574348,
            "lon": 14.7036567,
            "name": "Spar",
            "shop": "supermarket"
          },
          "geometry": {
            "type": "Point",
            "coordinates": [
              14.7036567,
              46.5574348
            ]
          }
        },
        {
          "type": "Feature",
          "properties": {
            "id": "1749001235",
            "osm_type": "node",
            "lat": 46.5849086,
            "lon": 14.6495011,
            "addr:city": "Eberndorf",
            "addr:housenumber": "2",
            "addr:postcode": "9141",
            "addr:street": "Gewerbestraße",
            "brand": "Spar",
            "brand:wikidata": "Q610492",
            "name": "Spar",
            "shop": "supermarket"
          },
          "geometry": {
            "type": "Point",
            "coordinates": [
              14.6495011,
              46.5849086
            ]
          }
        },
        {
          "type": "Feature",
          "properties": {
            "id": "2404919745",
            "osm_type": "node",
            "lat": 46.6589916,
            "lon": 14.7709143,
            "name": "ADEG Markt Ruden",
            "opening_hours": "Mo-Fr: 7:30-12:30, 15:00-18:00, Sa: 7:30-12:30",
            "shop": "supermarket"
          },
          "geometry": {
            "type": "Point",
            "coordinates": [
              14.7709143,
              46.6589916
            ]
          }
        },
        {
          "type": "Feature",
          "properties": {
            "id": "2505994183",
            "osm_type": "node",
            "lat": 46.5835657,
            "lon": 14.6259276,
            "shop": "supermarket"
          },
          "geometry": {
            "type": "Point",
            "coordinates": [
              14.6259276,
              46.5835657
            ]
          }
        },
        {
          "type": "Feature",
          "properties": {
            "id": "2769447550",
            "osm_type": "node",
            "lat": 46.6629284,
            "lon": 14.6229936,
            "brand": "Hofer",
            "brand:wikidata": "Q15815751",
            "brand:wikipedia": "de:Hofer KG",
            "name": "Hofer",
            "opening_hours": "Mo-Fr 07:15-19:30; Sa 07:15-18:00",
            "shop": "supermarket",
            "wheelchair": "limited"
          },
          "geometry": {
            "type": "Point",
            "coordinates": [
              14.6229936,
              46.6629284
            ]
          }
        },
        {
          "type": "Feature",
          "properties": {
            "id": "2843966595",
            "osm_type": "node",
            "lat": 46.703117,
            "lon": 14.8683829,
            "addr:city": "St. Paul im Lavanttal",
            "addr:country": "AT",
            "addr:housenumber": "41",
            "addr:postcode": "9470",
            "addr:street": "Hauptstraße",
            "at_bev:addr_date": "2018-10-01",
            "brand": "ADEG",
            "brand:wikidata": "Q290211",
            "brand:wikipedia": "de:ADEG Österreich",
            "name": "ADEG",
            "opening_hours": "Mo-Th 07:30-18:30; Fr 07:30-19:00; Sa 07:30-18:00",
            "shop": "supermarket"
          },
          "geometry": {
            "type": "Point",
            "coordinates": [
              14.8683829,
              46.703117
            ]
          }
        },
        {
          "type": "Feature",
          "properties": {
            "id": "2974103994",
            "osm_type": "node",
            "lat": 46.5923507,
            "lon": 14.7959331,
            "addr:city": "Bleiburg",
            "addr:country": "AT",
            "addr:housenumber": "28",
            "addr:postcode": "9150",
            "addr:street": "Völkermarkter Straße",
            "at_bev:addr_date": "2017-10-01",
            "brand": "Billa",
            "brand:wikidata": "Q537781",
            "brand:wikipedia": "de:Billa",
            "name": "Billa",
            "opening_hours": "Mo-Fr 07:15-19:30; Sa 07:15-18:00",
            "shop": "supermarket",
            "wheelchair": "yes"
          },
          "geometry": {
            "type": "Point",
            "coordinates": [
              14.7959331,
              46.5923507
            ]
          }
        },
        {
          "type": "Feature",
          "properties": {
            "id": "3880421552",
            "osm_type": "node",
            "lat": 46.6353811,
            "lon": 14.5395839,
            "addr:city": "Tainach",
            "addr:housenumber": "27",
            "addr:postcode": "9121",
            "addr:street": "Dorfplatz",
            "name": "Adeg Kummer",
            "shop": "supermarket"
          },
          "geometry": {
            "type": "Point",
            "coordinates": [
              14.5395839,
              46.6353811
            ]
          }
        },
        {
          "type": "Feature",
          "properties": {
            "id": "3900811077",
            "osm_type": "node",
            "lat": 46.6417383,
            "lon": 14.9412814,
            "addr:city": "Lavamünd",
            "addr:country": "AT",
            "addr:housenumber": "19",
            "addr:postcode": "9473",
            "addr:street": "Lavamünd",
            "branch": "Markt Lavamünd",
            "brand": "ADEG",
            "brand:wikidata": "Q290211",
            "name": "ADEG",
            "phone": "+435621113",
            "shop": "supermarket"
          },
          "geometry": {
            "type": "Point",
            "coordinates": [
              14.9412814,
              46.6417383
            ]
          }
        },
        {
          "type": "Feature",
          "properties": {
            "id": "3900811079",
            "osm_type": "node",
            "lat": 46.6411622,
            "lon": 14.946972,
            "addr:city": "Lavamünd",
            "addr:country": "AT",
            "addr:housenumber": "101",
            "addr:place": "Pfarrdorf",
            "addr:postcode": "9473",
            "brand": "Billa",
            "brand:wikidata": "Q537781",
            "brand:wikipedia": "de:Billa",
            "name": "Billa",
            "shop": "supermarket",
            "wheelchair": "yes"
          },
          "geometry": {
            "type": "Point",
            "coordinates": [
              14.946972,
              46.6411622
            ]
          }
        },
        {
          "type": "Feature",
          "properties": {
            "id": "4404848789",
            "osm_type": "node",
            "lat": 46.6619746,
            "lon": 14.6226715,
            "addr:city": "Völkermarkt",
            "addr:country": "AT",
            "addr:housenumber": "4",
            "addr:postcode": "9100",
            "addr:street": "Umfahrungsstraße",
            "brand": "Lidl",
            "brand:wikidata": "Q151954",
            "brand:wikipedia": "en:Lidl",
            "name": "Lidl",
            "shop": "supermarket"
          },
          "geometry": {
            "type": "Point",
            "coordinates": [
              14.6226715,
              46.6619746
            ]
          }
        },
        {
          "type": "Feature",
          "properties": {
            "id": "4524778470",
            "osm_type": "node",
            "lat": 46.5465572,
            "lon": 14.6018971,
            "addr:city": "Sittersdorf",
            "addr:country": "AT",
            "addr:housenumber": "100B",
            "addr:place": "Sittersdorf",
            "addr:postcode": "9133",
            "at_bev:addr_date": "2017-10-01",
            "name": "ADEG",
            "shop": "supermarket"
          },
          "geometry": {
            "type": "Point",
            "coordinates": [
              14.6018971,
              46.5465572
            ]
          }
        },
        {
          "type": "Feature",
          "properties": {
            "id": "4546305691",
            "osm_type": "node",
            "lat": 46.6605705,
            "lon": 14.6185656,
            "addr:city": "Völkermarkt",
            "addr:housenumber": "38",
            "addr:postcode": "9100",
            "addr:street": "Klagenfurter Straße",
            "brand": "Billa",
            "brand:wikidata": "Q537781",
            "brand:wikipedia": "de:Billa",
            "name": "Billa",
            "shop": "supermarket",
            "wheelchair": "yes"
          },
          "geometry": {
            "type": "Point",
            "coordinates": [
              14.6185656,
              46.6605705
            ]
          }
        },
        {
          "type": "Feature",
          "properties": {
            "id": "4546406489",
            "osm_type": "node",
            "lat": 46.6626968,
            "lon": 14.6315336,
            "addr:city": "Völkermarkt",
            "addr:housenumber": "22-24",
            "addr:postcode": "9100",
            "addr:street": "Umfahrungsstraße",
            "brand": "Billa",
            "brand:wikidata": "Q537781",
            "brand:wikipedia": "de:Billa",
            "name": "Billa",
            "shop": "supermarket",
            "wheelchair": "yes"
          },
          "geometry": {
            "type": "Point",
            "coordinates": [
              14.6315336,
              46.6626968
            ]
          }
        },
        {
          "type": "Feature",
          "properties": {
            "id": "5230250921",
            "osm_type": "node",
            "lat": 46.6622759,
            "lon": 14.6276966,
            "brand": "Penny",
            "brand:wikidata": "Q284688",
            "brand:wikipedia": "en:Penny (supermarket)",
            "name": "Penny",
            "shop": "supermarket",
            "wheelchair": "yes"
          },
          "geometry": {
            "type": "Point",
            "coordinates": [
              14.6276966,
              46.6622759
            ]
          }
        },
        {
          "type": "Feature",
          "properties": {
            "id": "5516152271",
            "osm_type": "node",
            "lat": 46.6423973,
            "lon": 14.8871827,
            "addr:city": "Neuhaus",
            "addr:country": "AT",
            "addr:housenumber": "6",
            "addr:place": "Neuhaus",
            "addr:postcode": "9155",
            "at_bev:addr_date": "2017-10-01",
            "name": "ADEG Kaufhaus Glawischnig",
            "opening_hours": "Mo-Fr 07:30-12:30, 14:30-18:00; Sa 07:30-13:00",
            "operator": "Schuler-Glawischnig",
            "shop": "supermarket"
          },
          "geometry": {
            "type": "Point",
            "coordinates": [
              14.8871827,
              46.6423973
            ]
          }
        },
        {
          "type": "Feature",
          "properties": {
            "id": "7272915592",
            "osm_type": "node",
            "lat": 46.6625478,
            "lon": 14.6377312,
            "addr:city": "Völkermarkt",
            "addr:country": "AT",
            "addr:housenumber": "16",
            "addr:postcode": "9100",
            "addr:street": "Griffner Straße",
            "brand": "ADEG",
            "brand:wikidata": "Q290211",
            "brand:wikipedia": "de:ADEG Österreich",
            "contact:phone": "+43 4232 2553",
            "name": "ADEG",
            "opening_hours": "Mo-Fr 07:30-19:00; Sa 07:30-18:00",
            "shop": "supermarket"
          },
          "geometry": {
            "type": "Point",
            "coordinates": [
              14.6377312,
              46.6625478
            ]
          }
        },
        {
          "type": "Feature",
          "properties": {
            "id": "9792729618",
            "osm_type": "node",
            "lat": 46.6717624,
            "lon": 14.9484358,
            "addr:housenumber": "3",
            "addr:street": "Ettendorf",
            "name": "ADEG Markt Kampl",
            "shop": "supermarket",
            "website": "https://adeg-wolfsberg.at/standorte/adeg-maerkte-bezirk-wolfsberg/kampl-ettendorf/"
          },
          "geometry": {
            "type": "Point",
            "coordinates": [
              14.9484358,
              46.6717624
            ]
          }
        },
        {
          "type": "Feature",
          "properties": {
            "id": "250655259",
            "osm_type": "node",
            "lat": 46.6129662,
            "lon": 15.1661125,
            "name": "Tuš Market",
            "shop": "supermarket"
          },
          "geometry": {
            "type": "Point",
            "coordinates": [
              15.1661125,
              46.6129662
            ]
          }
        },
        {
          "type": "Feature",
          "properties": {
            "id": "488486845",
            "osm_type": "node",
            "lat": 46.4446785,
            "lon": 15.1952452,
            "addr:city": "Mislinja",
            "addr:housenumber": "55",
            "addr:postcode": "2382",
            "addr:street": "Šolska cesta",
            "name": "Tuš",
            "opening_hours": "Mo-Fr 07:30-20:00; Sa 07:30-17:00; Su 08:00-12:00",
            "shop": "supermarket"
          },
          "geometry": {
            "type": "Point",
            "coordinates": [
              15.1952452,
              46.4446785
            ]
          }
        },
        {
          "type": "Feature",
          "properties": {
            "id": "1729356543",
            "osm_type": "node",
            "lat": 46.399138,
            "lon": 15.0794806,
            "shop": "supermarket"
          },
          "geometry": {
            "type": "Point",
            "coordinates": [
              15.0794806,
              46.399138
            ]
          }
        },
        {
          "type": "Feature",
          "properties": {
            "id": "4687113391",
            "osm_type": "node",
            "lat": 46.6148296,
            "lon": 15.2127311,
            "addr:postcode": "2360",
            "branch": "Market Radlje",
            "brand": "Mercator",
            "brand:wikidata": "Q738412",
            "name": "Mercator",
            "shop": "supermarket"
          },
          "geometry": {
            "type": "Point",
            "coordinates": [
              15.2127311,
              46.6148296
            ]
          }
        },
        {
          "type": "Feature",
          "properties": {
            "id": "4934475378",
            "osm_type": "node",
            "lat": 46.5138623,
            "lon": 15.0831787,
            "brand": "Spar",
            "brand:wikidata": "Q610492",
            "brand:wikipedia": "en:SPAR (retailer)",
            "name": "Spar",
            "shop": "supermarket"
          },
          "geometry": {
            "type": "Point",
            "coordinates": [
              15.0831787,
              46.5138623
            ]
          }
        },
        {
          "type": "Feature",
          "properties": {
            "id": "4936563039",
            "osm_type": "node",
            "lat": 46.5052892,
            "lon": 15.0818976,
            "addr:city": "Slovenj Gradec",
            "addr:housenumber": "19",
            "addr:postcode": "2380",
            "addr:street": "Celjska cesta",
            "name": "TUŠ Market",
            "opening_hours": "Mo-Fr 07:00-20:00; Sa 07:00-18:00",
            "shop": "supermarket"
          },
          "geometry": {
            "type": "Point",
            "coordinates": [
              15.0818976,
              46.5052892
            ]
          }
        },
        {
          "type": "Feature",
          "properties": {
            "id": "10906076795",
            "osm_type": "node",
            "lat": 46.6088458,
            "lon": 15.1632746,
            "name": "Spar",
            "opening_hours": "Mo-Fr 07:00-19:00; Sa 07:00-17:00; Su 08:00-12:00",
            "shop": "supermarket"
          },
          "geometry": {
            "type": "Point",
            "coordinates": [
              15.1632746,
              46.6088458
            ]
          }
        },
        {
          "type": "Feature",
          "properties": {
            "id": "266822278",
            "osm_type": "node",
            "lat": 46.6255627,
            "lon": 14.3114223,
            "addr:city": "Klagenfurt am Wörthersee",
            "addr:country": "AT",
            "brand": "Billa",
            "brand:wikidata": "Q537781",
            "brand:wikipedia": "de:Billa",
            "name": "Billa",
            "opening_hours": "Mo-Fr 07:00-19:15; Sa 07:15-18:00",
            "shop": "supermarket",
            "toilets:wheelchair": "no",
            "wheelchair": "yes",
            "wheelchair:access": "yes"
          },
          "geometry": {
            "type": "Point",
            "coordinates": [
              14.3114223,
              46.6255627
            ]
          }
        },
        {
          "type": "Feature",
          "properties": {
            "id": "355620372",
            "osm_type": "node",
            "lat": 46.6194951,
            "lon": 14.4619054,
            "name": "Billa",
            "shop": "supermarket",
            "wheelchair": "yes"
          },
          "geometry": {
            "type": "Point",
            "coordinates": [
              14.4619054,
              46.6194951
            ]
          }
        },
        {
          "type": "Feature",
          "properties": {
            "id": "474733952",
            "osm_type": "node",
            "lat": 46.6352873,
            "lon": 14.3140519,
            "addr:city": "Klagenfurt am Wörthersee",
            "addr:country": "AT",
            "addr:housenumber": "4",
            "addr:street": "Durchlaßstraße",
            "brand": "Interspar",
            "brand:wikidata": "Q15820339",
            "brand:wikipedia": "de:Interspar (Österreich)",
            "name": "Interspar",
            "opening_hours": "Mo-Fr 08:00-20:00; Sa 08:00-18:00",
            "shop": "supermarket",
            "toilets:wheelchair": "yes",
            "wheelchair": "yes"
          },
          "geometry": {
            "type": "Point",
            "coordinates": [
              14.3140519,
              46.6352873
            ]
          }
        },
        {
          "type": "Feature",
          "properties": {
            "id": "528103501",
            "osm_type": "node",
            "lat": 46.621264,
            "lon": 14.30757,
            "addr:city": "Klagenfurt am Wörthersee",
            "addr:country": "AT",
            "addr:housenumber": "27",
            "addr:postcode": "9020",
            "addr:street": "10.-Oktober-Straße",
            "brand": "Billa",
            "brand:wikidata": "Q537781",
            "brand:wikipedia": "en:Billa (supermarket)",
            "check_date": "2024-11-04",
            "contact:phone": "+43 463 503 496",
            "level": "0",
            "name": "Billa",
            "opening_hours": "Mo-Fr 07:00-19:15; Sa 07:15-18:00",
            "payment:credit_cards": "yes",
            "payment:debit_cards": "yes",
            "shop": "supermarket",
            "website": "https://www.billa.at/",
            "wheelchair": "yes"
          },
          "geometry": {
            "type": "Point",
            "coordinates": [
              14.30757,
              46.621264
            ]
          }
        },
        {
          "type": "Feature",
          "properties": {
            "id": "1437218018",
            "osm_type": "node",
            "lat": 46.6113508,
            "lon": 14.3097918,
            "addr:city": "Klagenfurt am Wörthersee",
            "addr:country": "AT",
            "addr:housenumber": "49",
            "addr:postcode": "9020",
            "addr:street": "St. Ruprechter Straße",
            "brand": "Billa",
            "brand:wikidata": "Q537781",
            "brand:wikipedia": "en:Billa (supermarket)",
            "name": "Billa",
            "opening_hours": "Mo-Fr 07:00-19:15; Sa 07:15-18:00",
            "shop": "supermarket",
            "wheelchair": "yes"
          },
          "geometry": {
            "type": "Point",
            "coordinates": [
              14.3097918,
              46.6113508
            ]
          }
        },
        {
          "type": "Feature",
          "properties": {
            "id": "2968382603",
            "osm_type": "node",
            "lat": 46.5411273,
            "lon": 14.42144,
            "name": "Spar",
            "shop": "supermarket"
          },
          "geometry": {
            "type": "Point",
            "coordinates": [
              14.42144,
              46.5411273
            ]
          }
        },
        {
          "type": "Feature",
          "properties": {
            "id": "3754933404",
            "osm_type": "node",
            "lat": 46.6266925,
            "lon": 14.3441207,
            "addr:city": "Klagenfurt am Wörthersee",
            "addr:country": "AT",
            "addr:housenumber": "160",
            "addr:postcode": "9020",
            "addr:street": "Völkermarkter Straße",
            "brand": "Denns BioMarkt",
            "brand:wikidata": "Q48883773",
            "name": "Denns BioMarkt",
            "opening_hours": "Mo-Fr 08:00-19:00; Sa 08:00-18:00",
            "operator": "Dennree GmbH",
            "operator:wikidata": "Q1189641",
            "organic": "only",
            "shop": "supermarket"
          },
          "geometry": {
            "type": "Point",
            "coordinates": [
              14.3441207,
              46.6266925
            ]
          }
        },
        {
          "type": "Feature",
          "properties": {
            "id": "3901483145",
            "osm_type": "node",
            "lat": 46.6258495,
            "lon": 14.3333664,
            "addr:city": "Klagenfurt am Wörthersee",
            "addr:country": "AT",
            "addr:housenumber": "2",
            "addr:postcode": "9020",
            "addr:street": "Görzer Allee",
            "brand": "Penny",
            "brand:wikidata": "Q284688",
            "brand:wikipedia": "en:Penny (supermarket)",
            "check_date": "2023-06-09",
            "level": "0",
            "name": "PENNY",
            "opening_hours": "Mo-Fr 07:15-19:30; Sa 07:15-18:00",
            "payment:credit_cards": "yes",
            "payment:debit_cards": "yes",
            "shop": "supermarket",
            "wheelchair": "yes"
          },
          "geometry": {
            "type": "Point",
            "coordinates": [
              14.3333664,
              46.6258495
            ]
          }
        },
        {
          "type": "Feature",
          "properties": {
            "id": "4546239289",
            "osm_type": "node",
            "lat": 46.6272688,
            "lon": 14.3109422,
            "addr:city": "Klagenfurt am Wörthersee",
            "addr:country": "AT",
            "addr:housenumber": "20",
            "addr:postcode": "9020",
            "addr:street": "St. Veiter Ring",
            "brand": "Billa",
            "brand:wikidata": "Q537781",
            "brand:wikipedia": "en:Billa (supermarket)",
            "check_date:opening_hours": "2024-07-23",
            "contact:phone": "+43 463 502 375",
            "level": "-1",
            "name": "Billa",
            "opening_hours": "Mo-Fr 08:00-19:30; Sa 08:00-18:00",
            "shop": "supermarket",
            "wheelchair": "yes"
          },
          "geometry": {
            "type": "Point",
            "coordinates": [
              14.3109422,
              46.6272688
            ]
          }
        },
        {
          "type": "Feature",
          "properties": {
            "id": "4948961922",
            "osm_type": "node",
            "lat": 46.6143481,
            "lon": 14.3200242,
            "addr:city": "Klagenfurt am Wörthersee",
            "addr:country": "AT",
            "addr:housenumber": "64",
            "addr:postcode": "9020",
            "addr:street": "Flatschacher Straße",
            "branch": "Plus",
            "brand": "Billa",
            "brand:wikidata": "Q537781",
            "brand:wikipedia": "de:Billa",
            "name": "Billa",
            "old_name": "Merkur",
            "opening_hours": "Mo-Th 07:20-19:30; Fr 07:20-20:00; Sa 07:20-18:00",
            "shop": "supermarket",
            "website": "https://www.billa.at",
            "wheelchair": "yes"
          },
          "geometry": {
            "type": "Point",
            "coordinates": [
              14.3200242,
              46.6143481
            ]
          }
        },
        {
          "type": "Feature",
          "properties": {
            "id": "5006376867",
            "osm_type": "node",
            "lat": 46.6216373,
            "lon": 14.3109557,
            "addr:city": "Klagenfurt am Wörthersee",
            "addr:country": "AT",
            "addr:housenumber": "37",
            "addr:postcode": "9020",
            "addr:street": "Bahnhofstraße",
            "atm": "yes",
            "brand": "Spar",
            "brand:wikidata": "Q610492",
            "brand:wikipedia": "en:Spar (retailer)",
            "check_date": "2025-06-17",
            "check_date:opening_hours": "2025-06-17",
            "level": "0",
            "name": "Spar",
            "opening_hours": "Mo-Fr 06:50-19:00; Sa 06:50-18:00",
            "shop": "supermarket",
            "wheelchair": "yes"
          },
          "geometry": {
            "type": "Point",
            "coordinates": [
              14.3109557,
              46.6216373
            ]
          }
        },
        {
          "type": "Feature",
          "properties": {
            "id": "5315006919",
            "osm_type": "node",
            "lat": 46.6299423,
            "lon": 14.3505529,
            "check_date": "2023-06-09",
            "email": "office@iloon.at",
            "name": "Iloonfa",
            "opening_hours": "Mo-Fr 07:30-17:00; Sa 08:00-18:00",
            "origin": "asian",
            "phone": "+43 463 35208",
            "shop": "supermarket",
            "website": "https://www.fallaloon.com/iloon-fa/",
            "wheelchair": "yes"
          },
          "geometry": {
            "type": "Point",
            "coordinates": [
              14.3505529,
              46.6299423
            ]
          }
        },
        {
          "type": "Feature",
          "properties": {
            "id": "5649382006",
            "osm_type": "node",
            "lat": 46.6417237,
            "lon": 14.4513365,
            "addr:city": "Poggersdorf",
            "addr:country": "AT",
            "addr:housenumber": "3",
            "addr:postcode": "9130",
            "addr:street": "Marktplatz",
            "at_bev:addr_date": "2017-10-01",
            "brand": "ADEG",
            "brand:wikidata": "Q290211",
            "brand:wikipedia": "de:ADEG Österreich",
            "name": "ADEG",
            "opening_hours": "Mo-Fr 07:30-18:30; Sa 07:30-17:00",
            "shop": "supermarket"
          },
          "geometry": {
            "type": "Point",
            "coordinates": [
              14.4513365,
              46.6417237
            ]
          }
        },
        {
          "type": "Feature",
          "properties": {
            "id": "9282373899",
            "osm_type": "node",
            "lat": 46.6478623,
            "lon": 14.3137293,
            "addr:city": "Klagenfurt am Wörthersee",
            "addr:country": "AT",
            "addr:housenumber": "161",
            "addr:postcode": "9020",
            "addr:street": "St. Veiter Straße",
            "brand": "Billa",
            "brand:wikidata": "Q537781",
            "brand:wikipedia": "de:Billa",
            "name": "Billa",
            "shop": "supermarket"
          },
          "geometry": {
            "type": "Point",
            "coordinates": [
              14.3137293,
              46.6478623
            ]
          }
        },
        {
          "type": "Feature",
          "properties": {
            "id": "9327383462",
            "osm_type": "node",
            "lat": 46.6294727,
            "lon": 14.3036254,
            "addr:city": "Klagenfurt am Wörthersee",
            "addr:country": "AT",
            "addr:postcode": "9020",
            "addr:street": "Feldkirchner Straße",
            "brand": "Lidl",
            "brand:wikidata": "Q151954",
            "brand:wikipedia": "en:Lidl",
            "check_date": "2024-07-30",
            "internet_access": "wlan",
            "internet_access:fee": "no",
            "level": "0",
            "name": "Lidl",
            "opening_hours": "Mo-Fr 07:15-19:30; Sa 07:15-18:00",
            "payment:amex": "yes",
            "payment:apple_pay": "yes",
            "payment:cash": "yes",
            "payment:coins": "yes",
            "payment:diners_club": "yes",
            "payment:mastercard": "yes",
            "payment:visa": "yes",
            "phone": "+43 800 500810",
            "shop": "supermarket",
            "wheelchair": "yes"
          },
          "geometry": {
            "type": "Point",
            "coordinates": [
              14.3036254,
              46.6294727
            ]
          }
        },
        {
          "type": "Feature",
          "properties": {
            "id": "9554184567",
            "osm_type": "node",
            "lat": 46.6166469,
            "lon": 14.3103135,
            "check_date": "2023-11-24",
            "level": "0",
            "name": "Romania Markt",
            "opening_hours": "Mo-Sa 09:30-13:00,14:00-19:00; Su,PH off",
            "operator": "elit",
            "payment:cash": "yes",
            "payment:credit_cards": "yes",
            "payment:debit_cards": "yes",
            "phone": "06766308700",
            "shop": "supermarket"
          },
          "geometry": {
            "type": "Point",
            "coordinates": [
              14.3103135,
              46.6166469
            ]
          }
        },
        {
          "type": "Feature",
          "properties": {
            "id": "11346019017",
            "osm_type": "node",
            "lat": 46.6149204,
            "lon": 14.3091274,
            "addr:housenumber": "1",
            "addr:street": "Kinoplatz",
            "check_date": "2024-05-29",
            "diet:halal": "yes",
            "level": "0",
            "name": "Watan",
            "opening_hours": "Mo-Sa 08:00-19:00",
            "payment:cash": "yes",
            "payment:credit_cards": "yes",
            "payment:debit_cards": "yes",
            "shop": "supermarket"
          },
          "geometry": {
            "type": "Point",
            "coordinates": [
              14.3091274,
              46.6149204
            ]
          }
        },
        {
          "type": "Feature",
          "properties": {
            "id": "12734046718",
            "osm_type": "node",
            "lat": 46.6199411,
            "lon": 14.300311,
            "addr:city": "Klagenfurt am Wörthersee",
            "addr:housenumber": "19-21",
            "addr:postcode": "9020",
            "addr:street": "Hans-Sachs-Straße",
            "brand": "Billa",
            "brand:wikidata": "Q537781",
            "name": "Billa",
            "opening_hours": "Mo-Fr 07:15-19:15; Sa 07:15-18:00",
            "phone": "+4359915 07805",
            "shop": "supermarket"
          },
          "geometry": {
            "type": "Point",
            "coordinates": [
              14.300311,
              46.6199411
            ]
          }
        }
      ],
      "children": []
    },
    {
      "bbox": {
        "south": 46.70320525,
        "west": 13.345766,
        "north": 47.033758500000005,
        "east": 14.2994695
      },
      "poiCount": 37,
      "leafCount": 37,
      "averagePosition": [
        13.809358794594594,
        46.80359609189189
      ],
      "data": [
        {
          "type": "Feature",
          "properties": {
            "id": "2796305327",
            "osm_type": "node",
            "lat": 46.9349005,
            "lon": 13.5232708,
            "name": "Kaufhaus-Trafik Zechner",
            "opening_hours": "Mo-Sa 07:45-12:00, Mo,We-Fr 15:00-18:00",
            "shop": "supermarket",
            "wheelchair": "no"
          },
          "geometry": {
            "type": "Point",
            "coordinates": [
              13.5232708,
              46.9349005
            ]
          }
        },
        {
          "type": "Feature",
          "properties": {
            "id": "472638180",
            "osm_type": "node",
            "lat": 47.0184847,
            "lon": 13.6121719,
            "addr:city": "Rennweg am Katschberg",
            "addr:country": "AT",
            "addr:housenumber": "46",
            "addr:place": "Rennweg",
            "addr:postcode": "9863",
            "name": "ADEG",
            "shop": "supermarket"
          },
          "geometry": {
            "type": "Point",
            "coordinates": [
              13.6121719,
              47.0184847
            ]
          }
        },
        {
          "type": "Feature",
          "properties": {
            "id": "472638862",
            "osm_type": "node",
            "lat": 46.906825,
            "lon": 13.5357584,
            "brand": "ADEG",
            "brand:wikidata": "Q290211",
            "brand:wikipedia": "de:ADEG Österreich",
            "name": "ADEG",
            "opening_hours": "Mo-Fr 07:30-18:15; Sa 07:30-17:00",
            "shop": "supermarket",
            "website": "http://www.adeg-pleschberger.at/",
            "wheelchair": "yes"
          },
          "geometry": {
            "type": "Point",
            "coordinates": [
              13.5357584,
              46.906825
            ]
          }
        },
        {
          "type": "Feature",
          "properties": {
            "id": "7559615248",
            "osm_type": "node",
            "lat": 46.9811022,
            "lon": 14.2159497,
            "addr:city": "Metnitz",
            "addr:housenumber": "3",
            "addr:postcode": "9363",
            "addr:street": "Metnitz Marktplatz",
            "branch": "Strasser",
            "brand": "Nah & Frisch",
            "brand:wikidata": "Q1963643",
            "brand:wikipedia": "de:Nah & Frisch",
            "email": "strasser.metnitz@kig.co.at",
            "level": "0",
            "name": "Nah & Frisch Strasser",
            "opening_hours": "Mo-Tu 06:15-12:15,15:00-18:15; We 06:15-12:15; Th-Fr 06:15-12:15,15:00-18:15; Sa 08:00-12:00",
            "operator": "Stefan Strasser",
            "phone": "+43 4267 225",
            "shop": "supermarket",
            "website": "https://www.nahundfrisch.at/de/kaufmann/strasser-stefan",
            "wheelchair": "yes"
          },
          "geometry": {
            "type": "Point",
            "coordinates": [
              14.2159497,
              46.9811022
            ]
          }
        },
        {
          "type": "Feature",
          "properties": {
            "id": "36487944",
            "osm_type": "node",
            "lat": 46.8178035,
            "lon": 13.5289407,
            "name": "T&G",
            "opening_hours": "Mo-Fr 08:00-19:00; Sa 08:00-18:00; May-Sep Su,PH 08:00-12:00,15:00-18:00",
            "shop": "supermarket"
          },
          "geometry": {
            "type": "Point",
            "coordinates": [
              13.5289407,
              46.8178035
            ]
          }
        },
        {
          "type": "Feature",
          "properties": {
            "id": "470208463",
            "osm_type": "node",
            "lat": 46.7915555,
            "lon": 13.5138209,
            "branch": "Plus",
            "brand": "Billa",
            "brand:wikidata": "Q537781",
            "brand:wikipedia": "de:Billa",
            "name": "Billa",
            "old_name": "Merkur",
            "shop": "supermarket",
            "website": "https://www.billa.at",
            "wheelchair": "yes"
          },
          "geometry": {
            "type": "Point",
            "coordinates": [
              13.5138209,
              46.7915555
            ]
          }
        },
        {
          "type": "Feature",
          "properties": {
            "id": "3378037782",
            "osm_type": "node",
            "lat": 46.7919147,
            "lon": 13.5112339,
            "brand": "Billa",
            "brand:wikidata": "Q537781",
            "name": "Billa",
            "shop": "supermarket",
            "wheelchair": "yes"
          },
          "geometry": {
            "type": "Point",
            "coordinates": [
              13.5112339,
              46.7919147
            ]
          }
        },
        {
          "type": "Feature",
          "properties": {
            "id": "3378430794",
            "osm_type": "node",
            "lat": 46.7980701,
            "lon": 13.4902634,
            "brand": "Eurospar",
            "brand:wikidata": "Q12309283",
            "brand:wikipedia": "da:Eurospar",
            "level": "0",
            "name": "Eurospar",
            "opening_hours": "Mo-Fr 06:50-19:00; Sa 06:50-18:00; PH off",
            "shop": "supermarket"
          },
          "geometry": {
            "type": "Point",
            "coordinates": [
              13.4902634,
              46.7980701
            ]
          }
        },
        {
          "type": "Feature",
          "properties": {
            "id": "3379974486",
            "osm_type": "node",
            "lat": 46.8003605,
            "lon": 13.4945228,
            "addr:city": "Spittal an der Drau",
            "addr:housenumber": "6-8",
            "addr:postcode": "9800",
            "addr:street": "Lutherstraße",
            "brand": "Billa",
            "brand:wikidata": "Q537781",
            "brand:wikipedia": "de:Billa",
            "name": "Billa",
            "opening_hours": "Mo-Fr 07:15-19:30; Sa 07:15-18:00",
            "phone": "+43 4762 3282",
            "shop": "supermarket",
            "toilets:wheelchair": "no",
            "website": "https://www.billa.at",
            "wheelchair": "yes"
          },
          "geometry": {
            "type": "Point",
            "coordinates": [
              13.4945228,
              46.8003605
            ]
          }
        },
        {
          "type": "Feature",
          "properties": {
            "id": "4399419391",
            "osm_type": "node",
            "lat": 46.7852476,
            "lon": 13.5245803,
            "brand": "Spar",
            "brand:wikidata": "Q610492",
            "brand:wikipedia": "en:SPAR (retailer)",
            "name": "Spar",
            "name:de": "Spar",
            "shop": "supermarket",
            "wheelchair": "yes"
          },
          "geometry": {
            "type": "Point",
            "coordinates": [
              13.5245803,
              46.7852476
            ]
          }
        },
        {
          "type": "Feature",
          "properties": {
            "id": "5618918462",
            "osm_type": "node",
            "lat": 46.8163413,
            "lon": 13.5094231,
            "addr:city": "Seeboden am Millstätter See",
            "addr:country": "AT",
            "addr:housenumber": "28",
            "addr:postcode": "9871",
            "addr:street": "Hauptstraße",
            "at_bev:addr_date": "2017-10-01",
            "brand": "Spar",
            "brand:wikidata": "Q610492",
            "brand:wikipedia": "en:Spar (retailer)",
            "check_date": "2023-07-31",
            "name": "Spar",
            "opening_hours": "Mo-Fr 07:15-19:30; Sa 07:40-18:00;May-Sep Mo-Fr 08:00-18:50; Sa 08:00-17:50; Su,Ph 08:00-13:00, 15:00-18:00",
            "shop": "supermarket",
            "wheelchair": "yes"
          },
          "geometry": {
            "type": "Point",
            "coordinates": [
              13.5094231,
              46.8163413
            ]
          }
        },
        {
          "type": "Feature",
          "properties": {
            "id": "5618918475",
            "osm_type": "node",
            "lat": 46.8184595,
            "lon": 13.5169467,
            "addr:city": "Seeboden am Millstätter See",
            "addr:country": "AT",
            "addr:housenumber": "77",
            "addr:postcode": "9871",
            "addr:street": "Hauptstraße",
            "at_bev:addr_date": "2017-10-01",
            "branch": "Seeboden",
            "brand": "ADEG",
            "brand:wikidata": "Q290211",
            "brand:wikipedia": "de:ADEG Österreich",
            "name": "ADEG",
            "opening_hours": "Mo-Th 07:30-18:15; Fr 07:30-18:30; Sa 08:00-18:00; Su,PH 08:00-13:00,15:00-18:00",
            "shop": "supermarket",
            "source": "bing",
            "website": "https://www.adeg.at/haller"
          },
          "geometry": {
            "type": "Point",
            "coordinates": [
              13.5169467,
              46.8184595
            ]
          }
        },
        {
          "type": "Feature",
          "properties": {
            "id": "6517859389",
            "osm_type": "node",
            "lat": 46.7877806,
            "lon": 13.4930381,
            "addr:city": "Spittal an der Drau",
            "addr:housenumber": "27",
            "addr:postcode": "9800",
            "addr:street": "Drauweg",
            "brand": "Spar",
            "brand:wikidata": "Q610492",
            "brand:wikipedia": "en:Spar (retailer)",
            "name": "Spar",
            "opening_hours": "Mo-Fr 07:15-19:30, Sa 07:15-18:00",
            "shop": "supermarket"
          },
          "geometry": {
            "type": "Point",
            "coordinates": [
              13.4930381,
              46.7877806
            ]
          }
        },
        {
          "type": "Feature",
          "properties": {
            "id": "742554726",
            "osm_type": "node",
            "lat": 46.7991767,
            "lon": 13.6985952,
            "addr:city": "Radenthein",
            "addr:country": "AT",
            "addr:housenumber": "70",
            "addr:postcode": "9545",
            "addr:street": "Hauptstraße",
            "brand": "Hofer",
            "brand:wikidata": "Q15815751",
            "brand:wikipedia": "de:Hofer KG",
            "name": "Hofer",
            "opening_hours": "Mo-Fr 07:15-19:30, Sa 07:15-18:00",
            "payment:american_express": "yes",
            "payment:diners_club": "yes",
            "payment:maestro": "yes",
            "payment:mastercard": "yes",
            "payment:visa": "yes",
            "shop": "supermarket",
            "wheelchair": "yes"
          },
          "geometry": {
            "type": "Point",
            "coordinates": [
              13.6985952,
              46.7991767
            ]
          }
        },
        {
          "type": "Feature",
          "properties": {
            "id": "742555206",
            "osm_type": "node",
            "lat": 46.798417,
            "lon": 13.7126039,
            "addr:city": "Radenthein",
            "addr:housenumber": "29",
            "addr:postcode": "9545",
            "addr:street": "Stadionstraße",
            "alt_name": "MPREIS Warenvertriebs GmbH",
            "contact:phone": "+43 50321 927820",
            "name": "T&G",
            "opening_hours": "Mo-Sa 08:00-19:00",
            "ref": "7820",
            "ref:UID:AT": "ATU30961901",
            "shop": "supermarket",
            "website": "https://www.tundg.at/",
            "wheelchair": "yes"
          },
          "geometry": {
            "type": "Point",
            "coordinates": [
              13.7126039,
              46.798417
            ]
          }
        },
        {
          "type": "Feature",
          "properties": {
            "id": "762319585",
            "osm_type": "node",
            "lat": 46.7984592,
            "lon": 13.6977186,
            "addr:city": "Radenthein",
            "addr:country": "AT",
            "addr:housenumber": "8",
            "addr:postcode": "9545",
            "addr:street": "Millstätterstraße",
            "at_bev:addr_date": "2017-04-07",
            "name": "Werkskaufhaus Radenthein",
            "opening_hours": "Mo-Fr 08:00-18:00; Sa 08:00-12:00",
            "payment:cash": "yes",
            "payment:maestro": "yes",
            "payment:notes": "yes",
            "shop": "supermarket",
            "wheelchair": "limited"
          },
          "geometry": {
            "type": "Point",
            "coordinates": [
              13.6977186,
              46.7984592
            ]
          }
        },
        {
          "type": "Feature",
          "properties": {
            "id": "1819038072",
            "osm_type": "node",
            "lat": 46.8134847,
            "lon": 13.7888086,
            "addr:city": "Bad Kleinkirchheim",
            "addr:housenumber": "42",
            "addr:postcode": "9546",
            "addr:street": "Dorfstraße",
            "brand": "Spar",
            "brand:wikidata": "Q610492",
            "contact:phone": "+43 4240 20659",
            "contact:website": "https://www.spar.at/standorte/spar-bad-kleinkirchheim-9546-dorfstrasse-42",
            "name": "Spar",
            "opening_hours": "Mo-Fr 08:00-19:00; Sa 08:00-18:00; Su 08:00-18:00;May-Sep Mo-Fr 08:00-18:50;Sa 08:00-17:50;Su,Ph 08:00-13:00, 15:00-18:00",
            "shop": "supermarket",
            "website": "https://www.spar.at/"
          },
          "geometry": {
            "type": "Point",
            "coordinates": [
              13.7888086,
              46.8134847
            ]
          }
        },
        {
          "type": "Feature",
          "properties": {
            "id": "2148710943",
            "osm_type": "node",
            "lat": 46.8650673,
            "lon": 13.9972664,
            "name": "Bauernecke",
            "shop": "supermarket"
          },
          "geometry": {
            "type": "Point",
            "coordinates": [
              13.9972664,
              46.8650673
            ]
          }
        },
        {
          "type": "Feature",
          "properties": {
            "id": "3012894896",
            "osm_type": "node",
            "lat": 46.8012384,
            "lon": 13.7052182,
            "addr:city": "Radenthein",
            "addr:country": "AT",
            "addr:housenumber": "26",
            "addr:postcode": "9545",
            "addr:street": "Hauptstraße",
            "at_bev:addr_date": "2017-04-07",
            "name": "Bioladen Naturesway",
            "shop": "supermarket"
          },
          "geometry": {
            "type": "Point",
            "coordinates": [
              13.7052182,
              46.8012384
            ]
          }
        },
        {
          "type": "Feature",
          "properties": {
            "id": "3012894901",
            "osm_type": "node",
            "lat": 46.7978917,
            "lon": 13.6966728,
            "brand": "Penny",
            "brand:wikidata": "Q284688",
            "brand:wikipedia": "en:Penny (supermarket)",
            "name": "Penny Markt",
            "shop": "supermarket",
            "wheelchair": "yes"
          },
          "geometry": {
            "type": "Point",
            "coordinates": [
              13.6966728,
              46.7978917
            ]
          }
        },
        {
          "type": "Feature",
          "properties": {
            "id": "3158383092",
            "osm_type": "node",
            "lat": 46.7363524,
            "lon": 13.6260555,
            "name": "Adeg",
            "operator": "Albert Angerer",
            "shop": "supermarket"
          },
          "geometry": {
            "type": "Point",
            "coordinates": [
              13.6260555,
              46.7363524
            ]
          }
        },
        {
          "type": "Feature",
          "properties": {
            "id": "5027107301",
            "osm_type": "node",
            "lat": 46.7132648,
            "lon": 13.6891916,
            "addr:city": "Fresach",
            "addr:housenumber": "160",
            "addr:postcode": "9712",
            "addr:street": "Dorfplatz",
            "email": "office@dorfladen-fresach.at",
            "level": "0",
            "name": "Dorfladen Fresach",
            "opening_hours": "Mo-Sa 06:00-12:00, Mo-Fr 15:00-18:00",
            "operator": "Andrea Egger, Ernst Egger",
            "phone": "+43 4245 24 4 13",
            "shop": "supermarket",
            "start_date": "01.08.2017",
            "website": "http://www.dorfladen-fresach.at"
          },
          "geometry": {
            "type": "Point",
            "coordinates": [
              13.6891916,
              46.7132648
            ]
          }
        },
        {
          "type": "Feature",
          "properties": {
            "id": "5398331343",
            "osm_type": "node",
            "lat": 46.7302919,
            "lon": 13.8499046,
            "branch": "Oblak",
            "brand": "ADEG",
            "brand:wikidata": "Q290211",
            "name": "ADEG",
            "opening_hours": "Tu,Sa 07:00-12:30; Mo,We-Fr 07:00-12:30, 15:00-18:00",
            "phone": "+43 04247/8509",
            "shop": "supermarket"
          },
          "geometry": {
            "type": "Point",
            "coordinates": [
              13.8499046,
              46.7302919
            ]
          }
        },
        {
          "type": "Feature",
          "properties": {
            "id": "12604131537",
            "osm_type": "node",
            "lat": 46.810115,
            "lon": 13.5615709,
            "shop": "supermarket"
          },
          "geometry": {
            "type": "Point",
            "coordinates": [
              13.5615709,
              46.810115
            ]
          }
        },
        {
          "type": "Feature",
          "properties": {
            "id": "1860004735",
            "osm_type": "node",
            "lat": 46.7243242,
            "lon": 14.0951134,
            "brand": "Spar",
            "brand:wikidata": "Q610492",
            "brand:wikipedia": "en:SPAR (retailer)",
            "name": "Spar",
            "shop": "supermarket",
            "wheelchair": "yes"
          },
          "geometry": {
            "type": "Point",
            "coordinates": [
              14.0951134,
              46.7243242
            ]
          }
        },
        {
          "type": "Feature",
          "properties": {
            "id": "2613313784",
            "osm_type": "node",
            "lat": 46.8564996,
            "lon": 14.0728737,
            "shop": "supermarket"
          },
          "geometry": {
            "type": "Point",
            "coordinates": [
              14.0728737,
              46.8564996
            ]
          }
        },
        {
          "type": "Feature",
          "properties": {
            "id": "2613313813",
            "osm_type": "node",
            "lat": 46.8555992,
            "lon": 14.0750624,
            "name": "Krassnitzer",
            "shop": "supermarket"
          },
          "geometry": {
            "type": "Point",
            "coordinates": [
              14.0750624,
              46.8555992
            ]
          }
        },
        {
          "type": "Feature",
          "properties": {
            "id": "2937980386",
            "osm_type": "node",
            "lat": 46.7508285,
            "lon": 14.1697995,
            "addr:city": "Sankt Urban",
            "addr:housenumber": "14",
            "addr:postcode": "9554",
            "addr:street": "Urbanstraße",
            "brand": "Spar",
            "brand:wikidata": "Q610492",
            "brand:wikipedia": "en:Spar (retailer)",
            "name": "Spar",
            "opening_hours": "Mo-Fr 07:00-12:15,15:00-18:00; Sa 07:00-12:30; Su 08:00-11:00",
            "shop": "supermarket",
            "wheelchair": "limited"
          },
          "geometry": {
            "type": "Point",
            "coordinates": [
              14.1697995,
              46.7508285
            ]
          }
        },
        {
          "type": "Feature",
          "properties": {
            "id": "3122463443",
            "osm_type": "node",
            "lat": 46.7231992,
            "lon": 14.0882788,
            "brand": "Hofer",
            "brand:wikidata": "Q15815751",
            "brand:wikipedia": "de:Hofer KG",
            "check_date": "2025-04-12",
            "contact:phone": "+43 57 0303 5042",
            "name": "Hofer",
            "opening_hours": "Mo-Fr 07:15-19:30; Sa Mo-Fr 07:15-18:00",
            "shop": "supermarket",
            "wheelchair": "yes"
          },
          "geometry": {
            "type": "Point",
            "coordinates": [
              14.0882788,
              46.7231992
            ]
          }
        },
        {
          "type": "Feature",
          "properties": {
            "id": "3923365128",
            "osm_type": "node",
            "lat": 46.7223386,
            "lon": 14.1007482,
            "addr:city": "Feldkirchen in Kärnten",
            "addr:housenumber": "2",
            "addr:postcode": "9560",
            "addr:street": "St. Veiterstraße",
            "brand": "Billa",
            "brand:wikidata": "Q537781",
            "brand:wikipedia": "de:Billa",
            "check_date": "2025-04-12",
            "name": "Billa",
            "shop": "supermarket",
            "wheelchair": "yes"
          },
          "geometry": {
            "type": "Point",
            "coordinates": [
              14.1007482,
              46.7223386
            ]
          }
        },
        {
          "type": "Feature",
          "properties": {
            "id": "4353259325",
            "osm_type": "node",
            "lat": 46.7274994,
            "lon": 14.0907556,
            "addr:city": "Feldkirchen in Kärnten",
            "addr:country": "AT",
            "addr:housenumber": "1",
            "addr:postcode": "9560",
            "addr:street": "Milesipark",
            "alt_name": "MPreis, mpreis, M-Preis, Mpreis",
            "name": "T&G",
            "operator": "MPREIS Warenvertriebs GmbH",
            "shop": "supermarket",
            "wheelchair": "yes"
          },
          "geometry": {
            "type": "Point",
            "coordinates": [
              14.0907556,
              46.7274994
            ]
          }
        },
        {
          "type": "Feature",
          "properties": {
            "id": "5003824921",
            "osm_type": "node",
            "lat": 46.7258401,
            "lon": 14.089593,
            "brand": "Billa Plus",
            "brand:wikidata": "Q115431077",
            "brand:wikipedia": "de:Billa",
            "name": "Billa Plus",
            "old_name": "Merkur",
            "shop": "supermarket",
            "website": "https://www.billa.at",
            "wheelchair": "yes"
          },
          "geometry": {
            "type": "Point",
            "coordinates": [
              14.089593,
              46.7258401
            ]
          }
        },
        {
          "type": "Feature",
          "properties": {
            "id": "6468767983",
            "osm_type": "node",
            "lat": 46.8680805,
            "lon": 14.2269677,
            "name": "Spar",
            "operator": "Herbert Wasserer",
            "shop": "supermarket"
          },
          "geometry": {
            "type": "Point",
            "coordinates": [
              14.2269677,
              46.8680805
            ]
          }
        },
        {
          "type": "Feature",
          "properties": {
            "id": "6545266086",
            "osm_type": "node",
            "lat": 46.7244739,
            "lon": 14.0884081,
            "brand": "Eurospar",
            "brand:wikidata": "Q12309283",
            "brand:wikipedia": "da:Eurospar",
            "level": "0",
            "name": "Eurospar",
            "shop": "supermarket"
          },
          "geometry": {
            "type": "Point",
            "coordinates": [
              14.0884081,
              46.7244739
            ]
          }
        },
        {
          "type": "Feature",
          "properties": {
            "id": "7313726943",
            "osm_type": "node",
            "lat": 46.7885227,
            "lon": 14.1142636,
            "brand": "Spar",
            "brand:wikidata": "Q610492",
            "name": "Spar",
            "shop": "supermarket"
          },
          "geometry": {
            "type": "Point",
            "coordinates": [
              14.1142636,
              46.7885227
            ]
          }
        },
        {
          "type": "Feature",
          "properties": {
            "id": "7313726944",
            "osm_type": "node",
            "lat": 46.8298213,
            "lon": 14.1546882,
            "brand": "Spar",
            "brand:wikidata": "Q610492",
            "name": "Spar",
            "shop": "supermarket"
          },
          "geometry": {
            "type": "Point",
            "coordinates": [
              14.1546882,
              46.8298213
            ]
          }
        },
        {
          "type": "Feature",
          "properties": {
            "id": "9028433285",
            "osm_type": "node",
            "lat": 46.7234234,
            "lon": 14.0861962,
            "brand": "Lidl",
            "brand:wikidata": "Q151954",
            "brand:wikipedia": "en:Lidl",
            "check_date": "2025-04-12",
            "name": "Lidl",
            "opening_hours": "Mo-Fr 07:15-19:30; Sa Mo-Fr 07:15-18:00",
            "shop": "supermarket",
            "wheelchair": "yes"
          },
          "geometry": {
            "type": "Point",
            "coordinates": [
              14.0861962,
              46.7234234
            ]
          }
        }
      ],
      "children": []
    },
    {
      "bbox": {
        "south": 46.70320525,
        "west": 14.2994695,
        "north": 47.033758500000005,
        "east": 15.253173
      },
      "poiCount": 37,
      "leafCount": 37,
      "averagePosition": [
        14.688687732432431,
        46.839579437837834
      ],
      "data": [
        {
          "type": "Feature",
          "properties": {
            "id": "428789243",
            "osm_type": "node",
            "lat": 46.7050283,
            "lon": 14.8674537,
            "addr:city": "Sankt Paul",
            "addr:housenumber": "5",
            "addr:postcode": "9470",
            "addr:street": "Bahnhofstraße",
            "brand": "Spar",
            "brand:wikidata": "Q610492",
            "brand:wikipedia": "en:SPAR (retailer)",
            "name": "Spar",
            "shop": "supermarket"
          },
          "geometry": {
            "type": "Point",
            "coordinates": [
              14.8674537,
              46.7050283
            ]
          }
        },
        {
          "type": "Feature",
          "properties": {
            "id": "445098337",
            "osm_type": "node",
            "lat": 46.7530125,
            "lon": 14.5321185,
            "addr:housenumber": "4",
            "addr:postcode": "9371",
            "addr:street": "Kirchweg",
            "name": "Spar",
            "opening_hours": "Mo-Fr 07:15-19:30; Sa 07:15-18:00",
            "shop": "supermarket"
          },
          "geometry": {
            "type": "Point",
            "coordinates": [
              14.5321185,
              46.7530125
            ]
          }
        },
        {
          "type": "Feature",
          "properties": {
            "id": "559644015",
            "osm_type": "node",
            "lat": 46.8469075,
            "lon": 14.8451369,
            "name": "Hofer",
            "shop": "supermarket"
          },
          "geometry": {
            "type": "Point",
            "coordinates": [
              14.8451369,
              46.8469075
            ]
          }
        },
        {
          "type": "Feature",
          "properties": {
            "id": "1322910831",
            "osm_type": "node",
            "lat": 46.8271892,
            "lon": 14.8385478,
            "name": "Hofer",
            "shop": "supermarket"
          },
          "geometry": {
            "type": "Point",
            "coordinates": [
              14.8385478,
              46.8271892
            ]
          }
        },
        {
          "type": "Feature",
          "properties": {
            "id": "1322911059",
            "osm_type": "node",
            "lat": 46.8378548,
            "lon": 14.840877,
            "brand": "Lidl",
            "brand:wikidata": "Q151954",
            "brand:wikipedia": "en:Lidl",
            "name": "Lidl",
            "shop": "supermarket",
            "wheelchair": "yes"
          },
          "geometry": {
            "type": "Point",
            "coordinates": [
              14.840877,
              46.8378548
            ]
          }
        },
        {
          "type": "Feature",
          "properties": {
            "id": "1381791242",
            "osm_type": "node",
            "lat": 46.8680503,
            "lon": 14.876546,
            "addr:city": "Frantschach-St. Gertraud",
            "addr:country": "AT",
            "addr:housenumber": "87",
            "addr:place": "St. Gertraud",
            "addr:postcode": "9413",
            "at_bev:addr_date": "2017-04-07",
            "brand": "ADEG",
            "brand:wikidata": "Q290211",
            "brand:wikipedia": "de:ADEG Österreich",
            "name": "ADEG",
            "shop": "supermarket"
          },
          "geometry": {
            "type": "Point",
            "coordinates": [
              14.876546,
              46.8680503
            ]
          }
        },
        {
          "type": "Feature",
          "properties": {
            "id": "1393977658",
            "osm_type": "node",
            "lat": 46.8347376,
            "lon": 14.5407379,
            "name": "Spar",
            "shop": "supermarket"
          },
          "geometry": {
            "type": "Point",
            "coordinates": [
              14.5407379,
              46.8347376
            ]
          }
        },
        {
          "type": "Feature",
          "properties": {
            "id": "1715394601",
            "osm_type": "node",
            "lat": 46.8246813,
            "lon": 14.8398608,
            "name": "ADEG",
            "shop": "supermarket"
          },
          "geometry": {
            "type": "Point",
            "coordinates": [
              14.8398608,
              46.8246813
            ]
          }
        },
        {
          "type": "Feature",
          "properties": {
            "id": "2188818877",
            "osm_type": "node",
            "lat": 46.842614,
            "lon": 14.8408753,
            "brand": "Eurospar",
            "brand:wikidata": "Q12309283",
            "brand:wikipedia": "da:Eurospar",
            "name": "Eurospar",
            "shop": "supermarket",
            "wheelchair": "yes"
          },
          "geometry": {
            "type": "Point",
            "coordinates": [
              14.8408753,
              46.842614
            ]
          }
        },
        {
          "type": "Feature",
          "properties": {
            "id": "4546199491",
            "osm_type": "node",
            "lat": 46.7042326,
            "lon": 14.8690344,
            "addr:city": "St. Paul im Lavanttal",
            "addr:country": "AT",
            "addr:housenumber": "4",
            "addr:postcode": "9470",
            "addr:street": "Bahnhofstraße",
            "at_bev:addr_date": "2018-10-01",
            "brand": "Billa",
            "brand:wikidata": "Q537781",
            "brand:wikipedia": "de:Billa",
            "name": "Billa",
            "shop": "supermarket",
            "wheelchair": "yes"
          },
          "geometry": {
            "type": "Point",
            "coordinates": [
              14.8690344,
              46.7042326
            ]
          }
        },
        {
          "type": "Feature",
          "properties": {
            "id": "4546229991",
            "osm_type": "node",
            "lat": 46.7488852,
            "lon": 14.5331513,
            "addr:city": "Brückl",
            "addr:housenumber": "2",
            "addr:postcode": "9371",
            "addr:street": "10. Oktober Straße",
            "name": "Billa",
            "opening_hours": "Mo-Fr 07:15-19:30; Sa 07:15-18:00",
            "shop": "supermarket",
            "wheelchair": "yes"
          },
          "geometry": {
            "type": "Point",
            "coordinates": [
              14.5331513,
              46.7488852
            ]
          }
        },
        {
          "type": "Feature",
          "properties": {
            "id": "4546338990",
            "osm_type": "node",
            "lat": 46.8425593,
            "lon": 14.8423415,
            "brand": "Billa",
            "brand:wikidata": "Q537781",
            "brand:wikipedia": "de:Billa",
            "name": "Billa",
            "shop": "supermarket",
            "wheelchair": "yes"
          },
          "geometry": {
            "type": "Point",
            "coordinates": [
              14.8423415,
              46.8425593
            ]
          }
        },
        {
          "type": "Feature",
          "properties": {
            "id": "4780784306",
            "osm_type": "node",
            "lat": 46.8552094,
            "lon": 14.8042589,
            "brand": "ADEG",
            "brand:wikidata": "Q290211",
            "brand:wikipedia": "de:ADEG Österreich",
            "name": "ADEG",
            "shop": "supermarket"
          },
          "geometry": {
            "type": "Point",
            "coordinates": [
              14.8042589,
              46.8552094
            ]
          }
        },
        {
          "type": "Feature",
          "properties": {
            "id": "5230190522",
            "osm_type": "node",
            "lat": 46.817918,
            "lon": 14.8367113,
            "addr:city": "Wolfsberg",
            "addr:housenumber": "59",
            "addr:postcode": "9400",
            "addr:street": "Klagenfurter Straße",
            "brand": "Penny",
            "brand:wikidata": "Q284688",
            "brand:wikipedia": "en:Penny (supermarket)",
            "name": "Penny",
            "shop": "supermarket",
            "wheelchair": "yes"
          },
          "geometry": {
            "type": "Point",
            "coordinates": [
              14.8367113,
              46.817918
            ]
          }
        },
        {
          "type": "Feature",
          "properties": {
            "id": "7728553505",
            "osm_type": "node",
            "lat": 46.8389,
            "lon": 14.8454,
            "name": "Adeg Altstadtmarkt",
            "shop": "supermarket"
          },
          "geometry": {
            "type": "Point",
            "coordinates": [
              14.8454,
              46.8389
            ]
          }
        },
        {
          "type": "Feature",
          "properties": {
            "id": "11681689379",
            "osm_type": "node",
            "lat": 46.7168811,
            "lon": 14.9156736,
            "brand": "ADEG",
            "brand:wikidata": "Q290211",
            "name": "ADEG",
            "operator": "Hassler",
            "shop": "supermarket"
          },
          "geometry": {
            "type": "Point",
            "coordinates": [
              14.9156736,
              46.7168811
            ]
          }
        },
        {
          "type": "Feature",
          "properties": {
            "id": "11681689381",
            "osm_type": "node",
            "lat": 46.7183157,
            "lon": 14.9165082,
            "brand": "Spar",
            "brand:wikidata": "Q610492",
            "name": "Spar",
            "operator": "Hollauf",
            "shop": "supermarket",
            "website": "https://www.spar.at/standorte/spar-st-georgen-lavanttal-9423-dorfplatz-11"
          },
          "geometry": {
            "type": "Point",
            "coordinates": [
              14.9165082,
              46.7183157
            ]
          }
        },
        {
          "type": "Feature",
          "properties": {
            "id": "5245594331",
            "osm_type": "node",
            "lat": 46.8202566,
            "lon": 15.235261,
            "addr:city": "Deutschland",
            "addr:housenumber": "110",
            "addr:postcode": "8530",
            "addr:street": "Frauentaler Straße",
            "brand": "PENNY",
            "brand:wikidata": "Q284688",
            "brand:wikipedia": "en:Penny (supermarket)",
            "name": "PENNY",
            "opening_hours": "Mo-Fr 07:40-19:00; Sa 07:40-18:00; Su,PH off",
            "shop": "supermarket",
            "wheelchair": "yes"
          },
          "geometry": {
            "type": "Point",
            "coordinates": [
              15.235261,
              46.8202566
            ]
          }
        },
        {
          "type": "Feature",
          "properties": {
            "id": "7663160044",
            "osm_type": "node",
            "lat": 46.715667,
            "lon": 15.2076789,
            "addr:city": "Wies",
            "addr:country": "AT",
            "addr:housenumber": "70",
            "addr:place": "Wernersdorf",
            "addr:postcode": "8551",
            "brand": "Nah & Frisch",
            "brand:wikidata": "Q1963643",
            "brand:wikipedia": "de:Nah & Frisch",
            "email": "nahversorger.gross@gmx.at",
            "name": "Nah & Frisch",
            "opening_hours": "Mo, We-Fr 06:30-18:00; Tu 06:30-13:00; Sa 06:30-12:00",
            "operator": "Nahversorger Gross",
            "payment:cash": "yes",
            "payment:debit_cards": "yes",
            "phone": "+43 3466 43164",
            "shop": "supermarket",
            "website": "https://www.nahundfrisch.at/de/kaufmann/gross"
          },
          "geometry": {
            "type": "Point",
            "coordinates": [
              15.2076789,
              46.715667
            ]
          }
        },
        {
          "type": "Feature",
          "properties": {
            "id": "2098148784",
            "osm_type": "node",
            "lat": 46.9507544,
            "lon": 14.40592,
            "brand": "Spar",
            "brand:wikidata": "Q610492",
            "brand:wikipedia": "en:Spar (retailer)",
            "name": "Spar",
            "shop": "supermarket"
          },
          "geometry": {
            "type": "Point",
            "coordinates": [
              14.40592,
              46.9507544
            ]
          }
        },
        {
          "type": "Feature",
          "properties": {
            "id": "2247755915",
            "osm_type": "node",
            "lat": 46.9534969,
            "lon": 14.4133175,
            "brand": "Billa",
            "brand:wikidata": "Q537781",
            "brand:wikipedia": "en:Billa (supermarket)",
            "check_date": "2025-04-12",
            "check_date:opening_hours": "2025-04-12",
            "name": "Billa",
            "opening_hours": "Mo-Fr 07:15-19:30; Sa 07:15-18:00",
            "shop": "supermarket",
            "wheelchair": "yes"
          },
          "geometry": {
            "type": "Point",
            "coordinates": [
              14.4133175,
              46.9534969
            ]
          }
        },
        {
          "type": "Feature",
          "properties": {
            "id": "4546326390",
            "osm_type": "node",
            "lat": 46.9566519,
            "lon": 14.4020355,
            "addr:city": "Friesach",
            "addr:housenumber": "26",
            "addr:postcode": "9360",
            "addr:street": "Lastenstraße",
            "brand": "Billa",
            "brand:wikidata": "Q537781",
            "brand:wikipedia": "en:Billa (supermarket)",
            "check_date": "2025-06-02",
            "name": "Billa",
            "shop": "supermarket",
            "wheelchair": "yes"
          },
          "geometry": {
            "type": "Point",
            "coordinates": [
              14.4020355,
              46.9566519
            ]
          }
        },
        {
          "type": "Feature",
          "properties": {
            "id": "4936810895",
            "osm_type": "node",
            "lat": 46.895824,
            "lon": 14.3355489,
            "addr:city": "Straßburg",
            "addr:country": "AT",
            "addr:housenumber": "3a",
            "addr:postcode": "9341",
            "addr:street": "10.-Oktober-Straße",
            "name": "ADEG Bachler",
            "phone": "+43 4266 3110",
            "shop": "supermarket",
            "website": "https://www.adeg.at/"
          },
          "geometry": {
            "type": "Point",
            "coordinates": [
              14.3355489,
              46.895824
            ]
          }
        },
        {
          "type": "Feature",
          "properties": {
            "id": "727459789",
            "osm_type": "node",
            "lat": 46.9408781,
            "lon": 14.5483018,
            "addr:housenumber": "20",
            "addr:street": "Reiftanzplatz",
            "name": "Spar Markt Polainer",
            "phone": "+43 4263 20031",
            "shop": "supermarket"
          },
          "geometry": {
            "type": "Point",
            "coordinates": [
              14.5483018,
              46.9408781
            ]
          }
        },
        {
          "type": "Feature",
          "properties": {
            "id": "1012750743",
            "osm_type": "node",
            "lat": 47.0074436,
            "lon": 14.7405374,
            "name": "ADEG",
            "shop": "supermarket"
          },
          "geometry": {
            "type": "Point",
            "coordinates": [
              14.7405374,
              47.0074436
            ]
          }
        },
        {
          "type": "Feature",
          "properties": {
            "id": "1618882372",
            "osm_type": "node",
            "lat": 47.020226,
            "lon": 14.9572911,
            "addr:city": "Hirschegg-Pack",
            "addr:country": "AT",
            "addr:housenumber": "51",
            "addr:place": "Hirschegg",
            "addr:postcode": "8584",
            "at_bev:addr_date": "2018-10-01",
            "brand": "Nah & Frisch",
            "brand:wikidata": "Q1963643",
            "contact:phone": "+43 3141 2205",
            "description": "Hybridmarkt",
            "name": "Nah & Frisch",
            "opening_hours": "Mo-Sa 07:00-19:30; Su 07:00-11:00",
            "operator": "Martina Pöschl",
            "shop": "supermarket",
            "website": "https://www.nahundfrisch.at/de/kaufmann/poschl_martina"
          },
          "geometry": {
            "type": "Point",
            "coordinates": [
              14.9572911,
              47.020226
            ]
          }
        },
        {
          "type": "Feature",
          "properties": {
            "id": "2214708145",
            "osm_type": "node",
            "lat": 46.9578085,
            "lon": 14.7982242,
            "name": "Billa",
            "shop": "supermarket",
            "wheelchair": "yes"
          },
          "geometry": {
            "type": "Point",
            "coordinates": [
              14.7982242,
              46.9578085
            ]
          }
        },
        {
          "type": "Feature",
          "properties": {
            "id": "7839350133",
            "osm_type": "node",
            "lat": 46.9633858,
            "lon": 14.7936447,
            "addr:city": "Bad St. Leonhard im Lavanttal",
            "addr:housenumber": "113",
            "addr:postcode": "9462",
            "addr:street": "Klagenfurterstraße",
            "brand": "Penny",
            "brand:wikidata": "Q284688",
            "brand:wikipedia": "en:Penny (supermarket)",
            "name": "Penny",
            "opening_hours": "Mo-Fr 07:30-19:00; Sa 07:30-18:00",
            "shop": "supermarket"
          },
          "geometry": {
            "type": "Point",
            "coordinates": [
              14.7936447,
              46.9633858
            ]
          }
        },
        {
          "type": "Feature",
          "properties": {
            "id": "1618714259",
            "osm_type": "node",
            "lat": 47.0213872,
            "lon": 15.050815,
            "addr:city": "Edelschrott",
            "addr:country": "AT",
            "addr:housenumber": "15",
            "addr:postcode": "8583",
            "addr:street": "Packer Straße",
            "brand": "Nah & Frisch",
            "brand:wikidata": "Q1963643",
            "name": "Nah & Frisch Dreyer",
            "opening_hours": "Mo We-Fr 07:00-12:30, 14:00-18:00; Tu 07:00-12:30; Sa 07:00-12:00",
            "shop": "supermarket",
            "website": "https://www.nahundfrisch.at/de/kaufmann/dreyer",
            "wheelchair": "limited"
          },
          "geometry": {
            "type": "Point",
            "coordinates": [
              15.050815,
              47.0213872
            ]
          }
        },
        {
          "type": "Feature",
          "properties": {
            "id": "445065696",
            "osm_type": "node",
            "lat": 46.7653851,
            "lon": 14.3705946,
            "brand": "Spar",
            "brand:wikidata": "Q610492",
            "brand:wikipedia": "de:Interspar (Österreich)",
            "name": "Interspar",
            "shop": "supermarket"
          },
          "geometry": {
            "type": "Point",
            "coordinates": [
              14.3705946,
              46.7653851
            ]
          }
        },
        {
          "type": "Feature",
          "properties": {
            "id": "1357610599",
            "osm_type": "node",
            "lat": 46.8118656,
            "lon": 14.3675715,
            "name": "Spar",
            "shop": "supermarket",
            "wheelchair": "limited"
          },
          "geometry": {
            "type": "Point",
            "coordinates": [
              14.3675715,
              46.8118656
            ]
          }
        },
        {
          "type": "Feature",
          "properties": {
            "id": "2310762604",
            "osm_type": "node",
            "lat": 46.7638889,
            "lon": 14.3609732,
            "addr:city": "Sankt Veit an der Glan",
            "addr:country": "AT",
            "addr:housenumber": "11",
            "addr:postcode": "9300",
            "addr:street": "Lastenstraße",
            "brand": "Spar",
            "brand:wikidata": "Q610492",
            "brand:wikipedia": "en:SPAR (retailer)",
            "name": "Spar",
            "opening_hours": "Mo-Fr 07:15-19:30; Sa 07:15-18:00",
            "operator": "Bettine Wagner",
            "shop": "supermarket",
            "wheelchair": "yes"
          },
          "geometry": {
            "type": "Point",
            "coordinates": [
              14.3609732,
              46.7638889
            ]
          }
        },
        {
          "type": "Feature",
          "properties": {
            "id": "2310762950",
            "osm_type": "node",
            "lat": 46.763699,
            "lon": 14.3603627,
            "brand": "Lidl",
            "brand:wikidata": "Q151954",
            "brand:wikipedia": "en:Lidl",
            "name": "Lidl",
            "shop": "supermarket",
            "wheelchair": "yes"
          },
          "geometry": {
            "type": "Point",
            "coordinates": [
              14.3603627,
              46.763699
            ]
          }
        },
        {
          "type": "Feature",
          "properties": {
            "id": "2310762986",
            "osm_type": "node",
            "lat": 46.7632725,
            "lon": 14.3591266,
            "brand": "Hofer",
            "brand:wikidata": "Q15815751",
            "brand:wikipedia": "de:Hofer KG",
            "name": "Hofer",
            "shop": "supermarket",
            "wheelchair": "yes"
          },
          "geometry": {
            "type": "Point",
            "coordinates": [
              14.3591266,
              46.7632725
            ]
          }
        },
        {
          "type": "Feature",
          "properties": {
            "id": "4546228889",
            "osm_type": "node",
            "lat": 46.7667938,
            "lon": 14.3574625,
            "addr:city": "St. Veit an der Glan",
            "addr:housenumber": "19",
            "addr:postcode": "9300",
            "addr:street": "Hauptplatz",
            "brand": "Billa",
            "brand:wikidata": "Q537781",
            "brand:wikipedia": "de:Billa",
            "name": "Billa",
            "opening_hours": "Mo-Fr 07:00-19:15; Sa 07:15-18:00",
            "shop": "supermarket",
            "wheelchair": "yes"
          },
          "geometry": {
            "type": "Point",
            "coordinates": [
              14.3574625,
              46.7667938
            ]
          }
        },
        {
          "type": "Feature",
          "properties": {
            "id": "6794437085",
            "osm_type": "node",
            "lat": 46.8721948,
            "lon": 14.4659942,
            "addr:city": "Althofen",
            "addr:housenumber": "26",
            "addr:postcode": "9330",
            "addr:street": "10. Oktober Straße",
            "air_conditioning": "yes",
            "brand": "Eurospar",
            "brand:wikidata": "Q12309283",
            "cash_withdrawal": "cash",
            "cash_withdrawal:purchase_required": "no",
            "cash_withdrawal:type": "self_checkout",
            "check_date:opening_hours": "2025-07-19",
            "currency:EUR": "yes",
            "diet:gluten_free": "yes",
            "diet:lactose_free": "yes",
            "diet:vegan": "yes",
            "diet:vegetarian": "yes",
            "fair_trade": "yes",
            "internet_access": "wlan",
            "internet_access:fee": "no",
            "internet_access:ssid": "SPAR on Air",
            "name": "Eurospar",
            "opening_hours": "Mo-Fr 07:15-19:30; Sa 07:15-18:00; PH off",
            "operator": "SPAR Österreichische Warenhandels-AG",
            "organic": "yes",
            "payment:cash": "yes",
            "payment:coins": "yes",
            "payment:contactless": "yes",
            "payment:credit_cards": "yes",
            "payment:debit_cards": "yes",
            "phone": "+43 42 6229299",
            "shop": "supermarket",
            "stroller": "yes",
            "toilets": "customers",
            "toilets:wheelchair": "yes",
            "website": "https://www.spar.at/standorte/eurospar-althofen-9330-10-oktober-strasse-26",
            "wheelchair": "yes"
          },
          "geometry": {
            "type": "Point",
            "coordinates": [
              14.4659942,
              46.8721948
            ]
          }
        },
        {
          "type": "Feature",
          "properties": {
            "id": "12750347040",
            "osm_type": "node",
            "lat": 46.7705827,
            "lon": 14.3655517,
            "addr:city": "Sankt Veit an der Glan",
            "addr:housenumber": "43-45",
            "addr:postcode": "9300",
            "addr:street": "Bahnhofstraße",
            "brand": "Billa",
            "brand:wikidata": "Q537781",
            "brand:wikipedia": "de:Billa",
            "check_date": "2025-04-12",
            "contact:phone": "+43 4212 6512",
            "name": "Billa",
            "opening_hours": "Mo-Fr 07:15-19:30; Sa 07:15-18:00",
            "shop": "supermarket",
            "wheelchair": "yes"
          },
          "geometry": {
            "type": "Point",
            "coordinates": [
              14.3655517,
              46.7705827
            ]
          }
        }
      ],
      "children": []
    }
  ]
}