{
  "bbox": {
    "south": 46.372652,
    "west": 15.253173,
    "north": 47.033758500000005,
    "east": 17.16058
  },
  "poiCount": 161,
  "leafCount": 0,
  "averagePosition": [
    15.948418187577639,
    46.71577062857143
  ],
  "data": [],
  "children": [
    {
      "bbox": {
        "south": 46.372652,
        "west": 15.253173,
        "north": 46.70320525,
        "east": 16.2068765
      },
      "poiCount": 51,
      "leafCount": 0,
      "averagePosition": [
        15.729047707843138,
        46.51724534509804
      ],
      "data": [],
      "children": [
        {
          "bbox": {
            "south": 46.372652,
            "west": 15.253173,
            "north": 46.537928625000006,
            "east": 15.73002475
          },
          "poiCount": 14,
          "leafCount": 14,
          "averagePosition": [
            15.5831093,
            46.449261057142856
          ],
          "data": [
            {
              "type": "Feature",
              "properties": {
                "id": "2708393091",
                "osm_type": "node",
                "lat": 46.387164,
                "lon": 15.4468621,
                "addr:housenumber": "5",
                "addr:street": "Pohorskega bataljona",
                "brand": "Mercator",
                "brand:wikidata": "Q738412",
                "brand:wikipedia": "en:Mercator (retail)",
                "name": "Mercator",
                "opening_hours": "Mo-Fr 07:00-19:00; Sa 07:00-12:00; Su 07:30-11:30",
                "shop": "supermarket"
              },
              "geometry": {
                "type": "Point",
                "coordinates": [
                  15.4468621,
                  46.387164
                ]
              }
            },
            {
              "type": "Feature",
              "properties": {
                "id": "8605379240",
                "osm_type": "node",
                "lat": 46.3806189,
                "lon": 15.2946786,
                "shop": "supermarket"
              },
              "geometry": {
                "type": "Point",
                "coordinates": [
                  15.2946786,
                  46.3806189
                ]
              }
            },
            {
              "type": "Feature",
              "properties": {
                "id": "313951898",
                "osm_type": "node",
                "lat": 46.4753892,
                "lon": 15.6554787,
                "name": "Tuš Market Slivnica",
                "shop": "supermarket"
              },
              "geometry": {
                "type": "Point",
                "coordinates": [
                  15.6554787,
                  46.4753892
                ]
              }
            },
            {
              "type": "Feature",
              "properties": {
                "id": "2344456563",
                "osm_type": "node",
                "lat": 46.3852151,
                "lon": 15.5728279,
                "addr:postcode": "2310",
                "brand": "Spar",
                "brand:wikidata": "Q610492",
                "brand:wikipedia": "en:Spar (retailer)",
                "check_date": "2025-07-19",
                "name": "Spar",
                "opening_hours": "Mo-Sa 08:00-20:00",
                "payment:cash": "yes",
                "payment:mastercard": "yes",
                "payment:visa": "yes",
                "shop": "supermarket",
                "wheelchair": "yes"
              },
              "geometry": {
                "type": "Point",
                "coordinates": [
                  15.5728279,
                  46.3852151
                ]
              }
            },
            {
              "type": "Feature",
              "properties": {
                "id": "2344494294",
                "osm_type": "node",
                "lat": 46.3870387,
                "lon": 15.574803,
                "addr:city": "Slovenska Bistrica",
                "addr:housenumber": "25",
                "addr:postcode": "2310",
                "addr:street": "Plečnikova ulica",
                "name": "Supermarket Tuš",
                "opening_hours": "Mo-Sa 08:00-20:00",
                "shop": "supermarket",
                "website": "https://www.tus.si/",
                "wheelchair": "yes"
              },
              "geometry": {
                "type": "Point",
                "coordinates": [
                  15.574803,
                  46.3870387
                ]
              }
            },
            {
              "type": "Feature",
              "properties": {
                "id": "2603071408",
                "osm_type": "node",
                "lat": 46.5335471,
                "lon": 15.6469748,
                "currency:BCH": "yes",
                "name": "Tuš Cash&Carry",
                "operator": "Tuš",
                "shop": "supermarket",
                "website": "https://www.tus.si/odpiralni-cas/poslovalnica/tus-cashcarry-maribor"
              },
              "geometry": {
                "type": "Point",
                "coordinates": [
                  15.6469748,
                  46.5335471
                ]
              }
            },
            {
              "type": "Feature",
              "properties": {
                "id": "2618381591",
                "osm_type": "node",
                "lat": 46.3957358,
                "lon": 15.5583058,
                "addr:city": "Slovenska Bistrica",
                "addr:postcode": "2310",
                "addr:street": "Partizanska ulica",
                "brand": "Spar",
                "brand:wikidata": "Q610492",
                "brand:wikipedia": "en:SPAR (retailer)",
                "contact:phone": "+386 2 8430191",
                "name": "Spar",
                "opening_hours": "Mo-Sa 08:00-20:00",
                "shop": "supermarket",
                "wheelchair": "yes"
              },
              "geometry": {
                "type": "Point",
                "coordinates": [
                  15.5583058,
                  46.3957358
                ]
              }
            },
            {
              "type": "Feature",
              "properties": {
                "id": "2780445126",
                "osm_type": "node",
                "lat": 46.3930161,
                "lon": 15.5740562,
                "addr:city": "Slovenska Bistrica",
                "addr:housenumber": "3",
                "addr:postcode": "2310",
                "addr:street": "Kolodvorska ulica",
                "name": "Pekarna Strnad - Trgovina živila",
                "shop": "supermarket",
                "website": "http://www.rabim.info/pekarna-strnad-proizvodnja-in-trgovina-doo-126525/pekarna-in-slascicarski-izdelki-378",
                "wheelchair": "yes"
              },
              "geometry": {
                "type": "Point",
                "coordinates": [
                  15.5740562,
                  46.3930161
                ]
              }
            },
            {
              "type": "Feature",
              "properties": {
                "id": "3995230120",
                "osm_type": "node",
                "lat": 46.5211534,
                "lon": 15.6503304,
                "name": "Eurospin",
                "shop": "supermarket"
              },
              "geometry": {
                "type": "Point",
                "coordinates": [
                  15.6503304,
                  46.5211534
                ]
              }
            },
            {
              "type": "Feature",
              "properties": {
                "id": "4628860555",
                "osm_type": "node",
                "lat": 46.3943427,
                "lon": 15.5649748,
                "brand": "Mercator",
                "brand:wikidata": "Q738412",
                "brand:wikipedia": "en:Mercator (retail)",
                "name": "Mercator",
                "shop": "supermarket"
              },
              "geometry": {
                "type": "Point",
                "coordinates": [
                  15.5649748,
                  46.3943427
                ]
              }
            },
            {
              "type": "Feature",
              "properties": {
                "id": "6139043680",
                "osm_type": "node",
                "lat": 46.5353274,
                "lon": 15.6445208,
                "currency:BCH": "yes",
                "name": "TUŠ supermarket - Jadranska",
                "phone": "+386 7 088 2754",
                "shop": "supermarket",
                "website": "https://www.tus.si/"
              },
              "geometry": {
                "type": "Point",
                "coordinates": [
                  15.6445208,
                  46.5353274
                ]
              }
            },
            {
              "type": "Feature",
              "properties": {
                "id": "8295630306",
                "osm_type": "node",
                "lat": 46.5227036,
                "lon": 15.653577,
                "name": "E.Leclerc",
                "opening_hours": "Mo-Sa 08:00-21:00",
                "shop": "supermarket"
              },
              "geometry": {
                "type": "Point",
                "coordinates": [
                  15.653577,
                  46.5227036
                ]
              }
            },
            {
              "type": "Feature",
              "properties": {
                "id": "11003263805",
                "osm_type": "node",
                "lat": 46.4519726,
                "lon": 15.6522978,
                "brand": "Hofer",
                "brand:wikidata": "Q15815751",
                "name": "Hofer",
                "shop": "supermarket"
              },
              "geometry": {
                "type": "Point",
                "coordinates": [
                  15.6522978,
                  46.4519726
                ]
              }
            },
            {
              "type": "Feature",
              "properties": {
                "id": "12127665906",
                "osm_type": "node",
                "lat": 46.5264302,
                "lon": 15.6738423,
                "addr:city": "Maribor",
                "addr:country": "SI",
                "addr:housenumber": "194",
                "addr:postcode": "2000",
                "addr:street": "Ptujska cesta",
                "branch": "Maribor Ptujska",
                "brand": "Hofer",
                "brand:wikidata": "Q15815751",
                "name": "Hofer",
                "opening_hours": "Mo-Sa 08:00-21:00; Su 08:00-15:00",
                "operator": "Hofer Slovenija",
                "shop": "supermarket",
                "wheelchair": "yes"
              },
              "geometry": {
                "type": "Point",
                "coordinates": [
                  15.6738423,
                  46.5264302
                ]
              }
            }
          ],
          "children": []
        },
        {
          "bbox": {
            "south": 46.372652,
            "west": 15.73002475,
            "north": 46.537928625000006,
            "east": 16.2068765
          },
          "poiCount": 11,
          "leafCount": 11,
          "averagePosition": [
            15.928989554545455,
            46.419192372727274
          ],
          "data": [
            {
              "type": "Feature",
              "properties": {
                "id": "1821419976",
                "osm_type": "node",
                "lat": 46.4160299,
                "lon": 15.8837951,
                "addr:city": "Ptuj",
                "addr:housenumber": "30",
                "addr:postcode": "2250",
                "addr:street": "Ormoška cesta",
                "brand": "Mercator",
                "brand:wikidata": "Q738412",
                "brand:wikipedia": "en:Mercator (retail)",
                "name": "Mercator",
                "opening_hours": "Mo-Sa 08:00-20:00",
                "operator": "Mercator",
                "shop": "supermarket",
                "wheelchair": "yes"
              },
              "geometry": {
                "type": "Point",
                "coordinates": [
                  15.8837951,
                  46.4160299
                ]
              }
            },
            {
              "type": "Feature",
              "properties": {
                "id": "1834244222",
                "osm_type": "node",
                "lat": 46.4239169,
                "lon": 15.885366,
                "addr:city": "Ptuj",
                "addr:housenumber": "21",
                "addr:postcode": "2250",
                "addr:street": "Puhova ulica",
                "name": "Tuš supermarket Ptuj Puhova",
                "opening_hours": "Mo-Sa 08:00-20:00",
                "operator": "Tuš",
                "phone": "+386 070 882 103",
                "shop": "supermarket",
                "website": "https://www.tus.si/",
                "wheelchair": "yes"
              },
              "geometry": {
                "type": "Point",
                "coordinates": [
                  15.885366,
                  46.4239169
                ]
              }
            },
            {
              "type": "Feature",
              "properties": {
                "id": "1847488352",
                "osm_type": "node",
                "lat": 46.4270171,
                "lon": 15.8920672,
                "addr:city": "Ptuj",
                "addr:country": "SI",
                "addr:housenumber": "3",
                "addr:postcode": "2250",
                "addr:street": "Špindlerjeva ulica",
                "brand": "Mercator",
                "brand:wikidata": "Q738412",
                "brand:wikipedia": "en:Mercator (retail)",
                "name": "Mercator",
                "shop": "supermarket",
                "wheelchair": "yes"
              },
              "geometry": {
                "type": "Point",
                "coordinates": [
                  15.8920672,
                  46.4270171
                ]
              }
            },
            {
              "type": "Feature",
              "properties": {
                "id": "1847517545",
                "osm_type": "node",
                "lat": 46.4182422,
                "lon": 15.8786248,
                "addr:city": "Ptuj",
                "addr:housenumber": "15",
                "addr:postcode": "2250",
                "addr:street": "Ormoška cesta",
                "branch": "Interspar Supernova Ptuj",
                "brand": "Spar",
                "brand:wikidata": "Q610492",
                "brand:wikipedia": "en:SPAR (retailer)",
                "name": "Spar",
                "opening_hours": "Mo-Sa 08:00-20:00",
                "shop": "supermarket",
                "wheelchair": "yes"
              },
              "geometry": {
                "type": "Point",
                "coordinates": [
                  15.8786248,
                  46.4182422
                ]
              }
            },
            {
              "type": "Feature",
              "properties": {
                "id": "2301183517",
                "osm_type": "node",
                "lat": 46.420473,
                "lon": 15.8730553,
                "addr:city": "Ptuj",
                "addr:housenumber": "3",
                "addr:postcode": "2250",
                "addr:street": "Novi trg",
                "brand": "Mercator",
                "brand:wikidata": "Q738412",
                "name": "Mercator",
                "shop": "supermarket",
                "source": "Survey",
                "wheelchair": "limited"
              },
              "geometry": {
                "type": "Point",
                "coordinates": [
                  15.8730553,
                  46.420473
                ]
              }
            },
            {
              "type": "Feature",
              "properties": {
                "id": "9839284105",
                "osm_type": "node",
                "lat": 46.4268231,
                "lon": 15.8816129,
                "addr:city": "Ptuj",
                "addr:housenumber": "27",
                "addr:postcode": "2250",
                "addr:street": "Osojnikova cesta",
                "name": "Tuš Ptuj",
                "opening_hours": "Mo-Sa 07:00-20:00",
                "operator": "Tuš",
                "payment:cash": "yes",
                "payment:credit_cards": "yes",
                "phone": "+386 70 882 026",
                "shop": "supermarket"
              },
              "geometry": {
                "type": "Point",
                "coordinates": [
                  15.8816129,
                  46.4268231
                ]
              }
            },
            {
              "type": "Feature",
              "properties": {
                "id": "10874103869",
                "osm_type": "node",
                "lat": 46.4278876,
                "lon": 15.8675819,
                "addr:city": "Ptuj",
                "addr:housenumber": "26A",
                "addr:postcode": "2250",
                "addr:street": "Volkmerjeva cesta",
                "brand": "Lidl",
                "brand:wikidata": "Q151954",
                "full_name": "Lidl-Ptuj",
                "name": "Lidl",
                "opening_hours": "Mo-Sa 08:00-21:00; Su 08:00-15:00;",
                "payment:cash": "yes",
                "payment:maestro": "yes",
                "payment:mastercard": "yes",
                "payment:notes": "yes",
                "payment:visa": "yes",
                "ref:gurs:hs_mid": "21067024",
                "shop": "supermarket"
              },
              "geometry": {
                "type": "Point",
                "coordinates": [
                  15.8675819,
                  46.4278876
                ]
              }
            },
            {
              "type": "Feature",
              "properties": {
                "id": "10940190355",
                "osm_type": "node",
                "lat": 46.4189573,
                "lon": 15.8767027,
                "addr:city": "Ptuj",
                "addr:country": "SI",
                "addr:housenumber": "3A",
                "addr:postcode": "2250",
                "addr:street": "Ormoška cesta",
                "brand": "EuroSpin",
                "brand:wikidata": "Q1374674",
                "brand:wikipedia": "it:Eurospin",
                "name": "EuroSpin",
                "opening_hours": "Mo-Sa 08:00-20:00",
                "operator": "EuroSpin",
                "shop": "supermarket",
                "website": "https://www.eurospin.si/prodajna-mesta/ptuj-2/"
              },
              "geometry": {
                "type": "Point",
                "coordinates": [
                  15.8767027,
                  46.4189573
                ]
              }
            },
            {
              "type": "Feature",
              "properties": {
                "id": "12463904458",
                "osm_type": "node",
                "lat": 46.4150251,
                "lon": 15.8633016,
                "brand": "Mercator",
                "brand:wikidata": "Q738412",
                "name": "Mercator",
                "shop": "supermarket",
                "wheelchair": "yes"
              },
              "geometry": {
                "type": "Point",
                "coordinates": [
                  15.8633016,
                  46.4150251
                ]
              }
            },
            {
              "type": "Feature",
              "properties": {
                "id": "375993550",
                "osm_type": "node",
                "lat": 46.409279,
                "lon": 16.1575341,
                "addr:city": "Ormož",
                "addr:housenumber": "34i",
                "addr:postcode": "2270",
                "addr:street": "Hardek",
                "name": "TUŠ Supermarket Krap",
                "operator": "Tuš",
                "ref:gurs:hs_mid": "20888059",
                "shop": "supermarket",
                "source:addr": "GURS",
                "website": "https://www.tus.si/odpiralni-cas/poslovalnica/tus-supermarket-krap-ormoz-fransiza"
              },
              "geometry": {
                "type": "Point",
                "coordinates": [
                  16.1575341,
                  46.409279
                ]
              }
            },
            {
              "type": "Feature",
              "properties": {
                "id": "11635257961",
                "osm_type": "node",
                "lat": 46.4074649,
                "lon": 16.1592435,
                "addr:city": "Ormož",
                "addr:housenumber": "2",
                "addr:postcode": "2270",
                "addr:street": "Opekarniška cesta",
                "brand": "Spar",
                "brand:wikidata": "Q610492",
                "brand:wikipedia": "en:SPAR (retailer)",
                "name": "Spar",
                "ref:gurs:hs_mid": "13994978",
                "shop": "supermarket"
              },
              "geometry": {
                "type": "Point",
                "coordinates": [
                  16.1592435,
                  46.4074649
                ]
              }
            }
          ],
          "children": []
        },
        {
          "bbox": {
            "south": 46.537928625000006,
            "west": 15.253173,
            "north": 46.70320525,
            "east": 15.73002475
          },
          "poiCount": 19,
          "leafCount": 19,
          "averagePosition": [
            15.596659184210527,
            46.57917074736842
          ],
          "data": [
            {
              "type": "Feature",
              "properties": {
                "id": "469709436",
                "osm_type": "node",
                "lat": 46.6625039,
                "lon": 15.4704051,
                "addr:city": "Leutschach",
                "addr:country": "AT",
                "addr:housenumber": "202",
                "addr:place": "Schlossberg",
                "addr:postcode": "8463",
                "brand": "Spar",
                "brand:wikidata": "Q610492",
                "name": "Spar",
                "opening_hours": "Mo-Fr 06:15-19:00; Sa 06:15-18:00",
                "operator": "Spar Markt Repolusk GmbH",
                "phone": "+43 3454 7077",
                "shop": "supermarket",
                "wheelchair": "yes"
              },
              "geometry": {
                "type": "Point",
                "coordinates": [
                  15.4704051,
                  46.6625039
                ]
              }
            },
            {
              "type": "Feature",
              "properties": {
                "id": "2109534321",
                "osm_type": "node",
                "lat": 46.5407919,
                "lon": 15.5185797,
                "addr:housename": "Spar Ruše",
                "addr:housenumber": "31",
                "addr:postcode": "2342",
                "addr:street": "Mariborska cesta",
                "branch": "Ruše",
                "brand": "Spar",
                "brand:wikidata": "Q610492",
                "name": "Spar",
                "shop": "supermarket",
                "website": "https://www.spar.si/"
              },
              "geometry": {
                "type": "Point",
                "coordinates": [
                  15.5185797,
                  46.5407919
                ]
              }
            },
            {
              "type": "Feature",
              "properties": {
                "id": "3388973352",
                "osm_type": "node",
                "lat": 46.6856618,
                "lon": 15.3574178,
                "addr:city": "Oberhaag",
                "addr:country": "AT",
                "addr:housenumber": "79",
                "addr:place": "Unterhaag",
                "addr:postcode": "8455",
                "brand": "Nah & Frisch",
                "brand:wikidata": "Q1963643",
                "brand:wikipedia": "de:Nah & Frisch",
                "name": "Nah & Frisch",
                "operator": "LG Gleinstätten Unterhaag",
                "shop": "supermarket",
                "website": "https://www.nahundfrisch.at/de/nah-und-frisch/willkommen"
              },
              "geometry": {
                "type": "Point",
                "coordinates": [
                  15.3574178,
                  46.6856618
                ]
              }
            },
            {
              "type": "Feature",
              "properties": {
                "id": "9083687554",
                "osm_type": "node",
                "lat": 46.6996069,
                "lon": 15.3935772,
                "addr:city": "Sankt Johann im Saggautal",
                "addr:housenumber": "166",
                "addr:place": "Saggau",
                "addr:postcode": "8453",
                "brand": "Spar",
                "brand:wikidata": "Q610492",
                "brand:wikipedia": "en:SPAR (retailer)",
                "currency:EUR": "yes",
                "name": "Spar",
                "note": "Sparmarkt Neueröffnung am 28.10.2021 7:15",
                "opening_hours": "Mo-Fr 07:15-19:30; Sa 07:15-18:00; Su,PH off",
                "operator": "Spar",
                "organic": "yes",
                "payment:cash": "yes",
                "payment:credit_cards": "yes",
                "phone": "+43 3455 48540",
                "shop": "supermarket",
                "start_date": "2021-10-28",
                "website": "https://www.spar.at/",
                "wheelchair": "yes"
              },
              "geometry": {
                "type": "Point",
                "coordinates": [
                  15.3935772,
                  46.6996069
                ]
              }
            },
            {
              "type": "Feature",
              "properties": {
                "id": "264974042",
                "osm_type": "node",
                "lat": 46.5670674,
                "lon": 15.5785554,
                "addr:city": "Bresternica",
                "addr:postcode": "2354",
                "addr:street": "Obrobna ulica",
                "brand": "Mercator",
                "brand:wikidata": "Q738412",
                "name": "Mercator",
                "opening_hours": "Mo-Fr 07:30-19:00; Sa 07:30-17:00; PH off",
                "shop": "supermarket"
              },
              "geometry": {
                "type": "Point",
                "coordinates": [
                  15.5785554,
                  46.5670674
                ]
              }
            },
            {
              "type": "Feature",
              "properties": {
                "id": "582488335",
                "osm_type": "node",
                "lat": 46.5518959,
                "lon": 15.6775093,
                "addr:city": "Maribor",
                "addr:housenumber": "62",
                "addr:postcode": "2000",
                "addr:street": "Ulica Veljka Vlahovića",
                "email": "sm70.pobrezje@spar.si",
                "name": "Hipermarket Spar Pobrežje",
                "opening_hours": "Mo-Sa 8:00-20:00",
                "phone": "+386 2 471 2429",
                "shop": "supermarket",
                "website": "https://www.spar.si/sl_SI.html",
                "wheelchair": "yes"
              },
              "geometry": {
                "type": "Point",
                "coordinates": [
                  15.6775093,
                  46.5518959
                ]
              }
            },
            {
              "type": "Feature",
              "properties": {
                "id": "1821857635",
                "osm_type": "node",
                "lat": 46.5401789,
                "lon": 15.6416856,
                "addr:housenumber": "1",
                "addr:street": "Ulica Eve Lovše",
                "branch": "hipermarket Maribor",
                "brand": "Mercator",
                "brand:wikidata": "Q738412",
                "email": "info@mercator.si",
                "name": "Mercator hipermarket Maribor",
                "opening_hours": "Mo-Sa 08:00-21:00",
                "phone": "+386 2 805 5900",
                "shop": "supermarket",
                "toilets:wheelchair": "yes",
                "wheelchair": "yes"
              },
              "geometry": {
                "type": "Point",
                "coordinates": [
                  15.6416856,
                  46.5401789
                ]
              }
            },
            {
              "type": "Feature",
              "properties": {
                "id": "1847431745",
                "osm_type": "node",
                "lat": 46.5584036,
                "lon": 15.6505582,
                "addr:housenumber": "5",
                "addr:street": "Ulica Vita Kraigherja",
                "level": "-1",
                "name": "Mercator City",
                "opening_hours": "Mo-Fr 8:00-19:30; Sa 8:00-13:00",
                "phone": "+386 51 285 642",
                "shop": "supermarket",
                "website": "https://www.mercator.si/prodajna-mesta/market-city-maribor/"
              },
              "geometry": {
                "type": "Point",
                "coordinates": [
                  15.6505582,
                  46.5584036
                ]
              }
            },
            {
              "type": "Feature",
              "properties": {
                "id": "1847525374",
                "osm_type": "node",
                "lat": 46.5467907,
                "lon": 15.6188119,
                "name": "Interspar Qlandia Maribor 2",
                "shop": "supermarket",
                "toilets:wheelchair": "yes",
                "wheelchair": "yes"
              },
              "geometry": {
                "type": "Point",
                "coordinates": [
                  15.6188119,
                  46.5467907
                ]
              }
            },
            {
              "type": "Feature",
              "properties": {
                "id": "1847525396",
                "osm_type": "node",
                "lat": 46.5542949,
                "lon": 15.6538249,
                "addr:city": "Maribor",
                "addr:housenumber": "18",
                "addr:postcode": "2000",
                "addr:street": "Megamarket Europark, Pobreška cesta",
                "brand": "Spar",
                "brand:wikidata": "Q610492",
                "email": "uprava.maribor@spar.si",
                "level": "0",
                "name": "Spar",
                "opening_hours": "Mo-Fr 09:00-21:00; Sa 08:00-21:00; Su 09:00-15:00",
                "operator": "Spar Slovenija d.o.o.",
                "operator:wikidata": "Q610492",
                "operator:wikipedia": "fr:Spar",
                "phone": "+386 02 320 8410",
                "shop": "supermarket"
              },
              "geometry": {
                "type": "Point",
                "coordinates": [
                  15.6538249,
                  46.5542949
                ]
              }
            },
            {
              "type": "Feature",
              "properties": {
                "id": "1847537097",
                "osm_type": "node",
                "lat": 46.5527175,
                "lon": 15.6281138,
                "addr:postcode": "2000",
                "currency:BCH": "yes",
                "name": "Tuš Studenci",
                "opening_hours": "Mo-Sa 8:00-21:00, Su 8:00-13:00",
                "shop": "supermarket",
                "website": "https://www.tus.si/odpiralni-cas/poslovalnica/tus-supermarket-mb-studenci",
                "wheelchair": "yes"
              },
              "geometry": {
                "type": "Point",
                "coordinates": [
                  15.6281138,
                  46.5527175
                ]
              }
            },
            {
              "type": "Feature",
              "properties": {
                "id": "1927664101",
                "osm_type": "node",
                "lat": 46.5481834,
                "lon": 15.6761394,
                "addr:housenumber": "1",
                "addr:postcode": "2000",
                "addr:street": "Puhova ulica",
                "brand": "Mercator",
                "brand:wikidata": "Q738412",
                "name": "Mercator",
                "opening_hours": "Mo-Sa 8:00-21:00, Su 8:00-15:00",
                "phone": "+386 51 285 388",
                "shop": "supermarket",
                "website": "https://www.mercator.si/prodajna-mesta/mercator-center-pobrezje",
                "wheelchair": "yes"
              },
              "geometry": {
                "type": "Point",
                "coordinates": [
                  15.6761394,
                  46.5481834
                ]
              }
            },
            {
              "type": "Feature",
              "properties": {
                "id": "2603071411",
                "osm_type": "node",
                "lat": 46.5409399,
                "lon": 15.6467772,
                "addr:city": "Maribor",
                "addr:housenumber": "14",
                "addr:postcode": "2000",
                "addr:street": "Tržaška cesta",
                "branch": "Cash & Carry Maribor",
                "brand": "Mercator",
                "brand:wikidata": "Q738412",
                "level": "0",
                "name": "Mercator",
                "opening_hours": "Mo-Fr 6:30-17:00; Sa 6:30-12:00",
                "operator": "Mercator",
                "phone": "+386 5 128 8309",
                "shop": "supermarket",
                "website": "https://www.mercator.si/prodajna-mesta/cash-and-carry-maribor/"
              },
              "geometry": {
                "type": "Point",
                "coordinates": [
                  15.6467772,
                  46.5409399
                ]
              }
            },
            {
              "type": "Feature",
              "properties": {
                "id": "3010304254",
                "osm_type": "node",
                "lat": 46.5589939,
                "lon": 15.6361231,
                "addr:city": "Maribor",
                "addr:housenumber": "53b",
                "addr:postcode": "2000",
                "addr:street": "Koroška cesta",
                "name": "SPAR",
                "shop": "supermarket"
              },
              "geometry": {
                "type": "Point",
                "coordinates": [
                  15.6361231,
                  46.5589939
                ]
              }
            },
            {
              "type": "Feature",
              "properties": {
                "id": "3010304257",
                "osm_type": "node",
                "lat": 46.5574746,
                "lon": 15.6412564,
                "addr:city": "Maribor",
                "addr:housenumber": "8",
                "addr:postcode": "2000",
                "addr:street": "Vodnikov trg",
                "brand": "Hofer",
                "brand:wikidata": "Q15815751",
                "brand:wikipedia": "de:Hofer KG",
                "name": "Hofer",
                "opening_hours": "Mo-Sa 08:00-21:00",
                "phone": "+386 1 834 66 00",
                "shop": "supermarket"
              },
              "geometry": {
                "type": "Point",
                "coordinates": [
                  15.6412564,
                  46.5574746
                ]
              }
            },
            {
              "type": "Feature",
              "properties": {
                "id": "4253857202",
                "osm_type": "node",
                "lat": 46.5453563,
                "lon": 15.6175041,
                "addr:city": "Maribor",
                "addr:housenumber": "101",
                "addr:postcode": "2000",
                "addr:street": "Cesta Proletarskih brigad",
                "brand": "Hofer",
                "brand:wikidata": "Q15815751",
                "brand:wikipedia": "de:Hofer KG",
                "email": "info@hofer.si",
                "name": "Hofer",
                "opening_hours": "Mo-Sa 8:00-21:00; Su 8:00-15:00",
                "shop": "supermarket",
                "website": "https://www.hofer.si/sl/"
              },
              "geometry": {
                "type": "Point",
                "coordinates": [
                  15.6175041,
                  46.5453563
                ]
              }
            },
            {
              "type": "Feature",
              "properties": {
                "id": "4253857203",
                "osm_type": "node",
                "lat": 46.5454928,
                "lon": 15.6187808,
                "addr:housenumber": "101",
                "addr:street": "Cesta Proletarskih brigad",
                "brand": "EuroSpin",
                "brand:wikidata": "Q1374674",
                "brand:wikipedia": "it:Eurospin",
                "name": "EuroSpin",
                "opening_hours": "Mo-Sa 8:00-20:00; Su 8:00-13:00",
                "phone": "080 1950",
                "shop": "supermarket",
                "website": "https://www.eurospin.si/"
              },
              "geometry": {
                "type": "Point",
                "coordinates": [
                  15.6187808,
                  46.5454928
                ]
              }
            },
            {
              "type": "Feature",
              "properties": {
                "id": "8618704666",
                "osm_type": "node",
                "lat": 46.5478154,
                "lon": 15.6741375,
                "addr:city": "Maribor",
                "addr:housenumber": "21",
                "addr:postcode": "2000",
                "addr:street": "Ulica Veljka Vlahovića",
                "currency:BCH": "yes",
                "email": "Supermarket.Pobrezje@tus.si",
                "name": "Tuš supermarket Pobrežje",
                "opening_hours": "Mo-Sa 8:00-20:00",
                "phone": "+386 70 882 015",
                "shop": "supermarket",
                "website": "https://www.tus.si/odpiralni-cas/poslovalnica/tus-supermarket-pobrezje/#"
              },
              "geometry": {
                "type": "Point",
                "coordinates": [
                  15.6741375,
                  46.5478154
                ]
              }
            },
            {
              "type": "Feature",
              "properties": {
                "id": "8913370470",
                "osm_type": "node",
                "lat": 46.7000745,
                "lon": 15.6367671,
                "name": "EKZ Berta",
                "operator": "Wieser",
                "shop": "supermarket"
              },
              "geometry": {
                "type": "Point",
                "coordinates": [
                  15.6367671,
                  46.7000745
                ]
              }
            }
          ],
          "children": []
        },
        {
          "bbox": {
            "south": 46.537928625000006,
            "west": 15.73002475,
            "north": 46.70320525,
            "east": 16.2068765
          },
          "poiCount": 7,
          "leafCount": 7,
          "averagePosition": [
            16.06607047142857,
            46.63921392857143
          ],
          "data": [
            {
              "type": "Feature",
              "properties": {
                "id": "3387726855",
                "osm_type": "node",
                "lat": 46.5742627,
                "lon": 15.8226371,
                "branch": "Lenart",
                "brand": "EuroSpin",
                "brand:wikidata": "Q1374674",
                "brand:wikipedia": "it:Eurospin",
                "check_date": "2024-04-08",
                "name": "EuroSpin",
                "opening_hours": "Mo-Sa 08:00-20:00",
                "payment:cash": "yes",
                "payment:mastercard": "yes",
                "payment:visa": "yes",
                "shop": "supermarket",
                "wheelchair": "yes"
              },
              "geometry": {
                "type": "Point",
                "coordinates": [
                  15.8226371,
                  46.5742627
                ]
              }
            },
            {
              "type": "Feature",
              "properties": {
                "id": "10012090841",
                "osm_type": "node",
                "lat": 46.5744923,
                "lon": 15.8219057,
                "check_date": "2024-04-08",
                "name": "Tuš supermarket Lenart",
                "opening_hours": "Mo-Sa 08:00-20:00",
                "shop": "supermarket"
              },
              "geometry": {
                "type": "Point",
                "coordinates": [
                  15.8219057,
                  46.5744923
                ]
              }
            },
            {
              "type": "Feature",
              "properties": {
                "id": "621364588",
                "osm_type": "node",
                "lat": 46.6622398,
                "lon": 16.145462,
                "addr:city": "Murska Sobota",
                "addr:housenumber": "43",
                "addr:postcode": "9000",
                "addr:street": "Ulica Štefana Kovača",
                "brand": "Spar",
                "brand:wikidata": "Q610492",
                "brand:wikipedia": "en:Spar (retailer)",
                "name": "Spar",
                "shop": "supermarket"
              },
              "geometry": {
                "type": "Point",
                "coordinates": [
                  16.145462,
                  46.6622398
                ]
              }
            },
            {
              "type": "Feature",
              "properties": {
                "id": "2859755889",
                "osm_type": "node",
                "lat": 46.6604378,
                "lon": 16.1455669,
                "addr:city": "Murska Sobota",
                "addr:country": "SI",
                "addr:housenumber": "43",
                "addr:postcode": "9000",
                "addr:street": "Ulica Štefana Kovača",
                "branch": "Murska Sobota   Štefana Kovača",
                "brand": "Lidl",
                "brand:wikidata": "Q151954",
                "brand:wikipedia": "en:Lidl",
                "name": "Lidl",
                "opening_hours": "Mo-Sa 08:00-20:00; Su 08:00-13:00",
                "operator": "Lidl d.o.o.",
                "shop": "supermarket"
              },
              "geometry": {
                "type": "Point",
                "coordinates": [
                  16.1455669,
                  46.6604378
                ]
              }
            },
            {
              "type": "Feature",
              "properties": {
                "id": "3116368502",
                "osm_type": "node",
                "lat": 46.6663366,
                "lon": 16.168549,
                "addr:city": "Murska Sobota",
                "addr:housenumber": "29d",
                "addr:postcode": "9000",
                "addr:street": "Lendavska ulica",
                "name": "Tuš",
                "shop": "supermarket"
              },
              "geometry": {
                "type": "Point",
                "coordinates": [
                  16.168549,
                  46.6663366
                ]
              }
            },
            {
              "type": "Feature",
              "properties": {
                "id": "3242428391",
                "osm_type": "node",
                "lat": 46.6701427,
                "lon": 16.1785323,
                "addr:city": "Murska Sobota",
                "addr:housenumber": "1d",
                "addr:postcode": "9000",
                "addr:street": "Nemčavci",
                "brand": "Spar",
                "brand:wikidata": "Q610492",
                "name": "Spar",
                "operator": "Spar",
                "phone": "+386 2 5361910",
                "shop": "supermarket"
              },
              "geometry": {
                "type": "Point",
                "coordinates": [
                  16.1785323,
                  46.6701427
                ]
              }
            },
            {
              "type": "Feature",
              "properties": {
                "id": "11512084091",
                "osm_type": "node",
                "lat": 46.6665856,
                "lon": 16.1798403,
                "addr:city": "Murska Sobota",
                "addr:housenumber": "66c",
                "addr:postcode": "9000",
                "addr:street": "Lendavska ulica",
                "brand": "EuroSpin",
                "brand:wikidata": "Q1374674",
                "brand:wikipedia": "it:Eurospin",
                "name": "EuroSpin",
                "opening_hours": "Mo-Sa 08:00-20:00",
                "ref:gurs:hs_mid": "19471217",
                "shop": "supermarket"
              },
              "geometry": {
                "type": "Point",
                "coordinates": [
                  16.1798403,
                  46.6665856
                ]
              }
            }
          ],
          "children": []
        }
      ]
    },
    {
      "bbox": {
        "south": 46.372652,
        "west": 16.2068765,
        "north": 46.70320525,
        "east": 17.16058
      },
      "poiCount": 25,
      "leafCount": 25,
      "averagePosition": [
        16.584813240000003,
        46.459994636000005
      ],
      "data": [
        {
          "type": "Feature",
          "properties": {
            "id": "806404692",
            "osm_type": "node",
            "lat": 46.383315,
            "lon": 16.4296413,
            "addr:city": "Čakovec",
            "addr:housenumber": "2",
            "addr:postcode": "40000",
            "addr:street": "Zagrebačka",
            "brand": "Plodine",
            "brand:wikidata": "Q58040098",
            "brand:wikipedia": "hr:Plodine",
            "contact:email": "plodine@plodine.hr",
            "contact:phone": "+385 40 391 999",
            "contact:website": "https://www.plodine.hr",
            "name": "Plodine",
            "opening_hours": "Mo-Su 07:00-21:00",
            "operator": "Plodine d.d.",
            "ref:vatin": "HR92510683607",
            "shop": "supermarket"
          },
          "geometry": {
            "type": "Point",
            "coordinates": [
              16.4296413,
              46.383315
            ]
          }
        },
        {
          "type": "Feature",
          "properties": {
            "id": "1121200223",
            "osm_type": "node",
            "lat": 46.3905575,
            "lon": 16.4349461,
            "addr:city": "Čakovec",
            "addr:housenumber": "6",
            "addr:postcode": "40000",
            "addr:street": "Trg Republike",
            "brand": "Konzum",
            "brand:wikidata": "Q518563",
            "brand:wikipedia": "hr:Konzum",
            "name": "Konzum",
            "opening_hours": "Mo-Sa 07:00-20:00",
            "operator": "KONZUM plus d.o.o.",
            "ref:vatin": "HR29955634590",
            "shop": "supermarket",
            "website": "https://www.konzum.hr/"
          },
          "geometry": {
            "type": "Point",
            "coordinates": [
              16.4349461,
              46.3905575
            ]
          }
        },
        {
          "type": "Feature",
          "properties": {
            "id": "1587361277",
            "osm_type": "node",
            "lat": 46.3867973,
            "lon": 16.4244331,
            "addr:city": "Čakovec",
            "addr:housenumber": "5",
            "addr:postcode": "40000",
            "addr:street": "Zrinsko-Frankopanska ulica",
            "brand": "Konzum",
            "brand:wikidata": "Q518563",
            "brand:wikipedia": "hr:Konzum",
            "name": "Konzum",
            "opening_hours": "Mo-Sa 09:00-21:00; Su 08:00-15:00",
            "ref:vatin": "HR29955634590",
            "shop": "supermarket",
            "website": "https://www.konzum"
          },
          "geometry": {
            "type": "Point",
            "coordinates": [
              16.4244331,
              46.3867973
            ]
          }
        },
        {
          "type": "Feature",
          "properties": {
            "id": "3819672182",
            "osm_type": "node",
            "lat": 46.3742705,
            "lon": 16.4084524,
            "name": "bike shop & service kospor",
            "shop": "supermarket"
          },
          "geometry": {
            "type": "Point",
            "coordinates": [
              16.4084524,
              46.3742705
            ]
          }
        },
        {
          "type": "Feature",
          "properties": {
            "id": "4604137358",
            "osm_type": "node",
            "lat": 46.5616172,
            "lon": 16.4503592,
            "brand": "Mercator",
            "brand:wikidata": "Q738412",
            "brand:wikipedia": "en:Mercator (retail)",
            "name": "Mercator",
            "shop": "supermarket"
          },
          "geometry": {
            "type": "Point",
            "coordinates": [
              16.4503592,
              46.5616172
            ]
          }
        },
        {
          "type": "Feature",
          "properties": {
            "id": "4749399288",
            "osm_type": "node",
            "lat": 46.5620807,
            "lon": 16.449946,
            "brand": "EuroSpin",
            "brand:wikidata": "Q1374674",
            "brand:wikipedia": "it:Eurospin",
            "name": "EuroSpin",
            "opening_hours": "Mo-Sa 08:00-20:00; Su 08:00-13:00",
            "shop": "supermarket"
          },
          "geometry": {
            "type": "Point",
            "coordinates": [
              16.449946,
              46.5620807
            ]
          }
        },
        {
          "type": "Feature",
          "properties": {
            "id": "4879880910",
            "osm_type": "node",
            "lat": 46.3961573,
            "lon": 16.4288011,
            "addr:city": "Čakovec",
            "addr:country": "HR",
            "addr:housenumber": "25",
            "addr:postcode": "40000",
            "addr:street": "Svetojelenska cesta",
            "brand": "Spar",
            "brand:wikidata": "Q610492",
            "brand:wikipedia": "en:Spar (retailer)",
            "name": "Spar",
            "opening_hours": "Mo-Sa 07:00-21:00; Su 07:00-14:00",
            "operator": "SPAR Hrvatska d.o.o.",
            "payment:american_express": "yes",
            "payment:cash": "yes",
            "payment:diners_club": "yes",
            "payment:maestro": "yes",
            "payment:mastercard": "yes",
            "payment:visa": "yes",
            "payment:visa_debit": "yes",
            "payment:visa_electron": "yes",
            "phone": "+385 40 493 840",
            "shop": "supermarket",
            "website": "https://www.spar.hr/lokacije/spar-supermarket-akovec-40000-svetojelenska-cesta-25",
            "wheelchair": "yes"
          },
          "geometry": {
            "type": "Point",
            "coordinates": [
              16.4288011,
              46.3961573
            ]
          }
        },
        {
          "type": "Feature",
          "properties": {
            "id": "6304078902",
            "osm_type": "node",
            "lat": 46.5075062,
            "lon": 16.42816,
            "addr:city": "Mursko Središće",
            "addr:housenumber": "1A",
            "addr:postcode": "40315",
            "addr:street": "Tekstilna ulica",
            "name": "KTC",
            "opening_hours": "Mo-Sa 07:00-21:00; Su 07:00-14:00",
            "operator": "KTC proizvodnja, trgovina, usluge i turistička agencija",
            "shop": "supermarket"
          },
          "geometry": {
            "type": "Point",
            "coordinates": [
              16.42816,
              46.5075062
            ]
          }
        },
        {
          "type": "Feature",
          "properties": {
            "id": "6496135966",
            "osm_type": "node",
            "lat": 46.387781,
            "lon": 16.420611,
            "addr:city": "Čakovec",
            "addr:housenumber": "7",
            "addr:postcode": "40000",
            "addr:street": "Športska ulica",
            "brand": "Lidl",
            "brand:wikidata": "Q151954",
            "brand:wikipedia": "en:Lidl",
            "name": "Lidl",
            "opening_hours": "Mo-Sa 08:00-21:00",
            "shop": "supermarket",
            "website": "https://www.lidl.hr/s/hr-HR/trazilica-trgovina/cakovec/sportska-7/"
          },
          "geometry": {
            "type": "Point",
            "coordinates": [
              16.420611,
              46.387781
            ]
          }
        },
        {
          "type": "Feature",
          "properties": {
            "id": "6496135968",
            "osm_type": "node",
            "lat": 46.3885632,
            "lon": 16.4135092,
            "addr:city": "Čakovec",
            "addr:housenumber": "1",
            "addr:postcode": "40000",
            "addr:street": "Obrtnička ulica",
            "brand": "Kaufland",
            "brand:wikidata": "Q685967",
            "brand:wikipedia": "en:Kaufland",
            "name": "Kaufland",
            "opening_hours": "Mo-Sa 07:00-21:00; Su 08:00-14:00",
            "shop": "supermarket",
            "website": "https://www.kaufland.hr/"
          },
          "geometry": {
            "type": "Point",
            "coordinates": [
              16.4135092,
              46.3885632
            ]
          }
        },
        {
          "type": "Feature",
          "properties": {
            "id": "6548470759",
            "osm_type": "node",
            "lat": 46.3893441,
            "lon": 16.4189428,
            "addr:city": "Čakovec",
            "addr:housenumber": "4",
            "addr:postcode": "40000",
            "addr:street": "Športska ulica",
            "name": "KTC",
            "opening_hours": "Mo-Sa 07:00-21:00; Su 07:00-14:00",
            "operator": "KTC proizvodnja, trgovina, usluge i turistička agencija",
            "shop": "supermarket",
            "website": "https://www.ktc.hr/"
          },
          "geometry": {
            "type": "Point",
            "coordinates": [
              16.4189428,
              46.3893441
            ]
          }
        },
        {
          "type": "Feature",
          "properties": {
            "id": "6807086777",
            "osm_type": "node",
            "lat": 46.3799981,
            "lon": 16.4429677,
            "addr:city": "Čakovec",
            "addr:housenumber": "1",
            "addr:postcode": "40000",
            "addr:street": "Ulica Tomaša Goričanca",
            "brand": "Spar",
            "brand:wikidata": "Q610492",
            "brand:wikipedia": "en:Spar (retailer)",
            "name": "Spar",
            "opening_hours": "Mo-Sa 07:00-22:00; Su 07:00-16:00",
            "shop": "supermarket",
            "website": "https://www.spar.hr/lokacije/spar-supermarket-akovec-40000-tomasa-goricanca-1"
          },
          "geometry": {
            "type": "Point",
            "coordinates": [
              16.4429677,
              46.3799981
            ]
          }
        },
        {
          "type": "Feature",
          "properties": {
            "id": "7289378823",
            "osm_type": "node",
            "lat": 46.3814255,
            "lon": 16.4160082,
            "addr:city": "Čakovec",
            "addr:housenumber": "87",
            "addr:postcode": "40000",
            "addr:street": "Zagrebačka ulica",
            "brand": "Konzum",
            "brand:wikidata": "Q518563",
            "brand:wikipedia": "hr:Konzum",
            "name": "Konzum",
            "opening_hours": "Mo-Sa 07:00-21:00; Su 08:00-14:00; PH 08:00-14:00",
            "ref": "3251",
            "shop": "supermarket",
            "website": "https://www.konzum.hr/"
          },
          "geometry": {
            "type": "Point",
            "coordinates": [
              16.4160082,
              46.3814255
            ]
          }
        },
        {
          "type": "Feature",
          "properties": {
            "id": "11202638263",
            "osm_type": "node",
            "lat": 46.3891376,
            "lon": 16.449939,
            "brand": "Plodine",
            "brand:wikidata": "Q58040098",
            "brand:wikipedia": "hr:Plodine",
            "contact:email": "plodine@plodine.hr",
            "contact:phone": "+385 23 684 930",
            "contact:website": "https://www.plodine.hr",
            "name": "Plodine",
            "opening_hours": "Mo-Su 07:00-21:00",
            "shop": "supermarket"
          },
          "geometry": {
            "type": "Point",
            "coordinates": [
              16.449939,
              46.3891376
            ]
          }
        },
        {
          "type": "Feature",
          "properties": {
            "id": "12621494525",
            "osm_type": "node",
            "lat": 46.5578041,
            "lon": 16.447382,
            "check_date": "2025-02-27",
            "description": "Trgovina s tradicionalnimi grškimi izdelki",
            "email": "viptrendsp@gmail.com",
            "internet_access": "wlan",
            "internet_access:fee": "customers",
            "name": "Vip Trend Nautilus - Grška trgovina",
            "organic": "yes",
            "payment:cards": "no",
            "payment:cash": "yes",
            "payment:credit_cards": "no",
            "payment:debit_cards": "no",
            "phone": "+386 31 811 366",
            "shop": "supermarket",
            "website": "https://grskedobrote.si",
            "wheelchair": "limited"
          },
          "geometry": {
            "type": "Point",
            "coordinates": [
              16.447382,
              46.5578041
            ]
          }
        },
        {
          "type": "Feature",
          "properties": {
            "id": "2279290628",
            "osm_type": "node",
            "lat": 46.4546801,
            "lon": 16.9916924,
            "brand": "Coop Szuper",
            "brand:wikidata": "Q868980",
            "brand:wikipedia": "hu:Coop (magyar üzletlánc)",
            "level": "0",
            "name": "Coop Szuper",
            "opening_hours": "Mo-Fr 06:15-18:00; Sa 06:15-12:00; Su 07:00-10:00",
            "shop": "supermarket",
            "website": "https://www.coop.hu/",
            "wheelchair": "no"
          },
          "geometry": {
            "type": "Point",
            "coordinates": [
              16.9916924,
              46.4546801
            ]
          }
        },
        {
          "type": "Feature",
          "properties": {
            "id": "2366239577",
            "osm_type": "node",
            "lat": 46.4545542,
            "lon": 16.9875644,
            "brand": "Coop Szuper",
            "brand:wikidata": "Q868980",
            "brand:wikipedia": "hu:Coop (magyar üzletlánc)",
            "name": "Coop Szuper",
            "shop": "supermarket",
            "website": "https://coop.hu/",
            "wheelchair": "yes"
          },
          "geometry": {
            "type": "Point",
            "coordinates": [
              16.9875644,
              46.4545542
            ]
          }
        },
        {
          "type": "Feature",
          "properties": {
            "id": "2861865780",
            "osm_type": "node",
            "lat": 46.6246944,
            "lon": 16.5402873,
            "brand": "CBA",
            "brand:wikidata": "Q779845",
            "brand:wikipedia": "en:CBA (food retail)",
            "name": "CBA",
            "shop": "supermarket",
            "wheelchair": "no"
          },
          "geometry": {
            "type": "Point",
            "coordinates": [
              16.5402873,
              46.6246944
            ]
          }
        },
        {
          "type": "Feature",
          "properties": {
            "id": "2862035180",
            "osm_type": "node",
            "lat": 46.6228605,
            "lon": 16.5414183,
            "name": "Coop",
            "opening_hours": "Mo-Fr 06:00-17:00; Sa 06:00-13:00",
            "shop": "supermarket",
            "website": "https://coop.hu/",
            "wheelchair": "no"
          },
          "geometry": {
            "type": "Point",
            "coordinates": [
              16.5414183,
              46.6228605
            ]
          }
        },
        {
          "type": "Feature",
          "properties": {
            "id": "3725836204",
            "osm_type": "node",
            "lat": 46.4550242,
            "lon": 16.9895515,
            "name": "Norbi Update",
            "shop": "supermarket"
          },
          "geometry": {
            "type": "Point",
            "coordinates": [
              16.9895515,
              46.4550242
            ]
          }
        },
        {
          "type": "Feature",
          "properties": {
            "id": "6935517319",
            "osm_type": "node",
            "lat": 46.6232365,
            "lon": 16.5426046,
            "shop": "supermarket"
          },
          "geometry": {
            "type": "Point",
            "coordinates": [
              16.5426046,
              46.6232365
            ]
          }
        },
        {
          "type": "Feature",
          "properties": {
            "id": "7975746649",
            "osm_type": "node",
            "lat": 46.5269935,
            "lon": 16.7274822,
            "addr:city": "Bázakerettye",
            "addr:housenumber": "1",
            "addr:postcode": "8887",
            "addr:street": "Petőfi Sándor utca",
            "name": "Falusi szupermarket",
            "opening_hours": "Mo-Fr 06:00-19:00; Sa 07:00-15:00; Su 11:00-19:00",
            "operator": "Vadász Róbert e.v.",
            "phone": "+36703365266;+36703360960",
            "shop": "supermarket"
          },
          "geometry": {
            "type": "Point",
            "coordinates": [
              16.7274822,
              46.5269935
            ]
          }
        },
        {
          "type": "Feature",
          "properties": {
            "id": "9029214036",
            "osm_type": "node",
            "lat": 46.4622252,
            "lon": 17.0165554,
            "brand": "Reál",
            "brand:wikidata": "Q100741414",
            "brand:wikipedia": "hu:Reál Hungária Élelmiszer Kereskedelmi Kft.",
            "name": "Reál",
            "operator": "Zemplén ABC",
            "shop": "supermarket"
          },
          "geometry": {
            "type": "Point",
            "coordinates": [
              17.0165554,
              46.4622252
            ]
          }
        },
        {
          "type": "Feature",
          "properties": {
            "id": "11342844810",
            "osm_type": "node",
            "lat": 46.45442,
            "lon": 16.98754,
            "addr:city": "Nagykanizsa",
            "addr:housenumber": "36",
            "addr:postcode": "8800",
            "addr:street": "Király utca",
            "air_conditioning": "yes",
            "brand": "Aldi",
            "brand:wikidata": "Q41171672",
            "brand:wikipedia": "hu:Aldi",
            "contact:facebook": "https://www.facebook.com/ALDI.Magyarorszag",
            "contact:instagram": "https://www.instagram.com/aldi.magyarorszag",
            "contact:phone": "+36 80 088 264",
            "contact:website": "https://www.aldi.hu",
            "contact:youtube": "https://www.youtube.com/user/ALDIMagyarorszag",
            "fixme": "Ellenőrizni a meglétét és a pontos helyére tenni;Check its existence and put it in the right place",
            "name": "Aldi",
            "opening_hours": "Mo-Sa 07:00-20:00; Su 07:00-19:00; PH off",
            "operator": "ALDI Magyarország Élelmiszer Bt.",
            "operator:addr": "2051 Biatorbágy, Mészárosok útja 2.",
            "operator:wikidata": "Q61299364",
            "operator:wikipedia": "hu:Aldi_(Magyarország)",
            "payment:cash": "yes",
            "payment:contactless": "yes",
            "payment:maestro": "yes",
            "payment:mastercard": "yes",
            "payment:mastercard_contactless": "yes",
            "payment:mastercard_electronic": "yes",
            "payment:visa": "yes",
            "payment:visa_electron": "yes",
            "ref:HU:company": "13-06-058506",
            "ref:HU:vatin": "22234663-2-44",
            "ref:vatin": "HU22234663",
            "shop": "supermarket",
            "source": "import;website",
            "source:date": "2025-06-15"
          },
          "geometry": {
            "type": "Point",
            "coordinates": [
              16.98754,
              46.45442
            ]
          }
        },
        {
          "type": "Feature",
          "properties": {
            "id": "12603385302",
            "osm_type": "node",
            "lat": 46.384822,
            "lon": 16.8315358,
            "name": "Nagybolt",
            "operator": "Condimentarius",
            "shop": "supermarket"
          },
          "geometry": {
            "type": "Point",
            "coordinates": [
              16.8315358,
              46.384822
            ]
          }
        }
      ],
      "children": []
    },
    {
      "bbox": {
        "south": 46.70320525,
        "west": 15.253173,
        "north": 47.033758500000005,
        "east": 16.2068765
      },
      "poiCount": 70,
      "leafCount": 0,
      "averagePosition": [
        15.705855252857143,
        46.91658729571429
      ],
      "data": [],
      "children": [
        {
          "bbox": {
            "south": 46.70320525,
            "west": 15.253173,
            "north": 46.868481875,
            "east": 15.73002475
          },
          "poiCount": 12,
          "leafCount": 12,
          "averagePosition": [
            15.556693541666666,
            46.77765676666667
          ],
          "data": [
            {
              "type": "Feature",
              "properties": {
                "id": "4343892737",
                "osm_type": "node",
                "lat": 46.7419457,
                "lon": 15.4666026,
                "addr:city": "Großklein",
                "addr:housenumber": "57",
                "addr:place": "Nestelberg",
                "addr:postcode": "8452",
                "brand": "Unimarkt",
                "brand:wikidata": "Q1169599",
                "brand:wikipedia": "de:Unimarkt",
                "fair_trade": "yes",
                "level": "1",
                "name": "Unimarkt",
                "opening_hours": "Mo-Fr 07:30-18:30; Sa 07:30-17:00; Su,PH off",
                "operator": "Dirnboeck",
                "organic": "yes",
                "shop": "supermarket",
                "website": "https://www.unimarkt.at/",
                "wheelchair": "yes"
              },
              "geometry": {
                "type": "Point",
                "coordinates": [
                  15.4666026,
                  46.7419457
                ]
              }
            },
            {
              "type": "Feature",
              "properties": {
                "id": "12078289064",
                "osm_type": "node",
                "lat": 46.764978,
                "lon": 15.495512,
                "addr:city": "Heimschuh",
                "addr:housenumber": "2",
                "addr:postcode": "8451",
                "addr:street": "Schröttenweg",
                "branch": "Heimschuh",
                "brand": "Spar",
                "brand:wikidata": "Q610492",
                "check_date": "2024-11-28",
                "currency:EUR": "yes",
                "name": "Spar",
                "opening_hours": "Mo-Fr 06:50-19:00; Sa 06:50-18:00; PH,Su off",
                "organic": "yes",
                "payment:cash": "yes",
                "payment:contactless": "yes",
                "payment:credit_cards": "yes",
                "payment:debit_cards": "yes",
                "phone": "+43 3452 86135",
                "shop": "supermarket",
                "start_date": "2024-11-28",
                "website": "https://www.spar.at/standorte/spar-heimschuh-8451-sulmtalstrasse-33",
                "wheelchair": "yes"
              },
              "geometry": {
                "type": "Point",
                "coordinates": [
                  15.495512,
                  46.764978
                ]
              }
            },
            {
              "type": "Feature",
              "properties": {
                "id": "304300618",
                "osm_type": "node",
                "lat": 46.7884727,
                "lon": 15.5407096,
                "addr:city": "Leibnitz",
                "addr:country": "AT",
                "addr:housenumber": "34",
                "addr:postcode": "8430",
                "addr:street": "Dechant Thaller-Straße",
                "brand": "Billa Plus",
                "brand:wikidata": "Q115431077",
                "name": "Billa Plus",
                "old_name": "Merkur",
                "opening_hours": "Mo-Fr 07:00-19:15; Sa 07:15-18:00",
                "shop": "supermarket",
                "website": "https://www.billa.at",
                "wheelchair": "yes"
              },
              "geometry": {
                "type": "Point",
                "coordinates": [
                  15.5407096,
                  46.7884727
                ]
              }
            },
            {
              "type": "Feature",
              "properties": {
                "id": "763095043",
                "osm_type": "node",
                "lat": 46.7369476,
                "lon": 15.5688195,
                "name": "Spar",
                "operator": "Spar",
                "shop": "supermarket"
              },
              "geometry": {
                "type": "Point",
                "coordinates": [
                  15.5688195,
                  46.7369476
                ]
              }
            },
            {
              "type": "Feature",
              "properties": {
                "id": "1867900213",
                "osm_type": "node",
                "lat": 46.7970645,
                "lon": 15.5561,
                "addr:city": "Leibnitz",
                "addr:country": "AT",
                "addr:housenumber": "1-2",
                "addr:postcode": "8430",
                "addr:street": "Leopold-Figl-Straße",
                "brand": "Penny",
                "brand:wikidata": "Q284688",
                "brand:wikipedia": "en:Penny (supermarket)",
                "name": "PENNY",
                "operator": "Penny",
                "shop": "supermarket",
                "wheelchair": "yes"
              },
              "geometry": {
                "type": "Point",
                "coordinates": [
                  15.5561,
                  46.7970645
                ]
              }
            },
            {
              "type": "Feature",
              "properties": {
                "id": "3189151357",
                "osm_type": "node",
                "lat": 46.7813402,
                "lon": 15.5349078,
                "addr:city": "Leibnitz",
                "addr:housenumber": "4-6",
                "addr:postcode": "8430",
                "addr:street": "Rudolf Hans Bartsch Gasse",
                "brand": "PENNY",
                "brand:wikidata": "Q284688",
                "brand:wikipedia": "en:Penny (supermarket)",
                "name": "PENNY",
                "opening_hours": "Mo-Fr 07:30-19:00; Sa 07:30-18:00; PH off",
                "operator": "Billa AG, Abteilung Penny",
                "shop": "supermarket",
                "website": "https://www.penny.at/",
                "wheelchair": "yes"
              },
              "geometry": {
                "type": "Point",
                "coordinates": [
                  15.5349078,
                  46.7813402
                ]
              }
            },
            {
              "type": "Feature",
              "properties": {
                "id": "4001588157",
                "osm_type": "node",
                "lat": 46.7986929,
                "lon": 15.5569808,
                "addr:city": "Leibnitz",
                "addr:housenumber": "11",
                "addr:postcode": "8430",
                "addr:street": "Im Lagerfeld",
                "name": "Frischehof",
                "organic": "only",
                "phone": "+43 3452 74511",
                "shop": "supermarket",
                "website": "https://frischehof.at/"
              },
              "geometry": {
                "type": "Point",
                "coordinates": [
                  15.5569808,
                  46.7986929
                ]
              }
            },
            {
              "type": "Feature",
              "properties": {
                "id": "4144050648",
                "osm_type": "node",
                "lat": 46.725107,
                "lon": 15.5842659,
                "brand": "Nah & Frisch",
                "brand:wikidata": "Q1963643",
                "brand:wikipedia": "de:Nah & Frisch",
                "name": "Nah & Frisch",
                "shop": "supermarket"
              },
              "geometry": {
                "type": "Point",
                "coordinates": [
                  15.5842659,
                  46.725107
                ]
              }
            },
            {
              "type": "Feature",
              "properties": {
                "id": "6985160795",
                "osm_type": "node",
                "lat": 46.781348,
                "lon": 15.537619,
                "addr:city": "Leibnitz",
                "addr:country": "AT",
                "addr:housenumber": "28",
                "addr:postcode": "8430",
                "addr:street": "Hauptplatz",
                "at_bev:addr_date": "2019-10-01",
                "brand": "Spar",
                "brand:wikidata": "Q610492",
                "brand:wikipedia": "en:SPAR (retailer)",
                "name": "Spar",
                "opening_hours": "Mo-Fr 07:00-19:00; Sa 07:00-18:00",
                "operator": "SPAR Markt Siegwald Gschier Hd. Gmbh NF KG",
                "shop": "supermarket",
                "source": "geoimage.at; spar.at",
                "website": "https://www.spar.at/de_AT/index/standorte/84/gschier_handels_gesmbhnfgkg1574.html"
              },
              "geometry": {
                "type": "Point",
                "coordinates": [
                  15.537619,
                  46.781348
                ]
              }
            },
            {
              "type": "Feature",
              "properties": {
                "id": "7876015330",
                "osm_type": "node",
                "lat": 46.8416259,
                "lon": 15.6395699,
                "addr:city": "Wolfsberg im Schwarzautal",
                "addr:country": "AT",
                "addr:housenumber": "54",
                "addr:postcode": "8421",
                "addr:street": "Wolfsberg",
                "brand": "Billa",
                "brand:wikidata": "Q537781",
                "brand:wikipedia": "en:Billa (supermarket)",
                "name": "Billa",
                "opening_hours": "Mo-Fr 07:00-19:15; Sa 07:15-18:00",
                "phone": "+43 59915 06533",
                "shop": "supermarket"
              },
              "geometry": {
                "type": "Point",
                "coordinates": [
                  15.6395699,
                  46.8416259
                ]
              }
            },
            {
              "type": "Feature",
              "properties": {
                "id": "8568424659",
                "osm_type": "node",
                "lat": 46.7392555,
                "lon": 15.6049177,
                "addr:city": "Straß in Steiermark",
                "addr:housenumber": "1",
                "addr:postcode": "8472",
                "addr:street": "Minasstraße",
                "brand": "Hofer",
                "brand:wikidata": "Q15815751",
                "brand:wikipedia": "de:Hofer KG",
                "name": "Hofer",
                "shop": "supermarket"
              },
              "geometry": {
                "type": "Point",
                "coordinates": [
                  15.6049177,
                  46.7392555
                ]
              }
            },
            {
              "type": "Feature",
              "properties": {
                "id": "8664756477",
                "osm_type": "node",
                "lat": 46.8351032,
                "lon": 15.5943177,
                "brand": "Spar",
                "brand:wikidata": "Q610492",
                "brand:wikipedia": "en:Spar (retailer)",
                "name": "Spar",
                "shop": "supermarket"
              },
              "geometry": {
                "type": "Point",
                "coordinates": [
                  15.5943177,
                  46.8351032
                ]
              }
            }
          ],
          "children": []
        },
        {
          "bbox": {
            "south": 46.70320525,
            "west": 15.73002475,
            "north": 46.868481875,
            "east": 16.2068765
          },
          "poiCount": 8,
          "leafCount": 8,
          "averagePosition": [
            15.87865195,
            46.76284995
          ],
          "data": [
            {
              "type": "Feature",
              "properties": {
                "id": "282268881",
                "osm_type": "node",
                "lat": 46.8303314,
                "lon": 15.8862927,
                "name": "Weinhandl Mühle",
                "organic": "only",
                "shop": "supermarket"
              },
              "geometry": {
                "type": "Point",
                "coordinates": [
                  15.8862927,
                  46.8303314
                ]
              }
            },
            {
              "type": "Feature",
              "properties": {
                "id": "1022308546",
                "osm_type": "node",
                "lat": 46.7519727,
                "lon": 15.8300558,
                "name": "Sparmarkt Fasching",
                "shop": "supermarket"
              },
              "geometry": {
                "type": "Point",
                "coordinates": [
                  15.8300558,
                  46.7519727
                ]
              }
            },
            {
              "type": "Feature",
              "properties": {
                "id": "2292326144",
                "osm_type": "node",
                "lat": 46.7857973,
                "lon": 15.9443133,
                "name": "Nah & Frisch Puntigam",
                "shop": "supermarket"
              },
              "geometry": {
                "type": "Point",
                "coordinates": [
                  15.9443133,
                  46.7857973
                ]
              }
            },
            {
              "type": "Feature",
              "properties": {
                "id": "2419758851",
                "osm_type": "node",
                "lat": 46.7318261,
                "lon": 15.9041,
                "addr:city": "Halbenrain",
                "addr:housename": "Spar",
                "addr:housenumber": "54",
                "addr:place": "Unterpurkla",
                "addr:postcode": "8484",
                "brand": "Spar",
                "brand:wikidata": "Q610492",
                "brand:wikipedia": "de:Spar",
                "name": "Spar",
                "shop": "supermarket"
              },
              "geometry": {
                "type": "Point",
                "coordinates": [
                  15.9041,
                  46.7318261
                ]
              }
            },
            {
              "type": "Feature",
              "properties": {
                "id": "2609156374",
                "osm_type": "node",
                "lat": 46.7900814,
                "lon": 15.8529814,
                "brand": "Spar",
                "brand:wikidata": "Q610492",
                "brand:wikipedia": "en:Spar (retailer)",
                "name": "Spar",
                "opening_hours": "Mo-Fr 06:50-19:00; Sa 06:50-18:00",
                "shop": "supermarket"
              },
              "geometry": {
                "type": "Point",
                "coordinates": [
                  15.8529814,
                  46.7900814
                ]
              }
            },
            {
              "type": "Feature",
              "properties": {
                "id": "2941165914",
                "osm_type": "node",
                "lat": 46.7072289,
                "lon": 15.7612929,
                "addr:postcode": "8480",
                "brand": "Billa",
                "brand:wikidata": "Q537781",
                "brand:wikipedia": "de:Billa",
                "name": "Billa",
                "shop": "supermarket",
                "wheelchair": "yes",
                "wpt_symbol": "Shopping Center"
              },
              "geometry": {
                "type": "Point",
                "coordinates": [
                  15.7612929,
                  46.7072289
                ]
              }
            },
            {
              "type": "Feature",
              "properties": {
                "id": "2941165917",
                "osm_type": "node",
                "lat": 46.7072753,
                "lon": 15.7601734,
                "addr:postcode": "8480",
                "brand": "Hofer",
                "brand:wikidata": "Q15815751",
                "brand:wikipedia": "de:Hofer KG",
                "name": "Hofer",
                "shop": "supermarket",
                "wpt_symbol": "Shopping Center"
              },
              "geometry": {
                "type": "Point",
                "coordinates": [
                  15.7601734,
                  46.7072753
                ]
              }
            },
            {
              "type": "Feature",
              "properties": {
                "id": "12899844867",
                "osm_type": "node",
                "lat": 46.7982865,
                "lon": 16.0900061,
                "name": "Spar",
                "shop": "supermarket"
              },
              "geometry": {
                "type": "Point",
                "coordinates": [
                  16.0900061,
                  46.7982865
                ]
              }
            }
          ],
          "children": []
        },
        {
          "bbox": {
            "south": 46.868481875,
            "west": 15.253173,
            "north": 47.033758500000005,
            "east": 15.73002475
          },
          "poiCount": 24,
          "leafCount": 24,
          "averagePosition": [
            15.445378170833335,
            46.99422799166666
          ],
          "data": [
            {
              "type": "Feature",
              "properties": {
                "id": "31620673",
                "osm_type": "node",
                "lat": 47.0283055,
                "lon": 15.434203,
                "addr:city": "Graz",
                "addr:country": "AT",
                "addr:housenumber": "371",
                "addr:postcode": "8055",
                "addr:street": "Triester Straße",
                "brand": "Billa Plus",
                "brand:wikidata": "Q115431077",
                "brand:wikipedia": "de:Billa",
                "contact:phone": "+43 316 242 515",
                "name": "Billa Plus",
                "old_name": "Merkur",
                "opening_hours": "Mo-Fr 07:00-19:15; Sa 07:15-18:00",
                "operator": "REWE",
                "shop": "supermarket",
                "start_date": "2021-04-06",
                "website": "https://www.billa.at",
                "wheelchair": "yes"
              },
              "geometry": {
                "type": "Point",
                "coordinates": [
                  15.434203,
                  47.0283055
                ]
              }
            },
            {
              "type": "Feature",
              "properties": {
                "id": "270396457",
                "osm_type": "node",
                "lat": 47.0116977,
                "lon": 15.4103699,
                "addr:city": "Seiersberg",
                "addr:housenumber": "3",
                "addr:postcode": "8055",
                "addr:street": "Shopping City Seiersberg",
                "branch": "Plus",
                "brand": "Billa Plus",
                "brand:wikidata": "Q115431077",
                "brand:wikipedia": "de:Billa",
                "level": "0",
                "name": "Billa Plus",
                "old_name": "Merkur",
                "opening_hours": "Mo-Th 08:00-19:30; Fr 07:40-20:00; Sa 07:40-18:00",
                "phone": "+43 599 1506150",
                "shop": "supermarket",
                "website": "https://www.billa.at",
                "wheelchair": "yes"
              },
              "geometry": {
                "type": "Point",
                "coordinates": [
                  15.4103699,
                  47.0116977
                ]
              }
            },
            {
              "type": "Feature",
              "properties": {
                "id": "371394846",
                "osm_type": "node",
                "lat": 47.0335282,
                "lon": 15.4175451,
                "addr:city": "Graz",
                "addr:country": "AT",
                "addr:housenumber": "25",
                "addr:postcode": "8054",
                "addr:street": "Weblinger Gürtel",
                "brand": "Interspar",
                "brand:wikidata": "Q15820339",
                "brand:wikipedia": "de:Interspar (Österreich)",
                "contact:phone": "+43 316 292 090",
                "name": "Interspar",
                "opening_hours": "Mo-Fr 08:00-20:00; Sa 08:00-18:00",
                "operator": "Spar",
                "organic": "limited",
                "shop": "supermarket",
                "source": "survey",
                "wheelchair": "yes"
              },
              "geometry": {
                "type": "Point",
                "coordinates": [
                  15.4175451,
                  47.0335282
                ]
              }
            },
            {
              "type": "Feature",
              "properties": {
                "id": "371395088",
                "osm_type": "node",
                "lat": 47.0181909,
                "lon": 15.3993247,
                "addr:city": "Graz",
                "addr:country": "AT",
                "addr:housenumber": "451",
                "addr:postcode": "8054",
                "addr:street": "Kärntner Straße",
                "brand": "Spar",
                "brand:wikidata": "Q610492",
                "brand:wikipedia": "en:Spar (retailer)",
                "name": "Spar",
                "operator": "Spar",
                "shop": "supermarket"
              },
              "geometry": {
                "type": "Point",
                "coordinates": [
                  15.3993247,
                  47.0181909
                ]
              }
            },
            {
              "type": "Feature",
              "properties": {
                "id": "371395941",
                "osm_type": "node",
                "lat": 46.9897779,
                "lon": 15.3984253,
                "addr:city": "Windorf;Seiersberg-Pirka",
                "addr:country": "AT",
                "addr:housenumber": "182a",
                "addr:postcode": "8054",
                "addr:street": "Premstätter Straße",
                "at_bev:addr_date": "2020-10-01",
                "brand": "Spar",
                "brand:wikidata": "Q610492",
                "brand:wikipedia": "en:Spar (retailer)",
                "name": "Spar",
                "opening_hours": "Mo-Su 06:00-21:00",
                "operator": "Spar",
                "shop": "supermarket",
                "website": "http://www.avido.cc"
              },
              "geometry": {
                "type": "Point",
                "coordinates": [
                  15.3984253,
                  46.9897779
                ]
              }
            },
            {
              "type": "Feature",
              "properties": {
                "id": "371755913",
                "osm_type": "node",
                "lat": 46.996688,
                "lon": 15.4440651,
                "addr:city": "Feldkirchen bei Graz",
                "addr:housenumber": "51",
                "addr:postcode": "8073",
                "addr:street": "Flughafenstraße",
                "brand": "Spar",
                "brand:wikidata": "Q610492",
                "brand:wikipedia": "en:SPAR (retailer)",
                "check_date": "2024-12-02",
                "name": "Spar",
                "opening_hours": "Mo-Sa 07:30-19:00; Su,PH 06:00-20:00",
                "operator": "Spar",
                "shop": "supermarket",
                "wheelchair": "yes"
              },
              "geometry": {
                "type": "Point",
                "coordinates": [
                  15.4440651,
                  46.996688
                ]
              }
            },
            {
              "type": "Feature",
              "properties": {
                "id": "382382346",
                "osm_type": "node",
                "lat": 47.0203287,
                "lon": 15.4375618,
                "addr:city": "Seiersberg-Pirka",
                "addr:country": "AT",
                "addr:housenumber": "1",
                "addr:postcode": "8055",
                "addr:street": "Otto Baumgartner-Straße",
                "at_bev:addr_date": "2018-10-01",
                "brand": "PENNY",
                "brand:wikidata": "Q284688",
                "brand:wikipedia": "en:Penny (supermarket)",
                "name": "PENNY",
                "opening_hours": "Mo-Fr 07:40-20:00; Sa 07:40-18:00; PH off",
                "operator": "Rewe-Gruppe",
                "shop": "supermarket",
                "website": "https://www.penny.at",
                "wheelchair": "yes"
              },
              "geometry": {
                "type": "Point",
                "coordinates": [
                  15.4375618,
                  47.0203287
                ]
              }
            },
            {
              "type": "Feature",
              "properties": {
                "id": "992768394",
                "osm_type": "node",
                "lat": 47.0202356,
                "lon": 15.4384431,
                "addr:city": "Graz",
                "addr:country": "AT",
                "addr:housenumber": "459",
                "addr:postcode": "8055",
                "addr:street": "Triester Straße",
                "branch": "Markt",
                "brand": "Spar",
                "brand:wikidata": "Q610492",
                "name": "Spar",
                "opening_hours": "24/7",
                "operator": "Spar",
                "shop": "supermarket",
                "website": "www.avido.cc"
              },
              "geometry": {
                "type": "Point",
                "coordinates": [
                  15.4384431,
                  47.0202356
                ]
              }
            },
            {
              "type": "Feature",
              "properties": {
                "id": "2481348953",
                "osm_type": "node",
                "lat": 46.9853877,
                "lon": 15.2806609,
                "addr:city": "Mooskirchen",
                "addr:country": "AT",
                "addr:housenumber": "5",
                "addr:street": "Oberer Markt",
                "brand": "Nah & Frisch",
                "name": "Kaufhaus \"zum Tanzer\"",
                "operator": "Kienzl & Gschier",
                "shop": "supermarket",
                "smoking": "no",
                "source": "survey"
              },
              "geometry": {
                "type": "Point",
                "coordinates": [
                  15.2806609,
                  46.9853877
                ]
              }
            },
            {
              "type": "Feature",
              "properties": {
                "id": "3328358849",
                "osm_type": "node",
                "lat": 47.0271624,
                "lon": 15.4881772,
                "addr:city": "Raaba",
                "addr:housenumber": "22a",
                "addr:postcode": "8074",
                "addr:street": "Dr.-Auner-Straße",
                "brand": "Billa",
                "brand:wikidata": "Q537781",
                "brand:wikipedia": "en:Billa (supermarket)",
                "name": "Billa",
                "opening_hours": "Mo-Th 07:00-19:00; Fr 07:30-19:00; Sa 07:30-16:00; Su,PH off",
                "phone": "+43 316 403 860",
                "shop": "supermarket",
                "wheelchair": "yes"
              },
              "geometry": {
                "type": "Point",
                "coordinates": [
                  15.4881772,
                  47.0271624
                ]
              }
            },
            {
              "type": "Feature",
              "properties": {
                "id": "4348233430",
                "osm_type": "node",
                "lat": 46.9932065,
                "lon": 15.5165557,
                "addr:city": "Hausmannstätten",
                "addr:country": "AT",
                "addr:housenumber": "9",
                "addr:postcode": "8071",
                "addr:street": "Schemmerlstraße",
                "at_bev:addr_date": "2018-10-01",
                "brand": "Billa",
                "brand:wikidata": "Q537781",
                "brand:wikipedia": "de:Billa",
                "name": "Billa",
                "opening_hours": "Mo-Fr 06:45-19:00; Sa 07:15-18:00",
                "phone": "+43 59915 06871",
                "shop": "supermarket",
                "wheelchair": "yes"
              },
              "geometry": {
                "type": "Point",
                "coordinates": [
                  15.5165557,
                  46.9932065
                ]
              }
            },
            {
              "type": "Feature",
              "properties": {
                "id": "4712107058",
                "osm_type": "node",
                "lat": 47.0075602,
                "lon": 15.481354,
                "addr:city": "Gössendorf",
                "addr:housenumber": "83",
                "addr:postcode": "8077",
                "addr:street": "Bundesstraße",
                "brand": "Spar",
                "brand:wikidata": "Q610492",
                "brand:wikipedia": "en:Spar (retailer)",
                "name": "Spar",
                "shop": "supermarket",
                "wheelchair": "yes"
              },
              "geometry": {
                "type": "Point",
                "coordinates": [
                  15.481354,
                  47.0075602
                ]
              }
            },
            {
              "type": "Feature",
              "properties": {
                "id": "4899517413",
                "osm_type": "node",
                "lat": 46.982667,
                "lon": 15.5028963,
                "addr:housenumber": "78",
                "addr:postcode": "8072",
                "addr:street": "Hausmannstättener Straße",
                "brand": "Unimarkt",
                "brand:wikidata": "Q1169599",
                "brand:wikipedia": "de:Unimarkt",
                "contact:phone": "+43 3135 53317",
                "name": "Unimarkt",
                "opening_hours": "Mo-Fr 07:00-19:00; Sa 07:00-18:00",
                "shop": "supermarket"
              },
              "geometry": {
                "type": "Point",
                "coordinates": [
                  15.5028963,
                  46.982667
                ]
              }
            },
            {
              "type": "Feature",
              "properties": {
                "id": "5404345120",
                "osm_type": "node",
                "lat": 46.9517499,
                "lon": 15.4815945,
                "brand": "Spar",
                "check_date:opening_hours": "2025-09-06",
                "name": "Spar",
                "opening_hours": "Mo-Fr 07:15-19:30; Sa 07:15-18:00",
                "shop": "supermarket"
              },
              "geometry": {
                "type": "Point",
                "coordinates": [
                  15.4815945,
                  46.9517499
                ]
              }
            },
            {
              "type": "Feature",
              "properties": {
                "id": "5713866806",
                "osm_type": "node",
                "lat": 47.0329412,
                "lon": 15.43182,
                "addr:city": "Graz",
                "addr:housenumber": "1",
                "addr:postcode": "8055",
                "addr:street": "Brauquartier",
                "brand": "Spar",
                "brand:wikidata": "Q610492",
                "brand:wikipedia": "en:Spar (retailer)",
                "check_date": "2024-05-30",
                "contact:phone": "+43 316 243 713",
                "level": "0",
                "name": "Spar",
                "opening_hours": "Mo-Fr 07:15-19:30; Sa 07:15-18:00; PH closed",
                "opening_hours:covid19": "Mo-Fr 07:40-19:00; Sa 07:40-18:00",
                "payment:cash": "yes",
                "payment:credit_cards": "yes",
                "payment:debit_cards": "yes",
                "shop": "supermarket",
                "wheelchair": "yes"
              },
              "geometry": {
                "type": "Point",
                "coordinates": [
                  15.43182,
                  47.0329412
                ]
              }
            },
            {
              "type": "Feature",
              "properties": {
                "id": "7642405661",
                "osm_type": "node",
                "lat": 46.9763493,
                "lon": 15.4027276,
                "addr:city": "Feldkirchen bei Graz",
                "addr:housenumber": "51",
                "addr:postcode": "8073",
                "addr:street": "Flughafenstraße",
                "brand": "Spar",
                "brand:wikidata": "Q610492",
                "brand:wikipedia": "en:Spar (retailer)",
                "name": "Spar",
                "opening_hours": "05:30-21:00",
                "operator": "Spar",
                "shop": "supermarket",
                "wheelchair": "yes"
              },
              "geometry": {
                "type": "Point",
                "coordinates": [
                  15.4027276,
                  46.9763493
                ]
              }
            },
            {
              "type": "Feature",
              "properties": {
                "id": "8882950453",
                "osm_type": "node",
                "lat": 47.0103635,
                "lon": 15.4005969,
                "brand": "Lidl",
                "brand:wikidata": "Q151954",
                "brand:wikipedia": "en:Lidl",
                "name": "Lidl",
                "shop": "supermarket"
              },
              "geometry": {
                "type": "Point",
                "coordinates": [
                  15.4005969,
                  47.0103635
                ]
              }
            },
            {
              "type": "Feature",
              "properties": {
                "id": "8951769393",
                "osm_type": "node",
                "lat": 47.0144446,
                "lon": 15.4739516,
                "brand": "Nah & Frisch",
                "brand:wikidata": "Q1963643",
                "brand:wikipedia": "de:Nah & Frisch",
                "name": "Nah & Frisch punkt",
                "shop": "supermarket"
              },
              "geometry": {
                "type": "Point",
                "coordinates": [
                  15.4739516,
                  47.0144446
                ]
              }
            },
            {
              "type": "Feature",
              "properties": {
                "id": "9750235385",
                "osm_type": "node",
                "lat": 47.0120987,
                "lon": 15.409963,
                "level": "0",
                "name": "Reformstark Martin",
                "organic": "only",
                "shop": "supermarket",
                "wheelchair": "yes"
              },
              "geometry": {
                "type": "Point",
                "coordinates": [
                  15.409963,
                  47.0120987
                ]
              }
            },
            {
              "type": "Feature",
              "properties": {
                "id": "10293335084",
                "osm_type": "node",
                "lat": 46.9962656,
                "lon": 15.3992969,
                "addr:city": "Seiersberg-Pirka",
                "addr:country": "AT",
                "addr:housenumber": "120",
                "addr:postcode": "8054",
                "addr:street": "Premstätter Straße",
                "at_bev:addr_date": "2022-10-01",
                "name": "Billa",
                "shop": "supermarket"
              },
              "geometry": {
                "type": "Point",
                "coordinates": [
                  15.3992969,
                  46.9962656
                ]
              }
            },
            {
              "type": "Feature",
              "properties": {
                "id": "13074190700",
                "osm_type": "node",
                "lat": 46.9107572,
                "lon": 15.3373966,
                "brand": "Spar",
                "brand:wikidata": "Q610492",
                "name": "Spar",
                "opening_hours": "Mo 07:00-18:00; Tu 07:00-13:00; We-Fr 07:00-18:00; Sa 07:00-13:00",
                "shop": "supermarket"
              },
              "geometry": {
                "type": "Point",
                "coordinates": [
                  15.3373966,
                  46.9107572
                ]
              }
            },
            {
              "type": "Feature",
              "properties": {
                "id": "5605186327",
                "osm_type": "node",
                "lat": 46.954805,
                "lon": 15.5869428,
                "addr:housenumber": "1",
                "addr:postcode": "8081",
                "addr:street": "Marktplatz",
                "email": "office@adeg-kurzmann.at",
                "name": "ADEG Kurzmann",
                "phone": "0313435550",
                "shop": "supermarket",
                "website": "http://www.adeg-kurzmann.at"
              },
              "geometry": {
                "type": "Point",
                "coordinates": [
                  15.5869428,
                  46.954805
                ]
              }
            },
            {
              "type": "Feature",
              "properties": {
                "id": "7483989582",
                "osm_type": "node",
                "lat": 47.0055484,
                "lon": 15.541614,
                "addr:city": "Vasoldsberg",
                "addr:housenumber": "39",
                "addr:postcode": "8076",
                "addr:street": "Kapellenstraße",
                "description": "Bauernladen, regionale Produkte",
                "name": "Die Bauern Pantscherei",
                "opening_hours": "Mo-Sa 08:00 -12:00 / Mo - Fr 14:00 - 18:00",
                "payment:cash": "yes",
                "payment:maestro": "yes",
                "phone": "+43 660 6918991",
                "shop": "supermarket"
              },
              "geometry": {
                "type": "Point",
                "coordinates": [
                  15.541614,
                  47.0055484
                ]
              }
            },
            {
              "type": "Feature",
              "properties": {
                "id": "9177669980",
                "osm_type": "node",
                "lat": 46.8814121,
                "lon": 15.5735901,
                "addr:city": "Sankt Georgen an der Stiefing",
                "addr:housenumber": "19",
                "addr:postcode": "8413",
                "addr:street": "Gerbersdorf",
                "brand": "Billa",
                "brand:wikidata": "Q537781",
                "brand:wikipedia": "de:Billa",
                "name": "Billa",
                "opening_hours": "Mo-Fr 07:00-19:15; Sa 07:15-8:00",
                "shop": "supermarket",
                "website": "https://www.billa.at/maerkte"
              },
              "geometry": {
                "type": "Point",
                "coordinates": [
                  15.5735901,
                  46.8814121
                ]
              }
            }
          ],
          "children": []
        },
        {
          "bbox": {
            "south": 46.868481875,
            "west": 15.73002475,
            "north": 47.033758500000005,
            "east": 16.2068765
          },
          "poiCount": 26,
          "leafCount": 26,
          "averagePosition": [
            15.96197128846154,
            46.95634454230769
          ],
          "data": [
            {
              "type": "Feature",
              "properties": {
                "id": "1750760414",
                "osm_type": "node",
                "lat": 46.8711934,
                "lon": 15.9035753,
                "name": "Preispirat",
                "shop": "supermarket"
              },
              "geometry": {
                "type": "Point",
                "coordinates": [
                  15.9035753,
                  46.8711934
                ]
              }
            },
            {
              "type": "Feature",
              "properties": {
                "id": "4351626134",
                "osm_type": "node",
                "lat": 46.870654,
                "lon": 15.9032182,
                "brand": "Unimarkt",
                "brand:wikidata": "Q1169599",
                "brand:wikipedia": "de:Unimarkt",
                "name": "Unimarkt",
                "shop": "supermarket"
              },
              "geometry": {
                "type": "Point",
                "coordinates": [
                  15.9032182,
                  46.870654
                ]
              }
            },
            {
              "type": "Feature",
              "properties": {
                "id": "1377427125",
                "osm_type": "node",
                "lat": 46.977375,
                "lon": 16.0021194,
                "addr:city": "Fehring",
                "addr:housenumber": "13",
                "addr:place": "Hatzendorf",
                "addr:postcode": "8361",
                "brand": "Nah & Frisch",
                "brand:wikidata": "Q1963643",
                "brand:wikipedia": "de:Nah & Frisch",
                "name": "Nah & Frisch",
                "operator": "Spörk",
                "shop": "supermarket"
              },
              "geometry": {
                "type": "Point",
                "coordinates": [
                  16.0021194,
                  46.977375
                ]
              }
            },
            {
              "type": "Feature",
              "properties": {
                "id": "1936540246",
                "osm_type": "node",
                "lat": 47.0042094,
                "lon": 15.7624988,
                "addr:city": "Kirchberg an der Raab",
                "addr:country": "AT",
                "addr:housenumber": "138",
                "addr:place": "Studenzen",
                "addr:postcode": "8322",
                "at_bev:addr_date": "2017-10-01",
                "brand": "Spar",
                "brand:wikidata": "Q610492",
                "brand:wikipedia": "en:Spar (retailer)",
                "name": "Spar",
                "opening_hours": "Mo-Fr 06:45-19:00; Sa 06:45-17:30; Su off",
                "operator": "Werner Legenstein",
                "phone": "+433115 6103",
                "shop": "supermarket",
                "wheelchair": "yes"
              },
              "geometry": {
                "type": "Point",
                "coordinates": [
                  15.7624988,
                  47.0042094
                ]
              }
            },
            {
              "type": "Feature",
              "properties": {
                "id": "2499100848",
                "osm_type": "node",
                "lat": 46.8734233,
                "lon": 15.826402,
                "addr:city": "Gnas",
                "addr:country": "AT",
                "addr:housenumber": "52",
                "addr:place": "Gnas",
                "addr:postcode": "8342",
                "name": "Kunst & Kost",
                "opening_hours": "Mo-Th 08:00-12:30; Fr 08:00-12:30,14:00-18:00; Sa 08:00-12:30",
                "organic": "yes",
                "phone": "0664 93 20 151",
                "shop": "supermarket"
              },
              "geometry": {
                "type": "Point",
                "coordinates": [
                  15.826402,
                  46.8734233
                ]
              }
            },
            {
              "type": "Feature",
              "properties": {
                "id": "3373768408",
                "osm_type": "node",
                "lat": 46.9503988,
                "lon": 15.8900099,
                "addr:country": "AT",
                "addr:housenumber": "2",
                "addr:postcode": "8330",
                "addr:street": "Schillerstraße",
                "brand": "Billa",
                "brand:wikidata": "Q537781",
                "brand:wikipedia": "de:Billa",
                "contact:phone": "+43 59 9150 6304",
                "name": "Billa",
                "opening_hours": "Mo-Fr 06:45-19:00; Sa 07:15-18:00",
                "shop": "supermarket",
                "wheelchair": "yes"
              },
              "geometry": {
                "type": "Point",
                "coordinates": [
                  15.8900099,
                  46.9503988
                ]
              }
            },
            {
              "type": "Feature",
              "properties": {
                "id": "3732459395",
                "osm_type": "node",
                "lat": 46.9567507,
                "lon": 15.94612,
                "addr:city": "Lödersdorf",
                "addr:housenumber": "82",
                "addr:place": "Lödersdorf I",
                "addr:postcode": "8334",
                "name": "Nah & Frisch Neubauer",
                "shop": "supermarket"
              },
              "geometry": {
                "type": "Point",
                "coordinates": [
                  15.94612,
                  46.9567507
                ]
              }
            },
            {
              "type": "Feature",
              "properties": {
                "id": "3818682391",
                "osm_type": "node",
                "lat": 46.9533763,
                "lon": 15.8878021,
                "addr:city": "Feldbach",
                "addr:housenumber": "22",
                "addr:postcode": "8330",
                "addr:street": "Hauptplatz",
                "brand": "Unimarkt",
                "brand:wikidata": "Q1169599",
                "brand:wikipedia": "de:Unimarkt",
                "name": "Unimarkt",
                "shop": "supermarket",
                "wheelchair": "yes"
              },
              "geometry": {
                "type": "Point",
                "coordinates": [
                  15.8878021,
                  46.9533763
                ]
              }
            },
            {
              "type": "Feature",
              "properties": {
                "id": "4023087079",
                "osm_type": "node",
                "lat": 46.9519383,
                "lon": 15.8905884,
                "addr:city": "Feldbach",
                "addr:housenumber": "2",
                "addr:postcode": "8330",
                "addr:street": "Bürgergasse",
                "name": "Bauernstadl",
                "operator": "Bauernstadl GmbH",
                "shop": "supermarket",
                "website": "http://bauernstadl.at/",
                "wheelchair": "yes"
              },
              "geometry": {
                "type": "Point",
                "coordinates": [
                  15.8905884,
                  46.9519383
                ]
              }
            },
            {
              "type": "Feature",
              "properties": {
                "id": "4025825686",
                "osm_type": "node",
                "lat": 46.8789587,
                "lon": 15.9323457,
                "addr:city": "Bad Gleichenberg",
                "addr:housenumber": "159",
                "addr:place": "Bairisch Kölldorf",
                "addr:postcode": "8344",
                "name": "Buy Sino & Entertainment",
                "shop": "supermarket",
                "website": "http://www.buysino.at/"
              },
              "geometry": {
                "type": "Point",
                "coordinates": [
                  15.9323457,
                  46.8789587
                ]
              }
            },
            {
              "type": "Feature",
              "properties": {
                "id": "4077950689",
                "osm_type": "node",
                "lat": 47.0278335,
                "lon": 15.7904956,
                "addr:city": "Eichkögl",
                "addr:housenumber": "81",
                "addr:place": "Eichkögl",
                "addr:postcode": "8322",
                "name": "Franz Neumeister",
                "operator": "Franz Neumeister",
                "shop": "supermarket"
              },
              "geometry": {
                "type": "Point",
                "coordinates": [
                  15.7904956,
                  47.0278335
                ]
              }
            },
            {
              "type": "Feature",
              "properties": {
                "id": "4078468247",
                "osm_type": "node",
                "lat": 47.0328142,
                "lon": 15.8329107,
                "addr:city": "Markt Hartmannsdorf",
                "addr:country": "AT",
                "addr:housenumber": "30",
                "addr:place": "Reith bei Hartmannsdorf",
                "addr:postcode": "8311",
                "name": "Noahs Laden",
                "organic": "only",
                "shop": "supermarket",
                "website": "https://www.noahsladen.at/"
              },
              "geometry": {
                "type": "Point",
                "coordinates": [
                  15.8329107,
                  47.0328142
                ]
              }
            },
            {
              "type": "Feature",
              "properties": {
                "id": "4422663138",
                "osm_type": "node",
                "lat": 46.9870946,
                "lon": 15.7640325,
                "addr:city": "Kirchberg an der Raab",
                "addr:housenumber": "8",
                "addr:place": "Kirchberg an der Raab",
                "addr:postcode": "8324",
                "operator": "Neumeister KG",
                "shop": "supermarket"
              },
              "geometry": {
                "type": "Point",
                "coordinates": [
                  15.7640325,
                  46.9870946
                ]
              }
            },
            {
              "type": "Feature",
              "properties": {
                "id": "4704095355",
                "osm_type": "node",
                "lat": 46.952855,
                "lon": 15.8899316,
                "addr:city": "Feldbach",
                "addr:housenumber": "16",
                "addr:postcode": "8330",
                "addr:street": "Bürgergasse",
                "name": "Johanna's Naturladen",
                "opening_hours": "Mo-Fr 8:30-13:00, 14:30-18:00",
                "organic": "only",
                "payment:cash": "yes",
                "phone": "+43 3152 6218",
                "shop": "supermarket"
              },
              "geometry": {
                "type": "Point",
                "coordinates": [
                  15.8899316,
                  46.952855
                ]
              }
            },
            {
              "type": "Feature",
              "properties": {
                "id": "4706143321",
                "osm_type": "node",
                "lat": 46.9494131,
                "lon": 15.9074265,
                "addr:city": "Feldbach",
                "addr:country": "AT",
                "addr:housenumber": "300",
                "addr:place": "Mühldorf",
                "addr:postcode": "8330",
                "brand": "Spar",
                "brand:wikidata": "Q610492",
                "brand:wikipedia": "en:SPAR (retailer)",
                "name": "Spar",
                "shop": "supermarket"
              },
              "geometry": {
                "type": "Point",
                "coordinates": [
                  15.9074265,
                  46.9494131
                ]
              }
            },
            {
              "type": "Feature",
              "properties": {
                "id": "11198482108",
                "osm_type": "node",
                "lat": 46.9987959,
                "lon": 15.9369414,
                "brand": "Spar",
                "brand:wikidata": "Q610492",
                "name": "Spar",
                "opening_hours": "Mo-Fr 06:15-18:30; Sa 07:00-17:45; Su off",
                "shop": "supermarket"
              },
              "geometry": {
                "type": "Point",
                "coordinates": [
                  15.9369414,
                  46.9987959
                ]
              }
            },
            {
              "type": "Feature",
              "properties": {
                "id": "12334790949",
                "osm_type": "node",
                "lat": 46.941208,
                "lon": 15.7862437,
                "addr:city": "Paldau",
                "addr:housenumber": "161",
                "addr:postcode": "8341",
                "addr:street": "Paldauerstraße",
                "brand": "Spar",
                "brand:wikidata": "Q610492",
                "name": "Spar",
                "operator": "Rossmann",
                "payment:app": "yes",
                "payment:cards": "yes",
                "payment:cash": "yes",
                "payment:coins": "yes",
                "payment:contactless": "yes",
                "payment:credit_cards": "yes",
                "payment:debit_cards": "yes",
                "payment:maestro": "yes",
                "payment:mastercard": "yes",
                "payment:notes": "yes",
                "payment:visa": "yes",
                "shop": "supermarket"
              },
              "geometry": {
                "type": "Point",
                "coordinates": [
                  15.7862437,
                  46.941208
                ]
              }
            },
            {
              "type": "Feature",
              "properties": {
                "id": "282029327",
                "osm_type": "node",
                "lat": 46.9397029,
                "lon": 16.1525584,
                "addr:city": "Jennersdorf",
                "addr:country": "AT",
                "addr:housenumber": "58",
                "addr:postcode": "8380",
                "addr:street": "Technologiepark",
                "brand": "Spar",
                "brand:wikidata": "Q610492",
                "brand:wikipedia": "da:Eurospar",
                "check_date": "2025-07-31",
                "name": "Eurospar",
                "shop": "supermarket",
                "website": "https://www.spar.at/",
                "wheelchair": "yes"
              },
              "geometry": {
                "type": "Point",
                "coordinates": [
                  16.1525584,
                  46.9397029
                ]
              }
            },
            {
              "type": "Feature",
              "properties": {
                "id": "316774161",
                "osm_type": "node",
                "lat": 46.9386313,
                "lon": 16.1495122,
                "addr:city": "Jennersdorf",
                "addr:housenumber": "9",
                "addr:postcode": "8380",
                "addr:street": "Technologiepark",
                "alt_name": "Penny Markt",
                "brand": "Penny",
                "brand:wikidata": "Q284688",
                "brand:wikipedia": "en:Penny (supermarket)",
                "name": "PENNY",
                "opening_hours": "Mo-Fr 07:30-19:00; Sa 07:30-18:00",
                "shop": "supermarket",
                "website": "https://www.penny.at",
                "wheelchair": "yes"
              },
              "geometry": {
                "type": "Point",
                "coordinates": [
                  16.1495122,
                  46.9386313
                ]
              }
            },
            {
              "type": "Feature",
              "properties": {
                "id": "3835348485",
                "osm_type": "node",
                "lat": 46.9451462,
                "lon": 16.0676524,
                "addr:city": "Fehring",
                "addr:housenumber": "8",
                "addr:place": "Hohenbrugg an der Raab",
                "addr:postcode": "8350",
                "name": "Spar Markt Kainz-Schenck Sonja",
                "opening_hours": "Mo,We-Fr 07:00-12:30,14:30-18:30; Tu,Sa 07:00-12:30",
                "shop": "supermarket"
              },
              "geometry": {
                "type": "Point",
                "coordinates": [
                  16.0676524,
                  46.9451462
                ]
              }
            },
            {
              "type": "Feature",
              "properties": {
                "id": "6238103559",
                "osm_type": "node",
                "lat": 47.0141348,
                "lon": 16.1009746,
                "brand": "Nah & Frisch",
                "brand:wikidata": "Q1963643",
                "brand:wikipedia": "de:Nah & Frisch",
                "name": "Nah & Frisch",
                "shop": "supermarket"
              },
              "geometry": {
                "type": "Point",
                "coordinates": [
                  16.1009746,
                  47.0141348
                ]
              }
            },
            {
              "type": "Feature",
              "properties": {
                "id": "7126923304",
                "osm_type": "node",
                "lat": 46.9370379,
                "lon": 16.140236,
                "addr:city": "Jennersdorf",
                "addr:country": "AT",
                "addr:housenumber": "10",
                "addr:postcode": "8380",
                "addr:street": "Hauptplatz",
                "branch": "Peter Polanetz",
                "brand": "Spar",
                "brand:wikidata": "Q610492",
                "brand:wikipedia": "en:Spar (retailer)",
                "contact:phone": "+43 3329 452 12",
                "name": "Spar",
                "opening_hours": "Mo-Fr 07:00-12:45, 14:00-19:00; Sa 07:00-17:00",
                "shop": "supermarket",
                "website": "https://www.spar.at/standorte/spar-jennersdorf-8380-hauptplatz-10"
              },
              "geometry": {
                "type": "Point",
                "coordinates": [
                  16.140236,
                  46.9370379
                ]
              }
            },
            {
              "type": "Feature",
              "properties": {
                "id": "7126947747",
                "osm_type": "node",
                "lat": 46.9376068,
                "lon": 16.1411885,
                "addr:city": "Jennersdorf",
                "addr:country": "AT",
                "addr:housenumber": "3",
                "addr:postcode": "8380",
                "addr:street": "Hauptplatz",
                "name": "Karins Naturladen",
                "organic": "only",
                "shop": "supermarket"
              },
              "geometry": {
                "type": "Point",
                "coordinates": [
                  16.1411885,
                  46.9376068
                ]
              }
            },
            {
              "type": "Feature",
              "properties": {
                "id": "11227912254",
                "osm_type": "node",
                "lat": 46.9381187,
                "lon": 16.1456449,
                "addr:city": "Jennersdorf",
                "addr:housenumber": "11",
                "addr:postcode": "8380",
                "addr:street": "Eisenstädter Straße",
                "name": "Bauernmarkt Jennersdorf",
                "organic": "only",
                "shop": "supermarket"
              },
              "geometry": {
                "type": "Point",
                "coordinates": [
                  16.1456449,
                  46.9381187
                ]
              }
            },
            {
              "type": "Feature",
              "properties": {
                "id": "11392520594",
                "osm_type": "node",
                "lat": 47.0046604,
                "lon": 16.1719135,
                "addr:city": "Königsdorf",
                "addr:housenumber": "1",
                "addr:postcode": "7563",
                "addr:street": "Kirchenplatz",
                "name": "Nah&Frisch Königsdorf",
                "opening_hours": "Mo-Fr 07:00-18:00",
                "operator": "Andrea Knebel",
                "payment:cash": "yes",
                "payment:credit_cards": "yes",
                "shop": "supermarket"
              },
              "geometry": {
                "type": "Point",
                "coordinates": [
                  16.1719135,
                  47.0046604
                ]
              }
            },
            {
              "type": "Feature",
              "properties": {
                "id": "11659990330",
                "osm_type": "node",
                "lat": 47.0316269,
                "lon": 16.0889112,
                "addr:city": "Bad Loipersdorf",
                "addr:country": "AT",
                "addr:housenumber": "224",
                "addr:postcode": "8280",
                "addr:street": "Dietersdorfer Hauptstraße",
                "name": "Sammer Hofladen",
                "opening_hours": "24/7",
                "payment:cash": "yes",
                "payment:contactless": "yes",
                "payment:debit_cards": "yes",
                "shop": "supermarket",
                "toilets": "yes",
                "wheelchair": "yes"
              },
              "geometry": {
                "type": "Point",
                "coordinates": [
                  16.0889112,
                  47.0316269
                ]
              }
            }
          ],
          "children": []
        }
      ]
    },
    {
      "bbox": {
        "south": 46.70320525,
        "west": 16.2068765,
        "north": 47.033758500000005,
        "east": 17.16058
      },
      "poiCount": 15,
      "leafCount": 15,
      "averagePosition": [
        16.765579759999998,
        46.87990546666666
      ],
      "data": [
        {
          "type": "Feature",
          "properties": {
            "id": "514999677",
            "osm_type": "node",
            "lat": 46.8367397,
            "lon": 16.8290517,
            "name": "CBA",
            "shop": "supermarket"
          },
          "geometry": {
            "type": "Point",
            "coordinates": [
              16.8290517,
              46.8367397
            ]
          }
        },
        {
          "type": "Feature",
          "properties": {
            "id": "2900336905",
            "osm_type": "node",
            "lat": 46.8486215,
            "lon": 16.845657,
            "addr:city": "Zalaegerszeg",
            "addr:housenumber": "14",
            "addr:postcode": "8900",
            "addr:street": "Batthyány Lajos utca",
            "brand": "Spar",
            "brand:wikidata": "Q610492",
            "brand:wikipedia": "en:Spar (retailer)",
            "contact:website": "https://www.spar.hu/",
            "name": "Spar",
            "operator": "SPAR Magyarország Kft.",
            "operator:addr": "2060 Bicske, Spar út",
            "payment:american_express": "yes",
            "payment:cash": "yes",
            "payment:contactless": "yes",
            "payment:erzsebet": "yes",
            "payment:erzsebet_plus": "yes",
            "payment:maestro": "yes",
            "payment:mastercard": "yes",
            "payment:mastercard_contactless": "yes",
            "payment:mastercard_electronic": "yes",
            "payment:visa": "yes",
            "payment:visa_electron": "yes",
            "ref:HU:vatin": "10485824-2-07",
            "ref:vatin": "HU10485824",
            "shop": "supermarket",
            "toilets:wheelchair": "no",
            "wheelchair": "yes"
          },
          "geometry": {
            "type": "Point",
            "coordinates": [
              16.845657,
              46.8486215
            ]
          }
        },
        {
          "type": "Feature",
          "properties": {
            "id": "2900560103",
            "osm_type": "node",
            "lat": 46.8405994,
            "lon": 16.8459932,
            "name": "Coop szuper",
            "opening_hours": "Tu-Fr 06:15-19:00; Mo 06:15-18:00; Sa 06:15-12:30",
            "payment:credit_cards": "yes",
            "payment:debit_cards": "yes",
            "shop": "supermarket",
            "toilets:wheelchair": "no",
            "website": "https://coop.hu/",
            "wheelchair": "yes"
          },
          "geometry": {
            "type": "Point",
            "coordinates": [
              16.8459932,
              46.8405994
            ]
          }
        },
        {
          "type": "Feature",
          "properties": {
            "id": "2901952127",
            "osm_type": "node",
            "lat": 46.8442847,
            "lon": 16.8479332,
            "brand": "CBA",
            "brand:wikidata": "Q779845",
            "brand:wikipedia": "en:CBA (food retail)",
            "name": "CBA",
            "shop": "supermarket"
          },
          "geometry": {
            "type": "Point",
            "coordinates": [
              16.8479332,
              46.8442847
            ]
          }
        },
        {
          "type": "Feature",
          "properties": {
            "id": "2972054861",
            "osm_type": "node",
            "lat": 46.8316662,
            "lon": 16.8357593,
            "addr:city": "Zalaegerszeg",
            "addr:housenumber": "51",
            "addr:postcode": "8900",
            "addr:street": "Köztársaság útja",
            "air_conditioning": "yes",
            "alt_name": "Penny Market",
            "brand": "PENNY",
            "brand:wikidata": "Q284688",
            "brand:wikipedia": "en:Penny (supermarket)",
            "contact:email": "ugyfelszolgalat@penny.hu",
            "contact:phone": "+36 29 339 300",
            "contact:website": "https://www.penny.hu/",
            "name": "PENNY",
            "opening_hours": "Mo-Sa 06:00-20:00; Su 07:00-18:00",
            "operator": "Penny-Market Kft.",
            "operator:addr": "2351 Alsónémedi, Penny utca 2.",
            "payment:american_express": "yes",
            "payment:cash": "yes",
            "payment:contactless": "yes",
            "payment:maestro": "yes",
            "payment:mastercard": "yes",
            "payment:visa": "yes",
            "payment:visa_debit": "yes",
            "payment:visa_electron": "yes",
            "ref:HU:company": "13-09-072999",
            "ref:HU:vatin": "10969629-2-44",
            "ref:vatin": "HU10969629",
            "shop": "supermarket"
          },
          "geometry": {
            "type": "Point",
            "coordinates": [
              16.8357593,
              46.8316662
            ]
          }
        },
        {
          "type": "Feature",
          "properties": {
            "id": "3479932378",
            "osm_type": "node",
            "lat": 46.8453912,
            "lon": 16.880613,
            "brand": "Spar",
            "brand:wikidata": "Q610492",
            "brand:wikipedia": "en:Spar (retailer)",
            "contact:website": "https://www.spar.hu/",
            "currency:HUF": "yes",
            "name": "Spar",
            "operator": "SPAR Magyarország Kft.",
            "operator:addr": "2060 Bicske, Spar út",
            "payment:american_express": "yes",
            "payment:cash": "yes",
            "payment:contactless": "yes",
            "payment:erzsebet": "yes",
            "payment:erzsebet_plus": "yes",
            "payment:maestro": "yes",
            "payment:mastercard": "yes",
            "payment:mastercard_contactless": "yes",
            "payment:mastercard_electronic": "yes",
            "payment:visa": "yes",
            "payment:visa_electron": "yes",
            "ref:HU:vatin": "10485824-2-07",
            "ref:vatin": "HU10485824",
            "shop": "supermarket",
            "source": "turistautak.hu",
            "source:date": "2013-02-16",
            "toilets:wheelchair": "no",
            "wheelchair": "limited"
          },
          "geometry": {
            "type": "Point",
            "coordinates": [
              16.880613,
              46.8453912
            ]
          }
        },
        {
          "type": "Feature",
          "properties": {
            "id": "4077109517",
            "osm_type": "node",
            "lat": 46.8440968,
            "lon": 16.8464107,
            "addr:city": "Zalaegerszeg",
            "addr:housenumber": "2",
            "addr:postcode": "8900",
            "addr:street": "Széchenyi tér",
            "check_date:opening_hours": "2025-04-05",
            "name": "EcoFamily",
            "old_name": "EuroFamily",
            "opening_hours": "Mo-Fr 07:00-19:00; Sa 08:00-13:00",
            "phone": "+36 20 430 4015",
            "shop": "supermarket",
            "toilets:wheelchair": "no",
            "website": "https://corporate.ecofamily.hu/",
            "wheelchair": "yes"
          },
          "geometry": {
            "type": "Point",
            "coordinates": [
              16.8464107,
              46.8440968
            ]
          }
        },
        {
          "type": "Feature",
          "properties": {
            "id": "4471542227",
            "osm_type": "node",
            "lat": 46.8317656,
            "lon": 16.8275658,
            "addr:city": "Zalaegerszeg",
            "addr:housenumber": "2-6",
            "addr:postcode": "8900",
            "addr:street": "Becsali út",
            "brand": "Spar",
            "brand:wikidata": "Q610492",
            "brand:wikipedia": "en:Spar (retailer)",
            "contact:website": "https://www.spar.hu/",
            "name": "Spar",
            "opening_hours": "Mo-Fr 06:30-20:00; Sa 06:30-18:00; Su 07:00-18:00",
            "operator": "SPAR Magyarország Kft.",
            "operator:addr": "2060 Bicske, Spar út",
            "payment:american_express": "yes",
            "payment:cash": "yes",
            "payment:contactless": "yes",
            "payment:erzsebet": "yes",
            "payment:erzsebet_plus": "yes",
            "payment:maestro": "yes",
            "payment:mastercard": "yes",
            "payment:mastercard_contactless": "yes",
            "payment:mastercard_electronic": "yes",
            "payment:visa": "yes",
            "payment:visa_electron": "yes",
            "ref": "768",
            "ref:HU:vatin": "10485824-2-07",
            "ref:vatin": "HU10485824",
            "shop": "supermarket",
            "toilets:wheelchair": "no",
            "wheelchair": "yes"
          },
          "geometry": {
            "type": "Point",
            "coordinates": [
              16.8275658,
              46.8317656
            ]
          }
        },
        {
          "type": "Feature",
          "properties": {
            "id": "11054407796",
            "osm_type": "node",
            "lat": 46.8165552,
            "lon": 16.9867502,
            "brand": "Spar",
            "brand:wikidata": "Q610492",
            "brand:wikipedia": "hu:SPAR (nemzetközi cég)",
            "contact:email": "info@spar.hu",
            "contact:facebook": "sparmagyarorszag",
            "contact:instagram": "sparmagyarorszag",
            "contact:tiktok": "sparmagyarorszag",
            "contact:twitter": "SPARHungary",
            "contact:website": "https://www.spar.hu/",
            "contact:youtube": "SPARMagyarorszag",
            "name": "Spar",
            "name:fa": "اسپار",
            "shop": "supermarket"
          },
          "geometry": {
            "type": "Point",
            "coordinates": [
              16.9867502,
              46.8165552
            ]
          }
        },
        {
          "type": "Feature",
          "properties": {
            "id": "12127553669",
            "osm_type": "node",
            "lat": 46.8426877,
            "lon": 16.5859142,
            "brand": "Spar",
            "brand:wikidata": "Q610492",
            "name": "Spar",
            "shop": "supermarket"
          },
          "geometry": {
            "type": "Point",
            "coordinates": [
              16.5859142,
              46.8426877
            ]
          }
        },
        {
          "type": "Feature",
          "properties": {
            "id": "12308484643",
            "osm_type": "node",
            "lat": 46.8478483,
            "lon": 16.8331763,
            "addr:city": "Zalaegerszeg",
            "addr:housenumber": "1",
            "addr:postcode": "8900",
            "addr:street": "Ola utca",
            "air_conditioning": "yes",
            "brand": "Spar",
            "brand:wikidata": "Q610492",
            "brand:wikipedia": "hu:SPAR (nemzetközi cég)",
            "contact:email": "info@spar.hu",
            "contact:facebook": "sparmagyarorszag",
            "contact:instagram": "sparmagyarorszag",
            "contact:tiktok": "sparmagyarorszag",
            "contact:twitter": "SPARHungary",
            "contact:website": "https://www.spar.hu/",
            "contact:youtube": "SPARMagyarorszag",
            "name": "Interspar",
            "name:fa": "اینتراسپار",
            "opening_hours": "Mo-Sa 06:00-21:00; Su 07:00-19:00",
            "operator": "SPAR Magyarország Kft.",
            "operator:addr": "2060 Bicske, Spar út 1.",
            "operator:wikidata": "Q61927663",
            "operator:wikipedia": "hu:SPAR (Magyarország)",
            "payment:cash": "yes",
            "payment:contactless": "yes",
            "payment:maestro": "yes",
            "payment:mastercard": "yes",
            "payment:szep": "kh;mhb;mkb;otp",
            "payment:v_pay": "yes",
            "payment:visa": "yes",
            "payment:visa_electron": "yes",
            "ref:HU:company": "07-09-009192",
            "ref:HU:vatin": "10485824-2-07",
            "ref:vatin": "HU10485824",
            "shop": "supermarket",
            "wheelchair": "yes"
          },
          "geometry": {
            "type": "Point",
            "coordinates": [
              16.8331763,
              46.8478483
            ]
          }
        },
        {
          "type": "Feature",
          "properties": {
            "id": "12097789578",
            "osm_type": "node",
            "lat": 46.9554981,
            "lon": 16.269476,
            "addr:city": "Szentgotthárd",
            "addr:housenumber": "21",
            "addr:postcode": "9970",
            "addr:street": "Hunyadi János utca",
            "brand": "Spar",
            "brand:wikidata": "Q610492",
            "brand:wikipedia": "hu:SPAR_(nemzetközi_cég)",
            "contact:phone": "+36 20 823 7007",
            "contact:website": "https://www.spar.hu/",
            "name": "Spar",
            "opening_hours": "Mo-Fr 06:30-20:00; Sa 06:30-17:00; Su 07:00-13:00",
            "operator": "Spar",
            "payment:cards": "yes",
            "payment:cash": "yes",
            "payment:contactless": "yes",
            "shop": "supermarket",
            "toilets:wheelchair": "no",
            "wheelchair": "yes"
          },
          "geometry": {
            "type": "Point",
            "coordinates": [
              16.269476,
              46.9554981
            ]
          }
        },
        {
          "type": "Feature",
          "properties": {
            "id": "3239938044",
            "osm_type": "node",
            "lat": 47.0122971,
            "lon": 16.6072605,
            "brand": "Spar",
            "brand:wikidata": "Q610492",
            "brand:wikipedia": "en:Spar (retailer)",
            "contact:website": "https://www.spar.hu/",
            "name": "Spar",
            "shop": "supermarket",
            "toilets:wheelchair": "no",
            "wheelchair": "yes"
          },
          "geometry": {
            "type": "Point",
            "coordinates": [
              16.6072605,
              47.0122971
            ]
          }
        },
        {
          "type": "Feature",
          "properties": {
            "id": "4940557818",
            "osm_type": "node",
            "lat": 46.9896955,
            "lon": 16.8382888,
            "name": "Coop Abc",
            "shop": "supermarket",
            "toilets:wheelchair": "no",
            "wheelchair": "limited"
          },
          "geometry": {
            "type": "Point",
            "coordinates": [
              16.8382888,
              46.9896955
            ]
          }
        },
        {
          "type": "Feature",
          "properties": {
            "id": "5901413687",
            "osm_type": "node",
            "lat": 47.010835,
            "lon": 16.6038465,
            "addr:city": "Körmend",
            "addr:housenumber": "8",
            "addr:postcode": "9900",
            "addr:street": "Thököly Imre utca",
            "name": "Maxi Coop",
            "shop": "supermarket"
          },
          "geometry": {
            "type": "Point",
            "coordinates": [
              16.6038465,
              47.010835
            ]
          }
        }
      ],
      "children": []
    }
  ]
}