{
  "bbox": {
    "south": 48.355971499999995,
    "west": 13.345766,
    "north": 49.017078,
    "east": 15.253173
  },
  "poiCount": 216,
  "leafCount": 0,
  "averagePosition": [
    14.239246850925927,
    48.69968872314815
  ],
  "data": [],
  "children": [
    {
      "bbox": {
        "south": 48.355971499999995,
        "west": 13.345766,
        "north": 48.68652475,
        "east": 14.2994695
      },
      "poiCount": 68,
      "leafCount": 0,
      "averagePosition": [
        13.693808105882354,
        48.53519020294117
      ],
      "data": [],
      "children": [
        {
          "bbox": {
            "south": 48.355971499999995,
            "west": 13.345766,
            "north": 48.521248125,
            "east": 13.82261775
          },
          "poiCount": 11,
          "leafCount": 11,
          "averagePosition": [
            13.499718354545456,
            48.467688227272724
          ],
          "data": [
            {
              "type": "Feature",
              "properties": {
                "id": "749180538",
                "osm_type": "node",
                "lat": 48.448095,
                "lon": 13.4392419,
                "brand": "Eurospar",
                "brand:wikidata": "Q12309283",
                "brand:wikipedia": "da:Eurospar",
                "name": "Eurospar",
                "shop": "supermarket",
                "wheelchair": "yes"
              },
              "geometry": {
                "type": "Point",
                "coordinates": [
                  13.4392419,
                  48.448095
                ]
              }
            },
            {
              "type": "Feature",
              "properties": {
                "id": "751358011",
                "osm_type": "node",
                "lat": 48.4506029,
                "lon": 13.4369482,
                "addr:city": "Schärding",
                "addr:country": "AT",
                "addr:housenumber": "45",
                "addr:postcode": "4780",
                "addr:street": "Linzer Straße",
                "addr:suburb": "Schärding Vorstadt",
                "at_bev:addr_date": "2018-04-02",
                "brand": "Lidl",
                "brand:wikidata": "Q151954",
                "brand:wikipedia": "en:Lidl",
                "name": "Lidl",
                "shop": "supermarket",
                "wheelchair": "yes"
              },
              "geometry": {
                "type": "Point",
                "coordinates": [
                  13.4369482,
                  48.4506029
                ]
              }
            },
            {
              "type": "Feature",
              "properties": {
                "id": "1769461957",
                "osm_type": "node",
                "lat": 48.5206756,
                "lon": 13.4972368,
                "addr:housename": "Spar-Markt Teufelberger",
                "addr:housenumber": "1",
                "addr:postcode": "4784",
                "addr:street": "Steinbrunner Straße",
                "name": "Spar-Markt",
                "operator": "Ingrid Teufelberger",
                "shop": "supermarket",
                "wheelchair": "yes"
              },
              "geometry": {
                "type": "Point",
                "coordinates": [
                  13.4972368,
                  48.5206756
                ]
              }
            },
            {
              "type": "Feature",
              "properties": {
                "id": "2322847048",
                "osm_type": "node",
                "lat": 48.41867,
                "lon": 13.4361519,
                "name": "Land lebt auf",
                "shop": "supermarket"
              },
              "geometry": {
                "type": "Point",
                "coordinates": [
                  13.4361519,
                  48.41867
                ]
              }
            },
            {
              "type": "Feature",
              "properties": {
                "id": "2663240848",
                "osm_type": "node",
                "lat": 48.5082459,
                "lon": 13.4459592,
                "opening_hours": "Mo-Fr 06:30-19:00; Sa 06:30-14:00",
                "shop": "supermarket"
              },
              "geometry": {
                "type": "Point",
                "coordinates": [
                  13.4459592,
                  48.5082459
                ]
              }
            },
            {
              "type": "Feature",
              "properties": {
                "id": "5092842052",
                "osm_type": "node",
                "lat": 48.460032,
                "lon": 13.4180654,
                "addr:postcode": "94152",
                "brand": "Nahkauf",
                "brand:wikidata": "Q57515238",
                "name": "Nahkauf",
                "opening_hours": "Mo-Fr 06:30-19:00; Sa 06:30-16:00",
                "operator": "Günter Hufnagel",
                "shop": "supermarket"
              },
              "geometry": {
                "type": "Point",
                "coordinates": [
                  13.4180654,
                  48.460032
                ]
              }
            },
            {
              "type": "Feature",
              "properties": {
                "id": "6825309484",
                "osm_type": "node",
                "lat": 48.4604834,
                "lon": 13.4349595,
                "addr:city": "Schärding",
                "addr:country": "AT",
                "addr:housenumber": "24a",
                "addr:postcode": "4780",
                "addr:street": "Passauer Straße",
                "brand": "Billa",
                "brand:wikidata": "Q537781",
                "brand:wikipedia": "de:Billa",
                "name": "Billa",
                "phone": "+43 59915 04779",
                "shop": "supermarket",
                "wheelchair": "yes"
              },
              "geometry": {
                "type": "Point",
                "coordinates": [
                  13.4349595,
                  48.4604834
                ]
              }
            },
            {
              "type": "Feature",
              "properties": {
                "id": "512481188",
                "osm_type": "node",
                "lat": 48.4806188,
                "lon": 13.5555456,
                "addr:city": "Münzkirchen",
                "addr:country": "AT",
                "addr:housenumber": "2",
                "addr:postcode": "4792",
                "addr:street": "An der Kreuzstraße",
                "at_bev:addr_date": "2018-04-02",
                "name": "Unimarkt",
                "operator": "Christine Haufenmair",
                "shop": "supermarket",
                "wheelchair": "yes"
              },
              "geometry": {
                "type": "Point",
                "coordinates": [
                  13.5555456,
                  48.4806188
                ]
              }
            },
            {
              "type": "Feature",
              "properties": {
                "id": "1347696624",
                "osm_type": "node",
                "lat": 48.5058288,
                "lon": 13.732609,
                "brand": "Spar",
                "brand:wikidata": "Q610492",
                "contact:phone": "+43 7717 8036",
                "name": "Spar",
                "shop": "supermarket"
              },
              "geometry": {
                "type": "Point",
                "coordinates": [
                  13.732609,
                  48.5058288
                ]
              }
            },
            {
              "type": "Feature",
              "properties": {
                "id": "3715738720",
                "osm_type": "node",
                "lat": 48.4805045,
                "lon": 13.556674,
                "addr:city": "Münzkirchen",
                "addr:housenumber": "3",
                "addr:postcode": "4792",
                "addr:street": "An der Kreuzstraße",
                "name": "Spar Markt Estermann",
                "opening_hours": "Mo-Fr. 07:00 - 18:30; Sa. 07:00 - 17:00",
                "operator": "Spar",
                "shop": "supermarket"
              },
              "geometry": {
                "type": "Point",
                "coordinates": [
                  13.556674,
                  48.4805045
                ]
              }
            },
            {
              "type": "Feature",
              "properties": {
                "id": "5792123753",
                "osm_type": "node",
                "lat": 48.4108136,
                "lon": 13.5435104,
                "name": "SPAR Markt Redinger",
                "operator": "Redinger Gabriele",
                "phone": "+43771950961",
                "shop": "supermarket"
              },
              "geometry": {
                "type": "Point",
                "coordinates": [
                  13.5435104,
                  48.4108136
                ]
              }
            }
          ],
          "children": []
        },
        {
          "bbox": {
            "south": 48.355971499999995,
            "west": 13.82261775,
            "north": 48.521248125,
            "east": 14.2994695
          },
          "poiCount": 14,
          "leafCount": 14,
          "averagePosition": [
            14.079816364285715,
            48.42074396428571
          ],
          "data": [
            {
              "type": "Feature",
              "properties": {
                "id": "1088060120",
                "osm_type": "node",
                "lat": 48.360169,
                "lon": 14.2585447,
                "brand": "Nah & Frisch",
                "brand:wikidata": "Q1963643",
                "brand:wikipedia": "de:Nah & Frisch",
                "name": "Nah & Frisch",
                "shop": "supermarket",
                "wheelchair": "yes"
              },
              "geometry": {
                "type": "Point",
                "coordinates": [
                  14.2585447,
                  48.360169
                ]
              }
            },
            {
              "type": "Feature",
              "properties": {
                "id": "6813093179",
                "osm_type": "node",
                "lat": 48.3606591,
                "lon": 14.0687909,
                "addr:city": "Feldkirchen an der Donau",
                "addr:country": "AT",
                "addr:housenumber": "15",
                "addr:postcode": "4101",
                "addr:street": "Oberndorf",
                "email": "office@obstbau-allerstorfer.at",
                "name": "Obstbau Allerstorfer",
                "opening_hours": "Mo 08:00-12:00,13:00-18:00; Do-Fr 08:00-12:00,13:00-18:00; Sa 08:00-12:00",
                "payment:cash": "yes",
                "phone": "+43 7233 6341",
                "shop": "supermarket",
                "website": "https://obstbau-allerstorfer.at/"
              },
              "geometry": {
                "type": "Point",
                "coordinates": [
                  14.0687909,
                  48.3606591
                ]
              }
            },
            {
              "type": "Feature",
              "properties": {
                "id": "12347753403",
                "osm_type": "node",
                "lat": 48.3658844,
                "lon": 14.0650618,
                "addr:housenumber": "60",
                "addr:postcode": "4101",
                "addr:street": "Bad Mühllacken",
                "name": "Andreas Wolfsteiner",
                "phone": "+4372337281",
                "shop": "supermarket"
              },
              "geometry": {
                "type": "Point",
                "coordinates": [
                  14.0650618,
                  48.3658844
                ]
              }
            },
            {
              "type": "Feature",
              "properties": {
                "id": "419639560",
                "osm_type": "node",
                "lat": 48.5035394,
                "lon": 13.8257729,
                "branch": "Artegra",
                "brand": "ADEG",
                "brand:wikidata": "Q290211",
                "name": "ADEG",
                "shop": "supermarket"
              },
              "geometry": {
                "type": "Point",
                "coordinates": [
                  13.8257729,
                  48.5035394
                ]
              }
            },
            {
              "type": "Feature",
              "properties": {
                "id": "1258610305",
                "osm_type": "node",
                "lat": 48.4571682,
                "lon": 13.9924668,
                "addr:city": "Kleinzell im Mühlkreis",
                "addr:housenumber": "12",
                "addr:place": "Kleinzell im Mühlkreis",
                "addr:postcode": "4115",
                "brand": "ADEG",
                "brand:wikidata": "Q290211",
                "brand:wikipedia": "de:ADEG Österreich",
                "name": "ADEG",
                "operator": "Zeller Kaufhaus - Artegra",
                "shop": "supermarket"
              },
              "geometry": {
                "type": "Point",
                "coordinates": [
                  13.9924668,
                  48.4571682
                ]
              }
            },
            {
              "type": "Feature",
              "properties": {
                "id": "1490563165",
                "osm_type": "node",
                "lat": 48.3871357,
                "lon": 13.8803778,
                "name": "Unimarkt",
                "shop": "supermarket"
              },
              "geometry": {
                "type": "Point",
                "coordinates": [
                  13.8803778,
                  48.3871357
                ]
              }
            },
            {
              "type": "Feature",
              "properties": {
                "id": "5776772409",
                "osm_type": "node",
                "lat": 48.4236554,
                "lon": 13.8656433,
                "addr:postcode": "4084",
                "name": "Camping Schlögen",
                "opening_hours": "Mo,Tu,Th,Fr,Sa 07:30-11:30,16:30-18:30; Su 7:30-11:30",
                "shop": "supermarket"
              },
              "geometry": {
                "type": "Point",
                "coordinates": [
                  13.8656433,
                  48.4236554
                ]
              }
            },
            {
              "type": "Feature",
              "properties": {
                "id": "70375053",
                "osm_type": "node",
                "lat": 48.4367328,
                "lon": 14.2930434,
                "addr:city": "Hellmonsödt",
                "addr:country": "AT",
                "addr:housenumber": "1",
                "addr:postcode": "4202",
                "addr:street": "Gewerbezeile",
                "name": "Unimarkt",
                "shop": "supermarket"
              },
              "geometry": {
                "type": "Point",
                "coordinates": [
                  14.2930434,
                  48.4367328
                ]
              }
            },
            {
              "type": "Feature",
              "properties": {
                "id": "70375096",
                "osm_type": "node",
                "lat": 48.3805248,
                "lon": 14.1939478,
                "name": "Winkler Markt",
                "opening_hours": "Mo,Tu,Th,Fr 07:30-18:00; We,Sa 07:30-13:00",
                "shop": "supermarket"
              },
              "geometry": {
                "type": "Point",
                "coordinates": [
                  14.1939478,
                  48.3805248
                ]
              }
            },
            {
              "type": "Feature",
              "properties": {
                "id": "329581437",
                "osm_type": "node",
                "lat": 48.4153702,
                "lon": 14.0394487,
                "addr:city": "St. Martin im Mühlkreis",
                "addr:country": "AT",
                "addr:housenumber": "2",
                "addr:postcode": "4113",
                "addr:street": "Landshaager Straße",
                "name": "Romana Kastner",
                "shop": "supermarket",
                "wheelchair": "yes"
              },
              "geometry": {
                "type": "Point",
                "coordinates": [
                  14.0394487,
                  48.4153702
                ]
              }
            },
            {
              "type": "Feature",
              "properties": {
                "id": "470941034",
                "osm_type": "node",
                "lat": 48.3801149,
                "lon": 14.1912528,
                "brand": "ADEG",
                "brand:wikidata": "Q290211",
                "name": "Adeg",
                "opening_hours": "Mo-Fr 07:00-18:00; Sa 07:00-13:00",
                "shop": "supermarket",
                "wheelchair": "yes"
              },
              "geometry": {
                "type": "Point",
                "coordinates": [
                  14.1912528,
                  48.3801149
                ]
              }
            },
            {
              "type": "Feature",
              "properties": {
                "id": "1458537199",
                "osm_type": "node",
                "lat": 48.4519966,
                "lon": 14.0843472,
                "brand": "Nah & Frisch",
                "brand:wikidata": "Q1963643",
                "designation": "Benischko",
                "name": "Nah & Frisch",
                "operator": "Berger",
                "shop": "supermarket"
              },
              "geometry": {
                "type": "Point",
                "coordinates": [
                  14.0843472,
                  48.4519966
                ]
              }
            },
            {
              "type": "Feature",
              "properties": {
                "id": "1536971812",
                "osm_type": "node",
                "lat": 48.5018142,
                "lon": 14.0873903,
                "check_date": "2025-07-16",
                "name": "SPAR Panholzer",
                "shop": "supermarket"
              },
              "geometry": {
                "type": "Point",
                "coordinates": [
                  14.0873903,
                  48.5018142
                ]
              }
            },
            {
              "type": "Feature",
              "properties": {
                "id": "2983653435",
                "osm_type": "node",
                "lat": 48.4656508,
                "lon": 14.2713407,
                "name": "Ganglberger",
                "operator": "Spar",
                "shop": "supermarket",
                "wheelchair": "yes"
              },
              "geometry": {
                "type": "Point",
                "coordinates": [
                  14.2713407,
                  48.4656508
                ]
              }
            }
          ],
          "children": []
        },
        {
          "bbox": {
            "south": 48.521248125,
            "west": 13.345766,
            "north": 48.68652475,
            "east": 13.82261775
          },
          "poiCount": 34,
          "leafCount": 34,
          "averagePosition": [
            13.50717035882353,
            48.5869355
          ],
          "data": [
            {
              "type": "Feature",
              "properties": {
                "id": "300814978",
                "osm_type": "node",
                "lat": 48.5575595,
                "lon": 13.4176052,
                "brand": "Kaufland",
                "brand:wikidata": "Q685967",
                "brand:wikipedia": "en:Kaufland",
                "check_date:opening_hours": "2025-07-17",
                "name": "Kaufland",
                "opening_hours": "Mo-Sa 07:00-20:00",
                "shop": "supermarket",
                "wheelchair": "yes"
              },
              "geometry": {
                "type": "Point",
                "coordinates": [
                  13.4176052,
                  48.5575595
                ]
              }
            },
            {
              "type": "Feature",
              "properties": {
                "id": "333710665",
                "osm_type": "node",
                "lat": 48.5908377,
                "lon": 13.4827156,
                "addr:city": "Passau",
                "addr:country": "DE",
                "addr:housenumber": "63",
                "addr:postcode": "94034",
                "addr:street": "Alte Straße",
                "addr:suburb": "Grubweg",
                "check_date": "2025-06-12",
                "check_date:opening_hours": "2025-06-12",
                "contact:email": "info@schwaiberger.de",
                "contact:facebook": "https://www.facebook.com/schwaiberger/",
                "contact:phone": "+49 851 49390",
                "contact:website": "https://www.schwaiberger.de",
                "contact:youtube": "https://www.youtube.com/channel/UCUbGLdirrg0liHhWy5P0uZg",
                "email": "info@schwaiberger.de",
                "facebook": "https://www.facebook.com/schwaiberger/",
                "name": "Edeka Schwaiberger",
                "opening_hours": "Mo-Sa 07:00-20:00; PH off",
                "operator": "Schwaiberger Lebensmittelhandel GmbH",
                "operator:type": "business",
                "payment:cash": "yes",
                "payment:contactless": "yes",
                "payment:credit_cards": "yes",
                "payment:debit_cards": "yes",
                "payment:girocard": "yes",
                "payment:mastercard": "yes",
                "payment:visa": "yes",
                "phone": "+49 851 4939 0",
                "shop": "supermarket",
                "website": "https://www.schwaiberger.de",
                "wheelchair": "yes",
                "youtube": "https://www.youtube.com/channel/UCUbGLdirrg0liHhWy5P0uZg"
              },
              "geometry": {
                "type": "Point",
                "coordinates": [
                  13.4827156,
                  48.5908377
                ]
              }
            },
            {
              "type": "Feature",
              "properties": {
                "id": "333750303",
                "osm_type": "node",
                "lat": 48.5841787,
                "lon": 13.5002951,
                "brand": "Lidl",
                "brand:wikidata": "Q151954",
                "brand:wikipedia": "en:Lidl",
                "name": "Lidl",
                "shop": "supermarket",
                "wheelchair": "yes"
              },
              "geometry": {
                "type": "Point",
                "coordinates": [
                  13.5002951,
                  48.5841787
                ]
              }
            },
            {
              "type": "Feature",
              "properties": {
                "id": "335105647",
                "osm_type": "node",
                "lat": 48.5717566,
                "lon": 13.4508542,
                "brand": "EDEKA",
                "brand:wikidata": "Q701755",
                "brand:wikipedia": "de:Edeka",
                "check_date:opening_hours": "2023-07-30",
                "name": "EDEKA",
                "opening_hours": "Mo-Fr 08:00-20:00; Sa 08:00-18:00",
                "shop": "supermarket",
                "wheelchair": "yes"
              },
              "geometry": {
                "type": "Point",
                "coordinates": [
                  13.4508542,
                  48.5717566
                ]
              }
            },
            {
              "type": "Feature",
              "properties": {
                "id": "409551622",
                "osm_type": "node",
                "lat": 48.5707261,
                "lon": 13.4233189,
                "brand": "Rewe",
                "brand:wikidata": "Q16968817",
                "brand:wikipedia": "en:REWE",
                "check_date": "2024-10-27",
                "name": "Rewe",
                "opening_hours": "Mo-Sa 07:00-20:00",
                "shop": "supermarket",
                "source": "survey",
                "wheelchair": "yes"
              },
              "geometry": {
                "type": "Point",
                "coordinates": [
                  13.4233189,
                  48.5707261
                ]
              }
            },
            {
              "type": "Feature",
              "properties": {
                "id": "871152593",
                "osm_type": "node",
                "lat": 48.5739013,
                "lon": 13.3885319,
                "brand": "Penny",
                "brand:wikidata": "Q284688",
                "brand:wikipedia": "en:Penny (supermarket)",
                "check_date:opening_hours": "2025-07-15",
                "name": "Penny",
                "opening_hours": "Mo-Sa 07:00-20:00",
                "shop": "supermarket",
                "wheelchair": "yes"
              },
              "geometry": {
                "type": "Point",
                "coordinates": [
                  13.3885319,
                  48.5739013
                ]
              }
            },
            {
              "type": "Feature",
              "properties": {
                "id": "872833405",
                "osm_type": "node",
                "lat": 48.5770992,
                "lon": 13.4399877,
                "brand": "EDEKA",
                "brand:wikidata": "Q701755",
                "brand:wikipedia": "de:Edeka",
                "name": "Edeka",
                "shop": "supermarket",
                "wheelchair": "yes"
              },
              "geometry": {
                "type": "Point",
                "coordinates": [
                  13.4399877,
                  48.5770992
                ]
              }
            },
            {
              "type": "Feature",
              "properties": {
                "id": "896356604",
                "osm_type": "node",
                "lat": 48.6719678,
                "lon": 13.4732031,
                "name": "Edeka",
                "shop": "supermarket",
                "wheelchair": "yes"
              },
              "geometry": {
                "type": "Point",
                "coordinates": [
                  13.4732031,
                  48.6719678
                ]
              }
            },
            {
              "type": "Feature",
              "properties": {
                "id": "905025753",
                "osm_type": "node",
                "lat": 48.6231982,
                "lon": 13.4097514,
                "brand": "Netto Marken-Discount",
                "brand:wikidata": "Q879858",
                "brand:wikipedia": "de:Netto Marken-Discount",
                "name": "Netto Marken-Discount",
                "shop": "supermarket",
                "website": "https://www.netto-online.de/filialen/Tiefenbach/Am-Kieswerk-1/1331/",
                "wheelchair": "yes"
              },
              "geometry": {
                "type": "Point",
                "coordinates": [
                  13.4097514,
                  48.6231982
                ]
              }
            },
            {
              "type": "Feature",
              "properties": {
                "id": "1335506597",
                "osm_type": "node",
                "lat": 48.6522127,
                "lon": 13.4096576,
                "addr:city": "Ruderting",
                "addr:country": "DE",
                "addr:housenumber": "26a",
                "addr:postcode": "94161",
                "addr:street": "Passauer Straße",
                "brand": "Edeka",
                "brand:wikidata": "Q701755",
                "name": "E-Center",
                "opening_hours": "Mo-Sa 07:00-20:00",
                "operator": "EDEKA",
                "payment:credit_cards": "yes",
                "payment:debit_cards": "yes",
                "phone": "+498509935480",
                "shop": "supermarket",
                "wheelchair": "limited"
              },
              "geometry": {
                "type": "Point",
                "coordinates": [
                  13.4096576,
                  48.6522127
                ]
              }
            },
            {
              "type": "Feature",
              "properties": {
                "id": "1347651392",
                "osm_type": "node",
                "lat": 48.5702817,
                "lon": 13.4754846,
                "branch": "Maier",
                "brand": "EDEKA",
                "brand:wikidata": "Q701755",
                "brand:wikipedia": "de:Edeka",
                "name": "EDEKA",
                "opening_hours": "Mo-Sa 08:00-20:00",
                "shop": "supermarket"
              },
              "geometry": {
                "type": "Point",
                "coordinates": [
                  13.4754846,
                  48.5702817
                ]
              }
            },
            {
              "type": "Feature",
              "properties": {
                "id": "2413642521",
                "osm_type": "node",
                "lat": 48.5752693,
                "lon": 13.4596943,
                "name": "Naturkost Buck",
                "note": "ist ein Reformhaus, wie richtig taggen?",
                "opening_hours": "Mo-We 09:00-18:00;Th-Fr 09:00-18:30;Sa 09:00-15:00",
                "organic": "yes",
                "shop": "supermarket"
              },
              "geometry": {
                "type": "Point",
                "coordinates": [
                  13.4596943,
                  48.5752693
                ]
              }
            },
            {
              "type": "Feature",
              "properties": {
                "id": "2684069317",
                "osm_type": "node",
                "lat": 48.5730507,
                "lon": 13.4520769,
                "addr:city": "Passau",
                "addr:country": "DE",
                "addr:housenumber": "13",
                "addr:postcode": "94032",
                "addr:street": "Grünaustraße",
                "name": "CeylanMarket",
                "opening_hours": "Mo-Fr 09:00-19:00; Sa 09:00-19:00",
                "shop": "supermarket"
              },
              "geometry": {
                "type": "Point",
                "coordinates": [
                  13.4520769,
                  48.5730507
                ]
              }
            },
            {
              "type": "Feature",
              "properties": {
                "id": "3006912685",
                "osm_type": "node",
                "lat": 48.5741479,
                "lon": 13.4619471,
                "name": "tante emmer unverpackt & bio",
                "shop": "supermarket",
                "wheelchair": "no"
              },
              "geometry": {
                "type": "Point",
                "coordinates": [
                  13.4619471,
                  48.5741479
                ]
              }
            },
            {
              "type": "Feature",
              "properties": {
                "id": "3521364059",
                "osm_type": "node",
                "lat": 48.5747284,
                "lon": 13.4519272,
                "addr:city": "Passau",
                "addr:country": "DE",
                "addr:housenumber": "24",
                "addr:postcode": "94032",
                "addr:street": "Bahnhofstraße",
                "brand": "Go Asia",
                "brand:wikidata": "Q102381911",
                "level": "1",
                "name": "Go Asia",
                "opening_hours": "Mo-Fr 09:30-18:30, Sa 09:30-17:30",
                "shop": "supermarket",
                "website": "https://goasia.net",
                "wheelchair": "yes"
              },
              "geometry": {
                "type": "Point",
                "coordinates": [
                  13.4519272,
                  48.5747284
                ]
              }
            },
            {
              "type": "Feature",
              "properties": {
                "id": "6175287986",
                "osm_type": "node",
                "lat": 48.5853997,
                "lon": 13.4911758,
                "brand": "NORMA",
                "brand:wikidata": "Q450180",
                "brand:wikipedia": "de:Norma (Supermarkt)",
                "name": "NORMA",
                "shop": "supermarket"
              },
              "geometry": {
                "type": "Point",
                "coordinates": [
                  13.4911758,
                  48.5853997
                ]
              }
            },
            {
              "type": "Feature",
              "properties": {
                "id": "6192675764",
                "osm_type": "node",
                "lat": 48.5754545,
                "lon": 13.4092898,
                "addr:city": "Passau",
                "addr:country": "DE",
                "addr:housenumber": "55",
                "addr:postcode": "94036",
                "addr:street": "Regensburger Straße",
                "brand": "NORMA",
                "brand:wikidata": "Q450180",
                "brand:wikipedia": "de:Norma (Handelskette)",
                "name": "NORMA",
                "opening_hours": "Mo-Sa 07:00-20:00",
                "shop": "supermarket"
              },
              "geometry": {
                "type": "Point",
                "coordinates": [
                  13.4092898,
                  48.5754545
                ]
              }
            },
            {
              "type": "Feature",
              "properties": {
                "id": "7398962781",
                "osm_type": "node",
                "lat": 48.5740532,
                "lon": 13.394331,
                "addr:city": "Passau",
                "addr:country": "DE",
                "addr:housenumber": "60",
                "addr:postcode": "94036",
                "addr:street": "Steinbachstraße",
                "brand": "Rewe",
                "brand:wikidata": "Q16968817",
                "brand:wikipedia": "en:REWE",
                "name": "Rewe",
                "opening_hours": "Mo-Sa 07:00-20:00",
                "operator": "REWE Jürgen Cernota oHG",
                "payment:american_express": "yes",
                "payment:mastercard": "yes",
                "payment:paypal": "yes",
                "payment:visa": "yes",
                "phone": "+49 851 96617368",
                "shop": "supermarket",
                "website": "https://www.rewe.de/marktseite/passau/440895/rewe-markt-steinbachstrasse-60",
                "wheelchair": "yes"
              },
              "geometry": {
                "type": "Point",
                "coordinates": [
                  13.394331,
                  48.5740532
                ]
              }
            },
            {
              "type": "Feature",
              "properties": {
                "id": "9380049208",
                "osm_type": "node",
                "lat": 48.5744966,
                "lon": 13.452176,
                "brand": "Netto Marken-Discount",
                "brand:wikidata": "Q879858",
                "brand:wikipedia": "de:Netto Marken-Discount",
                "check_date:opening_hours": "2023-12-14",
                "level": "0",
                "name": "Netto Marken-Discount",
                "opening_hours": "Mo-Sa 07:00-20:00",
                "shop": "supermarket",
                "website": "https://www.netto-online.de/filialen/Passau/Bahnhofstr-24/1506/"
              },
              "geometry": {
                "type": "Point",
                "coordinates": [
                  13.452176,
                  48.5744966
                ]
              }
            },
            {
              "type": "Feature",
              "properties": {
                "id": "9417450896",
                "osm_type": "node",
                "lat": 48.5759423,
                "lon": 13.3771883,
                "addr:city": "Passau",
                "addr:country": "DE",
                "addr:housenumber": "69",
                "addr:postcode": "94036",
                "addr:street": "Alte Poststraße",
                "name": "Edeka Klaiber",
                "opening_hours": "Mo-Fr 06:30-12:30,14:30-18:00; Sa 06:00-12:00",
                "shop": "supermarket"
              },
              "geometry": {
                "type": "Point",
                "coordinates": [
                  13.3771883,
                  48.5759423
                ]
              }
            },
            {
              "type": "Feature",
              "properties": {
                "id": "9901106076",
                "osm_type": "node",
                "lat": 48.572853,
                "lon": 13.4571639,
                "addr:city": "Passau",
                "addr:country": "DE",
                "addr:housenumber": "2",
                "addr:postcode": "94032",
                "addr:street": "Nikolastraße",
                "brand": "EDEKA",
                "brand:wikidata": "Q701755",
                "level": "0",
                "name": "EDEKA",
                "opening_hours": "Mo-Sa 07:00-20:00",
                "operator": "Schwaiberger",
                "payment:cash": "yes",
                "payment:debit_cards": "yes",
                "payment:maestro": "yes",
                "payment:mastercard": "yes",
                "payment:visa": "yes",
                "phone": "+4985120091420",
                "shop": "supermarket"
              },
              "geometry": {
                "type": "Point",
                "coordinates": [
                  13.4571639,
                  48.572853
                ]
              }
            },
            {
              "type": "Feature",
              "properties": {
                "id": "11834813826",
                "osm_type": "node",
                "lat": 48.5739435,
                "lon": 13.4587985,
                "addr:city": "Passau",
                "addr:country": "DE",
                "addr:housenumber": "23",
                "addr:postcode": "94032",
                "addr:street": "Ludwigstraße",
                "name": "Bahlsen Outlet",
                "opening_hours": "Mo-Sa 09:30-18:00",
                "payment:cash": "yes",
                "payment:credit_cards": "yes",
                "payment:debit_cards": "yes",
                "shop": "supermarket"
              },
              "geometry": {
                "type": "Point",
                "coordinates": [
                  13.4587985,
                  48.5739435
                ]
              }
            },
            {
              "type": "Feature",
              "properties": {
                "id": "12091567987",
                "osm_type": "node",
                "lat": 48.5841769,
                "lon": 13.3954671,
                "addr:city": "Passau",
                "addr:country": "DE",
                "addr:housenumber": "3",
                "addr:postcode": "94036",
                "addr:street": "Alte Raiffeisenstraße",
                "brand": "Mix Markt",
                "brand:wikidata": "Q327854",
                "name": "Mix Markt",
                "opening_hours": "Mo-Fr 09:00-20:00",
                "phone": "+49 851 96611104",
                "shop": "supermarket",
                "website": "https://www.mixmarkt.eu/de/germany/maerkte/186/"
              },
              "geometry": {
                "type": "Point",
                "coordinates": [
                  13.3954671,
                  48.5841769
                ]
              }
            },
            {
              "type": "Feature",
              "properties": {
                "id": "12345844499",
                "osm_type": "node",
                "lat": 48.5719286,
                "lon": 13.450935,
                "addr:city": "Passau",
                "addr:country": "DE",
                "addr:housenumber": "10",
                "addr:postcode": "94032",
                "addr:street": "Nibelungenstraße",
                "check_date": "2025-08-27",
                "name": "Ariana Market Passau",
                "opening_hours": "Mo-Sa 08:00-20:00",
                "post_office": "post_partner",
                "post_office:brand": "DHL-Paketshop",
                "shop": "supermarket"
              },
              "geometry": {
                "type": "Point",
                "coordinates": [
                  13.450935,
                  48.5719286
                ]
              }
            },
            {
              "type": "Feature",
              "properties": {
                "id": "12361252466",
                "osm_type": "node",
                "lat": 48.5718177,
                "lon": 13.4491551,
                "addr:city": "Passau",
                "addr:country": "DE",
                "addr:housenumber": "9",
                "addr:postcode": "94032",
                "addr:street": "Nibelungenstraße",
                "name": "Elaf Markt",
                "phone": "+49 851 96635814",
                "shop": "supermarket"
              },
              "geometry": {
                "type": "Point",
                "coordinates": [
                  13.4491551,
                  48.5718177
                ]
              }
            },
            {
              "type": "Feature",
              "properties": {
                "id": "318406309",
                "osm_type": "node",
                "lat": 48.5992404,
                "lon": 13.7855224,
                "addr:city": "Wegscheid",
                "addr:housenumber": "23",
                "addr:postcode": "94110",
                "addr:street": "Passauer Straße",
                "name": "Lebensquell Naturkost",
                "shop": "supermarket"
              },
              "geometry": {
                "type": "Point",
                "coordinates": [
                  13.7855224,
                  48.5992404
                ]
              }
            },
            {
              "type": "Feature",
              "properties": {
                "id": "455018294",
                "osm_type": "node",
                "lat": 48.652272,
                "lon": 13.6254795,
                "brand": "Netto Marken-Discount",
                "brand:wikidata": "Q879858",
                "brand:wikipedia": "de:Netto Marken-Discount",
                "name": "Netto Marken-Discount",
                "opening_hours": "Mo-Sa 07:00-20:00",
                "shop": "supermarket",
                "website": "https://www.netto-online.de/filialen/Hauzenberg/Posthalterweg-7/1143/",
                "wheelchair": "limited"
              },
              "geometry": {
                "type": "Point",
                "coordinates": [
                  13.6254795,
                  48.652272
                ]
              }
            },
            {
              "type": "Feature",
              "properties": {
                "id": "848669332",
                "osm_type": "node",
                "lat": 48.6525861,
                "lon": 13.6161296,
                "addr:city": "Hauzenberg",
                "addr:country": "DE",
                "addr:housenumber": "4",
                "addr:postcode": "94051",
                "addr:street": "Steinbergstraße",
                "brand": "ALDI Süd",
                "brand:wikidata": "Q41171672",
                "name": "ALDI Süd",
                "opening_hours": "Mo-Sa 08:00-20:00",
                "shop": "supermarket",
                "website": "https://filialen.aldi-sued.de/bayern/hauzenberg/steinbergstrasse-4",
                "wheelchair": "yes"
              },
              "geometry": {
                "type": "Point",
                "coordinates": [
                  13.6161296,
                  48.6525861
                ]
              }
            },
            {
              "type": "Feature",
              "properties": {
                "id": "1604791461",
                "osm_type": "node",
                "lat": 48.6555286,
                "lon": 13.6210446,
                "name": "Edeka",
                "shop": "supermarket",
                "wheelchair": "no"
              },
              "geometry": {
                "type": "Point",
                "coordinates": [
                  13.6210446,
                  48.6555286
                ]
              }
            },
            {
              "type": "Feature",
              "properties": {
                "id": "2216790508",
                "osm_type": "node",
                "lat": 48.529153,
                "lon": 13.7567028,
                "brand": "ADEG",
                "brand:wikidata": "Q290211",
                "brand:wikipedia": "de:ADEG Österreich",
                "name": "ADEG",
                "shop": "supermarket"
              },
              "geometry": {
                "type": "Point",
                "coordinates": [
                  13.7567028,
                  48.529153
                ]
              }
            },
            {
              "type": "Feature",
              "properties": {
                "id": "6825558775",
                "osm_type": "node",
                "lat": 48.5433899,
                "lon": 13.5879797,
                "name": "Spar",
                "shop": "supermarket"
              },
              "geometry": {
                "type": "Point",
                "coordinates": [
                  13.5879797,
                  48.5433899
                ]
              }
            },
            {
              "type": "Feature",
              "properties": {
                "id": "7829924695",
                "osm_type": "node",
                "lat": 48.5524042,
                "lon": 13.7709473,
                "brand": "Spar",
                "brand:wikidata": "Q610492",
                "brand:wikipedia": "en:Spar (retailer)",
                "name": "Spar",
                "shop": "supermarket"
              },
              "geometry": {
                "type": "Point",
                "coordinates": [
                  13.7709473,
                  48.5524042
                ]
              }
            },
            {
              "type": "Feature",
              "properties": {
                "id": "7830074187",
                "osm_type": "node",
                "lat": 48.5937071,
                "lon": 13.7805921,
                "brand": "Norma",
                "brand:wikidata": "Q450180",
                "brand:wikipedia": "de:Norma (Handelskette)",
                "name": "Norma",
                "opening_hours": "Mo-Sa 07:00-20:00",
                "shop": "supermarket"
              },
              "geometry": {
                "type": "Point",
                "coordinates": [
                  13.7805921,
                  48.5937071
                ]
              }
            },
            {
              "type": "Feature",
              "properties": {
                "id": "10823680481",
                "osm_type": "node",
                "lat": 48.5765439,
                "lon": 13.6666629,
                "name": "Edeka",
                "operator": "Buchbauer",
                "shop": "supermarket",
                "wheelchair": "yes"
              },
              "geometry": {
                "type": "Point",
                "coordinates": [
                  13.6666629,
                  48.5765439
                ]
              }
            }
          ],
          "children": []
        },
        {
          "bbox": {
            "south": 48.521248125,
            "west": 13.82261775,
            "north": 48.68652475,
            "east": 14.2994695
          },
          "poiCount": 9,
          "leafCount": 9,
          "averagePosition": [
            14.035647555555556,
            48.60023786666667
          ],
          "data": [
            {
              "type": "Feature",
              "properties": {
                "id": "298896178",
                "osm_type": "node",
                "lat": 48.5421344,
                "lon": 13.9055598,
                "addr:city": "Sarleinsbach",
                "addr:country": "AT",
                "addr:housenumber": "2",
                "addr:postcode": "4152",
                "addr:street": "Altendorferfeld",
                "brand": "Spar",
                "brand:wikidata": "Q610492",
                "name": "Spar",
                "opening_hours": "Mo-Fr 07:15-18:30; Sa 07:15-17:00",
                "operator": "Johannes Jetschgo",
                "payment:cash": "yes",
                "payment:credit_cards": "yes",
                "phone": "+43728320530",
                "shop": "supermarket",
                "wheelchair": "yes"
              },
              "geometry": {
                "type": "Point",
                "coordinates": [
                  13.9055598,
                  48.5421344
                ]
              }
            },
            {
              "type": "Feature",
              "properties": {
                "id": "331610396",
                "osm_type": "node",
                "lat": 48.6465015,
                "lon": 13.9709135,
                "addr:city": "Aigen-Schlägl",
                "addr:country": "AT",
                "addr:housenumber": "11",
                "addr:postcode": "4160",
                "addr:street": "Marktplatz",
                "branch": "Wöber Markt",
                "brand": "Nah & Frisch",
                "brand:wikidata": "Q1963643",
                "brand:wikipedia": "de:Nah & Frisch",
                "name": "Nah & Frisch",
                "shop": "supermarket"
              },
              "geometry": {
                "type": "Point",
                "coordinates": [
                  13.9709135,
                  48.6465015
                ]
              }
            },
            {
              "type": "Feature",
              "properties": {
                "id": "417134683",
                "osm_type": "node",
                "lat": 48.6183066,
                "lon": 13.8944933,
                "name": "Innertsberger",
                "shop": "supermarket",
                "wheelchair": "yes",
                "wheelchair:description": "WC unbekannt - aber bei Supermarkt für mich nicht relevant"
              },
              "geometry": {
                "type": "Point",
                "coordinates": [
                  13.8944933,
                  48.6183066
                ]
              }
            },
            {
              "type": "Feature",
              "properties": {
                "id": "417134685",
                "osm_type": "node",
                "lat": 48.6183797,
                "lon": 13.8942471,
                "name": "Wagner",
                "shop": "supermarket"
              },
              "geometry": {
                "type": "Point",
                "coordinates": [
                  13.8942471,
                  48.6183797
                ]
              }
            },
            {
              "type": "Feature",
              "properties": {
                "id": "390495180",
                "osm_type": "node",
                "lat": 48.5759867,
                "lon": 14.0466727,
                "addr:city": "Haslach an der Mühl",
                "addr:country": "AT",
                "addr:housenumber": "15",
                "addr:postcode": "4170",
                "addr:street": "Sternwaldstraße",
                "brand": "Spar",
                "brand:wikidata": "Q610492",
                "brand:wikipedia": "en:SPAR (retailer)",
                "name": "Spar",
                "shop": "supermarket"
              },
              "geometry": {
                "type": "Point",
                "coordinates": [
                  14.0466727,
                  48.5759867
                ]
              }
            },
            {
              "type": "Feature",
              "properties": {
                "id": "897114636",
                "osm_type": "node",
                "lat": 48.6620446,
                "lon": 14.1658376,
                "addr:city": "Frymburk",
                "addr:conscriptionnumber": "83",
                "addr:country": "CZ",
                "addr:housenumber": "83",
                "addr:place": "Frymburk",
                "addr:postcode": "38279",
                "branch": "Frymburk",
                "brand": "Coop Tip",
                "brand:facebook": "https://www.facebook.com/jednotakaplice",
                "brand:website": "https://www.jednotakaplice.cz",
                "brand:wikidata": "Q52851660",
                "check_date:opening_hours": "2021-07-11",
                "level": "0",
                "name": "Coop Tip",
                "not:brand:wikidata": "Q41629254",
                "opening_hours": "Mo-Fr 07:00-18:00; Sa,Su 07:00-12:00; PH off",
                "operator": "Jednota družstvo spotřebitelů v Kaplici",
                "phone": "+420 380 735 128",
                "ref:ruian:addr": "8691941",
                "shop": "supermarket"
              },
              "geometry": {
                "type": "Point",
                "coordinates": [
                  14.1658376,
                  48.6620446
                ]
              }
            },
            {
              "type": "Feature",
              "properties": {
                "id": "2411304746",
                "osm_type": "node",
                "lat": 48.5752956,
                "lon": 14.0453828,
                "branch": "Gierlinger",
                "brand": "Nah & Frisch",
                "brand:wikidata": "Q1963643",
                "brand:wikipedia": "de:Nah & Frisch",
                "name": "Nah & Frisch",
                "shop": "supermarket"
              },
              "geometry": {
                "type": "Point",
                "coordinates": [
                  14.0453828,
                  48.5752956
                ]
              }
            },
            {
              "type": "Feature",
              "properties": {
                "id": "4778861290",
                "osm_type": "node",
                "lat": 48.6212735,
                "lon": 14.2573256,
                "branch": "Loučovice",
                "brand": "Coop Tip",
                "brand:facebook": "https://www.facebook.com/jednotakaplice",
                "brand:website": "https://www.jednotakaplice.cz",
                "brand:wikidata": "Q52851660",
                "level": "0",
                "name": "Coop Tip",
                "opening_hours": "Mo-Fr 07:00-17:00; Sa,Su 06:00-10:00; PH off",
                "operator": "Jednota družstvo spotřebitelů v Kaplici",
                "phone": "+420 380 748 262",
                "shop": "supermarket"
              },
              "geometry": {
                "type": "Point",
                "coordinates": [
                  14.2573256,
                  48.6212735
                ]
              }
            },
            {
              "type": "Feature",
              "properties": {
                "id": "8544805437",
                "osm_type": "node",
                "lat": 48.5422182,
                "lon": 14.1403956,
                "addr:city": "Helfenberg",
                "addr:housenumber": "6-7",
                "addr:postcode": "4184",
                "addr:street": "Rohrbacher Straße",
                "brand": "Spar",
                "brand:wikidata": "Q610492",
                "brand:wikipedia": "en:Spar (retailer)",
                "name": "Spar",
                "opening_hours": "Mo-Fr 07:00-18:00, Sa 07:00-13:00",
                "operator": "Kurz Michael",
                "payment:cash": "yes",
                "payment:credit_cards": "yes",
                "payment:maestro": "yes",
                "phone": "+43 7216 20582",
                "shop": "supermarket"
              },
              "geometry": {
                "type": "Point",
                "coordinates": [
                  14.1403956,
                  48.5422182
                ]
              }
            }
          ],
          "children": []
        }
      ]
    },
    {
      "bbox": {
        "south": 48.355971499999995,
        "west": 14.2994695,
        "north": 48.68652475,
        "east": 15.253173
      },
      "poiCount": 41,
      "leafCount": 41,
      "averagePosition": [
        14.797925575609755,
        48.52603313414634
      ],
      "data": [
        {
          "type": "Feature",
          "properties": {
            "id": "60116283",
            "osm_type": "node",
            "lat": 48.3664655,
            "lon": 14.5206482,
            "addr:city": "Hagenberg im Mühlkreis",
            "addr:housenumber": "69",
            "addr:postcode": "4232",
            "addr:street": "Hauptstraße",
            "brand": "Unimarkt",
            "brand:wikidata": "Q1169599",
            "brand:wikipedia": "de:Unimarkt",
            "check_date:opening_hours": "2025-06-26",
            "name": "Unimarkt",
            "opening_hours": "Mo-Fr 07:30-18:30; Sa 07:30-17:00",
            "operator": "Familie Speychal",
            "payment:cash": "yes",
            "payment:credit_cards": "yes",
            "payment:mastercard": "yes",
            "payment:visa": "yes",
            "phone": "+43 7236 2314",
            "shop": "supermarket",
            "website": "https://unimarkt.at/standort/hagenberg/",
            "wheelchair": "yes"
          },
          "geometry": {
            "type": "Point",
            "coordinates": [
              14.5206482,
              48.3664655
            ]
          }
        },
        {
          "type": "Feature",
          "properties": {
            "id": "2472060187",
            "osm_type": "node",
            "lat": 48.3573701,
            "lon": 14.8968681,
            "brand": "Eurospar",
            "brand:wikidata": "Q12309283",
            "contact:phone": "+43 7954 3001",
            "name": "Eurospar",
            "opening_hours": "Mo-Sa 07:00-19:00; Sa 07:00-18:00",
            "shop": "supermarket",
            "website": "https://www.spar.at/standorte/spar-st-georgen-am-walde-4372-joergenberg-19",
            "wheelchair": "yes"
          },
          "geometry": {
            "type": "Point",
            "coordinates": [
              14.8968681,
              48.3573701
            ]
          }
        },
        {
          "type": "Feature",
          "properties": {
            "id": "3773406776",
            "osm_type": "node",
            "lat": 48.3649138,
            "lon": 15.118544,
            "brand": "Nah & Frisch",
            "brand:wikidata": "Q1963643",
            "name": "Nah & Frisch",
            "operator": "Grünstäudl Nina",
            "shop": "supermarket",
            "website": "https://www.nahundfrisch.at/de/kaufmann/grunstaudl_nina"
          },
          "geometry": {
            "type": "Point",
            "coordinates": [
              15.118544,
              48.3649138
            ]
          }
        },
        {
          "type": "Feature",
          "properties": {
            "id": "278204146",
            "osm_type": "node",
            "lat": 48.616275,
            "lon": 14.4999928,
            "created_by": "Potlatch 0.9c",
            "name": "Lagerhaus",
            "shop": "supermarket",
            "wheelchair": "yes"
          },
          "geometry": {
            "type": "Point",
            "coordinates": [
              14.4999928,
              48.616275
            ]
          }
        },
        {
          "type": "Feature",
          "properties": {
            "id": "338333280",
            "osm_type": "node",
            "lat": 48.5114272,
            "lon": 14.5002893,
            "addr:city": "Freistadt",
            "addr:country": "AT",
            "addr:housenumber": "4",
            "addr:postcode": "4240",
            "addr:street": "Sankt Peter Straße",
            "name": "Billa",
            "opening_hours": "Mo-Fr 07:00-19:15; Sa 07:15-18:00",
            "operator": "Billa",
            "payment:coins": "yes",
            "payment:girocard": "yes",
            "payment:maestro": "yes",
            "payment:mastercard": "yes",
            "payment:notes": "yes",
            "payment:visa": "yes",
            "payment:visa_debit": "yes",
            "payment:visa_electron": "yes",
            "shop": "supermarket",
            "wheelchair": "yes"
          },
          "geometry": {
            "type": "Point",
            "coordinates": [
              14.5002893,
              48.5114272
            ]
          }
        },
        {
          "type": "Feature",
          "properties": {
            "id": "422508902",
            "osm_type": "node",
            "lat": 48.431925,
            "lon": 14.3000876,
            "addr:city": "Hellmonsödt",
            "addr:country": "AT",
            "addr:housenumber": "13",
            "addr:postcode": "4202",
            "addr:street": "Marktplatz",
            "brand": "Spar",
            "brand:wikidata": "Q610492",
            "description": "SPAR Supermarkt",
            "name": "Spar",
            "shop": "supermarket"
          },
          "geometry": {
            "type": "Point",
            "coordinates": [
              14.3000876,
              48.431925
            ]
          }
        },
        {
          "type": "Feature",
          "properties": {
            "id": "736459156",
            "osm_type": "node",
            "lat": 48.5427722,
            "lon": 14.3813844,
            "name": "Nah & Frisch",
            "operator": "Buschberger",
            "shop": "supermarket"
          },
          "geometry": {
            "type": "Point",
            "coordinates": [
              14.3813844,
              48.5427722
            ]
          }
        },
        {
          "type": "Feature",
          "properties": {
            "id": "1284435858",
            "osm_type": "node",
            "lat": 48.5037677,
            "lon": 14.3603111,
            "addr:city": "Schenkenfelden",
            "addr:housenumber": "11",
            "addr:postcode": "4192",
            "addr:street": "Harruckerstraße",
            "name": "SPAR Johann Pötscher GmbH",
            "opening_hours": "Mo-Tu 07:00-12:00,14:30-18:00; We 07:00-12:00; Th-Fr 07:00-12:00,14:30-18:00; Sa 07:00-12:00",
            "operator": "Johann Pötscher GmbH",
            "payment:cash": "yes",
            "payment:debit_cards": "yes",
            "payment:maestro": "yes",
            "phone": "+4372144425",
            "shop": "supermarket",
            "website": "https://www.spar.at/standorte/spar-schenkenfelden-4192-harruckerstrasse-11"
          },
          "geometry": {
            "type": "Point",
            "coordinates": [
              14.3603111,
              48.5037677
            ]
          }
        },
        {
          "type": "Feature",
          "properties": {
            "id": "2409604484",
            "osm_type": "node",
            "lat": 48.6489981,
            "lon": 14.4522252,
            "addr:city": "Dolní Dvořiště",
            "addr:conscriptionnumber": "219",
            "addr:country": "CZ",
            "addr:housenumber": "219",
            "addr:place": "Dolní Dvořiště",
            "addr:postcode": "38272",
            "name": "Travel Free",
            "ref:ruian:addr": "8690201",
            "shop": "supermarket"
          },
          "geometry": {
            "type": "Point",
            "coordinates": [
              14.4522252,
              48.6489981
            ]
          }
        },
        {
          "type": "Feature",
          "properties": {
            "id": "4672248634",
            "osm_type": "node",
            "lat": 48.4052754,
            "lon": 14.4184921,
            "name": "Spar",
            "shop": "supermarket"
          },
          "geometry": {
            "type": "Point",
            "coordinates": [
              14.4184921,
              48.4052754
            ]
          }
        },
        {
          "type": "Feature",
          "properties": {
            "id": "4778861288",
            "osm_type": "node",
            "lat": 48.6189095,
            "lon": 14.3099028,
            "addr:city": "Vyšší Brod",
            "addr:conscriptionnumber": "344",
            "addr:country": "CZ",
            "addr:housenumber": "344",
            "addr:place": "Vyšší Brod",
            "addr:postcode": "38273",
            "addr:street": "Míru",
            "branch": "TIP",
            "brand": "COOP Jednota",
            "brand:wikidata": "Q41629254",
            "name": "COOP Jednota",
            "opening_hours": "Mo-Fr 07:00-19:00; Sa-Su 07:00-14:00",
            "operator": "Jednota družstvo spotřebitelů v Kaplici",
            "phone": "+420 380 746 646",
            "shop": "supermarket",
            "source:addr": "cuzk:ruian",
            "url": "http://www.coop.cz/",
            "website": "https://www.jednotakaplice.cz/"
          },
          "geometry": {
            "type": "Point",
            "coordinates": [
              14.3099028,
              48.6189095
            ]
          }
        },
        {
          "type": "Feature",
          "properties": {
            "id": "9207015718",
            "osm_type": "node",
            "lat": 48.6038176,
            "lon": 14.4059279,
            "brand": "COOP Jednota",
            "name": "COOP Jednota",
            "opening_hours": "Mo-Tu 07:00-12:00, 13:00-16:30; We 07:00-12:00; Th-Fr 07:00-12:00, 13:00-16:30; Sa 07:00-10:00; Su off",
            "shop": "supermarket"
          },
          "geometry": {
            "type": "Point",
            "coordinates": [
              14.4059279,
              48.6038176
            ]
          }
        },
        {
          "type": "Feature",
          "properties": {
            "id": "9215645491",
            "osm_type": "node",
            "lat": 48.499112,
            "lon": 14.5033825,
            "branch": "STOP&SHOP",
            "brand": "Billa",
            "brand:wikidata": "Q537781",
            "brand:wikipedia": "de:Billa",
            "name": "Billa",
            "opening_hours": "Mo-Su 06:00-23:00",
            "operator": "Billa",
            "shop": "supermarket"
          },
          "geometry": {
            "type": "Point",
            "coordinates": [
              14.5033825,
              48.499112
            ]
          }
        },
        {
          "type": "Feature",
          "properties": {
            "id": "11215399351",
            "osm_type": "node",
            "lat": 48.6162907,
            "lon": 14.3120665,
            "name": "Lenka",
            "opening_hours": "Mo-Su 06:00-22:00",
            "shop": "supermarket",
            "wheelchair": "limited"
          },
          "geometry": {
            "type": "Point",
            "coordinates": [
              14.3120665,
              48.6162907
            ]
          }
        },
        {
          "type": "Feature",
          "properties": {
            "id": "11228956037",
            "osm_type": "node",
            "lat": 48.5897175,
            "lon": 14.3262084,
            "addr:housenumber": "25",
            "name": "H&D Zentrum",
            "shop": "supermarket"
          },
          "geometry": {
            "type": "Point",
            "coordinates": [
              14.3262084,
              48.5897175
            ]
          }
        },
        {
          "type": "Feature",
          "properties": {
            "id": "12758931705",
            "osm_type": "node",
            "lat": 48.5582977,
            "lon": 14.4766644,
            "brand": "Nah & Frisch",
            "name": "Nah & Frisch",
            "shop": "supermarket",
            "wheelchair": "yes"
          },
          "geometry": {
            "type": "Point",
            "coordinates": [
              14.4766644,
              48.5582977
            ]
          }
        },
        {
          "type": "Feature",
          "properties": {
            "id": "60115396",
            "osm_type": "node",
            "lat": 48.4171898,
            "lon": 14.6126195,
            "brand": "Spar",
            "brand:wikidata": "Q610492",
            "name": "Spar",
            "opening_hours": "Mo-Fr 07:00-18:00; Sa 07:00-17:00",
            "shop": "supermarket",
            "wheelchair": "yes"
          },
          "geometry": {
            "type": "Point",
            "coordinates": [
              14.6126195,
              48.4171898
            ]
          }
        },
        {
          "type": "Feature",
          "properties": {
            "id": "582480117",
            "osm_type": "node",
            "lat": 48.5711934,
            "lon": 14.960452,
            "name": "Lagerhaus",
            "shop": "supermarket"
          },
          "geometry": {
            "type": "Point",
            "coordinates": [
              14.960452,
              48.5711934
            ]
          }
        },
        {
          "type": "Feature",
          "properties": {
            "id": "582480120",
            "osm_type": "node",
            "lat": 48.5737777,
            "lon": 14.9588167,
            "addr:city": "Groß Gerungs",
            "addr:country": "AT",
            "addr:housenumber": "37",
            "addr:postcode": "3920",
            "addr:street": "Hauptplatz",
            "brand": "Spar",
            "brand:wikidata": "Q610492",
            "brand:wikipedia": "en:SPAR (retailer)",
            "check_date:opening_hours": "2025-09-13",
            "name": "Eurospar",
            "opening_hours": "Mo-Fr 07:15-19:30; Sa 07:15-18:00",
            "phone": "+43 2812 51099",
            "shop": "supermarket"
          },
          "geometry": {
            "type": "Point",
            "coordinates": [
              14.9588167,
              48.5737777
            ]
          }
        },
        {
          "type": "Feature",
          "properties": {
            "id": "582495831",
            "osm_type": "node",
            "lat": 48.5764421,
            "lon": 14.8847125,
            "name": "Lagerhaus",
            "shop": "supermarket",
            "wheelchair": "yes"
          },
          "geometry": {
            "type": "Point",
            "coordinates": [
              14.8847125,
              48.5764421
            ]
          }
        },
        {
          "type": "Feature",
          "properties": {
            "id": "671774923",
            "osm_type": "node",
            "lat": 48.4620715,
            "lon": 14.9656172,
            "name": "Kaufhaus Höfinger",
            "shop": "supermarket"
          },
          "geometry": {
            "type": "Point",
            "coordinates": [
              14.9656172,
              48.4620715
            ]
          }
        },
        {
          "type": "Feature",
          "properties": {
            "id": "671774928",
            "osm_type": "node",
            "lat": 48.4623197,
            "lon": 14.9656104,
            "name": "Kaufhaus Wagner",
            "shop": "supermarket"
          },
          "geometry": {
            "type": "Point",
            "coordinates": [
              14.9656104,
              48.4623197
            ]
          }
        },
        {
          "type": "Feature",
          "properties": {
            "id": "671774930",
            "osm_type": "node",
            "lat": 48.4328908,
            "lon": 14.9650368,
            "name": "Kaufhaus Spiegl",
            "shop": "supermarket"
          },
          "geometry": {
            "type": "Point",
            "coordinates": [
              14.9650368,
              48.4328908
            ]
          }
        },
        {
          "type": "Feature",
          "properties": {
            "id": "671781122",
            "osm_type": "node",
            "lat": 48.4933653,
            "lon": 14.953034,
            "branch": "Einkaufszentrum Reichard",
            "brand": "Nah & Frisch",
            "brand:wikidata": "Q1963643",
            "name": "Nah & Frisch",
            "shop": "supermarket",
            "website": "https://www.reichard-gmbh.at/nahundfrisch"
          },
          "geometry": {
            "type": "Point",
            "coordinates": [
              14.953034,
              48.4933653
            ]
          }
        },
        {
          "type": "Feature",
          "properties": {
            "id": "901596381",
            "osm_type": "node",
            "lat": 48.4316686,
            "lon": 14.7798999,
            "branch": "Himmelbauer",
            "brand": "ADEG",
            "brand:wikidata": "Q290211",
            "name": "ADEG",
            "shop": "supermarket"
          },
          "geometry": {
            "type": "Point",
            "coordinates": [
              14.7798999,
              48.4316686
            ]
          }
        },
        {
          "type": "Feature",
          "properties": {
            "id": "1617628346",
            "osm_type": "node",
            "lat": 48.4773251,
            "lon": 14.7218214,
            "name": "Nah & Frisch",
            "shop": "supermarket"
          },
          "geometry": {
            "type": "Point",
            "coordinates": [
              14.7218214,
              48.4773251
            ]
          }
        },
        {
          "type": "Feature",
          "properties": {
            "id": "1700603179",
            "osm_type": "node",
            "lat": 48.5248439,
            "lon": 14.9483606,
            "name": "Kastner",
            "shop": "supermarket"
          },
          "geometry": {
            "type": "Point",
            "coordinates": [
              14.9483606,
              48.5248439
            ]
          }
        },
        {
          "type": "Feature",
          "properties": {
            "id": "1837400408",
            "osm_type": "node",
            "lat": 48.6524352,
            "lon": 14.9420799,
            "int_name": "Kaufhaus Schagginger",
            "name": "ADEG",
            "operator": "ADEG",
            "shop": "supermarket"
          },
          "geometry": {
            "type": "Point",
            "coordinates": [
              14.9420799,
              48.6524352
            ]
          }
        },
        {
          "type": "Feature",
          "properties": {
            "id": "3429803281",
            "osm_type": "node",
            "lat": 48.5712831,
            "lon": 14.9588574,
            "addr:city": "Groß Gerungs",
            "addr:housenumber": "112",
            "addr:postcode": "3920",
            "addr:street": "Kreuzberg",
            "name": "Raiffeisen-Lagerhaus",
            "shop": "supermarket"
          },
          "geometry": {
            "type": "Point",
            "coordinates": [
              14.9588574,
              48.5712831
            ]
          }
        },
        {
          "type": "Feature",
          "properties": {
            "id": "4371555689",
            "osm_type": "node",
            "lat": 48.6286904,
            "lon": 14.8230858,
            "brand": "Nah & Frisch",
            "brand:wikidata": "Q1963643",
            "brand:wikipedia": "de:Nah & Frisch",
            "name": "Nah & Frisch",
            "shop": "supermarket"
          },
          "geometry": {
            "type": "Point",
            "coordinates": [
              14.8230858,
              48.6286904
            ]
          }
        },
        {
          "type": "Feature",
          "properties": {
            "id": "457142464",
            "osm_type": "node",
            "lat": 48.6049104,
            "lon": 15.1660313,
            "brand": "SPAR Gourmet",
            "brand:wikidata": "Q610492",
            "name": "SPAR Gourmet",
            "shop": "supermarket",
            "website": "https://www.spar.at/",
            "wheelchair": "yes"
          },
          "geometry": {
            "type": "Point",
            "coordinates": [
              15.1660313,
              48.6049104
            ]
          }
        },
        {
          "type": "Feature",
          "properties": {
            "id": "457428556",
            "osm_type": "node",
            "lat": 48.6004817,
            "lon": 15.1916957,
            "brand": "Penny",
            "brand:wikidata": "Q284688",
            "brand:wikipedia": "en:Penny (supermarket)",
            "name": "PENNY",
            "opening_hours": "Mo-Fr 07:30-19:00; Sa 07:30-18:00",
            "shop": "supermarket",
            "website": "https://www.penny.at/",
            "wheelchair": "yes"
          },
          "geometry": {
            "type": "Point",
            "coordinates": [
              15.1916957,
              48.6004817
            ]
          }
        },
        {
          "type": "Feature",
          "properties": {
            "id": "457687833",
            "osm_type": "node",
            "lat": 48.5217421,
            "lon": 15.0793169,
            "brand": "Nah & Frisch",
            "brand:wikidata": "Q1963643",
            "name": "Nah & Frisch",
            "operator": "Wagner",
            "shop": "supermarket"
          },
          "geometry": {
            "type": "Point",
            "coordinates": [
              15.0793169,
              48.5217421
            ]
          }
        },
        {
          "type": "Feature",
          "properties": {
            "id": "457710044",
            "osm_type": "node",
            "lat": 48.5205595,
            "lon": 15.0710294,
            "name": "Lagerhaus Markt",
            "shop": "supermarket"
          },
          "geometry": {
            "type": "Point",
            "coordinates": [
              15.0710294,
              48.5205595
            ]
          }
        },
        {
          "type": "Feature",
          "properties": {
            "id": "582495785",
            "osm_type": "node",
            "lat": 48.4244944,
            "lon": 15.190364,
            "name": "Lagerhaus",
            "shop": "supermarket"
          },
          "geometry": {
            "type": "Point",
            "coordinates": [
              15.190364,
              48.4244944
            ]
          }
        },
        {
          "type": "Feature",
          "properties": {
            "id": "2437496241",
            "osm_type": "node",
            "lat": 48.6678988,
            "lon": 15.0633069,
            "name": "Pollak",
            "operator": "Nah&Frisch",
            "shop": "supermarket"
          },
          "geometry": {
            "type": "Point",
            "coordinates": [
              15.0633069,
              48.6678988
            ]
          }
        },
        {
          "type": "Feature",
          "properties": {
            "id": "4148704164",
            "osm_type": "node",
            "lat": 48.4357599,
            "lon": 15.1146614,
            "brand": "Nah & Frisch",
            "brand:wikidata": "Q1963643",
            "name": "Nah & Frisch",
            "operator": "Rammel Christina",
            "post_office": "post_partner",
            "shop": "supermarket"
          },
          "geometry": {
            "type": "Point",
            "coordinates": [
              15.1146614,
              48.4357599
            ]
          }
        },
        {
          "type": "Feature",
          "properties": {
            "id": "4533833490",
            "osm_type": "node",
            "lat": 48.6113099,
            "lon": 15.1608646,
            "addr:city": "Zwettl",
            "addr:housenumber": "2",
            "addr:postcode": "3910",
            "addr:street": "Gradnitzer Straße",
            "brand": "Billa",
            "brand:wikidata": "Q537781",
            "brand:wikipedia": "en:Billa (supermarket)",
            "name": "Billa",
            "opening_hours": "Mo-Fr 07:15-19:30; Sa 07:15-18:00",
            "shop": "supermarket",
            "wheelchair": "yes"
          },
          "geometry": {
            "type": "Point",
            "coordinates": [
              15.1608646,
              48.6113099
            ]
          }
        },
        {
          "type": "Feature",
          "properties": {
            "id": "4639480207",
            "osm_type": "node",
            "lat": 48.5279745,
            "lon": 15.0972169,
            "name": "Biohof Holzinger",
            "organic": "only",
            "shop": "supermarket",
            "website": "http://www.bauernhof-holzinger.at.tf"
          },
          "geometry": {
            "type": "Point",
            "coordinates": [
              15.0972169,
              48.5279745
            ]
          }
        },
        {
          "type": "Feature",
          "properties": {
            "id": "5076745394",
            "osm_type": "node",
            "lat": 48.6031224,
            "lon": 15.1678788,
            "addr:city": "Zwettl",
            "addr:country": "AT",
            "addr:housenumber": "5",
            "addr:postcode": "3910",
            "addr:street": "Landstraße",
            "check_date": "2023-08-15",
            "contact:facebook": "helgashollerbusch",
            "contact:phone": "+43 2822 53973",
            "name": "Biomarkt Helga´s Hollerbusch",
            "organic": "only",
            "shop": "supermarket",
            "website": "https://www.helgashollerbusch.at/"
          },
          "geometry": {
            "type": "Point",
            "coordinates": [
              15.1678788,
              48.6031224
            ]
          }
        },
        {
          "type": "Feature",
          "properties": {
            "id": "5890306016",
            "osm_type": "node",
            "lat": 48.5382733,
            "lon": 15.1895833,
            "name": "Nah & Frisch Wagner",
            "opening_hours": "Mo-Fr 06:00-12:00, Mo-Fr 15:00-18:00, Sa 06:00-12:00",
            "shop": "supermarket"
          },
          "geometry": {
            "type": "Point",
            "coordinates": [
              15.1895833,
              48.5382733
            ]
          }
        }
      ],
      "children": []
    },
    {
      "bbox": {
        "south": 48.68652475,
        "west": 13.345766,
        "north": 49.017078,
        "east": 14.2994695
      },
      "poiCount": 31,
      "leafCount": 31,
      "averagePosition": [
        13.66372574516129,
        48.82810157096774
      ],
      "data": [
        {
          "type": "Feature",
          "properties": {
            "id": "1056067531",
            "osm_type": "node",
            "lat": 48.7772439,
            "lon": 13.4341077,
            "brand": "Penny",
            "brand:wikidata": "Q284688",
            "name": "Penny Markt",
            "shop": "supermarket"
          },
          "geometry": {
            "type": "Point",
            "coordinates": [
              13.4341077,
              48.7772439
            ]
          }
        },
        {
          "type": "Feature",
          "properties": {
            "id": "1704685915",
            "osm_type": "node",
            "lat": 48.7794787,
            "lon": 13.4416362,
            "brand": "EDEKA",
            "brand:wikidata": "Q701755",
            "name": "Edeka Denk",
            "opening_hours": "Mo-Fr 07:30-18:30; Sa 07:30-14:00; PH off",
            "post_office": "post_partner",
            "post_office:brand": "Deutsche Post",
            "post_office:service_provider": "Deutsche Post",
            "post_office:service_provider:wikidata": "Q157645",
            "ref:DeutschePost": "531",
            "shop": "supermarket"
          },
          "geometry": {
            "type": "Point",
            "coordinates": [
              13.4416362,
              48.7794787
            ]
          }
        },
        {
          "type": "Feature",
          "properties": {
            "id": "1979943940",
            "osm_type": "node",
            "lat": 48.8505937,
            "lon": 13.4900528,
            "brand": "EDEKA",
            "brand:wikidata": "Q701755",
            "name": "Edeka Koller",
            "shop": "supermarket"
          },
          "geometry": {
            "type": "Point",
            "coordinates": [
              13.4900528,
              48.8505937
            ]
          }
        },
        {
          "type": "Feature",
          "properties": {
            "id": "2094886506",
            "osm_type": "node",
            "lat": 48.7380732,
            "lon": 13.5234128,
            "name": "Edeka Denk",
            "shop": "supermarket"
          },
          "geometry": {
            "type": "Point",
            "coordinates": [
              13.5234128,
              48.7380732
            ]
          }
        },
        {
          "type": "Feature",
          "properties": {
            "id": "2561592190",
            "osm_type": "node",
            "lat": 48.8555367,
            "lon": 13.3940732,
            "addr:city": "Grafenau",
            "addr:country": "DE",
            "addr:housenumber": "12",
            "addr:postcode": "94481",
            "addr:street": "Bahnhofstraße",
            "brand": "REWE",
            "brand:wikidata": "Q16968817",
            "brand:wikipedia": "de:Rewe",
            "name": "REWE",
            "opening_hours": "Mo-Sa 07:00-20:00; Dec 24 07:00-14:00; Dec 31 07:00-16:00; PH off",
            "operator": "Di Prospero OHG Grafenau",
            "shop": "supermarket",
            "website": "https://www.rewe.de/marktseite/rewe-markt-grafenau-bahnhofstra%C3%9Fe-12/"
          },
          "geometry": {
            "type": "Point",
            "coordinates": [
              13.3940732,
              48.8555367
            ]
          }
        },
        {
          "type": "Feature",
          "properties": {
            "id": "3280669992",
            "osm_type": "node",
            "lat": 48.6886007,
            "lon": 13.3825845,
            "addr:city": "Neukirchen vorm Wald",
            "addr:postcode": "94154",
            "brand": "EDEKA",
            "brand:wikidata": "Q701755",
            "name": "EDEKA Kriegl",
            "opening_hours": "Mo-Fr 06:00-19:00; Sa 07:00-16:00",
            "shop": "supermarket"
          },
          "geometry": {
            "type": "Point",
            "coordinates": [
              13.3825845,
              48.6886007
            ]
          }
        },
        {
          "type": "Feature",
          "properties": {
            "id": "3731913813",
            "osm_type": "node",
            "lat": 48.7415759,
            "lon": 13.3829402,
            "name": "RIBA Getränkemarkt",
            "shop": "supermarket"
          },
          "geometry": {
            "type": "Point",
            "coordinates": [
              13.3829402,
              48.7415759
            ]
          }
        },
        {
          "type": "Feature",
          "properties": {
            "id": "9386040096",
            "osm_type": "node",
            "lat": 48.7354271,
            "lon": 13.3735769,
            "brand": "REWE",
            "brand:wikidata": "Q16968817",
            "name": "REWE",
            "opening_hours": "Mo-Sa 07:00-20:00",
            "post_office": "post_partner",
            "post_office:brand": "Deutsche Post",
            "post_office:service_provider": "Deutsche Post",
            "post_office:service_provider:wikidata": "Q157645",
            "ref:DeutschePost": "455",
            "shop": "supermarket"
          },
          "geometry": {
            "type": "Point",
            "coordinates": [
              13.3735769,
              48.7354271
            ]
          }
        },
        {
          "type": "Feature",
          "properties": {
            "id": "860402807",
            "osm_type": "node",
            "lat": 48.8225278,
            "lon": 13.6012454,
            "brand": "Edeka",
            "brand:wikidata": "Q701755",
            "name": "Edeka List",
            "opening_hours": "Mo-Fr 06:30-12:30, 14:00-18:00; Sa 06:30-13:00; Su 09:30-10:30",
            "shop": "supermarket",
            "wheelchair": "yes"
          },
          "geometry": {
            "type": "Point",
            "coordinates": [
              13.6012454,
              48.8225278
            ]
          }
        },
        {
          "type": "Feature",
          "properties": {
            "id": "920442894",
            "osm_type": "node",
            "lat": 48.7713738,
            "lon": 13.7315846,
            "shop": "supermarket"
          },
          "geometry": {
            "type": "Point",
            "coordinates": [
              13.7315846,
              48.7713738
            ]
          }
        },
        {
          "type": "Feature",
          "properties": {
            "id": "1459757064",
            "osm_type": "node",
            "lat": 48.827191,
            "lon": 13.7751323,
            "brand": "EDEKA",
            "brand:wikidata": "Q701755",
            "brand:wikipedia": "de:Edeka",
            "name": "nah und gut",
            "opening_hours": "Mo-Sa 06:00-12:00; Mo, We-Fr 14:00-18:00",
            "shop": "supermarket",
            "wheelchair": "limited"
          },
          "geometry": {
            "type": "Point",
            "coordinates": [
              13.7751323,
              48.827191
            ]
          }
        },
        {
          "type": "Feature",
          "properties": {
            "id": "1509675414",
            "osm_type": "node",
            "lat": 48.8042647,
            "lon": 13.5472934,
            "addr:city": "Freyung",
            "addr:country": "DE",
            "addr:housenumber": "26",
            "addr:postcode": "94078",
            "addr:street": "Bahnhofstraße",
            "brand": "Norma",
            "brand:wikidata": "Q450180",
            "brand:wikipedia": "de:Norma (Supermarkt)",
            "name": "Norma",
            "opening_hours": "Mo-Sa 08:00-20:00; PH off",
            "operator": "Norma Lebensmittelfilialbetrieb Stiftung & Co. KG",
            "shop": "supermarket"
          },
          "geometry": {
            "type": "Point",
            "coordinates": [
              13.5472934,
              48.8042647
            ]
          }
        },
        {
          "type": "Feature",
          "properties": {
            "id": "2534302297",
            "osm_type": "node",
            "lat": 48.8084662,
            "lon": 13.5469679,
            "addr:city": "Freyung",
            "addr:country": "DE",
            "addr:housenumber": "8-10",
            "addr:postcode": "94078",
            "addr:street": "Stadtplatz",
            "brand": "EDEKA",
            "brand:wikidata": "Q701755",
            "brand:wikipedia": "de:Edeka",
            "contact:website": "https://www.edeka.de/eh/s%C3%BCdbayern/edeka-p%C3%B6schl-stadtplatz-8-10/index.jsp",
            "name": "EDEKA",
            "opening_hours": "Mo-Sa 07:00-19:00; PH off",
            "operator": "Bernhard Pöschl e.K.",
            "shop": "supermarket"
          },
          "geometry": {
            "type": "Point",
            "coordinates": [
              13.5469679,
              48.8084662
            ]
          }
        },
        {
          "type": "Feature",
          "properties": {
            "id": "3240039784",
            "osm_type": "node",
            "lat": 48.7762272,
            "lon": 13.7362385,
            "name": "Bundeswehr-Shop",
            "shop": "supermarket"
          },
          "geometry": {
            "type": "Point",
            "coordinates": [
              13.7362385,
              48.7762272
            ]
          }
        },
        {
          "type": "Feature",
          "properties": {
            "id": "3240044170",
            "osm_type": "node",
            "lat": 48.7766797,
            "lon": 13.7343771,
            "addr:city": "Neureichenau",
            "addr:country": "DE",
            "addr:housenumber": "10",
            "addr:postcode": "94089",
            "addr:street": "Branntweinhäuser",
            "name": "nah & gut EDEKA",
            "opening_hours": "Mo-Fr 6:00-12:00, 14:00-18:00; Sa 06:00-12:30; PH off",
            "operator": "Manuel Rauch",
            "shop": "supermarket"
          },
          "geometry": {
            "type": "Point",
            "coordinates": [
              13.7343771,
              48.7766797
            ]
          }
        },
        {
          "type": "Feature",
          "properties": {
            "id": "4360171477",
            "osm_type": "node",
            "lat": 48.718736,
            "lon": 13.5950593,
            "addr:city": "Waldkirchen",
            "addr:housenumber": "2",
            "addr:place": "Saußmühle",
            "addr:postcode": "94065",
            "name": "Bogners Bio",
            "organic": "only",
            "phone": "+49-8581-9841490",
            "shop": "supermarket",
            "website": "https://bognersbio.de/"
          },
          "geometry": {
            "type": "Point",
            "coordinates": [
              13.5950593,
              48.718736
            ]
          }
        },
        {
          "type": "Feature",
          "properties": {
            "id": "4561603015",
            "osm_type": "node",
            "lat": 48.8553568,
            "lon": 13.7353677,
            "addr:city": "Haidmühle",
            "addr:housenumber": "31",
            "addr:postcode": "94145",
            "addr:street": "Hauptstraße",
            "brand": "EDEKA",
            "brand:wikidata": "Q701755",
            "name": "Edeka Madl",
            "opening_hours": "Mo-Fr 06:45-12:30,14:00-18:00; Sa 06:45-12:30",
            "shop": "supermarket"
          },
          "geometry": {
            "type": "Point",
            "coordinates": [
              13.7353677,
              48.8553568
            ]
          }
        },
        {
          "type": "Feature",
          "properties": {
            "id": "6574221572",
            "osm_type": "node",
            "lat": 48.8390955,
            "lon": 13.5518658,
            "addr:city": "Freyung",
            "addr:country": "DE",
            "addr:housenumber": "98",
            "addr:postcode": "94078",
            "addr:street": "Kreuzberg",
            "contact:website": "https://www.freyung.de/de/kultur-und-kulinarik/kulinarik/unser-dorfladen.html",
            "name": "Kreuzberger Annalon",
            "opening_hours": "Mo,We,Fr,Sa 06:30-12:00; Tu,Th 06:30-12:00,16:00-20:00; PH off",
            "phone": "08551 2039897",
            "post_office": "post_partner",
            "post_office:brand": "DHL Paketshop 470",
            "post_office:brand:wikidata": "Q5266289",
            "shop": "supermarket"
          },
          "geometry": {
            "type": "Point",
            "coordinates": [
              13.5518658,
              48.8390955
            ]
          }
        },
        {
          "type": "Feature",
          "properties": {
            "id": "8840403546",
            "osm_type": "node",
            "lat": 48.8711054,
            "lon": 13.6149238,
            "brand": "Edeka",
            "brand:wikidata": "Q701755",
            "brand:wikipedia": "de:Edeka",
            "name": "nah und gut",
            "opening_hours": "Mo-Fr 06:15-18:00; Sa 06:00-12:00",
            "shop": "supermarket"
          },
          "geometry": {
            "type": "Point",
            "coordinates": [
              13.6149238,
              48.8711054
            ]
          }
        },
        {
          "type": "Feature",
          "properties": {
            "id": "2408801497",
            "osm_type": "node",
            "lat": 48.737386,
            "lon": 14.112489,
            "name": "Minimarket",
            "opening_hours": "Mo-Fr 07:00-18:00; Sa,Su 08:00-12:00",
            "shop": "supermarket",
            "source": "Survey"
          },
          "geometry": {
            "type": "Point",
            "coordinates": [
              14.112489,
              48.737386
            ]
          }
        },
        {
          "type": "Feature",
          "properties": {
            "id": "4393118054",
            "osm_type": "node",
            "lat": 48.7659667,
            "lon": 14.0319688,
            "addr:city": "Horní Planá",
            "addr:conscriptionnumber": "38",
            "addr:country": "CZ",
            "addr:housenumber": "38",
            "addr:place": "Horní Planá",
            "addr:postcode": "38226",
            "addr:street": "Náměstí",
            "brand": "Coop Tip",
            "brand:wikidata": "Q52851660",
            "name": "Coop Tip",
            "opening_hours": "Mo-Fr 06:30-18:00; Sa, Su 07:00-18:00",
            "phone": "+420 380 738 218",
            "shop": "supermarket",
            "source:addr": "cuzk:ruian",
            "url": "http://www.coop.cz/",
            "website": "https://www.jednotakaplice.cz/"
          },
          "geometry": {
            "type": "Point",
            "coordinates": [
              14.0319688,
              48.7659667
            ]
          }
        },
        {
          "type": "Feature",
          "properties": {
            "id": "4807762230",
            "osm_type": "node",
            "lat": 48.7751893,
            "lon": 14.288916,
            "addr:city": "Větřní",
            "addr:postcode": "38211",
            "addr:street": "Šumavská",
            "brand": "Coop",
            "brand:wikidata": "Q52851660",
            "name": "Coop",
            "opening_hours": "Mo-Fr 07:00-17:30; Sa-Su 07:00-11:00",
            "operator": "Skupina COOP",
            "payment:cash": "yes",
            "payment:coins": "yes",
            "payment:credit_cards": "yes",
            "payment:mastercard": "yes",
            "payment:visa": "yes",
            "shop": "supermarket",
            "wheelchair": "yes"
          },
          "geometry": {
            "type": "Point",
            "coordinates": [
              14.288916,
              48.7751893
            ]
          }
        },
        {
          "type": "Feature",
          "properties": {
            "id": "413040330",
            "osm_type": "node",
            "lat": 48.9166051,
            "lon": 13.3561018,
            "addr:city": "Spiegelau",
            "addr:housenumber": "1b",
            "addr:postcode": "94518",
            "addr:street": "Konrad-Wilsdorf-Straße",
            "brand": "Norma",
            "brand:wikidata": "Q450180",
            "brand:wikipedia": "de:Norma (Supermarkt)",
            "currency:EUR": "yes",
            "level": "0",
            "name": "Norma",
            "opening_hours": "Mo-Sa 08:00-20:00",
            "payment:cash": "yes",
            "payment:debit_cards": "yes",
            "shop": "supermarket",
            "stroller": "yes",
            "wheelchair": "yes"
          },
          "geometry": {
            "type": "Point",
            "coordinates": [
              13.3561018,
              48.9166051
            ]
          }
        },
        {
          "type": "Feature",
          "properties": {
            "id": "530020736",
            "osm_type": "node",
            "lat": 48.8841126,
            "lon": 13.4776428,
            "addr:city": "Neuschönau",
            "addr:country": "DE",
            "addr:housenumber": "16",
            "addr:postcode": "94556",
            "addr:street": "Kaiserstraße",
            "brand": "EDEKA",
            "brand:wikidata": "Q701755",
            "name": "nah & gut Fenzl",
            "opening_hours": "Mo-Fr 06:15-18:00; Sa 07:00-12:00; Su 07:30-10:30",
            "operator": "Albert Fenzl",
            "shop": "supermarket",
            "wheelchair": "no",
            "wheelchair:description:de": "Stufen am Eingang"
          },
          "geometry": {
            "type": "Point",
            "coordinates": [
              13.4776428,
              48.8841126
            ]
          }
        },
        {
          "type": "Feature",
          "properties": {
            "id": "467124871",
            "osm_type": "node",
            "lat": 49.0101799,
            "lon": 14.0008408,
            "brand": "Lidl",
            "brand:wikidata": "Q151954",
            "brand:wikipedia": "en:Lidl",
            "name": "Lidl",
            "shop": "supermarket"
          },
          "geometry": {
            "type": "Point",
            "coordinates": [
              14.0008408,
              49.0101799
            ]
          }
        },
        {
          "type": "Feature",
          "properties": {
            "id": "603271950",
            "osm_type": "node",
            "lat": 48.9313701,
            "lon": 13.5773842,
            "addr:housenumber": "20/22",
            "addr:street": "Halbwaldstraße",
            "brand": "Edeka",
            "brand:wikidata": "Q701755",
            "name": "nah & gut (Hubert Kralik)",
            "opening_hours": "Mo-We 7:00-12:00; Th-Fr 7:00-12:00,15:00-18:00; Sa 6:45-12:00",
            "operator": "Edeka",
            "shop": "supermarket",
            "wheelchair": "no"
          },
          "geometry": {
            "type": "Point",
            "coordinates": [
              13.5773842,
              48.9313701
            ]
          }
        },
        {
          "type": "Feature",
          "properties": {
            "id": "802738818",
            "osm_type": "node",
            "lat": 49.0137503,
            "lon": 14.0038301,
            "brand": "Penny",
            "brand:wikidata": "Q284688",
            "brand:wikipedia": "en:Penny (supermarket)",
            "name": "Penny Market",
            "shop": "supermarket"
          },
          "geometry": {
            "type": "Point",
            "coordinates": [
              14.0038301,
              49.0137503
            ]
          }
        },
        {
          "type": "Feature",
          "properties": {
            "id": "1501318547",
            "osm_type": "node",
            "lat": 48.8843392,
            "lon": 13.7041983,
            "name": "Travel Free",
            "shop": "supermarket"
          },
          "geometry": {
            "type": "Point",
            "coordinates": [
              13.7041983,
              48.8843392
            ]
          }
        },
        {
          "type": "Feature",
          "properties": {
            "id": "4780387205",
            "osm_type": "node",
            "lat": 48.9107944,
            "lon": 13.8917599,
            "branch": "Volary",
            "brand": "Coop Tip",
            "brand:website": "https://www.jednotavimperk.cz",
            "brand:wikidata": "Q52851660",
            "level": "0",
            "name": "Coop Tip",
            "opening_hours": "Mo-Fr 06:00-18:00; Sa 07:00-11:00; Su 08:00-11:00; ; PH off",
            "operator": "Jednota spotřební družstvo ve Vimperku",
            "phone": "+420 388 333 092",
            "shop": "supermarket",
            "stroller": "yes",
            "wheelchair": "yes"
          },
          "geometry": {
            "type": "Point",
            "coordinates": [
              13.8917599,
              48.9107944
            ]
          }
        },
        {
          "type": "Feature",
          "properties": {
            "id": "8840412218",
            "osm_type": "node",
            "lat": 48.8932278,
            "lon": 13.6497398,
            "brand": "Edeka",
            "brand:wikidata": "Q701755",
            "brand:wikipedia": "de:Edeka",
            "name": "nah und gut",
            "shop": "supermarket"
          },
          "geometry": {
            "type": "Point",
            "coordinates": [
              13.6497398,
              48.8932278
            ]
          }
        },
        {
          "type": "Feature",
          "properties": {
            "id": "9118519763",
            "osm_type": "node",
            "lat": 48.9106733,
            "lon": 13.8881865,
            "name": "Penny Market",
            "shop": "supermarket"
          },
          "geometry": {
            "type": "Point",
            "coordinates": [
              13.8881865,
              48.9106733
            ]
          }
        }
      ],
      "children": []
    },
    {
      "bbox": {
        "south": 48.68652475,
        "west": 14.2994695,
        "north": 49.017078,
        "east": 15.253173
      },
      "poiCount": 76,
      "leafCount": 0,
      "averagePosition": [
        14.660630551315789,
        48.88817530526316
      ],
      "data": [],
      "children": [
        {
          "bbox": {
            "south": 48.68652475,
            "west": 14.2994695,
            "north": 48.851801374999994,
            "east": 14.77632125
          },
          "poiCount": 16,
          "leafCount": 16,
          "averagePosition": [
            14.449477524999999,
            48.78545235
          ],
          "data": [
            {
              "type": "Feature",
              "properties": {
                "id": "444629751",
                "osm_type": "node",
                "lat": 48.701235,
                "lon": 14.3881082,
                "addr:city": "Rožmitál na Šumavě",
                "addr:postcode": "38292",
                "brand": "COOP Jednota",
                "brand:wikidata": "Q41629254",
                "brand:wikipedia": "sk:COOP Jednota Slovensko",
                "name": "COOP Jednota",
                "opening_hours": "Mo-Tu 07:00-12:00; 12:30-14:00; We 07:00-12:00; Th-Fr 07:00-12:00, 12:30-14:00; Sa 07:00-10:00; Su off",
                "payment:cash": "yes",
                "payment:credit_cards": "yes",
                "shop": "supermarket"
              },
              "geometry": {
                "type": "Point",
                "coordinates": [
                  14.3881082,
                  48.701235
                ]
              }
            },
            {
              "type": "Feature",
              "properties": {
                "id": "849464532",
                "osm_type": "node",
                "lat": 48.826611,
                "lon": 14.3333817,
                "addr:city": "Český Krumlov",
                "addr:housenumber": "164",
                "addr:postcode": "38101",
                "addr:street": "Tovární",
                "brand": "Coop Terno",
                "brand:wikidata": "Q52851660",
                "currency:CZK": "yes",
                "name": "Coop Terno",
                "opening_hours": "Mo-Su 07:00-19:00",
                "operator": "Jednota Kaplice",
                "payment:cash": "yes",
                "payment:credit_cards": "yes",
                "ref:vatin": "CZ00031861",
                "shop": "supermarket",
                "website": "https://www.terno.cz/",
                "wheelchair": "yes"
              },
              "geometry": {
                "type": "Point",
                "coordinates": [
                  14.3333817,
                  48.826611
                ]
              }
            },
            {
              "type": "Feature",
              "properties": {
                "id": "1865484960",
                "osm_type": "node",
                "lat": 48.8301279,
                "lon": 14.462211,
                "addr:city": "Velešín",
                "addr:housenumber": "400",
                "addr:postcode": "38232",
                "addr:street": "Budějovická",
                "payment:cash": "yes",
                "payment:coins": "yes",
                "payment:credit_cards": "yes",
                "payment:mastercard": "yes",
                "payment:notes": "yes",
                "payment:visa": "yes",
                "shop": "supermarket"
              },
              "geometry": {
                "type": "Point",
                "coordinates": [
                  14.462211,
                  48.8301279
                ]
              }
            },
            {
              "type": "Feature",
              "properties": {
                "id": "2461031374",
                "osm_type": "node",
                "lat": 48.7348686,
                "lon": 14.4838408,
                "addr:city": "Kaplice",
                "addr:housenumber": "853",
                "addr:postcode": "38241",
                "addr:street": "Omlenická",
                "brand": "Albert",
                "brand:wikidata": "Q9144241",
                "brand:wikipedia": "cs:Albert (obchodní řetězec)",
                "name": "Albert",
                "payment:cash": "yes",
                "payment:credit_cards": "yes",
                "shop": "supermarket"
              },
              "geometry": {
                "type": "Point",
                "coordinates": [
                  14.4838408,
                  48.7348686
                ]
              }
            },
            {
              "type": "Feature",
              "properties": {
                "id": "2461031380",
                "osm_type": "node",
                "lat": 48.7408836,
                "lon": 14.4850385,
                "addr:city": "Kaplice",
                "addr:housenumber": "734",
                "addr:postcode": "38241",
                "addr:street": "Na Vyhlídce",
                "brand": "Penny",
                "brand:wikidata": "Q284688",
                "brand:wikipedia": "en:Penny (supermarket)",
                "check_date": "2025-04-15",
                "name": "Penny",
                "shop": "supermarket",
                "wheelchair": "yes"
              },
              "geometry": {
                "type": "Point",
                "coordinates": [
                  14.4850385,
                  48.7408836
                ]
              }
            },
            {
              "type": "Feature",
              "properties": {
                "id": "4379249695",
                "osm_type": "node",
                "lat": 48.8043736,
                "lon": 14.3118831,
                "addr:city": "Český Krumlov",
                "addr:conscriptionnumber": "245",
                "addr:country": "CZ",
                "addr:housenumber": "245",
                "addr:place": "Plešivec",
                "addr:postcode": "38101",
                "addr:street": "U Zelené ratolesti",
                "air_conditioning": "yes",
                "branch": "TIP",
                "brand": "Coop",
                "brand:wikidata": "Q52851660",
                "currency:CZK": "yes",
                "level": "0",
                "name": "Coop",
                "opening_hours": "Mo-Fr 06:30-18:30; Sa,Su 07:00-11:30",
                "operator": "Jednota Kaplice",
                "organic": "yes",
                "payment:cash": "yes",
                "payment:credit_cards": "yes",
                "phone": "+420 380 728 930",
                "second_hand": "no",
                "shop": "supermarket",
                "source:addr": "cuzk:ruian",
                "stroller": "yes",
                "url": "http://www.coop.cz/",
                "website": "https://www.jednotakaplice.cz/"
              },
              "geometry": {
                "type": "Point",
                "coordinates": [
                  14.3118831,
                  48.8043736
                ]
              }
            },
            {
              "type": "Feature",
              "properties": {
                "id": "4393118055",
                "osm_type": "node",
                "lat": 48.8218078,
                "lon": 14.318182,
                "addr:city": "Český Krumlov",
                "addr:conscriptionnumber": "224",
                "addr:country": "CZ",
                "addr:housenumber": "224",
                "addr:place": "Nádražní Předměstí",
                "addr:postcode": "38101",
                "addr:street": "Za Nádražím",
                "brand": "Coop Tip",
                "brand:wikidata": "Q52851660",
                "changing_table": "no",
                "currency:CZK": "yes",
                "level": "0",
                "name": "Coop Tip",
                "opening_hours": "Mo-Fr 06:00-18:00; Sa 06:30-11:00",
                "operator": "Jednota Kaplice",
                "organic": "yes",
                "payment:cash": "yes",
                "payment:coins": "yes",
                "payment:credit_cards": "yes",
                "payment:mastercard": "yes",
                "payment:visa": "yes",
                "phone": "+420 380 711 701",
                "second_hand": "no",
                "shop": "supermarket",
                "source:addr": "cuzk:ruian",
                "stroller": "yes",
                "toilets": "no",
                "url": "http://www.coop.cz/",
                "website": "https://www.jednotakaplice.cz/",
                "wheelchair": "yes"
              },
              "geometry": {
                "type": "Point",
                "coordinates": [
                  14.318182,
                  48.8218078
                ]
              }
            },
            {
              "type": "Feature",
              "properties": {
                "id": "4866751784",
                "osm_type": "node",
                "lat": 48.8251977,
                "lon": 14.5264953,
                "addr:city": "Ločenice",
                "addr:housenumber": "164",
                "addr:postcode": "373 22",
                "brand": "Coop",
                "brand:wikidata": "Q52851660",
                "name": "Coop",
                "opening_hours": "Mo-Fr 07:00-12:00, 13:30-16:30; Sa 07:00-11:00",
                "shop": "supermarket",
                "wheelchair": "no"
              },
              "geometry": {
                "type": "Point",
                "coordinates": [
                  14.5264953,
                  48.8251977
                ]
              }
            },
            {
              "type": "Feature",
              "properties": {
                "id": "6169284236",
                "osm_type": "node",
                "lat": 48.8335994,
                "lon": 14.457348,
                "addr:city": "Velešín",
                "addr:postcode": "38232",
                "brand": "Penny",
                "brand:wikidata": "Q284688",
                "brand:wikipedia": "en:Penny (supermarket)",
                "name": "Penny",
                "opening_hours": "07:00-20:00",
                "shop": "supermarket"
              },
              "geometry": {
                "type": "Point",
                "coordinates": [
                  14.457348,
                  48.8335994
                ]
              }
            },
            {
              "type": "Feature",
              "properties": {
                "id": "7054240593",
                "osm_type": "node",
                "lat": 48.8019457,
                "lon": 14.310856,
                "addr:city": "Český Krumlov",
                "addr:housenumber": "255",
                "addr:postcode": "381 01",
                "addr:street": "Sídliště Plešivec",
                "email": "info@spar.cz",
                "name": "PLUS JIP",
                "operator": "Plus JIP s.r.o.",
                "payment:cash": "yes",
                "payment:credit_cards": "yes",
                "shop": "supermarket",
                "website": "http://www.plus-jip.cz/"
              },
              "geometry": {
                "type": "Point",
                "coordinates": [
                  14.310856,
                  48.8019457
                ]
              }
            },
            {
              "type": "Feature",
              "properties": {
                "id": "10156664951",
                "osm_type": "node",
                "lat": 48.803315,
                "lon": 14.3136732,
                "addr:city": "Český Krumlov",
                "addr:housenumber": "418",
                "addr:postcode": "381 01",
                "addr:street": "5. května",
                "brand": "Penny",
                "brand:wikidata": "Q284688",
                "currency:CZK": "yes",
                "level": "0",
                "name": "PENNY Plešivec",
                "operator": "Penny Market",
                "organic": "yes",
                "payment:cash": "yes",
                "payment:credit_cards": "yes",
                "payment:notes": "yes",
                "shop": "supermarket",
                "stroller": "yes",
                "website": "https://www.penny.cz/",
                "wheelchair": "yes"
              },
              "geometry": {
                "type": "Point",
                "coordinates": [
                  14.3136732,
                  48.803315
                ]
              }
            },
            {
              "type": "Feature",
              "properties": {
                "id": "11050446198",
                "osm_type": "node",
                "lat": 48.7406047,
                "lon": 14.4866953,
                "addr:city": "Kaplice",
                "addr:housenumber": "645",
                "addr:postcode": "38241",
                "addr:street": "Na Vyhlídce",
                "brand": "Lidl",
                "brand:wikidata": "Q151954",
                "name": "Lidl",
                "opening_hours": "Mo-Sa 07:00-20:00; Su 08:00-20:00",
                "operator": "Lidl",
                "payment:cards": "yes",
                "payment:cash": "yes",
                "payment:contactless": "yes",
                "shop": "supermarket",
                "wheelchair": "yes"
              },
              "geometry": {
                "type": "Point",
                "coordinates": [
                  14.4866953,
                  48.7406047
                ]
              }
            },
            {
              "type": "Feature",
              "properties": {
                "id": "13107939169",
                "osm_type": "node",
                "lat": 48.7446292,
                "lon": 14.4904371,
                "addr:city": "Kaplice",
                "addr:postcode": "38241",
                "addr:street": "1. máje",
                "brand": "Coop Tip",
                "brand:wikidata": "Q52851660",
                "name": "Coop Tip",
                "payment:cash": "yes",
                "payment:credit_cards": "yes",
                "payment:visa": "yes",
                "ref:ruian:building": "8720126",
                "shop": "supermarket",
                "source": "cuzk:ruian"
              },
              "geometry": {
                "type": "Point",
                "coordinates": [
                  14.4904371,
                  48.7446292
                ]
              }
            },
            {
              "type": "Feature",
              "properties": {
                "id": "4884924131",
                "osm_type": "node",
                "lat": 48.7290303,
                "lon": 14.6261629,
                "name": "COOP",
                "opening_hours": "Mo-Fr 08:30-20:00; Sa 07:00-11:00",
                "shop": "supermarket"
              },
              "geometry": {
                "type": "Point",
                "coordinates": [
                  14.6261629,
                  48.7290303
                ]
              }
            },
            {
              "type": "Feature",
              "properties": {
                "id": "12047572761",
                "osm_type": "node",
                "lat": 48.8400688,
                "lon": 14.6427584,
                "name": "Terno",
                "opening_hours": "Mo-Fr 06:30-20:00; Sa, Su 07:00-20:00",
                "shop": "supermarket"
              },
              "geometry": {
                "type": "Point",
                "coordinates": [
                  14.6427584,
                  48.8400688
                ]
              }
            },
            {
              "type": "Feature",
              "properties": {
                "id": "13131081591",
                "osm_type": "node",
                "lat": 48.7889393,
                "lon": 14.5545689,
                "addr:housenumber": "271",
                "addr:street": "Náměstí",
                "name": "Coop Tuty potraviny",
                "opening_hours": "Mo-Fr 07:00-17:00; Sa 07:00-11:00",
                "shop": "supermarket"
              },
              "geometry": {
                "type": "Point",
                "coordinates": [
                  14.5545689,
                  48.7889393
                ]
              }
            }
          ],
          "children": []
        },
        {
          "bbox": {
            "south": 48.68652475,
            "west": 14.77632125,
            "north": 48.851801374999994,
            "east": 15.253173
          },
          "poiCount": 15,
          "leafCount": 15,
          "averagePosition": [
            14.976276493333334,
            48.76801470666667
          ],
          "data": [
            {
              "type": "Feature",
              "properties": {
                "id": "720462223",
                "osm_type": "node",
                "lat": 48.7904036,
                "lon": 14.7787467,
                "addr:city": "Nové Hrady",
                "addr:postcode": "37333",
                "addr:street": "nám. Republiky",
                "branch": "Trefa",
                "brand": "Coop",
                "brand:wikidata": "Q52851660",
                "name": "Coop",
                "opening_hours": "Sep 5-Jun 29 Mo-Fr 06:30-18:00; Sa 07:00-12:00; Su 08:00-12:00",
                "shop": "supermarket"
              },
              "geometry": {
                "type": "Point",
                "coordinates": [
                  14.7787467,
                  48.7904036
                ]
              }
            },
            {
              "type": "Feature",
              "properties": {
                "id": "2506825399",
                "osm_type": "node",
                "lat": 48.7899569,
                "lon": 14.786422,
                "name": "Flop",
                "shop": "supermarket",
                "source": "survey"
              },
              "geometry": {
                "type": "Point",
                "coordinates": [
                  14.786422,
                  48.7899569
                ]
              }
            },
            {
              "type": "Feature",
              "properties": {
                "id": "3504433704",
                "osm_type": "node",
                "lat": 48.6994595,
                "lon": 14.9017369,
                "name": "Spar",
                "note": "Spar muss noch ergänzt werden; Öffnungszeiten sind nicht mehr aktuell!",
                "opening_hours": "Mo-Fr 07:00-19:15; Sa 07:15-18:00",
                "shop": "supermarket",
                "wheelchair": "yes"
              },
              "geometry": {
                "type": "Point",
                "coordinates": [
                  14.9017369,
                  48.6994595
                ]
              }
            },
            {
              "type": "Feature",
              "properties": {
                "id": "5017936223",
                "osm_type": "node",
                "lat": 48.7686288,
                "lon": 14.963177,
                "addr:housenumber": "223",
                "addr:postcode": "37810",
                "addr:street": "Revoluční",
                "email": "info@jednotacb.cz",
                "name": "Trefa",
                "name:cs": "Trefa",
                "opening_hours": "Mo-Fr 06:30-18:30; Sa 06:30-12:00; Su 06:30-11:00",
                "phone": "+420 773 764 543",
                "shop": "supermarket",
                "website": "https://www.trefasupermarket.cz/"
              },
              "geometry": {
                "type": "Point",
                "coordinates": [
                  14.963177,
                  48.7686288
                ]
              }
            },
            {
              "type": "Feature",
              "properties": {
                "id": "6490710212",
                "osm_type": "node",
                "lat": 48.773071,
                "lon": 14.9850446,
                "addr:city": "Gmünd",
                "addr:country": "AT",
                "addr:housenumber": "23",
                "addr:postcode": "3950",
                "addr:street": "Stadtplatz",
                "email": "office@waldviertlereck.at",
                "name": "Waldviertler Eck LTD",
                "opening_hours": "Mo-Fr 09:00-18:00, Sa 09:00-17:00",
                "organic": "only",
                "shop": "supermarket",
                "website": "http://www.waldviertlereck.at"
              },
              "geometry": {
                "type": "Point",
                "coordinates": [
                  14.9850446,
                  48.773071
                ]
              }
            },
            {
              "type": "Feature",
              "properties": {
                "id": "6992396121",
                "osm_type": "node",
                "lat": 48.7651969,
                "lon": 14.9862883,
                "addr:city": "Gmünd",
                "addr:housenumber": "2",
                "addr:postcode": "3950",
                "addr:street": "Habsburg-Lothringen Straße",
                "brand": "Billa Plus",
                "brand:wikipedia": "de:Billa",
                "name": "Billa Plus",
                "old_name": "Merkur",
                "opening_hours": "Mo-Th 07:20-19:20; Fr 07:20-20:00; Sa 07:20-18:00; Su off, PH off",
                "shop": "supermarket",
                "website": "https://www.billa.at"
              },
              "geometry": {
                "type": "Point",
                "coordinates": [
                  14.9862883,
                  48.7651969
                ]
              }
            },
            {
              "type": "Feature",
              "properties": {
                "id": "7229695979",
                "osm_type": "node",
                "lat": 48.7089678,
                "lon": 14.7974127,
                "addr:city": "Moorbad Harbach",
                "addr:country": "AT",
                "addr:housenumber": "36",
                "addr:place": "Harbach",
                "addr:postcode": "3970",
                "name": "Zentralkauf PILZ",
                "opening_hours": "Mo-Fr 08:00-12:00; Sa 07:00-11:00",
                "phone": "02858 5364",
                "shop": "supermarket"
              },
              "geometry": {
                "type": "Point",
                "coordinates": [
                  14.7974127,
                  48.7089678
                ]
              }
            },
            {
              "type": "Feature",
              "properties": {
                "id": "8688177217",
                "osm_type": "node",
                "lat": 48.7450305,
                "lon": 14.8880338,
                "addr:housenumber": "39",
                "addr:place": "Unterlembach",
                "addr:postcode": "3962",
                "name": "Bediene-Dich-Selbst Bauernladen",
                "name:en": "selfservice farm shop",
                "opening_hours": "Mo-Su 06:30-20:00",
                "phone": "0043 676 4435356",
                "shop": "supermarket"
              },
              "geometry": {
                "type": "Point",
                "coordinates": [
                  14.8880338,
                  48.7450305
                ]
              }
            },
            {
              "type": "Feature",
              "properties": {
                "id": "12090095889",
                "osm_type": "node",
                "lat": 48.7759278,
                "lon": 14.9762978,
                "name": "Travel Free Shop",
                "shop": "supermarket",
                "website": "https://www.travel-free.cz/cz"
              },
              "geometry": {
                "type": "Point",
                "coordinates": [
                  14.9762978,
                  48.7759278
                ]
              }
            },
            {
              "type": "Feature",
              "properties": {
                "id": "444006429",
                "osm_type": "node",
                "lat": 48.832584,
                "lon": 15.0826001,
                "addr:city": "Amaliendorf-Aalfang",
                "addr:housenumber": "141",
                "addr:postcode": "3872",
                "addr:street": "Hauptstraße",
                "brand": "Nah & Frisch",
                "brand:wikidata": "Q1963643",
                "brand:wikipedia": "de:Nah & Frisch",
                "name": "Nah & Frisch",
                "opening_hours": "Mo-Fr 06:30-12:00, 16:00-18:00; Sa 07:00-12:00",
                "payment:cash": "yes",
                "payment:debit_cards": "yes",
                "shop": "supermarket"
              },
              "geometry": {
                "type": "Point",
                "coordinates": [
                  15.0826001,
                  48.832584
                ]
              }
            },
            {
              "type": "Feature",
              "properties": {
                "id": "2428442778",
                "osm_type": "node",
                "lat": 48.7930748,
                "lon": 15.0680445,
                "addr:city": "Schrems",
                "addr:country": "AT",
                "addr:housenumber": "13",
                "addr:postcode": "3943",
                "addr:street": "Schulgasse",
                "at_bev:addr_date": "2020-04-01",
                "name": "Billa",
                "opening_hours": "Mo-Th 07:15-19:00; Fr 07:15-19:30; Sa 07:15-18:00",
                "shop": "supermarket",
                "wheelchair": "yes"
              },
              "geometry": {
                "type": "Point",
                "coordinates": [
                  15.0680445,
                  48.7930748
                ]
              }
            },
            {
              "type": "Feature",
              "properties": {
                "id": "2428442780",
                "osm_type": "node",
                "lat": 48.7928213,
                "lon": 15.0672922,
                "addr:city": "Schrems",
                "addr:country": "AT",
                "addr:housenumber": "15",
                "addr:postcode": "3943",
                "addr:street": "Schulgasse",
                "at_bev:addr_date": "2020-04-01",
                "name": "Hofer",
                "operator": "Hofer KG",
                "shop": "supermarket",
                "wheelchair": "yes"
              },
              "geometry": {
                "type": "Point",
                "coordinates": [
                  15.0672922,
                  48.7928213
                ]
              }
            },
            {
              "type": "Feature",
              "properties": {
                "id": "4266251696",
                "osm_type": "node",
                "lat": 48.7903937,
                "lon": 15.0702974,
                "brand": "Spar",
                "brand:wikidata": "Q610492",
                "brand:wikipedia": "en:Spar (retailer)",
                "contact:phone": "+43 2853 72131",
                "email": "office@spar.at",
                "name": "Spar",
                "opening_hours": "Mo-Fr 07:15-19:30; Sa 07:15-18:00",
                "operator": "Spar Österreichische Warenhandels-AG",
                "shop": "supermarket",
                "website": "https://www.spar.at/"
              },
              "geometry": {
                "type": "Point",
                "coordinates": [
                  15.0702974,
                  48.7903937
                ]
              }
            },
            {
              "type": "Feature",
              "properties": {
                "id": "4266321132",
                "osm_type": "node",
                "lat": 48.791814,
                "lon": 15.0696414,
                "addr:city": "Schrems",
                "addr:country": "AT",
                "addr:housenumber": "17",
                "addr:postcode": "3943",
                "addr:street": "Josef-Widy-Straße",
                "brand": "Lidl",
                "brand:wikidata": "Q151954",
                "brand:wikipedia": "en:Lidl",
                "name": "Lidl",
                "opening_hours": "Mo-Fr 07:40-20:00; Sa 07:40-18:00",
                "operator": "Lidl Österreich GmbH",
                "phone": "+43800 500810",
                "shop": "supermarket",
                "website": "https://www.lidl.at/"
              },
              "geometry": {
                "type": "Point",
                "coordinates": [
                  15.0696414,
                  48.791814
                ]
              }
            },
            {
              "type": "Feature",
              "properties": {
                "id": "5338796206",
                "osm_type": "node",
                "lat": 48.70289,
                "lon": 15.223112,
                "name": "Nah&Frisch Schindler",
                "shop": "supermarket"
              },
              "geometry": {
                "type": "Point",
                "coordinates": [
                  15.223112,
                  48.70289
                ]
              }
            }
          ],
          "children": []
        },
        {
          "bbox": {
            "south": 48.851801374999994,
            "west": 14.2994695,
            "north": 49.017078,
            "east": 14.77632125
          },
          "poiCount": 35,
          "leafCount": 35,
          "averagePosition": [
            14.502484437142858,
            48.98332253142857
          ],
          "data": [
            {
              "type": "Feature",
              "properties": {
                "id": "296720196",
                "osm_type": "node",
                "lat": 48.9709296,
                "lon": 14.5037057,
                "addr:city": "České Budějovice",
                "addr:conscriptionnumber": "708",
                "addr:country": "CZ",
                "addr:housenumber": "708/2",
                "addr:postcode": "37006",
                "addr:street": "Suchovrbenské nám.",
                "addr:streetnumber": "2",
                "brand": "Albert",
                "brand:wikidata": "Q9144241",
                "brand:wikipedia": "cs:Albert (obchodní řetězec)",
                "indoor": "level",
                "level": "1",
                "name": "Albert",
                "opening_hours": "Mo-Su 07:00-21:00",
                "ref:ruian:addr": "25041037",
                "shop": "supermarket",
                "source:addr": "cuzk:ruian"
              },
              "geometry": {
                "type": "Point",
                "coordinates": [
                  14.5037057,
                  48.9709296
                ]
              }
            },
            {
              "type": "Feature",
              "properties": {
                "id": "496878173",
                "osm_type": "node",
                "lat": 48.983816,
                "lon": 14.4394696,
                "brand": "PENNY",
                "brand:wikidata": "Q284688",
                "brand:wikipedia": "en:Penny (supermarket)",
                "name": "PENNY",
                "shop": "supermarket"
              },
              "geometry": {
                "type": "Point",
                "coordinates": [
                  14.4394696,
                  48.983816
                ]
              }
            },
            {
              "type": "Feature",
              "properties": {
                "id": "496878177",
                "osm_type": "node",
                "lat": 48.9823014,
                "lon": 14.4422383,
                "addr:city": "České Budějovice",
                "addr:housenumber": "1364/2",
                "addr:postcode": "37005",
                "addr:street": "M. Horákové",
                "brand": "Albert",
                "brand:wikidata": "Q9144241",
                "brand:wikipedia": "cs:Albert (obchodní řetězec)",
                "level": "0",
                "name": "Albert",
                "opening_hours": "Mo-Su 07:00-21:00",
                "organic": "yes",
                "payment:coins": "yes",
                "payment:contactless": "yes",
                "payment:maestro": "yes",
                "payment:mastercard": "yes",
                "payment:notes": "yes",
                "payment:visa": "yes",
                "shop": "supermarket",
                "wheelchair": "yes"
              },
              "geometry": {
                "type": "Point",
                "coordinates": [
                  14.4422383,
                  48.9823014
                ]
              }
            },
            {
              "type": "Feature",
              "properties": {
                "id": "496878181",
                "osm_type": "node",
                "lat": 48.9803245,
                "lon": 14.4407911,
                "brand": "Billa",
                "brand:wikidata": "Q42969493",
                "brand:wikipedia": "en:Billa (supermarket)",
                "name": "Billa",
                "shop": "supermarket",
                "wheelchair": "yes"
              },
              "geometry": {
                "type": "Point",
                "coordinates": [
                  14.4407911,
                  48.9803245
                ]
              }
            },
            {
              "type": "Feature",
              "properties": {
                "id": "723055599",
                "osm_type": "node",
                "lat": 48.9546504,
                "lon": 14.4974322,
                "brand": "Penny",
                "brand:wikidata": "Q284688",
                "brand:wikipedia": "en:Penny (supermarket)",
                "check_date:opening_hours": "2021-09-17",
                "name": "PENNY",
                "opening_hours": "Mo-Su 07:00-20:00",
                "shop": "supermarket"
              },
              "geometry": {
                "type": "Point",
                "coordinates": [
                  14.4974322,
                  48.9546504
                ]
              }
            },
            {
              "type": "Feature",
              "properties": {
                "id": "1222099174",
                "osm_type": "node",
                "lat": 48.9818885,
                "lon": 14.4463412,
                "addr:city": "České Budějovice",
                "addr:housenumber": "926/20",
                "addr:postcode": "37005",
                "addr:street": "J. Opletala",
                "brand": "Billa",
                "brand:wikidata": "Q42969493",
                "brand:wikipedia": "en:Billa (supermarket)",
                "name": "Billa",
                "shop": "supermarket",
                "wheelchair": "yes"
              },
              "geometry": {
                "type": "Point",
                "coordinates": [
                  14.4463412,
                  48.9818885
                ]
              }
            },
            {
              "type": "Feature",
              "properties": {
                "id": "2410887021",
                "osm_type": "node",
                "lat": 48.9677153,
                "lon": 14.471481,
                "addr:city": "České Budějovice",
                "addr:conscriptionnumber": "2148",
                "addr:country": "CZ",
                "addr:housenumber": "2148",
                "addr:postcode": "37001",
                "addr:street": "B. Němcové",
                "brand": "Lidl",
                "brand:wikidata": "Q151954",
                "brand:wikipedia": "en:Lidl",
                "check_date": "2025-04-15",
                "name": "Lidl",
                "name:cs": "Lidl",
                "opening_hours": "Mo-Sa 07:00-22:00; Su 08:00-22:00",
                "organic": "yes",
                "second_hand": "no",
                "shop": "supermarket",
                "source:addr": "cuzk:ruian",
                "stroller": "limited",
                "wheelchair": "yes"
              },
              "geometry": {
                "type": "Point",
                "coordinates": [
                  14.471481,
                  48.9677153
                ]
              }
            },
            {
              "type": "Feature",
              "properties": {
                "id": "2475373736",
                "osm_type": "node",
                "lat": 48.9727603,
                "lon": 14.4872573,
                "addr:city": "České Budějovice",
                "addr:housenumber": "1759",
                "addr:postcode": "37001",
                "addr:street": "Nádražní",
                "branch": "Hypermarket",
                "brand": "Albert",
                "brand:wikidata": "Q9144241",
                "brand:wikipedia": "cs:Albert (obchodní řetězec)",
                "level": "0",
                "name": "Albert",
                "shop": "supermarket",
                "source": "survey"
              },
              "geometry": {
                "type": "Point",
                "coordinates": [
                  14.4872573,
                  48.9727603
                ]
              }
            },
            {
              "type": "Feature",
              "properties": {
                "id": "2475405714",
                "osm_type": "node",
                "lat": 48.9739281,
                "lon": 14.481801,
                "brand": "Billa",
                "brand:wikidata": "Q42969493",
                "brand:wikipedia": "de:Billa",
                "name": "Billa",
                "shop": "supermarket"
              },
              "geometry": {
                "type": "Point",
                "coordinates": [
                  14.481801,
                  48.9739281
                ]
              }
            },
            {
              "type": "Feature",
              "properties": {
                "id": "3090283931",
                "osm_type": "node",
                "lat": 48.9842406,
                "lon": 14.4733579,
                "addr:city": "České Budějovice",
                "addr:housenumber": "1247/24",
                "addr:postcode": "37004",
                "addr:street": "Pekárenská",
                "brand": "Albert",
                "brand:wikidata": "Q9144241",
                "brand:wikipedia": "cs:Albert (obchodní řetězec)",
                "name": "Albert",
                "opening_hours": "Mo-Su 07:00-21:00",
                "shop": "supermarket"
              },
              "geometry": {
                "type": "Point",
                "coordinates": [
                  14.4733579,
                  48.9842406
                ]
              }
            },
            {
              "type": "Feature",
              "properties": {
                "id": "3711590540",
                "osm_type": "node",
                "lat": 48.9826729,
                "lon": 14.4809191,
                "addr:city": "České Budějovice",
                "addr:housenumber": "2783/39",
                "addr:postcode": "37004",
                "addr:street": "Pekárenská",
                "brand": "Billa",
                "brand:wikidata": "Q42969493",
                "brand:wikipedia": "en:Billa (supermarket)",
                "check_date": "2025-05-23",
                "name": "Billa",
                "shop": "supermarket",
                "wheelchair": "yes"
              },
              "geometry": {
                "type": "Point",
                "coordinates": [
                  14.4809191,
                  48.9826729
                ]
              }
            },
            {
              "type": "Feature",
              "properties": {
                "id": "3868593924",
                "osm_type": "node",
                "lat": 48.9972585,
                "lon": 14.4542451,
                "brand": "Lidl",
                "brand:wikidata": "Q151954",
                "brand:wikipedia": "en:Lidl",
                "name": "Lidl",
                "opening_hours": "Mo-Sa 07:00-21:00; Su 08:00-21:00",
                "shop": "supermarket",
                "wheelchair": "yes"
              },
              "geometry": {
                "type": "Point",
                "coordinates": [
                  14.4542451,
                  48.9972585
                ]
              }
            },
            {
              "type": "Feature",
              "properties": {
                "id": "3868598994",
                "osm_type": "node",
                "lat": 48.9919384,
                "lon": 14.4679666,
                "brand": "Penny",
                "brand:wikidata": "Q284688",
                "brand:wikipedia": "en:Penny (supermarket)",
                "name": "PENNY",
                "shop": "supermarket"
              },
              "geometry": {
                "type": "Point",
                "coordinates": [
                  14.4679666,
                  48.9919384
                ]
              }
            },
            {
              "type": "Feature",
              "properties": {
                "id": "3868606438",
                "osm_type": "node",
                "lat": 48.983715,
                "lon": 14.4699113,
                "addr:city": "České Budějovice",
                "addr:housename": "Družba",
                "addr:housenumber": "2176/65",
                "addr:postcode": "37004",
                "addr:street": "Pražská tř.",
                "name": "Trefa",
                "opening_hours": "Mo-Fr 07:00-19:00; Sa 07:00-18:00; Su 08:00-11:00",
                "shop": "supermarket"
              },
              "geometry": {
                "type": "Point",
                "coordinates": [
                  14.4699113,
                  48.983715
                ]
              }
            },
            {
              "type": "Feature",
              "properties": {
                "id": "3899749115",
                "osm_type": "node",
                "lat": 48.9736535,
                "lon": 14.4739025,
                "addr:city": "České Budějovice",
                "addr:housenumber": "36",
                "addr:postcode": "37001",
                "addr:street": "nám. Přemysla Otakara II.",
                "brand": "NORMA",
                "brand:wikidata": "Q450180",
                "brand:wikipedia": "de:Norma (Supermarkt)",
                "check_date": "2025-04-23",
                "level": "-1",
                "name": "NORMA",
                "shop": "supermarket",
                "wheelchair": "yes"
              },
              "geometry": {
                "type": "Point",
                "coordinates": [
                  14.4739025,
                  48.9736535
                ]
              }
            },
            {
              "type": "Feature",
              "properties": {
                "id": "4434463390",
                "osm_type": "node",
                "lat": 48.9936086,
                "lon": 14.4685822,
                "addr:city": "České Budějovice",
                "addr:housenumber": "1272",
                "addr:postcode": "37004",
                "addr:street": "Strakonická",
                "air_conditioning": "yes",
                "branch": "hypermarket",
                "brand": "Albert",
                "brand:wikidata": "Q9144241",
                "check_date": "2025-04-16",
                "currency:EUR": "yes",
                "internet_access": "wlan",
                "internet_access:fee": "no",
                "name": "Albert",
                "opening_hours": "7:00-21:00",
                "operator": "AHOLD Czech Republic, a.s.",
                "payment:cash": "yes",
                "payment:credit_cards": "yes",
                "payment:debit_cards": "yes",
                "shop": "supermarket",
                "stroller": "yes",
                "website": "https://www.albert.cz/",
                "wheelchair": "yes"
              },
              "geometry": {
                "type": "Point",
                "coordinates": [
                  14.4685822,
                  48.9936086
                ]
              }
            },
            {
              "type": "Feature",
              "properties": {
                "id": "4434498789",
                "osm_type": "node",
                "lat": 48.994249,
                "lon": 14.4699707,
                "air_conditioning": "yes",
                "brand": "Coop Terno",
                "brand:wikidata": "Q52851660",
                "check_date": "2025-05-04",
                "currency:CZK": "yes",
                "email": "terno@jednotacb.cz",
                "internet_access": "wlan",
                "internet_access:fee": "no",
                "name": "Coop Terno",
                "opening_hours": "07:00-21:00",
                "operator": "Jednota, s.d.",
                "payment:cash": "yes",
                "payment:credit_cards": "yes",
                "payment:debit_cards": "yes",
                "phone": "+420 387 015 111",
                "shop": "supermarket",
                "stroller": "yes",
                "website": "https://www.terno.cz/terno-ceske-budejovice/?supermarket=ceske-budejovice",
                "wheelchair": "yes"
              },
              "geometry": {
                "type": "Point",
                "coordinates": [
                  14.4699707,
                  48.994249
                ]
              }
            },
            {
              "type": "Feature",
              "properties": {
                "id": "4678520278",
                "osm_type": "node",
                "lat": 48.9793649,
                "lon": 14.4963268,
                "brand": "Penny",
                "brand:wikidata": "Q284688",
                "brand:wikipedia": "en:Penny (supermarket)",
                "name": "PENNY",
                "opening_hours": "Mo-Su 07:00-20:00",
                "shop": "supermarket",
                "wheelchair": "yes"
              },
              "geometry": {
                "type": "Point",
                "coordinates": [
                  14.4963268,
                  48.9793649
                ]
              }
            },
            {
              "type": "Feature",
              "properties": {
                "id": "4784299602",
                "osm_type": "node",
                "lat": 48.9835254,
                "lon": 14.4346269,
                "brand": "Norma",
                "brand:wikidata": "Q450180",
                "brand:wikipedia": "de:Norma (Handelskette)",
                "name": "Norma",
                "shop": "supermarket"
              },
              "geometry": {
                "type": "Point",
                "coordinates": [
                  14.4346269,
                  48.9835254
                ]
              }
            },
            {
              "type": "Feature",
              "properties": {
                "id": "5766975326",
                "osm_type": "node",
                "lat": 48.9955053,
                "lon": 14.452259,
                "name": "Trefa",
                "opening_hours": "Mo-Fr 07:00-19:00; Sa 06:00-18:00; Su 07:00-11:00",
                "shop": "supermarket",
                "wheelchair": "yes"
              },
              "geometry": {
                "type": "Point",
                "coordinates": [
                  14.452259,
                  48.9955053
                ]
              }
            },
            {
              "type": "Feature",
              "properties": {
                "id": "6139487254",
                "osm_type": "node",
                "lat": 48.9867381,
                "lon": 14.4383419,
                "name": "Pramen",
                "shop": "supermarket"
              },
              "geometry": {
                "type": "Point",
                "coordinates": [
                  14.4383419,
                  48.9867381
                ]
              }
            },
            {
              "type": "Feature",
              "properties": {
                "id": "6399616591",
                "osm_type": "node",
                "lat": 48.9589998,
                "lon": 14.4909668,
                "shop": "supermarket"
              },
              "geometry": {
                "type": "Point",
                "coordinates": [
                  14.4909668,
                  48.9589998
                ]
              }
            },
            {
              "type": "Feature",
              "properties": {
                "id": "6497582636",
                "osm_type": "node",
                "lat": 48.976285,
                "lon": 14.4739066,
                "addr:city": "České Budějovice",
                "addr:housenumber": "16",
                "addr:postcode": "37001",
                "addr:street": "Krajinská",
                "branch": "Expres",
                "brand": "Tesco",
                "brand:wikidata": "Q487494",
                "brand:wikipedia": "en:Tesco",
                "level": "0",
                "name": "Tesco",
                "shop": "supermarket",
                "wheelchair": "yes"
              },
              "geometry": {
                "type": "Point",
                "coordinates": [
                  14.4739066,
                  48.976285
                ]
              }
            },
            {
              "type": "Feature",
              "properties": {
                "id": "7394458030",
                "osm_type": "node",
                "lat": 48.9785471,
                "lon": 14.4722137,
                "brand": "Billa",
                "brand:wikidata": "Q42969493",
                "brand:wikipedia": "en:Billa (supermarket)",
                "level": "0",
                "name": "Billa",
                "opening_hours": "Mo-Sa 07:00-21:00; Su 08:00-21:00",
                "shop": "supermarket"
              },
              "geometry": {
                "type": "Point",
                "coordinates": [
                  14.4722137,
                  48.9785471
                ]
              }
            },
            {
              "type": "Feature",
              "properties": {
                "id": "8292456754",
                "osm_type": "node",
                "lat": 48.9965287,
                "lon": 14.4893806,
                "addr:postcode": "37001",
                "addr:street": "Za Otýlií",
                "air_conditioning": "yes",
                "brand": "Lidl",
                "brand:wikidata": "Q151954",
                "brand:wikipedia": "en:Lidl",
                "check_date": "2025-05-09",
                "currency:CZK": "yes",
                "email": "hotline@lidl.cz",
                "internet_access": "wlan",
                "internet_access:fee": "no",
                "name": "Lidl",
                "opening_hours": "Mo-Sa 07:00-21:00; Su 08:00-21:00",
                "payment:cash": "yes",
                "payment:credit_cards": "yes",
                "payment:debit_cards": "yes",
                "phone": "+420800115435",
                "shop": "supermarket",
                "stroller": "yes",
                "website": "https://www.lidl.cz/",
                "wheelchair": "yes"
              },
              "geometry": {
                "type": "Point",
                "coordinates": [
                  14.4893806,
                  48.9965287
                ]
              }
            },
            {
              "type": "Feature",
              "properties": {
                "id": "8306866849",
                "osm_type": "node",
                "lat": 49.0147512,
                "lon": 14.4948294,
                "brand": "Norma",
                "brand:wikidata": "Q450180",
                "brand:wikipedia": "de:Norma (Handelskette)",
                "check_date": "2025-04-21",
                "check_date:opening_hours": "2025-04-21",
                "name": "Norma",
                "opening_hours": "Mo-Su 07:00-20:00",
                "shop": "supermarket",
                "wheelchair": "yes"
              },
              "geometry": {
                "type": "Point",
                "coordinates": [
                  14.4948294,
                  49.0147512
                ]
              }
            },
            {
              "type": "Feature",
              "properties": {
                "id": "9405898186",
                "osm_type": "node",
                "lat": 48.9742153,
                "lon": 14.4804246,
                "addr:city": "České Budějovice",
                "addr:housenumber": "207/12",
                "addr:postcode": "37001",
                "addr:street": "Lannova tř.",
                "brand": "Albert",
                "brand:wikidata": "Q9144241",
                "brand:wikipedia": "cs:Albert (obchodní řetězec)",
                "name": "Albert",
                "opening_hours": "Mo-Su 06:00-21:00",
                "shop": "supermarket",
                "wheelchair": "yes"
              },
              "geometry": {
                "type": "Point",
                "coordinates": [
                  14.4804246,
                  48.9742153
                ]
              }
            },
            {
              "type": "Feature",
              "properties": {
                "id": "9423770014",
                "osm_type": "node",
                "lat": 48.9678949,
                "lon": 14.4724501,
                "brand": "Billa",
                "brand:wikidata": "Q42969493",
                "brand:wikipedia": "de:Billa",
                "check_date": "2025-04-15",
                "check_date:opening_hours": "2025-04-15",
                "name": "Billa",
                "opening_hours": "Mo-Sa 07:00-21:00; Su 08:00-21:00",
                "shop": "supermarket",
                "wheelchair": "yes"
              },
              "geometry": {
                "type": "Point",
                "coordinates": [
                  14.4724501,
                  48.9678949
                ]
              }
            },
            {
              "type": "Feature",
              "properties": {
                "id": "12273431862",
                "osm_type": "node",
                "lat": 48.9882259,
                "lon": 14.5221201,
                "brand": "Billa",
                "brand:wikidata": "Q42969493",
                "name": "Billa",
                "opening_hours": "Mo-Sa 07:00-21:00; Su 08:00-21:00",
                "shop": "supermarket",
                "wheelchair": "yes"
              },
              "geometry": {
                "type": "Point",
                "coordinates": [
                  14.5221201,
                  48.9882259
                ]
              }
            },
            {
              "type": "Feature",
              "properties": {
                "id": "454609324",
                "osm_type": "node",
                "lat": 49.0084503,
                "lon": 14.7560585,
                "brand": "PENNY",
                "brand:wikidata": "Q284688",
                "brand:wikipedia": "en:Penny (supermarket)",
                "name": "PENNY",
                "shop": "supermarket",
                "wheelchair": "yes"
              },
              "geometry": {
                "type": "Point",
                "coordinates": [
                  14.7560585,
                  49.0084503
                ]
              }
            },
            {
              "type": "Feature",
              "properties": {
                "id": "942823978",
                "osm_type": "node",
                "lat": 49.0160878,
                "lon": 14.6103633,
                "name": "Supermarket TREFA",
                "opening_hours": "Mo-Sa 06:30-18:00; Su 08:00-12:00",
                "shop": "supermarket"
              },
              "geometry": {
                "type": "Point",
                "coordinates": [
                  14.6103633,
                  49.0160878
                ]
              }
            },
            {
              "type": "Feature",
              "properties": {
                "id": "2388625245",
                "osm_type": "node",
                "lat": 48.8992131,
                "lon": 14.6415855,
                "name": "Trefa",
                "opening_hours": "Mo-Fr 06:30-19:00; Su 6:30 - 18:00; Sa 7:00 - 18:00",
                "shop": "supermarket"
              },
              "geometry": {
                "type": "Point",
                "coordinates": [
                  14.6415855,
                  48.8992131
                ]
              }
            },
            {
              "type": "Feature",
              "properties": {
                "id": "3768640294",
                "osm_type": "node",
                "lat": 49.0104094,
                "lon": 14.7591646,
                "brand": "Kaufland",
                "brand:wikidata": "Q685967",
                "brand:wikipedia": "en:Kaufland",
                "check_date:opening_hours": "2023-05-19",
                "name": "Kaufland",
                "opening_hours": "Mo-Su 07:00-22:00",
                "shop": "supermarket",
                "website": "https://prodejny.kaufland.cz/aktualne/servis/prodejna/trebon-1450.html",
                "wheelchair": "yes"
              },
              "geometry": {
                "type": "Point",
                "coordinates": [
                  14.7591646,
                  49.0104094
                ]
              }
            },
            {
              "type": "Feature",
              "properties": {
                "id": "7840821264",
                "osm_type": "node",
                "lat": 49.0004538,
                "lon": 14.5402685,
                "addr:city": "Adamov",
                "addr:housenumber": "45",
                "addr:postcode": "37371",
                "addr:street": "Dělnická",
                "email": "info@jednotacb.cz",
                "name": "Trefa supermarket",
                "name:en": "Trefa Supermarket",
                "opening_hours": "Tu-Fr 07:30-12:00 Mo 07:30-11:00 Mo-Fr 14:00-17:00 Sa 07:30-11:00",
                "payment:credit_cards": "yes",
                "payment:mastercard": "yes",
                "phone": "+420773764511",
                "shop": "supermarket",
                "website": "https://www.trefasupermarket.cz/"
              },
              "geometry": {
                "type": "Point",
                "coordinates": [
                  14.5402685,
                  49.0004538
                ]
              }
            },
            {
              "type": "Feature",
              "properties": {
                "id": "12460522238",
                "osm_type": "node",
                "lat": 49.011442,
                "lon": 14.5922956,
                "addr:city": "Lišov",
                "addr:housenumber": "1103",
                "addr:postcode": "37372",
                "addr:street": "třída 5. května",
                "brand": "Billa",
                "brand:wikidata": "Q42969493",
                "name": "Billa",
                "opening_hours": "Mo-Sa 07:00-21:00; Su 08:00-21:00",
                "shop": "supermarket",
                "wheelchair": "yes"
              },
              "geometry": {
                "type": "Point",
                "coordinates": [
                  14.5922956,
                  49.011442
                ]
              }
            }
          ],
          "children": []
        },
        {
          "bbox": {
            "south": 48.851801374999994,
            "west": 14.77632125,
            "north": 49.017078,
            "east": 15.253173
          },
          "poiCount": 10,
          "leafCount": 10,
          "averagePosition": [
            15.078517880000001,
            48.899757640000004
          ],
          "data": [
            {
              "type": "Feature",
              "properties": {
                "id": "300431678",
                "osm_type": "node",
                "lat": 48.8667116,
                "lon": 15.1197794,
                "check_date:opening_hours": "2024-10-20",
                "name": "Spar",
                "opening_hours": "Mo-Fr 07:15-19:30; Sa 07:15-18:00",
                "shop": "supermarket",
                "wheelchair": "yes"
              },
              "geometry": {
                "type": "Point",
                "coordinates": [
                  15.1197794,
                  48.8667116
                ]
              }
            },
            {
              "type": "Feature",
              "properties": {
                "id": "937302018",
                "osm_type": "node",
                "lat": 48.858984,
                "lon": 15.1196267,
                "addr:city": "Heidenreichstein",
                "addr:housenumber": "25b",
                "addr:postcode": "3860",
                "addr:street": "Schremser Straße",
                "name": "Penny",
                "opening_hours": "Mo-Fr 07:15-19:00; Sa 07:15-17:00",
                "shop": "supermarket",
                "wheelchair": "yes"
              },
              "geometry": {
                "type": "Point",
                "coordinates": [
                  15.1196267,
                  48.858984
                ]
              }
            },
            {
              "type": "Feature",
              "properties": {
                "id": "1414923326",
                "osm_type": "node",
                "lat": 48.8655755,
                "lon": 15.1234074,
                "addr:city": "Heidenreichstein",
                "addr:housenumber": "16",
                "addr:postcode": "3860",
                "addr:street": "Stadtplatz",
                "name": "Nuria",
                "organic": "only",
                "shop": "supermarket",
                "website": "http://nuria-bio.at/"
              },
              "geometry": {
                "type": "Point",
                "coordinates": [
                  15.1234074,
                  48.8655755
                ]
              }
            },
            {
              "type": "Feature",
              "properties": {
                "id": "2530998257",
                "osm_type": "node",
                "lat": 48.8922227,
                "lon": 14.8817694,
                "addr:city": "Suchdol nad Lužnicí",
                "addr:housenumber": "18",
                "addr:postcode": "37806",
                "addr:street": "Pražská",
                "name": "Flop",
                "note": "Prodejna potravin Otevírací doba: Po - Pá 07:00 - 18:00 So 07:00 - 11:00 Ne 08:00 - 11:00",
                "operator": "Flosman a.s.",
                "phone": "+420 384 781 191",
                "shop": "supermarket",
                "website": "http://www.flosman.cz/suchdol.html"
              },
              "geometry": {
                "type": "Point",
                "coordinates": [
                  14.8817694,
                  48.8922227
                ]
              }
            },
            {
              "type": "Feature",
              "properties": {
                "id": "9172315470",
                "osm_type": "node",
                "lat": 48.9586379,
                "lon": 14.9342273,
                "name": "Potraviny Flop TOP",
                "opening_hours": "Mo-Fr 06:30-18:00; Sa, Su 07:00-18:00",
                "shop": "supermarket"
              },
              "geometry": {
                "type": "Point",
                "coordinates": [
                  14.9342273,
                  48.9586379
                ]
              }
            },
            {
              "type": "Feature",
              "properties": {
                "id": "9834072317",
                "osm_type": "node",
                "lat": 48.8926599,
                "lon": 14.880267,
                "brand": "PENNY",
                "brand:wikidata": "Q284688",
                "check_date": "2025-05-29",
                "name": "PENNY",
                "shop": "supermarket",
                "wheelchair": "yes"
              },
              "geometry": {
                "type": "Point",
                "coordinates": [
                  14.880267,
                  48.8926599
                ]
              }
            },
            {
              "type": "Feature",
              "properties": {
                "id": "870841896",
                "osm_type": "node",
                "lat": 48.9433275,
                "lon": 15.0461008,
                "addr:city": "Litschau",
                "addr:country": "AT",
                "addr:housenumber": "4",
                "addr:postcode": "3874",
                "addr:street": "Südstraße",
                "name": "Billa",
                "opening_hours": "Mo-Fr 07:15-19:30; Sa 07:15-18:00",
                "shop": "supermarket",
                "wheelchair": "yes"
              },
              "geometry": {
                "type": "Point",
                "coordinates": [
                  15.0461008,
                  48.9433275
                ]
              }
            },
            {
              "type": "Feature",
              "properties": {
                "id": "4283886727",
                "osm_type": "node",
                "lat": 48.8929417,
                "lon": 15.2225598,
                "addr:city": "Gastern",
                "addr:housenumber": "2/1",
                "addr:postcode": "3852",
                "addr:street": "Hauptstraße",
                "branch": "Dorfladen",
                "brand": "Nah & Frisch",
                "brand:wikidata": "Q1963643",
                "name": "Nah & Frisch",
                "operator": "Nah & Frisch",
                "shop": "supermarket",
                "wheelchair": "yes"
              },
              "geometry": {
                "type": "Point",
                "coordinates": [
                  15.2225598,
                  48.8929417
                ]
              }
            },
            {
              "type": "Feature",
              "properties": {
                "id": "7133553468",
                "osm_type": "node",
                "lat": 48.8965484,
                "lon": 15.2182767,
                "addr:city": "Gastern",
                "addr:housenumber": "21b",
                "addr:postcode": "3852",
                "addr:street": "Hauptstraße",
                "name": "Dangl's Hofladen",
                "opening_hours": "Tu 07:00-11:00,14:00-17:00",
                "payment:cash": "yes",
                "shop": "supermarket",
                "website": "dangls-hofladen.at",
                "wheelchair": "no"
              },
              "geometry": {
                "type": "Point",
                "coordinates": [
                  15.2182767,
                  48.8965484
                ]
              }
            },
            {
              "type": "Feature",
              "properties": {
                "id": "11027498583",
                "osm_type": "node",
                "lat": 48.9299672,
                "lon": 15.2391643,
                "branch": "Kainz",
                "brand": "ADEG",
                "brand:wikidata": "Q290211",
                "name": "ADEG",
                "opening_hours": "Mo-Sa 06:30-12:00; Tu-Fr 14:00-18:00",
                "shop": "supermarket"
              },
              "geometry": {
                "type": "Point",
                "coordinates": [
                  15.2391643,
                  48.9299672
                ]
              }
            }
          ],
          "children": []
        }
      ]
    }
  ]
}