{
  "bbox": {
    "south": 48.355971499999995,
    "west": 15.253173,
    "north": 49.017078,
    "east": 17.16058
  },
  "poiCount": 177,
  "leafCount": 0,
  "averagePosition": [
    16.222215156497175,
    48.64049137288136
  ],
  "data": [],
  "children": [
    {
      "bbox": {
        "south": 48.355971499999995,
        "west": 15.253173,
        "north": 48.68652475,
        "east": 16.2068765
      },
      "poiCount": 49,
      "leafCount": 49,
      "averagePosition": [
        15.682842297959183,
        48.461060320408166
      ],
      "data": [
        {
          "type": "Feature",
          "properties": {
            "id": "7346679476",
            "osm_type": "node",
            "lat": 48.3645335,
            "lon": 15.4174185,
            "addr:city": "Spitz",
            "addr:country": "AT",
            "addr:housenumber": "2",
            "addr:postcode": "3620",
            "addr:street": "Teichbach",
            "brand": "Spar",
            "brand:wikidata": "Q610492",
            "brand:wikipedia": "en:SPAR (retailer)",
            "check_date:opening_hours": "2025-07-24",
            "email": "eh40995@sparmarkt.at",
            "name": "Spar",
            "opening_hours": "Mo-Fr 06:45-19:00; Sa 07:15-18:00",
            "phone": "+43 2713 72 901",
            "shop": "supermarket",
            "website": "https://www.spar.at/standorte/spar-spitz-3620-teichbach-2"
          },
          "geometry": {
            "type": "Point",
            "coordinates": [
              15.4174185,
              48.3645335
            ]
          }
        },
        {
          "type": "Feature",
          "properties": {
            "id": "513404858",
            "osm_type": "node",
            "lat": 48.5745724,
            "lon": 15.3312958,
            "addr:city": "Rastenfeld",
            "addr:housenumber": "25",
            "addr:place": "Rastenfeld",
            "addr:postcode": "3532",
            "name": "Nah & Frisch",
            "opening_hours": "Mo, We-Fr 06:30-18:30; Tu, Sa 06:30-12:00; Su 08:00-10:30",
            "shop": "supermarket",
            "website": "https://www.nahundfrisch.at/de/kaufmann/maria-poell-kg"
          },
          "geometry": {
            "type": "Point",
            "coordinates": [
              15.3312958,
              48.5745724
            ]
          }
        },
        {
          "type": "Feature",
          "properties": {
            "id": "582495836",
            "osm_type": "node",
            "lat": 48.3935723,
            "lon": 15.5240793,
            "addr:city": "Dürnstein",
            "addr:country": "AT",
            "addr:housenumber": "132",
            "addr:place": "Dürnstein",
            "addr:postcode": "3601",
            "brand": "Nah & Frisch",
            "brand:wikidata": "Q1963643",
            "brand:wikipedia": "de:Nah & Frisch",
            "name": "Nah & Frisch",
            "shop": "supermarket",
            "wheelchair": "yes"
          },
          "geometry": {
            "type": "Point",
            "coordinates": [
              15.5240793,
              48.3935723
            ]
          }
        },
        {
          "type": "Feature",
          "properties": {
            "id": "830002042",
            "osm_type": "node",
            "lat": 48.5160822,
            "lon": 15.4922295,
            "addr:city": "Gföhl",
            "addr:housenumber": "7",
            "addr:postcode": "3542",
            "addr:street": "Körnermarkt",
            "brand": "Spar",
            "brand:wikidata": "Q610492",
            "check_date": "2025-05-30",
            "name": "Spar",
            "opening_hours": "Mo-Th 07:00 - 19:00;Fr 07:00 - 19:30;Sa 07:00 - 18:00",
            "shop": "supermarket",
            "wheelchair": "yes"
          },
          "geometry": {
            "type": "Point",
            "coordinates": [
              15.4922295,
              48.5160822
            ]
          }
        },
        {
          "type": "Feature",
          "properties": {
            "id": "6005441111",
            "osm_type": "node",
            "lat": 48.4323888,
            "lon": 15.4329223,
            "addr:city": "Weißenkirchen in der Wachau",
            "addr:housenumber": "16",
            "addr:place": "Weinzierl am Wald",
            "addr:postcode": "3610",
            "branch": "Elisabeth Glaser",
            "brand": "Spar",
            "brand:wikidata": "Q610492",
            "name": "Spar",
            "operator": "Spar",
            "shop": "supermarket"
          },
          "geometry": {
            "type": "Point",
            "coordinates": [
              15.4329223,
              48.4323888
            ]
          }
        },
        {
          "type": "Feature",
          "properties": {
            "id": "6539827956",
            "osm_type": "node",
            "lat": 48.3943906,
            "lon": 15.4671809,
            "addr:city": "Weißenkirchen in der Wachau",
            "addr:country": "AT",
            "addr:housenumber": "360",
            "addr:postcode": "3610",
            "addr:street": "Landstraße",
            "brand": "Spar",
            "brand:wikidata": "Q610492",
            "brand:wikipedia": "en:SPAR (retailer)",
            "name": "Spar",
            "phone": "+43 2715 728 38",
            "shop": "supermarket",
            "website": "https://www.spar.at",
            "wheelchair": "yes"
          },
          "geometry": {
            "type": "Point",
            "coordinates": [
              15.4671809,
              48.3943906
            ]
          }
        },
        {
          "type": "Feature",
          "properties": {
            "id": "6779709544",
            "osm_type": "node",
            "lat": 48.4957066,
            "lon": 15.3981966,
            "addr:city": "Lichtenau im Waldviertel",
            "addr:country": "AT",
            "addr:housenumber": "63",
            "addr:place": "Lichtenau",
            "addr:postcode": "3522",
            "at_bev:addr_date": "2018-10-01",
            "check_date:opening_hours": "2023-04-20",
            "email": "hg-lichtenau@zwettl.rlh.at",
            "fax": "+43 2718 7003 13",
            "name": "Spar",
            "opening_hours": "Mo-Fr 07:00-18:00; Sa 07:30-17:00",
            "payment:coins": "yes",
            "payment:credit_cards": "yes",
            "payment:debit_cards": "yes",
            "payment:notes": "yes",
            "phone": "+43 2718 7003 18",
            "shop": "supermarket",
            "website": "https://www.spar.at/standorte/spar-lichtenau-3522-lichtenau-63",
            "wheelchair": "yes"
          },
          "geometry": {
            "type": "Point",
            "coordinates": [
              15.3981966,
              48.4957066
            ]
          }
        },
        {
          "type": "Feature",
          "properties": {
            "id": "12874994801",
            "osm_type": "node",
            "lat": 48.5178976,
            "lon": 15.4852792,
            "brand": "Spar",
            "brand:wikidata": "Q610492",
            "name": "Spar",
            "shop": "supermarket",
            "wheelchair": "yes"
          },
          "geometry": {
            "type": "Point",
            "coordinates": [
              15.4852792,
              48.5178976
            ]
          }
        },
        {
          "type": "Feature",
          "properties": {
            "id": "260140406",
            "osm_type": "node",
            "lat": 48.4757521,
            "lon": 15.979505,
            "addr:city": "Großweikersdorf",
            "addr:country": "AT",
            "addr:housenumber": "25",
            "addr:postcode": "3701",
            "addr:street": "Horner Straße",
            "brand": "Billa",
            "brand:wikidata": "Q537781",
            "brand:wikipedia": "en:Billa (supermarket)",
            "contact:phone": "+43 59 9150 3212",
            "name": "Billa",
            "opening_hours": "Mo-Fr 07:15-19:30; Sa 07:15-18:00",
            "shop": "supermarket",
            "wheelchair": "yes"
          },
          "geometry": {
            "type": "Point",
            "coordinates": [
              15.979505,
              48.4757521
            ]
          }
        },
        {
          "type": "Feature",
          "properties": {
            "id": "279141484",
            "osm_type": "node",
            "lat": 48.401577,
            "lon": 15.5805386,
            "addr:city": "Krems an der Donau",
            "addr:country": "AT",
            "addr:housenumber": "2/1",
            "addr:postcode": "3500",
            "addr:street": "Passauerhofgasse",
            "name": "WILLma",
            "opening_hours": "Mo,Th,Fr 08:00-18:00; Tu,Sa 08:00-14:00",
            "organic": "only",
            "phone": "+43 676 455 78 57",
            "shop": "supermarket",
            "website": "https://willma.at/"
          },
          "geometry": {
            "type": "Point",
            "coordinates": [
              15.5805386,
              48.401577
            ]
          }
        },
        {
          "type": "Feature",
          "properties": {
            "id": "307408866",
            "osm_type": "node",
            "lat": 48.5280886,
            "lon": 15.9277987,
            "addr:city": "Ziersdorf",
            "addr:housenumber": "6",
            "addr:postcode": "3710",
            "addr:street": "Hauptplatz",
            "brand": "Penny",
            "brand:wikidata": "Q284688",
            "brand:wikipedia": "en:Penny (supermarket)",
            "name": "Penny",
            "opening_hours": "Mo-Fr 07:30-19:00; Sa 07:30-18:00",
            "shop": "supermarket",
            "wheelchair": "yes"
          },
          "geometry": {
            "type": "Point",
            "coordinates": [
              15.9277987,
              48.5280886
            ]
          }
        },
        {
          "type": "Feature",
          "properties": {
            "id": "416083338",
            "osm_type": "node",
            "lat": 48.4171508,
            "lon": 15.6204431,
            "addr:city": "Krems an der Donau",
            "addr:country": "AT",
            "addr:housenumber": "91",
            "addr:postcode": "3500",
            "addr:street": "Wiener Straße",
            "brand": "Interspar",
            "brand:wikidata": "Q15820339",
            "brand:wikipedia": "de:Interspar (Österreich)",
            "check_date:opening_hours": "2023-01-11",
            "delivery:covid19": "no",
            "level": "0",
            "name": "Interspar",
            "opening_hours": "Mo-Fr 08:00-20:00; Sa 08:00-18:00; PH off",
            "opening_hours:covid19": "Mo-Fr 08:00-20:00; Sa 08:00-18:00",
            "operator": "Interspar",
            "phone": "+43 2732 851 74",
            "shop": "supermarket",
            "takeaway:covid19": "no",
            "website": "https://www.interspar.at",
            "wheelchair": "yes"
          },
          "geometry": {
            "type": "Point",
            "coordinates": [
              15.6204431,
              48.4171508
            ]
          }
        },
        {
          "type": "Feature",
          "properties": {
            "id": "428882157",
            "osm_type": "node",
            "lat": 48.4165025,
            "lon": 15.6262538,
            "addr:city": "Krems an der Donau",
            "addr:country": "AT",
            "addr:housenumber": "8",
            "addr:postcode": "3500",
            "addr:street": "Landersdorfer Straße",
            "branch": "Plus",
            "brand": "Billa",
            "brand:wikidata": "Q537781",
            "brand:wikipedia": "de:Billa",
            "level": "0",
            "name": "Billa Plus",
            "old_name": "Merkur",
            "opening_hours": "Mo-Th 07:20-19:30; Fr 07:20-20:00; Sa 07:20-18:00",
            "phone": "+43 2732 862 20",
            "shop": "supermarket",
            "website": "https://www.billa.at",
            "wheelchair": "yes"
          },
          "geometry": {
            "type": "Point",
            "coordinates": [
              15.6262538,
              48.4165025
            ]
          }
        },
        {
          "type": "Feature",
          "properties": {
            "id": "568457493",
            "osm_type": "node",
            "lat": 48.4727649,
            "lon": 15.7346816,
            "name": "Nah&Frisch",
            "opening_hours": "Mo,We-Fr 06:00-12:00,15:00-18:00; Tu,Sa 06:00-12:00",
            "shop": "supermarket"
          },
          "geometry": {
            "type": "Point",
            "coordinates": [
              15.7346816,
              48.4727649
            ]
          }
        },
        {
          "type": "Feature",
          "properties": {
            "id": "607053307",
            "osm_type": "node",
            "lat": 48.4101396,
            "lon": 15.6038075,
            "addr:city": "Krems an der Donau",
            "addr:country": "AT",
            "addr:housenumber": "20",
            "addr:postcode": "3500",
            "addr:street": "Ringstraße",
            "brand": "Spar",
            "brand:wikidata": "Q610492",
            "brand:wikipedia": "en:SPAR (retailer)",
            "check_date:opening_hours": "2025-06-07",
            "name": "Spar",
            "opening_hours": "Mo-Fr 07:00-19:00; Sa 07:00-18:00",
            "phone": "+43 2732 850 401 1",
            "shop": "supermarket",
            "website": "https://www.spar.at",
            "wheelchair": "yes"
          },
          "geometry": {
            "type": "Point",
            "coordinates": [
              15.6038075,
              48.4101396
            ]
          }
        },
        {
          "type": "Feature",
          "properties": {
            "id": "1700707760",
            "osm_type": "node",
            "lat": 48.4105239,
            "lon": 15.5984268,
            "addr:city": "Krems an der Donau",
            "addr:country": "AT",
            "addr:housenumber": "15",
            "addr:postcode": "3500",
            "addr:street": "Obere Landstraße",
            "atm": "yes",
            "brand": "SPAR Gourmet",
            "brand:wikidata": "Q610492",
            "brand:wikipedia": "de:Spar Österreichische Warenhandels-AG",
            "check_date:opening_hours": "2022-11-09",
            "name": "SPAR Gourmet",
            "opening_hours": "Mo-Fr 07:00-19:15; Sa 07:15-18:00",
            "operator": "Spar Österreichische Warenhandels-AG",
            "phone": "+43 2732 761 59",
            "shop": "supermarket",
            "website": "https://www.spar.at",
            "wheelchair": "yes"
          },
          "geometry": {
            "type": "Point",
            "coordinates": [
              15.5984268,
              48.4105239
            ]
          }
        },
        {
          "type": "Feature",
          "properties": {
            "id": "2000350173",
            "osm_type": "node",
            "lat": 48.5943064,
            "lon": 15.5517171,
            "brand": "Spar",
            "brand:wikidata": "Q610492",
            "name": "Spar",
            "operator": "Raiffeisen Lagerhaus Wolfshoferamt",
            "shop": "supermarket"
          },
          "geometry": {
            "type": "Point",
            "coordinates": [
              15.5517171,
              48.5943064
            ]
          }
        },
        {
          "type": "Feature",
          "properties": {
            "id": "2125439208",
            "osm_type": "node",
            "lat": 48.6640525,
            "lon": 15.6384907,
            "brand": "Billa",
            "brand:wikidata": "Q537781",
            "brand:wikipedia": "en:Billa (supermarket)",
            "name": "Billa",
            "shop": "supermarket",
            "wheelchair": "yes"
          },
          "geometry": {
            "type": "Point",
            "coordinates": [
              15.6384907,
              48.6640525
            ]
          }
        },
        {
          "type": "Feature",
          "properties": {
            "id": "2845561047",
            "osm_type": "node",
            "lat": 48.4090195,
            "lon": 15.596891,
            "addr:city": "Krems an der Donau",
            "addr:country": "AT",
            "addr:housenumber": "1",
            "addr:postcode": "3500",
            "addr:street": "Utzstraße",
            "brand": "Billa",
            "brand:wikidata": "Q537781",
            "brand:wikipedia": "de:Billa",
            "level": "-1",
            "name": "Billa",
            "opening_hours": "Mo-Th 07:15-19:00; Fr 07:15-19:30; Sa 07:15-18:00; Su,PH off",
            "phone": "+43 2732 703 63",
            "shop": "supermarket",
            "website": "https://www.billa.at/",
            "wheelchair": "yes"
          },
          "geometry": {
            "type": "Point",
            "coordinates": [
              15.596891,
              48.4090195
            ]
          }
        },
        {
          "type": "Feature",
          "properties": {
            "id": "3846708502",
            "osm_type": "node",
            "lat": 48.4136859,
            "lon": 15.7732951,
            "addr:city": "Grafenwörth",
            "addr:country": "AT",
            "addr:housenumber": "2",
            "addr:postcode": "3484",
            "addr:street": "Gewerbering",
            "brand": "Hofer",
            "brand:wikidata": "Q15815751",
            "brand:wikipedia": "de:Hofer KG",
            "name": "Hofer",
            "opening_hours": "Mo-Fr 07:40-20:00; Sa 07:40-18:00",
            "shop": "supermarket"
          },
          "geometry": {
            "type": "Point",
            "coordinates": [
              15.7732951,
              48.4136859
            ]
          }
        },
        {
          "type": "Feature",
          "properties": {
            "id": "4215963661",
            "osm_type": "node",
            "lat": 48.392183,
            "lon": 15.5815667,
            "addr:city": "Mautern an der Donau",
            "addr:country": "AT",
            "addr:housenumber": "29",
            "addr:postcode": "3512",
            "addr:street": "Sankt Pöltner Straße",
            "alt_name": "Billa AG",
            "brand": "Billa",
            "brand:wikidata": "Q537781",
            "brand:wikipedia": "de:Billa",
            "name": "Billa",
            "opening_hours": "Mo-Fr 07:15-19:30; Sa 07:15-18:00",
            "phone": "+43 2732 70702",
            "shop": "supermarket",
            "website": "https://www.billa.at/",
            "wheelchair": "yes"
          },
          "geometry": {
            "type": "Point",
            "coordinates": [
              15.5815667,
              48.392183
            ]
          }
        },
        {
          "type": "Feature",
          "properties": {
            "id": "4215963677",
            "osm_type": "node",
            "lat": 48.3928557,
            "lon": 15.5814185,
            "addr:city": "Mautern an der Donau",
            "addr:country": "AT",
            "addr:housenumber": "1",
            "addr:postcode": "3512",
            "addr:street": "Kastellstraße",
            "alt_name": "Spar Supermarkt Mautern",
            "brand": "Spar",
            "brand:wikidata": "Q610492",
            "brand:wikipedia": "en:SPAR (retailer)",
            "name": "Spar",
            "phone": "+43 2732 72830",
            "shop": "supermarket",
            "website": "https://www.spar.at/",
            "wheelchair": "yes"
          },
          "geometry": {
            "type": "Point",
            "coordinates": [
              15.5814185,
              48.3928557
            ]
          }
        },
        {
          "type": "Feature",
          "properties": {
            "id": "4259452406",
            "osm_type": "node",
            "lat": 48.5964997,
            "lon": 15.6607027,
            "addr:city": "Gars am Kamp",
            "addr:country": "AT",
            "addr:housenumber": "7",
            "addr:postcode": "3571",
            "addr:street": "Hauptplatz",
            "at_bev:addr_date": "2018-10-01",
            "brand": "Nah & Frisch",
            "brand:wikidata": "Q1963643",
            "fixme": "Das Geschäft ist als \"Kiennast\" bekannt und neben \"Nah & Frisch\" auch so gebrandet. Ich denke, dass\nname=Kiennast\nzusätzlich zu\nbrand=Nah & Frisch\ndas gut ausdrücken würde, ID gibt aber eine Warnung die mich irritiert, deswegen lass ichs.",
            "name": "Nah & Frisch",
            "opening_hours": "Mo-Fr 07:15-18:30; Sa 07:15-17:00",
            "shop": "supermarket",
            "website": "https://www.nahundfrisch.at/de/kaufmann/kiennast",
            "wheelchair": "yes"
          },
          "geometry": {
            "type": "Point",
            "coordinates": [
              15.6607027,
              48.5964997
            ]
          }
        },
        {
          "type": "Feature",
          "properties": {
            "id": "4283815926",
            "osm_type": "node",
            "lat": 48.4088136,
            "lon": 15.6030842,
            "addr:city": "Krems an der Donau",
            "addr:country": "AT",
            "addr:housenumber": "6",
            "addr:postcode": "3500",
            "addr:street": "Bahnhofplatz",
            "email": "soma.krems@aon.at",
            "name": "SOMA - Sozialmarkt Krems",
            "opening_hours": "Tu,Fr 08:00-15:00; Mo,Th 08:00-14:00",
            "operator": "Verein JOBCARE KREMS",
            "phone": "+43 676 47 91 699",
            "shop": "supermarket",
            "social_facility": "food_bank",
            "social_facility:for": "underprivileged"
          },
          "geometry": {
            "type": "Point",
            "coordinates": [
              15.6030842,
              48.4088136
            ]
          }
        },
        {
          "type": "Feature",
          "properties": {
            "id": "4533671489",
            "osm_type": "node",
            "lat": 48.4415782,
            "lon": 15.8115182,
            "addr:city": "Fels am Wagram",
            "addr:country": "AT",
            "addr:housenumber": "1a",
            "addr:postcode": "3481",
            "addr:street": "An der Bundesstraße",
            "at_bev:addr_date": "2019-10-01",
            "brand": "Billa",
            "brand:wikidata": "Q537781",
            "name": "Billa",
            "opening_hours": "Mo-Fr 07:15-19:30; Sa 07:15-18:00; PH off",
            "shop": "supermarket",
            "wheelchair": "yes"
          },
          "geometry": {
            "type": "Point",
            "coordinates": [
              15.8115182,
              48.4415782
            ]
          }
        },
        {
          "type": "Feature",
          "properties": {
            "id": "4585131321",
            "osm_type": "node",
            "lat": 48.3798819,
            "lon": 15.6103933,
            "addr:city": "Furth bei Göttweig",
            "addr:country": "AT",
            "addr:housenumber": "517",
            "addr:postcode": "3511",
            "addr:street": "Lambert Karner Straße",
            "alt_name": "ADEG Aktiv Markt Furth bei Göttweig",
            "brand": "ADEG",
            "brand:wikidata": "Q290211",
            "brand:wikipedia": "de:ADEG Österreich",
            "name": "ADEG",
            "phone": "+43 2732 81173",
            "shop": "supermarket",
            "website": "https://www.adeg.at",
            "wheelchair": "yes"
          },
          "geometry": {
            "type": "Point",
            "coordinates": [
              15.6103933,
              48.3798819
            ]
          }
        },
        {
          "type": "Feature",
          "properties": {
            "id": "4938636593",
            "osm_type": "node",
            "lat": 48.4229327,
            "lon": 15.587545,
            "addr:city": "Rehberg",
            "addr:country": "AT",
            "addr:housenumber": "1",
            "addr:postcode": "3500",
            "addr:street": "Mühlhofstraße",
            "brand": "Unimarkt",
            "brand:wikidata": "Q1169599",
            "brand:wikipedia": "de:Unimarkt",
            "check_date": "2025-05-30",
            "email": "office@unimarkt.at",
            "name": "Unimarkt",
            "opening_hours": "Mo-Fr 07:30-19:00; Sa 07:30-17:00; PH off",
            "operator": "Harald Ettlinger e.U.",
            "payment:cash": "yes",
            "payment:credit_cards": "yes",
            "payment:maestro": "yes",
            "phone": "+43 2732 710 52",
            "shop": "supermarket",
            "website": "https://www.unimarkt.at",
            "wheelchair": "yes"
          },
          "geometry": {
            "type": "Point",
            "coordinates": [
              15.587545,
              48.4229327
            ]
          }
        },
        {
          "type": "Feature",
          "properties": {
            "id": "4992097903",
            "osm_type": "node",
            "lat": 48.4086979,
            "lon": 15.5971513,
            "addr:city": "Krems an der Donau",
            "addr:country": "AT",
            "addr:housenumber": "5",
            "addr:postcode": "3500",
            "addr:street": "Utzstraße",
            "email": "evikrems@evinaturkost.eu",
            "name": "EVI Naturkost",
            "opening_hours": "Mo-Fr 09:00-18:00; Sa 09:00-13:00",
            "organic": "only",
            "phone": "+43 2732 854 73",
            "shop": "supermarket",
            "website": "https://www.evinaturkost.eu/"
          },
          "geometry": {
            "type": "Point",
            "coordinates": [
              15.5971513,
              48.4086979
            ]
          }
        },
        {
          "type": "Feature",
          "properties": {
            "id": "5145630757",
            "osm_type": "node",
            "lat": 48.4081825,
            "lon": 15.6142719,
            "addr:city": "Krems an der Donau",
            "addr:country": "AT",
            "addr:housenumber": "16",
            "addr:postcode": "3500",
            "addr:street": "Dr.-Gschmeidler-Straße",
            "brand": "Billa",
            "brand:wikidata": "Q537781",
            "brand:wikipedia": "de:Billa",
            "name": "Billa",
            "opening_hours": "Mo-Fr 07:00-19:15; Sa 07:15-18:00",
            "phone": "+43 2732 858 71",
            "shop": "supermarket",
            "website": "https://www.billa.at/",
            "wheelchair": "yes"
          },
          "geometry": {
            "type": "Point",
            "coordinates": [
              15.6142719,
              48.4081825
            ]
          }
        },
        {
          "type": "Feature",
          "properties": {
            "id": "5354279291",
            "osm_type": "node",
            "lat": 48.4126103,
            "lon": 15.6096526,
            "addr:city": "Krems an der Donau",
            "addr:country": "AT",
            "addr:housenumber": "15-31",
            "addr:postcode": "3500",
            "addr:street": "Wachaustraße",
            "brand": "Lidl",
            "brand:wikidata": "Q151954",
            "brand:wikipedia": "en:Lidl",
            "check_date": "2023-06-25",
            "name": "Lidl",
            "opening_hours": "Mo-Fr 07:40-20:00; Sa 07:40-18:00; PH off",
            "operator": "Lidl",
            "shop": "supermarket",
            "website": "https://www.lidl.at"
          },
          "geometry": {
            "type": "Point",
            "coordinates": [
              15.6096526,
              48.4126103
            ]
          }
        },
        {
          "type": "Feature",
          "properties": {
            "id": "5354772303",
            "osm_type": "node",
            "lat": 48.4099754,
            "lon": 15.6085896,
            "addr:city": "Krems an der Donau",
            "addr:country": "AT",
            "addr:housenumber": "1-3",
            "addr:postcode": "3500",
            "addr:street": "Austraße",
            "brand": "PENNY",
            "brand:wikidata": "Q284688",
            "brand:wikipedia": "en:Penny (supermarket)",
            "check_date": "2025-05-30",
            "email": "servicecenter@penny.at",
            "name": "Penny",
            "phone": "+43 2732 818 22",
            "shop": "supermarket",
            "website": "https://www.penny.at",
            "wheelchair": "yes"
          },
          "geometry": {
            "type": "Point",
            "coordinates": [
              15.6085896,
              48.4099754
            ]
          }
        },
        {
          "type": "Feature",
          "properties": {
            "id": "5372212076",
            "osm_type": "node",
            "lat": 48.4136092,
            "lon": 15.6126063,
            "addr:city": "Krems an der Donau",
            "addr:country": "AT",
            "addr:housenumber": "50",
            "addr:postcode": "3500",
            "addr:street": "Wiener Straße",
            "brand": "Penny",
            "brand:wikidata": "Q284688",
            "brand:wikipedia": "en:Penny (supermarket)",
            "email": "servicecenter@penny.at",
            "name": "Penny",
            "opening_hours": "Mo-Fr 07:15-19:00; Sa 07:15-18:00",
            "operator": "REWE",
            "phone": "+43 2732 728 54",
            "shop": "supermarket",
            "website": "https://www.penny.at",
            "wheelchair": "yes"
          },
          "geometry": {
            "type": "Point",
            "coordinates": [
              15.6126063,
              48.4136092
            ]
          }
        },
        {
          "type": "Feature",
          "properties": {
            "id": "5518374659",
            "osm_type": "node",
            "lat": 48.6685186,
            "lon": 15.6550999,
            "addr:city": "Horn",
            "addr:country": "AT",
            "addr:housenumber": "39",
            "addr:postcode": "3580",
            "addr:street": "Raabser Straße",
            "brand": "Nah & Frisch",
            "brand:wikidata": "Q1963643",
            "brand:wikipedia": "de:Nah & Frisch",
            "contact:phone": "+43 2982 234 426",
            "name": "Nah & Frisch",
            "opening_hours": "Mo-Fr 06:00-12:30, Mo,Tu,Th,Fr 15:00-18:00, Sa 07:00-12:00",
            "shop": "supermarket"
          },
          "geometry": {
            "type": "Point",
            "coordinates": [
              15.6550999,
              48.6685186
            ]
          }
        },
        {
          "type": "Feature",
          "properties": {
            "id": "5591688244",
            "osm_type": "node",
            "lat": 48.4615805,
            "lon": 15.7242241,
            "addr:city": "Hadersdorf am Kamp",
            "addr:country": "AT",
            "addr:housenumber": "2",
            "addr:postcode": "3493",
            "addr:street": "Angerstraße",
            "brand": "Spar",
            "brand:wikidata": "Q610492",
            "name": "Eurospar",
            "opening_hours": "Mo-Fr 06:50-19:00; Sa 06:50-18:00",
            "shop": "supermarket",
            "wheelchair": "yes"
          },
          "geometry": {
            "type": "Point",
            "coordinates": [
              15.7242241,
              48.4615805
            ]
          }
        },
        {
          "type": "Feature",
          "properties": {
            "id": "5738599972",
            "osm_type": "node",
            "lat": 48.4108415,
            "lon": 15.6285458,
            "addr:city": "Krems an der Donau",
            "addr:country": "AT",
            "addr:housenumber": "1",
            "addr:postcode": "3500",
            "addr:street": "An der Schütt",
            "brand": "Billa",
            "brand:wikidata": "Q537781",
            "brand:wikipedia": "en:Billa (supermarket)",
            "name": "Billa",
            "opening_hours": "Mo-Fr 07:15-19:30; Sa 07:15-18:00",
            "phone": "+43 2732 766 53",
            "shop": "supermarket",
            "website": "https://www.billa.at",
            "wheelchair": "yes"
          },
          "geometry": {
            "type": "Point",
            "coordinates": [
              15.6285458,
              48.4108415
            ]
          }
        },
        {
          "type": "Feature",
          "properties": {
            "id": "5738600007",
            "osm_type": "node",
            "lat": 48.4124645,
            "lon": 15.6264005,
            "addr:city": "Krems an der Donau",
            "addr:country": "AT",
            "addr:housenumber": "53",
            "addr:postcode": "3500",
            "addr:street": "Hafenstraße",
            "name": "Demirbas",
            "phone": "+43 660 561 950 0",
            "shop": "supermarket",
            "website": "https://de-de.facebook.com/Demirbas-Supermarkt-1529273580729200"
          },
          "geometry": {
            "type": "Point",
            "coordinates": [
              15.6264005,
              48.4124645
            ]
          }
        },
        {
          "type": "Feature",
          "properties": {
            "id": "5773888501",
            "osm_type": "node",
            "lat": 48.4047978,
            "lon": 15.6594169,
            "addr:city": "Krems an der Donau",
            "addr:country": "AT",
            "addr:housenumber": "8",
            "addr:postcode": "3500",
            "addr:street": "Gewerbeparkstraße",
            "brand": "Unimarkt",
            "brand:wikidata": "Q1169599",
            "brand:wikipedia": "de:Unimarkt",
            "name": "Unimarkt",
            "opening_hours": "Sa 07:30-18:00; PH off; Mo-Fr 07:30-17:30",
            "operator": "Unimarkt Handelsgesellschaft m.b.H. & Co. KG",
            "payment:cash": "yes",
            "payment:credit_cards": "yes",
            "payment:maestro": "yes",
            "phone": "+43 2732 747 40",
            "shop": "supermarket",
            "website": "https://www.unimarkt.at",
            "wheelchair": "yes"
          },
          "geometry": {
            "type": "Point",
            "coordinates": [
              15.6594169,
              48.4047978
            ]
          }
        },
        {
          "type": "Feature",
          "properties": {
            "id": "5902168627",
            "osm_type": "node",
            "lat": 48.4192965,
            "lon": 15.6569921,
            "addr:city": "Rohrendorf bei Krems",
            "addr:country": "AT",
            "addr:housenumber": "2",
            "addr:postcode": "3495",
            "addr:street": "Obere Hauptstraße",
            "brand": "Nah & Frisch",
            "brand:wikidata": "Q1963643",
            "brand:wikipedia": "de:Nah & Frisch",
            "name": "Nah & Frisch",
            "opening_hours": "Mo-Fr 06:00-12:30,15:00-18:00; Sa 06:30-12:00",
            "operator": "Gerald Ebner",
            "phone": "+43 2732 789 32",
            "shop": "supermarket",
            "website": "https://www.nahundfrisch.at/de/kaufmann/ebner",
            "wheelchair": "yes"
          },
          "geometry": {
            "type": "Point",
            "coordinates": [
              15.6569921,
              48.4192965
            ]
          }
        },
        {
          "type": "Feature",
          "properties": {
            "id": "6744514144",
            "osm_type": "node",
            "lat": 48.4130093,
            "lon": 15.6117177,
            "addr:city": "Krems an der Donau",
            "addr:country": "AT",
            "addr:housenumber": "42-48",
            "addr:postcode": "3500",
            "addr:street": "Wachaustraße",
            "at_bev:addr_date": "2021-10-01",
            "brand": "Billa",
            "brand:wikidata": "Q537781",
            "brand:wikipedia": "en:Billa (supermarket)",
            "name": "Billa",
            "opening_hours": "Mo-Fr 07:15-19:30; Sa 07:15-18:00",
            "phone": "+43 59915 03125",
            "shop": "supermarket",
            "website": "https://www.billa.at/",
            "wheelchair": "yes"
          },
          "geometry": {
            "type": "Point",
            "coordinates": [
              15.6117177,
              48.4130093
            ]
          }
        },
        {
          "type": "Feature",
          "properties": {
            "id": "8085685160",
            "osm_type": "node",
            "lat": 48.3758324,
            "lon": 15.5482248,
            "brand": "Nah & Frisch",
            "brand:wikidata": "Q1963643",
            "brand:wikipedia": "de:Nah & Frisch",
            "name": "Nah & Frisch",
            "shop": "supermarket"
          },
          "geometry": {
            "type": "Point",
            "coordinates": [
              15.5482248,
              48.3758324
            ]
          }
        },
        {
          "type": "Feature",
          "properties": {
            "id": "8693957551",
            "osm_type": "node",
            "lat": 48.4114879,
            "lon": 15.626944,
            "addr:city": "Krems an der Donau",
            "addr:country": "AT",
            "addr:housenumber": "54",
            "addr:postcode": "3500",
            "addr:street": "Hafenstraße",
            "brand": "Lidl",
            "brand:wikidata": "Q151954",
            "brand:wikipedia": "en:Lidl",
            "name": "Lidl",
            "phone": "+43 800 500 810",
            "shop": "supermarket",
            "website": "https://www.lidl.at/",
            "wheelchair": "yes"
          },
          "geometry": {
            "type": "Point",
            "coordinates": [
              15.626944,
              48.4114879
            ]
          }
        },
        {
          "type": "Feature",
          "properties": {
            "id": "11329537623",
            "osm_type": "node",
            "lat": 48.4720266,
            "lon": 15.6020063,
            "addr:city": "Lengenfeld",
            "addr:country": "AT",
            "addr:housenumber": "67",
            "addr:postcode": "3552",
            "addr:street": "Langenloiser Straße",
            "brand": "Nah & Frisch",
            "brand:wikidata": "Q1963643",
            "brand:wikipedia": "de:Nah & Frisch",
            "name": "Nah & Frisch",
            "operator": "Erich Hufnagl",
            "phone": "+43 2719 2362",
            "shop": "supermarket",
            "website": "https://www.nahundfrisch.at/de/kaufmann/hufnagl_erich"
          },
          "geometry": {
            "type": "Point",
            "coordinates": [
              15.6020063,
              48.4720266
            ]
          }
        },
        {
          "type": "Feature",
          "properties": {
            "id": "11756610409",
            "osm_type": "node",
            "lat": 48.5719033,
            "lon": 15.8300417,
            "addr:city": "Maissau",
            "addr:housenumber": "6",
            "addr:postcode": "3712",
            "addr:street": "Wiener Straße",
            "brand": "Nah & Frisch",
            "brand:wikidata": "Q1963643",
            "name": "Nah & Frisch",
            "opening_hours": "Mo-Fr 07:00-20:00, Sa 07:00-14:00",
            "phone": "+43 2958 82253",
            "shop": "supermarket",
            "website": "https://www.nahundfrisch.at/de/kaufmann/zanitzer"
          },
          "geometry": {
            "type": "Point",
            "coordinates": [
              15.8300417,
              48.5719033
            ]
          }
        },
        {
          "type": "Feature",
          "properties": {
            "id": "287870649",
            "osm_type": "node",
            "lat": 48.4941365,
            "lon": 16.1184256,
            "addr:city": "Göllersdorf",
            "addr:housenumber": "8",
            "addr:postcode": "2013",
            "addr:street": "Hauptplatz",
            "brand": "Spar",
            "brand:wikidata": "Q610492",
            "brand:wikipedia": "en:Spar (retailer)",
            "name": "Spar",
            "opening_hours": "Mo-Fr 06:00-18:00; Sa 06:00-17:00",
            "operator": "Ulzer",
            "shop": "supermarket"
          },
          "geometry": {
            "type": "Point",
            "coordinates": [
              16.1184256,
              48.4941365
            ]
          }
        },
        {
          "type": "Feature",
          "properties": {
            "id": "3228725663",
            "osm_type": "node",
            "lat": 48.4293552,
            "lon": 16.1677741,
            "addr:city": "Sierndorf",
            "addr:housenumber": "4a",
            "addr:postcode": "2011",
            "addr:street": "Prager Straße",
            "branch": "Sierndorf",
            "contact:email": "eh.sierndorf@kastner.at",
            "contact:phone": "+43 2267 2214",
            "name": "Kastner",
            "opening_hours": "Mo,We,Fr 06:00-12:00,15:30-18:00; Tu,Th 06:00-12:00; Sa 06:00-11:30; PH off",
            "shop": "supermarket",
            "wheelchair": "yes"
          },
          "geometry": {
            "type": "Point",
            "coordinates": [
              16.1677741,
              48.4293552
            ]
          }
        },
        {
          "type": "Feature",
          "properties": {
            "id": "3663846083",
            "osm_type": "node",
            "lat": 48.5256409,
            "lon": 16.1971324,
            "addr:city": "Füllersdorf",
            "addr:housenumber": "11",
            "addr:place": "Füllersdorf",
            "addr:postcode": "2002",
            "name": "BIO Ab Hof Verkauf",
            "opening_hours": "Fr 16:00-20:00",
            "operator": "Krautwerk",
            "organic": "only",
            "shop": "supermarket"
          },
          "geometry": {
            "type": "Point",
            "coordinates": [
              16.1971324,
              48.5256409
            ]
          }
        },
        {
          "type": "Feature",
          "properties": {
            "id": "3663846084",
            "osm_type": "node",
            "lat": 48.5340612,
            "lon": 16.1635329,
            "addr:city": "Göllersdorf",
            "addr:country": "AT",
            "addr:housenumber": "49",
            "addr:place": "Porrau",
            "addr:postcode": "2013",
            "at_bev:addr_date": "2021-10-01",
            "name": "Biohof zum Grünen Baum",
            "opening_hours": "Th 17:00-19:00; Fr 08:00-18:00",
            "operator": "Aigner Marion",
            "organic": "only",
            "shop": "supermarket"
          },
          "geometry": {
            "type": "Point",
            "coordinates": [
              16.1635329,
              48.5340612
            ]
          }
        },
        {
          "type": "Feature",
          "properties": {
            "id": "3691135132",
            "osm_type": "node",
            "lat": 48.5242308,
            "lon": 16.1994629,
            "addr:city": "Füllersdorf",
            "addr:country": "AT",
            "addr:housenumber": "38",
            "addr:place": "Füllersdorf",
            "addr:postcode": "2002",
            "at_bev:addr_date": "2017-10-01",
            "name": "Gemüse Ab Hof Verkauf",
            "note": "Ausschließlicher Verkauf von eigenproduzierter Bioprodukte. Vorbeischauen und anläuten!",
            "operator": "Summerer Hermine",
            "organic": "only",
            "shop": "supermarket"
          },
          "geometry": {
            "type": "Point",
            "coordinates": [
              16.1994629,
              48.5242308
            ]
          }
        },
        {
          "type": "Feature",
          "properties": {
            "id": "11477088270",
            "osm_type": "node",
            "lat": 48.6722444,
            "lon": 16.1843795,
            "name": "Nah&Frisch",
            "opening_hours": "Mo,We,Fr 06:30-12:00, 15:00-18:00; Tu,Th,Sa 06:30-12:00",
            "shop": "supermarket"
          },
          "geometry": {
            "type": "Point",
            "coordinates": [
              16.1843795,
              48.6722444
            ]
          }
        }
      ],
      "children": []
    },
    {
      "bbox": {
        "south": 48.355971499999995,
        "west": 16.2068765,
        "north": 48.68652475,
        "east": 17.16058
      },
      "poiCount": 47,
      "leafCount": 47,
      "averagePosition": [
        16.610217478723406,
        48.49555393191489
      ],
      "data": [
        {
          "type": "Feature",
          "properties": {
            "id": "471785012",
            "osm_type": "node",
            "lat": 48.35666,
            "lon": 16.3298681,
            "brand": "Billa",
            "brand:wikidata": "Q537781",
            "brand:wikipedia": "en:Billa (supermarket)",
            "contact:phone": "+43 59 9150 3442",
            "name": "Billa",
            "opening_hours": "Mo-Fr 07:00-19:00; Sa 07:00-18:00",
            "shop": "supermarket",
            "wheelchair": "yes"
          },
          "geometry": {
            "type": "Point",
            "coordinates": [
              16.3298681,
              48.35666
            ]
          }
        },
        {
          "type": "Feature",
          "properties": {
            "id": "653526977",
            "osm_type": "node",
            "lat": 48.3614181,
            "lon": 16.4253666,
            "addr:city": "Enzersfeld",
            "addr:postcode": "2202",
            "addr:street": "Hauptstraße",
            "name": "Nah&Frisch",
            "opening_hours": "Mo-Fr 06:00-12:15,15:00-18:00; Sa 06:00-12:15",
            "shop": "supermarket"
          },
          "geometry": {
            "type": "Point",
            "coordinates": [
              16.4253666,
              48.3614181
            ]
          }
        },
        {
          "type": "Feature",
          "properties": {
            "id": "330329510",
            "osm_type": "node",
            "lat": 48.3605032,
            "lon": 16.6003391,
            "addr:city": "Bockfließ",
            "addr:country": "AT",
            "addr:housenumber": "45",
            "addr:postcode": "2213",
            "addr:street": "Hauptstraße",
            "brand": "ADEG",
            "brand:wikidata": "Q290211",
            "name": "ADEG Lahofer",
            "opening_hours": "Mo-Fr 06:45-18:30; Sa 06:45-17:00",
            "shop": "supermarket"
          },
          "geometry": {
            "type": "Point",
            "coordinates": [
              16.6003391,
              48.3605032
            ]
          }
        },
        {
          "type": "Feature",
          "properties": {
            "id": "8985141376",
            "osm_type": "node",
            "lat": 48.358223,
            "lon": 16.5788323,
            "addr:city": "Großengersdorf",
            "addr:housenumber": "15c",
            "addr:postcode": "2212",
            "addr:street": "Bockfließer Straße",
            "name": "Fruchtkeller",
            "opening_hours": "Mo-Su 09:00-21:00",
            "operator": "Alexandra Seeland",
            "organic": "only",
            "payment:coins": "yes",
            "phone": "+436649620626",
            "shop": "supermarket",
            "website": "https://fruchtkeller.at"
          },
          "geometry": {
            "type": "Point",
            "coordinates": [
              16.5788323,
              48.358223
            ]
          }
        },
        {
          "type": "Feature",
          "properties": {
            "id": "11652279328",
            "osm_type": "node",
            "lat": 48.364918,
            "lon": 16.6989247,
            "name": "Dorfladen Schönkirchen-Reyersdorf",
            "shop": "supermarket"
          },
          "geometry": {
            "type": "Point",
            "coordinates": [
              16.6989247,
              48.364918
            ]
          }
        },
        {
          "type": "Feature",
          "properties": {
            "id": "13001399692",
            "osm_type": "node",
            "lat": 48.3578789,
            "lon": 16.5699811,
            "addr:city": "Großengersdorf",
            "addr:housenumber": "93",
            "addr:postcode": "2212",
            "addr:street": "Hauptstraße",
            "brand": "Nah & Frisch",
            "brand:wikidata": "Q1963643",
            "name": "Nah & Frisch Boulbi",
            "opening_hours": "Mo,We,Th,Fr 05:30-18:30; Tu 06:30-18:30; Sa 07:00-13:30",
            "operator": "Cech",
            "shop": "supermarket",
            "stroller": "yes",
            "wheelchair": "yes"
          },
          "geometry": {
            "type": "Point",
            "coordinates": [
              16.5699811,
              48.3578789
            ]
          }
        },
        {
          "type": "Feature",
          "properties": {
            "id": "243865544",
            "osm_type": "node",
            "lat": 48.4804217,
            "lon": 16.4785764,
            "addr:city": "Niederkreuzstetten",
            "addr:country": "AT",
            "addr:housenumber": "1",
            "addr:postcode": "2124",
            "addr:street": "Kirchenplatz",
            "brand": "Nah & Frisch",
            "brand:wikidata": "Q1963643",
            "check_date:opening_hours": "2021-05-01",
            "name": "Nah & Frisch",
            "opening_hours": "Mo-Fr 07:00-12:00,15:00-18:00; Sa 07:00-12:30",
            "shop": "supermarket",
            "wheelchair": "no"
          },
          "geometry": {
            "type": "Point",
            "coordinates": [
              16.4785764,
              48.4804217
            ]
          }
        },
        {
          "type": "Feature",
          "properties": {
            "id": "276845988",
            "osm_type": "node",
            "lat": 48.5326918,
            "lon": 16.4927505,
            "brand": "ADEG",
            "brand:wikidata": "Q290211",
            "name": "ADEG",
            "shop": "supermarket",
            "wheelchair": "yes"
          },
          "geometry": {
            "type": "Point",
            "coordinates": [
              16.4927505,
              48.5326918
            ]
          }
        },
        {
          "type": "Feature",
          "properties": {
            "id": "583609975",
            "osm_type": "node",
            "lat": 48.3894338,
            "lon": 16.2084088,
            "addr:city": "Stockerau",
            "addr:country": "AT",
            "addr:housenumber": "13-16",
            "addr:postcode": "2000",
            "addr:street": "Manhartstraße",
            "brand": "Spar",
            "brand:wikidata": "Q610492",
            "brand:wikipedia": "en:Spar (retailer)",
            "check_date": "2023-04-14",
            "name": "Spar",
            "opening_hours": "\"Mo-Fr 7:15-19:30, Sa 7:15-18:00\"",
            "shop": "supermarket",
            "wheelchair": "yes"
          },
          "geometry": {
            "type": "Point",
            "coordinates": [
              16.2084088,
              48.3894338
            ]
          }
        },
        {
          "type": "Feature",
          "properties": {
            "id": "635951472",
            "osm_type": "node",
            "lat": 48.5256848,
            "lon": 16.3781856,
            "name": "Lagerhaus Ernstbrunn",
            "shop": "supermarket"
          },
          "geometry": {
            "type": "Point",
            "coordinates": [
              16.3781856,
              48.5256848
            ]
          }
        },
        {
          "type": "Feature",
          "properties": {
            "id": "731484432",
            "osm_type": "node",
            "lat": 48.3760521,
            "lon": 16.3206698,
            "addr:city": "Leobendorf",
            "addr:housenumber": "4",
            "addr:postcode": "2100",
            "addr:street": "Korneuburger Straße",
            "brand": "Spar",
            "brand:wikidata": "Q610492",
            "name": "Spar",
            "shop": "supermarket"
          },
          "geometry": {
            "type": "Point",
            "coordinates": [
              16.3206698,
              48.3760521
            ]
          }
        },
        {
          "type": "Feature",
          "properties": {
            "id": "1099998510",
            "osm_type": "node",
            "lat": 48.4958213,
            "lon": 16.2322667,
            "addr:city": "Großmugl",
            "addr:country": "AT",
            "addr:housenumber": "58",
            "addr:postcode": "2002",
            "addr:street": "Marienplatz",
            "at_bev:addr_date": "2023-04-15",
            "brand": "Nah & Frisch",
            "brand:wikidata": "Q1963643",
            "name": "Nah & Frisch",
            "operator": "Thomas Seiler",
            "shop": "supermarket"
          },
          "geometry": {
            "type": "Point",
            "coordinates": [
              16.2322667,
              48.4958213
            ]
          }
        },
        {
          "type": "Feature",
          "properties": {
            "id": "1442068082",
            "osm_type": "node",
            "lat": 48.4488361,
            "lon": 16.3009727,
            "addr:city": "Niederhollabrunn",
            "addr:country": "AT",
            "addr:housenumber": "1",
            "addr:postcode": "2004",
            "addr:street": "Hauptplatz",
            "name": "Kaufhaus Kandler",
            "opening_hours": "Mo-Fr 06:30-12:00,15:00-18:00; Sa 06:30-12:00",
            "shop": "supermarket",
            "wheelchair": "limited"
          },
          "geometry": {
            "type": "Point",
            "coordinates": [
              16.3009727,
              48.4488361
            ]
          }
        },
        {
          "type": "Feature",
          "properties": {
            "id": "1595286545",
            "osm_type": "node",
            "lat": 48.6384875,
            "lon": 16.2808067,
            "addr:city": "Patzmannsdorf",
            "addr:country": "AT",
            "addr:housenumber": "153",
            "addr:place": "Patzmannsdorf",
            "addr:postcode": "2153",
            "brand": "Nah & Frisch",
            "brand:wikidata": "Q1963643",
            "name": "Nah & Frisch",
            "opening_hours": "Mo-Fr 06:00-11:00; Sa 06:00-12:00; Su,PH off",
            "operator": "Langer",
            "phone": "+43 2526 7248",
            "shop": "supermarket",
            "website": "https://www.nahundfrisch.at/de/kaufmann/weigl-stronsdorf"
          },
          "geometry": {
            "type": "Point",
            "coordinates": [
              16.2808067,
              48.6384875
            ]
          }
        },
        {
          "type": "Feature",
          "properties": {
            "id": "1769962997",
            "osm_type": "node",
            "lat": 48.664936,
            "lon": 16.4620353,
            "name": "Kaufhaus Pilz",
            "shop": "supermarket"
          },
          "geometry": {
            "type": "Point",
            "coordinates": [
              16.4620353,
              48.664936
            ]
          }
        },
        {
          "type": "Feature",
          "properties": {
            "id": "1801724866",
            "osm_type": "node",
            "lat": 48.4263188,
            "lon": 16.4888147,
            "name": "Lagerhaus Markt",
            "shop": "supermarket",
            "website": "https://www.lagerhaus-korneuburg.at/"
          },
          "geometry": {
            "type": "Point",
            "coordinates": [
              16.4888147,
              48.4263188
            ]
          }
        },
        {
          "type": "Feature",
          "properties": {
            "id": "1962574034",
            "osm_type": "node",
            "lat": 48.4733101,
            "lon": 16.413994,
            "addr:city": "Großrußbach",
            "addr:housenumber": "38",
            "addr:postcode": "2114",
            "addr:street": "Hauptstraße",
            "contact:phone": "+43 2263 6645",
            "name": "Kaufhaus Zimmermann",
            "opening_hours": "Mo-Sa 09:00-12:00, Mo-Fr 14:00-18:00",
            "shop": "supermarket"
          },
          "geometry": {
            "type": "Point",
            "coordinates": [
              16.413994,
              48.4733101
            ]
          }
        },
        {
          "type": "Feature",
          "properties": {
            "id": "2609356667",
            "osm_type": "node",
            "lat": 48.3855212,
            "lon": 16.2346899,
            "addr:city": "Stockerau",
            "addr:country": "AT",
            "addr:housenumber": "32",
            "addr:postcode": "2000",
            "addr:street": "Wienerstraße",
            "at_bev:addr_date": "2021-04-01",
            "brand": "Billa",
            "brand:wikidata": "Q537781",
            "brand:wikipedia": "en:Billa (supermarket)",
            "name": "Billa",
            "opening_hours": "Mo-Fr 07:00-19:00; Sa 07:00-18:00",
            "shop": "supermarket",
            "wheelchair": "yes"
          },
          "geometry": {
            "type": "Point",
            "coordinates": [
              16.2346899,
              48.3855212
            ]
          }
        },
        {
          "type": "Feature",
          "properties": {
            "id": "3925771643",
            "osm_type": "node",
            "lat": 48.6510398,
            "lon": 16.3000998,
            "addr:city": "Stronsdorf",
            "addr:country": "AT",
            "addr:housenumber": "16",
            "addr:place": "Stronsdorf",
            "addr:postcode": "2153",
            "brand": "ADEG",
            "brand:wikidata": "Q290211",
            "brand:wikipedia": "de:ADEG Österreich",
            "name": "ADEG",
            "opening_hours": "Mo-Tu 06:00-12:30,16:00-18:00; We 06:00-12:30; Th-Fr 06:00-12:30,16:00-18:00; Sa 06:00-12:00; Su,PH off",
            "phone": "+43 2526 20122",
            "shop": "supermarket",
            "wheelchair": "limited"
          },
          "geometry": {
            "type": "Point",
            "coordinates": [
              16.3000998,
              48.6510398
            ]
          }
        },
        {
          "type": "Feature",
          "properties": {
            "id": "4210816904",
            "osm_type": "node",
            "lat": 48.5863954,
            "lon": 16.4960808,
            "addr:city": "Asparn an der Zaya",
            "addr:country": "AT",
            "addr:housenumber": "2",
            "addr:postcode": "2151",
            "addr:street": "Hauptplatz",
            "brand": "Nah & Frisch",
            "brand:wikidata": "Q1963643",
            "brand:wikipedia": "de:Nah & Frisch",
            "contact:phone": "+43 2577 8645",
            "name": "Nah & Frisch",
            "opening_hours": "Mo-Fr 06:00-12:30, 16:00-18:00; Sa 07:00-12:00",
            "shop": "supermarket"
          },
          "geometry": {
            "type": "Point",
            "coordinates": [
              16.4960808,
              48.5863954
            ]
          }
        },
        {
          "type": "Feature",
          "properties": {
            "id": "4713779798",
            "osm_type": "node",
            "lat": 48.3861691,
            "lon": 16.2319055,
            "addr:city": "Stockerau",
            "addr:country": "AT",
            "addr:housenumber": "24-26",
            "addr:postcode": "2000",
            "addr:street": "Wienerstraße",
            "brand": "Lidl",
            "brand:wikidata": "Q151954",
            "brand:wikipedia": "en:Lidl",
            "name": "Lidl",
            "opening_hours": "Mo-Fr 07:45-19:00; Sa 07:45-18:00",
            "shop": "supermarket",
            "source": "survey"
          },
          "geometry": {
            "type": "Point",
            "coordinates": [
              16.2319055,
              48.3861691
            ]
          }
        },
        {
          "type": "Feature",
          "properties": {
            "id": "4833523374",
            "osm_type": "node",
            "lat": 48.3843436,
            "lon": 16.2134583,
            "name": "Tedi Markt",
            "shop": "supermarket"
          },
          "geometry": {
            "type": "Point",
            "coordinates": [
              16.2134583,
              48.3843436
            ]
          }
        },
        {
          "type": "Feature",
          "properties": {
            "id": "7561986879",
            "osm_type": "node",
            "lat": 48.4798453,
            "lon": 16.4794044,
            "name": "Gmoabauerlodn",
            "opening_hours": "Mo-Su 06:00-22:00",
            "organic": "only",
            "shop": "supermarket"
          },
          "geometry": {
            "type": "Point",
            "coordinates": [
              16.4794044,
              48.4798453
            ]
          }
        },
        {
          "type": "Feature",
          "properties": {
            "id": "253286672",
            "osm_type": "node",
            "lat": 48.5621698,
            "lon": 16.5562645,
            "brand": "Interspar",
            "brand:wikidata": "Q15820339",
            "brand:wikipedia": "de:Interspar (Österreich)",
            "name": "Interspar",
            "shop": "supermarket"
          },
          "geometry": {
            "type": "Point",
            "coordinates": [
              16.5562645,
              48.5621698
            ]
          }
        },
        {
          "type": "Feature",
          "properties": {
            "id": "398818837",
            "osm_type": "node",
            "lat": 48.373953,
            "lon": 16.6367128,
            "addr:city": "Auersthal",
            "addr:country": "AT",
            "addr:housenumber": "79",
            "addr:postcode": "2214",
            "addr:street": "Hauptstraße",
            "branch": "Hatziandreou Auersthal",
            "brand": "Spar",
            "email": "eh40829@sparmarkt.at",
            "name": "Spar",
            "opening_hours": "Mo-Fr 06:15-18:30; Sa 06:15-17:00",
            "operator": "Irene Hatziandreou",
            "payment:visa": "yes",
            "phone": "+43 2288 371 76",
            "shop": "supermarket",
            "website": "https://www.facebook.com/SPAR-Bockflie%C3%9FAuersthal-Hatziandreou-101882095097758/"
          },
          "geometry": {
            "type": "Point",
            "coordinates": [
              16.6367128,
              48.373953
            ]
          }
        },
        {
          "type": "Feature",
          "properties": {
            "id": "411740384",
            "osm_type": "node",
            "lat": 48.5688494,
            "lon": 16.572374,
            "brand": "PENNY",
            "brand:wikidata": "Q284688",
            "brand:wikipedia": "en:Penny (supermarket)",
            "name": "PENNY",
            "shop": "supermarket",
            "wheelchair": "yes"
          },
          "geometry": {
            "type": "Point",
            "coordinates": [
              16.572374,
              48.5688494
            ]
          }
        },
        {
          "type": "Feature",
          "properties": {
            "id": "990286948",
            "osm_type": "node",
            "lat": 48.5665753,
            "lon": 16.8557275,
            "brand": "ADEG",
            "brand:wikidata": "Q290211",
            "name": "ADEG",
            "shop": "supermarket"
          },
          "geometry": {
            "type": "Point",
            "coordinates": [
              16.8557275,
              48.5665753
            ]
          }
        },
        {
          "type": "Feature",
          "properties": {
            "id": "1203136290",
            "osm_type": "node",
            "lat": 48.5050422,
            "lon": 17.0019678,
            "brand": "COOP Jednota",
            "brand:wikidata": "Q41629254",
            "brand:wikipedia": "sk:COOP Jednota Slovensko",
            "name": "COOP Jednota",
            "opening_hours": "Mo-Fr 06:00-18:00; Sa 06:00-12:00",
            "operator": "COOP Jednota Senica",
            "payment:cash": "yes",
            "payment:debit_cards": "yes",
            "phone": "+421347794388",
            "shop": "supermarket",
            "website": "https://www.coop.sk/"
          },
          "geometry": {
            "type": "Point",
            "coordinates": [
              17.0019678,
              48.5050422
            ]
          }
        },
        {
          "type": "Feature",
          "properties": {
            "id": "1437445011",
            "osm_type": "node",
            "lat": 48.6565682,
            "lon": 17.0181311,
            "brand": "COOP Jednota",
            "brand:wikidata": "Q41629254",
            "brand:wikipedia": "sk:COOP Jednota Slovensko",
            "name": "COOP Jednota",
            "opening_hours": "Mo-Fr 06:00-18:00; Sa 06:00-12:00; PH off",
            "operator": "COOP Jednota Senica",
            "phone": "+421 34 669 72 99",
            "shop": "supermarket",
            "website": "https://www.coop.sk/"
          },
          "geometry": {
            "type": "Point",
            "coordinates": [
              17.0181311,
              48.6565682
            ]
          }
        },
        {
          "type": "Feature",
          "properties": {
            "id": "1745431530",
            "osm_type": "node",
            "lat": 48.5989317,
            "lon": 16.8228197,
            "addr:housenumber": "63",
            "addr:postcode": "2181",
            "addr:street": "Hauptstraße",
            "branch": "Kaufhaus Anton Morawek",
            "brand": "ADEG",
            "brand:wikidata": "Q290211",
            "name": "ADEG",
            "shop": "supermarket"
          },
          "geometry": {
            "type": "Point",
            "coordinates": [
              16.8228197,
              48.5989317
            ]
          }
        },
        {
          "type": "Feature",
          "properties": {
            "id": "3523120242",
            "osm_type": "node",
            "lat": 48.5859609,
            "lon": 16.6445827,
            "addr:city": "Wilfersdorf",
            "addr:housenumber": "18",
            "addr:postcode": "2193",
            "addr:street": "Marktplatz",
            "brand": "ADEG",
            "brand:wikidata": "Q290211",
            "brand:wikipedia": "de:ADEG Österreich",
            "name": "ADEG",
            "operator": "Bauer",
            "shop": "supermarket",
            "wheelchair": "no"
          },
          "geometry": {
            "type": "Point",
            "coordinates": [
              16.6445827,
              48.5859609
            ]
          }
        },
        {
          "type": "Feature",
          "properties": {
            "id": "4225401656",
            "osm_type": "node",
            "lat": 48.5705426,
            "lon": 16.6993177,
            "addr:city": "Zistersdorf",
            "addr:country": "AT",
            "addr:housenumber": "36",
            "addr:place": "Maustrenk",
            "addr:postcode": "2225",
            "name": "Wachtelranch",
            "operator": "Dechat Günther",
            "shop": "supermarket"
          },
          "geometry": {
            "type": "Point",
            "coordinates": [
              16.6993177,
              48.5705426
            ]
          }
        },
        {
          "type": "Feature",
          "properties": {
            "id": "5230064421",
            "osm_type": "node",
            "lat": 48.3783664,
            "lon": 16.8257332,
            "addr:city": "Angern an der March",
            "addr:country": "AT",
            "addr:housenumber": "3",
            "addr:postcode": "2261",
            "addr:street": "Wiener Straße",
            "at_bev:addr_date": "2023-04-15",
            "brand": "PENNY",
            "brand:wikidata": "Q284688",
            "brand:wikipedia": "en:Penny (supermarket)",
            "name": "PENNY",
            "shop": "supermarket",
            "wheelchair": "yes"
          },
          "geometry": {
            "type": "Point",
            "coordinates": [
              16.8257332,
              48.3783664
            ]
          }
        },
        {
          "type": "Feature",
          "properties": {
            "id": "6434443483",
            "osm_type": "node",
            "lat": 48.4379224,
            "lon": 16.7878295,
            "addr:city": "Ebenthal",
            "addr:country": "AT",
            "addr:housenumber": "66",
            "addr:postcode": "2251",
            "addr:street": "Hauptstraße",
            "at_bev:addr_date": "2018-10-01",
            "brand": "ADEG",
            "brand:wikidata": "Q290211",
            "contact:phone": "+43 2538 853 58",
            "name": "ADEG Unser Gschäft",
            "shop": "supermarket",
            "website": "https://www.facebook.com/Café-Pub-Paula-262103927649338/"
          },
          "geometry": {
            "type": "Point",
            "coordinates": [
              16.7878295,
              48.4379224
            ]
          }
        },
        {
          "type": "Feature",
          "properties": {
            "id": "7098115956",
            "osm_type": "node",
            "lat": 48.603693,
            "lon": 16.9028266,
            "addr:city": "Hohenau an der March",
            "addr:country": "AT",
            "addr:housenumber": "2",
            "addr:postcode": "2273",
            "addr:street": "Bernsteinstraße",
            "brand": "Eurospar",
            "brand:wikidata": "Q12309283",
            "brand:wikipedia": "da:Eurospar",
            "name": "Eurospar",
            "opening_hours": "Mo-Fr 07:15-19:30; Sa 07:15-18:00",
            "phone": "+43 2535 31715",
            "shop": "supermarket",
            "website": "https://www.spar.at/standorte/eurospar-hohenau-2273-bernsteinstrasse-2"
          },
          "geometry": {
            "type": "Point",
            "coordinates": [
              16.9028266,
              48.603693
            ]
          }
        },
        {
          "type": "Feature",
          "properties": {
            "id": "7465866875",
            "osm_type": "node",
            "lat": 48.5379946,
            "lon": 16.8988668,
            "brand": "Nah & Frisch",
            "brand:wikidata": "Q1963643",
            "brand:wikipedia": "de:Nah & Frisch",
            "name": "Nah & Frisch",
            "opening_hours": "Mo-Fr 07:00-12:00, 16:00-18:00; Sa 07:00-12:00",
            "shop": "supermarket"
          },
          "geometry": {
            "type": "Point",
            "coordinates": [
              16.8988668,
              48.5379946
            ]
          }
        },
        {
          "type": "Feature",
          "properties": {
            "id": "7679339699",
            "osm_type": "node",
            "lat": 48.4383956,
            "lon": 17.0218904,
            "addr:city": "Malacky",
            "addr:country": "SK",
            "addr:housenumber": "1",
            "addr:postcode": "90101",
            "addr:street": "Na Brehu",
            "air_conditioning": "yes",
            "brand": "Billa",
            "brand:facebook": "https://www.facebook.com/BillaSlovensko",
            "brand:instagram": "https://www.instagram.com/billa_sk",
            "brand:website": "https://www.billa.sk",
            "brand:wikidata": "Q537781",
            "brand:wikipedia": "de:Billa",
            "check_date": "2022-05-13",
            "email": "info@billa.sk",
            "level": "0",
            "name": "Billa",
            "opening_hours": "Mo-Sa 07:00-21:00; Su 08:00-20:00; PH off",
            "operator": "Billa",
            "phone": "+421 903 287 221",
            "shop": "supermarket",
            "stroller": "yes",
            "wheelchair": "yes"
          },
          "geometry": {
            "type": "Point",
            "coordinates": [
              17.0218904,
              48.4383956
            ]
          }
        },
        {
          "type": "Feature",
          "properties": {
            "id": "8343400567",
            "osm_type": "node",
            "lat": 48.3844252,
            "lon": 16.7400761,
            "addr:city": "Prottes",
            "addr:housenumber": "24",
            "addr:postcode": "2242",
            "addr:street": "Hauptstraße",
            "brand": "ADEG",
            "brand:wikidata": "Q290211",
            "brand:wikipedia": "de:ADEG Österreich",
            "name": "ADEG",
            "opening_hours": "Mo-Fr 07:00-12:30; Mo-We 15:00-18:00; Fr 15:00-18:00; Sa 07:00-12:30",
            "operator": "Sabine Panzer",
            "shop": "supermarket"
          },
          "geometry": {
            "type": "Point",
            "coordinates": [
              16.7400761,
              48.3844252
            ]
          }
        },
        {
          "type": "Feature",
          "properties": {
            "id": "8791520152",
            "osm_type": "node",
            "lat": 48.5240958,
            "lon": 16.7587621,
            "addr:city": "Zistersdorf",
            "addr:country": "AT",
            "addr:housenumber": "166",
            "addr:place": "Großinzersdorf",
            "addr:postcode": "2225",
            "diet:gluten_free": "yes",
            "diet:meat": "yes",
            "diet:non-vegetarian": "yes",
            "diet:vegetarian": "yes",
            "name": "Regionalladen",
            "opening_hours": "24/7",
            "operator": "Braunis Hof",
            "shop": "supermarket"
          },
          "geometry": {
            "type": "Point",
            "coordinates": [
              16.7587621,
              48.5240958
            ]
          }
        },
        {
          "type": "Feature",
          "properties": {
            "id": "9712772754",
            "osm_type": "node",
            "lat": 48.4633402,
            "lon": 16.6512294,
            "addr:city": "Hohenruppersdorf",
            "addr:housenumber": "6",
            "addr:postcode": "2223",
            "addr:street": "Parkstraße",
            "brand": "Nah & Frisch",
            "brand:wikidata": "Q1963643",
            "name": "Nah&Frisch  Familie Ludl",
            "shop": "supermarket"
          },
          "geometry": {
            "type": "Point",
            "coordinates": [
              16.6512294,
              48.4633402
            ]
          }
        },
        {
          "type": "Feature",
          "properties": {
            "id": "9866947868",
            "osm_type": "node",
            "lat": 48.6041228,
            "lon": 16.9019911,
            "brand": "Hofer",
            "brand:wikidata": "Q15815751",
            "internet_access": "wlan",
            "internet_access:fee": "no",
            "name": "Hofer",
            "opening_hours": "Mo-Fr 07:15-19:30; Sa 07:15-18:00",
            "shop": "supermarket",
            "source": "survey"
          },
          "geometry": {
            "type": "Point",
            "coordinates": [
              16.9019911,
              48.6041228
            ]
          }
        },
        {
          "type": "Feature",
          "properties": {
            "id": "11091107346",
            "osm_type": "node",
            "lat": 48.6682051,
            "lon": 16.6267461,
            "brand": "Spar",
            "brand:wikidata": "Q610492",
            "check_date": "2024-11-16",
            "check_date:opening_hours": "2024-11-16",
            "name": "Spar",
            "opening_hours": "Mo-Fr 07:15-19:30; Sa 07:15-18:00",
            "shop": "supermarket",
            "wheelchair": "yes"
          },
          "geometry": {
            "type": "Point",
            "coordinates": [
              16.6267461,
              48.6682051
            ]
          }
        },
        {
          "type": "Feature",
          "properties": {
            "id": "11268473978",
            "osm_type": "node",
            "lat": 48.5646693,
            "lon": 16.5420672,
            "addr:city": "Hüttendorf",
            "addr:housenumber": "73",
            "addr:postcode": "2130",
            "addr:street": "Im Dorf",
            "name": "Hofladen Graf-Greis",
            "opening_hours": "24/7",
            "payment:cash": "yes",
            "payment:debit_cards": "yes",
            "payment:maestro": "yes",
            "phone": "+436763437785",
            "shop": "supermarket"
          },
          "geometry": {
            "type": "Point",
            "coordinates": [
              16.5420672,
              48.5646693
            ]
          }
        },
        {
          "type": "Feature",
          "properties": {
            "id": "12224298351",
            "osm_type": "node",
            "lat": 48.5038366,
            "lon": 16.674293,
            "addr:city": "Obersulz",
            "addr:housenumber": "31",
            "addr:place": "Obersulz",
            "addr:postcode": "2224",
            "brand": "ADEG",
            "brand:wikidata": "Q290211",
            "name": "ADEG",
            "opening_hours": "Mo,Tu,Th,Fr 06:30-12:00,16:00-18:00; We,Sa 06:30-12:00",
            "shop": "supermarket"
          },
          "geometry": {
            "type": "Point",
            "coordinates": [
              16.674293,
              48.5038366
            ]
          }
        },
        {
          "type": "Feature",
          "properties": {
            "id": "1224121975",
            "osm_type": "node",
            "lat": 48.5445655,
            "lon": 17.032945,
            "brand": "COOP Jednota",
            "brand:wikidata": "Q41629254",
            "brand:wikipedia": "sk:COOP Jednota Slovensko",
            "name": "COOP Jednota",
            "opening_hours": "Mo-Fr 06:00-18:00; Sa 06:00-12:00; PH off",
            "operator": "COOP Jednota Senica",
            "phone": "+421 34 779 92 29",
            "shop": "supermarket",
            "stroller": "yes",
            "website": "https://www.coop.sk/",
            "wheelchair": "yes"
          },
          "geometry": {
            "type": "Point",
            "coordinates": [
              17.032945,
              48.5445655
            ]
          }
        },
        {
          "type": "Feature",
          "properties": {
            "id": "1224126069",
            "osm_type": "node",
            "lat": 48.5270792,
            "lon": 17.1363975,
            "brand": "COOP Jednota",
            "brand:wikidata": "Q41629254",
            "brand:wikipedia": "sk:COOP Jednota Slovensko",
            "name": "COOP Jednota",
            "opening_hours": "Mo-Fr 06:00-18:00; Sa 06:00-11:00",
            "operator": "COOP Jednota Senica",
            "phone": "+421 34 778 22 51",
            "shop": "supermarket",
            "website": "https://www.coop.sk/"
          },
          "geometry": {
            "type": "Point",
            "coordinates": [
              17.1363975,
              48.5270792
            ]
          }
        },
        {
          "type": "Feature",
          "properties": {
            "id": "6861493846",
            "osm_type": "node",
            "lat": 48.6368204,
            "lon": 17.1542379,
            "brand": "COOP Jednota",
            "brand:wikidata": "Q41629254",
            "brand:wikipedia": "sk:COOP Jednota Slovensko",
            "level": "0",
            "name": "COOP Jednota",
            "opening_hours": "Mo-Fr 06:00-20:00; Sa 06:00-14:00; PH off",
            "phone": "+42134659228",
            "shop": "supermarket",
            "stroller": "yes",
            "website": "https://www.coop.sk/",
            "wheelchair": "yes"
          },
          "geometry": {
            "type": "Point",
            "coordinates": [
              17.1542379,
              48.6368204
            ]
          }
        }
      ],
      "children": []
    },
    {
      "bbox": {
        "south": 48.68652475,
        "west": 15.253173,
        "north": 49.017078,
        "east": 16.2068765
      },
      "poiCount": 36,
      "leafCount": 36,
      "averagePosition": [
        15.74899611388889,
        48.82997713888889
      ],
      "data": [
        {
          "type": "Feature",
          "properties": {
            "id": "1829582460",
            "osm_type": "node",
            "lat": 48.8122563,
            "lon": 15.2754247,
            "addr:city": "Waidhofen an der Thaya",
            "addr:country": "AT",
            "addr:housenumber": "4",
            "addr:postcode": "3830",
            "addr:street": "Thayapark-Straße",
            "at_bev:addr_date": "2018-04-02",
            "brand": "PENNY",
            "brand:wikidata": "Q284688",
            "brand:wikipedia": "en:Penny (supermarket)",
            "name": "PENNY",
            "opening_hours": "Mo-Fr 07:15-19:00; Sa07:15-18:00",
            "shop": "supermarket",
            "wheelchair": "yes"
          },
          "geometry": {
            "type": "Point",
            "coordinates": [
              15.2754247,
              48.8122563
            ]
          }
        },
        {
          "type": "Feature",
          "properties": {
            "id": "1891899078",
            "osm_type": "node",
            "lat": 48.8114172,
            "lon": 15.2725266,
            "addr:city": "Waidhofen an der Thaya",
            "addr:housenumber": "1",
            "addr:postcode": "3830",
            "addr:street": "Thayaparkstraße",
            "name": "Einkaufszentrum Thayapark",
            "opening_hours": "Mo-Fr 09:00-18:30; Sa 08:30-18:00",
            "shop": "supermarket",
            "toilets:wheelchair": "yes",
            "website": "https://www.thayapark.at/de/home.html",
            "wheelchair": "yes"
          },
          "geometry": {
            "type": "Point",
            "coordinates": [
              15.2725266,
              48.8114172
            ]
          }
        },
        {
          "type": "Feature",
          "properties": {
            "id": "2119309678",
            "osm_type": "node",
            "lat": 48.8109377,
            "lon": 15.2703554,
            "addr:city": "Waidhofen an der Thaya",
            "addr:country": "AT",
            "addr:housenumber": "1",
            "addr:postcode": "3830",
            "addr:street": "Thayaparkstraße",
            "brand": "Eurospar",
            "brand:wikidata": "Q12309283",
            "brand:wikipedia": "da:Eurospar",
            "check_date:opening_hours": "2023-06-20",
            "name": "Eurospar",
            "opening_hours": "Mo-Fr 07:15-19:30; Sa 07:15-18:00",
            "shop": "supermarket",
            "wheelchair": "yes"
          },
          "geometry": {
            "type": "Point",
            "coordinates": [
              15.2703554,
              48.8109377
            ]
          }
        },
        {
          "type": "Feature",
          "properties": {
            "id": "2508103455",
            "osm_type": "node",
            "lat": 48.8474785,
            "lon": 15.4935989,
            "addr:housenumber": "7",
            "addr:street": "Hauptplatz",
            "branch": "Markt",
            "brand": "Spar",
            "brand:wikidata": "Q610492",
            "name": "Spar",
            "opening_hours": "Mo-Fr 06:55-18:30; Sa 06:55-17:00",
            "shop": "supermarket",
            "website": "http://www.lagerhaus-waidhofen.atandorte/spar-raabs-thaya-3820-hauptplatz-7",
            "wheelchair": "yes"
          },
          "geometry": {
            "type": "Point",
            "coordinates": [
              15.4935989,
              48.8474785
            ]
          }
        },
        {
          "type": "Feature",
          "properties": {
            "id": "5598575881",
            "osm_type": "node",
            "lat": 48.7005085,
            "lon": 15.3204144,
            "addr:city": "Allentsteig",
            "addr:country": "AT",
            "addr:housenumber": "3",
            "addr:postcode": "3804",
            "addr:street": "Ziegelofenstraße",
            "at_bev:addr_date": "2025-04-01",
            "brand": "Billa",
            "brand:wikidata": "Q537781",
            "check_date": "2025-05-29",
            "contact:phone": "+43 2824 / 27226",
            "name": "Billa",
            "opening_hours": "Mo-Fr 07:15-19:30; Sa 07:15-18:00; Su off; PH off",
            "shop": "supermarket",
            "wheelchair": "yes"
          },
          "geometry": {
            "type": "Point",
            "coordinates": [
              15.3204144,
              48.7005085
            ]
          }
        },
        {
          "type": "Feature",
          "properties": {
            "id": "5996499241",
            "osm_type": "node",
            "lat": 48.8121809,
            "lon": 15.2683916,
            "addr:city": "Waidhofen an der Thaya",
            "addr:country": "AT",
            "addr:housenumber": "20c",
            "addr:postcode": "3830",
            "addr:street": "Brunnerstraße",
            "addr:unit": "1",
            "at_bev:addr_date": "2021-10-01",
            "brand": "Billa",
            "brand:wikidata": "Q537781",
            "brand:wikipedia": "en:Billa (supermarket)",
            "name": "Billa",
            "note": "Textilfachgeschäft",
            "old_name": "Vögele",
            "shop": "supermarket",
            "start_date": "2020-04",
            "wheelchair": "yes"
          },
          "geometry": {
            "type": "Point",
            "coordinates": [
              15.2683916,
              48.8121809
            ]
          }
        },
        {
          "type": "Feature",
          "properties": {
            "id": "7301595463",
            "osm_type": "node",
            "lat": 48.7245064,
            "lon": 15.4005436,
            "brand": "Nah & Frisch",
            "brand:wikidata": "Q1963643",
            "brand:wikipedia": "de:Nah & Frisch",
            "name": "Nah & Frisch",
            "operator": "Grill Barbara",
            "shop": "supermarket"
          },
          "geometry": {
            "type": "Point",
            "coordinates": [
              15.4005436,
              48.7245064
            ]
          }
        },
        {
          "type": "Feature",
          "properties": {
            "id": "11502656946",
            "osm_type": "node",
            "lat": 48.7435975,
            "lon": 15.2591452,
            "addr:city": "Schwarzenau",
            "addr:housenumber": "19",
            "addr:postcode": "3900",
            "addr:street": "Bundesstraße",
            "baby_feeding": "no",
            "brand": "Nah & Frisch",
            "bulk_purchase": "yes",
            "changing_table": "no",
            "level": "0",
            "name": "Walter Nitsch",
            "opening_hours": "Mo-We,Fr 06:00-12:30,15:30-18:00; Th 06:00-12:30; PH closed; Sa 06:00-12:00",
            "organic": "yes",
            "payment:contactless": "yes",
            "payment:debit_cards": "yes",
            "payment:maestro": "yes",
            "payment:notes": "yes",
            "phone": "+43 2849 20114",
            "shop": "supermarket",
            "wheelchair": "yes"
          },
          "geometry": {
            "type": "Point",
            "coordinates": [
              15.2591452,
              48.7435975
            ]
          }
        },
        {
          "type": "Feature",
          "properties": {
            "id": "12690772888",
            "osm_type": "node",
            "lat": 48.7902646,
            "lon": 15.4045406,
            "brand": "Nah & Frisch",
            "brand:wikidata": "Q1963643",
            "name": "Nah & Frisch",
            "shop": "supermarket"
          },
          "geometry": {
            "type": "Point",
            "coordinates": [
              15.4045406,
              48.7902646
            ]
          }
        },
        {
          "type": "Feature",
          "properties": {
            "id": "459972317",
            "osm_type": "node",
            "lat": 48.8681021,
            "lon": 15.6198817,
            "addr:city": "Drosendorf-Zissersdorf",
            "addr:country": "AT",
            "addr:housenumber": "17",
            "addr:postcode": "2095",
            "addr:street": "Hauptplatz",
            "at_bev:addr_date": "2021-10-01",
            "check_date": "2024-10-26",
            "name": "Nah & Frisch Linsbauer",
            "opening_hours": "Mo-Fr 07:00-12:00,14:30-18:00; Sa 07:00-12:00",
            "shop": "supermarket"
          },
          "geometry": {
            "type": "Point",
            "coordinates": [
              15.6198817,
              48.8681021
            ]
          }
        },
        {
          "type": "Feature",
          "properties": {
            "id": "513776372",
            "osm_type": "node",
            "lat": 48.8324656,
            "lon": 15.713194,
            "addr:city": "Langau",
            "addr:country": "AT",
            "addr:housenumber": "52",
            "addr:place": "Langau",
            "addr:postcode": "2091",
            "at_bev:addr_date": "2017-04-07",
            "name": "Spar",
            "shop": "supermarket"
          },
          "geometry": {
            "type": "Point",
            "coordinates": [
              15.713194,
              48.8324656
            ]
          }
        },
        {
          "type": "Feature",
          "properties": {
            "id": "3059977557",
            "osm_type": "node",
            "lat": 48.7659709,
            "lon": 16.0030837,
            "addr:city": "Unterretzbach",
            "addr:housenumber": "1",
            "addr:postcode": "2074",
            "addr:street": "Dorfstraße",
            "brand": "Nah & Frisch",
            "brand:wikidata": "Q1963643",
            "name": "Nah und Frisch",
            "operator": "Sabrina Hager",
            "shop": "supermarket"
          },
          "geometry": {
            "type": "Point",
            "coordinates": [
              16.0030837,
              48.7659709
            ]
          }
        },
        {
          "type": "Feature",
          "properties": {
            "id": "3071960184",
            "osm_type": "node",
            "lat": 48.7387225,
            "lon": 15.6299745,
            "name": "Nah&Frisch",
            "shop": "supermarket"
          },
          "geometry": {
            "type": "Point",
            "coordinates": [
              15.6299745,
              48.7387225
            ]
          }
        },
        {
          "type": "Feature",
          "properties": {
            "id": "4170445614",
            "osm_type": "node",
            "lat": 48.7043757,
            "lon": 15.859354,
            "brand": "Spar",
            "brand:wikidata": "Q610492",
            "email": "eh40106@sparmarkt.at",
            "name": "Spar",
            "opening_hours": "Mo-Fr 07:00-18:00; Sa 07:00-12:00",
            "phone": "+41 2946 2674",
            "shop": "supermarket",
            "website": "https://www.spar.at/"
          },
          "geometry": {
            "type": "Point",
            "coordinates": [
              15.859354,
              48.7043757
            ]
          }
        },
        {
          "type": "Feature",
          "properties": {
            "id": "8375909817",
            "osm_type": "node",
            "lat": 48.797824,
            "lon": 15.6734741,
            "addr:city": "Geras",
            "addr:housenumber": "1",
            "addr:postcode": "2093",
            "addr:street": "Hauptstraße",
            "image": "https://www.stiftgeras.com/s/cc_images/cache_11515868.jpg?t=1591808689",
            "name": "Klosterladen",
            "operator": "Alexander Graffi",
            "payment:cash": "yes",
            "payment:credit_cards": "yes",
            "payment:mastercard": "yes",
            "phone": "+43720880860",
            "shop": "supermarket",
            "website": "https://www.stiftgeras.com/"
          },
          "geometry": {
            "type": "Point",
            "coordinates": [
              15.6734741,
              48.797824
            ]
          }
        },
        {
          "type": "Feature",
          "properties": {
            "id": "9063752916",
            "osm_type": "node",
            "lat": 48.8624053,
            "lon": 15.9109577,
            "brand": "COOP Jednota",
            "brand:wikidata": "Q41629254",
            "name": "Coop Jednota",
            "opening_hours": "Mo, We 06:00-11:30; Tu, Th 06:00-11:30, 15:00-16:00; Fr 06:00-11:30, 15:00-16:30; Sa 06:00-10:00",
            "shop": "supermarket"
          },
          "geometry": {
            "type": "Point",
            "coordinates": [
              15.9109577,
              48.8624053
            ]
          }
        },
        {
          "type": "Feature",
          "properties": {
            "id": "9558748405",
            "osm_type": "node",
            "lat": 48.7476453,
            "lon": 15.5398382,
            "addr:city": "Irnfritz-Bahnhof",
            "addr:housenumber": "5",
            "addr:postcode": "3754",
            "addr:street": "Bahnstraße",
            "brand": "Nah & Frisch",
            "brand:wikidata": "Q1963643",
            "brand:wikipedia": "de:Nah & Frisch",
            "name": "Nah & Frisch",
            "operator": "Zotter",
            "payment:cash": "yes",
            "payment:debit_cards": "yes",
            "shop": "supermarket",
            "website": "https://www.nahundfrisch.at/de/kaufmann/zotter"
          },
          "geometry": {
            "type": "Point",
            "coordinates": [
              15.5398382,
              48.7476453
            ]
          }
        },
        {
          "type": "Feature",
          "properties": {
            "id": "12156312168",
            "osm_type": "node",
            "lat": 48.8699159,
            "lon": 15.6836069,
            "name": "COOP",
            "shop": "supermarket"
          },
          "geometry": {
            "type": "Point",
            "coordinates": [
              15.6836069,
              48.8699159
            ]
          }
        },
        {
          "type": "Feature",
          "properties": {
            "id": "12837097859",
            "osm_type": "node",
            "lat": 48.7923448,
            "lon": 15.5687476,
            "brand": "Nah & Frisch",
            "brand:wikidata": "Q1963643",
            "name": "Nah & Frisch",
            "operator": "Nadin Kases",
            "shop": "supermarket",
            "website": "https://www.nahundfrisch.at/de/kaufmann/kases-nadin"
          },
          "geometry": {
            "type": "Point",
            "coordinates": [
              15.5687476,
              48.7923448
            ]
          }
        },
        {
          "type": "Feature",
          "properties": {
            "id": "385742897",
            "osm_type": "node",
            "lat": 48.8711842,
            "lon": 16.039347,
            "brand": "Penny",
            "brand:wikidata": "Q284688",
            "brand:wikipedia": "en:Penny (supermarket)",
            "name": "Penny Market",
            "opening_hours": "Mo-Su 07:00-20:00",
            "shop": "supermarket",
            "source": "cuzk:km"
          },
          "geometry": {
            "type": "Point",
            "coordinates": [
              16.039347,
              48.8711842
            ]
          }
        },
        {
          "type": "Feature",
          "properties": {
            "id": "456781439",
            "osm_type": "node",
            "lat": 48.8374165,
            "lon": 16.0642388,
            "addr:housenumber": "3632/156",
            "addr:postcode": "67181",
            "addr:street": "Dukelských bojovníků",
            "brand": "Kaufland",
            "brand:wikidata": "Q685967",
            "brand:wikipedia": "en:Kaufland",
            "name": "Kaufland",
            "shop": "supermarket",
            "source": "www.kaufland.cz",
            "website": "https://www.kaufland.cz/"
          },
          "geometry": {
            "type": "Point",
            "coordinates": [
              16.0642388,
              48.8374165
            ]
          }
        },
        {
          "type": "Feature",
          "properties": {
            "id": "2067726434",
            "osm_type": "node",
            "lat": 48.8457968,
            "lon": 16.0595569,
            "addr:city": "Znojmo",
            "addr:housename": "AHOLD Czech Republic, a.s.",
            "addr:housenumber": "684/69",
            "addr:postcode": "669 02",
            "addr:street": "Vídeňská třída",
            "check_date": "2025-08-29",
            "name": "Hypermarket Albert",
            "opening_hours": "07:00-22:00",
            "shop": "supermarket",
            "website": "https://www.albert.cz/"
          },
          "geometry": {
            "type": "Point",
            "coordinates": [
              16.0595569,
              48.8457968
            ]
          }
        },
        {
          "type": "Feature",
          "properties": {
            "id": "2580976200",
            "osm_type": "node",
            "lat": 48.7639814,
            "lon": 16.0646886,
            "name": "Free Shop Hatě",
            "shop": "supermarket"
          },
          "geometry": {
            "type": "Point",
            "coordinates": [
              16.0646886,
              48.7639814
            ]
          }
        },
        {
          "type": "Feature",
          "properties": {
            "id": "2580976202",
            "osm_type": "node",
            "lat": 48.765903,
            "lon": 16.0657575,
            "name": "Excalibur Free Shop",
            "shop": "supermarket",
            "toilets:wheelchair": "yes",
            "wheelchair": "yes"
          },
          "geometry": {
            "type": "Point",
            "coordinates": [
              16.0657575,
              48.765903
            ]
          }
        },
        {
          "type": "Feature",
          "properties": {
            "id": "2778587912",
            "osm_type": "node",
            "lat": 48.8658682,
            "lon": 16.038089,
            "addr:city": "Znojmo",
            "addr:conscriptionnumber": "2643",
            "addr:housenumber": "2643/72",
            "addr:place": "Znojmo",
            "addr:postcode": "66902",
            "addr:street": "Pražská",
            "addr:streetnumber": "72",
            "brand": "Billa",
            "brand:wikidata": "Q42969493",
            "name": "Billa",
            "opening_hours": "Mo-Sa 07:00-20:00; Su 08:00-20:00",
            "ref:ruian:addr": "11006510",
            "shop": "supermarket"
          },
          "geometry": {
            "type": "Point",
            "coordinates": [
              16.038089,
              48.8658682
            ]
          }
        },
        {
          "type": "Feature",
          "properties": {
            "id": "4839043823",
            "osm_type": "node",
            "lat": 48.8558953,
            "lon": 16.0495224,
            "addr:housenumber": "303/7",
            "addr:street": "Slepičí trh",
            "check_date:opening_hours": "2024-11-09",
            "name": "Enapo",
            "name:cs": "Enapo",
            "opening_hours": "Mo-Fr 06:30-18:00; Sa 07:00-11:30",
            "shop": "supermarket"
          },
          "geometry": {
            "type": "Point",
            "coordinates": [
              16.0495224,
              48.8558953
            ]
          }
        },
        {
          "type": "Feature",
          "properties": {
            "id": "7482914947",
            "osm_type": "node",
            "lat": 48.8540657,
            "lon": 16.0688949,
            "brand": "Billa",
            "brand:wikidata": "Q42969493",
            "name": "Billa",
            "shop": "supermarket"
          },
          "geometry": {
            "type": "Point",
            "coordinates": [
              16.0688949,
              48.8540657
            ]
          }
        },
        {
          "type": "Feature",
          "properties": {
            "id": "7884872525",
            "osm_type": "node",
            "lat": 48.8692845,
            "lon": 16.0351467,
            "addr:city": "Znojmo",
            "addr:housenumber": "2567/3",
            "addr:postcode": "66902",
            "addr:street": "Pod Soudním vrchem",
            "brand": "Hruška",
            "brand:wikidata": "Q58196374",
            "name": "Hruška",
            "opening_hours": "Mo-Fr 07:00-18:00, Sa 7:00-11:00, Su 8:00-11:00",
            "payment:cadhoc": "yes",
            "payment:cash": "yes",
            "payment:cheques_dejeuner": "yes",
            "payment:maestro": "yes",
            "payment:mastercard": "yes",
            "payment:sodexo": "yes",
            "payment:ticket_compliments": "yes",
            "payment:ticket_restaurant": "yes",
            "payment:ticket_servis": "yes",
            "payment:visa": "yes",
            "payment:visa_electron": "yes",
            "payment:šek_servis": "yes",
            "shop": "supermarket",
            "website": "https://mojehruska.cz",
            "wheelchair": "yes"
          },
          "geometry": {
            "type": "Point",
            "coordinates": [
              16.0351467,
              48.8692845
            ]
          }
        },
        {
          "type": "Feature",
          "properties": {
            "id": "9177447920",
            "osm_type": "node",
            "lat": 48.7644595,
            "lon": 16.0635723,
            "name": "3 Kronen Markt",
            "shop": "supermarket"
          },
          "geometry": {
            "type": "Point",
            "coordinates": [
              16.0635723,
              48.7644595
            ]
          }
        },
        {
          "type": "Feature",
          "properties": {
            "id": "10762026148",
            "osm_type": "node",
            "lat": 48.8562889,
            "lon": 16.0487705,
            "check_date": "2023-03-25",
            "name": "Krásno",
            "opening_hours": "Mo-Fr 07:00-16:30; Sa 07:30-11:00",
            "shop": "supermarket"
          },
          "geometry": {
            "type": "Point",
            "coordinates": [
              16.0487705,
              48.8562889
            ]
          }
        },
        {
          "type": "Feature",
          "properties": {
            "id": "4294519602",
            "osm_type": "node",
            "lat": 48.9986226,
            "lon": 15.3538595,
            "brand": "Coop",
            "brand:wikidata": "Q52851660",
            "name": "Coop",
            "opening_hours": "Mo-Fr 06:30-18:00; Sa 06:30-11:30; Su 07:30-11:30",
            "payment:coins": "yes",
            "payment:mastercard": "yes",
            "payment:notes": "yes",
            "payment:visa": "yes",
            "shop": "supermarket",
            "wheelchair": "yes"
          },
          "geometry": {
            "type": "Point",
            "coordinates": [
              15.3538595,
              48.9986226
            ]
          }
        },
        {
          "type": "Feature",
          "properties": {
            "id": "12156368246",
            "osm_type": "node",
            "lat": 49.0035478,
            "lon": 15.2539796,
            "name": "COOP",
            "opening_hours": "Mo-Fr 06:30-17:00; Sa 07:00-11:30; Su 07:00-11:00",
            "shop": "supermarket"
          },
          "geometry": {
            "type": "Point",
            "coordinates": [
              15.2539796,
              49.0035478
            ]
          }
        },
        {
          "type": "Feature",
          "properties": {
            "id": "10997830510",
            "osm_type": "node",
            "lat": 48.902567,
            "lon": 16.1917726,
            "addr:housenumber": "88",
            "check_date": "2025-02-09",
            "name": "COOP JEDNOTA Moravskoslezský Krumlov",
            "opening_hours": "Mo-Fr 06:00-12:00, 13:00-16:30; Sa 06:00-10:00",
            "payment:cash": "yes",
            "payment:contactless": "yes",
            "phone": "515300396",
            "shop": "supermarket",
            "website": "https://www.jednotamk.cz/index.php?pg=nase-prodejny-1&cid=268"
          },
          "geometry": {
            "type": "Point",
            "coordinates": [
              16.1917726,
              48.902567
            ]
          }
        },
        {
          "type": "Feature",
          "properties": {
            "id": "11103902843",
            "osm_type": "node",
            "lat": 48.9872914,
            "lon": 16.1944387,
            "addr:housenumber": "81",
            "addr:postcode": "67171",
            "addr:street": "Trstěnice",
            "cash_withdrawal:purchase_required": "yes",
            "check_date": "2025-08-19",
            "name": "COOP Jednota Moravský Krumlov",
            "opening_hours": "Th 15:00-16:30",
            "operator": "JEDNOTA, spotřební družstvo, Moravský Krumlov",
            "payment:cash": "yes",
            "payment:credit_cards": "yes",
            "payment:debit_cards": "yes",
            "shop": "supermarket",
            "website": "https://www.jednotamk.cz/index.php?pg=nase-prodejny-1&cid=139",
            "wheelchair": "yes"
          },
          "geometry": {
            "type": "Point",
            "coordinates": [
              16.1944387,
              48.9872914
            ]
          }
        },
        {
          "type": "Feature",
          "properties": {
            "id": "11107096243",
            "osm_type": "node",
            "lat": 48.9263916,
            "lon": 16.1658249,
            "addr:housenumber": "165",
            "name": "COOP Jednota Moravský Krumlov",
            "shop": "supermarket",
            "website": "https://www.jednotamk.cz/index.php?pg=nase-prodejny-1&cid=158"
          },
          "geometry": {
            "type": "Point",
            "coordinates": [
              16.1658249,
              48.9263916
            ]
          }
        },
        {
          "type": "Feature",
          "properties": {
            "id": "12677116472",
            "osm_type": "node",
            "lat": 48.8776929,
            "lon": 16.0393468,
            "addr:city": "Znojmo",
            "addr:housenumber": "420/4",
            "addr:postcode": "66904",
            "addr:street": "Pod Svatým Janem",
            "brand": "Hruška",
            "brand:wikidata": "Q58196374",
            "name": "Hruška",
            "opening_hours": "Mo-Fr 06:30-18:00, Sa 7:00-12:00, Su 7:30-11:00",
            "shop": "supermarket",
            "website": "https://mojehruska.cz/",
            "wheelchair": "yes"
          },
          "geometry": {
            "type": "Point",
            "coordinates": [
              16.0393468,
              48.8776929
            ]
          }
        }
      ],
      "children": []
    },
    {
      "bbox": {
        "south": 48.68652475,
        "west": 16.2068765,
        "north": 49.017078,
        "east": 17.16058
      },
      "poiCount": 45,
      "leafCount": 45,
      "averagePosition": [
        16.782860633333332,
        48.835662344444444
      ],
      "data": [
        {
          "type": "Feature",
          "properties": {
            "id": "1337853886",
            "osm_type": "node",
            "lat": 48.7541051,
            "lon": 16.3811338,
            "addr:conscriptionnumber": "343",
            "addr:country": "CZ",
            "addr:housenumber": "343",
            "addr:place": "Hevlín",
            "addr:postcode": "67169",
            "ref:ruian:addr": "10722441",
            "shop": "supermarket"
          },
          "geometry": {
            "type": "Point",
            "coordinates": [
              16.3811338,
              48.7541051
            ]
          }
        },
        {
          "type": "Feature",
          "properties": {
            "id": "2390428324",
            "osm_type": "node",
            "lat": 48.7210912,
            "lon": 16.4932887,
            "brand": "Spar",
            "brand:wikidata": "Q610492",
            "brand:wikipedia": "en:SPAR (retailer)",
            "name": "Spar",
            "shop": "supermarket",
            "wheelchair": "yes"
          },
          "geometry": {
            "type": "Point",
            "coordinates": [
              16.4932887,
              48.7210912
            ]
          }
        },
        {
          "type": "Feature",
          "properties": {
            "id": "3741024131",
            "osm_type": "node",
            "lat": 48.807349,
            "lon": 16.494286,
            "brand": "COOP Jednota",
            "name": "COOP Jednota",
            "shop": "supermarket",
            "source": "survey"
          },
          "geometry": {
            "type": "Point",
            "coordinates": [
              16.494286,
              48.807349
            ]
          }
        },
        {
          "type": "Feature",
          "properties": {
            "id": "4017885804",
            "osm_type": "node",
            "lat": 48.7056692,
            "lon": 16.2389688,
            "addr:city": "Zwingendorf",
            "addr:country": "AT",
            "addr:housenumber": "207",
            "addr:place": "Zwingendorf",
            "addr:postcode": "2063",
            "name": "nah&frisch Weigl",
            "opening_hours": "Mo-Fr 06:00-11:00; Sa 06:00-12:00; Su,PH off",
            "phone": "tel:+43 2527 41070",
            "shop": "supermarket",
            "website": "https://www.nahundfrisch.at/de/kaufmann/weigl-zwingendorf"
          },
          "geometry": {
            "type": "Point",
            "coordinates": [
              16.2389688,
              48.7056692
            ]
          }
        },
        {
          "type": "Feature",
          "properties": {
            "id": "4524384711",
            "osm_type": "node",
            "lat": 48.7524418,
            "lon": 16.3801524,
            "shop": "supermarket"
          },
          "geometry": {
            "type": "Point",
            "coordinates": [
              16.3801524,
              48.7524418
            ]
          }
        },
        {
          "type": "Feature",
          "properties": {
            "id": "5026707255",
            "osm_type": "node",
            "lat": 48.8574017,
            "lon": 16.4862497,
            "addr:city": "Drnholec",
            "addr:postcode": "69183",
            "addr:street": "náměstí Svobody",
            "brand": "COOP Jednota",
            "brand:wikidata": "Q41629254",
            "name": "COOP Jednota",
            "shop": "supermarket"
          },
          "geometry": {
            "type": "Point",
            "coordinates": [
              16.4862497,
              48.8574017
            ]
          }
        },
        {
          "type": "Feature",
          "properties": {
            "id": "6415850182",
            "osm_type": "node",
            "lat": 48.7307723,
            "lon": 16.382164,
            "shop": "supermarket"
          },
          "geometry": {
            "type": "Point",
            "coordinates": [
              16.382164,
              48.7307723
            ]
          }
        },
        {
          "type": "Feature",
          "properties": {
            "id": "11268665537",
            "osm_type": "node",
            "lat": 48.8364906,
            "lon": 16.2893124,
            "addr:housenumber": "90",
            "phone": "515257127",
            "shop": "supermarket",
            "website": "https://www.jednotamk.cz/index.php?pg=nase-prodejny-1&cid=209"
          },
          "geometry": {
            "type": "Point",
            "coordinates": [
              16.2893124,
              48.8364906
            ]
          }
        },
        {
          "type": "Feature",
          "properties": {
            "id": "890685075",
            "osm_type": "node",
            "lat": 48.8267291,
            "lon": 16.8470213,
            "addr:city": "Podivín",
            "addr:housenumber": "824/16",
            "addr:postcode": "691 45",
            "addr:street": "Komenského",
            "name": "Coop - Jednota Podivín",
            "opening_hours": "Mo-Fr 06:00-18:00; Sa 06:00-12:00; Su 07:00-12:00",
            "shop": "supermarket"
          },
          "geometry": {
            "type": "Point",
            "coordinates": [
              16.8470213,
              48.8267291
            ]
          }
        },
        {
          "type": "Feature",
          "properties": {
            "id": "1217866454",
            "osm_type": "node",
            "lat": 48.8341113,
            "lon": 16.8519913,
            "addr:city": "Podivin",
            "addr:conscriptionnumber": "748",
            "addr:country": "CZ",
            "addr:housenumber": "748/2",
            "addr:postcode": "691 45",
            "addr:street": "Nerudova",
            "addr:streetnumber": "2",
            "name": "Coop - Jednota Podivín",
            "shop": "supermarket",
            "source:addr": "mvcr:adresa",
            "source:loc": "cuzk:km"
          },
          "geometry": {
            "type": "Point",
            "coordinates": [
              16.8519913,
              48.8341113
            ]
          }
        },
        {
          "type": "Feature",
          "properties": {
            "id": "1779559431",
            "osm_type": "node",
            "lat": 48.752224,
            "lon": 16.8579691,
            "brand": "Coop",
            "brand:facebook": "https://www.facebook.com/jednotamikulov",
            "brand:website": "https://www.jednota.cz",
            "brand:wikidata": "Q52851660",
            "brand:wikipedia": "cz:Jednota",
            "level": "0",
            "name": "Coop",
            "opening_hours": "Mo-Fr 06:00-18:00; Sa 06:00-13:00; Su 07:00-12:00; PH off",
            "operator": "Jednota, spotřební družstvo v Mikulově",
            "shop": "supermarket",
            "stroller": "yes",
            "wheelchair": "yes"
          },
          "geometry": {
            "type": "Point",
            "coordinates": [
              16.8579691,
              48.752224
            ]
          }
        },
        {
          "type": "Feature",
          "properties": {
            "id": "2292916952",
            "osm_type": "node",
            "lat": 48.7998294,
            "lon": 16.8033918,
            "name": "Coop",
            "opening_hours": "Mo-Fr 06:00-18:00; Sa 06:00-12:00; Su 07:00-12:00",
            "shop": "supermarket",
            "wheelchair": "yes"
          },
          "geometry": {
            "type": "Point",
            "coordinates": [
              16.8033918,
              48.7998294
            ]
          }
        },
        {
          "type": "Feature",
          "properties": {
            "id": "3103975524",
            "osm_type": "node",
            "lat": 48.6885851,
            "lon": 16.874055,
            "addr:city": "Bernhardsthal",
            "addr:country": "AT",
            "addr:housenumber": "345",
            "addr:postcode": "2275",
            "addr:street": "Hauptstraße",
            "brand": "ADEG",
            "brand:wikidata": "Q290211",
            "name": "Adeg",
            "shop": "supermarket"
          },
          "geometry": {
            "type": "Point",
            "coordinates": [
              16.874055,
              48.6885851
            ]
          }
        },
        {
          "type": "Feature",
          "properties": {
            "id": "3188359955",
            "osm_type": "node",
            "lat": 48.7424849,
            "lon": 16.7566115,
            "addr:city": "Valtice",
            "addr:housenumber": "10",
            "addr:postcode": "69142",
            "addr:street": "Mikulovská",
            "name": "COOP",
            "opening_hours": "Mo-Fr 05:30-17:00; Sa 05:30-11:00",
            "shop": "supermarket"
          },
          "geometry": {
            "type": "Point",
            "coordinates": [
              16.7566115,
              48.7424849
            ]
          }
        },
        {
          "type": "Feature",
          "properties": {
            "id": "4211973287",
            "osm_type": "node",
            "lat": 48.7207973,
            "lon": 16.5856268,
            "addr:city": "Falkenstein",
            "addr:housenumber": "28/2",
            "addr:postcode": "2162",
            "addr:street": "Marktplatz",
            "description": "Brot & Gebäck, feinste Mehlspeisen & Torten, Lebensmittel,Post, Tabak, Lotto/Toto",
            "name": "Bäckerei Kaufhaus Karl Bauer",
            "opening_hours": "Mo-Sa 06:30-12:00; Mo-Fr 16:00-18:30",
            "phone": "+43 676 90 880 15",
            "shop": "supermarket",
            "website": "https://www.baeckereibauer.at/"
          },
          "geometry": {
            "type": "Point",
            "coordinates": [
              16.5856268,
              48.7207973
            ]
          }
        },
        {
          "type": "Feature",
          "properties": {
            "id": "5099034752",
            "osm_type": "node",
            "lat": 48.8543738,
            "lon": 16.7731461,
            "name": "coop",
            "opening_hours": "Mo-Fr 06:00-12:00, 14:00-17:00, 09:00-18:00; Sa 06:00-11:00",
            "shop": "supermarket"
          },
          "geometry": {
            "type": "Point",
            "coordinates": [
              16.7731461,
              48.8543738
            ]
          }
        },
        {
          "type": "Feature",
          "properties": {
            "id": "7848745272",
            "osm_type": "node",
            "lat": 48.7739852,
            "lon": 16.7637795,
            "name": "Coop",
            "opening_hours": "Mo-Fr 05:45-17:00; Sa 06:00-11:30; Su 07:30-10:00",
            "shop": "supermarket"
          },
          "geometry": {
            "type": "Point",
            "coordinates": [
              16.7637795,
              48.7739852
            ]
          }
        },
        {
          "type": "Feature",
          "properties": {
            "id": "9171778090",
            "osm_type": "node",
            "lat": 48.7561468,
            "lon": 16.889849,
            "branch": "Supermarket",
            "brand": "Albert",
            "brand:wikidata": "Q9144241",
            "brand:wikipedia": "cs:Albert (obchodní řetězec)",
            "internet_access": "wlan",
            "internet_access:fee": "customers",
            "level": "0",
            "name": "Albert",
            "opening_hours": "Mo-Su 07:00-20:00",
            "shop": "supermarket",
            "stroller": "yes",
            "website": "https://www.albert.cz/",
            "wheelchair": "yes"
          },
          "geometry": {
            "type": "Point",
            "coordinates": [
              16.889849,
              48.7561468
            ]
          }
        },
        {
          "type": "Feature",
          "properties": {
            "id": "12224186967",
            "osm_type": "node",
            "lat": 48.7004129,
            "lon": 16.8240287,
            "addr:city": "Reintal",
            "addr:housenumber": "33",
            "addr:postcode": "2276",
            "addr:street": "Rein",
            "brand": "ADEG",
            "brand:wikidata": "Q290211",
            "name": "ADEG",
            "opening_hours": "Mo,We 07:00-12:00,15:00-18:00; Tu,Th-Sa 07:00-12:00; Fr 07:00-18:00",
            "shop": "supermarket"
          },
          "geometry": {
            "type": "Point",
            "coordinates": [
              16.8240287,
              48.7004129
            ]
          }
        },
        {
          "type": "Feature",
          "properties": {
            "id": "1403788723",
            "osm_type": "node",
            "lat": 48.8522578,
            "lon": 17.1206206,
            "brand": "Lidl",
            "brand:wikidata": "Q151954",
            "brand:wikipedia": "en:Lidl",
            "check_date": "2024-02-12",
            "internet_access": "wlan",
            "internet_access:fee": "customers",
            "name": "Lidl",
            "opening_hours": "Mo-Sa 07:00-21:00; Su 08:00-21:00",
            "operator": "Lidl Česká republika v.o.s.",
            "shop": "supermarket",
            "stroller": "yes",
            "website": "https://www.lidl.cz/",
            "wheelchair": "yes"
          },
          "geometry": {
            "type": "Point",
            "coordinates": [
              17.1206206,
              48.8522578
            ]
          }
        },
        {
          "type": "Feature",
          "properties": {
            "id": "1403788740",
            "osm_type": "node",
            "lat": 48.8526276,
            "lon": 17.1202584,
            "air_conditioning": "yes",
            "brand": "Penny",
            "brand:facebook": "https://www.facebook.com/PennyMarket",
            "brand:instagram": "https://www.instagram.com/pennymarketcz",
            "brand:website": "https://www.penny.cz",
            "brand:wikidata": "Q284688",
            "brand:wikipedia": "en:Penny (supermarket)",
            "check_date": "2024-02-12",
            "level": "0",
            "name": "Penny",
            "opening_hours": "Mo-Su 07:00-20:00; PH off",
            "shop": "supermarket",
            "stroller": "yes",
            "website": "https://www.penny.cz/",
            "wheelchair": "yes"
          },
          "geometry": {
            "type": "Point",
            "coordinates": [
              17.1202584,
              48.8526276
            ]
          }
        },
        {
          "type": "Feature",
          "properties": {
            "id": "1695267013",
            "osm_type": "node",
            "lat": 48.8531106,
            "lon": 17.1182264,
            "air_conditioning": "yes",
            "branch": "Hodonín, Dvořákova",
            "brand": "Kaufland",
            "brand:wikidata": "Q685967",
            "brand:wikipedia": "en:Kaufland",
            "check_date": "2024-02-12",
            "contact:facebook": "https://www.facebook.com/KauflandCeskaRepublika",
            "level": "0",
            "name": "Kaufland",
            "opening_hours": "Mo-Su 07:00-22:00",
            "operator": "Kaufland Česká republika",
            "phone": "+420 518 322 117",
            "shop": "supermarket",
            "stroller": "yes",
            "website": "https://www.kaufland.cz/",
            "wheelchair": "yes"
          },
          "geometry": {
            "type": "Point",
            "coordinates": [
              17.1182264,
              48.8531106
            ]
          }
        },
        {
          "type": "Feature",
          "properties": {
            "id": "2268065553",
            "osm_type": "node",
            "lat": 48.8597959,
            "lon": 17.1171996,
            "addr:housename": "Coop Jednota",
            "addr:housenumber": "3216/20",
            "addr:postcode": "69501",
            "addr:street": "Cihlářská čtvrť",
            "brand": "Coop",
            "brand:wikidata": "Q52851660",
            "brand:wikipedia": "cz:Jednota",
            "building": "retail",
            "contact:facebook": "https://www.facebook.com/jednotahodonin",
            "level": "0",
            "name": "Coop",
            "opening_hours": "Mo-Th 06:30-19:00; Fr 06:30-20:00; Sa 06:30-12:00; Su 08:00-12:00",
            "operator": "Jednota, spotřební družstvo v Hodoníně",
            "shop": "supermarket",
            "source": "Local knowledge",
            "stroller": "yes",
            "website": "https://jednota-hodonin.cz/",
            "wheelchair": "yes"
          },
          "geometry": {
            "type": "Point",
            "coordinates": [
              17.1171996,
              48.8597959
            ]
          }
        },
        {
          "type": "Feature",
          "properties": {
            "id": "2970725578",
            "osm_type": "node",
            "lat": 48.7185893,
            "lon": 17.1147244,
            "brand": "COOP Jednota",
            "brand:wikidata": "Q41629254",
            "brand:wikipedia": "sk:COOP Jednota Slovensko",
            "name": "COOP Jednota",
            "opening_hours": "Mo-Fr 06:00-20:00; Sa 06:00-14:00; PH off",
            "phone": "+421 34 622 88 27",
            "shop": "supermarket",
            "website": "https://www.coop.sk/"
          },
          "geometry": {
            "type": "Point",
            "coordinates": [
              17.1147244,
              48.7185893
            ]
          }
        },
        {
          "type": "Feature",
          "properties": {
            "id": "3945221477",
            "osm_type": "node",
            "lat": 48.8599859,
            "lon": 17.1129336,
            "name": "Vietnam",
            "opening_hours": "07:00-19:00",
            "payment:credit_cards": "no",
            "payment:debit_cards": "yes",
            "shop": "supermarket",
            "wheelchair": "no"
          },
          "geometry": {
            "type": "Point",
            "coordinates": [
              17.1129336,
              48.8599859
            ]
          }
        },
        {
          "type": "Feature",
          "properties": {
            "id": "5516163721",
            "osm_type": "node",
            "lat": 48.852626,
            "lon": 17.1304748,
            "name": "Coop",
            "opening_hours": "Mo-Fr 06:30-18:00; Sa 06:30-11:00",
            "shop": "supermarket"
          },
          "geometry": {
            "type": "Point",
            "coordinates": [
              17.1304748,
              48.852626
            ]
          }
        },
        {
          "type": "Feature",
          "properties": {
            "id": "6180879691",
            "osm_type": "node",
            "lat": 48.8496288,
            "lon": 17.1290249,
            "addr:city": "Hodonín",
            "addr:housenumber": "257/16",
            "addr:postcode": "69501",
            "addr:street": "Masarykovo nám.",
            "branch": "Supermarket",
            "brand": "Albert",
            "brand:wikidata": "Q9144241",
            "brand:wikipedia": "cs:Albert (obchodní řetězec)",
            "check_date": "2025-02-22",
            "check_date:opening_hours": "2025-02-22",
            "internet_access": "wlan",
            "internet_access:fee": "customers",
            "name": "Albert",
            "opening_hours": "Mo-Su 07:00-20:00",
            "phone": "+420 800 402 402",
            "shop": "supermarket",
            "stroller": "yes",
            "website": "https://www.albert.cz/",
            "wheelchair": "yes"
          },
          "geometry": {
            "type": "Point",
            "coordinates": [
              17.1290249,
              48.8496288
            ]
          }
        },
        {
          "type": "Feature",
          "properties": {
            "id": "7619531046",
            "osm_type": "node",
            "lat": 48.7219552,
            "lon": 17.1067563,
            "brand": "COOP Jednota",
            "brand:wikidata": "Q41629254",
            "brand:wikipedia": "sk:COOP Jednota Slovensko",
            "name": "COOP Jednota",
            "opening_hours": "Mo-Fr 06:00-18:00; Sa 06:00-11:00",
            "phone": "+421 34 662 13 86",
            "shop": "supermarket",
            "website": "https://www.coop.sk/"
          },
          "geometry": {
            "type": "Point",
            "coordinates": [
              17.1067563,
              48.7219552
            ]
          }
        },
        {
          "type": "Feature",
          "properties": {
            "id": "7781506640",
            "osm_type": "node",
            "lat": 48.8153086,
            "lon": 17.0509207,
            "brand": "Hruška",
            "brand:wikidata": "Q58196374",
            "name": "Hruška",
            "shop": "supermarket"
          },
          "geometry": {
            "type": "Point",
            "coordinates": [
              17.0509207,
              48.8153086
            ]
          }
        },
        {
          "type": "Feature",
          "properties": {
            "id": "8213973401",
            "osm_type": "node",
            "lat": 48.790631,
            "lon": 17.1171791,
            "brand": "COOP Jednota",
            "brand:wikidata": "Q41629254",
            "brand:wikipedia": "sk:COOP Jednota Slovensko",
            "name": "COOP Jednota",
            "opening_hours": "Mo-Fr 06:00-19:00; Sa 06:00-12:00",
            "operator": "COOP Jednota Senica",
            "phone": "+421346242971",
            "shop": "supermarket",
            "website": "https://www.coop.sk/"
          },
          "geometry": {
            "type": "Point",
            "coordinates": [
              17.1171791,
              48.790631
            ]
          }
        },
        {
          "type": "Feature",
          "properties": {
            "id": "13124034926",
            "osm_type": "node",
            "lat": 48.8384704,
            "lon": 17.0704291,
            "addr:city": "Lužice",
            "addr:housenumber": "14/275",
            "addr:postcode": "69618",
            "addr:street": "Velkomoravská",
            "name": "Daily Shop",
            "shop": "supermarket"
          },
          "geometry": {
            "type": "Point",
            "coordinates": [
              17.0704291,
              48.8384704
            ]
          }
        },
        {
          "type": "Feature",
          "properties": {
            "id": "13124034927",
            "osm_type": "node",
            "lat": 48.840945,
            "lon": 17.0708781,
            "addr:housenumber": "36/20",
            "addr:street": "Pekařská",
            "brand": "Coop",
            "brand:wikidata": "Q52851660",
            "name": "Coop",
            "shop": "supermarket"
          },
          "geometry": {
            "type": "Point",
            "coordinates": [
              17.0708781,
              48.840945
            ]
          }
        },
        {
          "type": "Feature",
          "properties": {
            "id": "9910817403",
            "osm_type": "node",
            "lat": 48.9636107,
            "lon": 16.2260209,
            "addr:housenumber": "182",
            "addr:postcode": "67171",
            "air_conditioning": "yes",
            "building:levels": "1",
            "check_date": "2025-01-03",
            "currency:CZK": "yes",
            "image": "https://www.jednotamk.cz/res/jednota-skalice-182_5a4c8ad27671a.jpg",
            "internet_access": "no",
            "name": "COOP JEDNOTA Prodejna Skalice",
            "note": "Cashback",
            "opening_hours": "Mo-Fr 06:00-12:00; Tu-Fr 15:00-16:30; Sa 06:00-10:00; Su 07:30-09:30",
            "operator": "COOP Jednota spotřební družstvo Moravský Krumlov",
            "payment:cash": "yes",
            "payment:coins": "yes",
            "payment:credit_cards": "yes",
            "payment:debit_cards": "yes",
            "payment:google_pay": "yes",
            "payment:mastercard": "yes",
            "payment:mastercard_contactless": "yes",
            "payment:notes": "yes",
            "payment:sodexo": "yes",
            "payment:visa": "yes",
            "phone": "515300385",
            "second_hand": "no",
            "shop": "supermarket",
            "source": "survey",
            "toilets": "no",
            "toilets:wheelchair": "yes",
            "website": "https://www.jednotamk.cz/index.php?pg=nase-prodejny-1&cid=119",
            "wheelchair": "yes"
          },
          "geometry": {
            "type": "Point",
            "coordinates": [
              16.2260209,
              48.9636107
            ]
          }
        },
        {
          "type": "Feature",
          "properties": {
            "id": "11423728282",
            "osm_type": "node",
            "lat": 48.9458783,
            "lon": 16.311811,
            "addr:housenumber": "2",
            "addr:postcode": "67172",
            "addr:street": "nám. Svobody 2",
            "check_date": "2024-10-15",
            "internet_access": "no",
            "name": "COOP Jednota",
            "opening_hours": "Mo-Fr 06:00-17:30",
            "payment:cash": "yes",
            "payment:credit_cards": "yes",
            "payment:debit_cards": "yes",
            "phone": "515225726",
            "shop": "supermarket",
            "website": "https://www.jednotamk.cz/index.php?pg=nase-prodejny-1&cid=248",
            "wheelchair": "yes"
          },
          "geometry": {
            "type": "Point",
            "coordinates": [
              16.311811,
              48.9458783
            ]
          }
        },
        {
          "type": "Feature",
          "properties": {
            "id": "12908082498",
            "osm_type": "node",
            "lat": 48.9402387,
            "lon": 16.3256122,
            "brand": "Billa",
            "brand:wikidata": "Q42969493",
            "check_date": "2025-06-11",
            "name": "Billa",
            "shop": "supermarket",
            "wheelchair": "yes"
          },
          "geometry": {
            "type": "Point",
            "coordinates": [
              16.3256122,
              48.9402387
            ]
          }
        },
        {
          "type": "Feature",
          "properties": {
            "id": "12908108784",
            "osm_type": "node",
            "lat": 48.9434458,
            "lon": 16.3204752,
            "brand": "Penny",
            "brand:wikidata": "Q284688",
            "check_date": "2025-06-11",
            "name": "Penny",
            "shop": "supermarket",
            "wheelchair": "yes"
          },
          "geometry": {
            "type": "Point",
            "coordinates": [
              16.3204752,
              48.9434458
            ]
          }
        },
        {
          "type": "Feature",
          "properties": {
            "id": "467468920",
            "osm_type": "node",
            "lat": 48.9467438,
            "lon": 16.7286549,
            "name": "Pennymarket",
            "shop": "supermarket"
          },
          "geometry": {
            "type": "Point",
            "coordinates": [
              16.7286549,
              48.9467438
            ]
          }
        },
        {
          "type": "Feature",
          "properties": {
            "id": "2806390285",
            "osm_type": "node",
            "lat": 48.9692519,
            "lon": 16.6055731,
            "addr:city": "Vranovice",
            "addr:conscriptionnumber": "328",
            "addr:housenumber": "328",
            "addr:place": "Vranovice",
            "addr:postcode": "69125",
            "addr:street": "Školní",
            "name": "Potraviny Losa",
            "opening_hours": "06:00 - 17:00",
            "phone": "+420 519 433 390",
            "ref:ruian:addr": "10180346",
            "shop": "supermarket"
          },
          "geometry": {
            "type": "Point",
            "coordinates": [
              16.6055731,
              48.9692519
            ]
          }
        },
        {
          "type": "Feature",
          "properties": {
            "id": "5111151330",
            "osm_type": "node",
            "lat": 48.9150375,
            "lon": 16.897202,
            "name": "COOP - Jednota Mikulov",
            "opening_hours": "Mo-Fr 06:00-17:00; Sa 06:00-11:00",
            "shop": "supermarket"
          },
          "geometry": {
            "type": "Point",
            "coordinates": [
              16.897202,
              48.9150375
            ]
          }
        },
        {
          "type": "Feature",
          "properties": {
            "id": "8069268239",
            "osm_type": "node",
            "lat": 48.9436952,
            "lon": 16.7253523,
            "brand": "Hruška",
            "brand:wikidata": "Q58196374",
            "name": "Hruška",
            "shop": "supermarket"
          },
          "geometry": {
            "type": "Point",
            "coordinates": [
              16.7253523,
              48.9436952
            ]
          }
        },
        {
          "type": "Feature",
          "properties": {
            "id": "8123166859",
            "osm_type": "node",
            "lat": 48.906247,
            "lon": 16.8158502,
            "name": "Enapo",
            "opening_hours": "Mo-Sa 06:30-19:00; Su 07:30-19:00",
            "shop": "supermarket"
          },
          "geometry": {
            "type": "Point",
            "coordinates": [
              16.8158502,
              48.906247
            ]
          }
        },
        {
          "type": "Feature",
          "properties": {
            "id": "8151641911",
            "osm_type": "node",
            "lat": 48.9005118,
            "lon": 17.0260671,
            "brand": "Hruška",
            "brand:wikidata": "Q58196374",
            "name": "Hruška",
            "shop": "supermarket"
          },
          "geometry": {
            "type": "Point",
            "coordinates": [
              17.0260671,
              48.9005118
            ]
          }
        },
        {
          "type": "Feature",
          "properties": {
            "id": "9902787248",
            "osm_type": "node",
            "lat": 48.8883107,
            "lon": 16.6447523,
            "brand": "Coop",
            "brand:facebook": "https://www.facebook.com/jednotamikulov",
            "brand:website": "https://www.jednota.cz",
            "brand:wikidata": "Q52851660",
            "brand:wikipedia": "cz:Jednota",
            "level": "0",
            "name": "Coop",
            "opening_hours": "Mo-Fr 06:00-16:30; Sa 06:30-11:00; PH off",
            "operator": "Jednota, spotřební družstvo v Mikulově",
            "shop": "supermarket",
            "stroller": "yes",
            "website": "https://www.jednota.cz",
            "wheelchair": "yes"
          },
          "geometry": {
            "type": "Point",
            "coordinates": [
              16.6447523,
              48.8883107
            ]
          }
        },
        {
          "type": "Feature",
          "properties": {
            "id": "1929500017",
            "osm_type": "node",
            "lat": 49.0101845,
            "lon": 17.1234176,
            "name": "Supermarket IPOS-S",
            "shop": "supermarket",
            "website": "http://www.mohruska.cz/2prodejny.php"
          },
          "geometry": {
            "type": "Point",
            "coordinates": [
              17.1234176,
              49.0101845
            ]
          }
        },
        {
          "type": "Feature",
          "properties": {
            "id": "2258683750",
            "osm_type": "node",
            "lat": 49.0107168,
            "lon": 17.1252878,
            "addr:housename": "Potraviny Hruška",
            "addr:housenumber": "48",
            "addr:postcode": "69701",
            "addr:street": "třída Komenského",
            "name": "Potraviny Hruška",
            "shop": "supermarket",
            "source": "local knowledge"
          },
          "geometry": {
            "type": "Point",
            "coordinates": [
              17.1252878,
              49.0107168
            ]
          }
        }
      ],
      "children": []
    }
  ]
}