{
  "bbox": {
    "south": 47.033758500000005,
    "west": 9.530952,
    "north": 47.694865,
    "east": 11.438358999999998
  },
  "poiCount": 10,
  "leafCount": 10,
  "averagePosition": [
    10.477076630000001,
    47.43296303
  ],
  "data": [
    {
      "type": "Feature",
      "properties": {
        "id": "354435079",
        "osm_type": "node",
        "lat": 47.2155686,
        "lon": 9.5507378,
        "addr:city": "Mauren",
        "addr:country": "LI",
        "addr:housenumber": "4",
        "addr:postcode": "9493",
        "addr:street": "Josef Murr Weg",
        "fee": "no",
        "name": "Vogelparadies Birka",
        "opening_hours": "24/7",
        "operator": "Ornithologischer Verein Mauren",
        "tourism": "zoo",
        "wheelchair": "yes",
        "wikidata": "Q65552703",
        "zoo": "birds"
      },
      "geometry": {
        "type": "Point",
        "coordinates": [
          9.5507378,
          47.2155686
        ]
      }
    },
    {
      "type": "Feature",
      "properties": {
        "id": "10080165669",
        "osm_type": "node",
        "lat": 47.0595541,
        "lon": 10.5930904,
        "tourism": "zoo",
        "zoo": "petting_zoo"
      },
      "geometry": {
        "type": "Point",
        "coordinates": [
          10.5930904,
          47.0595541
        ]
      }
    },
    {
      "type": "Feature",
      "properties": {
        "id": "13073011160",
        "osm_type": "node",
        "lat": 47.2431213,
        "lon": 11.3752642,
        "name": "Martinas Bauernhof",
        "tourism": "zoo",
        "zoo": "petting_zoo"
      },
      "geometry": {
        "type": "Point",
        "coordinates": [
          11.3752642,
          47.2431213
        ]
      }
    },
    {
      "type": "Feature",
      "properties": {
        "id": "12134050333",
        "osm_type": "node",
        "lat": 47.6753966,
        "lon": 9.8219274,
        "tourism": "zoo",
        "zoo": "petting_zoo"
      },
      "geometry": {
        "type": "Point",
        "coordinates": [
          9.8219274,
          47.6753966
        ]
      }
    },
    {
      "type": "Feature",
      "properties": {
        "id": "9079468549",
        "osm_type": "node",
        "lat": 47.4605874,
        "lon": 10.0740061,
        "name": "Streichel Gehege Ziegen",
        "tourism": "zoo"
      },
      "geometry": {
        "type": "Point",
        "coordinates": [
          10.0740061,
          47.4605874
        ]
      }
    },
    {
      "type": "Feature",
      "properties": {
        "id": "12876742157",
        "osm_type": "node",
        "lat": 47.496895,
        "lon": 10.2368985,
        "name": "Hasen",
        "tourism": "zoo",
        "zoo": "petting_zoo"
      },
      "geometry": {
        "type": "Point",
        "coordinates": [
          10.2368985,
          47.496895
        ]
      }
    },
    {
      "type": "Feature",
      "properties": {
        "id": "292792996",
        "osm_type": "node",
        "lat": 47.4207539,
        "lon": 10.7966228,
        "name": "Tierpark Streichelzoo",
        "tourism": "zoo",
        "url": "http://www.streichelzoo.com"
      },
      "geometry": {
        "type": "Point",
        "coordinates": [
          10.7966228,
          47.4207539
        ]
      }
    },
    {
      "type": "Feature",
      "properties": {
        "id": "7086349059",
        "osm_type": "node",
        "lat": 47.5645503,
        "lon": 10.6956834,
        "addr:city": "Füssen",
        "addr:housenumber": "10",
        "addr:postcode": "87629",
        "addr:street": "Mühlbachgasse",
        "fee": "yes",
        "name": "Reptilienzoo Allgäu",
        "phone": "+49 8362 9247074",
        "toilets": "yes",
        "tourism": "zoo",
        "website": "https://www.reptilienzoo-allgäu.de/",
        "wheelchair": "no",
        "zoo": "reptile"
      },
      "geometry": {
        "type": "Point",
        "coordinates": [
          10.6956834,
          47.5645503
        ]
      }
    },
    {
      "type": "Feature",
      "properties": {
        "id": "11100337078",
        "osm_type": "node",
        "lat": 47.5976466,
        "lon": 10.5611145,
        "addr:city": "Pfronten",
        "addr:country": "DE",
        "addr:housenumber": "5",
        "addr:postcode": "87459",
        "addr:street": "Gernweg",
        "addr:suburb": "Weißbach",
        "name": "Allgäuer Schmetterling Erlebniswelt",
        "opening_hours": "Oct-Mar: We-Su,PH 11:00-16:00; Apr-Sep: Tu-Su,PH 10:00-16:30; 2023 Nov 13-2024 Jan 12 off",
        "phone": "+49 8363 393",
        "tourism": "zoo",
        "website": "https://schmetterling-erlebniswelt.de/",
        "wheelchair": "yes",
        "wikidata": "Q119173036",
        "zoo": "butterfly"
      },
      "geometry": {
        "type": "Point",
        "coordinates": [
          10.5611145,
          47.5976466
        ]
      }
    },
    {
      "type": "Feature",
      "properties": {
        "id": "9016810117",
        "osm_type": "node",
        "lat": 47.5955565,
        "lon": 11.0654212,
        "addr:city": "Oberammergau",
        "addr:country": "DE",
        "addr:housenumber": "5",
        "addr:postcode": "82487",
        "addr:street": "Lüftlmalereck",
        "animal": "snake",
        "email": "t.luecke@reptilien-haus.de",
        "fax": "+49 8822 932577",
        "name": "Reptilienhaus Oberammergau",
        "opening_hours": "Sa-We 10:00-17:00",
        "phone": "+49 8822 1477",
        "tourism": "zoo",
        "website": "https://www.reptilien-haus.de/"
      },
      "geometry": {
        "type": "Point",
        "coordinates": [
          11.0654212,
          47.5955565
        ]
      }
    }
  ],
  "children": []
}