{
  "bbox": {
    "south": 48.355971499999995,
    "west": 13.345766,
    "north": 49.017078,
    "east": 15.253173
  },
  "poiCount": 5,
  "leafCount": 5,
  "averagePosition": [
    14.289500100000001,
    48.746857
  ],
  "data": [
    {
      "type": "Feature",
      "properties": {
        "id": "1720415298",
        "osm_type": "node",
        "lat": 48.8183623,
        "lon": 13.3650654,
        "name": "Privates Tiergelände (Bison)",
        "tourism": "zoo"
      },
      "geometry": {
        "type": "Point",
        "coordinates": [
          13.3650654,
          48.8183623
        ]
      }
    },
    {
      "type": "Feature",
      "properties": {
        "id": "4128031845",
        "osm_type": "node",
        "lat": 48.7051478,
        "lon": 13.9462193,
        "tourism": "zoo",
        "zoo": "petting_zoo"
      },
      "geometry": {
        "type": "Point",
        "coordinates": [
          13.9462193,
          48.7051478
        ]
      }
    },
    {
      "type": "Feature",
      "properties": {
        "id": "9775312176",
        "osm_type": "node",
        "lat": 48.6407056,
        "lon": 14.2233328,
        "addr:city": "Lipno nad Vltavou",
        "addr:housenumber": "86",
        "addr:place": "Lipno nad Vltavou",
        "addr:postcode": "38278",
        "contact:email": "lipno@papilonia.cz",
        "contact:facebook": "https://www.facebook.com/papilonialipno",
        "contact:phone": "+420775 381 599",
        "contact:website": "https://papilonia.cz/en",
        "name": "Papilonia",
        "opening_hours": "Jan 01-Mar 15,Jun 01-Sep 15 10:00-19:00; Mar 16-May 31,Sep 16-Dec 19 Mo-Fr 13:00-18:00; Mar 16-May 31,Sep 16-Dec 19 Sa,Su 10:00-19:00; Dec 25-26 Mo-Su 10:00-19:00",
        "tourism": "zoo",
        "zoo": "butterfly"
      },
      "geometry": {
        "type": "Point",
        "coordinates": [
          14.2233328,
          48.6407056
        ]
      }
    },
    {
      "type": "Feature",
      "properties": {
        "id": "8773984383",
        "osm_type": "node",
        "lat": 48.6966331,
        "lon": 14.7927403,
        "addr:city": "Moorbad Harbach",
        "addr:housenumber": "40",
        "addr:place": "Lauterbach",
        "addr:postcode": "3970",
        "email": "ponyhof@holzmuehle.at",
        "name": "Ponyhof Holzmühle",
        "phone": "+436645077371",
        "tourism": "zoo",
        "website": "https://www.ponyhof-holzmuehle.at",
        "zoo": "petting_zoo"
      },
      "geometry": {
        "type": "Point",
        "coordinates": [
          14.7927403,
          48.6966331
        ]
      }
    },
    {
      "type": "Feature",
      "properties": {
        "id": "11032311034",
        "osm_type": "node",
        "lat": 48.8734362,
        "lon": 15.1201427,
        "addr:city": "Heidenreichstein",
        "addr:country": "AT",
        "addr:housenumber": "18",
        "addr:postcode": "3860",
        "addr:street": "Litschauer Straße",
        "check_date": "2023-08-13",
        "fee": "no",
        "name": "Streichelzoo",
        "tourism": "zoo",
        "zoo": "petting_zoo"
      },
      "geometry": {
        "type": "Point",
        "coordinates": [
          15.1201427,
          48.8734362
        ]
      }
    }
  ],
  "children": []
}