{
  "bbox": {
    "south": 48.355971499999995,
    "west": 15.253173,
    "north": 49.017078,
    "east": 17.16058
  },
  "poiCount": 179,
  "leafCount": 0,
  "averagePosition": [
    16.213088830726257,
    48.583124373184354
  ],
  "data": [],
  "children": [
    {
      "bbox": {
        "south": 48.355971499999995,
        "west": 15.253173,
        "north": 48.68652475,
        "east": 16.2068765
      },
      "poiCount": 65,
      "leafCount": 0,
      "averagePosition": [
        15.706744103076923,
        48.48498828615384
      ],
      "data": [],
      "children": [
        {
          "bbox": {
            "south": 48.355971499999995,
            "west": 15.253173,
            "north": 48.521248125,
            "east": 15.73002475
          },
          "poiCount": 40,
          "leafCount": 40,
          "averagePosition": [
            15.5903884175,
            48.42079571
          ],
          "data": [
            {
              "type": "Feature",
              "properties": {
                "id": "7346683908",
                "osm_type": "node",
                "lat": 48.3619873,
                "lon": 15.4156704,
                "addr:city": "Spitz",
                "addr:country": "AT",
                "addr:housenumber": "3a",
                "addr:postcode": "3620",
                "addr:street": "Mittergasse",
                "at_bev:addr_date": "2021-10-01",
                "female": "yes",
                "male": "yes",
                "name": "Frisier Salon mit Stil",
                "opening_hours": "Tu-Th 09:00-18:00; Fr 09:00-19:00; Sa 08:00-13:00; Mo off",
                "shop": "hairdresser"
              },
              "geometry": {
                "type": "Point",
                "coordinates": [
                  15.4156704,
                  48.3619873
                ]
              }
            },
            {
              "type": "Feature",
              "properties": {
                "id": "1119744939",
                "osm_type": "node",
                "lat": 48.5157814,
                "lon": 15.491026,
                "addr:city": "Gföhl",
                "addr:housenumber": "3",
                "addr:postcode": "3542",
                "addr:street": "Kirchengasse",
                "name": "Lang und Haar",
                "opening_hours": "Tu-We 08:00-18:00; Th-Fr 8:00-19:00; Sa 08:00-15:00; Mo,PH off",
                "operator": "Johannes Lang",
                "phone": "+4327166496",
                "shop": "hairdresser",
                "website": "https://www.langundhaar.at/"
              },
              "geometry": {
                "type": "Point",
                "coordinates": [
                  15.491026,
                  48.5157814
                ]
              }
            },
            {
              "type": "Feature",
              "properties": {
                "id": "1366122326",
                "osm_type": "node",
                "lat": 48.5160098,
                "lon": 15.4925958,
                "addr:city": "Gföhl",
                "addr:housenumber": "1",
                "addr:postcode": "3542",
                "addr:street": "Kremser Straße",
                "check_date": "2025-05-30",
                "female": "yes",
                "male": "yes",
                "name": "Salon Stastny",
                "opening_hours": "Tu-Th 07:30-12:00,13:30-18:30; Fr 07:30-19:00; Sa 07:30-13:00",
                "operator": "Bernhard Stastny",
                "phone": "+4327168113",
                "shop": "hairdresser",
                "website": "https://www.salon-stastny.at/"
              },
              "geometry": {
                "type": "Point",
                "coordinates": [
                  15.4925958,
                  48.5160098
                ]
              }
            },
            {
              "type": "Feature",
              "properties": {
                "id": "1800903826",
                "osm_type": "node",
                "lat": 48.3967434,
                "lon": 15.4695911,
                "addr:city": "Weißenkirchen in der Wachau",
                "addr:country": "AT",
                "addr:housenumber": "30/1/B",
                "addr:postcode": "3610",
                "addr:street": "Rathausplatz",
                "name": "Friseur Schnittstelle",
                "phone": "+43 2715 22 40",
                "shop": "hairdresser",
                "website": "https://de-de.facebook.com/pages/category/Health-Beauty/Friseursalon-Schnittstelle-1233423250001829"
              },
              "geometry": {
                "type": "Point",
                "coordinates": [
                  15.4695911,
                  48.3967434
                ]
              }
            },
            {
              "type": "Feature",
              "properties": {
                "id": "8164982349",
                "osm_type": "node",
                "lat": 48.4183658,
                "lon": 15.30829,
                "name": "Böhm Lydia - Friseur",
                "shop": "hairdresser"
              },
              "geometry": {
                "type": "Point",
                "coordinates": [
                  15.30829,
                  48.4183658
                ]
              }
            },
            {
              "type": "Feature",
              "properties": {
                "id": "10018105460",
                "osm_type": "node",
                "lat": 48.5167264,
                "lon": 15.4913004,
                "addr:city": "Gföhl",
                "addr:housenumber": "5",
                "addr:postcode": "3542",
                "addr:street": "Pollhammerstraße",
                "female": "yes",
                "male": "yes",
                "name": "Barbershop",
                "opening_hours": "Mo-Fr 08:30-19:00, Sa 08:30-17:30",
                "phone": "+4368864293488",
                "shop": "hairdresser"
              },
              "geometry": {
                "type": "Point",
                "coordinates": [
                  15.4913004,
                  48.5167264
                ]
              }
            },
            {
              "type": "Feature",
              "properties": {
                "id": "443716548",
                "osm_type": "node",
                "lat": 48.4728116,
                "lon": 15.6760657,
                "name": "Magic Hair Team",
                "shop": "hairdresser"
              },
              "geometry": {
                "type": "Point",
                "coordinates": [
                  15.6760657,
                  48.4728116
                ]
              }
            },
            {
              "type": "Feature",
              "properties": {
                "id": "456842691",
                "osm_type": "node",
                "lat": 48.4166562,
                "lon": 15.6273926,
                "addr:city": "Krems an der Donau",
                "addr:country": "AT",
                "addr:housenumber": "8",
                "addr:postcode": "3500",
                "addr:street": "Landersdorfer Straße",
                "brand": "Klipp",
                "brand:wikidata": "Q1737304",
                "brand:wikipedia": "de:Klipp Frisör",
                "email": "info@klipp.at",
                "female": "yes",
                "level": "0",
                "male": "yes",
                "name": "Klipp",
                "phone": "+43 7242 657 550",
                "shop": "hairdresser",
                "website": "https://www.klipp.at/",
                "wheelchair": "yes"
              },
              "geometry": {
                "type": "Point",
                "coordinates": [
                  15.6273926,
                  48.4166562
                ]
              }
            },
            {
              "type": "Feature",
              "properties": {
                "id": "456877538",
                "osm_type": "node",
                "lat": 48.4171599,
                "lon": 15.6198596,
                "addr:city": "Krems an der Donau",
                "addr:country": "AT",
                "addr:housenumber": "91",
                "addr:postcode": "3500",
                "addr:street": "Wiener Straße",
                "level": "0",
                "name": "Strassl",
                "opening_hours": "Mo-Th 09:00-19:00; Fr 08:00-20:00; Sa 08:00-18:00",
                "phone": "+43 2732 715 75",
                "shop": "hairdresser",
                "unisex": "yes",
                "website": "https://www.strassl.at/",
                "wheelchair": "yes"
              },
              "geometry": {
                "type": "Point",
                "coordinates": [
                  15.6198596,
                  48.4171599
                ]
              }
            },
            {
              "type": "Feature",
              "properties": {
                "id": "607013450",
                "osm_type": "node",
                "lat": 48.4099265,
                "lon": 15.6055077,
                "addr:city": "Krems an der Donau",
                "addr:country": "AT",
                "addr:housenumber": "19",
                "addr:postcode": "3500",
                "addr:street": "Bahnhofplatz",
                "check_date": "2025-06-07",
                "check_date:opening_hours": "2025-06-07",
                "female": "yes",
                "male": "yes",
                "name": "Chaarisma",
                "opening_hours": "Mo-Th 09:00-18:00; Fr,Sa 09:00-19:00",
                "shop": "hairdresser"
              },
              "geometry": {
                "type": "Point",
                "coordinates": [
                  15.6055077,
                  48.4099265
                ]
              }
            },
            {
              "type": "Feature",
              "properties": {
                "id": "607053230",
                "osm_type": "node",
                "lat": 48.4116654,
                "lon": 15.600511,
                "addr:city": "Krems an der Donau",
                "addr:country": "AT",
                "addr:housenumber": "16",
                "addr:postcode": "3500",
                "addr:street": "Pfarrplatz",
                "name": "Perfect Hair",
                "opening_hours": "Tu-Th 08:30-18:00; Fr 08:00-18:00; Sa 08:00-13:00",
                "phone": "+43 2732 726 12",
                "shop": "hairdresser",
                "unisex": "yes",
                "website": "https://www.salon-perfecthair.at/"
              },
              "geometry": {
                "type": "Point",
                "coordinates": [
                  15.600511,
                  48.4116654
                ]
              }
            },
            {
              "type": "Feature",
              "properties": {
                "id": "607053296",
                "osm_type": "node",
                "lat": 48.4106683,
                "lon": 15.6027759,
                "addr:city": "Krems an der Donau",
                "addr:country": "AT",
                "addr:housenumber": "2",
                "addr:postcode": "3500",
                "addr:street": "Dinstlstraße",
                "male": "yes",
                "name": "Kili's Barbershop",
                "opening_hours": "Mo-Fr 09:00-19:00; Sa 09:00-18:00",
                "phone": "+43 676 365 77 05",
                "shop": "hairdresser",
                "website": "https://kilis-barbershop.business.site"
              },
              "geometry": {
                "type": "Point",
                "coordinates": [
                  15.6027759,
                  48.4106683
                ]
              }
            },
            {
              "type": "Feature",
              "properties": {
                "id": "607053314",
                "osm_type": "node",
                "lat": 48.4101858,
                "lon": 15.6039685,
                "addr:city": "Krems an der Donau",
                "addr:country": "AT",
                "addr:housenumber": "20",
                "addr:postcode": "3500",
                "addr:street": "Ringstraße",
                "email": "office@lackner-friseure.at",
                "female": "yes",
                "male": "yes",
                "name": "Lackner Bennör",
                "opening_hours": "Tu-Fr 08:00-19:00; Sa 08:00-15:00",
                "operator": "Sascha Bennör",
                "payment:cash": "yes",
                "payment:mastercard": "yes",
                "payment:visa": "yes",
                "phone": "+43 2732 85600 0",
                "shop": "hairdresser",
                "website": "https://www.lackner-friseure.at/"
              },
              "geometry": {
                "type": "Point",
                "coordinates": [
                  15.6039685,
                  48.4101858
                ]
              }
            },
            {
              "type": "Feature",
              "properties": {
                "id": "648535329",
                "osm_type": "node",
                "lat": 48.4052732,
                "lon": 15.6587429,
                "addr:city": "Krems an der Donau",
                "addr:country": "AT",
                "addr:housenumber": "6b",
                "addr:postcode": "3500",
                "addr:street": "Gewerbeparkstraße",
                "name": "dm",
                "phone": "+43 2732 783 11 15",
                "shop": "hairdresser",
                "unisex": "yes",
                "website": "https://www.dm-drogeriemarkt.at/",
                "wheelchair": "yes"
              },
              "geometry": {
                "type": "Point",
                "coordinates": [
                  15.6587429,
                  48.4052732
                ]
              }
            },
            {
              "type": "Feature",
              "properties": {
                "id": "3278493137",
                "osm_type": "node",
                "lat": 48.4138683,
                "lon": 15.6344307,
                "addr:city": "Krems an der Donau",
                "addr:country": "AT",
                "addr:housenumber": "6",
                "addr:postcode": "3500",
                "addr:street": "Lerchenfelder Hauptplatz",
                "name": "Signature Style",
                "opening_hours": "Tu,We 08:00-12:00,14:00-18:00; Th 08:00-12:00,17:30-20:30; Fr 10:00-17:00; Sa 08:00-12:00; Mo off",
                "phone": "+43 676 605 24 87",
                "shop": "hairdresser",
                "website": "https://www.signaturestyle.at/",
                "wheelchair": "limited"
              },
              "geometry": {
                "type": "Point",
                "coordinates": [
                  15.6344307,
                  48.4138683
                ]
              }
            },
            {
              "type": "Feature",
              "properties": {
                "id": "3968582483",
                "osm_type": "node",
                "lat": 48.4182571,
                "lon": 15.5608054,
                "addr:city": "Egelsee",
                "addr:country": "AT",
                "addr:housenumber": "11",
                "addr:postcode": "3500",
                "addr:street": "Sandlstraße",
                "name": "Frisiersalon Scheichl",
                "opening_hours": "Tu-Fr 08:00-12:00,13:00-17:30; Sa 08:00-12:00, Mo,Su,PH off",
                "phone": "+43 2732 831 272",
                "shop": "hairdresser"
              },
              "geometry": {
                "type": "Point",
                "coordinates": [
                  15.5608054,
                  48.4182571
                ]
              }
            },
            {
              "type": "Feature",
              "properties": {
                "id": "4040772021",
                "osm_type": "node",
                "lat": 48.4092467,
                "lon": 15.6049463,
                "addr:city": "Krems an der Donau",
                "addr:country": "AT",
                "addr:housenumber": "1-3",
                "addr:postcode": "3500",
                "addr:street": "Bahnhofplatz",
                "check_date": "2025-06-07",
                "check_date:opening_hours": "2025-06-07",
                "contact:email": "office@friseur-burak.at",
                "contact:phone": "+43 676 5027633",
                "contact:website": "http://www.friseur-burak.at/",
                "male": "yes",
                "name": "Friseur Burak",
                "opening_hours": "Mo 10:00-19:00; Tu-Fr 09:00-19:00; Sa 09:00-18:00; PH off",
                "shop": "hairdresser"
              },
              "geometry": {
                "type": "Point",
                "coordinates": [
                  15.6049463,
                  48.4092467
                ]
              }
            },
            {
              "type": "Feature",
              "properties": {
                "id": "4040772022",
                "osm_type": "node",
                "lat": 48.4097659,
                "lon": 15.6045139,
                "addr:city": "Krems an der Donau",
                "addr:country": "AT",
                "addr:housenumber": "14-18",
                "addr:postcode": "3500",
                "addr:street": "Bahnhofplatz",
                "check_date": "2025-06-07",
                "contact:phone": "+43 2732 83133",
                "contact:website": "http://www.strassl.at",
                "female:signed": "no",
                "male:signed": "no",
                "name": "Intercoiffeur Strassl",
                "opening_hours": "Mo 09:00-18:30; Tu,We 08:30-18:30; Th 08:30-19:00; Fr 08:00-19:00; Sa 08:00-14:00; PH off",
                "shop": "hairdresser",
                "wheelchair": "no"
              },
              "geometry": {
                "type": "Point",
                "coordinates": [
                  15.6045139,
                  48.4097659
                ]
              }
            },
            {
              "type": "Feature",
              "properties": {
                "id": "4040772023",
                "osm_type": "node",
                "lat": 48.4095558,
                "lon": 15.6039164,
                "addr:city": "Krems an der Donau",
                "addr:country": "AT",
                "addr:housenumber": "12",
                "addr:postcode": "3500",
                "addr:street": "Bahnhofplatz",
                "female:signed": "no",
                "male:signed": "no",
                "name": "XACT Hairstyle",
                "opening_hours": "Mo-Fr 09:00-19:00; Sa 09:00-18:00",
                "shop": "hairdresser"
              },
              "geometry": {
                "type": "Point",
                "coordinates": [
                  15.6039164,
                  48.4095558
                ]
              }
            },
            {
              "type": "Feature",
              "properties": {
                "id": "4040772027",
                "osm_type": "node",
                "lat": 48.4095608,
                "lon": 15.6048548,
                "addr:city": "Krems an der Donau",
                "addr:country": "AT",
                "addr:housenumber": "17",
                "addr:postcode": "3500",
                "addr:street": "Bahnhofplatz",
                "check_date": "2025-06-07",
                "contact:email": "office@haarvirus.at",
                "contact:phone": "+43 2732 823 83",
                "contact:website": "http://www.haarvirus.at",
                "female": "yes",
                "male": "yes",
                "name": "Haar Virus",
                "opening_hours": "Mo-Fr 08:30-18:00; Sa,PH off",
                "shop": "hairdresser"
              },
              "geometry": {
                "type": "Point",
                "coordinates": [
                  15.6048548,
                  48.4095608
                ]
              }
            },
            {
              "type": "Feature",
              "properties": {
                "id": "4138264189",
                "osm_type": "node",
                "lat": 48.4037014,
                "lon": 15.586851,
                "addr:city": "Krems an der Donau",
                "addr:country": "AT",
                "addr:housenumber": "2",
                "addr:postcode": "3500",
                "addr:street": "Göttweigerhofgasse",
                "name": "Frisiersalon mit Stil",
                "opening_hours": "Tu-Th 09:00-18:00; Fr 09:00-19:00; Sa 08:00-18:00; PH off",
                "phone": "+43 2732 87979",
                "shop": "hairdresser",
                "website": "http://www.frisiersalonmitstil.at"
              },
              "geometry": {
                "type": "Point",
                "coordinates": [
                  15.586851,
                  48.4037014
                ]
              }
            },
            {
              "type": "Feature",
              "properties": {
                "id": "4215963669",
                "osm_type": "node",
                "lat": 48.393772,
                "lon": 15.5768889,
                "addr:city": "Mautern an der Donau",
                "addr:country": "AT",
                "addr:housenumber": "3",
                "addr:postcode": "3512",
                "addr:street": "Sankt Pöltner Straße",
                "alt_name": "Mauterner Haarstube - Zant Leopoldine",
                "at_bev:addr_date": "2023-04-15",
                "email": "mauterner@haarstube.at",
                "female": "yes",
                "male": "yes",
                "name": "Mauterner Haarstube",
                "opening_hours": "Tu-Fr 08:00-12:00,14:00-17:30; Sa 08:00-11:30",
                "phone": "+43 2732 77366",
                "shop": "hairdresser",
                "website": "http://www.haarstube.at"
              },
              "geometry": {
                "type": "Point",
                "coordinates": [
                  15.5768889,
                  48.393772
                ]
              }
            },
            {
              "type": "Feature",
              "properties": {
                "id": "4239868129",
                "osm_type": "node",
                "lat": 48.4009485,
                "lon": 15.5788609,
                "addr:city": "Krems an der Donau",
                "addr:country": "AT",
                "addr:housenumber": "87",
                "addr:postcode": "3500",
                "addr:street": "Steiner Landstraße",
                "name": "Hairstyling Karin Gattinger",
                "shop": "hairdresser"
              },
              "geometry": {
                "type": "Point",
                "coordinates": [
                  15.5788609,
                  48.4009485
                ]
              }
            },
            {
              "type": "Feature",
              "properties": {
                "id": "4592843840",
                "osm_type": "node",
                "lat": 48.3740115,
                "lon": 15.6135307,
                "addr:city": "Furth bei Göttweig",
                "addr:country": "AT",
                "addr:housenumber": "285",
                "addr:postcode": "3511",
                "addr:street": "Obere Landstraße",
                "contact:email": "furth@salon-perfecthair.at",
                "contact:phone": "+43 2732 85288",
                "name": "Perfect Hair",
                "opening_hours": "Tu-Fr 08:00-12:00, 13:00-18:00; Sa 07:30-12:00",
                "shop": "hairdresser",
                "website": "https://www.salon-perfecthair.at/"
              },
              "geometry": {
                "type": "Point",
                "coordinates": [
                  15.6135307,
                  48.3740115
                ]
              }
            },
            {
              "type": "Feature",
              "properties": {
                "id": "4938636591",
                "osm_type": "node",
                "lat": 48.4226312,
                "lon": 15.5878836,
                "addr:city": "Rehberg",
                "addr:country": "AT",
                "addr:housenumber": "1",
                "addr:postcode": "3500",
                "addr:street": "Mühlhofstraße",
                "check_date": "2025-05-30",
                "name": "Frisiersalon Margit",
                "phone": "+43 2732 790 20",
                "shop": "hairdresser"
              },
              "geometry": {
                "type": "Point",
                "coordinates": [
                  15.5878836,
                  48.4226312
                ]
              }
            },
            {
              "type": "Feature",
              "properties": {
                "id": "4992097067",
                "osm_type": "node",
                "lat": 48.409347,
                "lon": 15.5970803,
                "addr:city": "Krems an der Donau",
                "addr:country": "AT",
                "addr:housenumber": "1",
                "addr:postcode": "3500",
                "addr:street": "Utzstraße",
                "level": "0",
                "name": "hair-fair",
                "phone": "+43 2732 741 86",
                "shop": "hairdresser",
                "unisex": "yes",
                "website": "https://hairfair.at/",
                "wheelchair": "yes"
              },
              "geometry": {
                "type": "Point",
                "coordinates": [
                  15.5970803,
                  48.409347
                ]
              }
            },
            {
              "type": "Feature",
              "properties": {
                "id": "5396024210",
                "osm_type": "node",
                "lat": 48.4119766,
                "lon": 15.6155017,
                "addr:city": "Krems an der Donau",
                "addr:country": "AT",
                "addr:housenumber": "10",
                "addr:postcode": "3500",
                "addr:street": "Mitterweg",
                "name": "Friseur",
                "phone": "+43 2732 9004 2997",
                "shop": "hairdresser",
                "unisex": "yes",
                "website": "https://www.krems.lknoe.at/",
                "wheelchair": "yes"
              },
              "geometry": {
                "type": "Point",
                "coordinates": [
                  15.6155017,
                  48.4119766
                ]
              }
            },
            {
              "type": "Feature",
              "properties": {
                "id": "5752000347",
                "osm_type": "node",
                "lat": 48.4133051,
                "lon": 15.6355221,
                "addr:city": "Krems an der Donau",
                "addr:country": "AT",
                "addr:housenumber": "11 a",
                "addr:postcode": "3500",
                "addr:street": "Lerchenfelder Hauptplatz",
                "name": "Miss Barber",
                "phone": "+43 2732 746 28",
                "shop": "hairdresser",
                "website": "https://de-de.facebook.com/Miss-Barber-1920778668206953"
              },
              "geometry": {
                "type": "Point",
                "coordinates": [
                  15.6355221,
                  48.4133051
                ]
              }
            },
            {
              "type": "Feature",
              "properties": {
                "id": "5775275630",
                "osm_type": "node",
                "lat": 48.4050158,
                "lon": 15.6534442,
                "addr:city": "Krems an der Donau",
                "addr:country": "AT",
                "addr:housenumber": "40",
                "addr:postcode": "3500",
                "addr:street": "An der Schütt",
                "name": "Unikat Hairstyle",
                "phone": "+43 2732 738 65",
                "shop": "hairdresser",
                "unisex": "yes",
                "website": "https://www.unikat-hairstyle.at"
              },
              "geometry": {
                "type": "Point",
                "coordinates": [
                  15.6534442,
                  48.4050158
                ]
              }
            },
            {
              "type": "Feature",
              "properties": {
                "id": "5781416837",
                "osm_type": "node",
                "lat": 48.4046267,
                "lon": 15.6594068,
                "addr:city": "Krems an der Donau",
                "addr:country": "AT",
                "addr:housenumber": "8",
                "addr:postcode": "3500",
                "addr:street": "Gewerbeparkstraße",
                "name": "Belissima",
                "phone": "+43 2732 733 68",
                "shop": "hairdresser",
                "unisex": "yes",
                "website": "https://www.belissima-hair.at/",
                "wheelchair": "yes"
              },
              "geometry": {
                "type": "Point",
                "coordinates": [
                  15.6594068,
                  48.4046267
                ]
              }
            },
            {
              "type": "Feature",
              "properties": {
                "id": "8700994801",
                "osm_type": "node",
                "lat": 48.4024347,
                "lon": 15.5834567,
                "addr:city": "Krems an der Donau",
                "addr:country": "AT",
                "addr:housenumber": "56",
                "addr:postcode": "3500",
                "addr:street": "Steiner Landstraße",
                "name": "Pur-Frisör Licht & Farbe",
                "operator": "Ilse Schneider",
                "phone": "+43 676/490 32 32",
                "shop": "hairdresser",
                "website": "https://www.pur-frisoer.at/"
              },
              "geometry": {
                "type": "Point",
                "coordinates": [
                  15.5834567,
                  48.4024347
                ]
              }
            },
            {
              "type": "Feature",
              "properties": {
                "id": "10216845917",
                "osm_type": "node",
                "lat": 48.4728614,
                "lon": 15.6770194,
                "addr:city": "Langenlois",
                "addr:country": "AT",
                "addr:housenumber": "8",
                "addr:postcode": "3550",
                "addr:street": "Rathausstraße",
                "name": "R.H.Cut Style",
                "opening_hours": "Mo 10:00-19:00; Tu-Fr 09:00-19:00; Sa 09:00-18:00",
                "phone": "+43 660 7774664",
                "shop": "hairdresser"
              },
              "geometry": {
                "type": "Point",
                "coordinates": [
                  15.6770194,
                  48.4728614
                ]
              }
            },
            {
              "type": "Feature",
              "properties": {
                "id": "10724683205",
                "osm_type": "node",
                "lat": 48.4092719,
                "lon": 15.6021851,
                "addr:city": "Krems an der Donau",
                "addr:housenumber": "27",
                "addr:postcode": "3500",
                "addr:street": "Ringstraße",
                "female": "yes",
                "male": "yes",
                "name": "Stadtfrisör Lackner",
                "opening_hours": "Tu-Fr 09:00-18:00; Sa 08:00-12:30; Su,Mo,PH off",
                "operator": "Michael Lackner",
                "payment:cash": "yes",
                "phone": "+43 2732 85175",
                "shop": "hairdresser"
              },
              "geometry": {
                "type": "Point",
                "coordinates": [
                  15.6021851,
                  48.4092719
                ]
              }
            },
            {
              "type": "Feature",
              "properties": {
                "id": "10727475872",
                "osm_type": "node",
                "lat": 48.4119548,
                "lon": 15.6003907,
                "addr:city": "Krems an der Donau",
                "addr:housenumber": "1",
                "addr:postcode": "3500",
                "addr:street": "Margarethenstraße",
                "facebook": "https://www.facebook.com/people/Haarschneiderei-Claudia/100054250971160/",
                "female": "yes",
                "male": "yes",
                "name": "Haarschneiderei Claudia",
                "opening_hours": "Tu-Fr 08:00-18:00; PH off",
                "phone": "+43 2732 87087",
                "shop": "hairdresser",
                "website": "https://www.beautynailhairsalons.com/AT/Krems-an-der-Donau/841440899262262/Haarschneiderei-Claudia"
              },
              "geometry": {
                "type": "Point",
                "coordinates": [
                  15.6003907,
                  48.4119548
                ]
              }
            },
            {
              "type": "Feature",
              "properties": {
                "id": "10751947389",
                "osm_type": "node",
                "lat": 48.4758516,
                "lon": 15.6906083,
                "addr:city": "Langenlois",
                "addr:housenumber": "65",
                "addr:postcode": "3550",
                "addr:street": "Haindorfer Straße",
                "name": "Haarkunst Daniela",
                "phone": "+43676 7316509",
                "shop": "hairdresser",
                "unisex": "yes",
                "website": "https://haarkunst-daniela.at/service/"
              },
              "geometry": {
                "type": "Point",
                "coordinates": [
                  15.6906083,
                  48.4758516
                ]
              }
            },
            {
              "type": "Feature",
              "properties": {
                "id": "10795239727",
                "osm_type": "node",
                "lat": 48.4107561,
                "lon": 15.6009313,
                "addr:city": "Krems an der Donau",
                "addr:country": "AT",
                "addr:housenumber": "7",
                "addr:postcode": "3500",
                "addr:street": "Täglicher Markt",
                "facebook": "https://www.facebook.com/XactHairstyle/",
                "name": "Xact Hairstyle",
                "opening_hours": "Mo-Sa 09:00-18:00; Su,PH off",
                "phone": "+43 660 5021766",
                "shop": "hairdresser",
                "unisex": "yes"
              },
              "geometry": {
                "type": "Point",
                "coordinates": [
                  15.6009313,
                  48.4107561
                ]
              }
            },
            {
              "type": "Feature",
              "properties": {
                "id": "11563859698",
                "osm_type": "node",
                "lat": 48.4195044,
                "lon": 15.654704,
                "addr:city": "Rohrendorf bei Krems",
                "addr:country": "AT",
                "addr:housenumber": "16",
                "addr:postcode": "3495",
                "addr:street": "Obere Hauptstraße",
                "name": "Hairstyling Tina",
                "opening_hours": "Tu-Fr 09:00-18:00",
                "phone": "+434 676 9050601",
                "shop": "hairdresser"
              },
              "geometry": {
                "type": "Point",
                "coordinates": [
                  15.654704,
                  48.4195044
                ]
              }
            },
            {
              "type": "Feature",
              "properties": {
                "id": "12076954794",
                "osm_type": "node",
                "lat": 48.4161968,
                "lon": 15.6217602,
                "addr:city": "Krems an der Donau",
                "addr:country": "AT",
                "addr:housenumber": "96-102",
                "addr:postcode": "3500",
                "addr:street": "Wiener Straße",
                "check_date": "2024-07-27",
                "level": "1",
                "name": "Hair Fair",
                "shop": "hairdresser"
              },
              "geometry": {
                "type": "Point",
                "coordinates": [
                  15.6217602,
                  48.4161968
                ]
              }
            },
            {
              "type": "Feature",
              "properties": {
                "id": "12302038576",
                "osm_type": "node",
                "lat": 48.410307,
                "lon": 15.5965231,
                "addr:city": "Krems an der Donau",
                "addr:country": "AT",
                "addr:housenumber": "7",
                "addr:postcode": "3500",
                "addr:street": "Schmidgasse",
                "facebook": "https://www.facebook.com/people/Omorfia-Das-Haarstudio/100086265702184/",
                "mobile": "+43 660 967 76 73",
                "name": "Omorfia",
                "shop": "hairdresser"
              },
              "geometry": {
                "type": "Point",
                "coordinates": [
                  15.5965231,
                  48.410307
                ]
              }
            },
            {
              "type": "Feature",
              "properties": {
                "id": "12846487081",
                "osm_type": "node",
                "lat": 48.4131383,
                "lon": 15.6062226,
                "addr:city": "Krems an der Donau",
                "addr:country": "AT",
                "addr:housenumber": "5",
                "addr:postcode": "3500",
                "addr:street": "Wiener Straße",
                "contact:instagram": "barber.hairsalon",
                "mobile": "+43 660 535 5726; +43 660 133 2134",
                "name": "Barber Hairsalon",
                "opening_hours": "Mo-Fr 09:00-19:00; Sa 09:00-18:00",
                "shop": "hairdresser"
              },
              "geometry": {
                "type": "Point",
                "coordinates": [
                  15.6062226,
                  48.4131383
                ]
              }
            }
          ],
          "children": []
        },
        {
          "bbox": {
            "south": 48.355971499999995,
            "west": 15.73002475,
            "north": 48.521248125,
            "east": 16.2068765
          },
          "poiCount": 3,
          "leafCount": 3,
          "averagePosition": [
            16.003251233333334,
            48.4496483
          ],
          "data": [
            {
              "type": "Feature",
              "properties": {
                "id": "1502696950",
                "osm_type": "node",
                "lat": 48.4715693,
                "lon": 15.9831488,
                "addr:city": "Großweikersdorf",
                "addr:country": "AT",
                "addr:housenumber": "6",
                "addr:postcode": "3701",
                "addr:street": "Wiener Straße",
                "at_bev:addr_date": "2023-10-01",
                "name": "Hair&Beauty Friseursalon",
                "opening_hours": "Mo,Tu 08:00-14:00, We-Fr 08:00-18:00, Sa 08:00-12:00",
                "operator": "Sabrina Weissensteiner",
                "phone": "0295570458",
                "shop": "hairdresser",
                "unisex": "yes"
              },
              "geometry": {
                "type": "Point",
                "coordinates": [
                  15.9831488,
                  48.4715693
                ]
              }
            },
            {
              "type": "Feature",
              "properties": {
                "id": "1989251616",
                "osm_type": "node",
                "lat": 48.4351124,
                "lon": 15.8972472,
                "addr:housenumber": "23",
                "addr:postcode": "3470",
                "addr:street": "Marktplatz",
                "name": "Friseurteam Alex",
                "shop": "hairdresser"
              },
              "geometry": {
                "type": "Point",
                "coordinates": [
                  15.8972472,
                  48.4351124
                ]
              }
            },
            {
              "type": "Feature",
              "properties": {
                "id": "10847805814",
                "osm_type": "node",
                "lat": 48.4422632,
                "lon": 16.1293577,
                "addr:city": "Oberhautzental",
                "addr:housenumber": "42",
                "addr:postcode": "2011",
                "addr:street": "Ortsstraße",
                "female:signed": "no",
                "male:signed": "no",
                "name": "Love Is In The Hair",
                "opening_hours": "\"nach Vereinbarung\"",
                "operator": "Cornelia Luig",
                "phone": "+436649340106",
                "shop": "hairdresser",
                "wheelchair": "limited"
              },
              "geometry": {
                "type": "Point",
                "coordinates": [
                  16.1293577,
                  48.4422632
                ]
              }
            }
          ],
          "children": []
        },
        {
          "bbox": {
            "south": 48.521248125,
            "west": 15.253173,
            "north": 48.68652475,
            "east": 15.73002475
          },
          "poiCount": 8,
          "leafCount": 8,
          "averagePosition": [
            15.599684100000001,
            48.646027375
          ],
          "data": [
            {
              "type": "Feature",
              "properties": {
                "id": "4121071966",
                "osm_type": "node",
                "lat": 48.5740684,
                "lon": 15.3307322,
                "name": "Der Friseur",
                "shop": "hairdresser"
              },
              "geometry": {
                "type": "Point",
                "coordinates": [
                  15.3307322,
                  48.5740684
                ]
              }
            },
            {
              "type": "Feature",
              "properties": {
                "id": "1819057432",
                "osm_type": "node",
                "lat": 48.6738182,
                "lon": 15.6518352,
                "name": "Hair-Well",
                "opening_hours": "Tu-Fr 08:00-18:00; Sa 07:30-12:30",
                "phone": "+43 2982 30218",
                "shop": "hairdresser"
              },
              "geometry": {
                "type": "Point",
                "coordinates": [
                  15.6518352,
                  48.6738182
                ]
              }
            },
            {
              "type": "Feature",
              "properties": {
                "id": "2109440395",
                "osm_type": "node",
                "lat": 48.6648653,
                "lon": 15.6559846,
                "shop": "hairdresser"
              },
              "geometry": {
                "type": "Point",
                "coordinates": [
                  15.6559846,
                  48.6648653
                ]
              }
            },
            {
              "type": "Feature",
              "properties": {
                "id": "2109458218",
                "osm_type": "node",
                "lat": 48.6629031,
                "lon": 15.6554134,
                "name": "Gabor",
                "shop": "hairdresser",
                "wheelchair": "yes"
              },
              "geometry": {
                "type": "Point",
                "coordinates": [
                  15.6554134,
                  48.6629031
                ]
              }
            },
            {
              "type": "Feature",
              "properties": {
                "id": "2580498931",
                "osm_type": "node",
                "lat": 48.6676149,
                "lon": 15.655663,
                "name": "Asenbaum",
                "shop": "hairdresser"
              },
              "geometry": {
                "type": "Point",
                "coordinates": [
                  15.655663,
                  48.6676149
                ]
              }
            },
            {
              "type": "Feature",
              "properties": {
                "id": "3756320946",
                "osm_type": "node",
                "lat": 48.5978322,
                "lon": 15.5457614,
                "name": "Haar Genau by Ines",
                "shop": "hairdresser"
              },
              "geometry": {
                "type": "Point",
                "coordinates": [
                  15.5457614,
                  48.5978322
                ]
              }
            },
            {
              "type": "Feature",
              "properties": {
                "id": "5511826495",
                "osm_type": "node",
                "lat": 48.6645089,
                "lon": 15.6559776,
                "addr:city": "Horn",
                "addr:country": "AT",
                "addr:housenumber": "7",
                "addr:postcode": "3580",
                "addr:street": "Florianigasse",
                "check_date:opening_hours": "2022-11-13",
                "contact:phone": "+43 660 409 54 00",
                "name": "Burak",
                "opening_hours": "Mo 10:00-19:00; Tu-Fr 09:00-19:00; Sa 09:00-18:00",
                "shop": "hairdresser",
                "website": "https://www.friseur-burak.at/"
              },
              "geometry": {
                "type": "Point",
                "coordinates": [
                  15.6559776,
                  48.6645089
                ]
              }
            },
            {
              "type": "Feature",
              "properties": {
                "id": "8065274528",
                "osm_type": "node",
                "lat": 48.662608,
                "lon": 15.6461054,
                "addr:city": "Horn",
                "addr:country": "AT",
                "addr:housenumber": "67",
                "addr:postcode": "3580",
                "addr:street": "Prager Straße",
                "brand": "Klipp",
                "brand:wikidata": "Q1737304",
                "brand:wikipedia": "de:Klipp Frisör",
                "contact:phone": "+43 7242 65 755",
                "name": "Klipp",
                "opening_hours": "Mo-Fr 08:30-18:00; Sa 08:00-16:00",
                "shop": "hairdresser"
              },
              "geometry": {
                "type": "Point",
                "coordinates": [
                  15.6461054,
                  48.662608
                ]
              }
            }
          ],
          "children": []
        },
        {
          "bbox": {
            "south": 48.521248125,
            "west": 15.73002475,
            "north": 48.68652475,
            "east": 16.2068765
          },
          "poiCount": 14,
          "leafCount": 14,
          "averagePosition": [
            16.03682882142857,
            48.58394616428571
          ],
          "data": [
            {
              "type": "Feature",
              "properties": {
                "id": "1272282518",
                "osm_type": "node",
                "lat": 48.5719074,
                "lon": 15.8286748,
                "addr:city": "Maissau",
                "addr:housenumber": "5",
                "addr:postcode": "3712",
                "addr:street": "Kremser Straße",
                "internet_access": "wlan",
                "name": "STADTFRISÖRIN Stephanie",
                "opening_hours": "Mo-Th 08:00-12:00, 13:00-18:00; Fr 08:00-12:00; PH off",
                "operator": "Stephanie Steininger",
                "operator:type": "business",
                "phone": "+43 2958 82262",
                "shop": "hairdresser",
                "website": "https://xn--stadtfrisrin-djb.at/",
                "wheelchair": "no"
              },
              "geometry": {
                "type": "Point",
                "coordinates": [
                  15.8286748,
                  48.5719074
                ]
              }
            },
            {
              "type": "Feature",
              "properties": {
                "id": "1898326034",
                "osm_type": "node",
                "lat": 48.6860362,
                "lon": 15.7473746,
                "addr:city": "Sigmundsherberg",
                "addr:country": "AT",
                "addr:housenumber": "24",
                "addr:postcode": "3751",
                "addr:street": "Hauptstraße",
                "addr:suburb": "Sigmundsherberg",
                "at_bev:addr_date": "2017-10-01",
                "name": "Salon Irene",
                "shop": "hairdresser"
              },
              "geometry": {
                "type": "Point",
                "coordinates": [
                  15.7473746,
                  48.6860362
                ]
              }
            },
            {
              "type": "Feature",
              "properties": {
                "id": "1271988844",
                "osm_type": "node",
                "lat": 48.6475489,
                "lon": 16.0451529,
                "name": "Salon Platz",
                "shop": "hairdresser"
              },
              "geometry": {
                "type": "Point",
                "coordinates": [
                  16.0451529,
                  48.6475489
                ]
              }
            },
            {
              "type": "Feature",
              "properties": {
                "id": "1272039797",
                "osm_type": "node",
                "lat": 48.6229709,
                "lon": 16.0997681,
                "addr:city": "Wullersdorf",
                "addr:country": "AT",
                "addr:housenumber": "291",
                "addr:postcode": "2041",
                "addr:street": "Ing.-Trimmel-Straße",
                "at_bev:addr_date": "2017-04-07",
                "name": "Frisierstube Christa",
                "shop": "hairdresser"
              },
              "geometry": {
                "type": "Point",
                "coordinates": [
                  16.0997681,
                  48.6229709
                ]
              }
            },
            {
              "type": "Feature",
              "properties": {
                "id": "1891674459",
                "osm_type": "node",
                "lat": 48.5690351,
                "lon": 16.0783734,
                "brand": "Klipp",
                "brand:wikidata": "Q1737304",
                "brand:wikipedia": "de:Klipp Frisör",
                "name": "Klipp",
                "opening_hours": "Mo-Fr 08:30-18:00; Sa 08:30-17:00",
                "phone": "+43 664 8318204",
                "shop": "hairdresser",
                "wheelchair": "yes"
              },
              "geometry": {
                "type": "Point",
                "coordinates": [
                  16.0783734,
                  48.5690351
                ]
              }
            },
            {
              "type": "Feature",
              "properties": {
                "id": "1944924145",
                "osm_type": "node",
                "lat": 48.5665998,
                "lon": 16.0801576,
                "addr:housenumber": "10",
                "addr:postcode": "2020",
                "addr:street": "Lothringerplatz",
                "name": "Blue Box Sonnenstudio",
                "shop": "hairdresser",
                "website": "http://www.bluebox-center.com/"
              },
              "geometry": {
                "type": "Point",
                "coordinates": [
                  16.0801576,
                  48.5665998
                ]
              }
            },
            {
              "type": "Feature",
              "properties": {
                "id": "1960888296",
                "osm_type": "node",
                "lat": 48.5629387,
                "lon": 16.0775831,
                "addr:housenumber": "6",
                "addr:postcode": "2020",
                "addr:street": "Bahnstraße",
                "female": "yes",
                "male": "yes",
                "name": "Hollabrunner Friseurstube",
                "shop": "hairdresser"
              },
              "geometry": {
                "type": "Point",
                "coordinates": [
                  16.0775831,
                  48.5629387
                ]
              }
            },
            {
              "type": "Feature",
              "properties": {
                "id": "1960901604",
                "osm_type": "node",
                "lat": 48.5646137,
                "lon": 16.0819191,
                "addr:housenumber": "7",
                "addr:postcode": "2020",
                "addr:street": "Neugasse",
                "name": "McSun Sonnenstudio",
                "shop": "hairdresser",
                "wheelchair": "no"
              },
              "geometry": {
                "type": "Point",
                "coordinates": [
                  16.0819191,
                  48.5646137
                ]
              }
            },
            {
              "type": "Feature",
              "properties": {
                "id": "2190965505",
                "osm_type": "node",
                "lat": 48.5647953,
                "lon": 16.0794541,
                "addr:housenumber": "17",
                "addr:postcode": "2020",
                "addr:street": "Sparkassegasse",
                "name": "Hairsalons.at Hammerschmid",
                "shop": "hairdresser",
                "website": "https://www.hairsalons.at/index2.html",
                "wheelchair": "no"
              },
              "geometry": {
                "type": "Point",
                "coordinates": [
                  16.0794541,
                  48.5647953
                ]
              }
            },
            {
              "type": "Feature",
              "properties": {
                "id": "2190999393",
                "osm_type": "node",
                "lat": 48.5644598,
                "lon": 16.0795453,
                "addr:housenumber": "20",
                "addr:postcode": "2020",
                "addr:street": "Sparkassegasse",
                "name": "HairCity",
                "shop": "hairdresser"
              },
              "geometry": {
                "type": "Point",
                "coordinates": [
                  16.0795453,
                  48.5644598
                ]
              }
            },
            {
              "type": "Feature",
              "properties": {
                "id": "2191016819",
                "osm_type": "node",
                "lat": 48.5609345,
                "lon": 16.0790142,
                "addr:housenumber": "12",
                "addr:postcode": "2020",
                "addr:street": "Pfarrgasse",
                "name": "Elfi Babinsky",
                "shop": "hairdresser"
              },
              "geometry": {
                "type": "Point",
                "coordinates": [
                  16.0790142,
                  48.5609345
                ]
              }
            },
            {
              "type": "Feature",
              "properties": {
                "id": "4532563970",
                "osm_type": "node",
                "lat": 48.5613381,
                "lon": 16.078782,
                "addr:city": "Hollabrunn",
                "addr:housenumber": "8",
                "addr:postcode": "2020",
                "addr:street": "Pfarrgasse",
                "name": "Friseur Vernissage",
                "opening_hours": "Tu 08:30-17:00; We 09:00-16:00; Th 08:30-17:00; Fr 08:00-17:30; Sa 07:00-12:00",
                "operator": "Vanessa Krenn",
                "shop": "hairdresser"
              },
              "geometry": {
                "type": "Point",
                "coordinates": [
                  16.078782,
                  48.5613381
                ]
              }
            },
            {
              "type": "Feature",
              "properties": {
                "id": "6290036069",
                "osm_type": "node",
                "lat": 48.5691266,
                "lon": 16.0814708,
                "addr:city": "Hollabrunn",
                "addr:country": "AT",
                "addr:housenumber": "11",
                "addr:postcode": "2020",
                "addr:street": "Aspersdorferstraße",
                "name": "Ihr dm Friseur Studio",
                "shop": "hairdresser"
              },
              "geometry": {
                "type": "Point",
                "coordinates": [
                  16.0814708,
                  48.5691266
                ]
              }
            },
            {
              "type": "Feature",
              "properties": {
                "id": "9930778223",
                "osm_type": "node",
                "lat": 48.5629413,
                "lon": 16.0783335,
                "male": "yes",
                "name": "Frisör Bruak",
                "opening_hours": "Tu-Fr 09:00-19:00; Mo 10:00-19:00; Sa 09:00-18:00",
                "shop": "hairdresser"
              },
              "geometry": {
                "type": "Point",
                "coordinates": [
                  16.0783335,
                  48.5629413
                ]
              }
            }
          ],
          "children": []
        }
      ]
    },
    {
      "bbox": {
        "south": 48.355971499999995,
        "west": 16.2068765,
        "north": 48.68652475,
        "east": 17.16058
      },
      "poiCount": 62,
      "leafCount": 0,
      "averagePosition": [
        16.84242045483871,
        48.490236677419354
      ],
      "data": [],
      "children": [
        {
          "bbox": {
            "south": 48.355971499999995,
            "west": 16.2068765,
            "north": 48.521248125,
            "east": 16.68372825
          },
          "poiCount": 8,
          "leafCount": 8,
          "averagePosition": [
            16.5020928625,
            48.418549150000004
          ],
          "data": [
            {
              "type": "Feature",
              "properties": {
                "id": "493491467",
                "osm_type": "node",
                "lat": 48.3807952,
                "lon": 16.5125831,
                "addr:city": "Wolkersdorf im Weinviertel",
                "addr:country": "AT",
                "addr:housenumber": "16",
                "addr:postcode": "2120",
                "addr:street": "Bahnstraße",
                "contact:phone": "+43 2245 5737",
                "name": "Salon Madiva",
                "shop": "hairdresser",
                "website": "https://www.madiva.eu/index.php/kontakt"
              },
              "geometry": {
                "type": "Point",
                "coordinates": [
                  16.5125831,
                  48.3807952
                ]
              }
            },
            {
              "type": "Feature",
              "properties": {
                "id": "3978181294",
                "osm_type": "node",
                "lat": 48.4484189,
                "lon": 16.492454,
                "addr:city": "Hautzendorf",
                "addr:housenumber": "30",
                "addr:postcode": "2123",
                "addr:street": "Kirchenstraße",
                "check_date:opening_hours": "2022-08-03",
                "name": "Hair4U",
                "opening_hours:signed": "no",
                "shop": "hairdresser"
              },
              "geometry": {
                "type": "Point",
                "coordinates": [
                  16.492454,
                  48.4484189
                ]
              }
            },
            {
              "type": "Feature",
              "properties": {
                "id": "5126334226",
                "osm_type": "node",
                "lat": 48.3851243,
                "lon": 16.2371774,
                "brand": "Klipp",
                "brand:wikidata": "Q1737304",
                "brand:wikipedia": "de:Klipp Frisör",
                "name": "Klipp",
                "shop": "hairdresser"
              },
              "geometry": {
                "type": "Point",
                "coordinates": [
                  16.2371774,
                  48.3851243
                ]
              }
            },
            {
              "type": "Feature",
              "properties": {
                "id": "5435672297",
                "osm_type": "node",
                "lat": 48.3901787,
                "lon": 16.372253,
                "addr:city": "Harmannsdorf",
                "addr:country": "AT",
                "addr:housenumber": "10",
                "addr:postcode": "2111",
                "addr:street": "Kirchenplatz",
                "at_bev:addr_date": "2017-10-01",
                "name": "Friseur Riebl",
                "shop": "hairdresser"
              },
              "geometry": {
                "type": "Point",
                "coordinates": [
                  16.372253,
                  48.3901787
                ]
              }
            },
            {
              "type": "Feature",
              "properties": {
                "id": "8845991624",
                "osm_type": "node",
                "lat": 48.3839007,
                "lon": 16.5141326,
                "addr:city": "Wolkersdorf",
                "addr:country": "AT",
                "addr:housenumber": "8",
                "addr:postcode": "2120",
                "addr:street": "Wiener Straße",
                "name": "Friseur Martha",
                "phone": "+43 2245 28058",
                "shop": "hairdresser"
              },
              "geometry": {
                "type": "Point",
                "coordinates": [
                  16.5141326,
                  48.3839007
                ]
              }
            },
            {
              "type": "Feature",
              "properties": {
                "id": "7859263757",
                "osm_type": "node",
                "lat": 48.3797344,
                "lon": 16.6220237,
                "addr:city": "Auersthal",
                "addr:country": "AT",
                "addr:housenumber": "20",
                "addr:postcode": "2214",
                "addr:street": "Haydnstraße",
                "name": "Friseursalon Sabine",
                "name:en": "Hair Stylist Sabine",
                "operator": "Sabine Brunnthaler",
                "shop": "hairdresser",
                "website": "https://firmen.wko.at/sabine-brunnthaler/nieder%C3%B6sterreich/?firmaid=d2e9d9b4-f5ba-427d-aeaf-f53616266918"
              },
              "geometry": {
                "type": "Point",
                "coordinates": [
                  16.6220237,
                  48.3797344
                ]
              }
            },
            {
              "type": "Feature",
              "properties": {
                "id": "12291512402",
                "osm_type": "node",
                "lat": 48.4773301,
                "lon": 16.5907701,
                "addr:postcode": "2191",
                "female": "yes",
                "male": "yes",
                "name": "Hairzlich",
                "shop": "hairdresser"
              },
              "geometry": {
                "type": "Point",
                "coordinates": [
                  16.5907701,
                  48.4773301
                ]
              }
            },
            {
              "type": "Feature",
              "properties": {
                "id": "13065134672",
                "osm_type": "node",
                "lat": 48.5029109,
                "lon": 16.675349,
                "addr:city": "Sulz im Weinviertel",
                "addr:housenumber": "138",
                "addr:place": "Obersulz",
                "addr:postcode": "2224",
                "name": "Anger Marion - Friseur",
                "phone": "+43 699 11 93 95 69",
                "shop": "hairdresser"
              },
              "geometry": {
                "type": "Point",
                "coordinates": [
                  16.675349,
                  48.5029109
                ]
              }
            }
          ],
          "children": []
        },
        {
          "bbox": {
            "south": 48.355971499999995,
            "west": 16.68372825,
            "north": 48.521248125,
            "east": 17.16058
          },
          "poiCount": 34,
          "leafCount": 34,
          "averagePosition": [
            16.981548967647058,
            48.44362564117647
          ],
          "data": [
            {
              "type": "Feature",
              "properties": {
                "id": "1376506885",
                "osm_type": "node",
                "lat": 48.3861429,
                "lon": 16.739251,
                "addr:city": "Prottes",
                "addr:country": "AT",
                "addr:housenumber": "1",
                "addr:postcode": "2242",
                "addr:street": "Hauptplatz",
                "name": "Haarstudio Monika",
                "shop": "hairdresser"
              },
              "geometry": {
                "type": "Point",
                "coordinates": [
                  16.739251,
                  48.3861429
                ]
              }
            },
            {
              "type": "Feature",
              "properties": {
                "id": "2208197090",
                "osm_type": "node",
                "lat": 48.4371689,
                "lon": 17.0160906,
                "check_date": "2025-05-08",
                "female": "yes",
                "male": "no",
                "name": "kaderníctvo Matrix",
                "opening_hours": "Mo-Fr 08:00-18:00; Sa 08:00-12:00",
                "shop": "hairdresser",
                "wheelchair": "no",
                "wheelchair:description": "1 step"
              },
              "geometry": {
                "type": "Point",
                "coordinates": [
                  17.0160906,
                  48.4371689
                ]
              }
            },
            {
              "type": "Feature",
              "properties": {
                "id": "2222292271",
                "osm_type": "node",
                "lat": 48.5056097,
                "lon": 17.0058726,
                "shop": "hairdresser"
              },
              "geometry": {
                "type": "Point",
                "coordinates": [
                  17.0058726,
                  48.5056097
                ]
              }
            },
            {
              "type": "Feature",
              "properties": {
                "id": "2222292279",
                "osm_type": "node",
                "lat": 48.502382,
                "lon": 17.0038776,
                "shop": "hairdresser"
              },
              "geometry": {
                "type": "Point",
                "coordinates": [
                  17.0038776,
                  48.502382
                ]
              }
            },
            {
              "type": "Feature",
              "properties": {
                "id": "2222292280",
                "osm_type": "node",
                "lat": 48.5034842,
                "lon": 17.0061838,
                "shop": "hairdresser"
              },
              "geometry": {
                "type": "Point",
                "coordinates": [
                  17.0061838,
                  48.5034842
                ]
              }
            },
            {
              "type": "Feature",
              "properties": {
                "id": "2222292292",
                "osm_type": "node",
                "lat": 48.5047069,
                "lon": 17.0094668,
                "shop": "hairdresser"
              },
              "geometry": {
                "type": "Point",
                "coordinates": [
                  17.0094668,
                  48.5047069
                ]
              }
            },
            {
              "type": "Feature",
              "properties": {
                "id": "2258089325",
                "osm_type": "node",
                "lat": 48.5063007,
                "lon": 17.0019971,
                "shop": "hairdresser"
              },
              "geometry": {
                "type": "Point",
                "coordinates": [
                  17.0019971,
                  48.5063007
                ]
              }
            },
            {
              "type": "Feature",
              "properties": {
                "id": "4677323147",
                "osm_type": "node",
                "lat": 48.4426337,
                "lon": 17.0214288,
                "shop": "hairdresser"
              },
              "geometry": {
                "type": "Point",
                "coordinates": [
                  17.0214288,
                  48.4426337
                ]
              }
            },
            {
              "type": "Feature",
              "properties": {
                "id": "4924972273",
                "osm_type": "node",
                "lat": 48.439427,
                "lon": 17.0151789,
                "contact:phone": "+421 34 772 24 63 ; +421 903 215 583",
                "level": "0",
                "name": "Top Frizur",
                "opening_hours": "Mo 12:00-18:00;We 15:00-19:00; Fr 10:00-17:00;Sa 9:00-13:00",
                "shop": "hairdresser",
                "unisex": "yes",
                "wheelchair": "yes"
              },
              "geometry": {
                "type": "Point",
                "coordinates": [
                  17.0151789,
                  48.439427
                ]
              }
            },
            {
              "type": "Feature",
              "properties": {
                "id": "5017173602",
                "osm_type": "node",
                "lat": 48.4353628,
                "lon": 17.0178216,
                "check_date": "2024-08-02",
                "contact:phone": "+421 911 376 076",
                "female": "no",
                "hairdresser": "barber",
                "male": "yes",
                "name": "Kiki barber",
                "opening_hours": "Mo-Sa 9:00-19:00",
                "shop": "hairdresser",
                "wheelchair": "no;2 steps"
              },
              "geometry": {
                "type": "Point",
                "coordinates": [
                  17.0178216,
                  48.4353628
                ]
              }
            },
            {
              "type": "Feature",
              "properties": {
                "id": "6330169309",
                "osm_type": "node",
                "lat": 48.473287,
                "lon": 16.8493508,
                "addr:city": "Dürnkrut",
                "addr:country": "AT",
                "addr:housenumber": "3",
                "addr:postcode": "2263",
                "addr:street": "Schlossplatz",
                "name": "Salon Gabi",
                "shop": "hairdresser"
              },
              "geometry": {
                "type": "Point",
                "coordinates": [
                  16.8493508,
                  48.473287
                ]
              }
            },
            {
              "type": "Feature",
              "properties": {
                "id": "6778413680",
                "osm_type": "node",
                "lat": 48.4367367,
                "lon": 17.0194691,
                "check_date": "2025-05-08",
                "name": "Yxo",
                "opening_hours": "Mo 12:00-17:00; Tu-Fr 8:00-12:00,12:30-17:00; Sa 8:00-12:00",
                "shop": "hairdresser",
                "wheelchair": "no;4 steps"
              },
              "geometry": {
                "type": "Point",
                "coordinates": [
                  17.0194691,
                  48.4367367
                ]
              }
            },
            {
              "type": "Feature",
              "properties": {
                "id": "6797605176",
                "osm_type": "node",
                "lat": 48.4374273,
                "lon": 17.0172677,
                "contact:facebook": "https://www.facebook.com/triplebarberMA/",
                "contact:phone": "+421 908 634 046;+421 905 373 114; +421 907 367 900",
                "level": "1",
                "male": "yes",
                "name": "Triple Barber",
                "opening_hours": "\"pondelok - sobota na objednávku, nedeľa zatvorené\"",
                "shop": "hairdresser",
                "wheelchair": "yes"
              },
              "geometry": {
                "type": "Point",
                "coordinates": [
                  17.0172677,
                  48.4374273
                ]
              }
            },
            {
              "type": "Feature",
              "properties": {
                "id": "6797605177",
                "osm_type": "node",
                "lat": 48.4325882,
                "lon": 17.0308508,
                "check_date": "2024-09-24",
                "contact:phone": "+421 915 227 861",
                "contact:website": "https://mmgbarbers.sk",
                "name": "MMG Johnny’s Barbers",
                "opening_hours": "Mo-Fr 8:00-20:00",
                "shop": "hairdresser",
                "wheelchair": "no;8 steps"
              },
              "geometry": {
                "type": "Point",
                "coordinates": [
                  17.0308508,
                  48.4325882
                ]
              }
            },
            {
              "type": "Feature",
              "properties": {
                "id": "6797605178",
                "osm_type": "node",
                "lat": 48.439798,
                "lon": 17.0125798,
                "contact:phone": "+421 911 179 000",
                "contact:website": "https://www.facebook.com/panskeholicstvomalacky/",
                "male": "yes",
                "name": "Dope Barber Shop",
                "opening_hours": "Mo-Fr 09:00-13:00,14:00-20:00;Sa 09:00-13:00,14:00-18:00",
                "shop": "hairdresser",
                "wheelchair": "yes"
              },
              "geometry": {
                "type": "Point",
                "coordinates": [
                  17.0125798,
                  48.439798
                ]
              }
            },
            {
              "type": "Feature",
              "properties": {
                "id": "7167780431",
                "osm_type": "node",
                "lat": 48.4376533,
                "lon": 17.0165395,
                "male": "yes",
                "name": "Pánske a detské kaderníctvo",
                "opening_hours": "Mo,We,Fr 7:00-12:00,12:30-16:00;Tu,Th 8:00-12:00,12:30-15:00",
                "shop": "hairdresser"
              },
              "geometry": {
                "type": "Point",
                "coordinates": [
                  17.0165395,
                  48.4376533
                ]
              }
            },
            {
              "type": "Feature",
              "properties": {
                "id": "7920621609",
                "osm_type": "node",
                "lat": 48.4396476,
                "lon": 17.0146841,
                "addr:city": "Malacky",
                "addr:housenumber": "36",
                "addr:street": "Záhorácka",
                "contact:phone": "+421 918 384 761",
                "level": "0",
                "name": "Salón Nicol",
                "opening_hours": "Mo,Tu,Th,Fr 09:00-18:00; We 09:00-17:00; Sa 08:00-12:00",
                "shop": "hairdresser",
                "unisex": "yes",
                "wheelchair": "yes"
              },
              "geometry": {
                "type": "Point",
                "coordinates": [
                  17.0146841,
                  48.4396476
                ]
              }
            },
            {
              "type": "Feature",
              "properties": {
                "id": "8077460642",
                "osm_type": "node",
                "lat": 48.4376053,
                "lon": 17.0169579,
                "check_date": "2025-05-08",
                "children": "yes",
                "contact:phone": "+421 905 745 160;+421 944 307 796",
                "female": "no",
                "male": "yes",
                "name": "Pánske a detské holičstvo",
                "opening_hours": "Mo-Fr 8:30-12:00,12:30-16:30",
                "shop": "hairdresser",
                "wheelchair": "yes"
              },
              "geometry": {
                "type": "Point",
                "coordinates": [
                  17.0169579,
                  48.4376053
                ]
              }
            },
            {
              "type": "Feature",
              "properties": {
                "id": "8077460668",
                "osm_type": "node",
                "lat": 48.4384243,
                "lon": 17.0153687,
                "contact:phone": "+421 908 770 110",
                "operator": "Renáta Danihelová",
                "shop": "hairdresser"
              },
              "geometry": {
                "type": "Point",
                "coordinates": [
                  17.0153687,
                  48.4384243
                ]
              }
            },
            {
              "type": "Feature",
              "properties": {
                "id": "8077460731",
                "osm_type": "node",
                "lat": 48.4385295,
                "lon": 17.0148433,
                "check_date": "2022-03-06",
                "contact:phone": "+421 944 245 373",
                "level": "1",
                "name": "Kaderníctvo holičstvo Mikejla",
                "opening_hours": "Mo,We,Fr 9:00-16:00; Tu,Th 12:00-19:00",
                "shop": "hairdresser"
              },
              "geometry": {
                "type": "Point",
                "coordinates": [
                  17.0148433,
                  48.4385295
                ]
              }
            },
            {
              "type": "Feature",
              "properties": {
                "id": "8998318961",
                "osm_type": "node",
                "lat": 48.4352505,
                "lon": 17.0221205,
                "shop": "hairdresser",
                "wheelchair": "yes"
              },
              "geometry": {
                "type": "Point",
                "coordinates": [
                  17.0221205,
                  48.4352505
                ]
              }
            },
            {
              "type": "Feature",
              "properties": {
                "id": "9698873647",
                "osm_type": "node",
                "lat": 48.4381168,
                "lon": 17.0168989,
                "check_date": "2022-03-06",
                "level": "-1",
                "name": "Tatiana",
                "shop": "hairdresser",
                "wheelchair": "no"
              },
              "geometry": {
                "type": "Point",
                "coordinates": [
                  17.0168989,
                  48.4381168
                ]
              }
            },
            {
              "type": "Feature",
              "properties": {
                "id": "10577541198",
                "osm_type": "node",
                "lat": 48.4357074,
                "lon": 17.0179215,
                "check_date": "2024-08-02",
                "children": "yes",
                "female": "no",
                "male": "yes",
                "opening_hours": "Mo-Th 9:00-15:00;Fr 9:00-12:00",
                "shop": "hairdresser",
                "unisex": "no",
                "wheelchair": "no;2 steps"
              },
              "geometry": {
                "type": "Point",
                "coordinates": [
                  17.0179215,
                  48.4357074
                ]
              }
            },
            {
              "type": "Feature",
              "properties": {
                "id": "10577541204",
                "osm_type": "node",
                "lat": 48.435668,
                "lon": 17.017944,
                "check_date": "2024-08-02",
                "contact:phone": "+421 907 400 871",
                "shop": "hairdresser",
                "wheelchair": "no"
              },
              "geometry": {
                "type": "Point",
                "coordinates": [
                  17.017944,
                  48.435668
                ]
              }
            },
            {
              "type": "Feature",
              "properties": {
                "id": "12197609944",
                "osm_type": "node",
                "lat": 48.4353786,
                "lon": 17.0161325,
                "shop": "hairdresser"
              },
              "geometry": {
                "type": "Point",
                "coordinates": [
                  17.0161325,
                  48.4353786
                ]
              }
            },
            {
              "type": "Feature",
              "properties": {
                "id": "12760740557",
                "osm_type": "node",
                "lat": 48.4380661,
                "lon": 17.0177311,
                "check_date": "2025-04-13",
                "children": "yes",
                "contact:phone": "+421 907 042 441",
                "female": "yes",
                "male": "yes",
                "opening_hours": "Mo-Fr 09:00-16:00",
                "operator": "Veronika Studeničová",
                "shop": "hairdresser",
                "wheelchair": "yes"
              },
              "geometry": {
                "type": "Point",
                "coordinates": [
                  17.0177311,
                  48.4380661
                ]
              }
            },
            {
              "type": "Feature",
              "properties": {
                "id": "12840829095",
                "osm_type": "node",
                "lat": 48.4367509,
                "lon": 17.0170595,
                "check_date": "2025-05-08",
                "male": "yes",
                "name": "VSB barbershop",
                "shop": "hairdresser",
                "website": "https://www.vsbbarbershop.sk/",
                "wheelchair": "yes"
              },
              "geometry": {
                "type": "Point",
                "coordinates": [
                  17.0170595,
                  48.4367509
                ]
              }
            },
            {
              "type": "Feature",
              "properties": {
                "id": "12840842528",
                "osm_type": "node",
                "lat": 48.4369357,
                "lon": 17.0202061,
                "check_date": "2025-05-08",
                "children": "yes",
                "female": "no",
                "level": "1",
                "male": "yes",
                "name": "salón Adam",
                "opening_hours": "Mo-Fr 09:00-18:00;Sa 9:00-12:00",
                "shop": "hairdresser",
                "wheelchair": "yes"
              },
              "geometry": {
                "type": "Point",
                "coordinates": [
                  17.0202061,
                  48.4369357
                ]
              }
            },
            {
              "type": "Feature",
              "properties": {
                "id": "12953641104",
                "osm_type": "node",
                "lat": 48.4332725,
                "lon": 17.0181602,
                "check_date": "2025-06-11",
                "name": "Tatiana",
                "opening_hours": "Mo-Fr 9:00-15:00",
                "phone": "+421 905 554 191",
                "shop": "hairdresser",
                "wheelchair": "no;2 steps"
              },
              "geometry": {
                "type": "Point",
                "coordinates": [
                  17.0181602,
                  48.4332725
                ]
              }
            },
            {
              "type": "Feature",
              "properties": {
                "id": "13057587689",
                "osm_type": "node",
                "lat": 48.4393421,
                "lon": 16.7959393,
                "addr:city": "Ebenthal",
                "addr:housenumber": "1",
                "addr:postcode": "2251",
                "addr:street": "Waidendorferstraße",
                "name": "Biancas Haarstudio",
                "opening_hours": "Montag & Donnerstag 8 - 19 Dienstag & Freitag 8 - 18:30 Mittwoch & Samstag geschlossen",
                "phone": "0676/97 70 386",
                "shop": "hairdresser",
                "website": "https://www.biancas-haarstudio.at/"
              },
              "geometry": {
                "type": "Point",
                "coordinates": [
                  16.7959393,
                  48.4393421
                ]
              }
            },
            {
              "type": "Feature",
              "properties": {
                "id": "13064819894",
                "osm_type": "node",
                "lat": 48.4014069,
                "lon": 16.6943255,
                "addr:city": "Matzen",
                "addr:housenumber": "9",
                "addr:postcode": "2243",
                "addr:street": "Hauptstraße",
                "email": "office@instyle-one.at",
                "female": "yes",
                "male": "yes",
                "name": "InStyle-One",
                "opening_hours": "Tu-Fr 08:00-18:00; Sa 08:00-12:00",
                "operator": "Rudolf Kugler",
                "phone": "+43 (0)664 44 78 827",
                "shop": "hairdresser",
                "website": "www.instyle-one.at"
              },
              "geometry": {
                "type": "Point",
                "coordinates": [
                  16.6943255,
                  48.4014069
                ]
              }
            },
            {
              "type": "Feature",
              "properties": {
                "id": "13064830233",
                "osm_type": "node",
                "lat": 48.4026746,
                "lon": 16.6847244,
                "name": "Haarstudio Marion",
                "phone": "+43 664 1400932",
                "shop": "hairdresser"
              },
              "geometry": {
                "type": "Point",
                "coordinates": [
                  16.6847244,
                  48.4026746
                ]
              }
            },
            {
              "type": "Feature",
              "properties": {
                "id": "2598518822",
                "osm_type": "node",
                "lat": 48.4072753,
                "lon": 17.1574042,
                "contact:phone": "+421 908 696 114",
                "name": "Studio Selenit",
                "shop": "hairdresser"
              },
              "geometry": {
                "type": "Point",
                "coordinates": [
                  17.1574042,
                  48.4072753
                ]
              }
            },
            {
              "type": "Feature",
              "properties": {
                "id": "12197615597",
                "osm_type": "node",
                "lat": 48.4325104,
                "lon": 17.0310167,
                "amenity": "solarium",
                "check_date": "2024-09-24",
                "name": "Sabath",
                "opening_hours": "Mo-Sa 9:00-20:00",
                "shop": "hairdresser",
                "wheelchair": "no;8 steps"
              },
              "geometry": {
                "type": "Point",
                "coordinates": [
                  17.0310167,
                  48.4325104
                ]
              }
            }
          ],
          "children": []
        },
        {
          "bbox": {
            "south": 48.521248125,
            "west": 16.2068765,
            "north": 48.68652475,
            "east": 16.68372825
          },
          "poiCount": 10,
          "leafCount": 10,
          "averagePosition": [
            16.55679034,
            48.5940904
          ],
          "data": [
            {
              "type": "Feature",
              "properties": {
                "id": "3927380165",
                "osm_type": "node",
                "lat": 48.6498621,
                "lon": 16.3004606,
                "addr:city": "Stronsdorf",
                "addr:country": "AT",
                "addr:housenumber": "290",
                "addr:place": "Stronsdorf",
                "addr:postcode": "2153",
                "name": "Karin's Frisiersalon",
                "phone": "+43 2526 6831",
                "shop": "hairdresser"
              },
              "geometry": {
                "type": "Point",
                "coordinates": [
                  16.3004606,
                  48.6498621
                ]
              }
            },
            {
              "type": "Feature",
              "properties": {
                "id": "452525389",
                "osm_type": "node",
                "lat": 48.5680779,
                "lon": 16.5742439,
                "addr:city": "Mistelbach",
                "addr:country": "AT",
                "addr:housenumber": "12a",
                "addr:postcode": "2130",
                "addr:street": "Wiedenstraße",
                "email": "friseur@haarschneiderei.at",
                "name": "Haarschneiderei",
                "opening_hours": "Tu-We 09:00-18:00; Th-Fr 09:00-19:00; Sa 09:00-14:00; Su,PH off",
                "phone": "+ 43 2572 34400",
                "shop": "hairdresser",
                "website": "https://haarschneiderei.at/"
              },
              "geometry": {
                "type": "Point",
                "coordinates": [
                  16.5742439,
                  48.5680779
                ]
              }
            },
            {
              "type": "Feature",
              "properties": {
                "id": "452525738",
                "osm_type": "node",
                "lat": 48.5683097,
                "lon": 16.5721183,
                "addr:city": "Mistelbach",
                "addr:country": "AT",
                "addr:housenumber": "2",
                "addr:postcode": "2130",
                "addr:street": "Hafnerstraße",
                "name": "Friseurteam City",
                "shop": "hairdresser"
              },
              "geometry": {
                "type": "Point",
                "coordinates": [
                  16.5721183,
                  48.5683097
                ]
              }
            },
            {
              "type": "Feature",
              "properties": {
                "id": "1368955902",
                "osm_type": "node",
                "lat": 48.5622604,
                "lon": 16.5573434,
                "brand": "Klipp",
                "brand:wikidata": "Q1737304",
                "brand:wikipedia": "de:Klipp Frisör",
                "name": "Klipp",
                "shop": "hairdresser"
              },
              "geometry": {
                "type": "Point",
                "coordinates": [
                  16.5573434,
                  48.5622604
                ]
              }
            },
            {
              "type": "Feature",
              "properties": {
                "id": "1369028039",
                "osm_type": "node",
                "lat": 48.5671786,
                "lon": 16.5906895,
                "brand": "Klipp",
                "brand:wikidata": "Q1737304",
                "brand:wikipedia": "de:Klipp Frisör",
                "name": "Klipp",
                "shop": "hairdresser"
              },
              "geometry": {
                "type": "Point",
                "coordinates": [
                  16.5906895,
                  48.5671786
                ]
              }
            },
            {
              "type": "Feature",
              "properties": {
                "id": "1947547665",
                "osm_type": "node",
                "lat": 48.5666652,
                "lon": 16.5688027,
                "addr:city": "Mistelbach",
                "addr:country": "AT",
                "addr:housenumber": "24",
                "addr:postcode": "2130",
                "addr:street": "Bahnstraße",
                "name": "Schnittstelle",
                "phone": "+43 2572 20643",
                "shop": "hairdresser",
                "website": "https://www.schnittstelle-mistelbach.at/"
              },
              "geometry": {
                "type": "Point",
                "coordinates": [
                  16.5688027,
                  48.5666652
                ]
              }
            },
            {
              "type": "Feature",
              "properties": {
                "id": "4560400325",
                "osm_type": "node",
                "lat": 48.5684826,
                "lon": 16.5717156,
                "addr:city": "Mistelbach",
                "addr:country": "AT",
                "addr:housenumber": "29",
                "addr:postcode": "2130",
                "addr:street": "Hauptplatz",
                "email": "mistelbach@hairsalons.at",
                "name": "hairsalons.at",
                "opening_hours": "Tu-Fr 08:30-18:00; Sa 08:00-14:00; Mo,Su,PH off",
                "phone": "+43 2572 34012",
                "shop": "hairdresser",
                "website": "https://www.hairsalons.at/"
              },
              "geometry": {
                "type": "Point",
                "coordinates": [
                  16.5717156,
                  48.5684826
                ]
              }
            },
            {
              "type": "Feature",
              "properties": {
                "id": "5048015909",
                "osm_type": "node",
                "lat": 48.5667224,
                "lon": 16.5699719,
                "addr:city": "Mistelbach",
                "addr:country": "AT",
                "addr:housenumber": "23",
                "addr:postcode": "2130",
                "addr:street": "Bahnstraße",
                "female": "yes",
                "male": "yes",
                "name": "Freestyle",
                "opening_hours": "Mo-Sa 09:00-19:00; Su,PH off",
                "shop": "hairdresser"
              },
              "geometry": {
                "type": "Point",
                "coordinates": [
                  16.5699719,
                  48.5667224
                ]
              }
            },
            {
              "type": "Feature",
              "properties": {
                "id": "11091107359",
                "osm_type": "node",
                "lat": 48.6684213,
                "lon": 16.6307655,
                "check_date": "2023-08-05",
                "opening_hours": "Tu-Fr 08:00-17:30; Sa 08:00-13:00",
                "shop": "hairdresser"
              },
              "geometry": {
                "type": "Point",
                "coordinates": [
                  16.6307655,
                  48.6684213
                ]
              }
            },
            {
              "type": "Feature",
              "properties": {
                "id": "12993269743",
                "osm_type": "node",
                "lat": 48.6549238,
                "lon": 16.631792,
                "addr:city": "Wetzelsdorf",
                "addr:housenumber": "4",
                "addr:postcode": "2170",
                "addr:street": "Baumfeldstraße",
                "female": "yes",
                "male": "yes",
                "name": "hair design christine",
                "opening_hours": "Mo-We,Fr 08:00-18:00; Th 08:00-18:30; Sa 08:00-15:00",
                "phone": "+43255220630",
                "shop": "hairdresser"
              },
              "geometry": {
                "type": "Point",
                "coordinates": [
                  16.631792,
                  48.6549238
                ]
              }
            }
          ],
          "children": []
        },
        {
          "bbox": {
            "south": 48.521248125,
            "west": 16.68372825,
            "north": 48.68652475,
            "east": 17.16058
          },
          "poiCount": 10,
          "leafCount": 10,
          "averagePosition": [
            16.927275700000003,
            48.6022105
          ],
          "data": [
            {
              "type": "Feature",
              "properties": {
                "id": "1437445020",
                "osm_type": "node",
                "lat": 48.657762,
                "lon": 17.0206289,
                "name": "Kozmetický salón",
                "shop": "hairdresser"
              },
              "geometry": {
                "type": "Point",
                "coordinates": [
                  17.0206289,
                  48.657762
                ]
              }
            },
            {
              "type": "Feature",
              "properties": {
                "id": "1745714090",
                "osm_type": "node",
                "lat": 48.5968004,
                "lon": 16.8243576,
                "addr:housenumber": "94",
                "addr:postcode": "2181",
                "addr:street": "Hauptstraße",
                "name": "Frisör Brigitte",
                "shop": "hairdresser",
                "source": "local knowledge"
              },
              "geometry": {
                "type": "Point",
                "coordinates": [
                  16.8243576,
                  48.5968004
                ]
              }
            },
            {
              "type": "Feature",
              "properties": {
                "id": "3225074475",
                "osm_type": "node",
                "lat": 48.5448979,
                "lon": 16.760472,
                "addr:city": "Zistersdorf",
                "addr:housenumber": "1",
                "addr:postcode": "2225",
                "addr:street": "Kirchenplatz",
                "name": "Zieba Haargenau",
                "shop": "hairdresser"
              },
              "geometry": {
                "type": "Point",
                "coordinates": [
                  16.760472,
                  48.5448979
                ]
              }
            },
            {
              "type": "Feature",
              "properties": {
                "id": "5358878709",
                "osm_type": "node",
                "lat": 48.6061346,
                "lon": 16.7885756,
                "addr:city": "Neusiedl an der Zaya",
                "addr:housenumber": "34/2/2",
                "addr:postcode": "2183",
                "addr:street": "Bahnstraße",
                "email": "frisoer-sabine@gmx.at",
                "name": "Friseur Sabine",
                "opening_hours": "Tu-Fr 08:30-17:30; Sa 08:30-12:30; \"um telefonische Voranmeldung wird gebeten\"",
                "operator": "Sabine Berdan",
                "phone": "0664/75013951",
                "shop": "hairdresser"
              },
              "geometry": {
                "type": "Point",
                "coordinates": [
                  16.7885756,
                  48.6061346
                ]
              }
            },
            {
              "type": "Feature",
              "properties": {
                "id": "7605413227",
                "osm_type": "node",
                "lat": 48.6050358,
                "lon": 16.902967,
                "contact:phone": "+43 2535 2289",
                "name": "Salon Elfi",
                "shop": "hairdresser"
              },
              "geometry": {
                "type": "Point",
                "coordinates": [
                  16.902967,
                  48.6050358
                ]
              }
            },
            {
              "type": "Feature",
              "properties": {
                "id": "9866947874",
                "osm_type": "node",
                "lat": 48.6038124,
                "lon": 16.9022137,
                "name": "Hair lounge",
                "opening_hours": "Tu-Fr 08:30-18:00; Sa 08:00-12:00",
                "shop": "hairdresser",
                "source": "survey"
              },
              "geometry": {
                "type": "Point",
                "coordinates": [
                  16.9022137,
                  48.6038124
                ]
              }
            },
            {
              "type": "Feature",
              "properties": {
                "id": "9954240142",
                "osm_type": "node",
                "lat": 48.5450557,
                "lon": 16.7608869,
                "addr:city": "Zistersdorf",
                "addr:housenumber": "3",
                "addr:postcode": "2225",
                "addr:street": "Kirchenplatz",
                "name": "Friseur",
                "shop": "hairdresser"
              },
              "geometry": {
                "type": "Point",
                "coordinates": [
                  16.7608869,
                  48.5450557
                ]
              }
            },
            {
              "type": "Feature",
              "properties": {
                "id": "11096584514",
                "osm_type": "node",
                "lat": 48.5908157,
                "lon": 17.0031755,
                "email": "Salon.zuveru@gmail.com",
                "female": "yes",
                "male": "yes",
                "name": "Kadernícky Salón Zuveru",
                "phone": "+421949 806 623",
                "shop": "hairdresser",
                "website": "https://www.facebook.com/salonzuveru/"
              },
              "geometry": {
                "type": "Point",
                "coordinates": [
                  17.0031755,
                  48.5908157
                ]
              }
            },
            {
              "type": "Feature",
              "properties": {
                "id": "6854389391",
                "osm_type": "node",
                "lat": 48.6357011,
                "lon": 17.1545951,
                "contact:phone": "+421 948 120 640",
                "name": "Italian hair style max",
                "opening_hours": "Tu-Sa 9:00-19:00",
                "shop": "hairdresser"
              },
              "geometry": {
                "type": "Point",
                "coordinates": [
                  17.1545951,
                  48.6357011
                ]
              }
            },
            {
              "type": "Feature",
              "properties": {
                "id": "6861493840",
                "osm_type": "node",
                "lat": 48.6360894,
                "lon": 17.1548847,
                "shop": "hairdresser"
              },
              "geometry": {
                "type": "Point",
                "coordinates": [
                  17.1548847,
                  48.6360894
                ]
              }
            }
          ],
          "children": []
        }
      ]
    },
    {
      "bbox": {
        "south": 48.68652475,
        "west": 15.253173,
        "north": 49.017078,
        "east": 16.2068765
      },
      "poiCount": 33,
      "leafCount": 33,
      "averagePosition": [
        15.631361384848484,
        48.81185153333333
      ],
      "data": [
        {
          "type": "Feature",
          "properties": {
            "id": "322654282",
            "osm_type": "node",
            "lat": 48.8523953,
            "lon": 15.2898713,
            "addr:city": "Thaya",
            "addr:country": "AT",
            "addr:housenumber": "4",
            "addr:postcode": "3842",
            "addr:street": "Prof. Dr. Schönbauer Siedlung",
            "contact:mobile": "+43 664 1258908",
            "name": "Marias Friseursalon",
            "shop": "hairdresser"
          },
          "geometry": {
            "type": "Point",
            "coordinates": [
              15.2898713,
              48.8523953
            ]
          }
        },
        {
          "type": "Feature",
          "properties": {
            "id": "322654287",
            "osm_type": "node",
            "lat": 48.8537279,
            "lon": 15.2916885,
            "addr:city": "Thaya",
            "addr:country": "AT",
            "addr:housenumber": "34",
            "addr:postcode": "3842",
            "addr:street": "Gartenzeile",
            "shop": "hairdresser"
          },
          "geometry": {
            "type": "Point",
            "coordinates": [
              15.2916885,
              48.8537279
            ]
          }
        },
        {
          "type": "Feature",
          "properties": {
            "id": "1712573759",
            "osm_type": "node",
            "lat": 48.695323,
            "lon": 15.3297023,
            "name": "Nicki",
            "shop": "hairdresser"
          },
          "geometry": {
            "type": "Point",
            "coordinates": [
              15.3297023,
              48.695323
            ]
          }
        },
        {
          "type": "Feature",
          "properties": {
            "id": "1718544850",
            "osm_type": "node",
            "lat": 48.6968281,
            "lon": 15.324453,
            "addr:city": "Allentsteig",
            "addr:country": "AT",
            "addr:postcode": "3804",
            "addr:street": "Zwettlerstraße",
            "at_bev:addr_date": "2018-10-01",
            "check_date": "2025-05-29",
            "name": "Hair & Sun",
            "operator": "Waltraud Riegler",
            "shop": "hairdresser",
            "wheelchair": "no"
          },
          "geometry": {
            "type": "Point",
            "coordinates": [
              15.324453,
              48.6968281
            ]
          }
        },
        {
          "type": "Feature",
          "properties": {
            "id": "3299824761",
            "osm_type": "node",
            "lat": 48.743234,
            "lon": 15.2686379,
            "addr:city": "Schwarzenau",
            "addr:housenumber": "51",
            "addr:place": "Hausbach",
            "addr:postcode": "3900",
            "name": "Stylistik Haardesign",
            "opening_hours": "\"nach Vereinbarung\"",
            "operator": "Danja Kargl",
            "shop": "hairdresser",
            "website": "https://www.stylistik.at/",
            "wheelchair": "yes"
          },
          "geometry": {
            "type": "Point",
            "coordinates": [
              15.2686379,
              48.743234
            ]
          }
        },
        {
          "type": "Feature",
          "properties": {
            "id": "4411376716",
            "osm_type": "node",
            "lat": 48.812242,
            "lon": 15.28058,
            "addr:city": "Waidhofen/Thaya",
            "addr:housenumber": "7",
            "addr:postcode": "3830",
            "addr:street": "Vitiserstraße",
            "female": "yes",
            "male": "yes",
            "name": "Friseur & Wellness Oase Silvia",
            "opening_hours": "Mo 09:00 - 18:00",
            "operator": "Silvia Schuh",
            "shop": "hairdresser"
          },
          "geometry": {
            "type": "Point",
            "coordinates": [
              15.28058,
              48.812242
            ]
          }
        },
        {
          "type": "Feature",
          "properties": {
            "id": "5996499768",
            "osm_type": "node",
            "lat": 48.817643,
            "lon": 15.278686,
            "addr:city": "Waidhofen an der Thaya",
            "addr:country": "AT",
            "addr:housenumber": "1",
            "addr:postcode": "3830",
            "addr:street": "Johann Piering-Gasse",
            "at_bev:addr_date": "2018-04-02",
            "shop": "hairdresser"
          },
          "geometry": {
            "type": "Point",
            "coordinates": [
              15.278686,
              48.817643
            ]
          }
        },
        {
          "type": "Feature",
          "properties": {
            "id": "7188222713",
            "osm_type": "node",
            "lat": 48.6956526,
            "lon": 15.3282339,
            "name": "Newerkla/Köck",
            "shop": "hairdresser"
          },
          "geometry": {
            "type": "Point",
            "coordinates": [
              15.3282339,
              48.6956526
            ]
          }
        },
        {
          "type": "Feature",
          "properties": {
            "id": "7407531668",
            "osm_type": "node",
            "lat": 48.7624391,
            "lon": 15.3997285,
            "name": "Gabriela Gschwendt, Friseurin",
            "shop": "hairdresser"
          },
          "geometry": {
            "type": "Point",
            "coordinates": [
              15.3997285,
              48.7624391
            ]
          }
        },
        {
          "type": "Feature",
          "properties": {
            "id": "7407531670",
            "osm_type": "node",
            "lat": 48.7084045,
            "lon": 15.396655,
            "name": "Frisörsalon Beate Ganser",
            "shop": "hairdresser"
          },
          "geometry": {
            "type": "Point",
            "coordinates": [
              15.396655,
              48.7084045
            ]
          }
        },
        {
          "type": "Feature",
          "properties": {
            "id": "12384418553",
            "osm_type": "node",
            "lat": 48.8472189,
            "lon": 15.4932269,
            "name": "Friseur und Fußpflege Alexandra",
            "shop": "hairdresser",
            "website": "http://www.fusspflege-alexandra.at"
          },
          "geometry": {
            "type": "Point",
            "coordinates": [
              15.4932269,
              48.8472189
            ]
          }
        },
        {
          "type": "Feature",
          "properties": {
            "id": "12384418554",
            "osm_type": "node",
            "lat": 48.8530587,
            "lon": 15.4857208,
            "name": "Friseursalon im PBZ Raabs",
            "shop": "hairdresser"
          },
          "geometry": {
            "type": "Point",
            "coordinates": [
              15.4857208,
              48.8530587
            ]
          }
        },
        {
          "type": "Feature",
          "properties": {
            "id": "12385916102",
            "osm_type": "node",
            "lat": 48.861588,
            "lon": 15.5060454,
            "addr:housenumber": "7",
            "addr:place": "Modsiedl",
            "name": "Martina's Haarwerkstatt",
            "shop": "hairdresser",
            "website": "http://www.martinas-haarwerkstatt.at/"
          },
          "geometry": {
            "type": "Point",
            "coordinates": [
              15.5060454,
              48.861588
            ]
          }
        },
        {
          "type": "Feature",
          "properties": {
            "id": "12676809754",
            "osm_type": "node",
            "lat": 48.7976291,
            "lon": 15.3918796,
            "addr:housenumber": "2",
            "addr:street": "Sonnenstraße",
            "name": "Androsch Daniela",
            "shop": "hairdresser"
          },
          "geometry": {
            "type": "Point",
            "coordinates": [
              15.3918796,
              48.7976291
            ]
          }
        },
        {
          "type": "Feature",
          "properties": {
            "id": "12684118761",
            "osm_type": "node",
            "lat": 48.7901929,
            "lon": 15.4049084,
            "name": "Karina - Friseursalon",
            "shop": "hairdresser"
          },
          "geometry": {
            "type": "Point",
            "coordinates": [
              15.4049084,
              48.7901929
            ]
          }
        },
        {
          "type": "Feature",
          "properties": {
            "id": "12686676005",
            "osm_type": "node",
            "lat": 48.7896457,
            "lon": 15.4035308,
            "addr:housenumber": "4",
            "addr:street": "Hauptplatz",
            "name": "Pöppel Alfred",
            "shop": "hairdresser"
          },
          "geometry": {
            "type": "Point",
            "coordinates": [
              15.4035308,
              48.7896457
            ]
          }
        },
        {
          "type": "Feature",
          "properties": {
            "id": "12686684637",
            "osm_type": "node",
            "lat": 48.7894245,
            "lon": 15.4025437,
            "name": "Reiner Alexandra, Fußpflege, Kosmetik, Friseur",
            "shop": "hairdresser"
          },
          "geometry": {
            "type": "Point",
            "coordinates": [
              15.4025437,
              48.7894245
            ]
          }
        },
        {
          "type": "Feature",
          "properties": {
            "id": "12710071340",
            "osm_type": "node",
            "lat": 48.7929038,
            "lon": 15.3811339,
            "name": "Fa. Gawol Brigitte",
            "shop": "hairdresser"
          },
          "geometry": {
            "type": "Point",
            "coordinates": [
              15.3811339,
              48.7929038
            ]
          }
        },
        {
          "type": "Feature",
          "properties": {
            "id": "1867890051",
            "osm_type": "node",
            "lat": 48.7819695,
            "lon": 15.8105979,
            "addr:city": "Weitersfeld",
            "addr:country": "AT",
            "addr:housenumber": "115",
            "addr:place": "Weitersfeld",
            "addr:postcode": "2084",
            "name": "Frisiersalon Anita",
            "shop": "hairdresser"
          },
          "geometry": {
            "type": "Point",
            "coordinates": [
              15.8105979,
              48.7819695
            ]
          }
        },
        {
          "type": "Feature",
          "properties": {
            "id": "11024801954",
            "osm_type": "node",
            "lat": 48.7566106,
            "lon": 15.9509754,
            "addr:city": "Retz",
            "addr:housenumber": "17",
            "addr:postcode": "2070",
            "addr:street": "Hauptplatz",
            "name": "Hair & More",
            "operator": "Barbara Schweiger",
            "phone": "+43294330191",
            "shop": "hairdresser",
            "website": "https://www.salon-hairandmore.at/"
          },
          "geometry": {
            "type": "Point",
            "coordinates": [
              15.9509754,
              48.7566106
            ]
          }
        },
        {
          "type": "Feature",
          "properties": {
            "id": "1088585088",
            "osm_type": "node",
            "lat": 48.860611,
            "lon": 16.0478995,
            "female:signed": "no",
            "male:signed": "no",
            "name": "studio Charme",
            "opening_hours": "Tu,Th,Fr 08:00-14:00; We 08:00-17:00",
            "shop": "hairdresser",
            "wheelchair": "limited"
          },
          "geometry": {
            "type": "Point",
            "coordinates": [
              16.0478995,
              48.860611
            ]
          }
        },
        {
          "type": "Feature",
          "properties": {
            "id": "1088585697",
            "osm_type": "node",
            "lat": 48.8624548,
            "lon": 16.050289,
            "shop": "hairdresser"
          },
          "geometry": {
            "type": "Point",
            "coordinates": [
              16.050289,
              48.8624548
            ]
          }
        },
        {
          "type": "Feature",
          "properties": {
            "id": "1147572836",
            "osm_type": "node",
            "lat": 48.8610956,
            "lon": 16.0516904,
            "name": "Vlasové studio",
            "shop": "hairdresser"
          },
          "geometry": {
            "type": "Point",
            "coordinates": [
              16.0516904,
              48.8610956
            ]
          }
        },
        {
          "type": "Feature",
          "properties": {
            "id": "1147573110",
            "osm_type": "node",
            "lat": 48.8606464,
            "lon": 16.0529929,
            "name": "Kosmetické studio",
            "shop": "hairdresser"
          },
          "geometry": {
            "type": "Point",
            "coordinates": [
              16.0529929,
              48.8606464
            ]
          }
        },
        {
          "type": "Feature",
          "properties": {
            "id": "1855072388",
            "osm_type": "node",
            "lat": 48.8529369,
            "lon": 16.052015,
            "shop": "hairdresser"
          },
          "geometry": {
            "type": "Point",
            "coordinates": [
              16.052015,
              48.8529369
            ]
          }
        },
        {
          "type": "Feature",
          "properties": {
            "id": "1855596342",
            "osm_type": "node",
            "lat": 48.8539885,
            "lon": 16.0513594,
            "disused:shop": "hairdresser",
            "female": "yes",
            "male": "yes",
            "name": "Kadeřnictví - Holičství",
            "opening_hours": "\"by appoinment\"",
            "shop": "hairdresser",
            "wheelchair": "no"
          },
          "geometry": {
            "type": "Point",
            "coordinates": [
              16.0513594,
              48.8539885
            ]
          }
        },
        {
          "type": "Feature",
          "properties": {
            "id": "2445144061",
            "osm_type": "node",
            "lat": 48.8371233,
            "lon": 16.0644906,
            "shop": "hairdresser"
          },
          "geometry": {
            "type": "Point",
            "coordinates": [
              16.0644906,
              48.8371233
            ]
          }
        },
        {
          "type": "Feature",
          "properties": {
            "id": "9447539914",
            "osm_type": "node",
            "lat": 48.7643931,
            "lon": 16.0645158,
            "shop": "hairdresser"
          },
          "geometry": {
            "type": "Point",
            "coordinates": [
              16.0645158,
              48.7643931
            ]
          }
        },
        {
          "type": "Feature",
          "properties": {
            "id": "12112361734",
            "osm_type": "node",
            "lat": 48.8605646,
            "lon": 16.0478387,
            "contact:phone": "+420 602961729",
            "female": "yes",
            "male": "yes",
            "name": "KADERNICTVI JANA",
            "opening_hours": "Tu,Th 07:00-16:00; Fr 07:00-14:00; Mo,We,Sa,Su off",
            "ref:vatin": "CZ09225871",
            "shop": "hairdresser",
            "wheelchair": "limited"
          },
          "geometry": {
            "type": "Point",
            "coordinates": [
              16.0478387,
              48.8605646
            ]
          }
        },
        {
          "type": "Feature",
          "properties": {
            "id": "12153279414",
            "osm_type": "node",
            "lat": 48.8547739,
            "lon": 16.056694,
            "addr:city": "Znojmo",
            "addr:country": "CZ",
            "addr:housenumber": "847",
            "addr:postcode": "66902",
            "addr:street": "17. listopadu",
            "name": "Kadeřnictví Kristina",
            "opening_hours": "Mo 08:00-14:00; Tu 10:00-17:00; We 08:00-14:00; Th 10:00-17:00",
            "phone": "+42 515 241486",
            "shop": "hairdresser"
          },
          "geometry": {
            "type": "Point",
            "coordinates": [
              16.056694,
              48.8547739
            ]
          }
        },
        {
          "type": "Feature",
          "properties": {
            "id": "13059561371",
            "osm_type": "node",
            "lat": 48.8572257,
            "lon": 16.0635899,
            "name": "HAIR CARE STUDIO",
            "shop": "hairdresser"
          },
          "geometry": {
            "type": "Point",
            "coordinates": [
              16.0635899,
              48.8572257
            ]
          }
        },
        {
          "type": "Feature",
          "properties": {
            "id": "851899950",
            "osm_type": "node",
            "lat": 48.8838598,
            "lon": 15.4025956,
            "addr:city": "Karlstein an der Thaya",
            "addr:country": "AT",
            "addr:housenumber": "25",
            "addr:postcode": "3822",
            "addr:street": "Hauptstraße",
            "name": "La Frisura",
            "phone": "+43-2844-71207",
            "shop": "hairdresser"
          },
          "geometry": {
            "type": "Point",
            "coordinates": [
              15.4025956,
              48.8838598
            ]
          }
        },
        {
          "type": "Feature",
          "properties": {
            "id": "11722380790",
            "osm_type": "node",
            "lat": 48.8832958,
            "lon": 15.4101557,
            "addr:housenumber": "7",
            "addr:street": "Thumastraße",
            "name": "Melanie Ritter",
            "shop": "hairdresser"
          },
          "geometry": {
            "type": "Point",
            "coordinates": [
              15.4101557,
              48.8832958
            ]
          }
        }
      ],
      "children": []
    },
    {
      "bbox": {
        "south": 48.68652475,
        "west": 16.2068765,
        "north": 49.017078,
        "east": 17.16058
      },
      "poiCount": 19,
      "leafCount": 19,
      "averagePosition": [
        16.902081057894737,
        48.82469734736842
      ],
      "data": [
        {
          "type": "Feature",
          "properties": {
            "id": "5379087848",
            "osm_type": "node",
            "lat": 48.7763441,
            "lon": 16.2693371,
            "shop": "hairdresser"
          },
          "geometry": {
            "type": "Point",
            "coordinates": [
              16.2693371,
              48.7763441
            ]
          }
        },
        {
          "type": "Feature",
          "properties": {
            "id": "5777585472",
            "osm_type": "node",
            "lat": 48.7223516,
            "lon": 16.3845755,
            "addr:city": "Laa an der Thaya",
            "addr:country": "AT",
            "addr:housenumber": "28",
            "addr:postcode": "2136",
            "addr:street": "Stadtplatz",
            "name": "Frisör Robert",
            "shop": "hairdresser"
          },
          "geometry": {
            "type": "Point",
            "coordinates": [
              16.3845755,
              48.7223516
            ]
          }
        },
        {
          "type": "Feature",
          "properties": {
            "id": "9449475112",
            "osm_type": "node",
            "lat": 48.7307335,
            "lon": 16.382478,
            "shop": "hairdresser"
          },
          "geometry": {
            "type": "Point",
            "coordinates": [
              16.382478,
              48.7307335
            ]
          }
        },
        {
          "type": "Feature",
          "properties": {
            "id": "1217558101",
            "osm_type": "node",
            "lat": 48.8010463,
            "lon": 17.0183175,
            "addr:conscriptionnumber": "64",
            "addr:country": "CZ",
            "addr:housenumber": "64",
            "addr:place": "Moravská Nová Ves",
            "addr:postcode": "69155",
            "addr:street": "Hlavní",
            "name": "Kadeřnictví Iva",
            "ref:ruian:addr": "10007482",
            "shop": "hairdresser"
          },
          "geometry": {
            "type": "Point",
            "coordinates": [
              17.0183175,
              48.8010463
            ]
          }
        },
        {
          "type": "Feature",
          "properties": {
            "id": "1711190166",
            "osm_type": "node",
            "lat": 48.7607622,
            "lon": 16.9946718,
            "name": "Kadeřnictví Alexandra",
            "shop": "hairdresser"
          },
          "geometry": {
            "type": "Point",
            "coordinates": [
              16.9946718,
              48.7607622
            ]
          }
        },
        {
          "type": "Feature",
          "properties": {
            "id": "2466577607",
            "osm_type": "node",
            "lat": 48.7581598,
            "lon": 16.8542812,
            "shop": "hairdresser"
          },
          "geometry": {
            "type": "Point",
            "coordinates": [
              16.8542812,
              48.7581598
            ]
          }
        },
        {
          "type": "Feature",
          "properties": {
            "id": "3950539129",
            "osm_type": "node",
            "lat": 48.8309085,
            "lon": 16.8489692,
            "female": "yes",
            "name": "Kosmetický salon nana",
            "shop": "hairdresser"
          },
          "geometry": {
            "type": "Point",
            "coordinates": [
              16.8489692,
              48.8309085
            ]
          }
        },
        {
          "type": "Feature",
          "properties": {
            "id": "4234161204",
            "osm_type": "node",
            "lat": 48.8024822,
            "lon": 16.630769,
            "name": "Salon Harmonie",
            "shop": "hairdresser"
          },
          "geometry": {
            "type": "Point",
            "coordinates": [
              16.630769,
              48.8024822
            ]
          }
        },
        {
          "type": "Feature",
          "properties": {
            "id": "4762027821",
            "osm_type": "node",
            "lat": 48.8651596,
            "lon": 17.0235711,
            "addr:city": "Dolní Bojanovice",
            "addr:housenumber": "771",
            "addr:postcode": "69617",
            "addr:street": "Hlavní",
            "name": "Kadeřnictví Eva Půlkrábková",
            "phone": "731 011 728",
            "shop": "hairdresser",
            "website": "https://www.facebook.com/kadernictvipulkrabkova"
          },
          "geometry": {
            "type": "Point",
            "coordinates": [
              17.0235711,
              48.8651596
            ]
          }
        },
        {
          "type": "Feature",
          "properties": {
            "id": "8543897634",
            "osm_type": "node",
            "lat": 48.6884461,
            "lon": 17.0236641,
            "name": "Kaderníctvo Sabina",
            "shop": "hairdresser"
          },
          "geometry": {
            "type": "Point",
            "coordinates": [
              17.0236641,
              48.6884461
            ]
          }
        },
        {
          "type": "Feature",
          "properties": {
            "id": "12323684301",
            "osm_type": "node",
            "lat": 48.7542761,
            "lon": 16.8628361,
            "addr:housenumber": "350/24",
            "addr:postcode": "69141",
            "addr:street": "Záhumní",
            "name": "Pánské kadeřnictví",
            "shop": "hairdresser"
          },
          "geometry": {
            "type": "Point",
            "coordinates": [
              16.8628361,
              48.7542761
            ]
          }
        },
        {
          "type": "Feature",
          "properties": {
            "id": "13085510155",
            "osm_type": "node",
            "lat": 48.8108649,
            "lon": 17.004682,
            "check_date": "2025-08-20",
            "name": "Salon Styll",
            "phone": "+420 777 690 447",
            "shop": "hairdresser"
          },
          "geometry": {
            "type": "Point",
            "coordinates": [
              17.004682,
              48.8108649
            ]
          }
        },
        {
          "type": "Feature",
          "properties": {
            "id": "2301864892",
            "osm_type": "node",
            "lat": 48.8598695,
            "lon": 17.11609,
            "addr:city": "Hodonín",
            "addr:conscriptionnumber": "3841",
            "addr:country": "CZ",
            "addr:housenumber": "3841/25",
            "addr:postcode": "69501",
            "addr:street": "Cihlářská čtvrť",
            "addr:streetnumber": "25",
            "name": "#VSB BARBERSHOP",
            "payment:cash": "yes",
            "ref:ruian:addr": "28111672",
            "shop": "hairdresser",
            "source:addr": "cuzk:ruian",
            "website": "https://www.vsbbarbershop.sk"
          },
          "geometry": {
            "type": "Point",
            "coordinates": [
              17.11609,
              48.8598695
            ]
          }
        },
        {
          "type": "Feature",
          "properties": {
            "id": "2358496104",
            "osm_type": "node",
            "lat": 48.8155157,
            "lon": 17.1555007,
            "shop": "hairdresser"
          },
          "geometry": {
            "type": "Point",
            "coordinates": [
              17.1555007,
              48.8155157
            ]
          }
        },
        {
          "type": "Feature",
          "properties": {
            "id": "4034372603",
            "osm_type": "node",
            "lat": 48.8147575,
            "lon": 17.1567309,
            "name": "Tatiana",
            "shop": "hairdresser"
          },
          "geometry": {
            "type": "Point",
            "coordinates": [
              17.1567309,
              48.8147575
            ]
          }
        },
        {
          "type": "Feature",
          "properties": {
            "id": "12531802546",
            "osm_type": "node",
            "lat": 48.851789,
            "lon": 17.1158475,
            "contact:facebook": "https://www.facebook.com/RoyalBarberShopHodonin",
            "hairdresser": "barber",
            "name": "Royal Barber & Shop",
            "opening_hours": "Mo-Fr 09:00-19:00",
            "payment:apple_pay": "yes",
            "payment:cash": "yes",
            "payment:google_pay": "yes",
            "payment:visa": "yes",
            "phone": "+420 704 971 026",
            "shop": "hairdresser"
          },
          "geometry": {
            "type": "Point",
            "coordinates": [
              17.1158475,
              48.851789
            ]
          }
        },
        {
          "type": "Feature",
          "properties": {
            "id": "2225837530",
            "osm_type": "node",
            "lat": 49.006765,
            "lon": 17.1251749,
            "addr:housename": "Katka Hairdresser",
            "name": "Katka Hairdresser",
            "shop": "hairdresser",
            "source": "local knowledge"
          },
          "geometry": {
            "type": "Point",
            "coordinates": [
              17.1251749,
              49.006765
            ]
          }
        },
        {
          "type": "Feature",
          "properties": {
            "id": "2229136106",
            "osm_type": "node",
            "lat": 49.0093301,
            "lon": 17.1215752,
            "addr:housename": "Kadeřnictví M- salon",
            "addr:housenumber": "1031/34",
            "addr:postcode": "69701",
            "addr:street": "Jungmannova",
            "name": "Kadeřnictví M- salon",
            "shop": "hairdresser",
            "source": "local knowledge"
          },
          "geometry": {
            "type": "Point",
            "coordinates": [
              17.1215752,
              49.0093301
            ]
          }
        },
        {
          "type": "Feature",
          "properties": {
            "id": "2260913220",
            "osm_type": "node",
            "lat": 49.0096879,
            "lon": 17.0504683,
            "name": "Hairdresser Sitařová",
            "shop": "hairdresser",
            "source": "local knowledge"
          },
          "geometry": {
            "type": "Point",
            "coordinates": [
              17.0504683,
              49.0096879
            ]
          }
        }
      ],
      "children": []
    }
  ]
}