{
  "bbox": {
    "south": 47.033758500000005,
    "west": 13.345766,
    "north": 47.694865,
    "east": 15.253173
  },
  "poiCount": 152,
  "leafCount": 0,
  "averagePosition": [
    14.584848179605261,
    47.29221977697369
  ],
  "data": [],
  "children": [
    {
      "bbox": {
        "south": 47.033758500000005,
        "west": 13.345766,
        "north": 47.36431175,
        "east": 14.2994695
      },
      "poiCount": 10,
      "leafCount": 10,
      "averagePosition": [
        13.849803009999999,
        47.13544382
      ],
      "data": [
        {
          "type": "Feature",
          "properties": {
            "id": "2289078208",
            "osm_type": "node",
            "lat": 47.0990489,
            "lon": 13.6388161,
            "addr:city": "Sankt Michael im Lungau",
            "addr:housenumber": "58",
            "addr:street": "Marktstraße",
            "female:signed": "no",
            "male:signed": "no",
            "name": "Feistmantel",
            "shop": "hairdresser"
          },
          "geometry": {
            "type": "Point",
            "coordinates": [
              13.6388161,
              47.0990489
            ]
          }
        },
        {
          "type": "Feature",
          "properties": {
            "id": "2289082540",
            "osm_type": "node",
            "lat": 47.0953148,
            "lon": 13.6375604,
            "addr:city": "Sankt Michael im Lungau",
            "addr:country": "AT",
            "addr:housenumber": "488",
            "addr:postcode": "5582",
            "addr:street": "Murtalstraße",
            "at_bev:addr_date": "2021-04-01",
            "contact:phone": "+43 6477 20024",
            "name": "Fashionable Hairstyling",
            "shop": "hairdresser"
          },
          "geometry": {
            "type": "Point",
            "coordinates": [
              13.6375604,
              47.0953148
            ]
          }
        },
        {
          "type": "Feature",
          "properties": {
            "id": "3066181830",
            "osm_type": "node",
            "lat": 47.0986096,
            "lon": 13.6378112,
            "addr:city": "Sankt Michael im Lungau",
            "addr:housenumber": "25",
            "addr:postcode": "5582",
            "addr:street": "Marktstraße",
            "contact:phone": "+43 6477 20333",
            "female": "yes",
            "male": "yes",
            "name": "Die Friseurin",
            "name:de": "Die Friseurin Liberda Ulli",
            "operator": "Karin Lehenauer",
            "shop": "hairdresser",
            "wheelchair": "yes"
          },
          "geometry": {
            "type": "Point",
            "coordinates": [
              13.6378112,
              47.0986096
            ]
          }
        },
        {
          "type": "Feature",
          "properties": {
            "id": "3066342948",
            "osm_type": "node",
            "lat": 47.0958951,
            "lon": 13.6332625,
            "addr:city": "Sankt Michael im Lungau",
            "addr:housenumber": "580",
            "addr:street": "Gewerbestraße",
            "brand": "Klipp",
            "brand:wikidata": "Q1737304",
            "brand:wikipedia": "de:Klipp Frisör",
            "name": "Klipp",
            "opening_hours": "Mo-We,Fr 08:00-18:00; Sa 08:00-13:00; Th, Su, PH off",
            "shop": "hairdresser"
          },
          "geometry": {
            "type": "Point",
            "coordinates": [
              13.6332625,
              47.0958951
            ]
          }
        },
        {
          "type": "Feature",
          "properties": {
            "id": "4096035861",
            "osm_type": "node",
            "lat": 47.1291876,
            "lon": 13.8104443,
            "brand": "Klipp",
            "brand:wikidata": "Q1737304",
            "name": "Klipp",
            "shop": "hairdresser"
          },
          "geometry": {
            "type": "Point",
            "coordinates": [
              13.8104443,
              47.1291876
            ]
          }
        },
        {
          "type": "Feature",
          "properties": {
            "id": "9044773569",
            "osm_type": "node",
            "lat": 47.1276514,
            "lon": 13.8117376,
            "shop": "hairdresser"
          },
          "geometry": {
            "type": "Point",
            "coordinates": [
              13.8117376,
              47.1276514
            ]
          }
        },
        {
          "type": "Feature",
          "properties": {
            "id": "10771991086",
            "osm_type": "node",
            "lat": 47.2485664,
            "lon": 13.5582733,
            "addr:city": "Obertauern",
            "addr:country": "AT",
            "addr:housenumber": "61",
            "addr:postcode": "5562",
            "addr:street": "Römerstraße",
            "contact:facebook": "haarscharfobertauern",
            "contact:phone": "+436644300370",
            "name": "Haarscharf",
            "opening_hours": "Mo-Fr 09:00-18:00; Sa 09:00-17:00; Su,PH off",
            "shop": "hairdresser"
          },
          "geometry": {
            "type": "Point",
            "coordinates": [
              13.5582733,
              47.2485664
            ]
          }
        },
        {
          "type": "Feature",
          "properties": {
            "id": "1854590671",
            "osm_type": "node",
            "lat": 47.1870556,
            "lon": 14.189169,
            "addr:city": "St. Peter am Kammersberg",
            "addr:country": "AT",
            "addr:housenumber": "98",
            "addr:place": "St. Peter a. Kbg.",
            "addr:postcode": "8843",
            "at_bev:addr_date": "2018-10-01",
            "name": "Fisiersalon Marianne",
            "shop": "hairdresser"
          },
          "geometry": {
            "type": "Point",
            "coordinates": [
              14.189169,
              47.1870556
            ]
          }
        },
        {
          "type": "Feature",
          "properties": {
            "id": "2922004711",
            "osm_type": "node",
            "lat": 47.2038328,
            "lon": 14.2817721,
            "name": "Friseursalon Elfi",
            "shop": "hairdresser"
          },
          "geometry": {
            "type": "Point",
            "coordinates": [
              14.2817721,
              47.2038328
            ]
          }
        },
        {
          "type": "Feature",
          "properties": {
            "id": "2997687141",
            "osm_type": "node",
            "lat": 47.069276,
            "lon": 14.2991836,
            "addr:city": "St. Lambrecht",
            "addr:housenumber": "14",
            "addr:postcode": "8813",
            "addr:street": "Hauptstraße",
            "name": "Marktfriseur Bettina",
            "phone": "+433585 2848",
            "shop": "hairdresser"
          },
          "geometry": {
            "type": "Point",
            "coordinates": [
              14.2991836,
              47.069276
            ]
          }
        }
      ],
      "children": []
    },
    {
      "bbox": {
        "south": 47.033758500000005,
        "west": 14.2994695,
        "north": 47.36431175,
        "east": 15.253173
      },
      "poiCount": 78,
      "leafCount": 0,
      "averagePosition": [
        14.795629275641023,
        47.16772626025641
      ],
      "data": [],
      "children": [
        {
          "bbox": {
            "south": 47.033758500000005,
            "west": 14.2994695,
            "north": 47.199035125,
            "east": 14.77632125
          },
          "poiCount": 37,
          "leafCount": 37,
          "averagePosition": [
            14.655684194594595,
            47.16235103513514
          ],
          "data": [
            {
              "type": "Feature",
              "properties": {
                "id": "992958659",
                "osm_type": "node",
                "lat": 47.0723979,
                "lon": 14.4268688,
                "name": "Frisör Strubbelpetra",
                "opening_hours": "Tu,Th 08:00-17:00; We,Sa 08:00-12:00; Fr 08:00-18:00",
                "shop": "hairdresser"
              },
              "geometry": {
                "type": "Point",
                "coordinates": [
                  14.4268688,
                  47.0723979
                ]
              }
            },
            {
              "type": "Feature",
              "properties": {
                "id": "999777188",
                "osm_type": "node",
                "lat": 47.0742154,
                "lon": 14.4258557,
                "name": "Coiffeur Roman Wagner",
                "shop": "hairdresser"
              },
              "geometry": {
                "type": "Point",
                "coordinates": [
                  14.4258557,
                  47.0742154
                ]
              }
            },
            {
              "type": "Feature",
              "properties": {
                "id": "1001411756",
                "osm_type": "node",
                "lat": 47.0728972,
                "lon": 14.4271533,
                "addr:housenumber": "2",
                "addr:postcode": "8820",
                "addr:street": "Schwimmbadstraße",
                "name": "Frisuren Kuss",
                "phone": "+43 3584 2225",
                "shop": "hairdresser"
              },
              "geometry": {
                "type": "Point",
                "coordinates": [
                  14.4271533,
                  47.0728972
                ]
              }
            },
            {
              "type": "Feature",
              "properties": {
                "id": "3118115442",
                "osm_type": "node",
                "lat": 47.1500718,
                "lon": 14.4132637,
                "addr:city": "Scheifling",
                "addr:country": "AT",
                "addr:housenumber": "2",
                "addr:postcode": "8811",
                "addr:street": "Bahnhofstraße",
                "contact:phone": "+43 664 404 02 23",
                "name": "Haar Kreativ Beate",
                "opening_hours": "Tu-Fr 07:45-18:00; Sa 07:00-12:00",
                "shop": "hairdresser",
                "website": "https://www.haarkreativ-beate.at"
              },
              "geometry": {
                "type": "Point",
                "coordinates": [
                  14.4132637,
                  47.1500718
                ]
              }
            },
            {
              "type": "Feature",
              "properties": {
                "id": "6083230185",
                "osm_type": "node",
                "lat": 47.198399,
                "lon": 14.4447054,
                "addr:city": "Unzmarkt-Frauenburg",
                "addr:country": "AT",
                "addr:housenumber": "4",
                "addr:postcode": "8800",
                "addr:street": "Kärntnerstraße",
                "name": "Hair&More",
                "opening_hours": "Tu-Fr 08:00-18:00; Sa 08:00-12:00",
                "phone": "+43 3583 20353",
                "shop": "hairdresser",
                "unisex": "yes",
                "website": "https://www.haareundmehr.at/"
              },
              "geometry": {
                "type": "Point",
                "coordinates": [
                  14.4447054,
                  47.198399
                ]
              }
            },
            {
              "type": "Feature",
              "properties": {
                "id": "7040232304",
                "osm_type": "node",
                "lat": 47.1495202,
                "lon": 14.4136566,
                "addr:city": "Scheifling",
                "addr:country": "AT",
                "addr:housenumber": "6",
                "addr:postcode": "8811",
                "addr:street": "Bahnhofstraße",
                "contact:phone": "+43 3582 205 55",
                "name": "Modefriseur Maria",
                "opening_hours": "Mo-Th 08:00-17:00; Fr 08:00-18:00; Sa 07:30-12:00",
                "shop": "hairdresser"
              },
              "geometry": {
                "type": "Point",
                "coordinates": [
                  14.4136566,
                  47.1495202
                ]
              }
            },
            {
              "type": "Feature",
              "properties": {
                "id": "1074992830",
                "osm_type": "node",
                "lat": 47.0668983,
                "lon": 14.6969377,
                "addr:country": "AT",
                "addr:housenumber": "47a",
                "addr:postcode": "8742",
                "addr:street": "Hauptstraße",
                "name": "Gsodam",
                "operator": "Hannes Gsodam",
                "phone": "+433578 2335",
                "shop": "hairdresser",
                "website": "https://www.friseur-hannes.com/"
              },
              "geometry": {
                "type": "Point",
                "coordinates": [
                  14.6969377,
                  47.0668983
                ]
              }
            },
            {
              "type": "Feature",
              "properties": {
                "id": "1613990532",
                "osm_type": "node",
                "lat": 47.1905302,
                "lon": 14.7460369,
                "addr:city": "Zeltweg",
                "addr:country": "AT",
                "addr:housenumber": "119",
                "addr:postcode": "8740",
                "addr:street": "Hauptstraße",
                "name": "Friseur Sturmer",
                "phone": "+43 3577 23288",
                "shop": "hairdresser",
                "website": "https://www.friseur-sturmer.at/"
              },
              "geometry": {
                "type": "Point",
                "coordinates": [
                  14.7460369,
                  47.1905302
                ]
              }
            },
            {
              "type": "Feature",
              "properties": {
                "id": "1613990579",
                "osm_type": "node",
                "lat": 47.1890285,
                "lon": 14.7509458,
                "addr:city": "Zeltweg",
                "addr:country": "AT",
                "addr:housenumber": "8",
                "addr:postcode": "8740",
                "addr:street": "Schulgasse",
                "email": "friseur@styriahair.at",
                "name": "StyriaHair",
                "opening_hours": "Tu 08:00-12:00,14:00-18:45; We 08:00-15:00; Th 08:00-12:00,14:00-18:30; Fr 08:00-18:30; Sa 07:30-11:30",
                "phone": "+43 3577 26620",
                "shop": "hairdresser",
                "unisex": "yes",
                "website": "http://www.styriahair.at/"
              },
              "geometry": {
                "type": "Point",
                "coordinates": [
                  14.7509458,
                  47.1890285
                ]
              }
            },
            {
              "type": "Feature",
              "properties": {
                "id": "1613990602",
                "osm_type": "node",
                "lat": 47.1901402,
                "lon": 14.7554715,
                "addr:city": "Zeltweg",
                "addr:country": "AT",
                "addr:housenumber": "35",
                "addr:postcode": "8740",
                "addr:street": "Bahnhofstraße",
                "name": "Haarwerkstatt",
                "opening_hours": "Mo-Fr 08:00-18:00; Sa 08:00-13:00",
                "phone": "+43 3577 26110",
                "shop": "hairdresser",
                "website": "https://www.facebook.com/haarwerkstatt8740/"
              },
              "geometry": {
                "type": "Point",
                "coordinates": [
                  14.7554715,
                  47.1901402
                ]
              }
            },
            {
              "type": "Feature",
              "properties": {
                "id": "1640200912",
                "osm_type": "node",
                "lat": 47.1895565,
                "lon": 14.7506615,
                "addr:city": "Zeltweg",
                "addr:country": "AT",
                "addr:housenumber": "61",
                "addr:postcode": "8740",
                "addr:street": "Bahnhofstraße",
                "name": "Friseur Bernhart",
                "shop": "hairdresser"
              },
              "geometry": {
                "type": "Point",
                "coordinates": [
                  14.7506615,
                  47.1895565
                ]
              }
            },
            {
              "type": "Feature",
              "properties": {
                "id": "3395279591",
                "osm_type": "node",
                "lat": 47.1837265,
                "lon": 14.681102,
                "addr:city": "Fohnsdorf",
                "addr:country": "AT",
                "addr:district": "Murtal",
                "addr:housenumber": "5",
                "addr:postcode": "8753",
                "addr:street": "Arena am Waldfeld",
                "brand": "Klipp",
                "brand:wikidata": "Q1737304",
                "brand:wikipedia": "de:Klipp Frisör",
                "email": "info@klipp.at",
                "name": "Klipp",
                "opening_hours": "Mo-Fr 09:00-18:30; Sa 09:00-18:00",
                "phone": "+43 7242 65755",
                "shop": "hairdresser",
                "website": "https://klipp.at/",
                "wheelchair": "yes"
              },
              "geometry": {
                "type": "Point",
                "coordinates": [
                  14.681102,
                  47.1837265
                ]
              }
            },
            {
              "type": "Feature",
              "properties": {
                "id": "4842409242",
                "osm_type": "node",
                "lat": 47.1925322,
                "lon": 14.7593915,
                "name": "Aida MUJIC",
                "opening_hours": "Tu-Fr 09:00-18:00,Sa 08:00-12:00",
                "phone": "+43 3577 23331",
                "shop": "hairdresser"
              },
              "geometry": {
                "type": "Point",
                "coordinates": [
                  14.7593915,
                  47.1925322
                ]
              }
            },
            {
              "type": "Feature",
              "properties": {
                "id": "4877772624",
                "osm_type": "node",
                "lat": 47.1938041,
                "lon": 14.7432868,
                "brand": "Klipp",
                "brand:wikidata": "Q1737304",
                "brand:wikipedia": "de:Klipp Frisör",
                "name": "Klipp",
                "shop": "hairdresser"
              },
              "geometry": {
                "type": "Point",
                "coordinates": [
                  14.7432868,
                  47.1938041
                ]
              }
            },
            {
              "type": "Feature",
              "properties": {
                "id": "5451742645",
                "osm_type": "node",
                "lat": 47.1955805,
                "lon": 14.7417319,
                "female": "no",
                "male": "no",
                "name": "HaarImpuls",
                "opening_hours": "Tu-Fr 09:00-18:00; Sa 08:00-12:00",
                "phone": "+43 664 1866671",
                "shop": "hairdresser",
                "unisex": "yes"
              },
              "geometry": {
                "type": "Point",
                "coordinates": [
                  14.7417319,
                  47.1955805
                ]
              }
            },
            {
              "type": "Feature",
              "properties": {
                "id": "5464809427",
                "osm_type": "node",
                "lat": 47.1843214,
                "lon": 14.6791385,
                "female": "yes",
                "male": "yes",
                "name": "dm",
                "opening_hours": "Mo-Fr 09:00-18:30; Sa 09:00-18:00",
                "payment:credit_cards": "yes",
                "payment:debit_cards": "yes",
                "shop": "hairdresser",
                "wheelchair": "yes"
              },
              "geometry": {
                "type": "Point",
                "coordinates": [
                  14.6791385,
                  47.1843214
                ]
              }
            },
            {
              "type": "Feature",
              "properties": {
                "id": "5479532571",
                "osm_type": "node",
                "lat": 47.169269,
                "lon": 14.6541899,
                "addr:city": "Judenburg",
                "addr:country": "AT",
                "addr:district": "Murtal",
                "addr:housenumber": "2",
                "addr:postcode": "8750",
                "addr:street": "Frauengasse",
                "brand": "Klipp",
                "brand:wikidata": "Q1737304",
                "brand:wikipedia": "de:Klipp Frisör",
                "email": "info@klipp.at",
                "name": "Klipp",
                "opening_hours": "Mo-Fr 08:30-18:00; Sa 08:00-13:00",
                "phone": "+43 7242 65755",
                "shop": "hairdresser",
                "unisex": "yes",
                "website": "https://klipp.at/friseur-salons/15/judenburg/frauengasse-2",
                "wheelchair": "yes"
              },
              "geometry": {
                "type": "Point",
                "coordinates": [
                  14.6541899,
                  47.169269
                ]
              }
            },
            {
              "type": "Feature",
              "properties": {
                "id": "5580144832",
                "osm_type": "node",
                "lat": 47.1962018,
                "lon": 14.764667,
                "name": "Sturmer",
                "opening_hours": "Tu-Fr 08:00-12:00,13:30-18:00; Sa 07:30-13:00",
                "phone": "+43 3577 22414",
                "shop": "hairdresser",
                "unisex": "yes",
                "website": "https://www.friseur-sturmer.at/anfahrt"
              },
              "geometry": {
                "type": "Point",
                "coordinates": [
                  14.764667,
                  47.1962018
                ]
              }
            },
            {
              "type": "Feature",
              "properties": {
                "id": "5593735097",
                "osm_type": "node",
                "lat": 47.168547,
                "lon": 14.66282,
                "addr:city": "Judenburg",
                "addr:country": "AT",
                "addr:district": "Murtal",
                "addr:housenumber": "10",
                "addr:postcode": "8750",
                "addr:street": "Liechtensteingasse",
                "at_bev:addr_date": "2018-10-01",
                "email": "margot.wriesnegger@ainet.at",
                "name": "Haar Creativ",
                "phone": "+43 3572 82592",
                "shop": "hairdresser"
              },
              "geometry": {
                "type": "Point",
                "coordinates": [
                  14.66282,
                  47.168547
                ]
              }
            },
            {
              "type": "Feature",
              "properties": {
                "id": "5594635850",
                "osm_type": "node",
                "lat": 47.168991,
                "lon": 14.6499038,
                "addr:city": "Judenburg",
                "addr:country": "AT",
                "addr:district": "Murtal",
                "addr:housenumber": "71",
                "addr:postcode": "8750",
                "addr:street": "Burggasse",
                "female": "yes",
                "male": "yes",
                "name": "Hair & Beauty Studio",
                "opening_hours": "Tu 08:30-13:00; We 07:30-09:00; Th 11:00-18:00; Fr 08:30-14:00",
                "phone": "+43 3572 42436",
                "shop": "hairdresser",
                "website": "https://www.facebook.com/prutti.elisabeth/"
              },
              "geometry": {
                "type": "Point",
                "coordinates": [
                  14.6499038,
                  47.168991
                ]
              }
            },
            {
              "type": "Feature",
              "properties": {
                "id": "5595981912",
                "osm_type": "node",
                "lat": 47.1677829,
                "lon": 14.6534577,
                "addr:city": "Judenburg",
                "addr:country": "AT",
                "addr:housenumber": "6",
                "addr:postcode": "8750",
                "addr:street": "Hans-Kloepfer-Straße",
                "name": "Frisur Werkstatt",
                "phone": "+43 664 2041492",
                "shop": "hairdresser",
                "unisex": "yes"
              },
              "geometry": {
                "type": "Point",
                "coordinates": [
                  14.6534577,
                  47.1677829
                ]
              }
            },
            {
              "type": "Feature",
              "properties": {
                "id": "5596295971",
                "osm_type": "node",
                "lat": 47.1677264,
                "lon": 14.6614104,
                "addr:city": "Judenburg",
                "addr:country": "AT",
                "addr:housenumber": "15",
                "addr:postcode": "8750",
                "addr:street": "Hauptplatz",
                "name": "Mursteiner",
                "opening_hours": "Tu-Fr 08:00-17:30; Sa 08:00-12:00",
                "phone": "+43 3572 84315",
                "shop": "hairdresser",
                "unisex": "yes"
              },
              "geometry": {
                "type": "Point",
                "coordinates": [
                  14.6614104,
                  47.1677264
                ]
              }
            },
            {
              "type": "Feature",
              "properties": {
                "id": "5596295976",
                "osm_type": "node",
                "lat": 47.1675759,
                "lon": 14.6609116,
                "addr:city": "Judenburg",
                "addr:country": "AT",
                "addr:housenumber": "1",
                "addr:postcode": "8750",
                "addr:street": "Burggasse",
                "name": "WELLNESS-STYLIST",
                "phone": "+43 3572 42111",
                "shop": "hairdresser"
              },
              "geometry": {
                "type": "Point",
                "coordinates": [
                  14.6609116,
                  47.1675759
                ]
              }
            },
            {
              "type": "Feature",
              "properties": {
                "id": "5599132869",
                "osm_type": "node",
                "lat": 47.168392,
                "lon": 14.6598548,
                "addr:city": "Judenburg",
                "addr:country": "AT",
                "addr:district": "Murtal",
                "addr:housenumber": "5",
                "addr:postcode": "8750",
                "addr:street": "Schlossergasse",
                "name": "Hairstyling Astrid",
                "shop": "hairdresser",
                "unisex": "yes",
                "website": "https://www.facebook.com/pages/Hairstyling-Astrid/216717661700290"
              },
              "geometry": {
                "type": "Point",
                "coordinates": [
                  14.6598548,
                  47.168392
                ]
              }
            },
            {
              "type": "Feature",
              "properties": {
                "id": "5599132870",
                "osm_type": "node",
                "lat": 47.1682525,
                "lon": 14.6598601,
                "addr:city": "Judenburg",
                "addr:country": "AT",
                "addr:district": "Murtal",
                "addr:housenumber": "3",
                "addr:postcode": "8750",
                "addr:street": "Schlossergasse",
                "name": "Stadtfigaro",
                "opening_hours": "Tu-Th 08:30-12:00, 14:00-18:00; Fr 08:30-18:00; Sa 08:00-12:00",
                "operator": "Elfriede Sorko",
                "payment:cash": "yes",
                "shop": "hairdresser",
                "unisex": "yes"
              },
              "geometry": {
                "type": "Point",
                "coordinates": [
                  14.6598601,
                  47.1682525
                ]
              }
            },
            {
              "type": "Feature",
              "properties": {
                "id": "5605024958",
                "osm_type": "node",
                "lat": 47.1542982,
                "lon": 14.7400005,
                "addr:city": "Weißkirchen in Steiermark",
                "addr:country": "AT",
                "addr:housenumber": "4",
                "addr:postcode": "8741",
                "addr:street": "Stubalpenstraße",
                "name": "Hairfashion",
                "phone": "+43 3577 82522",
                "shop": "hairdresser"
              },
              "geometry": {
                "type": "Point",
                "coordinates": [
                  14.7400005,
                  47.1542982
                ]
              }
            },
            {
              "type": "Feature",
              "properties": {
                "id": "5607615374",
                "osm_type": "node",
                "lat": 47.1739469,
                "lon": 14.6795851,
                "addr:city": "Judenburg",
                "addr:country": "AT",
                "addr:district": "Murtal",
                "addr:housenumber": "1",
                "addr:postcode": "8750",
                "addr:street": "Ferdinand-von-Saar Gasse",
                "name": "Salonastrid",
                "opening_hours": "Tu-Fr 08:00-18:00; Sa 07:30-12:00",
                "phone": "+43 3572 83773",
                "shop": "hairdresser",
                "unisex": "yes",
                "website": "https://www.facebook.com/derneuehaarschnitt"
              },
              "geometry": {
                "type": "Point",
                "coordinates": [
                  14.6795851,
                  47.1739469
                ]
              }
            },
            {
              "type": "Feature",
              "properties": {
                "id": "5890688208",
                "osm_type": "node",
                "lat": 47.1907501,
                "lon": 14.7459423,
                "addr:city": "Zeltweg",
                "addr:country": "AT",
                "addr:postcode": "8740",
                "addr:street": "Hauptstraße",
                "male": "yes",
                "name": "Friends Barber Shop",
                "shop": "hairdresser"
              },
              "geometry": {
                "type": "Point",
                "coordinates": [
                  14.7459423,
                  47.1907501
                ]
              }
            },
            {
              "type": "Feature",
              "properties": {
                "id": "5897132226",
                "osm_type": "node",
                "lat": 47.1710442,
                "lon": 14.6434155,
                "addr:city": "Judenburg",
                "addr:country": "AT",
                "addr:housenumber": "12",
                "addr:postcode": "8750",
                "addr:street": "Neue Frauengasse",
                "name": "CUT and STYLE",
                "opening_hours": "Tu-Fr 08:00-18:00; Sa 09:00-13:00",
                "shop": "hairdresser",
                "unisex": "yes",
                "website": "http://members.aon.at/ssteine9/"
              },
              "geometry": {
                "type": "Point",
                "coordinates": [
                  14.6434155,
                  47.1710442
                ]
              }
            },
            {
              "type": "Feature",
              "properties": {
                "id": "5918275651",
                "osm_type": "node",
                "lat": 47.1897052,
                "lon": 14.7512712,
                "addr:city": "Zeltweg",
                "addr:country": "AT",
                "addr:housenumber": "55",
                "addr:postcode": "8740",
                "addr:street": "Bahnhofstraße",
                "name": "Eva",
                "opening_hours": "Tu-Fr 08:00-18:00; Sa 08:00-12:00",
                "phone": "+43 3577 22105",
                "shop": "hairdresser",
                "unisex": "yes"
              },
              "geometry": {
                "type": "Point",
                "coordinates": [
                  14.7512712,
                  47.1897052
                ]
              }
            },
            {
              "type": "Feature",
              "properties": {
                "id": "5940726329",
                "osm_type": "node",
                "lat": 47.1749743,
                "lon": 14.6658213,
                "addr:city": "Judenburg",
                "addr:country": "AT",
                "addr:housenumber": "28",
                "addr:postcode": "8750",
                "addr:street": "Gußstahlwerkstraße",
                "name": "Hair Colors",
                "opening_hours": "We 09:00-18:00; Th 13:00-18:00; Fr 08:00-18:00; Sa 07:30-14:00",
                "shop": "hairdresser",
                "unisex": "yes"
              },
              "geometry": {
                "type": "Point",
                "coordinates": [
                  14.6658213,
                  47.1749743
                ]
              }
            },
            {
              "type": "Feature",
              "properties": {
                "id": "6339928038",
                "osm_type": "node",
                "lat": 47.1522835,
                "lon": 14.7393072,
                "name": "Schnittkunst",
                "shop": "hairdresser",
                "unisex": "yes"
              },
              "geometry": {
                "type": "Point",
                "coordinates": [
                  14.7393072,
                  47.1522835
                ]
              }
            },
            {
              "type": "Feature",
              "properties": {
                "id": "6778124518",
                "osm_type": "node",
                "lat": 47.1688879,
                "lon": 14.6537326,
                "addr:city": "Judenburg",
                "addr:country": "AT",
                "addr:housenumber": "44",
                "addr:postcode": "8750",
                "addr:street": "Burggasse",
                "name": "Struwwelpeter",
                "opening_hours": "Tu-Fr 09:00-18:00; We 13:30-18:00; Sa 08:30-12:00",
                "shop": "hairdresser",
                "unisex": "yes"
              },
              "geometry": {
                "type": "Point",
                "coordinates": [
                  14.6537326,
                  47.1688879
                ]
              }
            },
            {
              "type": "Feature",
              "properties": {
                "id": "7660568718",
                "osm_type": "node",
                "lat": 47.1683117,
                "lon": 14.6575186,
                "addr:city": "Judenburg",
                "addr:country": "AT",
                "addr:postcode": "8750",
                "name": "Haarscharf",
                "opening_hours": "Tu 08:00-12:00; We-Fr 07:00-17:15; Sa 07:00-12:00",
                "phone": "+43 3572 83303",
                "shop": "hairdresser",
                "unisex": "yes",
                "wheelchair": "no"
              },
              "geometry": {
                "type": "Point",
                "coordinates": [
                  14.6575186,
                  47.1683117
                ]
              }
            },
            {
              "type": "Feature",
              "properties": {
                "id": "11358140718",
                "osm_type": "node",
                "lat": 47.1691213,
                "lon": 14.6503034,
                "male": "yes",
                "name": "BOB Friseur",
                "opening_hours": "Mo-Sa 09:00-19:00",
                "shop": "hairdresser"
              },
              "geometry": {
                "type": "Point",
                "coordinates": [
                  14.6503034,
                  47.1691213
                ]
              }
            },
            {
              "type": "Feature",
              "properties": {
                "id": "12067648666",
                "osm_type": "node",
                "lat": 47.067628,
                "lon": 14.696228,
                "addr:housenumber": "41",
                "name": "haarissima",
                "operator": "Karin Pabst",
                "shop": "hairdresser"
              },
              "geometry": {
                "type": "Point",
                "coordinates": [
                  14.696228,
                  47.067628
                ]
              }
            },
            {
              "type": "Feature",
              "properties": {
                "id": "12282986908",
                "osm_type": "node",
                "lat": 47.1896786,
                "lon": 14.7539066,
                "name": "Marco Fellner Hair & Make-up",
                "shop": "hairdresser",
                "website": "https://www.marcofellner.at/"
              },
              "geometry": {
                "type": "Point",
                "coordinates": [
                  14.7539066,
                  47.1896786
                ]
              }
            }
          ],
          "children": []
        },
        {
          "bbox": {
            "south": 47.033758500000005,
            "west": 14.77632125,
            "north": 47.199035125,
            "east": 15.253173
          },
          "poiCount": 15,
          "leafCount": 15,
          "averagePosition": [
            15.112771666666667,
            47.05933613333333
          ],
          "data": [
            {
              "type": "Feature",
              "properties": {
                "id": "1078985918",
                "osm_type": "node",
                "lat": 47.0463794,
                "lon": 15.1576153,
                "addr:postcode": "8570",
                "addr:street": "Grazer Vorstadt",
                "name": "Friseur Lesky",
                "operator": "Sabine Macher",
                "phone": "+433142 24140",
                "shop": "hairdresser"
              },
              "geometry": {
                "type": "Point",
                "coordinates": [
                  15.1576153,
                  47.0463794
                ]
              }
            },
            {
              "type": "Feature",
              "properties": {
                "id": "1919127489",
                "osm_type": "node",
                "lat": 47.0643909,
                "lon": 15.0844818,
                "addr:city": "Köflach",
                "addr:country": "AT",
                "addr:housenumber": "6",
                "addr:postcode": "8580",
                "addr:street": "Hauptplatz",
                "name": "Nositsch-Narath",
                "shop": "hairdresser"
              },
              "geometry": {
                "type": "Point",
                "coordinates": [
                  15.0844818,
                  47.0643909
                ]
              }
            },
            {
              "type": "Feature",
              "properties": {
                "id": "3285548964",
                "osm_type": "node",
                "lat": 47.0462259,
                "lon": 15.1479684,
                "addr:city": "Voitsberg",
                "addr:country": "AT",
                "addr:housenumber": "14",
                "addr:postcode": "8570",
                "addr:street": "Bahnhofstraße",
                "name": "Heribert & Team",
                "opening_hours": "Tu-Fr 08:00-18:00; Sa 07:00-12:00; Mo off",
                "phone": "+433142 22 7 44",
                "shop": "hairdresser",
                "website": "http://www.heribertundteam.com"
              },
              "geometry": {
                "type": "Point",
                "coordinates": [
                  15.1479684,
                  47.0462259
                ]
              }
            },
            {
              "type": "Feature",
              "properties": {
                "id": "3872992852",
                "osm_type": "node",
                "lat": 47.0700708,
                "lon": 15.1276284,
                "addr:city": "Bärnbach",
                "addr:country": "AT",
                "addr:housenumber": "3",
                "addr:postcode": "8572",
                "addr:street": "Piberstraße",
                "name": "Peter Ganotz",
                "shop": "hairdresser"
              },
              "geometry": {
                "type": "Point",
                "coordinates": [
                  15.1276284,
                  47.0700708
                ]
              }
            },
            {
              "type": "Feature",
              "properties": {
                "id": "6010772740",
                "osm_type": "node",
                "lat": 47.0637846,
                "lon": 15.0815983,
                "addr:city": "Köflach",
                "addr:country": "AT",
                "addr:housenumber": "7",
                "addr:postcode": "8580",
                "addr:street": "Quergasse",
                "at_bev:addr_date": "2018-10-01",
                "contact:phone": "+43 3144 5954",
                "name": "Capilli Hairdesign Andrea Suppan",
                "opening_hours": "Mo; We-Fr 09:00-18:00; Sa 08:00-14:00; Tu off",
                "shop": "hairdresser"
              },
              "geometry": {
                "type": "Point",
                "coordinates": [
                  15.0815983,
                  47.0637846
                ]
              }
            },
            {
              "type": "Feature",
              "properties": {
                "id": "6447396647",
                "osm_type": "node",
                "lat": 47.0628381,
                "lon": 15.0926667,
                "addr:city": "Köflach",
                "addr:country": "AT",
                "addr:postcode": "8580",
                "contact:phone": "+43 3144 5622",
                "name": "Friseursalon Studio A",
                "opening_hours": "Mo,Tu,Th-Sa 09:00-18:00; We off",
                "shop": "hairdresser"
              },
              "geometry": {
                "type": "Point",
                "coordinates": [
                  15.0926667,
                  47.0628381
                ]
              }
            },
            {
              "type": "Feature",
              "properties": {
                "id": "7724256329",
                "osm_type": "node",
                "lat": 47.0485153,
                "lon": 15.1515117,
                "addr:city": "Voitsberg",
                "addr:country": "AT",
                "addr:housenumber": "49",
                "addr:postcode": "8570",
                "addr:street": "Hauptplatz",
                "contact:phone": "+43 660 158 81 88",
                "name": "Haarstube",
                "opening_hours": "Tu-Fr 08:00-18:00; Sa 08:00-13:00",
                "shop": "hairdresser"
              },
              "geometry": {
                "type": "Point",
                "coordinates": [
                  15.1515117,
                  47.0485153
                ]
              }
            },
            {
              "type": "Feature",
              "properties": {
                "id": "8205656703",
                "osm_type": "node",
                "lat": 47.0429746,
                "lon": 15.1611052,
                "addr:city": "Voitsberg",
                "addr:country": "AT",
                "addr:housenumber": "86a",
                "addr:postcode": "8570",
                "addr:street": "Grazer Vorstadt",
                "contact:phone": "+43 3142 203 79",
                "name": "Haarzauber Voitsberg",
                "shop": "hairdresser",
                "website": "https://www.haarzauber-voitsberg.com/kontakt/"
              },
              "geometry": {
                "type": "Point",
                "coordinates": [
                  15.1611052,
                  47.0429746
                ]
              }
            },
            {
              "type": "Feature",
              "properties": {
                "id": "8376293036",
                "osm_type": "node",
                "lat": 47.0715689,
                "lon": 15.1284744,
                "addr:city": "Bärnbach",
                "addr:country": "AT",
                "addr:housenumber": "6",
                "addr:postcode": "8572",
                "addr:street": "Hauptstraße",
                "contact:phone": "+43 3142 628 75",
                "name": "Stadtfriseur Bärnbach - Johann Steinwider",
                "opening_hours": "Tu, We, Fr 08:00-12:00, 13:00-18:00; Sa 07:30-12:30",
                "shop": "hairdresser"
              },
              "geometry": {
                "type": "Point",
                "coordinates": [
                  15.1284744,
                  47.0715689
                ]
              }
            },
            {
              "type": "Feature",
              "properties": {
                "id": "8557822699",
                "osm_type": "node",
                "lat": 47.0503664,
                "lon": 15.0718018,
                "addr:city": "Köflach",
                "addr:country": "AT",
                "addr:housenumber": "2",
                "addr:postcode": "8580",
                "addr:street": "Weidenweg",
                "contact:phone": "+43 3144 721 62",
                "female:signed": "no",
                "male:signed": "no",
                "name": "Frisörsalon Manuela Fink",
                "opening_hours": "Tu,We 07:30-17:30; Th 07:30-12:30; Sa 07:00-12:00; Fr 07:00-12:00",
                "shop": "hairdresser",
                "wheelchair": "no"
              },
              "geometry": {
                "type": "Point",
                "coordinates": [
                  15.0718018,
                  47.0503664
                ]
              }
            },
            {
              "type": "Feature",
              "properties": {
                "id": "9238697004",
                "osm_type": "node",
                "lat": 47.0645725,
                "lon": 15.0853591,
                "name": "HaarKreativ",
                "shop": "hairdresser"
              },
              "geometry": {
                "type": "Point",
                "coordinates": [
                  15.0853591,
                  47.0645725
                ]
              }
            },
            {
              "type": "Feature",
              "properties": {
                "id": "10154754327",
                "osm_type": "node",
                "lat": 47.0524831,
                "lon": 15.1309451,
                "contact:phone": "+43 3142 241 40",
                "name": "Lesky Friseur",
                "opening_hours": "Tu, We, Fr 08:00-18:00; Sa 07:30-12:30",
                "shop": "hairdresser",
                "website": "https://www.friseurlesky.at/contact"
              },
              "geometry": {
                "type": "Point",
                "coordinates": [
                  15.1309451,
                  47.0524831
                ]
              }
            },
            {
              "type": "Feature",
              "properties": {
                "id": "10155534014",
                "osm_type": "node",
                "lat": 47.0643317,
                "lon": 15.0816156,
                "addr:city": "Köflach",
                "addr:country": "AT",
                "addr:postcode": "8580",
                "contact:phone": "+43 664 2127 388",
                "name": "Glanzschnitt",
                "opening_hours": "Tu-Fr 08:00-18:30",
                "operator": "Thomas Glantschnig",
                "shop": "hairdresser",
                "website": "http://www.glanzschnitt.at/"
              },
              "geometry": {
                "type": "Point",
                "coordinates": [
                  15.0816156,
                  47.0643317
                ]
              }
            },
            {
              "type": "Feature",
              "properties": {
                "id": "10156786119",
                "osm_type": "node",
                "lat": 47.0794266,
                "lon": 15.1248203,
                "contact:phone": "+43 3142 61665",
                "name": "Top-Hair-Studio",
                "shop": "hairdresser"
              },
              "geometry": {
                "type": "Point",
                "coordinates": [
                  15.1248203,
                  47.0794266
                ]
              }
            },
            {
              "type": "Feature",
              "properties": {
                "id": "13114264374",
                "osm_type": "node",
                "lat": 47.0621132,
                "lon": 15.0639829,
                "name": "Leitner",
                "shop": "hairdresser"
              },
              "geometry": {
                "type": "Point",
                "coordinates": [
                  15.0639829,
                  47.0621132
                ]
              }
            }
          ],
          "children": []
        },
        {
          "bbox": {
            "south": 47.199035125,
            "west": 14.2994695,
            "north": 47.36431175,
            "east": 14.77632125
          },
          "poiCount": 7,
          "leafCount": 7,
          "averagePosition": [
            14.636649071428574,
            47.221734614285715
          ],
          "data": [
            {
              "type": "Feature",
              "properties": {
                "id": "9254477142",
                "osm_type": "node",
                "lat": 47.2834205,
                "lon": 14.4811861,
                "name": "Haarpflegestudio Ingrid",
                "shop": "hairdresser"
              },
              "geometry": {
                "type": "Point",
                "coordinates": [
                  14.4811861,
                  47.2834205
                ]
              }
            },
            {
              "type": "Feature",
              "properties": {
                "id": "5609823882",
                "osm_type": "node",
                "lat": 47.2086147,
                "lon": 14.6774742,
                "addr:city": "Fohnsdorf",
                "addr:country": "AT",
                "addr:housenumber": "1a",
                "addr:postcode": "8753",
                "addr:street": "Hauptplatz",
                "name": "Susi",
                "shop": "hairdresser",
                "unisex": "yes"
              },
              "geometry": {
                "type": "Point",
                "coordinates": [
                  14.6774742,
                  47.2086147
                ]
              }
            },
            {
              "type": "Feature",
              "properties": {
                "id": "5611024291",
                "osm_type": "node",
                "lat": 47.2073739,
                "lon": 14.673593,
                "addr:city": "Fohnsdorf",
                "addr:country": "AT",
                "addr:housenumber": "19",
                "addr:postcode": "8753",
                "addr:street": "Hauptstraße",
                "name": "Frisiersalon Spektrum",
                "shop": "hairdresser",
                "unisex": "yes",
                "website": "https://www.spektrum-christine.at/"
              },
              "geometry": {
                "type": "Point",
                "coordinates": [
                  14.673593,
                  47.2073739
                ]
              }
            },
            {
              "type": "Feature",
              "properties": {
                "id": "5611024294",
                "osm_type": "node",
                "lat": 47.2078075,
                "lon": 14.6751702,
                "addr:city": "Fohnsdorf",
                "addr:country": "AT",
                "addr:housenumber": "12",
                "addr:postcode": "8753",
                "addr:street": "Hauptstraße",
                "name": "Reitinger Friseure",
                "opening_hours": "Tu-Fr 08:00-18:00; Sa 08:00-13:00",
                "phone": "+43 3573 4466",
                "shop": "hairdresser",
                "website": "http://www.reitinger-friseure.at/"
              },
              "geometry": {
                "type": "Point",
                "coordinates": [
                  14.6751702,
                  47.2078075
                ]
              }
            },
            {
              "type": "Feature",
              "properties": {
                "id": "5611024301",
                "osm_type": "node",
                "lat": 47.2076144,
                "lon": 14.6762592,
                "addr:city": "Fohnsdorf",
                "addr:country": "AT",
                "addr:district": "Murtal",
                "addr:housenumber": "1",
                "addr:postcode": "8753",
                "addr:street": "Spitalgasse",
                "email": "burgi.eisenbeitl@gmx.at",
                "name": "Hair Fashion",
                "opening_hours": "Tu,Th 08:30-17:30; We 08:30-13:00; Fr 08:30-20:00; Sa 08:00-12:00",
                "phone": "+43 3573 4577",
                "shop": "hairdresser",
                "unisex": "yes",
                "wheelchair": "yes"
              },
              "geometry": {
                "type": "Point",
                "coordinates": [
                  14.6762592,
                  47.2076144
                ]
              }
            },
            {
              "type": "Feature",
              "properties": {
                "id": "5612223747",
                "osm_type": "node",
                "lat": 47.2078048,
                "lon": 14.6754049,
                "addr:city": "Fohnsdorf",
                "addr:country": "AT",
                "addr:housenumber": "10b",
                "addr:postcode": "8753",
                "addr:street": "Hauptstraße",
                "name": "Schnittlinie",
                "opening_hours": "Tu,We 08:00-17:30; Th,Fr 08:00-18:00; Sa 08:00-12:00",
                "phone": "+43 3573-3755",
                "shop": "hairdresser",
                "unisex": "yes"
              },
              "geometry": {
                "type": "Point",
                "coordinates": [
                  14.6754049,
                  47.2078048
                ]
              }
            },
            {
              "type": "Feature",
              "properties": {
                "id": "6174659473",
                "osm_type": "node",
                "lat": 47.2295065,
                "lon": 14.5974559,
                "addr:city": "Pöls-Oberkurzheim",
                "addr:country": "AT",
                "addr:housenumber": "1",
                "addr:postcode": "8761",
                "addr:street": "Forsthaus-Siedlung",
                "email": "nicole.schlacher@a1.net",
                "name": "Hararpoesie",
                "phone": "+43 664 4661576",
                "shop": "hairdresser",
                "unisex": "yes",
                "website": "https://de-de.facebook.com/pg/Haarpoesienicoleschlacher/about/?ref=page_internal"
              },
              "geometry": {
                "type": "Point",
                "coordinates": [
                  14.5974559,
                  47.2295065
                ]
              }
            }
          ],
          "children": []
        },
        {
          "bbox": {
            "south": 47.199035125,
            "west": 14.77632125,
            "north": 47.36431175,
            "east": 15.253173
          },
          "poiCount": 19,
          "leafCount": 19,
          "averagePosition": [
            14.876349989473685,
            47.24386714210526
          ],
          "data": [
            {
              "type": "Feature",
              "properties": {
                "id": "2040941650",
                "osm_type": "node",
                "lat": 47.2143048,
                "lon": 14.828594,
                "addr:city": "Knittefeld",
                "addr:country": "AT",
                "addr:district": "Murtal",
                "addr:housenumber": "2",
                "addr:postcode": "8720",
                "addr:street": "Herrengasse",
                "name": "Hair Style Paris",
                "shop": "hairdresser",
                "unisex": "yes",
                "website": "https://www.facebook.com/HairStyleParis/?rf=158261180990747"
              },
              "geometry": {
                "type": "Point",
                "coordinates": [
                  14.828594,
                  47.2143048
                ]
              }
            },
            {
              "type": "Feature",
              "properties": {
                "id": "4336633495",
                "osm_type": "node",
                "lat": 47.2264946,
                "lon": 14.8584179,
                "addr:city": "Sankt Margarethen bei Knittelfeld",
                "addr:country": "AT",
                "addr:housenumber": "2",
                "addr:postcode": "8720",
                "addr:street": "Hauptstraße",
                "phone": "+43 3512 86767",
                "shop": "hairdresser"
              },
              "geometry": {
                "type": "Point",
                "coordinates": [
                  14.8584179,
                  47.2264946
                ]
              }
            },
            {
              "type": "Feature",
              "properties": {
                "id": "4844047202",
                "osm_type": "node",
                "lat": 47.3469567,
                "lon": 15.0100917,
                "addr:city": "Sankt Michael in Obersteiermark",
                "addr:country": "AT",
                "addr:housenumber": "2",
                "addr:postcode": "8770",
                "addr:street": "Bahnhofplatz",
                "at_bev:addr_date": "2016-10-02",
                "contact:phone": "+43 3843 2310",
                "female:signed": "no",
                "male:signed": "no",
                "name": "FantHAARsie",
                "opening_hours": "Tu-Th 08:00-12:00, 14:00-18:00; FR 08:00-12:00, 13:00-18:00; Sa 08:00-12:00",
                "shop": "hairdresser"
              },
              "geometry": {
                "type": "Point",
                "coordinates": [
                  15.0100917,
                  47.3469567
                ]
              }
            },
            {
              "type": "Feature",
              "properties": {
                "id": "5584602412",
                "osm_type": "node",
                "lat": 47.2070404,
                "lon": 14.7971946,
                "addr:city": "Spielberg",
                "addr:country": "AT",
                "addr:housenumber": "7",
                "addr:postcode": "8724",
                "addr:street": "Südoststraße",
                "name": "Haarstudio Karin",
                "opening_hours": "Tu 08:00-12:00,14:00-18:00; We 08:00-12:00,15:00-19:00; Fr 07:45-12:00,13:00-18:00; Sa 07:30-13:00",
                "payment:coins": "yes",
                "payment:notes": "yes",
                "shop": "hairdresser",
                "unisex": "yes"
              },
              "geometry": {
                "type": "Point",
                "coordinates": [
                  14.7971946,
                  47.2070404
                ]
              }
            },
            {
              "type": "Feature",
              "properties": {
                "id": "5584937027",
                "osm_type": "node",
                "lat": 47.208489,
                "lon": 14.7974628,
                "addr:city": "Spielberg",
                "addr:country": "AT",
                "addr:district": "Murtal",
                "addr:housenumber": "2",
                "addr:postcode": "8724",
                "addr:street": "Marktpassage",
                "name": "HairStar",
                "opening_hours": "Tu-Fr 09:00-18:00; Sa 08:00-12:00",
                "phone": "+43 664 75065877",
                "shop": "hairdresser",
                "unisex": "yes",
                "website": "https://www.facebook.com/pg/HairStar-282489511863206/about/?ref=page_internal"
              },
              "geometry": {
                "type": "Point",
                "coordinates": [
                  14.7974628,
                  47.208489
                ]
              }
            },
            {
              "type": "Feature",
              "properties": {
                "id": "5585754103",
                "osm_type": "node",
                "lat": 47.2075499,
                "lon": 14.7970869,
                "addr:city": "Spielberg",
                "addr:country": "AT",
                "addr:district": "Murtal",
                "addr:housenumber": "1",
                "addr:postcode": "8724",
                "addr:street": "Marktpassage",
                "name": "Hairstyling Astrid",
                "opening_hours": "Mo 08:00-16:00; Tu-Fr 08:00-18:00; Sa 07:30-12:00",
                "phone": "+43 351 271119",
                "shop": "hairdresser",
                "unisex": "yes"
              },
              "geometry": {
                "type": "Point",
                "coordinates": [
                  14.7970869,
                  47.2075499
                ]
              }
            },
            {
              "type": "Feature",
              "properties": {
                "id": "5617463730",
                "osm_type": "node",
                "lat": 47.2168937,
                "lon": 14.8235071,
                "addr:city": "Knittelfeld",
                "addr:country": "AT",
                "addr:housenumber": "3",
                "addr:postcode": "8720",
                "addr:street": "Koloman-Wallisch-Gasse",
                "name": "Claudia",
                "phone": "+43 664-5267905",
                "shop": "hairdresser",
                "unisex": "yes"
              },
              "geometry": {
                "type": "Point",
                "coordinates": [
                  14.8235071,
                  47.2168937
                ]
              }
            },
            {
              "type": "Feature",
              "properties": {
                "id": "5617953349",
                "osm_type": "node",
                "lat": 47.2155183,
                "lon": 14.8317146,
                "addr:city": "Knittelfeld",
                "addr:country": "AT",
                "addr:housenumber": "18",
                "addr:postcode": "8720",
                "addr:street": "Marktgasse",
                "female": "yes",
                "male": "yes",
                "name": "Stuppacher",
                "opening_hours": "Tu,We 08:00-12:00,14:00-18:00; Fr 08:00-18:00; Sa 07:30-12:00",
                "phone": "+43 3512-8 27 10",
                "shop": "hairdresser"
              },
              "geometry": {
                "type": "Point",
                "coordinates": [
                  14.8317146,
                  47.2155183
                ]
              }
            },
            {
              "type": "Feature",
              "properties": {
                "id": "5618031002",
                "osm_type": "node",
                "lat": 47.2153597,
                "lon": 14.8291652,
                "name": "Amara",
                "shop": "hairdresser",
                "unisex": "yes"
              },
              "geometry": {
                "type": "Point",
                "coordinates": [
                  14.8291652,
                  47.2153597
                ]
              }
            },
            {
              "type": "Feature",
              "properties": {
                "id": "5618031010",
                "osm_type": "node",
                "lat": 47.2151411,
                "lon": 14.8300999,
                "addr:city": "Knittelfeld",
                "addr:country": "AT",
                "addr:district": "Murtal",
                "addr:housenumber": "18",
                "addr:postcode": "8720",
                "addr:street": "Hauptplatz",
                "contact:phone": "+43 3512 20350",
                "facebook": "https://de-de.facebook.com/pg/HerrenfriseurMaluma/about/?ref=page_internal",
                "male": "yes",
                "name": "Maluma",
                "opening_hours": "Mo-Fr 09:00-18:00; Sa 08:30-17:30",
                "shop": "hairdresser"
              },
              "geometry": {
                "type": "Point",
                "coordinates": [
                  14.8300999,
                  47.2151411
                ]
              }
            },
            {
              "type": "Feature",
              "properties": {
                "id": "5619962351",
                "osm_type": "node",
                "lat": 47.2153816,
                "lon": 14.8280668,
                "addr:city": "Knittelfeld",
                "addr:country": "AT",
                "addr:district": "Murtal",
                "addr:housenumber": "22",
                "addr:postcode": "8720",
                "addr:street": "Frauengasse",
                "brand": "Klipp",
                "brand:wikidata": "Q1737304",
                "brand:wikipedia": "de:Klipp Frisör",
                "male": "no",
                "name": "Klipp",
                "shop": "hairdresser",
                "unisex": "yes"
              },
              "geometry": {
                "type": "Point",
                "coordinates": [
                  14.8280668,
                  47.2153816
                ]
              }
            },
            {
              "type": "Feature",
              "properties": {
                "id": "5621334585",
                "osm_type": "node",
                "lat": 47.213198,
                "lon": 14.8157863,
                "name": "Wadsack",
                "shop": "hairdresser",
                "unisex": "yes"
              },
              "geometry": {
                "type": "Point",
                "coordinates": [
                  14.8157863,
                  47.213198
                ]
              }
            },
            {
              "type": "Feature",
              "properties": {
                "id": "5628930593",
                "osm_type": "node",
                "lat": 47.2127817,
                "lon": 14.8242715,
                "name": "Sturm",
                "shop": "hairdresser",
                "unisex": "yes"
              },
              "geometry": {
                "type": "Point",
                "coordinates": [
                  14.8242715,
                  47.2127817
                ]
              }
            },
            {
              "type": "Feature",
              "properties": {
                "id": "5630875812",
                "osm_type": "node",
                "lat": 47.2136062,
                "lon": 14.8298988,
                "addr:city": "Knittelfeld",
                "addr:country": "AT",
                "addr:housenumber": "6",
                "addr:postcode": "8720",
                "addr:street": "Kirchengasse",
                "name": "ANDREA & YVONNE",
                "shop": "hairdresser",
                "unisex": "yes"
              },
              "geometry": {
                "type": "Point",
                "coordinates": [
                  14.8298988,
                  47.2136062
                ]
              }
            },
            {
              "type": "Feature",
              "properties": {
                "id": "5632202957",
                "osm_type": "node",
                "lat": 47.214795,
                "lon": 14.8294884,
                "addr:city": "Knittelfeld",
                "addr:country": "AT",
                "addr:housenumber": "15",
                "addr:postcode": "8720",
                "addr:street": "Hauptplatz",
                "name": "HEADWORK",
                "shop": "hairdresser",
                "unisex": "yes",
                "website": "https://www.headwork-hairdresser.at/"
              },
              "geometry": {
                "type": "Point",
                "coordinates": [
                  14.8294884,
                  47.214795
                ]
              }
            },
            {
              "type": "Feature",
              "properties": {
                "id": "5634890915",
                "osm_type": "node",
                "lat": 47.2077237,
                "lon": 14.8216912,
                "addr:city": "Knittefeld",
                "addr:country": "AT",
                "addr:housenumber": "41",
                "addr:postcode": "8720",
                "addr:street": "Parkstraße",
                "name": "Sonja",
                "shop": "hairdresser",
                "unisex": "yes"
              },
              "geometry": {
                "type": "Point",
                "coordinates": [
                  14.8216912,
                  47.2077237
                ]
              }
            },
            {
              "type": "Feature",
              "properties": {
                "id": "1706025847",
                "osm_type": "node",
                "lat": 47.3603914,
                "lon": 15.0991184,
                "addr:city": "Leoben",
                "addr:country": "AT",
                "addr:housenumber": "33",
                "addr:postcode": "8700",
                "addr:street": "Steigtalstraße",
                "addr:suburb": "Göß",
                "shop": "hairdresser",
                "source": "survey"
              },
              "geometry": {
                "type": "Point",
                "coordinates": [
                  15.0991184,
                  47.3603914
                ]
              }
            },
            {
              "type": "Feature",
              "properties": {
                "id": "2267258219",
                "osm_type": "node",
                "lat": 47.362029,
                "lon": 15.0974719,
                "name": "HAIRGRICHT",
                "shop": "hairdresser"
              },
              "geometry": {
                "type": "Point",
                "coordinates": [
                  15.0974719,
                  47.362029
                ]
              }
            },
            {
              "type": "Feature",
              "properties": {
                "id": "3530841347",
                "osm_type": "node",
                "lat": 47.3598209,
                "lon": 15.1015218,
                "addr:city": "Leoben",
                "addr:country": "AT",
                "addr:housenumber": "17",
                "addr:postcode": "8700",
                "addr:street": "Alpenstraße",
                "addr:suburb": "Göß",
                "name": "Frisiersalon Edith",
                "opening_hours": "Tu-Fr 08:30-17:30; We 08:30-12:30; Sa 08:00-12:00",
                "shop": "hairdresser",
                "wheelchair": "no"
              },
              "geometry": {
                "type": "Point",
                "coordinates": [
                  15.1015218,
                  47.3598209
                ]
              }
            }
          ],
          "children": []
        }
      ]
    },
    {
      "bbox": {
        "south": 47.36431175,
        "west": 13.345766,
        "north": 47.694865,
        "east": 14.2994695
      },
      "poiCount": 29,
      "leafCount": 29,
      "averagePosition": [
        13.869499537931036,
        47.48893141034483
      ],
      "data": [
        {
          "type": "Feature",
          "properties": {
            "id": "727136270",
            "osm_type": "node",
            "lat": 47.5926856,
            "lon": 13.4681294,
            "addr:city": "Rußbach am Paß Gschütt",
            "addr:country": "AT",
            "addr:housenumber": "47",
            "addr:place": "Schattau",
            "addr:postcode": "5442",
            "at_bev:addr_date": "2017-04-07",
            "name": "Salon Heidy",
            "shop": "hairdresser"
          },
          "geometry": {
            "type": "Point",
            "coordinates": [
              13.4681294,
              47.5926856
            ]
          }
        },
        {
          "type": "Feature",
          "properties": {
            "id": "5054124613",
            "osm_type": "node",
            "lat": 47.3841199,
            "lon": 13.4626268,
            "name": "Figarouno",
            "shop": "hairdresser"
          },
          "geometry": {
            "type": "Point",
            "coordinates": [
              13.4626268,
              47.3841199
            ]
          }
        },
        {
          "type": "Feature",
          "properties": {
            "id": "5054140781",
            "osm_type": "node",
            "lat": 47.3849172,
            "lon": 13.4639937,
            "name": "Hairfactory",
            "opening_hours": "Tu,Th,Fr 08:00-19:00; We 08:00-18:00; Sa 08:00-13:00",
            "shop": "hairdresser"
          },
          "geometry": {
            "type": "Point",
            "coordinates": [
              13.4639937,
              47.3849172
            ]
          }
        },
        {
          "type": "Feature",
          "properties": {
            "id": "1044741519",
            "osm_type": "node",
            "lat": 47.4210722,
            "lon": 13.6579968,
            "addr:city": "Ramsau am Dachstein",
            "addr:postcode": "8972",
            "name": "Friseur TipTop",
            "shop": "hairdresser"
          },
          "geometry": {
            "type": "Point",
            "coordinates": [
              13.6579968,
              47.4210722
            ]
          }
        },
        {
          "type": "Feature",
          "properties": {
            "id": "1044801817",
            "osm_type": "node",
            "lat": 47.3931951,
            "lon": 13.6847953,
            "addr:city": "Schladming",
            "addr:housenumber": "139",
            "addr:postcode": "8970",
            "addr:street": "Ramsauerstraße",
            "brand": "Klipp",
            "brand:wikidata": "Q1737304",
            "brand:wikipedia": "de:Klipp Frisör",
            "name": "Klipp",
            "opening_hours": "Mo-Fr 08:00-18:00; Sa 08:00-14:00; Su off",
            "shop": "hairdresser",
            "website": "https://klipp.at"
          },
          "geometry": {
            "type": "Point",
            "coordinates": [
              13.6847953,
              47.3931951
            ]
          }
        },
        {
          "type": "Feature",
          "properties": {
            "id": "1044826839",
            "osm_type": "node",
            "lat": 47.3957669,
            "lon": 13.6924509,
            "name": "Look Sigrid Danklmaier",
            "shop": "hairdresser"
          },
          "geometry": {
            "type": "Point",
            "coordinates": [
              13.6924509,
              47.3957669
            ]
          }
        },
        {
          "type": "Feature",
          "properties": {
            "id": "1044943577",
            "osm_type": "node",
            "lat": 47.3904944,
            "lon": 13.6871795,
            "female:signed": "no",
            "male:signed": "no",
            "name": "M & M Friseur",
            "shop": "hairdresser"
          },
          "geometry": {
            "type": "Point",
            "coordinates": [
              13.6871795,
              47.3904944
            ]
          }
        },
        {
          "type": "Feature",
          "properties": {
            "id": "1044943882",
            "osm_type": "node",
            "lat": 47.3925068,
            "lon": 13.6884914,
            "addr:city": "Schladming",
            "addr:housenumber": "268",
            "addr:postcode": "8970",
            "addr:street": "Siedergasse",
            "name": "Rohrmoser",
            "shop": "hairdresser"
          },
          "geometry": {
            "type": "Point",
            "coordinates": [
              13.6884914,
              47.3925068
            ]
          }
        },
        {
          "type": "Feature",
          "properties": {
            "id": "2163708094",
            "osm_type": "node",
            "lat": 47.434202,
            "lon": 13.9368225,
            "name": "Friseursalon Karin",
            "shop": "hairdresser"
          },
          "geometry": {
            "type": "Point",
            "coordinates": [
              13.9368225,
              47.434202
            ]
          }
        },
        {
          "type": "Feature",
          "properties": {
            "id": "3325985342",
            "osm_type": "node",
            "lat": 47.6260926,
            "lon": 13.8366442,
            "addr:city": "Grundlsee",
            "addr:country": "AT",
            "addr:housenumber": "42a",
            "addr:postcode": "8993",
            "addr:street": "Bräuhof",
            "name": "Kamm & Schere",
            "shop": "hairdresser"
          },
          "geometry": {
            "type": "Point",
            "coordinates": [
              13.8366442,
              47.6260926
            ]
          }
        },
        {
          "type": "Feature",
          "properties": {
            "id": "3746388337",
            "osm_type": "node",
            "lat": 47.3935618,
            "lon": 13.6868819,
            "addr:city": "Schladming",
            "addr:housenumber": "248",
            "addr:postcode": "8970",
            "addr:street": "Erzherzog-Johann-Straße",
            "name": "Colour, Cut & Styling",
            "operator": "Stocker Marissa",
            "payment:cards": "yes",
            "payment:cash": "yes",
            "phone": "+43368722606",
            "shop": "hairdresser",
            "website": "https://cc-s.at/"
          },
          "geometry": {
            "type": "Point",
            "coordinates": [
              13.6868819,
              47.3935618
            ]
          }
        },
        {
          "type": "Feature",
          "properties": {
            "id": "5995727646",
            "osm_type": "node",
            "lat": 47.3911051,
            "lon": 13.6848117,
            "name": "Friseur Renate",
            "shop": "hairdresser"
          },
          "geometry": {
            "type": "Point",
            "coordinates": [
              13.6848117,
              47.3911051
            ]
          }
        },
        {
          "type": "Feature",
          "properties": {
            "id": "6040372244",
            "osm_type": "node",
            "lat": 47.4146874,
            "lon": 13.6763775,
            "addr:city": "Ramsau am Dachstein",
            "addr:country": "AT",
            "addr:housenumber": "167",
            "addr:place": "Leiten",
            "addr:postcode": "8972",
            "name": "Friseur Christl",
            "opening_hours": "Tu-Th 08:30-12:00,14:00-18:00; Fr 08:00-18:00; Sa 08:00-15:00; PH off",
            "phone": "+43 3687 81927",
            "shop": "hairdresser"
          },
          "geometry": {
            "type": "Point",
            "coordinates": [
              13.6763775,
              47.4146874
            ]
          }
        },
        {
          "type": "Feature",
          "properties": {
            "id": "7156029031",
            "osm_type": "node",
            "lat": 47.5668562,
            "lon": 13.9130205,
            "addr:city": "Bad Mitterndorf",
            "addr:housenumber": "114",
            "addr:place": "Sonnenalm",
            "addr:postcode": "8983",
            "name": "Umdraht ei'draht",
            "shop": "hairdresser"
          },
          "geometry": {
            "type": "Point",
            "coordinates": [
              13.9130205,
              47.5668562
            ]
          }
        },
        {
          "type": "Feature",
          "properties": {
            "id": "7156983994",
            "osm_type": "node",
            "lat": 47.5553004,
            "lon": 13.9302751,
            "shop": "hairdresser"
          },
          "geometry": {
            "type": "Point",
            "coordinates": [
              13.9302751,
              47.5553004
            ]
          }
        },
        {
          "type": "Feature",
          "properties": {
            "id": "9034290263",
            "osm_type": "node",
            "lat": 47.6092752,
            "lon": 13.781837,
            "female": "yes",
            "male": "yes",
            "name": "Frisör Ruhdorfer",
            "shop": "hairdresser"
          },
          "geometry": {
            "type": "Point",
            "coordinates": [
              13.781837,
              47.6092752
            ]
          }
        },
        {
          "type": "Feature",
          "properties": {
            "id": "10811468501",
            "osm_type": "node",
            "lat": 47.609934,
            "lon": 13.7833893,
            "name": "Buttinger",
            "shop": "hairdresser"
          },
          "geometry": {
            "type": "Point",
            "coordinates": [
              13.7833893,
              47.609934
            ]
          }
        },
        {
          "type": "Feature",
          "properties": {
            "id": "11033807515",
            "osm_type": "node",
            "lat": 47.3927456,
            "lon": 13.6847226,
            "addr:city": "Schladming",
            "addr:housenumber": "129",
            "addr:postcode": "8970",
            "addr:street": "Ramsauerstraße",
            "name": "Haarkunst",
            "shop": "hairdresser",
            "website": "http://www.haarkunst-8970.com/"
          },
          "geometry": {
            "type": "Point",
            "coordinates": [
              13.6847226,
              47.3927456
            ]
          }
        },
        {
          "type": "Feature",
          "properties": {
            "id": "11066702465",
            "osm_type": "node",
            "lat": 47.4491213,
            "lon": 13.9010122,
            "name": "Klipp",
            "opening_hours": "Mo-Fr 08:30-18:00; Sa 08:00-13:00",
            "shop": "hairdresser"
          },
          "geometry": {
            "type": "Point",
            "coordinates": [
              13.9010122,
              47.4491213
            ]
          }
        },
        {
          "type": "Feature",
          "properties": {
            "id": "11257762540",
            "osm_type": "node",
            "lat": 47.6085379,
            "lon": 13.7839945,
            "name": "Friseur Anita",
            "shop": "hairdresser"
          },
          "geometry": {
            "type": "Point",
            "coordinates": [
              13.7839945,
              47.6085379
            ]
          }
        },
        {
          "type": "Feature",
          "properties": {
            "id": "1648893213",
            "osm_type": "node",
            "lat": 47.3756033,
            "lon": 14.1195671,
            "female:signed": "no",
            "male:signed": "no",
            "name": "Haar Revier Cornelia Lechner",
            "opening_hours": "\"Donnerstag und Freitag nach telefonischer Vereinbarung 0660 34 90 430\"",
            "shop": "hairdresser",
            "source": "survey"
          },
          "geometry": {
            "type": "Point",
            "coordinates": [
              14.1195671,
              47.3756033
            ]
          }
        },
        {
          "type": "Feature",
          "properties": {
            "id": "3046758616",
            "osm_type": "node",
            "lat": 47.5597116,
            "lon": 14.2512401,
            "brand": "Klipp",
            "brand:wikidata": "Q1737304",
            "brand:wikipedia": "de:Klipp Frisör",
            "name": "Klipp",
            "shop": "hairdresser",
            "wheelchair": "yes"
          },
          "geometry": {
            "type": "Point",
            "coordinates": [
              14.2512401,
              47.5597116
            ]
          }
        },
        {
          "type": "Feature",
          "properties": {
            "id": "4445087609",
            "osm_type": "node",
            "lat": 47.5622295,
            "lon": 14.2447226,
            "brand": "Klipp",
            "brand:wikidata": "Q1737304",
            "brand:wikipedia": "de:Klipp Frisör",
            "female": "yes",
            "level": "1",
            "male": "yes",
            "name": "Klipp",
            "shop": "hairdresser",
            "wheelchair": "yes"
          },
          "geometry": {
            "type": "Point",
            "coordinates": [
              14.2447226,
              47.5622295
            ]
          }
        },
        {
          "type": "Feature",
          "properties": {
            "id": "5000832121",
            "osm_type": "node",
            "lat": 47.5053491,
            "lon": 14.0979723,
            "addr:city": "Irdning-Donnersbachtal",
            "addr:housenumber": "263",
            "addr:postcode": "8952",
            "addr:street": "Montessoristraße",
            "name": "Friseur Haargenau",
            "opening_hours": "Tu,We 09:00-18:00;Th 09:00-20:00;Fr 09:00-18:00;Sa 08:00-12:00",
            "operator": "Bernadette Neuper - Friseurmeister Betrieb",
            "shop": "hairdresser",
            "website": "https://www.friseur-haargenau.at/"
          },
          "geometry": {
            "type": "Point",
            "coordinates": [
              14.0979723,
              47.5053491
            ]
          }
        },
        {
          "type": "Feature",
          "properties": {
            "id": "5295291137",
            "osm_type": "node",
            "lat": 47.5681066,
            "lon": 14.2362355,
            "addr:city": "Liezen",
            "addr:country": "AT",
            "addr:housenumber": "24a",
            "addr:postcode": "8940",
            "addr:street": "Grimminggasse",
            "at_bev:addr_date": "2017-10-01",
            "name": "Friseur Armando",
            "phone": "+43 664 3101091",
            "shop": "hairdresser"
          },
          "geometry": {
            "type": "Point",
            "coordinates": [
              14.2362355,
              47.5681066
            ]
          }
        },
        {
          "type": "Feature",
          "properties": {
            "id": "5485628575",
            "osm_type": "node",
            "lat": 47.533291,
            "lon": 14.1078783,
            "addr:city": "Stainach-Pürgg",
            "addr:country": "AT",
            "addr:housenumber": "256",
            "addr:postcode": "8950",
            "addr:street": "Salzburgerstraße",
            "at_bev:addr_date": "2017-10-01",
            "name": "Salon Hinterleitner",
            "shop": "hairdresser"
          },
          "geometry": {
            "type": "Point",
            "coordinates": [
              14.1078783,
              47.533291
            ]
          }
        },
        {
          "type": "Feature",
          "properties": {
            "id": "7160288403",
            "osm_type": "node",
            "lat": 47.5661464,
            "lon": 14.2434749,
            "addr:city": "Liezen",
            "addr:country": "AT",
            "addr:housenumber": "22",
            "addr:postcode": "8940",
            "addr:street": "Hauptstraße",
            "addr:suburb": "Liezen",
            "at_bev:addr_date": "2019-10-01",
            "contact:mobile": "+43 660 3636 297",
            "name": "Alpenhaar",
            "shop": "hairdresser",
            "website": "https://www.alpenhaar.at/"
          },
          "geometry": {
            "type": "Point",
            "coordinates": [
              14.2434749,
              47.5661464
            ]
          }
        },
        {
          "type": "Feature",
          "properties": {
            "id": "9824802668",
            "osm_type": "node",
            "lat": 47.5342396,
            "lon": 14.2663539,
            "contact:phone": "+43 3612 822 71",
            "name": "Modefriseur Lucky",
            "shop": "hairdresser"
          },
          "geometry": {
            "type": "Point",
            "coordinates": [
              14.2663539,
              47.5342396
            ]
          }
        },
        {
          "type": "Feature",
          "properties": {
            "id": "12847405368",
            "osm_type": "node",
            "lat": 47.5681562,
            "lon": 14.2425891,
            "contact:facebook": "https://www.facebook.com/haarwerkliezen",
            "contact:phone": "+43 3612 22666",
            "name": "Haarwerk Liezen",
            "opening_hours": "Tu-Fr 08:00-18:00; Sa 08:00-12:00",
            "shop": "hairdresser"
          },
          "geometry": {
            "type": "Point",
            "coordinates": [
              14.2425891,
              47.5681562
            ]
          }
        }
      ],
      "children": []
    },
    {
      "bbox": {
        "south": 47.36431175,
        "west": 14.2994695,
        "north": 47.694865,
        "east": 15.253173
      },
      "poiCount": 35,
      "leafCount": 35,
      "averagePosition": [
        14.917837802857141,
        47.45146596285714
      ],
      "data": [
        {
          "type": "Feature",
          "properties": {
            "id": "2259018664",
            "osm_type": "node",
            "lat": 47.3690387,
            "lon": 15.0905977,
            "addr:city": "Leoben",
            "addr:country": "AT",
            "addr:housenumber": "27",
            "addr:postcode": "8700",
            "addr:street": "Ferdinand Hanusch-Straße",
            "name": "Haarstudio Wohofsky",
            "opening_hours": "Tu-Th 08:00-12:00,14:00-18:00; Fr 08:00-18:00; Sa 08:00-12:00",
            "shop": "hairdresser",
            "wheelchair": "no"
          },
          "geometry": {
            "type": "Point",
            "coordinates": [
              15.0905977,
              47.3690387
            ]
          }
        },
        {
          "type": "Feature",
          "properties": {
            "id": "2267258213",
            "osm_type": "node",
            "lat": 47.3698021,
            "lon": 15.0926351,
            "female": "yes",
            "gender": "both",
            "male": "yes",
            "name": "Figaro",
            "opening_hours": "Tu-Fr 8:00-18:00",
            "shop": "hairdresser"
          },
          "geometry": {
            "type": "Point",
            "coordinates": [
              15.0926351,
              47.3698021
            ]
          }
        },
        {
          "type": "Feature",
          "properties": {
            "id": "4448358009",
            "osm_type": "node",
            "lat": 47.3716584,
            "lon": 15.0889867,
            "addr:city": "Leoben",
            "addr:country": "AT",
            "addr:housenumber": "25",
            "addr:postcode": "8700",
            "addr:street": "Zirkusstraße",
            "name": "hairstyle hinteregger silvia",
            "shop": "hairdresser"
          },
          "geometry": {
            "type": "Point",
            "coordinates": [
              15.0889867,
              47.3716584
            ]
          }
        },
        {
          "type": "Feature",
          "properties": {
            "id": "1250973589",
            "osm_type": "node",
            "lat": 47.5913192,
            "lon": 14.3642106,
            "addr:housename": "Haarschmiede Ardning",
            "addr:housenumber": "13",
            "addr:place": "Ardning",
            "addr:postcode": "8904",
            "name": "Haarschmiede",
            "shop": "hairdresser"
          },
          "geometry": {
            "type": "Point",
            "coordinates": [
              14.3642106,
              47.5913192
            ]
          }
        },
        {
          "type": "Feature",
          "properties": {
            "id": "1832128525",
            "osm_type": "node",
            "lat": 47.665066,
            "lon": 14.3401137,
            "addr:city": "Spital am Pyhrn",
            "addr:country": "AT",
            "addr:housenumber": "4",
            "addr:postcode": "4582",
            "addr:street": "Stiftsplatz",
            "contact:phone": "+436643555240",
            "name": "Mojghan Friseursalon",
            "operator": "Bariki Mojghan",
            "shop": "hairdresser"
          },
          "geometry": {
            "type": "Point",
            "coordinates": [
              14.3401137,
              47.665066
            ]
          }
        },
        {
          "type": "Feature",
          "properties": {
            "id": "3544052819",
            "osm_type": "node",
            "lat": 47.5790516,
            "lon": 14.4600307,
            "addr:city": "Admont",
            "addr:country": "AT",
            "addr:housenumber": "16",
            "addr:postcode": "8911",
            "addr:street": "Hauptstraße",
            "contact:phone": "+43 3613 261 00",
            "contact:website": "http://www.haarschmiede.at/",
            "level": "0",
            "name": "Haarschmiede",
            "opening_hours": "Tu-We 08:00-18:00; Th 09:00-20:00; Fr 08:00-18:00",
            "operator": "Diana Liedl",
            "room": "yes",
            "shop": "hairdresser",
            "source": "survey"
          },
          "geometry": {
            "type": "Point",
            "coordinates": [
              14.4600307,
              47.5790516
            ]
          }
        },
        {
          "type": "Feature",
          "properties": {
            "id": "4801359085",
            "osm_type": "node",
            "lat": 47.5829269,
            "lon": 14.4589643,
            "name": "com.hair",
            "shop": "hairdresser"
          },
          "geometry": {
            "type": "Point",
            "coordinates": [
              14.4589643,
              47.5829269
            ]
          }
        },
        {
          "type": "Feature",
          "properties": {
            "id": "11017797321",
            "osm_type": "node",
            "lat": 47.5771455,
            "lon": 14.4607003,
            "addr:city": "Admont",
            "addr:country": "AT",
            "addr:postcode": "8911",
            "contact:phone": "+43 3613 2329",
            "name": "Barbara Atzlinger",
            "shop": "hairdresser"
          },
          "geometry": {
            "type": "Point",
            "coordinates": [
              14.4607003,
              47.5771455
            ]
          }
        },
        {
          "type": "Feature",
          "properties": {
            "id": "11017797323",
            "osm_type": "node",
            "lat": 47.5802014,
            "lon": 14.4596009,
            "addr:city": "Admont",
            "addr:country": "AT",
            "addr:housenumber": "124",
            "addr:postcode": "8911",
            "addr:street": "Hauptstraße",
            "contact:phone": "+43 3613 2980",
            "name": "Maria Stauchner",
            "shop": "hairdresser"
          },
          "geometry": {
            "type": "Point",
            "coordinates": [
              14.4596009,
              47.5802014
            ]
          }
        },
        {
          "type": "Feature",
          "properties": {
            "id": "4680536674",
            "osm_type": "node",
            "lat": 47.4912263,
            "lon": 14.5504133,
            "addr:city": "Gaishorn am See",
            "addr:country": "AT",
            "addr:housenumber": "53",
            "addr:place": "Gaishorn am See",
            "addr:postcode": "8783",
            "at_bev:addr_date": "2019-10-01",
            "name": "Kamm-In",
            "operator": "Claudia Wechsler",
            "phone": "+43 3617 22 94",
            "shop": "hairdresser"
          },
          "geometry": {
            "type": "Point",
            "coordinates": [
              14.5504133,
              47.4912263
            ]
          }
        },
        {
          "type": "Feature",
          "properties": {
            "id": "4714928947",
            "osm_type": "node",
            "lat": 47.6645995,
            "lon": 14.9855589,
            "addr:housenumber": "4",
            "addr:postcode": "8924",
            "addr:street": "Wildalpen",
            "name": "Elfriede Sernetz",
            "phone": "+43 3636 70033",
            "shop": "hairdresser"
          },
          "geometry": {
            "type": "Point",
            "coordinates": [
              14.9855589,
              47.6645995
            ]
          }
        },
        {
          "type": "Feature",
          "properties": {
            "id": "6140024777",
            "osm_type": "node",
            "lat": 47.5485211,
            "lon": 14.8773435,
            "addr:city": "Eisenerz",
            "addr:country": "AT",
            "addr:housenumber": "32b",
            "addr:postcode": "8790",
            "addr:street": "Hieflauer Straße",
            "contact:phone": "+43 3848 4303",
            "name": "Friseur Bettina",
            "opening_hours": "Tu-Fr 08:00-16:00",
            "shop": "hairdresser"
          },
          "geometry": {
            "type": "Point",
            "coordinates": [
              14.8773435,
              47.5485211
            ]
          }
        },
        {
          "type": "Feature",
          "properties": {
            "id": "6140024778",
            "osm_type": "node",
            "lat": 47.546171,
            "lon": 14.881368,
            "addr:city": "Eisenerz",
            "addr:housenumber": "22a",
            "addr:postcode": "8790",
            "addr:street": "Hieflauer Straße",
            "contact:phone": "+43 3848 2395",
            "name": "Friseur Sylvia",
            "opening_hours": "Tu-Fr 08:00-18:00; Sa 08:00-12:00",
            "shop": "hairdresser"
          },
          "geometry": {
            "type": "Point",
            "coordinates": [
              14.881368,
              47.546171
            ]
          }
        },
        {
          "type": "Feature",
          "properties": {
            "id": "6329170996",
            "osm_type": "node",
            "lat": 47.4257693,
            "lon": 15.0093472,
            "addr:city": "Trofaiach",
            "addr:country": "AT",
            "addr:housenumber": "43",
            "addr:postcode": "8793",
            "addr:street": "Hauptstraße",
            "contact:phone": "+43 650 313 02 92",
            "name": "Frisur-Kosmetik-Susi",
            "shop": "hairdresser"
          },
          "geometry": {
            "type": "Point",
            "coordinates": [
              15.0093472,
              47.4257693
            ]
          }
        },
        {
          "type": "Feature",
          "properties": {
            "id": "6402959208",
            "osm_type": "node",
            "lat": 47.4134123,
            "lon": 15.0259371,
            "addr:city": "Trofaiach",
            "addr:country": "AT",
            "addr:housenumber": "5",
            "addr:postcode": "8793",
            "addr:street": "Laintalstraße",
            "contact:phone": "+43 3847 31302",
            "contact:website": "http://www.haarstudio-silke.at/",
            "name": "Haarstudio Silke",
            "shop": "hairdresser",
            "source": "survey, local knowledge"
          },
          "geometry": {
            "type": "Point",
            "coordinates": [
              15.0259371,
              47.4134123
            ]
          }
        },
        {
          "type": "Feature",
          "properties": {
            "id": "7729287479",
            "osm_type": "node",
            "lat": 47.3907905,
            "lon": 14.901921,
            "name": "Frisierstube Anni",
            "shop": "hairdresser"
          },
          "geometry": {
            "type": "Point",
            "coordinates": [
              14.901921,
              47.3907905
            ]
          }
        },
        {
          "type": "Feature",
          "properties": {
            "id": "7729307240",
            "osm_type": "node",
            "lat": 47.4266134,
            "lon": 14.7569174,
            "female:signed": "no",
            "male:signed": "no",
            "name": "Friseur Figaro",
            "shop": "hairdresser"
          },
          "geometry": {
            "type": "Point",
            "coordinates": [
              14.7569174,
              47.4266134
            ]
          }
        },
        {
          "type": "Feature",
          "properties": {
            "id": "9161165473",
            "osm_type": "node",
            "lat": 47.3762199,
            "lon": 14.966733,
            "addr:city": "Timmersdorf",
            "addr:country": "AT",
            "addr:housenumber": "31a",
            "addr:postcode": "8772",
            "addr:street": "Hauptstraße",
            "at_bev:addr_date": "2021-04-01",
            "name": "Schickhaaria",
            "shop": "hairdresser"
          },
          "geometry": {
            "type": "Point",
            "coordinates": [
              14.966733,
              47.3762199
            ]
          }
        },
        {
          "type": "Feature",
          "properties": {
            "id": "10148968821",
            "osm_type": "node",
            "lat": 47.606854,
            "lon": 14.7439721,
            "entrance": "yes",
            "name": "Styling Salon Claudia",
            "shop": "hairdresser"
          },
          "geometry": {
            "type": "Point",
            "coordinates": [
              14.7439721,
              47.606854
            ]
          }
        },
        {
          "type": "Feature",
          "properties": {
            "id": "845987179",
            "osm_type": "node",
            "lat": 47.3800927,
            "lon": 15.0953872,
            "addr:city": "Leoben",
            "addr:housenumber": "3",
            "addr:postcode": "8700",
            "addr:street": "Hauptplatz",
            "addr:suburb": "Leoben",
            "level": "1",
            "name": "Friseur Arno",
            "opening_hours": "Tu-Fr 09:00-18:00,Sa 08:00-13:00",
            "operator": "KommR Arno Maier",
            "phone": "+43 3842 44719",
            "shop": "hairdresser"
          },
          "geometry": {
            "type": "Point",
            "coordinates": [
              15.0953872,
              47.3800927
            ]
          }
        },
        {
          "type": "Feature",
          "properties": {
            "id": "851245093",
            "osm_type": "node",
            "lat": 47.3795077,
            "lon": 15.0948088,
            "shop": "hairdresser"
          },
          "geometry": {
            "type": "Point",
            "coordinates": [
              15.0948088,
              47.3795077
            ]
          }
        },
        {
          "type": "Feature",
          "properties": {
            "id": "1431776625",
            "osm_type": "node",
            "lat": 47.3811412,
            "lon": 15.0929734,
            "addr:city": "Leoben",
            "addr:country": "AT",
            "addr:housenumber": "2",
            "addr:postcode": "8700",
            "addr:street": "Peter Tunner-Straße",
            "addr:suburb": "Leoben",
            "level": "0",
            "name": "Hairgott",
            "opening_hours": "Tu-Fr 09:00-18:00; Sa 08:00-13:00",
            "phone": "+43384242203",
            "shop": "hairdresser",
            "source:addr": "survey",
            "website": "https://www.hairgott.co.at/"
          },
          "geometry": {
            "type": "Point",
            "coordinates": [
              15.0929734,
              47.3811412
            ]
          }
        },
        {
          "type": "Feature",
          "properties": {
            "id": "1559574605",
            "osm_type": "node",
            "lat": 47.3793647,
            "lon": 15.0944333,
            "addr:city": "Leoben",
            "addr:country": "AT",
            "addr:housenumber": "5",
            "addr:postcode": "8700",
            "addr:street": "Krottendorfergasse",
            "addr:suburb": "Leoben",
            "name": "Moss",
            "opening_hours": "Mo-Sa 09:00-19:00",
            "shop": "hairdresser",
            "source": "local knowledge"
          },
          "geometry": {
            "type": "Point",
            "coordinates": [
              15.0944333,
              47.3793647
            ]
          }
        },
        {
          "type": "Feature",
          "properties": {
            "id": "1565799379",
            "osm_type": "node",
            "lat": 47.3786422,
            "lon": 15.0885781,
            "addr:city": "Leoben",
            "addr:country": "AT",
            "addr:housenumber": "2",
            "addr:postcode": "8700",
            "addr:street": "Zeltenschlagstraße",
            "addr:suburb": "Waasen",
            "brand": "Klipp",
            "brand:wikidata": "Q1737304",
            "brand:wikipedia": "de:Klipp Frisör",
            "layer": "1",
            "level": "1",
            "name": "Klipp",
            "shop": "hairdresser",
            "source": "survey",
            "wheelchair": "yes"
          },
          "geometry": {
            "type": "Point",
            "coordinates": [
              15.0885781,
              47.3786422
            ]
          }
        },
        {
          "type": "Feature",
          "properties": {
            "id": "2080179057",
            "osm_type": "node",
            "lat": 47.5193855,
            "lon": 15.22203,
            "addr:housenumber": "36",
            "addr:postcode": "8621",
            "addr:street": "Thörl",
            "name": "Frisiersalon Ricky",
            "shop": "hairdresser"
          },
          "geometry": {
            "type": "Point",
            "coordinates": [
              15.22203,
              47.5193855
            ]
          }
        },
        {
          "type": "Feature",
          "properties": {
            "id": "2259018668",
            "osm_type": "node",
            "lat": 47.3792548,
            "lon": 15.0915245,
            "contact:phone": "+43 3842 28760",
            "name": "Pumuckl",
            "shop": "hairdresser",
            "source": "survey"
          },
          "geometry": {
            "type": "Point",
            "coordinates": [
              15.0915245,
              47.3792548
            ]
          }
        },
        {
          "type": "Feature",
          "properties": {
            "id": "4119554452",
            "osm_type": "node",
            "lat": 47.3796808,
            "lon": 15.0938013,
            "addr:city": "Leoben",
            "addr:country": "AT",
            "addr:housenumber": "4",
            "addr:postcode": "8700",
            "addr:street": "Straußgasse",
            "addr:suburb": "Leoben",
            "name": "Hair Skull by Hill",
            "shop": "hairdresser",
            "source": "survey"
          },
          "geometry": {
            "type": "Point",
            "coordinates": [
              15.0938013,
              47.3796808
            ]
          }
        },
        {
          "type": "Feature",
          "properties": {
            "id": "4314995677",
            "osm_type": "node",
            "lat": 47.3841831,
            "lon": 15.0932349,
            "name": "Intercoiffeur Mayer",
            "shop": "hairdresser"
          },
          "geometry": {
            "type": "Point",
            "coordinates": [
              15.0932349,
              47.3841831
            ]
          }
        },
        {
          "type": "Feature",
          "properties": {
            "id": "4314995678",
            "osm_type": "node",
            "lat": 47.3840324,
            "lon": 15.0925063,
            "addr:city": "Leoben",
            "addr:country": "AT",
            "addr:housenumber": "8",
            "addr:postcode": "8700",
            "addr:street": "Kaiserfeldgasse",
            "addr:suburb": "Leoben",
            "name": "Salon Ka-Ma",
            "shop": "hairdresser",
            "source": "survey"
          },
          "geometry": {
            "type": "Point",
            "coordinates": [
              15.0925063,
              47.3840324
            ]
          }
        },
        {
          "type": "Feature",
          "properties": {
            "id": "4678201579",
            "osm_type": "node",
            "lat": 47.3818598,
            "lon": 15.0935218,
            "addr:city": "Leoben",
            "addr:country": "AT",
            "addr:housenumber": "1",
            "addr:postcode": "8700",
            "addr:street": "Franz Josef-Straße",
            "addr:suburb": "Leoben",
            "name": "Cityfriseur Elke",
            "opening_hours": "Tu-Fr 08:00-14:00; Sa 08:00-12:00",
            "operator": "Elke Präsent",
            "phone": "+43384242303",
            "shop": "hairdresser"
          },
          "geometry": {
            "type": "Point",
            "coordinates": [
              15.0935218,
              47.3818598
            ]
          }
        },
        {
          "type": "Feature",
          "properties": {
            "id": "4695242589",
            "osm_type": "node",
            "lat": 47.3805361,
            "lon": 15.0932832,
            "addr:city": "Leoben",
            "addr:country": "AT",
            "addr:housenumber": "16",
            "addr:postcode": "8700",
            "addr:street": "Straußgasse",
            "addr:suburb": "Leoben",
            "at_bev:addr_date": "2016-10-02",
            "level": "0",
            "name": "City Friseur",
            "opening_hours": "Mo-Sa 9:00-19:00",
            "phone": "+43 664 5480204",
            "shop": "hairdresser",
            "wheelchair": "no"
          },
          "geometry": {
            "type": "Point",
            "coordinates": [
              15.0932832,
              47.3805361
            ]
          }
        },
        {
          "type": "Feature",
          "properties": {
            "id": "4865722395",
            "osm_type": "node",
            "lat": 47.3825184,
            "lon": 15.0955746,
            "brand": "Klipp",
            "brand:wikidata": "Q1737304",
            "brand:wikipedia": "de:Klipp Frisör",
            "name": "Klipp",
            "opening_hours": "Mo-Fr 08:30-19:00, Sa 08:30-18:00",
            "operator": "Klipp",
            "phone": "+43724265755",
            "shop": "hairdresser"
          },
          "geometry": {
            "type": "Point",
            "coordinates": [
              15.0955746,
              47.3825184
            ]
          }
        },
        {
          "type": "Feature",
          "properties": {
            "id": "5155288516",
            "osm_type": "node",
            "lat": 47.3746694,
            "lon": 15.0826641,
            "addr:city": "Leoben",
            "addr:country": "AT",
            "addr:housenumber": "30",
            "addr:postcode": "8700",
            "addr:street": "Kerpelystraße",
            "at_bev:addr_date": "2017-04-07",
            "name": "Haar- und Schönheitsmanufaktur",
            "opening_hours": "Tu-Fr 09:00-16:00",
            "operator": "Claudia Majer-Kajbic",
            "phone": "+43 676 7312935",
            "shop": "hairdresser"
          },
          "geometry": {
            "type": "Point",
            "coordinates": [
              15.0826641,
              47.3746694
            ]
          }
        },
        {
          "type": "Feature",
          "properties": {
            "id": "5426919293",
            "osm_type": "node",
            "lat": 47.3814844,
            "lon": 15.0931434,
            "level": "0",
            "name": "Haarstudio Heidi",
            "opening_hours": "Tu-Fr 09:00-15:00",
            "shop": "hairdresser"
          },
          "geometry": {
            "type": "Point",
            "coordinates": [
              15.0931434,
              47.3814844
            ]
          }
        },
        {
          "type": "Feature",
          "properties": {
            "id": "5976641929",
            "osm_type": "node",
            "lat": 47.3785684,
            "lon": 15.0915067,
            "addr:city": "Leoben",
            "addr:country": "AT",
            "addr:housenumber": "12",
            "addr:postcode": "8700",
            "addr:street": "Waasenstraße",
            "addr:suburb": "Waasen",
            "name": "Waasen Friseur",
            "opening_hours": "Mo-Sa 09:00-19:00",
            "phone": "+43 664 2182279",
            "shop": "hairdresser"
          },
          "geometry": {
            "type": "Point",
            "coordinates": [
              15.0915067,
              47.3785684
            ]
          }
        }
      ],
      "children": []
    }
  ]
}