{
  "bbox": {
    "south": 46.372652,
    "west": 11.438358999999998,
    "north": 47.033758500000005,
    "east": 13.345766
  },
  "poiCount": 120,
  "leafCount": 0,
  "averagePosition": [
    12.08322105583333,
    46.68634474
  ],
  "data": [],
  "children": [
    {
      "bbox": {
        "south": 46.372652,
        "west": 11.438358999999998,
        "north": 46.70320525,
        "east": 12.392062499999998
      },
      "poiCount": 34,
      "leafCount": 34,
      "averagePosition": [
        11.702388761764706,
        46.533089823529416
      ],
      "data": [
        {
          "type": "Feature",
          "properties": {
            "id": "2584261609",
            "osm_type": "node",
            "lat": 46.4842223,
            "lon": 11.4566743,
            "name": "Salon Jolanda",
            "shop": "hairdresser"
          },
          "geometry": {
            "type": "Point",
            "coordinates": [
              11.4566743,
              46.4842223
            ]
          }
        },
        {
          "type": "Feature",
          "properties": {
            "id": "7192608085",
            "osm_type": "node",
            "lat": 46.5381029,
            "lon": 11.4590982,
            "addr:housenumber": "63d",
            "addr:street": "Peter-Mayr-Straße - Via Peter Mayr",
            "name:de": "Salon Maria",
            "shop": "hairdresser",
            "website": "https://m.facebook.com/derMariaViglmitTeam/"
          },
          "geometry": {
            "type": "Point",
            "coordinates": [
              11.4590982,
              46.5381029
            ]
          }
        },
        {
          "type": "Feature",
          "properties": {
            "id": "7738043541",
            "osm_type": "node",
            "lat": 46.5185545,
            "lon": 11.5038248,
            "name": "Salon Erika",
            "opening_hours": "Su,Mo off; Tu 08:00-12:00,15:00-19:00; We 14:00-21:00; Th 09:00-17:00; Fr 08:00-12:00,15:00-19:00; Sa 08:00-17:00",
            "phone": "+39 0471 706446",
            "shop": "hairdresser",
            "website": "http://salonerika.biz/"
          },
          "geometry": {
            "type": "Point",
            "coordinates": [
              11.5038248,
              46.5185545
            ]
          }
        },
        {
          "type": "Feature",
          "properties": {
            "id": "866739444",
            "osm_type": "node",
            "lat": 46.3956103,
            "lon": 11.6666482,
            "addr:city": "Soraga - Sorèga",
            "addr:housenumber": "4",
            "addr:postcode": "38030",
            "addr:street": "Piaz de Festil",
            "name": "Salone Roberto",
            "phone": "+39 0462 768444",
            "shop": "hairdresser"
          },
          "geometry": {
            "type": "Point",
            "coordinates": [
              11.6666482,
              46.3956103
            ]
          }
        },
        {
          "type": "Feature",
          "properties": {
            "id": "946528472",
            "osm_type": "node",
            "lat": 46.429992,
            "lon": 11.6917829,
            "addr:city": "Pozza di Fassa",
            "addr:country": "IT",
            "addr:housenumber": "73",
            "addr:postcode": "38036",
            "addr:street": "Strada de Meida",
            "name": "Salone Moda Capelli",
            "shop": "hairdresser"
          },
          "geometry": {
            "type": "Point",
            "coordinates": [
              11.6917829,
              46.429992
            ]
          }
        },
        {
          "type": "Feature",
          "properties": {
            "id": "946581604",
            "osm_type": "node",
            "lat": 46.4285487,
            "lon": 11.6857657,
            "addr:city": "Pozza di Fassa",
            "addr:country": "IT",
            "addr:housenumber": "13",
            "addr:postcode": "38036",
            "addr:street": "Strada de Majonade",
            "name": "Salone NewLook",
            "shop": "hairdresser"
          },
          "geometry": {
            "type": "Point",
            "coordinates": [
              11.6857657,
              46.4285487
            ]
          }
        },
        {
          "type": "Feature",
          "properties": {
            "id": "1230818472",
            "osm_type": "node",
            "lat": 46.4308077,
            "lon": 11.6928733,
            "addr:city": "Pozza di Fassa",
            "addr:country": "IT",
            "addr:housenumber": "19",
            "addr:postcode": "38036",
            "addr:street": "Strada Don Lodovico Gross",
            "name": "Salone Iva",
            "opening_hours": "Tu-Sa 09:00-12:00,14:00-19:00",
            "shop": "hairdresser"
          },
          "geometry": {
            "type": "Point",
            "coordinates": [
              11.6928733,
              46.4308077
            ]
          }
        },
        {
          "type": "Feature",
          "properties": {
            "id": "2401265793",
            "osm_type": "node",
            "lat": 46.6311089,
            "lon": 11.539215,
            "name": "Salon Ida",
            "shop": "hairdresser"
          },
          "geometry": {
            "type": "Point",
            "coordinates": [
              11.539215,
              46.6311089
            ]
          }
        },
        {
          "type": "Feature",
          "properties": {
            "id": "2483532026",
            "osm_type": "node",
            "lat": 46.6416886,
            "lon": 11.6811514,
            "leisure": "tanning_salon",
            "name": "Salon Top Hair Paula",
            "operator": "Pernthaler Paula",
            "payment:credit_cards": "yes",
            "payment:debit_cards": "yes",
            "phone": "+39 0472 840535",
            "shop": "hairdresser"
          },
          "geometry": {
            "type": "Point",
            "coordinates": [
              11.6811514,
              46.6416886
            ]
          }
        },
        {
          "type": "Feature",
          "properties": {
            "id": "2755710342",
            "osm_type": "node",
            "lat": 46.6393353,
            "lon": 11.5645012,
            "addr:city": "Klausen - Chiusa",
            "addr:city:de": "Klausen",
            "addr:city:it": "Chiusa",
            "addr:housenumber": "3",
            "addr:postcode": "39043",
            "addr:street": "Am Roßmarkt - Via alla Fiera Cavalli",
            "addr:street:de": "Am Roßmarkt",
            "addr:street:it": "Via alla Fiera Cavalli",
            "email": "info@hair-lounge.it",
            "name": "Hair Lounge",
            "opening_hours": "Tu,We 12:00-20:30; Th-Sa 08:00-16:30",
            "phone": "+39 0472 836234",
            "shop": "hairdresser",
            "website": "http://www.hair-lounge.it",
            "wheelchair": "yes"
          },
          "geometry": {
            "type": "Point",
            "coordinates": [
              11.5645012,
              46.6393353
            ]
          }
        },
        {
          "type": "Feature",
          "properties": {
            "id": "2756047660",
            "osm_type": "node",
            "lat": 46.5740418,
            "lon": 11.6729534,
            "addr:city": "Urtijëi - St.Ulrich - Ortisei",
            "addr:city:de": "St.Ulrich",
            "addr:city:it": "Ortisei",
            "addr:city:lld": "Urtijëi",
            "addr:housenumber": "39",
            "addr:postcode": "39046",
            "addr:street": "Streda Rezia",
            "addr:street:de": "Rezia-Straße",
            "addr:street:it": "Via Rezia",
            "addr:street:lld": "Streda Rezia",
            "email": "monikalardschneider@yahoo.it",
            "name": "Salon Milly",
            "phone": "+39 0471 786434",
            "shop": "hairdresser",
            "website": "https://www.valgardena.it/en/addresses/detail/base/poi/ortisei-val-gardena/salon-milly/5B58AE0BE6884A3D8362B2195913870C/"
          },
          "geometry": {
            "type": "Point",
            "coordinates": [
              11.6729534,
              46.5740418
            ]
          }
        },
        {
          "type": "Feature",
          "properties": {
            "id": "2756051508",
            "osm_type": "node",
            "lat": 46.5756915,
            "lon": 11.6687198,
            "addr:city": "Urtijëi - St.Ulrich - Ortisei",
            "addr:city:de": "St.Ulrich",
            "addr:city:it": "Ortisei",
            "addr:city:lld": "Urtijëi",
            "addr:housenumber": "8d",
            "addr:postcode": "39046",
            "addr:street": "Streda Stazione",
            "addr:street:de": "Bahnhofstraße",
            "addr:street:it": "Via Stazione",
            "addr:street:lld": "Streda Stazione",
            "name": "Rosy",
            "shop": "hairdresser"
          },
          "geometry": {
            "type": "Point",
            "coordinates": [
              11.6687198,
              46.5756915
            ]
          }
        },
        {
          "type": "Feature",
          "properties": {
            "id": "3376376938",
            "osm_type": "node",
            "lat": 46.6407497,
            "lon": 11.6879048,
            "name": "Salone Herlinde",
            "operator": "Steiner Herlinde",
            "phone": "+39 0472 840006",
            "shop": "hairdresser"
          },
          "geometry": {
            "type": "Point",
            "coordinates": [
              11.6879048,
              46.6407497
            ]
          }
        },
        {
          "type": "Feature",
          "properties": {
            "id": "3785911943",
            "osm_type": "node",
            "lat": 46.3766878,
            "lon": 11.6586441,
            "addr:city": "Moena",
            "addr:country": "IT",
            "addr:housenumber": "2",
            "addr:postcode": "38035",
            "addr:street": "Strada del Marchiò",
            "name": "New Look",
            "shop": "hairdresser"
          },
          "geometry": {
            "type": "Point",
            "coordinates": [
              11.6586441,
              46.3766878
            ]
          }
        },
        {
          "type": "Feature",
          "properties": {
            "id": "3978306606",
            "osm_type": "node",
            "lat": 46.4296299,
            "lon": 11.5392864,
            "name": "Salon Nove",
            "shop": "hairdresser"
          },
          "geometry": {
            "type": "Point",
            "coordinates": [
              11.5392864,
              46.4296299
            ]
          }
        },
        {
          "type": "Feature",
          "properties": {
            "id": "4318546089",
            "osm_type": "node",
            "lat": 46.654861,
            "lon": 11.5723819,
            "name": "Salon Creativ",
            "shop": "hairdresser"
          },
          "geometry": {
            "type": "Point",
            "coordinates": [
              11.5723819,
              46.654861
            ]
          }
        },
        {
          "type": "Feature",
          "properties": {
            "id": "5802080256",
            "osm_type": "node",
            "lat": 46.5459676,
            "lon": 11.5605909,
            "addr:city": "Seis am Schlern - Siusi allo Sciliar",
            "addr:housenumber": "2f",
            "addr:postcode": "39040",
            "addr:street": "Postgasse - Vicolo della Posta",
            "name": "Salon Lena",
            "opening_hours": "Tu-Sa 08:00-12:00, Tu-Th 10:00-20:00, Fr,Sa 14:30-19:00",
            "payment:credit_cards": "yes",
            "payment:debit_cards": "yes",
            "phone": "+393514619299",
            "shop": "hairdresser",
            "wheelchair": "yes"
          },
          "geometry": {
            "type": "Point",
            "coordinates": [
              11.5605909,
              46.5459676
            ]
          }
        },
        {
          "type": "Feature",
          "properties": {
            "id": "5802096754",
            "osm_type": "node",
            "lat": 46.5445968,
            "lon": 11.5612097,
            "name": "Salon Nadia",
            "shop": "hairdresser",
            "wheelchair": "yes"
          },
          "geometry": {
            "type": "Point",
            "coordinates": [
              11.5612097,
              46.5445968
            ]
          }
        },
        {
          "type": "Feature",
          "properties": {
            "id": "5923862113",
            "osm_type": "node",
            "lat": 46.55471,
            "lon": 11.7610052,
            "name": "Coiffeur Mattiuz",
            "shop": "hairdresser"
          },
          "geometry": {
            "type": "Point",
            "coordinates": [
              11.7610052,
              46.55471
            ]
          }
        },
        {
          "type": "Feature",
          "properties": {
            "id": "5998741090",
            "osm_type": "node",
            "lat": 46.6584681,
            "lon": 11.5750944,
            "name": "Salon Hair",
            "shop": "hairdresser"
          },
          "geometry": {
            "type": "Point",
            "coordinates": [
              11.5750944,
              46.6584681
            ]
          }
        },
        {
          "type": "Feature",
          "properties": {
            "id": "6240119202",
            "osm_type": "node",
            "lat": 46.4197265,
            "lon": 11.6713807,
            "addr:housenumber": "19",
            "addr:street": "Strada Rezia",
            "contact:phone": "+39 366 934 5563",
            "contact:website": "https://www.facebook.com/Un-Diavolo-x-Capello-1492983144357590/",
            "name": "Un Diavolo x Capello",
            "payment:cash": "yes",
            "payment:credit_cards": "yes",
            "shop": "hairdresser"
          },
          "geometry": {
            "type": "Point",
            "coordinates": [
              11.6713807,
              46.4197265
            ]
          }
        },
        {
          "type": "Feature",
          "properties": {
            "id": "6721071890",
            "osm_type": "node",
            "lat": 46.4295491,
            "lon": 11.5428209,
            "addr:city": "Welschnofen - Nova Levante",
            "addr:housenumber": "23",
            "addr:postcode": "39056",
            "addr:street": "Karerseestraße - Strada Carezza",
            "female": "yes",
            "name": "Salone Claudia",
            "shop": "hairdresser"
          },
          "geometry": {
            "type": "Point",
            "coordinates": [
              11.5428209,
              46.4295491
            ]
          }
        },
        {
          "type": "Feature",
          "properties": {
            "id": "8018668235",
            "osm_type": "node",
            "lat": 46.6408963,
            "lon": 11.6842771,
            "name": "Salon Julia",
            "opening_hours": "Tu,Th 13:00-20:00; We,Fr 08:00-12:00,14:00-19:00; Sa 07:30-13:30; PH off",
            "payment:credit_cards": "yes",
            "payment:debit_cards": "yes",
            "shop": "hairdresser"
          },
          "geometry": {
            "type": "Point",
            "coordinates": [
              11.6842771,
              46.6408963
            ]
          }
        },
        {
          "type": "Feature",
          "properties": {
            "id": "8824127477",
            "osm_type": "node",
            "lat": 46.699808,
            "lon": 11.6360034,
            "addr:city": "Brixen - Bressanone",
            "addr:housenumber": "4",
            "addr:postcode": "39042",
            "addr:street": "Satzlstraße",
            "name": "Brandnamic Styling Nook",
            "opening_hours": "Mo-Fr 09:00-17:00",
            "operator": "Brandnamic",
            "payment:cash": "yes",
            "payment:credit_cards": "yes",
            "payment:debit_cards": "yes",
            "phone": "+39 0472 678000",
            "shop": "hairdresser",
            "toilets:wheelchair": "yes",
            "website": "https://www.brandnamic.com/",
            "wheelchair": "yes"
          },
          "geometry": {
            "type": "Point",
            "coordinates": [
              11.6360034,
              46.699808
            ]
          }
        },
        {
          "type": "Feature",
          "properties": {
            "id": "9139947157",
            "osm_type": "node",
            "lat": 46.4772652,
            "lon": 11.7409842,
            "level": "1",
            "name": "arteregalo",
            "shop": "hairdresser"
          },
          "geometry": {
            "type": "Point",
            "coordinates": [
              11.7409842,
              46.4772652
            ]
          }
        },
        {
          "type": "Feature",
          "properties": {
            "id": "10106653891",
            "osm_type": "node",
            "lat": 46.5676639,
            "lon": 11.5595726,
            "male": "yes",
            "name": "Salon Wendt",
            "shop": "hairdresser",
            "wheelchair": "yes"
          },
          "geometry": {
            "type": "Point",
            "coordinates": [
              11.5595726,
              46.5676639
            ]
          }
        },
        {
          "type": "Feature",
          "properties": {
            "id": "10106665501",
            "osm_type": "node",
            "lat": 46.5663558,
            "lon": 11.559537,
            "shop": "hairdresser"
          },
          "geometry": {
            "type": "Point",
            "coordinates": [
              11.559537,
              46.5663558
            ]
          }
        },
        {
          "type": "Feature",
          "properties": {
            "id": "11163010808",
            "osm_type": "node",
            "lat": 46.4408998,
            "lon": 11.6934329,
            "indoor": "yes",
            "name": "Fascino Coiffeur",
            "shop": "hairdresser",
            "unisex": "yes"
          },
          "geometry": {
            "type": "Point",
            "coordinates": [
              11.6934329,
              46.4408998
            ]
          }
        },
        {
          "type": "Feature",
          "properties": {
            "id": "11428741588",
            "osm_type": "node",
            "lat": 46.5717648,
            "lon": 11.6770044,
            "shop": "hairdresser"
          },
          "geometry": {
            "type": "Point",
            "coordinates": [
              11.6770044,
              46.5717648
            ]
          }
        },
        {
          "type": "Feature",
          "properties": {
            "id": "11998338006",
            "osm_type": "node",
            "lat": 46.5554437,
            "lon": 11.7552869,
            "name": "Cristin",
            "shop": "hairdresser"
          },
          "geometry": {
            "type": "Point",
            "coordinates": [
              11.7552869,
              46.5554437
            ]
          }
        },
        {
          "type": "Feature",
          "properties": {
            "id": "2411381988",
            "osm_type": "node",
            "lat": 46.4463527,
            "lon": 12.3867537,
            "name": "Roberto & Rolando parrucchieri uomo",
            "phone": "+39 0435 31007",
            "shop": "hairdresser"
          },
          "geometry": {
            "type": "Point",
            "coordinates": [
              12.3867537,
              46.4463527
            ]
          }
        },
        {
          "type": "Feature",
          "properties": {
            "id": "3991018529",
            "osm_type": "node",
            "lat": 46.4643523,
            "lon": 12.2039856,
            "name": "Orietta De Villa",
            "shop": "hairdresser"
          },
          "geometry": {
            "type": "Point",
            "coordinates": [
              12.2039856,
              46.4643523
            ]
          }
        },
        {
          "type": "Feature",
          "properties": {
            "id": "6138139515",
            "osm_type": "node",
            "lat": 46.6874612,
            "lon": 12.366489,
            "addr:city": "Moos - Moso",
            "addr:housenumber": "13/1",
            "addr:postcode": "39030",
            "addr:street": "Fischleintalstraße - Via Val Fiscalina",
            "name": "Vilgratter",
            "opening_hours": "Su-Mo 09:00-18:00; Tu off",
            "operator": "Heinz Vilgratter",
            "payment:cash": "yes",
            "payment:mastercard": "yes",
            "payment:visa": "yes",
            "shop": "hairdresser"
          },
          "geometry": {
            "type": "Point",
            "coordinates": [
              12.366489,
              46.6874612
            ]
          }
        },
        {
          "type": "Feature",
          "properties": {
            "id": "7986026801",
            "osm_type": "node",
            "lat": 46.4641393,
            "lon": 12.2043639,
            "addr:city": "San Vito di Cadore",
            "addr:housenumber": "46",
            "addr:postcode": "32046",
            "addr:street": "Via Nazionale",
            "name": "Francesco Di Caro",
            "shop": "hairdresser"
          },
          "geometry": {
            "type": "Point",
            "coordinates": [
              12.2043639,
              46.4641393
            ]
          }
        }
      ],
      "children": []
    },
    {
      "bbox": {
        "south": 46.372652,
        "west": 12.392062499999998,
        "north": 46.70320525,
        "east": 13.345766
      },
      "poiCount": 18,
      "leafCount": 18,
      "averagePosition": [
        12.714521249999999,
        46.568896249999995
      ],
      "data": [
        {
          "type": "Feature",
          "properties": {
            "id": "2389603927",
            "osm_type": "node",
            "lat": 46.6032122,
            "lon": 12.4804111,
            "shop": "hairdresser"
          },
          "geometry": {
            "type": "Point",
            "coordinates": [
              12.4804111,
              46.6032122
            ]
          }
        },
        {
          "type": "Feature",
          "properties": {
            "id": "2389772989",
            "osm_type": "node",
            "lat": 46.5986068,
            "lon": 12.4914845,
            "opening_hours": "Mo-Sa 08:30-12:00,13:30-19:00;PH off",
            "shop": "hairdresser"
          },
          "geometry": {
            "type": "Point",
            "coordinates": [
              12.4914845,
              46.5986068
            ]
          }
        },
        {
          "type": "Feature",
          "properties": {
            "id": "2931104319",
            "osm_type": "node",
            "lat": 46.5890618,
            "lon": 12.5147234,
            "addr:city": "Candide",
            "addr:housenumber": "90",
            "addr:postcode": "32040",
            "addr:street": "Via 6 Novembre",
            "name": "Parruchiere Meri & Katia",
            "shop": "hairdresser"
          },
          "geometry": {
            "type": "Point",
            "coordinates": [
              12.5147234,
              46.5890618
            ]
          }
        },
        {
          "type": "Feature",
          "properties": {
            "id": "4793158031",
            "osm_type": "node",
            "lat": 46.4843922,
            "lon": 12.4441066,
            "male": "yes",
            "shop": "hairdresser"
          },
          "geometry": {
            "type": "Point",
            "coordinates": [
              12.4441066,
              46.4843922
            ]
          }
        },
        {
          "type": "Feature",
          "properties": {
            "id": "4793158034",
            "osm_type": "node",
            "lat": 46.4845262,
            "lon": 12.4427449,
            "addr:street": "Via Roma",
            "female": "yes",
            "male": "yes",
            "name": "Seve & Domi",
            "shop": "hairdresser"
          },
          "geometry": {
            "type": "Point",
            "coordinates": [
              12.4427449,
              46.4845262
            ]
          }
        },
        {
          "type": "Feature",
          "properties": {
            "id": "6150075040",
            "osm_type": "node",
            "lat": 46.5522184,
            "lon": 12.4393914,
            "name": "Nuova Gestione",
            "phone": "+39 3487658684",
            "shop": "hairdresser"
          },
          "geometry": {
            "type": "Point",
            "coordinates": [
              12.4393914,
              46.5522184
            ]
          }
        },
        {
          "type": "Feature",
          "properties": {
            "id": "9425921684",
            "osm_type": "node",
            "lat": 46.5888815,
            "lon": 12.5162508,
            "name": "Di Moda",
            "opening_hours": "Mo-Tu,Th-Sa 08:30-12:00,13:30-18:00; PH off",
            "phone": "+39 043568991",
            "shop": "hairdresser",
            "unisex": "yes"
          },
          "geometry": {
            "type": "Point",
            "coordinates": [
              12.5162508,
              46.5888815
            ]
          }
        },
        {
          "type": "Feature",
          "properties": {
            "id": "2853608292",
            "osm_type": "node",
            "lat": 46.4825242,
            "lon": 12.8654293,
            "name": "Il Barbe",
            "shop": "hairdresser"
          },
          "geometry": {
            "type": "Point",
            "coordinates": [
              12.8654293,
              46.4825242
            ]
          }
        },
        {
          "type": "Feature",
          "properties": {
            "id": "5073099119",
            "osm_type": "node",
            "lat": 46.5657766,
            "lon": 12.6856859,
            "name": "Ricci e Capricci",
            "shop": "hairdresser"
          },
          "geometry": {
            "type": "Point",
            "coordinates": [
              12.6856859,
              46.5657766
            ]
          }
        },
        {
          "type": "Feature",
          "properties": {
            "id": "5086470211",
            "osm_type": "node",
            "lat": 46.5671074,
            "lon": 12.6934077,
            "shop": "hairdresser"
          },
          "geometry": {
            "type": "Point",
            "coordinates": [
              12.6934077,
              46.5671074
            ]
          }
        },
        {
          "type": "Feature",
          "properties": {
            "id": "7175479834",
            "osm_type": "node",
            "lat": 46.5722883,
            "lon": 12.5464136,
            "shop": "hairdresser"
          },
          "geometry": {
            "type": "Point",
            "coordinates": [
              12.5464136,
              46.5722883
            ]
          }
        },
        {
          "type": "Feature",
          "properties": {
            "id": "9050035420",
            "osm_type": "node",
            "lat": 46.4245217,
            "lon": 12.5785973,
            "shop": "hairdresser"
          },
          "geometry": {
            "type": "Point",
            "coordinates": [
              12.5785973,
              46.4245217
            ]
          }
        },
        {
          "type": "Feature",
          "properties": {
            "id": "9543882668",
            "osm_type": "node",
            "lat": 46.5807271,
            "lon": 12.5742213,
            "name": "Per Te, Parrucchiera da Rina",
            "shop": "hairdresser"
          },
          "geometry": {
            "type": "Point",
            "coordinates": [
              12.5742213,
              46.5807271
            ]
          }
        },
        {
          "type": "Feature",
          "properties": {
            "id": "12636337754",
            "osm_type": "node",
            "lat": 46.6758409,
            "lon": 13.0032192,
            "shop": "hairdresser"
          },
          "geometry": {
            "type": "Point",
            "coordinates": [
              13.0032192,
              46.6758409
            ]
          }
        },
        {
          "type": "Feature",
          "properties": {
            "id": "12636337758",
            "osm_type": "node",
            "lat": 46.6777856,
            "lon": 13.0040425,
            "shop": "hairdresser"
          },
          "geometry": {
            "type": "Point",
            "coordinates": [
              13.0040425,
              46.6777856
            ]
          }
        },
        {
          "type": "Feature",
          "properties": {
            "id": "12636337789",
            "osm_type": "node",
            "lat": 46.671899,
            "lon": 12.9951149,
            "female": "yes",
            "male": "yes",
            "shop": "hairdresser"
          },
          "geometry": {
            "type": "Point",
            "coordinates": [
              12.9951149,
              46.671899
            ]
          }
        },
        {
          "type": "Feature",
          "properties": {
            "id": "4649998648",
            "osm_type": "node",
            "lat": 46.6148049,
            "lon": 13.2809999,
            "name": "Frisör Enzi",
            "shop": "hairdresser"
          },
          "geometry": {
            "type": "Point",
            "coordinates": [
              13.2809999,
              46.6148049
            ]
          }
        },
        {
          "type": "Feature",
          "properties": {
            "id": "12747415885",
            "osm_type": "node",
            "lat": 46.5059577,
            "lon": 13.3051382,
            "shop": "hairdresser"
          },
          "geometry": {
            "type": "Point",
            "coordinates": [
              13.3051382,
              46.5059577
            ]
          }
        }
      ],
      "children": []
    },
    {
      "bbox": {
        "south": 46.70320525,
        "west": 11.438358999999998,
        "north": 47.033758500000005,
        "east": 12.392062499999998
      },
      "poiCount": 48,
      "leafCount": 48,
      "averagePosition": [
        11.83470754375,
        46.7885953125
      ],
      "data": [
        {
          "type": "Feature",
          "properties": {
            "id": "1992396055",
            "osm_type": "node",
            "lat": 46.9383246,
            "lon": 11.4449709,
            "name": "Salon New Hair Daniel Sparber",
            "shop": "hairdresser"
          },
          "geometry": {
            "type": "Point",
            "coordinates": [
              11.4449709,
              46.9383246
            ]
          }
        },
        {
          "type": "Feature",
          "properties": {
            "id": "1824065631",
            "osm_type": "node",
            "lat": 46.9001856,
            "lon": 11.9410679,
            "shop": "hairdresser"
          },
          "geometry": {
            "type": "Point",
            "coordinates": [
              11.9410679,
              46.9001856
            ]
          }
        },
        {
          "type": "Feature",
          "properties": {
            "id": "2417827456",
            "osm_type": "node",
            "lat": 46.920155,
            "lon": 11.9543669,
            "name": "Terreno Friseur Franz",
            "shop": "hairdresser"
          },
          "geometry": {
            "type": "Point",
            "coordinates": [
              11.9543669,
              46.920155
            ]
          }
        },
        {
          "type": "Feature",
          "properties": {
            "id": "2417827457",
            "osm_type": "node",
            "lat": 46.9190641,
            "lon": 11.9515944,
            "name": "Salonina Haarstube",
            "opening_hours": "\"Termin nach Vereinbarung +39 349 065 0879\"",
            "shop": "hairdresser"
          },
          "geometry": {
            "type": "Point",
            "coordinates": [
              11.9515944,
              46.9190641
            ]
          }
        },
        {
          "type": "Feature",
          "properties": {
            "id": "4408248921",
            "osm_type": "node",
            "lat": 46.918474,
            "lon": 11.954817,
            "name": "Kaleidoskop",
            "shop": "hairdresser"
          },
          "geometry": {
            "type": "Point",
            "coordinates": [
              11.954817,
              46.918474
            ]
          }
        },
        {
          "type": "Feature",
          "properties": {
            "id": "4816273641",
            "osm_type": "node",
            "lat": 46.98031,
            "lon": 11.9417325,
            "addr:city": "Ahrntal - Valle Aurina",
            "addr:housenumber": "42",
            "addr:postcode": "39030",
            "addr:street": "Im Dorf",
            "name": "Salon Andrea",
            "shop": "hairdresser"
          },
          "geometry": {
            "type": "Point",
            "coordinates": [
              11.9417325,
              46.98031
            ]
          }
        },
        {
          "type": "Feature",
          "properties": {
            "id": "5811645143",
            "osm_type": "node",
            "lat": 46.9515028,
            "lon": 11.9206813,
            "contact:phone": "+39 339 2972079",
            "name": "Salon Marlen",
            "name:de": "Salon Marlen",
            "opening_hours": "Th,Fr 8:00-12:00, 14:00-18:00; Sa 8:00-15:00, Mo,Tu,We,Su,PH off",
            "shop": "hairdresser"
          },
          "geometry": {
            "type": "Point",
            "coordinates": [
              11.9206813,
              46.9515028
            ]
          }
        },
        {
          "type": "Feature",
          "properties": {
            "id": "5812372559",
            "osm_type": "node",
            "lat": 46.9498067,
            "lon": 11.9217686,
            "contact:email": "info@ahrntal.it",
            "contact:facebook": "https://www.facebook.com/friseurdax/",
            "contact:phone": "+39 0474 671140",
            "male": "yes",
            "name": "Dax",
            "name:de": "Dax",
            "opening_hours": "Mo-Sa 8:30-12:00, 14:00-18:30; Su,PH off",
            "shop": "hairdresser",
            "wheelchair": "yes"
          },
          "geometry": {
            "type": "Point",
            "coordinates": [
              11.9217686,
              46.9498067
            ]
          }
        },
        {
          "type": "Feature",
          "properties": {
            "id": "5814859021",
            "osm_type": "node",
            "lat": 46.9638993,
            "lon": 11.9226782,
            "addr:city": "Ahrntal - Valle Aurina",
            "addr:city:de": "Ahrntal",
            "addr:city:it": "Valle Aurina",
            "addr:hamlet": "St. Johann - San Giovanni",
            "addr:hamlet:de": "St. Johann",
            "addr:hamlet:it": "San Giovanni",
            "addr:housenumber": "48",
            "addr:place": "Gisse",
            "addr:postcode": "39030",
            "addr:street": "Gisse",
            "contact:email": "heidi@salon7.it",
            "contact:phone": "+39 0474 671236",
            "contact:skype": "heitschi3",
            "contact:website": "http://www.salon7.it",
            "name": "Salon 7",
            "opening_hours": "Mo-Fr 09:00-18:00; PH off; Sa \"nach Absprache\"",
            "operator": "Heidi Oberhofer, St. Johann im Ahrntal",
            "shop": "hairdresser"
          },
          "geometry": {
            "type": "Point",
            "coordinates": [
              11.9226782,
              46.9638993
            ]
          }
        },
        {
          "type": "Feature",
          "properties": {
            "id": "5822408761",
            "osm_type": "node",
            "lat": 46.9494383,
            "lon": 11.9224083,
            "addr:city": "Ahrntal - Valle Aurina",
            "addr:city:de": "Ahrntal",
            "addr:city:it": "Valle Aurina",
            "addr:hamlet": "Luttach - Lutago",
            "addr:hamlet:de": "Luttach",
            "addr:hamlet:it": "Lutago",
            "addr:housenumber": "8",
            "addr:postcode": "39030",
            "addr:street": "Ahrner Straße - Via Aurina",
            "addr:street:de": "Ahrner Straße",
            "addr:street:it": "Via Aurina",
            "contact:phone": "+39 0474 671619",
            "name": "Top Haar",
            "name:de": "Top Haar",
            "shop": "hairdresser"
          },
          "geometry": {
            "type": "Point",
            "coordinates": [
              11.9224083,
              46.9494383
            ]
          }
        },
        {
          "type": "Feature",
          "properties": {
            "id": "767946647",
            "osm_type": "node",
            "lat": 46.7069566,
            "lon": 11.6623255,
            "check_date": "2025-08-19",
            "name": "Washdog",
            "opening_hours": "Mo 15:30-17:00; Tu-Fr 08:30-13:00,15:30-17:00; Sa 09:00-13:00",
            "shop": "hairdresser"
          },
          "geometry": {
            "type": "Point",
            "coordinates": [
              11.6623255,
              46.7069566
            ]
          }
        },
        {
          "type": "Feature",
          "properties": {
            "id": "767946654",
            "osm_type": "node",
            "lat": 46.7086712,
            "lon": 11.6613761,
            "name": "Salon Alexander",
            "shop": "hairdresser"
          },
          "geometry": {
            "type": "Point",
            "coordinates": [
              11.6613761,
              46.7086712
            ]
          }
        },
        {
          "type": "Feature",
          "properties": {
            "id": "1404789893",
            "osm_type": "node",
            "lat": 46.8398974,
            "lon": 11.6270032,
            "name": "HAIReinspaziert",
            "shop": "hairdresser",
            "wheelchair": "yes"
          },
          "geometry": {
            "type": "Point",
            "coordinates": [
              11.6270032,
              46.8398974
            ]
          }
        },
        {
          "type": "Feature",
          "properties": {
            "id": "1930935107",
            "osm_type": "node",
            "lat": 46.7163278,
            "lon": 11.6607807,
            "name": "Salon Denny",
            "opening_hours": "Tu-Fr 08:00-12:00,14:00-18:00; Sa 08:00-16:00",
            "shop": "hairdresser",
            "wheelchair": "no"
          },
          "geometry": {
            "type": "Point",
            "coordinates": [
              11.6607807,
              46.7163278
            ]
          }
        },
        {
          "type": "Feature",
          "properties": {
            "id": "2038645573",
            "osm_type": "node",
            "lat": 46.7957327,
            "lon": 11.9382277,
            "addr:city": "Bruneck - Brunico",
            "addr:city:de": "Bruneck",
            "addr:city:it": "Brunico",
            "addr:country": "IT",
            "addr:housenumber": "46",
            "addr:postcode": "39031",
            "addr:street": "Stadtgasse - Via Centrale",
            "addr:street:de": "Stadtgasse",
            "addr:street:it": "Via Centrale",
            "name": "Cut&Go",
            "shop": "hairdresser"
          },
          "geometry": {
            "type": "Point",
            "coordinates": [
              11.9382277,
              46.7957327
            ]
          }
        },
        {
          "type": "Feature",
          "properties": {
            "id": "2429269703",
            "osm_type": "node",
            "lat": 46.7153916,
            "lon": 11.6548577,
            "addr:city": "Brixen - Bressanone",
            "addr:housenumber": "5",
            "addr:postcode": "39042",
            "addr:street": "Regensburger Allee - Viale Ratisbona",
            "male": "yes",
            "name": "Tiziano",
            "note": "Si riceve su appuntamento. Nach Terminvereinbarung. By prior appointment.",
            "opening_hours": "Tu-Fr 08:00-12:00, 14:30-19:00; Sa 08:00-17:00",
            "phone": "+39 0472 834927",
            "shop": "hairdresser",
            "wheelchair": "yes"
          },
          "geometry": {
            "type": "Point",
            "coordinates": [
              11.6548577,
              46.7153916
            ]
          }
        },
        {
          "type": "Feature",
          "properties": {
            "id": "2429565947",
            "osm_type": "node",
            "lat": 46.7168385,
            "lon": 11.6548098,
            "female": "yes",
            "male": "yes",
            "name": "Catulli",
            "opening_hours": "Tu-Fr 08:00-18:00; Sa 08:00-17:00",
            "shop": "hairdresser",
            "wheelchair": "yes"
          },
          "geometry": {
            "type": "Point",
            "coordinates": [
              11.6548098,
              46.7168385
            ]
          }
        },
        {
          "type": "Feature",
          "properties": {
            "id": "2432670231",
            "osm_type": "node",
            "lat": 46.7188812,
            "lon": 11.6567032,
            "name": "Happy Hair",
            "shop": "hairdresser"
          },
          "geometry": {
            "type": "Point",
            "coordinates": [
              11.6567032,
              46.7188812
            ]
          }
        },
        {
          "type": "Feature",
          "properties": {
            "id": "2434409507",
            "osm_type": "node",
            "lat": 46.7189657,
            "lon": 11.6553131,
            "name": "Ricci & Capricci",
            "shop": "hairdresser",
            "wheelchair": "yes"
          },
          "geometry": {
            "type": "Point",
            "coordinates": [
              11.6553131,
              46.7189657
            ]
          }
        },
        {
          "type": "Feature",
          "properties": {
            "id": "2434413232",
            "osm_type": "node",
            "lat": 46.7182534,
            "lon": 11.6541525,
            "shop": "hairdresser"
          },
          "geometry": {
            "type": "Point",
            "coordinates": [
              11.6541525,
              46.7182534
            ]
          }
        },
        {
          "type": "Feature",
          "properties": {
            "id": "2452527333",
            "osm_type": "node",
            "lat": 46.7124051,
            "lon": 11.6524356,
            "name": "Image",
            "opening_hours": "Mo-Fr 08:00-12:00,14:30-19:00; Sa 08:00-17:30",
            "shop": "hairdresser",
            "wheelchair": "yes"
          },
          "geometry": {
            "type": "Point",
            "coordinates": [
              11.6524356,
              46.7124051
            ]
          }
        },
        {
          "type": "Feature",
          "properties": {
            "id": "2465840350",
            "osm_type": "node",
            "lat": 46.7099085,
            "lon": 11.651135,
            "shop": "hairdresser"
          },
          "geometry": {
            "type": "Point",
            "coordinates": [
              11.651135,
              46.7099085
            ]
          }
        },
        {
          "type": "Feature",
          "properties": {
            "id": "2465841030",
            "osm_type": "node",
            "lat": 46.7187388,
            "lon": 11.6567329,
            "name": "Low Budget",
            "shop": "hairdresser"
          },
          "geometry": {
            "type": "Point",
            "coordinates": [
              11.6567329,
              46.7187388
            ]
          }
        },
        {
          "type": "Feature",
          "properties": {
            "id": "2527008781",
            "osm_type": "node",
            "lat": 46.7102117,
            "lon": 11.6614201,
            "addr:street": "Plosestraße - Via Plose",
            "addr:street:de": "Plosestraße",
            "name": "Heidi",
            "name:de": "Heidi",
            "name:it": "Heidi",
            "shop": "hairdresser"
          },
          "geometry": {
            "type": "Point",
            "coordinates": [
              11.6614201,
              46.7102117
            ]
          }
        },
        {
          "type": "Feature",
          "properties": {
            "id": "2749635329",
            "osm_type": "node",
            "lat": 46.7166673,
            "lon": 11.6581664,
            "addr:city": "Brixen - Bressanone",
            "addr:city:de": "Brixen",
            "addr:city:it": "Bressanone",
            "addr:housenumber": "3",
            "addr:postcode": "39042",
            "addr:street": "Adlerbrückengasse - Via Ponte Aquila",
            "addr:street:de": "Adlerbrückengasse",
            "addr:street:it": "Via Ponte Aquila",
            "female": "yes",
            "male": "yes",
            "name": "Tina & Manuel",
            "opening_hours": "Tu-Fr 08:00-17:00; Sa 08:00-13:00",
            "shop": "hairdresser"
          },
          "geometry": {
            "type": "Point",
            "coordinates": [
              11.6581664,
              46.7166673
            ]
          }
        },
        {
          "type": "Feature",
          "properties": {
            "id": "2755902031",
            "osm_type": "node",
            "lat": 46.7698925,
            "lon": 12.0160314,
            "addr:city": "Olang - Valdaora",
            "addr:city:de": "Olang",
            "addr:city:it": "Valdaora",
            "addr:hamlet": "Niederolang - Valdaora di Sotto",
            "addr:hamlet:de": "Niederolang",
            "addr:hamlet:it": "Valdaora di Sotto",
            "addr:housenumber": "16b",
            "addr:postcode": "39030",
            "addr:street": "Rienzstraße - Via Rienza",
            "addr:street:de": "Rienzstraße",
            "addr:street:it": "Via Rienza",
            "check_date": "2025-08-09",
            "level": "0",
            "name": "Salon Schneidig",
            "opening_hours": "Tu 08:30-14:00; We 08:30-12:00; Th 08:30-12:00,17:00-20:00; Fr 08:30-12:00; Sa 08:30-14:00",
            "shop": "hairdresser",
            "wheelchair": "yes"
          },
          "geometry": {
            "type": "Point",
            "coordinates": [
              12.0160314,
              46.7698925
            ]
          }
        },
        {
          "type": "Feature",
          "properties": {
            "id": "2756054439",
            "osm_type": "node",
            "lat": 46.7401277,
            "lon": 11.6364577,
            "addr:city": "Vahrn - Varna",
            "addr:city:de": "Vahrn",
            "addr:city:it": "Varna",
            "addr:housenumber": "12/2B",
            "addr:postcode": "39040",
            "addr:street": "Voitsbergstraße - Via Voitsberg",
            "addr:street:de": "Voitsbergstraße",
            "addr:street:it": "Via Voitsberg",
            "name": "Stevo's Salon Voitsberg",
            "phone": "+39 0472 837 888",
            "shop": "hairdresser"
          },
          "geometry": {
            "type": "Point",
            "coordinates": [
              11.6364577,
              46.7401277
            ]
          }
        },
        {
          "type": "Feature",
          "properties": {
            "id": "3032515010",
            "osm_type": "node",
            "lat": 46.8102446,
            "lon": 11.8833148,
            "shop": "hairdresser"
          },
          "geometry": {
            "type": "Point",
            "coordinates": [
              11.8833148,
              46.8102446
            ]
          }
        },
        {
          "type": "Feature",
          "properties": {
            "id": "3032519034",
            "osm_type": "node",
            "lat": 46.8118118,
            "lon": 11.8832157,
            "shop": "hairdresser"
          },
          "geometry": {
            "type": "Point",
            "coordinates": [
              11.8832157,
              46.8118118
            ]
          }
        },
        {
          "type": "Feature",
          "properties": {
            "id": "3948433692",
            "osm_type": "node",
            "lat": 46.8154736,
            "lon": 11.7350317,
            "shop": "hairdresser"
          },
          "geometry": {
            "type": "Point",
            "coordinates": [
              11.7350317,
              46.8154736
            ]
          }
        },
        {
          "type": "Feature",
          "properties": {
            "id": "6088819824",
            "osm_type": "node",
            "lat": 46.7200608,
            "lon": 11.6559234,
            "shop": "hairdresser"
          },
          "geometry": {
            "type": "Point",
            "coordinates": [
              11.6559234,
              46.7200608
            ]
          }
        },
        {
          "type": "Feature",
          "properties": {
            "id": "6611822307",
            "osm_type": "node",
            "lat": 46.7180554,
            "lon": 11.6542243,
            "name": "Salone Michele",
            "shop": "hairdresser"
          },
          "geometry": {
            "type": "Point",
            "coordinates": [
              11.6542243,
              46.7180554
            ]
          }
        },
        {
          "type": "Feature",
          "properties": {
            "id": "8021403624",
            "osm_type": "node",
            "lat": 46.7176926,
            "lon": 11.6567999,
            "name": "Hair Simo",
            "shop": "hairdresser",
            "unisex": "yes"
          },
          "geometry": {
            "type": "Point",
            "coordinates": [
              11.6567999,
              46.7176926
            ]
          }
        },
        {
          "type": "Feature",
          "properties": {
            "id": "11563828570",
            "osm_type": "node",
            "lat": 46.7690157,
            "lon": 12.0285214,
            "addr:housenumber": "23",
            "addr:street": "Bahnhofstraße - Via Stazione",
            "check_date": "2024-01-29",
            "email": "kontakt@salon-gabi.it",
            "name": "Salon Gabi",
            "opening_hours": "Mo,Su off; Tu,Th 08:00-13:00; We 14:00-20:00; Fr 08:00-12:00,14:00-18:00; Sa 08:00-15:00",
            "phone": "+39 329 681 9737",
            "shop": "hairdresser",
            "website": "https://salon-gabi.it"
          },
          "geometry": {
            "type": "Point",
            "coordinates": [
              12.0285214,
              46.7690157
            ]
          }
        },
        {
          "type": "Feature",
          "properties": {
            "id": "11708171088",
            "osm_type": "node",
            "lat": 46.7965378,
            "lon": 11.9375647,
            "check_date": "2024-03-09",
            "name": "Salon Otti",
            "shop": "hairdresser",
            "wheelchair": "no"
          },
          "geometry": {
            "type": "Point",
            "coordinates": [
              11.9375647,
              46.7965378
            ]
          }
        },
        {
          "type": "Feature",
          "properties": {
            "id": "11708171102",
            "osm_type": "node",
            "lat": 46.7973401,
            "lon": 11.9418659,
            "check_date": "2024-03-09",
            "name": "New Look Salone",
            "shop": "hairdresser"
          },
          "geometry": {
            "type": "Point",
            "coordinates": [
              11.9418659,
              46.7973401
            ]
          }
        },
        {
          "type": "Feature",
          "properties": {
            "id": "11708171136",
            "osm_type": "node",
            "lat": 46.7953903,
            "lon": 11.9359037,
            "check_date": "2024-03-09",
            "name": "Davines",
            "opening_hours": "Mo,Su off; Tu-Fr 08:00-18:00; Sa 08:00-14:00",
            "shop": "hairdresser",
            "wheelchair": "yes"
          },
          "geometry": {
            "type": "Point",
            "coordinates": [
              11.9359037,
              46.7953903
            ]
          }
        },
        {
          "type": "Feature",
          "properties": {
            "id": "11877100318",
            "osm_type": "node",
            "lat": 46.7164968,
            "lon": 11.6550893,
            "male": "yes",
            "name": "Men’s Stylist by Marco Trio",
            "shop": "hairdresser"
          },
          "geometry": {
            "type": "Point",
            "coordinates": [
              11.6550893,
              46.7164968
            ]
          }
        },
        {
          "type": "Feature",
          "properties": {
            "id": "11877100319",
            "osm_type": "node",
            "lat": 46.7158571,
            "lon": 11.6540683,
            "shop": "hairdresser"
          },
          "geometry": {
            "type": "Point",
            "coordinates": [
              11.6540683,
              46.7158571
            ]
          }
        },
        {
          "type": "Feature",
          "properties": {
            "id": "12031964872",
            "osm_type": "node",
            "lat": 46.7951018,
            "lon": 11.9344929,
            "shop": "hairdresser"
          },
          "geometry": {
            "type": "Point",
            "coordinates": [
              11.9344929,
              46.7951018
            ]
          }
        },
        {
          "type": "Feature",
          "properties": {
            "id": "12055127707",
            "osm_type": "node",
            "lat": 46.7960074,
            "lon": 11.8366848,
            "addr:city": "Ehrenburg - Casteldarne",
            "addr:housenumber": "23",
            "addr:postcode": "39030",
            "addr:street": "Ehrenburger Straße - Via Casteldarne",
            "name": "Salon Haarmonie",
            "opening_hours": "Tu 10:00-20:00, We 08:00-20:00, Th 08:00-16:00, Fr 08:00-18:00, Sa 08:00-12:00, Su, Mo, PH off",
            "operator": "Sandra Schmid",
            "phone": "+39 0474 770862",
            "shop": "hairdresser"
          },
          "geometry": {
            "type": "Point",
            "coordinates": [
              11.8366848,
              46.7960074
            ]
          }
        },
        {
          "type": "Feature",
          "properties": {
            "id": "13061876113",
            "osm_type": "node",
            "lat": 46.7767184,
            "lon": 11.9474821,
            "check_date": "2025-08-10",
            "name": "Salon Zickzack",
            "shop": "hairdresser"
          },
          "geometry": {
            "type": "Point",
            "coordinates": [
              11.9474821,
              46.7767184
            ]
          }
        },
        {
          "type": "Feature",
          "properties": {
            "id": "1937892892",
            "osm_type": "node",
            "lat": 46.780034,
            "lon": 12.049096,
            "shop": "hairdresser"
          },
          "geometry": {
            "type": "Point",
            "coordinates": [
              12.049096,
              46.780034
            ]
          }
        },
        {
          "type": "Feature",
          "properties": {
            "id": "2333490603",
            "osm_type": "node",
            "lat": 46.7326396,
            "lon": 12.2815153,
            "name": "De Vivo",
            "shop": "hairdresser"
          },
          "geometry": {
            "type": "Point",
            "coordinates": [
              12.2815153,
              46.7326396
            ]
          }
        },
        {
          "type": "Feature",
          "properties": {
            "id": "2333490918",
            "osm_type": "node",
            "lat": 46.7324429,
            "lon": 12.2811901,
            "shop": "hairdresser"
          },
          "geometry": {
            "type": "Point",
            "coordinates": [
              12.2811901,
              46.7324429
            ]
          }
        },
        {
          "type": "Feature",
          "properties": {
            "id": "2749766159",
            "osm_type": "node",
            "lat": 46.7316508,
            "lon": 12.2791111,
            "addr:city": "Innichen - San Candido",
            "addr:city:de": "Innichen",
            "addr:city:it": "San Candido",
            "addr:housenumber": "14",
            "addr:postcode": "39038",
            "addr:street": "Färberstraße - Via dei Tintori",
            "addr:street:de": "Färberstraße",
            "addr:street:it": "Via dei Tintori",
            "facebook": "https://www.facebook.com/Man-Lady-Chic-325780870839331/",
            "name": "Man & Lady Chic",
            "opening_hours": "Tu,We 08:30-12:00,14:30-18:00; Th-Sa 08:30-18:00",
            "payment:coins": "yes",
            "payment:maestro": "yes",
            "payment:notes": "yes",
            "phone": "+39 0474 913788",
            "shop": "hairdresser",
            "unisex": "yes"
          },
          "geometry": {
            "type": "Point",
            "coordinates": [
              12.2791111,
              46.7316508
            ]
          }
        },
        {
          "type": "Feature",
          "properties": {
            "id": "11563826766",
            "osm_type": "node",
            "lat": 46.7608313,
            "lon": 12.0337585,
            "check_date": "2024-01-29",
            "name": "Salon Toni",
            "phone": "+39 03663613332",
            "shop": "hairdresser",
            "wheelchair": "no"
          },
          "geometry": {
            "type": "Point",
            "coordinates": [
              12.0337585,
              46.7608313
            ]
          }
        },
        {
          "type": "Feature",
          "properties": {
            "id": "12765590955",
            "osm_type": "node",
            "lat": 46.7381441,
            "lon": 12.1670936,
            "check_date": "2025-09-11",
            "check_date:opening_hours": "2025-09-11",
            "contact:city": "Niederdorf - Villabassa",
            "contact:city:de": "Niederdorf",
            "contact:city:it": "Villabassa",
            "contact:email": "filomenagiannola79@gmail.com",
            "contact:facebook": "https://www.facebook.com/share/18ZnsTb7Uy/",
            "contact:housenumber": "14",
            "contact:phone": "+390474615718",
            "contact:postcode": "39039",
            "contact:street": "Hans-Wassermann-Straße - Via Hans Wassermann",
            "contact:street:de": "Hans-Wassermann-Straße",
            "contact:street:it": "Via Hans Wassermann",
            "female": "yes",
            "male": "yes",
            "name": "Schönhair Beauty",
            "opening_hours": "Tu,Th,Fr 08:30-12:00,14:00-19:00; We,Sa 08:30-17:00; Su,Mo off",
            "operator": "Filomena Giannola",
            "payment:cash": "yes",
            "payment:credit_cards": "yes",
            "payment:debit_cards": "yes",
            "ref:vatin": "IT03280490214",
            "shop": "hairdresser"
          },
          "geometry": {
            "type": "Point",
            "coordinates": [
              12.1670936,
              46.7381441
            ]
          }
        }
      ],
      "children": []
    },
    {
      "bbox": {
        "south": 46.70320525,
        "west": 12.392062499999998,
        "north": 47.033758500000005,
        "east": 13.345766
      },
      "poiCount": 20,
      "leafCount": 20,
      "averagePosition": [
        12.75889821,
        46.807180365
      ],
      "data": [
        {
          "type": "Feature",
          "properties": {
            "id": "11704915103",
            "osm_type": "node",
            "lat": 46.9935242,
            "lon": 12.5423232,
            "addr:city": "Matrei in Osttirol",
            "addr:country": "AT",
            "addr:housenumber": "77",
            "addr:postcode": "9971",
            "addr:street": "Lienzer Straße",
            "name": "Friseur Schneidig",
            "opening_hours": "Tu, We 08:00-18:00; Th 08:00-20:00; Fr 08:00-19:00; Sa 08:00-14:00",
            "operator": "Gerda Mühlburger",
            "phone": "+43 699 15020477",
            "shop": "hairdresser",
            "website": "https://www.gerdam.at/#matrei"
          },
          "geometry": {
            "type": "Point",
            "coordinates": [
              12.5423232,
              46.9935242
            ]
          }
        },
        {
          "type": "Feature",
          "properties": {
            "id": "1367738064",
            "osm_type": "node",
            "lat": 46.7485223,
            "lon": 12.4353651,
            "contact:phone": "+43 4842 51866",
            "female": "yes",
            "male": "yes",
            "name": "Trend Setter",
            "opening_hours": "Tu - Fr 8:00-12:30; 14:00-18:00; Sa 8:00-14:00",
            "shop": "hairdresser",
            "wheelchair": "yes"
          },
          "geometry": {
            "type": "Point",
            "coordinates": [
              12.4353651,
              46.7485223
            ]
          }
        },
        {
          "type": "Feature",
          "properties": {
            "id": "1375887277",
            "osm_type": "node",
            "lat": 46.7477527,
            "lon": 12.4194345,
            "addr:city": "Sillian",
            "addr:housenumber": "84a",
            "addr:place": "Sillian",
            "addr:postcode": "9920",
            "email": "info@haarscharf-osttirol.at",
            "female": "yes",
            "male": "yes",
            "name": "Haarscharf Osttirol",
            "phone": "+43 4842 6421",
            "shop": "hairdresser",
            "website": "https://www.haarscharf-osttirol.at"
          },
          "geometry": {
            "type": "Point",
            "coordinates": [
              12.4194345,
              46.7477527
            ]
          }
        },
        {
          "type": "Feature",
          "properties": {
            "id": "1377627393",
            "osm_type": "node",
            "lat": 46.7476828,
            "lon": 12.418606,
            "addr:city": "Sillian",
            "addr:housenumber": "96",
            "addr:place": "Sillian",
            "addr:postcode": "9020",
            "female": "yes",
            "male": "yes",
            "mobile": "+43 664 7915732",
            "name": "Friseur Hair Line",
            "operator": "Elmar Lener",
            "shop": "hairdresser"
          },
          "geometry": {
            "type": "Point",
            "coordinates": [
              12.418606,
              46.7476828
            ]
          }
        },
        {
          "type": "Feature",
          "properties": {
            "id": "1377631295",
            "osm_type": "node",
            "lat": 46.7478766,
            "lon": 12.4181729,
            "name": "Figaro",
            "shop": "hairdresser"
          },
          "geometry": {
            "type": "Point",
            "coordinates": [
              12.4181729,
              46.7478766
            ]
          }
        },
        {
          "type": "Feature",
          "properties": {
            "id": "1482862584",
            "osm_type": "node",
            "lat": 46.8272299,
            "lon": 12.8091527,
            "addr:city": "Nußdorf-Debant",
            "addr:country": "AT",
            "addr:housenumber": "2a",
            "addr:postcode": "9990",
            "addr:street": "Draustraße",
            "at_bev:addr_date": "2017-10-01",
            "brand": "Klipp",
            "brand:wikidata": "Q1737304",
            "brand:wikipedia": "de:Klipp Frisör",
            "name": "Klipp",
            "shop": "hairdresser"
          },
          "geometry": {
            "type": "Point",
            "coordinates": [
              12.8091527,
              46.8272299
            ]
          }
        },
        {
          "type": "Feature",
          "properties": {
            "id": "1653091489",
            "osm_type": "node",
            "lat": 46.8307061,
            "lon": 12.8022034,
            "name": "Salon Klier",
            "shop": "hairdresser"
          },
          "geometry": {
            "type": "Point",
            "coordinates": [
              12.8022034,
              46.8307061
            ]
          }
        },
        {
          "type": "Feature",
          "properties": {
            "id": "4137894197",
            "osm_type": "node",
            "lat": 46.8209466,
            "lon": 12.7594175,
            "shop": "hairdresser",
            "wheelchair": "limited"
          },
          "geometry": {
            "type": "Point",
            "coordinates": [
              12.7594175,
              46.8209466
            ]
          }
        },
        {
          "type": "Feature",
          "properties": {
            "id": "5672002545",
            "osm_type": "node",
            "lat": 46.8313256,
            "lon": 12.7780618,
            "name": "der Friseur der kleinen Preise",
            "shop": "hairdresser"
          },
          "geometry": {
            "type": "Point",
            "coordinates": [
              12.7780618,
              46.8313256
            ]
          }
        },
        {
          "type": "Feature",
          "properties": {
            "id": "6166770452",
            "osm_type": "node",
            "lat": 46.8294883,
            "lon": 12.7668387,
            "addr:city": "Lienz",
            "addr:country": "AT",
            "addr:housenumber": "5",
            "addr:postcode": "9900",
            "addr:street": "Johannesplatz",
            "brand": "Klier",
            "brand:wikidata": "Q1465159",
            "brand:wikipedia": "de:Klier Hair Group",
            "name": "Klier",
            "opening_hours": "Mo-Fr 08:00-18:30; Sa 08:00-15:00",
            "operator": "Frisör Klier GmbH",
            "phone": "+43 4852 65184",
            "shop": "hairdresser"
          },
          "geometry": {
            "type": "Point",
            "coordinates": [
              12.7668387,
              46.8294883
            ]
          }
        },
        {
          "type": "Feature",
          "properties": {
            "id": "11937353696",
            "osm_type": "node",
            "lat": 46.8294149,
            "lon": 12.7649494,
            "addr:city": "Lienz",
            "addr:country": "AT",
            "addr:housenumber": "10",
            "addr:postcode": "9900",
            "addr:street": "Rosengasse",
            "name": "Anita`s Friseurlounge",
            "shop": "hairdresser",
            "website": "https://www.anitas-friseurlounge.at"
          },
          "geometry": {
            "type": "Point",
            "coordinates": [
              12.7649494,
              46.8294149
            ]
          }
        },
        {
          "type": "Feature",
          "properties": {
            "id": "12105169544",
            "osm_type": "node",
            "lat": 46.8290057,
            "lon": 12.7679826,
            "addr:city": "Lienz",
            "addr:housenumber": "15",
            "addr:postcode": "9900",
            "addr:street": "Hauptplatz",
            "level": "1",
            "mobile": "+43 680 1563064",
            "name": "Salon highlight BY LEA",
            "opening_hours": "Di-Fr 09:00-17:00; Sa 09:00-15:00",
            "shop": "hairdresser"
          },
          "geometry": {
            "type": "Point",
            "coordinates": [
              12.7679826,
              46.8290057
            ]
          }
        },
        {
          "type": "Feature",
          "properties": {
            "id": "12141849817",
            "osm_type": "node",
            "lat": 46.8290291,
            "lon": 12.7633986,
            "addr:city": "Lienz",
            "addr:housenumber": "8",
            "addr:postcode": "9900",
            "addr:street": "Messinggasse",
            "email": "info@haarscharf-osttirol.at",
            "name": "Haarscharf Osttirol",
            "phone": "+43 4852 20820",
            "shop": "hairdresser",
            "website": "https://www.haarscharf-osttirol.at"
          },
          "geometry": {
            "type": "Point",
            "coordinates": [
              12.7633986,
              46.8290291
            ]
          }
        },
        {
          "type": "Feature",
          "properties": {
            "id": "13058436091",
            "osm_type": "node",
            "lat": 46.8294149,
            "lon": 12.7649703,
            "name": "Anita's Friseurlounge",
            "shop": "hairdresser",
            "website": "https://www.anitas-friseurlounge.at"
          },
          "geometry": {
            "type": "Point",
            "coordinates": [
              12.7649703,
              46.8294149
            ]
          }
        },
        {
          "type": "Feature",
          "properties": {
            "id": "13136191486",
            "osm_type": "node",
            "lat": 46.829972,
            "lon": 12.7683662,
            "name": "Roman's Haarwerkstatt",
            "shop": "hairdresser"
          },
          "geometry": {
            "type": "Point",
            "coordinates": [
              12.7683662,
              46.829972
            ]
          }
        },
        {
          "type": "Feature",
          "properties": {
            "id": "13136277612",
            "osm_type": "node",
            "lat": 46.8290825,
            "lon": 12.7705076,
            "name": "Frisör Manuela",
            "shop": "hairdresser"
          },
          "geometry": {
            "type": "Point",
            "coordinates": [
              12.7705076,
              46.8290825
            ]
          }
        },
        {
          "type": "Feature",
          "properties": {
            "id": "13136288218",
            "osm_type": "node",
            "lat": 46.8284088,
            "lon": 12.7682573,
            "brand": "Klipp",
            "brand:wikidata": "Q1737304",
            "name": "Klipp",
            "shop": "hairdresser"
          },
          "geometry": {
            "type": "Point",
            "coordinates": [
              12.7682573,
              46.8284088
            ]
          }
        },
        {
          "type": "Feature",
          "properties": {
            "id": "2375263479",
            "osm_type": "node",
            "lat": 46.7169524,
            "lon": 13.2955923,
            "addr:city": "Techendorf Weißensee",
            "addr:country": "AT",
            "addr:housenumber": "53",
            "addr:postcode": "9762",
            "addr:street": "Techendorf",
            "contact:phone": "+43 4713 2210",
            "female:signed": "no",
            "male:signed": "no",
            "name": "berg.frisur | Natur | Friseur | Weißensee |",
            "opening_hours": "Tu-Fr 08:30-18:00; Sa 08:30-12:30",
            "operator": "Claudia Obereder",
            "payment:american_express": "yes",
            "payment:app": "yes",
            "payment:apple_pay": "yes",
            "payment:cards": "yes",
            "payment:cash": "yes",
            "payment:coins": "yes",
            "payment:contactless": "yes",
            "payment:credit_cards": "yes",
            "payment:debit_cards": "yes",
            "payment:diners_club": "yes",
            "payment:girocard": "yes",
            "payment:google_pay": "yes",
            "payment:maestro": "yes",
            "payment:mastercard": "yes",
            "payment:mastercard_contactless": "yes",
            "payment:notes": "yes",
            "payment:unionpay": "yes",
            "payment:visa": "yes",
            "shop": "hairdresser",
            "website": "https://berg-frisur.at/#kontakt-and-termin"
          },
          "geometry": {
            "type": "Point",
            "coordinates": [
              13.2955923,
              46.7169524
            ]
          }
        },
        {
          "type": "Feature",
          "properties": {
            "id": "4460643092",
            "osm_type": "node",
            "lat": 46.7507309,
            "lon": 13.1806568,
            "addr:street": "Drautal Straße",
            "name": "Friseur Werni",
            "name:de": "Friseur Werni",
            "shop": "hairdresser"
          },
          "geometry": {
            "type": "Point",
            "coordinates": [
              13.1806568,
              46.7507309
            ]
          }
        },
        {
          "type": "Feature",
          "properties": {
            "id": "4560561689",
            "osm_type": "node",
            "lat": 46.746541,
            "lon": 13.1837073,
            "name": "Happy Hair",
            "name:de": "Happy Hair",
            "name:en": "Happy Hair",
            "shop": "hairdresser",
            "wheelchair": "yes"
          },
          "geometry": {
            "type": "Point",
            "coordinates": [
              13.1837073,
              46.746541
            ]
          }
        }
      ],
      "children": []
    }
  ]
}