{
  "bbox": {
    "south": 48.355971499999995,
    "west": 13.345766,
    "north": 49.017078,
    "east": 15.253173
  },
  "poiCount": 240,
  "leafCount": 0,
  "averagePosition": [
    14.207196715833334,
    48.691217218333335
  ],
  "data": [],
  "children": [
    {
      "bbox": {
        "south": 48.355971499999995,
        "west": 13.345766,
        "north": 48.68652475,
        "east": 14.2994695
      },
      "poiCount": 81,
      "leafCount": 0,
      "averagePosition": [
        13.608505455555557,
        48.54176482222221
      ],
      "data": [],
      "children": [
        {
          "bbox": {
            "south": 48.355971499999995,
            "west": 13.345766,
            "north": 48.521248125,
            "east": 13.82261775
          },
          "poiCount": 8,
          "leafCount": 8,
          "averagePosition": [
            13.4843051,
            48.42878975
          ],
          "data": [
            {
              "type": "Feature",
              "properties": {
                "id": "693304217",
                "osm_type": "node",
                "lat": 48.3654294,
                "lon": 13.5665727,
                "addr:city": "Andorf",
                "addr:country": "AT",
                "addr:housenumber": "2b",
                "addr:postcode": "4770",
                "addr:street": "Wilhelm-Redl-Straße",
                "name": "Friseurteam Mayr",
                "opening_hours": "Tu-Th 09:00-18:00; Fr 09:00-19:00; Sa 08:00-14:00",
                "phone": "+43 (7766) 41313",
                "shop": "hairdresser",
                "website": "https://www.friseurteam-mayr.at/"
              },
              "geometry": {
                "type": "Point",
                "coordinates": [
                  13.5665727,
                  48.3654294
                ]
              }
            },
            {
              "type": "Feature",
              "properties": {
                "id": "1546433805",
                "osm_type": "node",
                "lat": 48.3711362,
                "lon": 13.5712805,
                "addr:postcode": "4770",
                "contact:phone": "+43 7766 2376",
                "name": "Haarstudio Erni",
                "opening_hours": "Tu-Fr 08:00-11:30, 13:00-18:00; Sa 07:00-13:00",
                "operator": "Grömer Erna",
                "shop": "hairdresser"
              },
              "geometry": {
                "type": "Point",
                "coordinates": [
                  13.5712805,
                  48.3711362
                ]
              }
            },
            {
              "type": "Feature",
              "properties": {
                "id": "3176677864",
                "osm_type": "node",
                "lat": 48.4560512,
                "lon": 13.4313599,
                "name": "Haarstudio Christina",
                "shop": "hairdresser"
              },
              "geometry": {
                "type": "Point",
                "coordinates": [
                  13.4313599,
                  48.4560512
                ]
              }
            },
            {
              "type": "Feature",
              "properties": {
                "id": "3515149790",
                "osm_type": "node",
                "lat": 48.4461799,
                "lon": 13.4414665,
                "name": "HairStyle Gabi Wohlmuth",
                "opening_hours": "Mo-Fr 08:00-18:00, Sa 08:00-12:00",
                "shop": "hairdresser"
              },
              "geometry": {
                "type": "Point",
                "coordinates": [
                  13.4414665,
                  48.4461799
                ]
              }
            },
            {
              "type": "Feature",
              "properties": {
                "id": "3590242359",
                "osm_type": "node",
                "lat": 48.4500708,
                "lon": 13.4442499,
                "name": "Tanjas Haareszeiten",
                "opening_hours": "Tu-Fr 08:00-18:00; Sa 08:00-12:00",
                "shop": "hairdresser"
              },
              "geometry": {
                "type": "Point",
                "coordinates": [
                  13.4442499,
                  48.4500708
                ]
              }
            },
            {
              "type": "Feature",
              "properties": {
                "id": "8985460846",
                "osm_type": "node",
                "lat": 48.4749024,
                "lon": 13.4517404,
                "addr:city": "Brunnenthal",
                "addr:housenumber": "2",
                "addr:postcode": "4786",
                "addr:street": "Erlenweg",
                "image": "https://lh5.googleusercontent.com/p/AF1QipPXDnGx3ZPJL-MEeY1hdCa7XO--wb9fNv7PTq6y=w408-h544-k-no",
                "name": "Hoastubn by Nici",
                "phone": "+436649122144",
                "shop": "hairdresser",
                "website": "https://www.instagram.com/hoastubn_nici/?r=nametag"
              },
              "geometry": {
                "type": "Point",
                "coordinates": [
                  13.4517404,
                  48.4749024
                ]
              }
            },
            {
              "type": "Feature",
              "properties": {
                "id": "12794170201",
                "osm_type": "node",
                "lat": 48.4559751,
                "lon": 13.431394,
                "addr:housenumber": "4",
                "addr:postcode": "4780",
                "addr:street": "Denisgasse",
                "name": "Kingsman Barbershop",
                "opening_hours": "Mo-Sa 09:00-19:00",
                "phone": "0660 8612425",
                "shop": "hairdresser"
              },
              "geometry": {
                "type": "Point",
                "coordinates": [
                  13.431394,
                  48.4559751
                ]
              }
            },
            {
              "type": "Feature",
              "properties": {
                "id": "1717617395",
                "osm_type": "node",
                "lat": 48.410573,
                "lon": 13.5363769,
                "contact:email": "friseur@sentimento.at",
                "contact:phone": "+43 7719 50982",
                "contact:website": "http://www.sentimento.at/",
                "name": "Sentimento",
                "opening_hours": "Tu-Fr 08:00-18:00; Sa 08:00-13:00; PH off",
                "operator": "Elfriede Ratzenböck",
                "shop": "hairdresser"
              },
              "geometry": {
                "type": "Point",
                "coordinates": [
                  13.5363769,
                  48.410573
                ]
              }
            }
          ],
          "children": []
        },
        {
          "bbox": {
            "south": 48.355971499999995,
            "west": 13.82261775,
            "north": 48.521248125,
            "east": 14.2994695
          },
          "poiCount": 12,
          "leafCount": 12,
          "averagePosition": [
            14.067902725000001,
            48.41490531666667
          ],
          "data": [
            {
              "type": "Feature",
              "properties": {
                "id": "4772355542",
                "osm_type": "node",
                "lat": 48.3618645,
                "lon": 14.002689,
                "name": "Barber Leo",
                "shop": "hairdresser"
              },
              "geometry": {
                "type": "Point",
                "coordinates": [
                  14.002689,
                  48.3618645
                ]
              }
            },
            {
              "type": "Feature",
              "properties": {
                "id": "8240140545",
                "osm_type": "node",
                "lat": 48.362366,
                "lon": 14.0056343,
                "addr:city": "Hartkirchen",
                "addr:country": "AT",
                "addr:housenumber": "1",
                "addr:postcode": "4081",
                "addr:street": "Aschacherstraße",
                "name": "figaro uno",
                "operator": "figaro uno",
                "shop": "hairdresser"
              },
              "geometry": {
                "type": "Point",
                "coordinates": [
                  14.0056343,
                  48.362366
                ]
              }
            },
            {
              "type": "Feature",
              "properties": {
                "id": "9801918035",
                "osm_type": "node",
                "lat": 48.3672752,
                "lon": 14.0251988,
                "name": "Barberellas",
                "opening_hours": "Mo, We, Fr 09:00-18:00; Tu 13:00-20:30; Su 14:30-20:30",
                "shop": "hairdresser"
              },
              "geometry": {
                "type": "Point",
                "coordinates": [
                  14.0251988,
                  48.3672752
                ]
              }
            },
            {
              "type": "Feature",
              "properties": {
                "id": "1088060125",
                "osm_type": "node",
                "lat": 48.3588156,
                "lon": 14.2589259,
                "addr:city": "Lichtenberg",
                "addr:country": "AT",
                "addr:housenumber": "8",
                "addr:postcode": "4040",
                "addr:street": "Kastnerstraße",
                "contact:phone": "+43 7239 5478",
                "name": "Rechberger",
                "shop": "hairdresser"
              },
              "geometry": {
                "type": "Point",
                "coordinates": [
                  14.2589259,
                  48.3588156
                ]
              }
            },
            {
              "type": "Feature",
              "properties": {
                "id": "3246038612",
                "osm_type": "node",
                "lat": 48.4440971,
                "lon": 13.9383185,
                "addr:city": "Kirchberg ob der Donau",
                "addr:country": "AT",
                "addr:housenumber": "8",
                "addr:postcode": "4131",
                "addr:street": "Hauptstraße",
                "name": "Hoarschnid, Friseur",
                "operator": "Julia Walenta",
                "shop": "hairdresser",
                "unisex": "yes"
              },
              "geometry": {
                "type": "Point",
                "coordinates": [
                  13.9383185,
                  48.4440971
                ]
              }
            },
            {
              "type": "Feature",
              "properties": {
                "id": "3517478352",
                "osm_type": "node",
                "lat": 48.4853759,
                "lon": 13.9696153,
                "name": "Haarschnitt Stadler",
                "opening_hours": "Tu-Fr 08:30-18:00; Sa 08:00-13:00",
                "shop": "hairdresser"
              },
              "geometry": {
                "type": "Point",
                "coordinates": [
                  13.9696153,
                  48.4853759
                ]
              }
            },
            {
              "type": "Feature",
              "properties": {
                "id": "4478831495",
                "osm_type": "node",
                "lat": 48.4158955,
                "lon": 13.9164057,
                "email": "margit.gamharter@haargenau-haibach.at",
                "name": "HAARgenau",
                "phone": "07279/20017",
                "shop": "hairdresser",
                "website": "https://www.haargenau-haibach.at/home/"
              },
              "geometry": {
                "type": "Point",
                "coordinates": [
                  13.9164057,
                  48.4158955
                ]
              }
            },
            {
              "type": "Feature",
              "properties": {
                "id": "325800386",
                "osm_type": "node",
                "lat": 48.4521989,
                "lon": 14.0845739,
                "addr:country": "AT",
                "addr:housenumber": "31",
                "addr:street": "Markt",
                "name": "figarouno",
                "shop": "hairdresser"
              },
              "geometry": {
                "type": "Point",
                "coordinates": [
                  14.0845739,
                  48.4521989
                ]
              }
            },
            {
              "type": "Feature",
              "properties": {
                "id": "1536971837",
                "osm_type": "node",
                "lat": 48.501623,
                "lon": 14.0874385,
                "check_date": "2025-07-16",
                "name": "Hairgricht",
                "shop": "hairdresser"
              },
              "geometry": {
                "type": "Point",
                "coordinates": [
                  14.0874385,
                  48.501623
                ]
              }
            },
            {
              "type": "Feature",
              "properties": {
                "id": "1639957667",
                "osm_type": "node",
                "lat": 48.4315269,
                "lon": 14.2992133,
                "addr:city": "Hellmonsödt",
                "addr:country": "AT",
                "addr:housenumber": "6",
                "addr:postcode": "4202",
                "addr:street": "Marktplatz",
                "name": "Friseursalon Look",
                "shop": "hairdresser"
              },
              "geometry": {
                "type": "Point",
                "coordinates": [
                  14.2992133,
                  48.4315269
                ]
              }
            },
            {
              "type": "Feature",
              "properties": {
                "id": "2376376377",
                "osm_type": "node",
                "lat": 48.4168297,
                "lon": 14.0390373,
                "addr:city": "St. Martin im Mühlkreis",
                "addr:country": "AT",
                "addr:housenumber": "11",
                "addr:postcode": "4113",
                "addr:street": "Markt",
                "name": "g'kampelt & g'schnien",
                "opening_hours": "Tu-Fr 08:00-18:00; Sa 08:00-12:00",
                "shop": "hairdresser",
                "website": "https://www.gkampelt-gschnien.at/"
              },
              "geometry": {
                "type": "Point",
                "coordinates": [
                  14.0390373,
                  48.4168297
                ]
              }
            },
            {
              "type": "Feature",
              "properties": {
                "id": "11795051349",
                "osm_type": "node",
                "lat": 48.3809955,
                "lon": 14.1877822,
                "female:signed": "no",
                "male:signed": "no",
                "name": "Naturfriseur",
                "opening_hours": "Tu,Th,Fr 07:30-18:00; We,Sa 07:30-12:00",
                "shop": "hairdresser"
              },
              "geometry": {
                "type": "Point",
                "coordinates": [
                  14.1877822,
                  48.3809955
                ]
              }
            }
          ],
          "children": []
        },
        {
          "bbox": {
            "south": 48.521248125,
            "west": 13.345766,
            "north": 48.68652475,
            "east": 13.82261775
          },
          "poiCount": 55,
          "leafCount": 0,
          "averagePosition": [
            13.471829358181818,
            48.58233810181818
          ],
          "data": [],
          "children": [
            {
              "bbox": {
                "south": 48.521248125,
                "west": 13.345766,
                "north": 48.603886437499995,
                "east": 13.584191874999998
              },
              "poiCount": 45,
              "leafCount": 45,
              "averagePosition": [
                13.455435755555555,
                48.57481571555555
              ],
              "data": [
                {
                  "type": "Feature",
                  "properties": {
                    "id": "297819051",
                    "osm_type": "node",
                    "lat": 48.5742055,
                    "lon": 13.4543687,
                    "addr:city": "Passau",
                    "addr:housenumber": "17",
                    "addr:postcode": "94032",
                    "addr:street": "Bahnhofstraße",
                    "female": "yes",
                    "fixme": "genaue Position/Reihenfolge der Geschäfte fehlt\n2021-06-08: domain was for sale - does this pharmacy still exist?",
                    "male": "yes",
                    "name": "Rustam Hairstyle",
                    "opening_hours": "Mo-Th 09:00-19:00; Fr,Sa 09:00-19:00+",
                    "shop": "hairdresser",
                    "wheelchair": "yes"
                  },
                  "geometry": {
                    "type": "Point",
                    "coordinates": [
                      13.4543687,
                      48.5742055
                    ]
                  }
                },
                {
                  "type": "Feature",
                  "properties": {
                    "id": "300819359",
                    "osm_type": "node",
                    "lat": 48.5602377,
                    "lon": 13.4226816,
                    "shop": "hairdresser"
                  },
                  "geometry": {
                    "type": "Point",
                    "coordinates": [
                      13.4226816,
                      48.5602377
                    ]
                  }
                },
                {
                  "type": "Feature",
                  "properties": {
                    "id": "300822203",
                    "osm_type": "node",
                    "lat": 48.5629845,
                    "lon": 13.4167788,
                    "shop": "hairdresser"
                  },
                  "geometry": {
                    "type": "Point",
                    "coordinates": [
                      13.4167788,
                      48.5629845
                    ]
                  }
                },
                {
                  "type": "Feature",
                  "properties": {
                    "id": "333980704",
                    "osm_type": "node",
                    "lat": 48.5851441,
                    "lon": 13.4785987,
                    "addr:city": "Passau",
                    "addr:country": "DE",
                    "addr:housenumber": "4",
                    "addr:postcode": "94034",
                    "addr:street": "Waldschmidtstraße",
                    "contact:phone": "+49 851 4906257",
                    "email": "jenny.moosbauer.jm@gmail.com",
                    "female": "yes",
                    "male": "yes",
                    "name": "Hair - Fashion By Jenny",
                    "opening_hours": "Mo,PH off; Tu-Fr 09:00-17:00; Sa 09:00-13:00",
                    "operator": "Sabine Höng",
                    "payment:cash": "yes",
                    "payment:credit_cards": "no",
                    "payment:debit_cards": "no",
                    "payment:electronic_purses": "no",
                    "phone": "+49 851 4906257",
                    "shop": "hairdresser",
                    "unisex": "no"
                  },
                  "geometry": {
                    "type": "Point",
                    "coordinates": [
                      13.4785987,
                      48.5851441
                    ]
                  }
                },
                {
                  "type": "Feature",
                  "properties": {
                    "id": "895450265",
                    "osm_type": "node",
                    "lat": 48.5715495,
                    "lon": 13.4458722,
                    "name": "Salon Hafner",
                    "opening_hours": "Tu-Fr 08:15-17:30; Sa 08:00-12:30",
                    "phone": "+49 851 56842",
                    "shop": "hairdresser",
                    "wheelchair": "yes"
                  },
                  "geometry": {
                    "type": "Point",
                    "coordinates": [
                      13.4458722,
                      48.5715495
                    ]
                  }
                },
                {
                  "type": "Feature",
                  "properties": {
                    "id": "1769454079",
                    "osm_type": "node",
                    "lat": 48.5665824,
                    "lon": 13.4932158,
                    "name": "Ihr Friseur - Lisa Scharnböck",
                    "shop": "hairdresser"
                  },
                  "geometry": {
                    "type": "Point",
                    "coordinates": [
                      13.4932158,
                      48.5665824
                    ]
                  }
                },
                {
                  "type": "Feature",
                  "properties": {
                    "id": "2413642514",
                    "osm_type": "node",
                    "lat": 48.5756256,
                    "lon": 13.459777,
                    "addr:city": "Passau",
                    "addr:country": "DE",
                    "addr:housenumber": "12",
                    "addr:postcode": "94032",
                    "addr:street": "Roßtränke",
                    "check_date": "2024-02-27",
                    "name": "City-Haarstudio",
                    "opening_hours": "Tu-Fr 09:00-18:00, Sa 08:00-13:00",
                    "operator": "Manuela Lengauer",
                    "phone": "+49 851 34334",
                    "shop": "hairdresser"
                  },
                  "geometry": {
                    "type": "Point",
                    "coordinates": [
                      13.459777,
                      48.5756256
                    ]
                  }
                },
                {
                  "type": "Feature",
                  "properties": {
                    "id": "2414013293",
                    "osm_type": "node",
                    "lat": 48.5737908,
                    "lon": 13.4610507,
                    "addr:city": "Passau",
                    "addr:postcode": "94032",
                    "female": "yes",
                    "male": "yes",
                    "name": "Harrscharf Weiss",
                    "phone": "+49 851 2774",
                    "shop": "hairdresser",
                    "wheelchair": "no"
                  },
                  "geometry": {
                    "type": "Point",
                    "coordinates": [
                      13.4610507,
                      48.5737908
                    ]
                  }
                },
                {
                  "type": "Feature",
                  "properties": {
                    "id": "2821833943",
                    "osm_type": "node",
                    "lat": 48.5713496,
                    "lon": 13.4512778,
                    "addr:city": "Passau",
                    "addr:country": "DE",
                    "addr:housenumber": "32",
                    "addr:postcode": "94032",
                    "addr:street": "Neuburger Straße",
                    "name": "sm hair team",
                    "phone": "+49 851 55830",
                    "shop": "hairdresser",
                    "wheelchair": "no"
                  },
                  "geometry": {
                    "type": "Point",
                    "coordinates": [
                      13.4512778,
                      48.5713496
                    ]
                  }
                },
                {
                  "type": "Feature",
                  "properties": {
                    "id": "3000612753",
                    "osm_type": "node",
                    "lat": 48.5872186,
                    "lon": 13.3922083,
                    "name": "Mona lisa",
                    "phone": "+49 851 8516476",
                    "shop": "hairdresser",
                    "wheelchair": "no"
                  },
                  "geometry": {
                    "type": "Point",
                    "coordinates": [
                      13.3922083,
                      48.5872186
                    ]
                  }
                },
                {
                  "type": "Feature",
                  "properties": {
                    "id": "3002614382",
                    "osm_type": "node",
                    "lat": 48.5753927,
                    "lon": 13.3937039,
                    "check_date:opening_hours": "2025-02-03",
                    "female": "yes",
                    "male": "yes",
                    "name": "Salon Figaro",
                    "opening_hours": "Mo-Fr 08:00-18:00; Sa 08:30-12:30",
                    "phone": "+49 851 81406",
                    "shop": "hairdresser",
                    "source": "knowledge"
                  },
                  "geometry": {
                    "type": "Point",
                    "coordinates": [
                      13.3937039,
                      48.5753927
                    ]
                  }
                },
                {
                  "type": "Feature",
                  "properties": {
                    "id": "3002614425",
                    "osm_type": "node",
                    "lat": 48.5742006,
                    "lon": 13.3969081,
                    "female:signed": "no",
                    "male:signed": "no",
                    "name": "Haargenau",
                    "shop": "hairdresser",
                    "source": "knowledge",
                    "wheelchair": "limited"
                  },
                  "geometry": {
                    "type": "Point",
                    "coordinates": [
                      13.3969081,
                      48.5742006
                    ]
                  }
                },
                {
                  "type": "Feature",
                  "properties": {
                    "id": "3144080544",
                    "osm_type": "node",
                    "lat": 48.5711092,
                    "lon": 13.4382009,
                    "name": "Hairstyle",
                    "opening_hours": "Tu-Fr 08:30-18:00; Sa,Su 08:30-12:30",
                    "phone": "+49 851 4901025",
                    "shop": "hairdresser"
                  },
                  "geometry": {
                    "type": "Point",
                    "coordinates": [
                      13.4382009,
                      48.5711092
                    ]
                  }
                },
                {
                  "type": "Feature",
                  "properties": {
                    "id": "3144080545",
                    "osm_type": "node",
                    "lat": 48.5710368,
                    "lon": 13.4370984,
                    "female": "yes",
                    "male": "yes",
                    "name": "Natalie",
                    "opening_hours": "Tu-Fr 08:30-17:30; Sa 08:00-12:00",
                    "phone": "+49 851 51912",
                    "shop": "hairdresser"
                  },
                  "geometry": {
                    "type": "Point",
                    "coordinates": [
                      13.4370984,
                      48.5710368
                    ]
                  }
                },
                {
                  "type": "Feature",
                  "properties": {
                    "id": "3228638252",
                    "osm_type": "node",
                    "lat": 48.570399,
                    "lon": 13.4230572,
                    "name": "kamm in",
                    "opening_hours": "Tu,We 08:30-18:00; Th,Fr 8:30-19:00; Sa 08:30-14:00",
                    "phone": "+49 851 9667422",
                    "shop": "hairdresser",
                    "website": "https://www.kamm-in-passau.de/",
                    "wheelchair": "yes"
                  },
                  "geometry": {
                    "type": "Point",
                    "coordinates": [
                      13.4230572,
                      48.570399
                    ]
                  }
                },
                {
                  "type": "Feature",
                  "properties": {
                    "id": "3321144341",
                    "osm_type": "node",
                    "lat": 48.5746227,
                    "lon": 13.4576355,
                    "addr:city": "Passau",
                    "addr:country": "DE",
                    "addr:housenumber": "11",
                    "addr:postcode": "94032",
                    "addr:street": "Brunngasse",
                    "female": "yes",
                    "male": "yes",
                    "name": "Astrina-Hair & More",
                    "shop": "hairdresser"
                  },
                  "geometry": {
                    "type": "Point",
                    "coordinates": [
                      13.4576355,
                      48.5746227
                    ]
                  }
                },
                {
                  "type": "Feature",
                  "properties": {
                    "id": "3377827799",
                    "osm_type": "node",
                    "lat": 48.577581,
                    "lon": 13.4746173,
                    "addr:city": "Passau",
                    "addr:country": "DE",
                    "addr:housenumber": "2",
                    "addr:postcode": "94034",
                    "addr:street": "Freyunger Straße",
                    "email": "lothar.lang@haarstudio-lang.de",
                    "female:signed": "no",
                    "male:signed": "no",
                    "name": "Haarstudio Lang",
                    "phone": "+49 851 42974",
                    "shop": "hairdresser",
                    "website": "http://www.haarstudio-lang.de",
                    "wheelchair": "no"
                  },
                  "geometry": {
                    "type": "Point",
                    "coordinates": [
                      13.4746173,
                      48.577581
                    ]
                  }
                },
                {
                  "type": "Feature",
                  "properties": {
                    "id": "3519107941",
                    "osm_type": "node",
                    "lat": 48.571592,
                    "lon": 13.4582329,
                    "addr:city": "Passau",
                    "addr:country": "DE",
                    "addr:housenumber": "10",
                    "addr:postcode": "94032",
                    "addr:street": "Kleiner Exerzierplatz",
                    "name": "Schnittzone",
                    "shop": "hairdresser"
                  },
                  "geometry": {
                    "type": "Point",
                    "coordinates": [
                      13.4582329,
                      48.571592
                    ]
                  }
                },
                {
                  "type": "Feature",
                  "properties": {
                    "id": "3519610558",
                    "osm_type": "node",
                    "lat": 48.5724429,
                    "lon": 13.4572538,
                    "brand": "Hairkiller",
                    "brand:wikidata": "Q58305998",
                    "fixme": "Indoormapping",
                    "name": "Hairkiller",
                    "shop": "hairdresser"
                  },
                  "geometry": {
                    "type": "Point",
                    "coordinates": [
                      13.4572538,
                      48.5724429
                    ]
                  }
                },
                {
                  "type": "Feature",
                  "properties": {
                    "id": "3520464137",
                    "osm_type": "node",
                    "lat": 48.5735246,
                    "lon": 13.4613247,
                    "addr:city": "Passau",
                    "addr:postcode": "94032",
                    "fixme": "genaue Position",
                    "name": "Friseur Paradiso",
                    "phone": "+49 851 33393",
                    "shop": "hairdresser"
                  },
                  "geometry": {
                    "type": "Point",
                    "coordinates": [
                      13.4613247,
                      48.5735246
                    ]
                  }
                },
                {
                  "type": "Feature",
                  "properties": {
                    "id": "3520464138",
                    "osm_type": "node",
                    "lat": 48.5735897,
                    "lon": 13.4618782,
                    "fixme": "genaue Position",
                    "name": "Goldene Schere",
                    "phone": "+49 851 20 15 08 39",
                    "shop": "hairdresser"
                  },
                  "geometry": {
                    "type": "Point",
                    "coordinates": [
                      13.4618782,
                      48.5735897
                    ]
                  }
                },
                {
                  "type": "Feature",
                  "properties": {
                    "id": "3522195802",
                    "osm_type": "node",
                    "lat": 48.5749334,
                    "lon": 13.4607886,
                    "addr:city": "Passau",
                    "addr:country": "DE",
                    "addr:housenumber": "1",
                    "addr:postcode": "94032",
                    "addr:street": "Ludwigstraße",
                    "name": "Chaos Hairconcept",
                    "phone": "+49 851 9890877",
                    "shop": "hairdresser",
                    "wheelchair": "limited"
                  },
                  "geometry": {
                    "type": "Point",
                    "coordinates": [
                      13.4607886,
                      48.5749334
                    ]
                  }
                },
                {
                  "type": "Feature",
                  "properties": {
                    "id": "3522458480",
                    "osm_type": "node",
                    "lat": 48.5753769,
                    "lon": 13.4607996,
                    "addr:city": "Passau",
                    "addr:country": "DE",
                    "addr:housenumber": "2",
                    "addr:postcode": "94032",
                    "addr:street": "Heuwinkel",
                    "female:signed": "no",
                    "male:signed": "no",
                    "name": "Coiffeur Schaller",
                    "shop": "hairdresser"
                  },
                  "geometry": {
                    "type": "Point",
                    "coordinates": [
                      13.4607996,
                      48.5753769
                    ]
                  }
                },
                {
                  "type": "Feature",
                  "properties": {
                    "id": "3524348613",
                    "osm_type": "node",
                    "lat": 48.5742555,
                    "lon": 13.456125,
                    "addr:housenumber": "8",
                    "addr:street": "Bahnhofstraße",
                    "fixme": "genaue Position innerhalb Gebäude unbekannt",
                    "name": "Devil's Cut",
                    "shop": "hairdresser"
                  },
                  "geometry": {
                    "type": "Point",
                    "coordinates": [
                      13.456125,
                      48.5742555
                    ]
                  }
                },
                {
                  "type": "Feature",
                  "properties": {
                    "id": "3524362597",
                    "osm_type": "node",
                    "lat": 48.574311,
                    "lon": 13.4572132,
                    "addr:city": "Passau",
                    "addr:country": "DE",
                    "addr:housenumber": "4",
                    "addr:postcode": "94032",
                    "addr:street": "Ludwigsplatz",
                    "fax": "+49 851 756 84 27",
                    "female": "yes",
                    "male": "yes",
                    "name": "J-7 Hairstyling",
                    "opening_hours": "Tu-Fr 09:00-20:00; Sa 09:00-16:00",
                    "phone": "+49 851 756 84 26",
                    "shop": "hairdresser",
                    "website": "https://friseur-passau.j-7.de/"
                  },
                  "geometry": {
                    "type": "Point",
                    "coordinates": [
                      13.4572132,
                      48.574311
                    ]
                  }
                },
                {
                  "type": "Feature",
                  "properties": {
                    "id": "3526584162",
                    "osm_type": "node",
                    "lat": 48.5750735,
                    "lon": 13.4584734,
                    "addr:city": "Passau",
                    "addr:country": "DE",
                    "addr:housenumber": "13",
                    "addr:postcode": "94032",
                    "addr:street": "Große Klingergasse",
                    "female": "yes",
                    "male": "yes",
                    "shop": "hairdresser"
                  },
                  "geometry": {
                    "type": "Point",
                    "coordinates": [
                      13.4584734,
                      48.5750735
                    ]
                  }
                },
                {
                  "type": "Feature",
                  "properties": {
                    "id": "3531338297",
                    "osm_type": "node",
                    "lat": 48.5747089,
                    "lon": 13.4702639,
                    "addr:city": "Passau",
                    "addr:country": "DE",
                    "addr:housenumber": "4",
                    "addr:postcode": "94032",
                    "addr:street": "Michaeligasse",
                    "female": "yes",
                    "male": "yes",
                    "name": "Salon Susanne",
                    "opening_hours": "Tu-Fr 08:30-17:30; Sa 08:00-12:00",
                    "phone": "+49 851 2485",
                    "shop": "hairdresser",
                    "wheelchair": "no"
                  },
                  "geometry": {
                    "type": "Point",
                    "coordinates": [
                      13.4702639,
                      48.5747089
                    ]
                  }
                },
                {
                  "type": "Feature",
                  "properties": {
                    "id": "3533843765",
                    "osm_type": "node",
                    "lat": 48.5737653,
                    "lon": 13.4592765,
                    "addr:housenumber": "3",
                    "addr:street": "Heiliggeistgasse",
                    "fixme": "genaue Position innerhalb Häuserfront fehlt, Hausnummer evtl eins verschoben?!",
                    "name": "Ryf",
                    "opening_hours": "Mo-Fr 08:00-18:00; Sa 08:00-15:00",
                    "phone": "+49 851 33339",
                    "shop": "hairdresser"
                  },
                  "geometry": {
                    "type": "Point",
                    "coordinates": [
                      13.4592765,
                      48.5737653
                    ]
                  }
                },
                {
                  "type": "Feature",
                  "properties": {
                    "id": "3533900547",
                    "osm_type": "node",
                    "lat": 48.5739304,
                    "lon": 13.4576384,
                    "addr:city": "Passau",
                    "addr:country": "DE",
                    "addr:housenumber": "8",
                    "addr:postcode": "94032",
                    "addr:street": "Ludwigsplatz",
                    "check_date:opening_hours": "2024-02-24",
                    "email": "info@v1-friseur.de",
                    "female": "yes",
                    "male": "yes",
                    "name": "V1 Friseursalon & Barbershop",
                    "opening_hours:signed": "no",
                    "payment:cash": "yes",
                    "phone": "+49 851 85177477",
                    "shop": "hairdresser",
                    "website": "https://v1-friseur.de/"
                  },
                  "geometry": {
                    "type": "Point",
                    "coordinates": [
                      13.4576384,
                      48.5739304
                    ]
                  }
                },
                {
                  "type": "Feature",
                  "properties": {
                    "id": "3559450316",
                    "osm_type": "node",
                    "lat": 48.5730457,
                    "lon": 13.4561933,
                    "addr:city": "Passau",
                    "addr:country": "DE",
                    "addr:housenumber": "1",
                    "addr:postcode": "94032",
                    "addr:street": "Bahnhofstraße",
                    "level": "1",
                    "name": "Cut&Color",
                    "shop": "hairdresser"
                  },
                  "geometry": {
                    "type": "Point",
                    "coordinates": [
                      13.4561933,
                      48.5730457
                    ]
                  }
                },
                {
                  "type": "Feature",
                  "properties": {
                    "id": "4010228238",
                    "osm_type": "node",
                    "lat": 48.5693735,
                    "lon": 13.4546319,
                    "check_date:opening_hours": "2025-06-20",
                    "female": "yes",
                    "male": "yes",
                    "name": "Friseur extra",
                    "opening_hours": "Mo-We 10:00-15:00",
                    "shop": "hairdresser"
                  },
                  "geometry": {
                    "type": "Point",
                    "coordinates": [
                      13.4546319,
                      48.5693735
                    ]
                  }
                },
                {
                  "type": "Feature",
                  "properties": {
                    "id": "4753156704",
                    "osm_type": "node",
                    "lat": 48.5715153,
                    "lon": 13.4600382,
                    "check_date": "2024-06-08",
                    "female": "yes",
                    "level": "0",
                    "male": "yes",
                    "name": "Friseur Team AquaLine",
                    "operator": "Sabrina Hofmann",
                    "shop": "hairdresser",
                    "unisex": "yes",
                    "wheelchair": "yes"
                  },
                  "geometry": {
                    "type": "Point",
                    "coordinates": [
                      13.4600382,
                      48.5715153
                    ]
                  }
                },
                {
                  "type": "Feature",
                  "properties": {
                    "id": "4753260076",
                    "osm_type": "node",
                    "lat": 48.5720503,
                    "lon": 13.4589013,
                    "female": "yes",
                    "level": "0",
                    "male": "yes",
                    "name": "Aleks",
                    "opening_hours": "Th-Fr 09:00-20:00, Sa 09:00-16:00",
                    "shop": "hairdresser",
                    "wheelchair": "yes"
                  },
                  "geometry": {
                    "type": "Point",
                    "coordinates": [
                      13.4589013,
                      48.5720503
                    ]
                  }
                },
                {
                  "type": "Feature",
                  "properties": {
                    "id": "4753262166",
                    "osm_type": "node",
                    "lat": 48.5719565,
                    "lon": 13.4587795,
                    "female": "no",
                    "level": "0",
                    "male": "yes",
                    "name": "Für Ihn",
                    "shop": "hairdresser",
                    "unisex": "no",
                    "wheelchair": "yes"
                  },
                  "geometry": {
                    "type": "Point",
                    "coordinates": [
                      13.4587795,
                      48.5719565
                    ]
                  }
                },
                {
                  "type": "Feature",
                  "properties": {
                    "id": "4753262167",
                    "osm_type": "node",
                    "lat": 48.5712589,
                    "lon": 13.4576764,
                    "female": "yes",
                    "level": "0",
                    "name": "Salon Milano",
                    "opening_hours": "Tu-Fr 09:00-18:30; Sa 09:00-13:00",
                    "shop": "hairdresser"
                  },
                  "geometry": {
                    "type": "Point",
                    "coordinates": [
                      13.4576764,
                      48.5712589
                    ]
                  }
                },
                {
                  "type": "Feature",
                  "properties": {
                    "id": "4753332915",
                    "osm_type": "node",
                    "lat": 48.5744934,
                    "lon": 13.4562644,
                    "female": "yes",
                    "male": "yes",
                    "name": "Salam Haistyle",
                    "shop": "hairdresser",
                    "wheelchair": "yes"
                  },
                  "geometry": {
                    "type": "Point",
                    "coordinates": [
                      13.4562644,
                      48.5744934
                    ]
                  }
                },
                {
                  "type": "Feature",
                  "properties": {
                    "id": "4754698165",
                    "osm_type": "node",
                    "lat": 48.5748159,
                    "lon": 13.4574233,
                    "female": "yes",
                    "male": "yes",
                    "name": "Nibras",
                    "opening_hours": "PH,Su off; Mo-Fr 10:00-18:00; Sa 10:00-16:00",
                    "shop": "hairdresser"
                  },
                  "geometry": {
                    "type": "Point",
                    "coordinates": [
                      13.4574233,
                      48.5748159
                    ]
                  }
                },
                {
                  "type": "Feature",
                  "properties": {
                    "id": "7433810646",
                    "osm_type": "node",
                    "lat": 48.5736102,
                    "lon": 13.4211154,
                    "name": "Kopfgeldjäger",
                    "shop": "hairdresser",
                    "website": "https://www.kopfgeldjaegerin.de/"
                  },
                  "geometry": {
                    "type": "Point",
                    "coordinates": [
                      13.4211154,
                      48.5736102
                    ]
                  }
                },
                {
                  "type": "Feature",
                  "properties": {
                    "id": "8842436885",
                    "osm_type": "node",
                    "lat": 48.5750445,
                    "lon": 13.4025833,
                    "addr:city": "Passau",
                    "addr:country": "DE",
                    "addr:housenumber": "52",
                    "addr:postcode": "94036",
                    "addr:street": "Holzmannstraße",
                    "shop": "hairdresser"
                  },
                  "geometry": {
                    "type": "Point",
                    "coordinates": [
                      13.4025833,
                      48.5750445
                    ]
                  }
                },
                {
                  "type": "Feature",
                  "properties": {
                    "id": "9761248423",
                    "osm_type": "node",
                    "lat": 48.5851734,
                    "lon": 13.5003415,
                    "addr:city": "Passau",
                    "addr:country": "DE",
                    "addr:housenumber": "18",
                    "addr:postcode": "94034",
                    "addr:street": "Lindau",
                    "female": "yes",
                    "male": "yes",
                    "name": "Hairstyle Nicole",
                    "opening_hours": "\"Vereinbarung\"",
                    "operator": "Nicole Geier",
                    "shop": "hairdresser"
                  },
                  "geometry": {
                    "type": "Point",
                    "coordinates": [
                      13.5003415,
                      48.5851734
                    ]
                  }
                },
                {
                  "type": "Feature",
                  "properties": {
                    "id": "12271037525",
                    "osm_type": "node",
                    "lat": 48.5906948,
                    "lon": 13.4808243,
                    "addr:city": "Passau",
                    "addr:country": "DE",
                    "addr:housenumber": "15",
                    "addr:postcode": "94034",
                    "addr:street": "Englmeierstraße",
                    "contact:email": "haare@kopfgeldjaegerin.de",
                    "contact:facebook": "https://facebook.com/kopfgeldjaegerin/",
                    "contact:instagram": "https://www.instagram.com/kopfgeldjaegerin/",
                    "contact:phone": "+49 151 52151715",
                    "contact:website": "https://kopfgeldjaegerin.de/",
                    "contact:whatsapp": "004915152151715",
                    "email": "haare@kopfgeldjaegerin.de",
                    "female": "yes",
                    "male": "yes",
                    "name": "Kopfgeldjäger",
                    "opening_hours": "Tu-Fr 09:00-20:00 \"Termine nur nach Vereinbarung\"; PH off",
                    "operator": "Friseurmeisterin Marion Obermüller",
                    "phone": "+49 151 52151715",
                    "shop": "hairdresser",
                    "website": "https://kopfgeldjaegerin.de/"
                  },
                  "geometry": {
                    "type": "Point",
                    "coordinates": [
                      13.4808243,
                      48.5906948
                    ]
                  }
                },
                {
                  "type": "Feature",
                  "properties": {
                    "id": "12293814143",
                    "osm_type": "node",
                    "lat": 48.5749699,
                    "lon": 13.4588637,
                    "female": "yes",
                    "male": "yes",
                    "name": "Donauwelle",
                    "shop": "hairdresser",
                    "website": "https://donauwelle-passau.de/"
                  },
                  "geometry": {
                    "type": "Point",
                    "coordinates": [
                      13.4588637,
                      48.5749699
                    ]
                  }
                },
                {
                  "type": "Feature",
                  "properties": {
                    "id": "12361252468",
                    "osm_type": "node",
                    "lat": 48.5718163,
                    "lon": 13.449335,
                    "addr:city": "Passau",
                    "addr:country": "DE",
                    "addr:housenumber": "7",
                    "addr:postcode": "94032",
                    "addr:street": "Nibelungenstraße",
                    "hairdresser": "barber",
                    "name": "H&A Barbershop",
                    "phone": "+49 851 78410231",
                    "shop": "hairdresser"
                  },
                  "geometry": {
                    "type": "Point",
                    "coordinates": [
                      13.449335,
                      48.5718163
                    ]
                  }
                },
                {
                  "type": "Feature",
                  "properties": {
                    "id": "457471260",
                    "osm_type": "node",
                    "lat": 48.5930119,
                    "lon": 13.5523967,
                    "shop": "hairdresser",
                    "wheelchair": "yes"
                  },
                  "geometry": {
                    "type": "Point",
                    "coordinates": [
                      13.5523967,
                      48.5930119
                    ]
                  }
                },
                {
                  "type": "Feature",
                  "properties": {
                    "id": "4352437089",
                    "osm_type": "node",
                    "lat": 48.5933423,
                    "lon": 13.5529217,
                    "shop": "hairdresser"
                  },
                  "geometry": {
                    "type": "Point",
                    "coordinates": [
                      13.5529217,
                      48.5933423
                    ]
                  }
                }
              ],
              "children": []
            },
            {
              "bbox": {
                "south": 48.521248125,
                "west": 13.584191874999998,
                "north": 48.603886437499995,
                "east": 13.82261775
              },
              "poiCount": 3,
              "leafCount": 3,
              "averagePosition": [
                13.7372338,
                48.56790023333334
              ],
              "data": [
                {
                  "type": "Feature",
                  "properties": {
                    "id": "4326781760",
                    "osm_type": "node",
                    "lat": 48.528866,
                    "lon": 13.7538553,
                    "name": "Friseur Team Sandra",
                    "opening_hours": "Mo 08:00-18:00; Tu off; We 08:00-13:00; Th 08:00-19:00; Fr 08:00-20:00; Sa 08:00-13:00",
                    "shop": "hairdresser"
                  },
                  "geometry": {
                    "type": "Point",
                    "coordinates": [
                      13.7538553,
                      48.528866
                    ]
                  }
                },
                {
                  "type": "Feature",
                  "properties": {
                    "id": "10260824084",
                    "osm_type": "node",
                    "lat": 48.6013938,
                    "lon": 13.7891817,
                    "shop": "hairdresser"
                  },
                  "geometry": {
                    "type": "Point",
                    "coordinates": [
                      13.7891817,
                      48.6013938
                    ]
                  }
                },
                {
                  "type": "Feature",
                  "properties": {
                    "id": "11782383437",
                    "osm_type": "node",
                    "lat": 48.5734409,
                    "lon": 13.6686644,
                    "female": "yes",
                    "male": "yes",
                    "name": "Friseursalon Knollmüller",
                    "opening_hours": "Tu 08:00-17:30; We 08:00-12:00; Th 08:00-17:30; Fr 08:00-17:30; Sa 08:00-12:00",
                    "shop": "hairdresser"
                  },
                  "geometry": {
                    "type": "Point",
                    "coordinates": [
                      13.6686644,
                      48.5734409
                    ]
                  }
                }
              ],
              "children": []
            },
            {
              "bbox": {
                "south": 48.603886437499995,
                "west": 13.345766,
                "north": 48.68652475,
                "east": 13.584191874999998
              },
              "poiCount": 6,
              "leafCount": 6,
              "averagePosition": [
                13.442013616666665,
                48.641010816666665
              ],
              "data": [
                {
                  "type": "Feature",
                  "properties": {
                    "id": "2536830167",
                    "osm_type": "node",
                    "lat": 48.621036,
                    "lon": 13.4779634,
                    "addr:city": "Salzweg",
                    "addr:housenumber": "1c",
                    "addr:postcode": "94121",
                    "addr:street": "Jägeröd",
                    "shop": "hairdresser"
                  },
                  "geometry": {
                    "type": "Point",
                    "coordinates": [
                      13.4779634,
                      48.621036
                    ]
                  }
                },
                {
                  "type": "Feature",
                  "properties": {
                    "id": "3546480553",
                    "osm_type": "node",
                    "lat": 48.6531959,
                    "lon": 13.4085731,
                    "addr:city": "Ruderting",
                    "addr:country": "DE",
                    "addr:housenumber": "20",
                    "addr:postcode": "94161",
                    "addr:street": "Passauer Straße",
                    "name": "Friseursalon Traudi Kolbeck",
                    "phone": "+4985093658",
                    "shop": "hairdresser"
                  },
                  "geometry": {
                    "type": "Point",
                    "coordinates": [
                      13.4085731,
                      48.6531959
                    ]
                  }
                },
                {
                  "type": "Feature",
                  "properties": {
                    "id": "3546480554",
                    "osm_type": "node",
                    "lat": 48.6538573,
                    "lon": 13.4085751,
                    "addr:city": "Ruderting",
                    "addr:country": "DE",
                    "addr:housenumber": "17",
                    "addr:postcode": "94161",
                    "addr:street": "Passauer Straße",
                    "name": "Haaryurveda Naturfriseur",
                    "operator": "Diana Stockbauer",
                    "phone": "+498509935994",
                    "shop": "hairdresser",
                    "website": "https://www.haaryurveda.de/"
                  },
                  "geometry": {
                    "type": "Point",
                    "coordinates": [
                      13.4085751,
                      48.6538573
                    ]
                  }
                },
                {
                  "type": "Feature",
                  "properties": {
                    "id": "3546480555",
                    "osm_type": "node",
                    "lat": 48.6541372,
                    "lon": 13.4076125,
                    "addr:city": "Ruderting",
                    "addr:country": "DE",
                    "addr:housenumber": "11",
                    "addr:postcode": "94161",
                    "addr:street": "Passauer Straße",
                    "name": "Hair Lounge by Michaela",
                    "phone": "+49 (0)8509 9397122",
                    "shop": "hairdresser"
                  },
                  "geometry": {
                    "type": "Point",
                    "coordinates": [
                      13.4076125,
                      48.6541372
                    ]
                  }
                },
                {
                  "type": "Feature",
                  "properties": {
                    "id": "3607212895",
                    "osm_type": "node",
                    "lat": 48.6506956,
                    "lon": 13.411549,
                    "name": "Salon Stolper",
                    "opening_hours": "Tu-Fr 08:30-18:00; Sa 08:30-12:00; Mo off",
                    "phone": "+49 8509 677",
                    "shop": "hairdresser"
                  },
                  "geometry": {
                    "type": "Point",
                    "coordinates": [
                      13.411549,
                      48.6506956
                    ]
                  }
                },
                {
                  "type": "Feature",
                  "properties": {
                    "id": "603143248",
                    "osm_type": "node",
                    "lat": 48.6131429,
                    "lon": 13.5378086,
                    "addr:city": "Thyrnau",
                    "addr:country": "DE",
                    "addr:housenumber": "35",
                    "addr:postcode": "94136",
                    "addr:street": "Hofmarkstraße",
                    "name": "Haarscharf",
                    "shop": "hairdresser",
                    "wheelchair": "limited"
                  },
                  "geometry": {
                    "type": "Point",
                    "coordinates": [
                      13.5378086,
                      48.6131429
                    ]
                  }
                }
              ],
              "children": []
            },
            {
              "bbox": {
                "south": 48.603886437499995,
                "west": 13.584191874999998,
                "north": 48.68652475,
                "east": 13.82261775
              },
              "poiCount": 1,
              "leafCount": 1,
              "averagePosition": [
                13.5922226,
                48.6121228
              ],
              "data": [
                {
                  "type": "Feature",
                  "properties": {
                    "id": "1822858272",
                    "osm_type": "node",
                    "lat": 48.6121228,
                    "lon": 13.5922226,
                    "name": "Kathrin´s Hairstyle",
                    "shop": "hairdresser",
                    "wheelchair": "no"
                  },
                  "geometry": {
                    "type": "Point",
                    "coordinates": [
                      13.5922226,
                      48.6121228
                    ]
                  }
                }
              ],
              "children": []
            }
          ]
        },
        {
          "bbox": {
            "south": 48.521248125,
            "west": 13.82261775,
            "north": 48.68652475,
            "east": 14.2994695
          },
          "poiCount": 6,
          "leafCount": 6,
          "averagePosition": [
            14.108175616666665,
            48.57419553333333
          ],
          "data": [
            {
              "type": "Feature",
              "properties": {
                "id": "3031363611",
                "osm_type": "node",
                "lat": 48.6747719,
                "lon": 13.9119824,
                "name": "Hair Style Andrea",
                "phone": "+43728867267",
                "shop": "hairdresser",
                "website": "https://hairstyle-andrea.stadtausstellung.at/home"
              },
              "geometry": {
                "type": "Point",
                "coordinates": [
                  13.9119824,
                  48.6747719
                ]
              }
            },
            {
              "type": "Feature",
              "properties": {
                "id": "475763273",
                "osm_type": "node",
                "lat": 48.5447005,
                "lon": 14.143626,
                "addr:city": "Helfenberg",
                "addr:housenumber": "15",
                "addr:postcode": "4184",
                "addr:street": "Leonfelder Straße",
                "email": "schoenes@kumhair.at",
                "fax": "+43 7216 20 507 13",
                "name": "kumhair",
                "opening_hours": "Tu 08:00-18:00, We 08:00-14:00, Th 08:00-18:00, Fr 08:00-18:00, Sa 08:00-13:00",
                "phone": "+43 7216 20 507",
                "shop": "hairdresser",
                "website": "http://www.kumhair.at"
              },
              "geometry": {
                "type": "Point",
                "coordinates": [
                  14.143626,
                  48.5447005
                ]
              }
            },
            {
              "type": "Feature",
              "properties": {
                "id": "618293810",
                "osm_type": "node",
                "lat": 48.5223738,
                "lon": 14.2931792,
                "addr:city": "Bad Leonfelden",
                "addr:country": "AT",
                "addr:housenumber": "32",
                "addr:postcode": "4190",
                "addr:street": "Hauptplatz",
                "name": "Pfleger-Reiter",
                "shop": "hairdresser"
              },
              "geometry": {
                "type": "Point",
                "coordinates": [
                  14.2931792,
                  48.5223738
                ]
              }
            },
            {
              "type": "Feature",
              "properties": {
                "id": "3315585836",
                "osm_type": "node",
                "lat": 48.5751807,
                "lon": 14.0405619,
                "shop": "hairdresser"
              },
              "geometry": {
                "type": "Point",
                "coordinates": [
                  14.0405619,
                  48.5751807
                ]
              }
            },
            {
              "type": "Feature",
              "properties": {
                "id": "3315610731",
                "osm_type": "node",
                "lat": 48.575353,
                "lon": 14.0416006,
                "shop": "hairdresser"
              },
              "geometry": {
                "type": "Point",
                "coordinates": [
                  14.0416006,
                  48.575353
                ]
              }
            },
            {
              "type": "Feature",
              "properties": {
                "id": "4210340371",
                "osm_type": "node",
                "lat": 48.5527933,
                "lon": 14.2181036,
                "addr:city": "Vorderweißenbach",
                "addr:country": "AT",
                "addr:housenumber": "17",
                "addr:postcode": "4191",
                "addr:street": "Hauptstraße",
                "name": "Haargenau Birgit",
                "shop": "hairdresser"
              },
              "geometry": {
                "type": "Point",
                "coordinates": [
                  14.2181036,
                  48.5527933
                ]
              }
            }
          ],
          "children": []
        }
      ]
    },
    {
      "bbox": {
        "south": 48.355971499999995,
        "west": 14.2994695,
        "north": 48.68652475,
        "east": 15.253173
      },
      "poiCount": 47,
      "leafCount": 47,
      "averagePosition": [
        14.91126625319149,
        48.49482632978724
      ],
      "data": [
        {
          "type": "Feature",
          "properties": {
            "id": "60116286",
            "osm_type": "node",
            "lat": 48.3672074,
            "lon": 14.516875,
            "addr:city": "Hagenberg im Mühlkreis",
            "addr:housenumber": "90",
            "addr:postcode": "4232",
            "addr:street": "Hauptstraße",
            "email": "hagenberg@struwelliese.at",
            "level": "1",
            "name": "Struwelliese Friseure",
            "opening_hours": "Tu-Fr 09:00-18:00; Sa 08:00-13:00",
            "operator": "Struwelliese Friseure GmbH",
            "payment:cash": "yes",
            "payment:credit_cards": "yes",
            "payment:debit_cards": "yes",
            "phone": "+43 7236 20858",
            "ref:vatin": "ATU63810237",
            "shop": "hairdresser",
            "website": "https://www.struwelliese.com",
            "wheelchair": "limited"
          },
          "geometry": {
            "type": "Point",
            "coordinates": [
              14.516875,
              48.3672074
            ]
          }
        },
        {
          "type": "Feature",
          "properties": {
            "id": "60116289",
            "osm_type": "node",
            "lat": 48.3669596,
            "lon": 14.5177595,
            "addr:city": "Hagenberg",
            "addr:country": "AT",
            "addr:postcode": "4232",
            "addr:street": "Hauptstraße",
            "female": "yes",
            "male": "yes",
            "name": "Salon Zauner",
            "shop": "hairdresser",
            "wheelchair": "no"
          },
          "geometry": {
            "type": "Point",
            "coordinates": [
              14.5177595,
              48.3669596
            ]
          }
        },
        {
          "type": "Feature",
          "properties": {
            "id": "3773406774",
            "osm_type": "node",
            "lat": 48.3649573,
            "lon": 15.1181696,
            "name": "Andrea Pecksteiner",
            "shop": "hairdresser"
          },
          "geometry": {
            "type": "Point",
            "coordinates": [
              15.1181696,
              48.3649573
            ]
          }
        },
        {
          "type": "Feature",
          "properties": {
            "id": "3773406775",
            "osm_type": "node",
            "lat": 48.3637422,
            "lon": 15.1175122,
            "name": "Peter Vogler",
            "shop": "hairdresser"
          },
          "geometry": {
            "type": "Point",
            "coordinates": [
              15.1175122,
              48.3637422
            ]
          }
        },
        {
          "type": "Feature",
          "properties": {
            "id": "1284492765",
            "osm_type": "node",
            "lat": 48.5035294,
            "lon": 14.3609975,
            "name": "Friseursalon Karola",
            "shop": "hairdresser"
          },
          "geometry": {
            "type": "Point",
            "coordinates": [
              14.3609975,
              48.5035294
            ]
          }
        },
        {
          "type": "Feature",
          "properties": {
            "id": "1545716977",
            "osm_type": "node",
            "lat": 48.5124013,
            "lon": 14.5051418,
            "name": "Elisabeth",
            "shop": "hairdresser"
          },
          "geometry": {
            "type": "Point",
            "coordinates": [
              14.5051418,
              48.5124013
            ]
          }
        },
        {
          "type": "Feature",
          "properties": {
            "id": "1943879083",
            "osm_type": "node",
            "lat": 48.4919594,
            "lon": 14.5026058,
            "addr:housenumber": "1",
            "addr:postcode": "4240",
            "addr:street": "Etrichstraße",
            "name": "Haarmanufaktur",
            "shop": "hairdresser",
            "website": "https://www.facebook.com/haarmanufaktur.freistadt"
          },
          "geometry": {
            "type": "Point",
            "coordinates": [
              14.5026058,
              48.4919594
            ]
          }
        },
        {
          "type": "Feature",
          "properties": {
            "id": "5000611418",
            "osm_type": "node",
            "lat": 48.5111771,
            "lon": 14.5020939,
            "addr:city": "Freistadt",
            "addr:country": "AT",
            "addr:housenumber": "24",
            "addr:postcode": "4240",
            "addr:street": "Pfarrgasse",
            "name": "Salon Regina",
            "opening_hours": "Tu-Fr 08:00-12:00,13:30-18:00; Sa 07:30-12:30",
            "phone": "+43 7942 72109",
            "shop": "hairdresser",
            "unisex": "yes"
          },
          "geometry": {
            "type": "Point",
            "coordinates": [
              14.5020939,
              48.5111771
            ]
          }
        },
        {
          "type": "Feature",
          "properties": {
            "id": "5112286479",
            "osm_type": "node",
            "lat": 48.5128812,
            "lon": 14.5052004,
            "name": "Friseur Steininger",
            "operator": "Ferdinand Steininger",
            "shop": "hairdresser"
          },
          "geometry": {
            "type": "Point",
            "coordinates": [
              14.5052004,
              48.5128812
            ]
          }
        },
        {
          "type": "Feature",
          "properties": {
            "id": "13038716072",
            "osm_type": "node",
            "lat": 48.5109565,
            "lon": 14.5041685,
            "addr:city": "Freistadt",
            "addr:housenumber": "3",
            "addr:postcode": "4240",
            "addr:street": "Pfarrgasse",
            "hairdresser": "barber",
            "shop": "hairdresser"
          },
          "geometry": {
            "type": "Point",
            "coordinates": [
              14.5041685,
              48.5109565
            ]
          }
        },
        {
          "type": "Feature",
          "properties": {
            "id": "323222572",
            "osm_type": "node",
            "lat": 48.4159957,
            "lon": 14.6122167,
            "addr:city": "Gutau",
            "addr:housenumber": "3",
            "addr:postcode": "4293",
            "addr:street": "Pregartenerstraße",
            "name": "Friseur Mayr",
            "shop": "hairdresser",
            "wheelchair": "no"
          },
          "geometry": {
            "type": "Point",
            "coordinates": [
              14.6122167,
              48.4159957
            ]
          }
        },
        {
          "type": "Feature",
          "properties": {
            "id": "901544102",
            "osm_type": "node",
            "lat": 48.5321432,
            "lon": 14.8095404,
            "name": "Salon Gerlinde",
            "shop": "hairdresser"
          },
          "geometry": {
            "type": "Point",
            "coordinates": [
              14.8095404,
              48.5321432
            ]
          }
        },
        {
          "type": "Feature",
          "properties": {
            "id": "1604789829",
            "osm_type": "node",
            "lat": 48.4432435,
            "lon": 14.6780687,
            "name": "Frisör Ilse",
            "shop": "hairdresser"
          },
          "geometry": {
            "type": "Point",
            "coordinates": [
              14.6780687,
              48.4432435
            ]
          }
        },
        {
          "type": "Feature",
          "properties": {
            "id": "3429243306",
            "osm_type": "node",
            "lat": 48.6035053,
            "lon": 14.9087547,
            "addr:city": "Groß Gerungs",
            "addr:country": "AT",
            "addr:housenumber": "17",
            "addr:place": "Siebenberg",
            "addr:postcode": "3920",
            "name": "Hairstyle Natascha",
            "shop": "hairdresser",
            "website": "http://www.hairstyle-natascha.at"
          },
          "geometry": {
            "type": "Point",
            "coordinates": [
              14.9087547,
              48.6035053
            ]
          }
        },
        {
          "type": "Feature",
          "properties": {
            "id": "3429803279",
            "osm_type": "node",
            "lat": 48.574096,
            "lon": 14.9567958,
            "name": "Raab, Herren und Damenfriseur",
            "shop": "hairdresser"
          },
          "geometry": {
            "type": "Point",
            "coordinates": [
              14.9567958,
              48.574096
            ]
          }
        },
        {
          "type": "Feature",
          "properties": {
            "id": "3459633324",
            "osm_type": "node",
            "lat": 48.5756981,
            "lon": 14.8828822,
            "name": "Frisiersalon - Gerlinde Punz",
            "shop": "hairdresser"
          },
          "geometry": {
            "type": "Point",
            "coordinates": [
              14.8828822,
              48.5756981
            ]
          }
        },
        {
          "type": "Feature",
          "properties": {
            "id": "3686925374",
            "osm_type": "node",
            "lat": 48.5020352,
            "lon": 14.9597915,
            "addr:city": "Arbesbach",
            "addr:housenumber": "4",
            "addr:place": "Kamp",
            "addr:postcode": "3925",
            "name": "Haarstube Regina",
            "shop": "hairdresser"
          },
          "geometry": {
            "type": "Point",
            "coordinates": [
              14.9597915,
              48.5020352
            ]
          }
        },
        {
          "type": "Feature",
          "properties": {
            "id": "3918611659",
            "osm_type": "node",
            "lat": 48.4080804,
            "lon": 14.840996,
            "name": "Frisör  Monika Schraml",
            "shop": "hairdresser"
          },
          "geometry": {
            "type": "Point",
            "coordinates": [
              14.840996,
              48.4080804
            ]
          }
        },
        {
          "type": "Feature",
          "properties": {
            "id": "4330937159",
            "osm_type": "node",
            "lat": 48.435197,
            "lon": 14.7824646,
            "name": "Sigis Frisureneck",
            "shop": "hairdresser"
          },
          "geometry": {
            "type": "Point",
            "coordinates": [
              14.7824646,
              48.435197
            ]
          }
        },
        {
          "type": "Feature",
          "properties": {
            "id": "5231161119",
            "osm_type": "node",
            "lat": 48.439334,
            "lon": 14.5376587,
            "addr:city": "Kefermarkt",
            "addr:housenumber": "3",
            "addr:postcode": "4292",
            "addr:street": "Am Bahnhof",
            "name": "Schnittpunkt Lisa",
            "shop": "hairdresser"
          },
          "geometry": {
            "type": "Point",
            "coordinates": [
              14.5376587,
              48.439334
            ]
          }
        },
        {
          "type": "Feature",
          "properties": {
            "id": "6612623714",
            "osm_type": "node",
            "lat": 48.5380863,
            "lon": 14.5363451,
            "addr:city": "Grünbach bei Freistadt",
            "addr:housenumber": "9",
            "addr:postcode": "4264",
            "addr:street": "Marktplatz",
            "name": "Salon Sabine Haar JuWel",
            "opening_hours": "Tu,We,Fr,Sa 08:00-12:00, Tu-We 14:00-18:00, Fr 13:00-19:00; PH off",
            "operator": "Sabine Pilgerstorfer",
            "phone": "+43 7942 77888",
            "shop": "hairdresser"
          },
          "geometry": {
            "type": "Point",
            "coordinates": [
              14.5363451,
              48.5380863
            ]
          }
        },
        {
          "type": "Feature",
          "properties": {
            "id": "9969545768",
            "osm_type": "node",
            "lat": 48.4602104,
            "lon": 14.9597971,
            "name": "Haar Zauber Lisi Stiedl Elisabeth",
            "shop": "hairdresser"
          },
          "geometry": {
            "type": "Point",
            "coordinates": [
              14.9597971,
              48.4602104
            ]
          }
        },
        {
          "type": "Feature",
          "properties": {
            "id": "9969999273",
            "osm_type": "node",
            "lat": 48.4603076,
            "lon": 14.9611588,
            "name": "Manuela Stiedl",
            "shop": "hairdresser"
          },
          "geometry": {
            "type": "Point",
            "coordinates": [
              14.9611588,
              48.4603076
            ]
          }
        },
        {
          "type": "Feature",
          "properties": {
            "id": "10075166703",
            "osm_type": "node",
            "lat": 48.4199226,
            "lon": 14.6067803,
            "addr:city": "Gutau",
            "addr:housenumber": "15",
            "addr:postcode": "4293",
            "addr:street": "Kefermarkterstraße",
            "name": "Haarstudio Krennbauer Edith",
            "shop": "hairdresser"
          },
          "geometry": {
            "type": "Point",
            "coordinates": [
              14.6067803,
              48.4199226
            ]
          }
        },
        {
          "type": "Feature",
          "properties": {
            "id": "10857946466",
            "osm_type": "node",
            "lat": 48.5312525,
            "lon": 14.8021805,
            "name": "Primetzhofer Bettina - (mobile) Friseurin",
            "shop": "hairdresser"
          },
          "geometry": {
            "type": "Point",
            "coordinates": [
              14.8021805,
              48.5312525
            ]
          }
        },
        {
          "type": "Feature",
          "properties": {
            "id": "11417643924",
            "osm_type": "node",
            "lat": 48.4083113,
            "lon": 14.8331964,
            "name": "Sabina Irmgard Köck",
            "shop": "hairdresser"
          },
          "geometry": {
            "type": "Point",
            "coordinates": [
              14.8331964,
              48.4083113
            ]
          }
        },
        {
          "type": "Feature",
          "properties": {
            "id": "11417674972",
            "osm_type": "node",
            "lat": 48.3991603,
            "lon": 14.8369283,
            "name": "Evelyn Schaurhofer",
            "shop": "hairdresser"
          },
          "geometry": {
            "type": "Point",
            "coordinates": [
              14.8369283,
              48.3991603
            ]
          }
        },
        {
          "type": "Feature",
          "properties": {
            "id": "3215883161",
            "osm_type": "node",
            "lat": 48.604404,
            "lon": 15.1874012,
            "addr:city": "Zwettl",
            "addr:housenumber": "1",
            "addr:postcode": "3910",
            "addr:street": "Franz Eigl-Straße",
            "name": "Haarwunderland",
            "operator": "Kerstin Zwölfer",
            "shop": "hairdresser"
          },
          "geometry": {
            "type": "Point",
            "coordinates": [
              15.1874012,
              48.604404
            ]
          }
        },
        {
          "type": "Feature",
          "properties": {
            "id": "3859605747",
            "osm_type": "node",
            "lat": 48.4555525,
            "lon": 15.0399135,
            "addr:city": "Schönbach",
            "addr:country": "AT",
            "addr:housenumber": "40",
            "addr:place": "Schönbach",
            "addr:postcode": "3633",
            "name": "Moser Michaela",
            "shop": "hairdresser"
          },
          "geometry": {
            "type": "Point",
            "coordinates": [
              15.0399135,
              48.4555525
            ]
          }
        },
        {
          "type": "Feature",
          "properties": {
            "id": "4148704156",
            "osm_type": "node",
            "lat": 48.4333186,
            "lon": 15.1204839,
            "name": "Friseur Fichtinger Nikola",
            "shop": "hairdresser"
          },
          "geometry": {
            "type": "Point",
            "coordinates": [
              15.1204839,
              48.4333186
            ]
          }
        },
        {
          "type": "Feature",
          "properties": {
            "id": "4325945444",
            "osm_type": "node",
            "lat": 48.4244011,
            "lon": 15.2199376,
            "female": "yes",
            "male": "yes",
            "name": "Meisterklasse Frisör Holzer",
            "opening_hours": "Tu-Fr 07:30-12:00,13:30-18:00; Sa 07:30-13:00",
            "shop": "hairdresser"
          },
          "geometry": {
            "type": "Point",
            "coordinates": [
              15.2199376,
              48.4244011
            ]
          }
        },
        {
          "type": "Feature",
          "properties": {
            "id": "4335539124",
            "osm_type": "node",
            "lat": 48.4214769,
            "lon": 15.2231573,
            "addr:city": "Ottenschlag",
            "addr:housenumber": "10",
            "addr:postcode": "3631",
            "addr:street": "Wachaustraße",
            "name": "Petra Styling Plus",
            "shop": "hairdresser"
          },
          "geometry": {
            "type": "Point",
            "coordinates": [
              15.2231573,
              48.4214769
            ]
          }
        },
        {
          "type": "Feature",
          "properties": {
            "id": "4639585952",
            "osm_type": "node",
            "lat": 48.5216728,
            "lon": 15.079613,
            "name": "Friseur Frissan, Feßl Annemarie",
            "shop": "hairdresser"
          },
          "geometry": {
            "type": "Point",
            "coordinates": [
              15.079613,
              48.5216728
            ]
          }
        },
        {
          "type": "Feature",
          "properties": {
            "id": "5062095362",
            "osm_type": "node",
            "lat": 48.6043901,
            "lon": 15.1678604,
            "addr:city": "Zwettl-Niederösterreich",
            "addr:housenumber": "5",
            "addr:postcode": "3910",
            "addr:street": "Hauptplatz",
            "name": "Magic Hair",
            "payment:cash": "yes",
            "payment:credit_cards": "yes",
            "phone": "+43282254454",
            "shop": "hairdresser",
            "website": "https://www.friseurmagichair.at/"
          },
          "geometry": {
            "type": "Point",
            "coordinates": [
              15.1678604,
              48.6043901
            ]
          }
        },
        {
          "type": "Feature",
          "properties": {
            "id": "5062141765",
            "osm_type": "node",
            "lat": 48.6005457,
            "lon": 15.1861596,
            "name": "dm Friseur- und Kosmetikstudio",
            "shop": "hairdresser",
            "website": "https://www.dm-drogeriemarkt.at/"
          },
          "geometry": {
            "type": "Point",
            "coordinates": [
              15.1861596,
              48.6005457
            ]
          }
        },
        {
          "type": "Feature",
          "properties": {
            "id": "5076668474",
            "osm_type": "node",
            "lat": 48.6027958,
            "lon": 15.1673054,
            "addr:city": "Zwettl-Niederösterreich",
            "addr:country": "AT",
            "addr:housenumber": "1",
            "addr:postcode": "3910",
            "addr:street": "Promenade",
            "at_bev:addr_date": "2023-04-15",
            "name": "Figaro",
            "shop": "hairdresser"
          },
          "geometry": {
            "type": "Point",
            "coordinates": [
              15.1673054,
              48.6027958
            ]
          }
        },
        {
          "type": "Feature",
          "properties": {
            "id": "5078451067",
            "osm_type": "node",
            "lat": 48.6012033,
            "lon": 15.1876905,
            "addr:city": "Zwettl",
            "addr:housenumber": "8",
            "addr:postcode": "3910",
            "addr:street": "Andre Freyskorn-Straße",
            "brand": "Klier",
            "brand:wikidata": "Q1465159",
            "check_date": "2023-05-21",
            "name": "Klier",
            "opening_hours": "Mo-Fr 08:30-18:00; Sa 07:00-14:00",
            "operator": "Frisör Klier GmbH",
            "phone": "+43 2822 34 023",
            "shop": "hairdresser"
          },
          "geometry": {
            "type": "Point",
            "coordinates": [
              15.1876905,
              48.6012033
            ]
          }
        },
        {
          "type": "Feature",
          "properties": {
            "id": "5431034000",
            "osm_type": "node",
            "lat": 48.6255261,
            "lon": 15.1144406,
            "name": "Haarstudio Sabine",
            "shop": "hairdresser"
          },
          "geometry": {
            "type": "Point",
            "coordinates": [
              15.1144406,
              48.6255261
            ]
          }
        },
        {
          "type": "Feature",
          "properties": {
            "id": "5890774360",
            "osm_type": "node",
            "lat": 48.5356643,
            "lon": 15.1910262,
            "name": "Edlinger Sandra - Friseurmeisterin",
            "shop": "hairdresser"
          },
          "geometry": {
            "type": "Point",
            "coordinates": [
              15.1910262,
              48.5356643
            ]
          }
        },
        {
          "type": "Feature",
          "properties": {
            "id": "6178595966",
            "osm_type": "node",
            "lat": 48.539358,
            "lon": 15.0815314,
            "name": "Hermine Maria Doubek",
            "shop": "hairdresser"
          },
          "geometry": {
            "type": "Point",
            "coordinates": [
              15.0815314,
              48.539358
            ]
          }
        },
        {
          "type": "Feature",
          "properties": {
            "id": "7977016154",
            "osm_type": "node",
            "lat": 48.4491065,
            "lon": 15.2091772,
            "addr:city": "Sallingberg",
            "addr:country": "AT",
            "addr:housenumber": "2",
            "addr:place": "Armschlag",
            "addr:postcode": "3525",
            "name": "Frisiersalon Kathi",
            "operator": "Katharina Herndler",
            "phone": "06648664148",
            "shop": "hairdresser"
          },
          "geometry": {
            "type": "Point",
            "coordinates": [
              15.2091772,
              48.4491065
            ]
          }
        },
        {
          "type": "Feature",
          "properties": {
            "id": "7977016155",
            "osm_type": "node",
            "lat": 48.4647013,
            "lon": 15.2354075,
            "name": "Friseur, Herren, Franz Schnaitt",
            "shop": "hairdresser"
          },
          "geometry": {
            "type": "Point",
            "coordinates": [
              15.2354075,
              48.4647013
            ]
          }
        },
        {
          "type": "Feature",
          "properties": {
            "id": "8257796642",
            "osm_type": "node",
            "lat": 48.5004117,
            "lon": 15.1758903,
            "name": "Frisör - \"Die Haarmacherin\"",
            "shop": "hairdresser"
          },
          "geometry": {
            "type": "Point",
            "coordinates": [
              15.1758903,
              48.5004117
            ]
          }
        },
        {
          "type": "Feature",
          "properties": {
            "id": "8257796643",
            "osm_type": "node",
            "lat": 48.4970339,
            "lon": 15.146005,
            "name": "Frisör - \"Zur Margit\"",
            "shop": "hairdresser"
          },
          "geometry": {
            "type": "Point",
            "coordinates": [
              15.146005,
              48.4970339
            ]
          }
        },
        {
          "type": "Feature",
          "properties": {
            "id": "8338481116",
            "osm_type": "node",
            "lat": 48.6674319,
            "lon": 15.0632997,
            "name": "Salon Sandra",
            "shop": "hairdresser"
          },
          "geometry": {
            "type": "Point",
            "coordinates": [
              15.0632997,
              48.6674319
            ]
          }
        },
        {
          "type": "Feature",
          "properties": {
            "id": "11565323978",
            "osm_type": "node",
            "lat": 48.44905,
            "lon": 15.2091785,
            "addr:city": "Sallingberg",
            "addr:country": "AT",
            "addr:housenumber": "2",
            "addr:place": "Armschlag",
            "addr:postcode": "3525",
            "phone": "06802047866",
            "shop": "hairdresser",
            "website": "https://www.myhairlady.at/"
          },
          "geometry": {
            "type": "Point",
            "coordinates": [
              15.2091785,
              48.44905
            ]
          }
        },
        {
          "type": "Feature",
          "properties": {
            "id": "11945089018",
            "osm_type": "node",
            "lat": 48.6064422,
            "lon": 15.1679551,
            "check_date": "2025-09-13",
            "check_date:opening_hours": "2025-09-13",
            "male": "yes",
            "name": "Burak",
            "opening_hours:signed": "no",
            "shop": "hairdresser"
          },
          "geometry": {
            "type": "Point",
            "coordinates": [
              15.1679551,
              48.6064422
            ]
          }
        }
      ],
      "children": []
    },
    {
      "bbox": {
        "south": 48.68652475,
        "west": 13.345766,
        "north": 49.017078,
        "east": 14.2994695
      },
      "poiCount": 27,
      "leafCount": 27,
      "averagePosition": [
        13.599931351851852,
        48.80551232222223
      ],
      "data": [
        {
          "type": "Feature",
          "properties": {
            "id": "1055989383",
            "osm_type": "node",
            "lat": 48.8134673,
            "lon": 13.4708558,
            "addr:city": "Ringelai",
            "addr:postcode": "94160",
            "addr:street": "Dorfstraße",
            "level": "0",
            "name": "Life.Style",
            "payment:cash": "yes",
            "payment:maestro": "yes",
            "shop": "hairdresser",
            "wheelchair": "no"
          },
          "geometry": {
            "type": "Point",
            "coordinates": [
              13.4708558,
              48.8134673
            ]
          }
        },
        {
          "type": "Feature",
          "properties": {
            "id": "1717641182",
            "osm_type": "node",
            "lat": 48.7790094,
            "lon": 13.4413046,
            "name": "Graf",
            "shop": "hairdresser"
          },
          "geometry": {
            "type": "Point",
            "coordinates": [
              13.4413046,
              48.7790094
            ]
          }
        },
        {
          "type": "Feature",
          "properties": {
            "id": "1717641222",
            "osm_type": "node",
            "lat": 48.7788723,
            "lon": 13.4435971,
            "name": "Spitzenberger",
            "shop": "hairdresser"
          },
          "geometry": {
            "type": "Point",
            "coordinates": [
              13.4435971,
              48.7788723
            ]
          }
        },
        {
          "type": "Feature",
          "properties": {
            "id": "3421260503",
            "osm_type": "node",
            "lat": 48.7270524,
            "lon": 13.3804767,
            "addr:city": "Tittling",
            "addr:country": "DE",
            "addr:housenumber": "1",
            "addr:postcode": "94104",
            "addr:street": "Färbergasse",
            "name": "Friseursalon Guckel",
            "shop": "hairdresser"
          },
          "geometry": {
            "type": "Point",
            "coordinates": [
              13.3804767,
              48.7270524
            ]
          }
        },
        {
          "type": "Feature",
          "properties": {
            "id": "3421260504",
            "osm_type": "node",
            "lat": 48.7287097,
            "lon": 13.38013,
            "addr:city": "Tittling",
            "addr:country": "DE",
            "addr:housenumber": "4",
            "addr:postcode": "94104",
            "addr:street": "Herrenstraße",
            "name": "Hilgart Franz Herrensalon Mann oh Mann",
            "shop": "hairdresser"
          },
          "geometry": {
            "type": "Point",
            "coordinates": [
              13.38013,
              48.7287097
            ]
          }
        },
        {
          "type": "Feature",
          "properties": {
            "id": "3434511788",
            "osm_type": "node",
            "lat": 48.7284811,
            "lon": 13.3808608,
            "addr:city": "Tittling",
            "addr:country": "DE",
            "addr:housenumber": "4",
            "addr:postcode": "94104",
            "addr:street": "Berggasse",
            "name": "friseur kössl",
            "opening_hours": "Tu-Fr 09:00-18:00;Sa 08:00-12:00",
            "shop": "hairdresser"
          },
          "geometry": {
            "type": "Point",
            "coordinates": [
              13.3808608,
              48.7284811
            ]
          }
        },
        {
          "type": "Feature",
          "properties": {
            "id": "3435239169",
            "osm_type": "node",
            "lat": 48.7279175,
            "lon": 13.3825513,
            "addr:city": "Tittling",
            "addr:country": "DE",
            "addr:housenumber": "15",
            "addr:postcode": "94104",
            "addr:street": "Lederergasse",
            "name": "Hairpoint",
            "operator": "Lisa Plesch",
            "shop": "hairdresser"
          },
          "geometry": {
            "type": "Point",
            "coordinates": [
              13.3825513,
              48.7279175
            ]
          }
        },
        {
          "type": "Feature",
          "properties": {
            "id": "5882747679",
            "osm_type": "node",
            "lat": 48.8573396,
            "lon": 13.3973953,
            "name": "Salon Nätscher",
            "shop": "hairdresser"
          },
          "geometry": {
            "type": "Point",
            "coordinates": [
              13.3973953,
              48.8573396
            ]
          }
        },
        {
          "type": "Feature",
          "properties": {
            "id": "9382103908",
            "osm_type": "node",
            "lat": 48.8286632,
            "lon": 13.3498833,
            "shop": "hairdresser"
          },
          "geometry": {
            "type": "Point",
            "coordinates": [
              13.3498833,
              48.8286632
            ]
          }
        },
        {
          "type": "Feature",
          "properties": {
            "id": "1501769836",
            "osm_type": "node",
            "lat": 48.8060561,
            "lon": 13.5462696,
            "name": "Hairstyle Habenberger",
            "opening_hours": "Mo-Fr 08:00-18:00; Sa 07:30-12:30; PH off",
            "operator": "Hubert Habenberger",
            "shop": "hairdresser"
          },
          "geometry": {
            "type": "Point",
            "coordinates": [
              13.5462696,
              48.8060561
            ]
          }
        },
        {
          "type": "Feature",
          "properties": {
            "id": "1501773309",
            "osm_type": "node",
            "lat": 48.8080465,
            "lon": 13.5461461,
            "name": "Frisör am Kurhaus",
            "operator": "Viktor Töws",
            "shop": "hairdresser"
          },
          "geometry": {
            "type": "Point",
            "coordinates": [
              13.5461461,
              48.8080465
            ]
          }
        },
        {
          "type": "Feature",
          "properties": {
            "id": "1501778623",
            "osm_type": "node",
            "lat": 48.8075165,
            "lon": 13.5472145,
            "female": "yes",
            "male": "yes",
            "name": "Studio TOPHAIR",
            "opening_hours": "Mo-Fr 08:00-18:00; Sa 08:00-12:00; PH off",
            "operator": "Günter Arzberger",
            "shop": "hairdresser"
          },
          "geometry": {
            "type": "Point",
            "coordinates": [
              13.5472145,
              48.8075165
            ]
          }
        },
        {
          "type": "Feature",
          "properties": {
            "id": "2518656229",
            "osm_type": "node",
            "lat": 48.6955352,
            "lon": 13.8815637,
            "name": "Birgit",
            "shop": "hairdresser"
          },
          "geometry": {
            "type": "Point",
            "coordinates": [
              13.8815637,
              48.6955352
            ]
          }
        },
        {
          "type": "Feature",
          "properties": {
            "id": "4572797191",
            "osm_type": "node",
            "lat": 48.8066578,
            "lon": 13.5452163,
            "addr:city": "Freyung",
            "addr:country": "DE",
            "addr:housenumber": "9",
            "addr:postcode": "94078",
            "addr:street": "Passauer Straße",
            "contact:facebook": "https://www.facebook.com/sitenscheitel.freyung/",
            "contact:phone": "+498551 9151727",
            "name": "Seitenscheitel",
            "opening_hours": "Mo-Fr 09:00-18:00; Sa 08:00-14:00; Dec 24,Dec 31 08:00-14:00; PH off",
            "shop": "hairdresser",
            "toilets:wheelchair": "no",
            "wheelchair": "yes",
            "wheelchair:description": "Sehr nettes Personal! Sie machen so einiges möglich! Schnell, sauber und unheimlich nett. Preis/Leistung stimmt!"
          },
          "geometry": {
            "type": "Point",
            "coordinates": [
              13.5452163,
              48.8066578
            ]
          }
        },
        {
          "type": "Feature",
          "properties": {
            "id": "5873325836",
            "osm_type": "node",
            "lat": 48.8222438,
            "lon": 13.5989519,
            "addr:city": "Hinterschmiding",
            "addr:housenumber": "16",
            "addr:postcode": "94146",
            "addr:street": "Dorfplatz",
            "name": "Frisierstube Tanja",
            "opening_hours": "Mo-Fr 08:30-17:30; Sa 07:30-12:00",
            "phone": "+49-8551-915780",
            "shop": "hairdresser"
          },
          "geometry": {
            "type": "Point",
            "coordinates": [
              13.5989519,
              48.8222438
            ]
          }
        },
        {
          "type": "Feature",
          "properties": {
            "id": "6840132392",
            "osm_type": "node",
            "lat": 48.7207522,
            "lon": 13.8370214,
            "name": "My Style",
            "operator": "Daniela Kasper",
            "shop": "hairdresser"
          },
          "geometry": {
            "type": "Point",
            "coordinates": [
              13.8370214,
              48.7207522
            ]
          }
        },
        {
          "type": "Feature",
          "properties": {
            "id": "12040188525",
            "osm_type": "node",
            "lat": 48.805187,
            "lon": 13.5440222,
            "addr:city": "Freyung",
            "addr:housenumber": "20",
            "addr:postcode": "94078",
            "addr:street": "Geyersberger Straße",
            "name": "Barber Shop",
            "opening_hours": "Mo-Fr 08:30-18:30; Sa 07:00-14:00; PH off",
            "phone": "08551 4035",
            "shop": "hairdresser"
          },
          "geometry": {
            "type": "Point",
            "coordinates": [
              13.5440222,
              48.805187
            ]
          }
        },
        {
          "type": "Feature",
          "properties": {
            "id": "12787823109",
            "osm_type": "node",
            "lat": 48.7305916,
            "lon": 13.6025635,
            "name": "Haarschneiderei by Karolin",
            "shop": "hairdresser"
          },
          "geometry": {
            "type": "Point",
            "coordinates": [
              13.6025635,
              48.7305916
            ]
          }
        },
        {
          "type": "Feature",
          "properties": {
            "id": "12791867469",
            "osm_type": "node",
            "lat": 48.7285659,
            "lon": 13.6009897,
            "name": "Elisabeth Schneider",
            "shop": "hairdresser"
          },
          "geometry": {
            "type": "Point",
            "coordinates": [
              13.6009897,
              48.7285659
            ]
          }
        },
        {
          "type": "Feature",
          "properties": {
            "id": "8172264036",
            "osm_type": "node",
            "lat": 48.8134862,
            "lon": 14.2509007,
            "addr:city": "Kájov",
            "addr:housenumber": "352",
            "addr:postcode": "38221",
            "addr:street": "Krátká",
            "name": "Kadeřnictví Lock",
            "operator": "Erika Hanselová",
            "payment:cash": "yes",
            "payment:credit_cards": "yes",
            "phone": "+420 607571239",
            "shop": "hairdresser"
          },
          "geometry": {
            "type": "Point",
            "coordinates": [
              14.2509007,
              48.8134862
            ]
          }
        },
        {
          "type": "Feature",
          "properties": {
            "id": "8672835625",
            "osm_type": "node",
            "lat": 48.8164314,
            "lon": 14.2944882,
            "addr:city": "Český Krumlov",
            "addr:postcode": "38101",
            "addr:street": "Chvalšinská",
            "name": "Kadeřnictví JituŠe",
            "shop": "hairdresser"
          },
          "geometry": {
            "type": "Point",
            "coordinates": [
              14.2944882,
              48.8164314
            ]
          }
        },
        {
          "type": "Feature",
          "properties": {
            "id": "4838947994",
            "osm_type": "node",
            "lat": 48.884188,
            "lon": 13.475293,
            "level": "0",
            "name": "Der friseur",
            "shop": "hairdresser"
          },
          "geometry": {
            "type": "Point",
            "coordinates": [
              13.475293,
              48.884188
            ]
          }
        },
        {
          "type": "Feature",
          "properties": {
            "id": "6766465567",
            "osm_type": "node",
            "lat": 48.9141972,
            "lon": 13.3581596,
            "addr:city": "Spiegelau",
            "addr:housenumber": "24",
            "addr:postcode": "94518",
            "addr:street": "Schulstraße",
            "name": "Süß Erich Friseursalon",
            "phone": "+49 8553 519",
            "shop": "hairdresser"
          },
          "geometry": {
            "type": "Point",
            "coordinates": [
              13.3581596,
              48.9141972
            ]
          }
        },
        {
          "type": "Feature",
          "properties": {
            "id": "1696065683",
            "osm_type": "node",
            "lat": 48.9062373,
            "lon": 13.7189971,
            "shop": "hairdresser"
          },
          "geometry": {
            "type": "Point",
            "coordinates": [
              13.7189971,
              48.9062373
            ]
          }
        },
        {
          "type": "Feature",
          "properties": {
            "id": "2411703132",
            "osm_type": "node",
            "lat": 48.9068374,
            "lon": 13.7195782,
            "addr:city": "Strážný",
            "addr:conscriptionnumber": "40",
            "addr:country": "CZ",
            "addr:housenumber": "40",
            "addr:place": "Strážný",
            "addr:postcode": "38443",
            "opening_hours": "Mo-Su 08:00-18:00",
            "ref:ruian:addr": "25871731",
            "shop": "hairdresser"
          },
          "geometry": {
            "type": "Point",
            "coordinates": [
              13.7195782,
              48.9068374
            ]
          }
        },
        {
          "type": "Feature",
          "properties": {
            "id": "6592170931",
            "osm_type": "node",
            "lat": 48.8841044,
            "lon": 13.7047966,
            "addr:city": "Strážný",
            "addr:postcode": "38443",
            "country": "CZ",
            "shop": "hairdresser"
          },
          "geometry": {
            "type": "Point",
            "coordinates": [
              13.7047966,
              48.8841044
            ]
          }
        },
        {
          "type": "Feature",
          "properties": {
            "id": "7700388814",
            "osm_type": "node",
            "lat": 48.9226857,
            "lon": 13.7989193,
            "name": "A & B",
            "shop": "hairdresser"
          },
          "geometry": {
            "type": "Point",
            "coordinates": [
              13.7989193,
              48.9226857
            ]
          }
        }
      ],
      "children": []
    },
    {
      "bbox": {
        "south": 48.68652475,
        "west": 14.2994695,
        "north": 49.017078,
        "east": 15.253173
      },
      "poiCount": 85,
      "leafCount": 0,
      "averagePosition": [
        14.581301288235293,
        48.905923665882355
      ],
      "data": [],
      "children": [
        {
          "bbox": {
            "south": 48.68652475,
            "west": 14.2994695,
            "north": 48.851801374999994,
            "east": 14.77632125
          },
          "poiCount": 19,
          "leafCount": 19,
          "averagePosition": [
            14.318568584210526,
            48.81493921052631
          ],
          "data": [
            {
              "type": "Feature",
              "properties": {
                "id": "836917017",
                "osm_type": "node",
                "lat": 48.8093067,
                "lon": 14.3201823,
                "addr:city": "Český Krumlov",
                "addr:postcode": "381 01",
                "addr:street": "Rooseveltova",
                "currency:CZK": "yes",
                "payment:cash": "yes",
                "shop": "hairdresser"
              },
              "geometry": {
                "type": "Point",
                "coordinates": [
                  14.3201823,
                  48.8093067
                ]
              }
            },
            {
              "type": "Feature",
              "properties": {
                "id": "7004280840",
                "osm_type": "node",
                "lat": 48.8145271,
                "lon": 14.3125479,
                "addr:city": "Český Krumlov",
                "addr:housenumber": "133",
                "addr:postcode": "381 01",
                "addr:street": "Špičák",
                "currency:CZK": "yes",
                "description": "pánské, dámské, dětské",
                "name": "Kadeřnický salon Zoja",
                "shop": "hairdresser"
              },
              "geometry": {
                "type": "Point",
                "coordinates": [
                  14.3125479,
                  48.8145271
                ]
              }
            },
            {
              "type": "Feature",
              "properties": {
                "id": "7016971072",
                "osm_type": "node",
                "lat": 48.8040545,
                "lon": 14.3094068,
                "addr:housenumber": "313",
                "addr:street": "U Cihelny",
                "name": "Kadeřnictví",
                "operator": "Aneta Slavíková",
                "phone": "+420 773 230 828",
                "shop": "hairdresser"
              },
              "geometry": {
                "type": "Point",
                "coordinates": [
                  14.3094068,
                  48.8040545
                ]
              }
            },
            {
              "type": "Feature",
              "properties": {
                "id": "7017216151",
                "osm_type": "node",
                "lat": 48.8013793,
                "lon": 14.3077217,
                "name": "Alina Tafallari",
                "phone": "+420 733 716 177",
                "shop": "hairdresser"
              },
              "geometry": {
                "type": "Point",
                "coordinates": [
                  14.3077217,
                  48.8013793
                ]
              }
            },
            {
              "type": "Feature",
              "properties": {
                "id": "7069696462",
                "osm_type": "node",
                "lat": 48.8258574,
                "lon": 14.3337726,
                "addr:city": "Český Krumlov",
                "addr:housenumber": "133",
                "addr:postcode": "38101",
                "addr:street": "Tovární",
                "currency:CZK": "yes",
                "description": "pánské, dámské, dětské",
                "email": "irta@seznam.cz",
                "female": "yes",
                "male": "yes",
                "name": "Kadeřnictí Irena WELLIN",
                "opening_hours": "Tu 09:00-16:00; We-Fr 09:00-17:00; Sa 09:00-12:00",
                "operator": "Irena Isajenko",
                "payment:cash": "yes",
                "payment:credit_cards": "yes",
                "phone": "+420 774 647173",
                "second_hand": "no",
                "shop": "hairdresser",
                "website": "http://kadernictviirena.webmium.com"
              },
              "geometry": {
                "type": "Point",
                "coordinates": [
                  14.3337726,
                  48.8258574
                ]
              }
            },
            {
              "type": "Feature",
              "properties": {
                "id": "7082093389",
                "osm_type": "node",
                "lat": 48.8154986,
                "lon": 14.3160385,
                "addr:city": "Český Krumlov",
                "addr:housenumber": "137",
                "addr:postcode": "381 01",
                "addr:street": "Špičák",
                "male": "yes",
                "name": "Pánské kadeřnictví Dana",
                "opening_hours": "Mo-Th 08:00-12:00",
                "operator": "Dana Vaňková",
                "payment:cash": "yes",
                "payment:credit_cards": "yes",
                "shop": "hairdresser"
              },
              "geometry": {
                "type": "Point",
                "coordinates": [
                  14.3160385,
                  48.8154986
                ]
              }
            },
            {
              "type": "Feature",
              "properties": {
                "id": "7133447525",
                "osm_type": "node",
                "lat": 48.8164076,
                "lon": 14.3163382,
                "addr:city": "Český Krumlov",
                "addr:postcode": "381 01",
                "addr:street": "T. G. Masaryka",
                "payment:cash": "yes",
                "shop": "hairdresser"
              },
              "geometry": {
                "type": "Point",
                "coordinates": [
                  14.3163382,
                  48.8164076
                ]
              }
            },
            {
              "type": "Feature",
              "properties": {
                "id": "7147240452",
                "osm_type": "node",
                "lat": 48.8065514,
                "lon": 14.3124805,
                "currency:CZK": "yes",
                "description": "dámské, pánské, dětské",
                "payment:cash": "yes",
                "payment:credit_cards": "yes",
                "shop": "hairdresser"
              },
              "geometry": {
                "type": "Point",
                "coordinates": [
                  14.3124805,
                  48.8065514
                ]
              }
            },
            {
              "type": "Feature",
              "properties": {
                "id": "7154770625",
                "osm_type": "node",
                "lat": 48.8235094,
                "lon": 14.3292773,
                "addr:city": "Český Krumlov",
                "addr:housenumber": "181",
                "addr:postcode": "38101",
                "addr:street": "Urbinská",
                "check_date:opening_hours": "2024-12-28",
                "female:signed": "no",
                "male:signed": "no",
                "name": "Studio Ali",
                "opening_hours:signed": "no",
                "shop": "hairdresser"
              },
              "geometry": {
                "type": "Point",
                "coordinates": [
                  14.3292773,
                  48.8235094
                ]
              }
            },
            {
              "type": "Feature",
              "properties": {
                "id": "7154770630",
                "osm_type": "node",
                "lat": 48.8234496,
                "lon": 14.3280891,
                "addr:city": "Český Krumlov",
                "addr:housenumber": "154",
                "addr:postcode": "38101",
                "addr:street": "Urbinská",
                "check_date:opening_hours": "2024-11-21",
                "female": "no",
                "male": "yes",
                "name": "Pánské kadeřnictví",
                "opening_hours": "Mo 08:30-17:00; Tu-Fr 08:30-15:30",
                "shop": "hairdresser"
              },
              "geometry": {
                "type": "Point",
                "coordinates": [
                  14.3280891,
                  48.8234496
                ]
              }
            },
            {
              "type": "Feature",
              "properties": {
                "id": "7155100716",
                "osm_type": "node",
                "lat": 48.8055854,
                "lon": 14.3186968,
                "addr:city": "Český Krumlov",
                "addr:housenumber": "609",
                "addr:postcode": "381 01",
                "addr:street": "Rožmberská",
                "operator": "pí. Šlejmarová",
                "payment:cash": "yes",
                "phone": "+420 602 156 150",
                "shop": "hairdresser"
              },
              "geometry": {
                "type": "Point",
                "coordinates": [
                  14.3186968,
                  48.8055854
                ]
              }
            },
            {
              "type": "Feature",
              "properties": {
                "id": "7155100717",
                "osm_type": "node",
                "lat": 48.8021484,
                "lon": 14.3069675,
                "addr:city": "Český Krumlov",
                "addr:housenumber": "453",
                "addr:postcode": "381 01",
                "addr:street": "Konvalinková",
                "name": "Kadeřnictví Miluše Čtvrtníková",
                "operator": "Miluše Čtvrtníková",
                "payment:cash": "yes",
                "payment:credit_cards": "yes",
                "phone": "+420 603 863 042",
                "shop": "hairdresser"
              },
              "geometry": {
                "type": "Point",
                "coordinates": [
                  14.3069675,
                  48.8021484
                ]
              }
            },
            {
              "type": "Feature",
              "properties": {
                "id": "7200337573",
                "osm_type": "node",
                "lat": 48.8063444,
                "lon": 14.317209,
                "addr:city": "Český Krumlov",
                "addr:housenumber": "283",
                "addr:postcode": "381 01",
                "addr:street": "Po Vodě",
                "currency:CZK": "yes",
                "female": "yes",
                "name": "Kadeřnictví Sen",
                "opening_hours": "\"Provozní doba dle objednávek\"",
                "payment:cash": "yes",
                "payment:credit_cards": "yes",
                "shop": "hairdresser"
              },
              "geometry": {
                "type": "Point",
                "coordinates": [
                  14.317209,
                  48.8063444
                ]
              }
            },
            {
              "type": "Feature",
              "properties": {
                "id": "7481788479",
                "osm_type": "node",
                "lat": 48.8241154,
                "lon": 14.3298529,
                "female": "yes",
                "male": "yes",
                "name:signed": "no",
                "opening_hours": "week 1-53/2 Tu-Fr 08:00-14:00; week 2-52/2 Tu-Fr 12:00-19:00",
                "operator": "Jana Vlčková",
                "phone": "+420 721 773 003",
                "ref:ico": "63880458",
                "shop": "hairdresser"
              },
              "geometry": {
                "type": "Point",
                "coordinates": [
                  14.3298529,
                  48.8241154
                ]
              }
            },
            {
              "type": "Feature",
              "properties": {
                "id": "7994529913",
                "osm_type": "node",
                "lat": 48.8219007,
                "lon": 14.3187015,
                "addr:city": "Český Krumlov",
                "addr:postcode": "38101",
                "addr:street": "Za Nádražím",
                "payment:cash": "yes",
                "shop": "hairdresser"
              },
              "geometry": {
                "type": "Point",
                "coordinates": [
                  14.3187015,
                  48.8219007
                ]
              }
            },
            {
              "type": "Feature",
              "properties": {
                "id": "8833663435",
                "osm_type": "node",
                "lat": 48.8243083,
                "lon": 14.3277842,
                "addr:city": "Český Krumlov",
                "addr:housenumber": "160",
                "addr:postcode": "38101",
                "addr:street": "Lipová",
                "female:signed": "no",
                "male:signed": "no",
                "name": "Kadeřnický Salon",
                "opening_hours": "\"Dle objednávek\"",
                "operator": "Vačkářová, Zavadilová",
                "payment:cash": "yes",
                "phone": "+420380726513",
                "shop": "hairdresser"
              },
              "geometry": {
                "type": "Point",
                "coordinates": [
                  14.3277842,
                  48.8243083
                ]
              }
            },
            {
              "type": "Feature",
              "properties": {
                "id": "8909389051",
                "osm_type": "node",
                "lat": 48.8129659,
                "lon": 14.3175724,
                "addr:city": "Český Krumlov",
                "addr:housenumber": "55",
                "addr:postcode": "381 01",
                "addr:street": "Latrán",
                "currency:CZK": "yes",
                "level": "0",
                "male": "yes",
                "name": "Barber shop - Lazebnictví",
                "opening_hours": "We-Su 12:00-20:00",
                "payment:cash": "yes",
                "payment:credit_cards": "yes",
                "second_hand": "no",
                "shop": "hairdresser",
                "stroller": "limited",
                "wheelchair": "yes"
              },
              "geometry": {
                "type": "Point",
                "coordinates": [
                  14.3175724,
                  48.8129659
                ]
              }
            },
            {
              "type": "Feature",
              "properties": {
                "id": "12699900227",
                "osm_type": "node",
                "lat": 48.8222984,
                "lon": 14.3151294,
                "addr:city": "Český Krumlov",
                "addr:postcode": "38101",
                "addr:street": "Nádražní",
                "male": "yes",
                "payment:cash": "yes",
                "payment:credit_cards": "yes",
                "shop": "hairdresser"
              },
              "geometry": {
                "type": "Point",
                "coordinates": [
                  14.3151294,
                  48.8222984
                ]
              }
            },
            {
              "type": "Feature",
              "properties": {
                "id": "13052917986",
                "osm_type": "node",
                "lat": 48.8236365,
                "lon": 14.3150345,
                "addr:city": "Český Krumlov",
                "addr:housenumber": "100",
                "addr:postcode": "38101",
                "addr:street": "Nádražní",
                "operator": "Renáta Semotam",
                "payment:cash": "yes",
                "payment:credit_cards": "yes",
                "shop": "hairdresser"
              },
              "geometry": {
                "type": "Point",
                "coordinates": [
                  14.3150345,
                  48.8236365
                ]
              }
            }
          ],
          "children": []
        },
        {
          "bbox": {
            "south": 48.68652475,
            "west": 14.77632125,
            "north": 48.851801374999994,
            "east": 15.253173
          },
          "poiCount": 12,
          "leafCount": 12,
          "averagePosition": [
            15.052526058333333,
            48.7575699
          ],
          "data": [
            {
              "type": "Feature",
              "properties": {
                "id": "3504677851",
                "osm_type": "node",
                "lat": 48.7009603,
                "lon": 14.8932549,
                "name": "Haar Schneider",
                "opening_hours": "Tu-Fr 08:30-18:00; Sa 08:00-12:00",
                "operator": "Heinz Schneider",
                "phone": "028562290",
                "shop": "hairdresser",
                "wheelchair": "limited"
              },
              "geometry": {
                "type": "Point",
                "coordinates": [
                  14.8932549,
                  48.7009603
                ]
              }
            },
            {
              "type": "Feature",
              "properties": {
                "id": "4348326142",
                "osm_type": "node",
                "lat": 48.7684031,
                "lon": 15.0263157,
                "name": "Frisier Studio Inh. Willibald Pfeiffer",
                "shop": "hairdresser"
              },
              "geometry": {
                "type": "Point",
                "coordinates": [
                  15.0263157,
                  48.7684031
                ]
              }
            },
            {
              "type": "Feature",
              "properties": {
                "id": "11494189162",
                "osm_type": "node",
                "lat": 48.7670791,
                "lon": 14.9854576,
                "addr:housenumber": "62",
                "addr:street": "Bahnhofstraße",
                "check_date": "2024-01-06",
                "name": "Zeiler",
                "shop": "hairdresser"
              },
              "geometry": {
                "type": "Point",
                "coordinates": [
                  14.9854576,
                  48.7670791
                ]
              }
            },
            {
              "type": "Feature",
              "properties": {
                "id": "11494189168",
                "osm_type": "node",
                "lat": 48.7665587,
                "lon": 14.9857478,
                "addr:housenumber": "53",
                "addr:street": "Bahnhofstraße",
                "check_date": "2024-01-06",
                "name": "Be 4 You",
                "shop": "hairdresser"
              },
              "geometry": {
                "type": "Point",
                "coordinates": [
                  14.9857478,
                  48.7665587
                ]
              }
            },
            {
              "type": "Feature",
              "properties": {
                "id": "11893025636",
                "osm_type": "node",
                "lat": 48.7606962,
                "lon": 14.9724531,
                "shop": "hairdresser"
              },
              "geometry": {
                "type": "Point",
                "coordinates": [
                  14.9724531,
                  48.7606962
                ]
              }
            },
            {
              "type": "Feature",
              "properties": {
                "id": "11893036305",
                "osm_type": "node",
                "lat": 48.7698788,
                "lon": 14.9834482,
                "male": "yes",
                "shop": "hairdresser"
              },
              "geometry": {
                "type": "Point",
                "coordinates": [
                  14.9834482,
                  48.7698788
                ]
              }
            },
            {
              "type": "Feature",
              "properties": {
                "id": "12592557919",
                "osm_type": "node",
                "lat": 48.7695379,
                "lon": 14.9581736,
                "name": "Andrea Čada Hošková",
                "phone": "+420734238585",
                "shop": "hairdresser"
              },
              "geometry": {
                "type": "Point",
                "coordinates": [
                  14.9581736,
                  48.7695379
                ]
              }
            },
            {
              "type": "Feature",
              "properties": {
                "id": "4126563092",
                "osm_type": "node",
                "lat": 48.7932853,
                "lon": 15.0693547,
                "addr:city": "Schrems",
                "addr:country": "AT",
                "addr:housenumber": "1",
                "addr:postcode": "3943",
                "addr:street": "Hauptplatz",
                "name": "Herrenfriseur Margit Gaugusch",
                "opening_hours": "Tu 08:00-12:00,14:00-18:00; We 08:00-12:00; Th-Fr 08:00-12:00,14:00-18:00; Sa 07:00-12:00; Mo,Su,PH off",
                "operator": "Margit Gaugusch",
                "phone": "+43 2853 77438",
                "shop": "hairdresser",
                "wheelchair": "no"
              },
              "geometry": {
                "type": "Point",
                "coordinates": [
                  15.0693547,
                  48.7932853
                ]
              }
            },
            {
              "type": "Feature",
              "properties": {
                "id": "6428549502",
                "osm_type": "node",
                "lat": 48.7176514,
                "lon": 15.2117999,
                "addr:city": "Echsenbach",
                "addr:country": "AT",
                "addr:housenumber": "2",
                "addr:postcode": "3903",
                "addr:street": "Am Aufeld",
                "name": "Friseur Melanie",
                "shop": "hairdresser"
              },
              "geometry": {
                "type": "Point",
                "coordinates": [
                  15.2117999,
                  48.7176514
                ]
              }
            },
            {
              "type": "Feature",
              "properties": {
                "id": "10296764199",
                "osm_type": "node",
                "lat": 48.7610871,
                "lon": 15.1816518,
                "name": "Friseurin/Stylistin, Zeitelberger Sabine",
                "shop": "hairdresser"
              },
              "geometry": {
                "type": "Point",
                "coordinates": [
                  15.1816518,
                  48.7610871
                ]
              }
            },
            {
              "type": "Feature",
              "properties": {
                "id": "10296764200",
                "osm_type": "node",
                "lat": 48.7568844,
                "lon": 15.1803409,
                "name": "Friseursalon REGENBOGENSTUDIO - Astrid Rauchecker",
                "shop": "hairdresser"
              },
              "geometry": {
                "type": "Point",
                "coordinates": [
                  15.1803409,
                  48.7568844
                ]
              }
            },
            {
              "type": "Feature",
              "properties": {
                "id": "10296764201",
                "osm_type": "node",
                "lat": 48.7588165,
                "lon": 15.1823145,
                "name": "Friseursalon Sandra Fandl",
                "shop": "hairdresser"
              },
              "geometry": {
                "type": "Point",
                "coordinates": [
                  15.1823145,
                  48.7588165
                ]
              }
            }
          ],
          "children": []
        },
        {
          "bbox": {
            "south": 48.851801374999994,
            "west": 14.2994695,
            "north": 49.017078,
            "east": 14.77632125
          },
          "poiCount": 48,
          "leafCount": 48,
          "averagePosition": [
            14.498869389583334,
            48.978646293749996
          ],
          "data": [
            {
              "type": "Feature",
              "properties": {
                "id": "4369893373",
                "osm_type": "node",
                "lat": 48.9792691,
                "lon": 14.4429051,
                "addr:city": "České Budějovice",
                "addr:housenumber": "1435/70",
                "addr:postcode": "37005",
                "addr:street": "Větrná",
                "name": "Salon Sedmikráska",
                "opening_hours": "\"dle objednání\"",
                "shop": "hairdresser",
                "wheelchair": "yes"
              },
              "geometry": {
                "type": "Point",
                "coordinates": [
                  14.4429051,
                  48.9792691
                ]
              }
            },
            {
              "type": "Feature",
              "properties": {
                "id": "4504246092",
                "osm_type": "node",
                "lat": 48.9739684,
                "lon": 14.483034,
                "opening_hours": "Mo-Fr 08:00-18:00; Sa 08:00-12:00",
                "shop": "hairdresser"
              },
              "geometry": {
                "type": "Point",
                "coordinates": [
                  14.483034,
                  48.9739684
                ]
              }
            },
            {
              "type": "Feature",
              "properties": {
                "id": "4504462592",
                "osm_type": "node",
                "lat": 48.9738315,
                "lon": 14.4870976,
                "female": "yes",
                "male": "yes",
                "name": "Trendy & Beauty",
                "shop": "hairdresser"
              },
              "geometry": {
                "type": "Point",
                "coordinates": [
                  14.4870976,
                  48.9738315
                ]
              }
            },
            {
              "type": "Feature",
              "properties": {
                "id": "4504470690",
                "osm_type": "node",
                "lat": 48.974031,
                "lon": 14.4867414,
                "opening_hours": "Mo-Fr 07:00-17:00",
                "shop": "hairdresser"
              },
              "geometry": {
                "type": "Point",
                "coordinates": [
                  14.4867414,
                  48.974031
                ]
              }
            },
            {
              "type": "Feature",
              "properties": {
                "id": "4742725423",
                "osm_type": "node",
                "lat": 48.984703,
                "lon": 14.4714792,
                "addr:housenumber": "1016/75",
                "addr:postcode": "37004",
                "addr:street": "Pražská třída",
                "email": "kadernictvi@kadernictvi-j.cz",
                "name": "Kadeřnictví J",
                "name:cs": "Kadeřnictví J",
                "opening_hours": "Mo-Fr 09:00-18:00",
                "shop": "hairdresser",
                "website": "https://www.facebook.com/Kade%C5%99nictv%C3%AD-J-988549611179360/"
              },
              "geometry": {
                "type": "Point",
                "coordinates": [
                  14.4714792,
                  48.984703
                ]
              }
            },
            {
              "type": "Feature",
              "properties": {
                "id": "4742725424",
                "osm_type": "node",
                "lat": 48.9833929,
                "lon": 14.4691139,
                "addr:housenumber": "2108/63",
                "addr:postcode": "37004",
                "addr:street": "Pražská třída",
                "email": "info@kadernictvieden.cz",
                "female": "yes",
                "male": "yes",
                "name": "Kadeřnictví Eden",
                "name:cs": "Kadeřnictví Eden",
                "opening_hours": "Mo-Fr 08:30-18:00; Sa 09:00-12:00",
                "shop": "hairdresser",
                "website": "https://www.kadernictvieden.cz/"
              },
              "geometry": {
                "type": "Point",
                "coordinates": [
                  14.4691139,
                  48.9833929
                ]
              }
            },
            {
              "type": "Feature",
              "properties": {
                "id": "5160627394",
                "osm_type": "node",
                "lat": 48.9800225,
                "lon": 14.471911,
                "female": "yes",
                "male": "yes",
                "name": "Bami Hair",
                "opening_hours": "\"Dle objednání\"",
                "shop": "hairdresser"
              },
              "geometry": {
                "type": "Point",
                "coordinates": [
                  14.471911,
                  48.9800225
                ]
              }
            },
            {
              "type": "Feature",
              "properties": {
                "id": "5243364301",
                "osm_type": "node",
                "lat": 48.9846811,
                "lon": 14.5118022,
                "name": "Miroslava Kopecká",
                "shop": "hairdresser"
              },
              "geometry": {
                "type": "Point",
                "coordinates": [
                  14.5118022,
                  48.9846811
                ]
              }
            },
            {
              "type": "Feature",
              "properties": {
                "id": "5243384671",
                "osm_type": "node",
                "lat": 48.9845583,
                "lon": 14.5115193,
                "name": "Salón Originál",
                "shop": "hairdresser"
              },
              "geometry": {
                "type": "Point",
                "coordinates": [
                  14.5115193,
                  48.9845583
                ]
              }
            },
            {
              "type": "Feature",
              "properties": {
                "id": "5250909242",
                "osm_type": "node",
                "lat": 48.9779692,
                "lon": 14.4755574,
                "shop": "hairdresser"
              },
              "geometry": {
                "type": "Point",
                "coordinates": [
                  14.4755574,
                  48.9779692
                ]
              }
            },
            {
              "type": "Feature",
              "properties": {
                "id": "5250912355",
                "osm_type": "node",
                "lat": 48.9767939,
                "lon": 14.4851484,
                "shop": "hairdresser"
              },
              "geometry": {
                "type": "Point",
                "coordinates": [
                  14.4851484,
                  48.9767939
                ]
              }
            },
            {
              "type": "Feature",
              "properties": {
                "id": "7553275620",
                "osm_type": "node",
                "lat": 48.977183,
                "lon": 14.4717229,
                "addr:city": "České Budějovice",
                "addr:housenumber": "171/8",
                "addr:postcode": "37001",
                "addr:street": "Panská",
                "name": "Studio Onyx",
                "shop": "hairdresser"
              },
              "geometry": {
                "type": "Point",
                "coordinates": [
                  14.4717229,
                  48.977183
                ]
              }
            },
            {
              "type": "Feature",
              "properties": {
                "id": "9423661958",
                "osm_type": "node",
                "lat": 48.973652,
                "lon": 14.4775206,
                "female": "yes",
                "male": "yes",
                "shop": "hairdresser"
              },
              "geometry": {
                "type": "Point",
                "coordinates": [
                  14.4775206,
                  48.973652
                ]
              }
            },
            {
              "type": "Feature",
              "properties": {
                "id": "9423661984",
                "osm_type": "node",
                "lat": 48.9756199,
                "lon": 14.4724957,
                "level": "0",
                "name": "Euforie",
                "note": "Otevírací doba “Po-So dle objednání“",
                "opening_date": "Mo-Sa",
                "shop": "hairdresser"
              },
              "geometry": {
                "type": "Point",
                "coordinates": [
                  14.4724957,
                  48.9756199
                ]
              }
            },
            {
              "type": "Feature",
              "properties": {
                "id": "9460659721",
                "osm_type": "node",
                "lat": 48.983998,
                "lon": 14.4786906,
                "name": "Rtt kadeřnictví",
                "shop": "hairdresser"
              },
              "geometry": {
                "type": "Point",
                "coordinates": [
                  14.4786906,
                  48.983998
                ]
              }
            },
            {
              "type": "Feature",
              "properties": {
                "id": "9502991920",
                "osm_type": "node",
                "lat": 48.9548426,
                "lon": 14.464855,
                "name": "Marcela",
                "shop": "hairdresser"
              },
              "geometry": {
                "type": "Point",
                "coordinates": [
                  14.464855,
                  48.9548426
                ]
              }
            },
            {
              "type": "Feature",
              "properties": {
                "id": "9802026807",
                "osm_type": "node",
                "lat": 48.9808145,
                "lon": 14.4720778,
                "name": "Evelin",
                "shop": "hairdresser"
              },
              "geometry": {
                "type": "Point",
                "coordinates": [
                  14.4720778,
                  48.9808145
                ]
              }
            },
            {
              "type": "Feature",
              "properties": {
                "id": "9802380193",
                "osm_type": "node",
                "lat": 48.976511,
                "lon": 14.4726617,
                "name": "Unikum",
                "shop": "hairdresser"
              },
              "geometry": {
                "type": "Point",
                "coordinates": [
                  14.4726617,
                  48.976511
                ]
              }
            },
            {
              "type": "Feature",
              "properties": {
                "id": "9884821878",
                "osm_type": "node",
                "lat": 48.9773211,
                "lon": 14.4728524,
                "level": "0",
                "name": "Wous 2",
                "opening_hours": "Mo-Fr 08:00-18:00",
                "phone": "+420 776 653 813",
                "shop": "hairdresser",
                "website": "https://www.wous.cz/",
                "wheelchair": "limited"
              },
              "geometry": {
                "type": "Point",
                "coordinates": [
                  14.4728524,
                  48.9773211
                ]
              }
            },
            {
              "type": "Feature",
              "properties": {
                "id": "9884821879",
                "osm_type": "node",
                "lat": 48.9773157,
                "lon": 14.4726308,
                "level": "0",
                "name": "Wous 1",
                "opening_hours": "Mo-Th 08:00-19:00; Fr 08:00-18:00",
                "phone": "+420 776 653 813",
                "shop": "hairdresser",
                "website": "https://www.wous.cz/",
                "wheelchair": "yes"
              },
              "geometry": {
                "type": "Point",
                "coordinates": [
                  14.4726308,
                  48.9773157
                ]
              }
            },
            {
              "type": "Feature",
              "properties": {
                "id": "9884941519",
                "osm_type": "node",
                "lat": 48.9762585,
                "lon": 14.4721985,
                "name": "Cambio",
                "shop": "hairdresser"
              },
              "geometry": {
                "type": "Point",
                "coordinates": [
                  14.4721985,
                  48.9762585
                ]
              }
            },
            {
              "type": "Feature",
              "properties": {
                "id": "9885006087",
                "osm_type": "node",
                "lat": 48.9773999,
                "lon": 14.4738102,
                "name": "Hair Studio Onyx",
                "shop": "hairdresser"
              },
              "geometry": {
                "type": "Point",
                "coordinates": [
                  14.4738102,
                  48.9773999
                ]
              }
            },
            {
              "type": "Feature",
              "properties": {
                "id": "9885417105",
                "osm_type": "node",
                "lat": 48.9775693,
                "lon": 14.4720513,
                "level": "0",
                "name": "Tereza Brenkusová",
                "shop": "hairdresser",
                "wheelchair": "no"
              },
              "geometry": {
                "type": "Point",
                "coordinates": [
                  14.4720513,
                  48.9775693
                ]
              }
            },
            {
              "type": "Feature",
              "properties": {
                "id": "9885417108",
                "osm_type": "node",
                "lat": 48.9759261,
                "lon": 14.4776867,
                "shop": "hairdresser"
              },
              "geometry": {
                "type": "Point",
                "coordinates": [
                  14.4776867,
                  48.9759261
                ]
              }
            },
            {
              "type": "Feature",
              "properties": {
                "id": "9885505518",
                "osm_type": "node",
                "lat": 48.9757677,
                "lon": 14.4778268,
                "shop": "hairdresser"
              },
              "geometry": {
                "type": "Point",
                "coordinates": [
                  14.4778268,
                  48.9757677
                ]
              }
            },
            {
              "type": "Feature",
              "properties": {
                "id": "9885505536",
                "osm_type": "node",
                "lat": 48.9754194,
                "lon": 14.4779846,
                "name": "Věra Hašková",
                "phone": "+420775067704",
                "shop": "hairdresser"
              },
              "geometry": {
                "type": "Point",
                "coordinates": [
                  14.4779846,
                  48.9754194
                ]
              }
            },
            {
              "type": "Feature",
              "properties": {
                "id": "9885505544",
                "osm_type": "node",
                "lat": 48.9768233,
                "lon": 14.4749125,
                "female": "yes",
                "male": "yes",
                "name": "Rejzr",
                "shop": "hairdresser",
                "website": "https://rejzr.cz"
              },
              "geometry": {
                "type": "Point",
                "coordinates": [
                  14.4749125,
                  48.9768233
                ]
              }
            },
            {
              "type": "Feature",
              "properties": {
                "id": "9885532846",
                "osm_type": "node",
                "lat": 48.9736326,
                "lon": 14.4755333,
                "level": "1",
                "name": "Portrét Studio",
                "shop": "hairdresser"
              },
              "geometry": {
                "type": "Point",
                "coordinates": [
                  14.4755333,
                  48.9736326
                ]
              }
            },
            {
              "type": "Feature",
              "properties": {
                "id": "9887636454",
                "osm_type": "node",
                "lat": 48.9733643,
                "lon": 14.4753511,
                "name": "KL Barber",
                "shop": "hairdresser"
              },
              "geometry": {
                "type": "Point",
                "coordinates": [
                  14.4753511,
                  48.9733643
                ]
              }
            },
            {
              "type": "Feature",
              "properties": {
                "id": "9907674414",
                "osm_type": "node",
                "lat": 48.9826645,
                "lon": 14.4551401,
                "name": "Růže",
                "shop": "hairdresser"
              },
              "geometry": {
                "type": "Point",
                "coordinates": [
                  14.4551401,
                  48.9826645
                ]
              }
            },
            {
              "type": "Feature",
              "properties": {
                "id": "9907712422",
                "osm_type": "node",
                "lat": 48.9823899,
                "lon": 14.4553493,
                "name": "Zlatá Břitva",
                "shop": "hairdresser"
              },
              "geometry": {
                "type": "Point",
                "coordinates": [
                  14.4553493,
                  48.9823899
                ]
              }
            },
            {
              "type": "Feature",
              "properties": {
                "id": "9918648237",
                "osm_type": "node",
                "lat": 48.974759,
                "lon": 14.4834063,
                "level": "0",
                "name": "Preciss",
                "shop": "hairdresser"
              },
              "geometry": {
                "type": "Point",
                "coordinates": [
                  14.4834063,
                  48.974759
                ]
              }
            },
            {
              "type": "Feature",
              "properties": {
                "id": "10775523243",
                "osm_type": "node",
                "lat": 48.9708359,
                "lon": 14.4721364,
                "name": "Queen Hair studio",
                "opening_hours": "Mo-Fr 09:00-17:00",
                "shop": "hairdresser"
              },
              "geometry": {
                "type": "Point",
                "coordinates": [
                  14.4721364,
                  48.9708359
                ]
              }
            },
            {
              "type": "Feature",
              "properties": {
                "id": "10917819364",
                "osm_type": "node",
                "lat": 48.9655694,
                "lon": 14.4747726,
                "female": "yes",
                "male": "yes",
                "name": "Kadeřnictví nad Pohádkou",
                "opening_hours": "Mo,Tu 08:30-19:00; We 12:00-19:00; Th,Fr 08:00-14:00; Sa 08:00-12:00; Su off",
                "shop": "hairdresser",
                "wheelchair": "no"
              },
              "geometry": {
                "type": "Point",
                "coordinates": [
                  14.4747726,
                  48.9655694
                ]
              }
            },
            {
              "type": "Feature",
              "properties": {
                "id": "11469025780",
                "osm_type": "node",
                "lat": 48.9745683,
                "lon": 14.475382,
                "name": "1990 Barbershop",
                "shop": "hairdresser",
                "website": "https://1990-barbershop.reservio.com"
              },
              "geometry": {
                "type": "Point",
                "coordinates": [
                  14.475382,
                  48.9745683
                ]
              }
            },
            {
              "type": "Feature",
              "properties": {
                "id": "11469053286",
                "osm_type": "node",
                "lat": 48.9751962,
                "lon": 14.4793614,
                "name": "Studio Beauty",
                "shop": "hairdresser"
              },
              "geometry": {
                "type": "Point",
                "coordinates": [
                  14.4793614,
                  48.9751962
                ]
              }
            },
            {
              "type": "Feature",
              "properties": {
                "id": "11469889328",
                "osm_type": "node",
                "lat": 48.9738713,
                "lon": 14.4739665,
                "male": "yes",
                "name": "Factory",
                "shop": "hairdresser"
              },
              "geometry": {
                "type": "Point",
                "coordinates": [
                  14.4739665,
                  48.9738713
                ]
              }
            },
            {
              "type": "Feature",
              "properties": {
                "id": "12147586171",
                "osm_type": "node",
                "lat": 48.9776379,
                "lon": 14.4797296,
                "phone": "+420 777994851",
                "shop": "hairdresser"
              },
              "geometry": {
                "type": "Point",
                "coordinates": [
                  14.4797296,
                  48.9776379
                ]
              }
            },
            {
              "type": "Feature",
              "properties": {
                "id": "12757835888",
                "osm_type": "node",
                "lat": 48.9804286,
                "lon": 14.4776109,
                "female:signed": "no",
                "male:signed": "no",
                "name": "Lucie salon",
                "shop": "hairdresser"
              },
              "geometry": {
                "type": "Point",
                "coordinates": [
                  14.4776109,
                  48.9804286
                ]
              }
            },
            {
              "type": "Feature",
              "properties": {
                "id": "12757919906",
                "osm_type": "node",
                "lat": 48.9729893,
                "lon": 14.4793815,
                "female": "yes",
                "male": "yes",
                "shop": "hairdresser"
              },
              "geometry": {
                "type": "Point",
                "coordinates": [
                  14.4793815,
                  48.9729893
                ]
              }
            },
            {
              "type": "Feature",
              "properties": {
                "id": "12871487475",
                "osm_type": "node",
                "lat": 48.980079,
                "lon": 14.4848187,
                "shop": "hairdresser"
              },
              "geometry": {
                "type": "Point",
                "coordinates": [
                  14.4848187,
                  48.980079
                ]
              }
            },
            {
              "type": "Feature",
              "properties": {
                "id": "913866953",
                "osm_type": "node",
                "lat": 48.9322384,
                "lon": 14.6185416,
                "shop": "hairdresser"
              },
              "geometry": {
                "type": "Point",
                "coordinates": [
                  14.6185416,
                  48.9322384
                ]
              }
            },
            {
              "type": "Feature",
              "properties": {
                "id": "913866998",
                "osm_type": "node",
                "lat": 48.933897,
                "lon": 14.6210693,
                "shop": "hairdresser"
              },
              "geometry": {
                "type": "Point",
                "coordinates": [
                  14.6210693,
                  48.933897
                ]
              }
            },
            {
              "type": "Feature",
              "properties": {
                "id": "1971927905",
                "osm_type": "node",
                "lat": 49.0151261,
                "lon": 14.6000426,
                "shop": "hairdresser"
              },
              "geometry": {
                "type": "Point",
                "coordinates": [
                  14.6000426,
                  49.0151261
                ]
              }
            },
            {
              "type": "Feature",
              "properties": {
                "id": "1971927911",
                "osm_type": "node",
                "lat": 49.0154662,
                "lon": 14.6011526,
                "female": "yes",
                "male": "yes",
                "shop": "hairdresser"
              },
              "geometry": {
                "type": "Point",
                "coordinates": [
                  14.6011526,
                  49.0154662
                ]
              }
            },
            {
              "type": "Feature",
              "properties": {
                "id": "2404901889",
                "osm_type": "node",
                "lat": 49.003751,
                "lon": 14.7663222,
                "shop": "hairdresser"
              },
              "geometry": {
                "type": "Point",
                "coordinates": [
                  14.7663222,
                  49.003751
                ]
              }
            },
            {
              "type": "Feature",
              "properties": {
                "id": "4364404655",
                "osm_type": "node",
                "lat": 49.01492,
                "lon": 14.6095723,
                "name": "Kadeřnictví Jana",
                "shop": "hairdresser"
              },
              "geometry": {
                "type": "Point",
                "coordinates": [
                  14.6095723,
                  49.01492
                ]
              }
            },
            {
              "type": "Feature",
              "properties": {
                "id": "12872920576",
                "osm_type": "node",
                "lat": 49.0159943,
                "lon": 14.6088028,
                "female": "yes",
                "male": "yes",
                "shop": "hairdresser"
              },
              "geometry": {
                "type": "Point",
                "coordinates": [
                  14.6088028,
                  49.0159943
                ]
              }
            }
          ],
          "children": []
        },
        {
          "bbox": {
            "south": 48.851801374999994,
            "west": 14.77632125,
            "north": 49.017078,
            "east": 15.253173
          },
          "poiCount": 6,
          "leafCount": 6,
          "averagePosition": [
            15.130293833333333,
            48.90896761666667
          ],
          "data": [
            {
              "type": "Feature",
              "properties": {
                "id": "1374225817",
                "osm_type": "node",
                "lat": 48.8669615,
                "lon": 15.124105,
                "addr:housenumber": "2",
                "addr:postcode": "3860",
                "addr:street": "Litschauer Straße",
                "shop": "hairdresser"
              },
              "geometry": {
                "type": "Point",
                "coordinates": [
                  15.124105,
                  48.8669615
                ]
              }
            },
            {
              "type": "Feature",
              "properties": {
                "id": "1374225819",
                "osm_type": "node",
                "lat": 48.8668896,
                "lon": 15.1211357,
                "addr:housenumber": "18",
                "addr:postcode": "3860",
                "addr:street": "Stadtgrabengasse",
                "name": "Studio Hairstyle - Anibas & Anibas OG",
                "shop": "hairdresser",
                "website": "www.studio-hairstyle.at"
              },
              "geometry": {
                "type": "Point",
                "coordinates": [
                  15.1211357,
                  48.8668896
                ]
              }
            },
            {
              "type": "Feature",
              "properties": {
                "id": "2371962120",
                "osm_type": "node",
                "lat": 48.944639,
                "lon": 15.0442588,
                "addr:city": "Litschau",
                "addr:country": "AT",
                "addr:housenumber": "82",
                "addr:postcode": "3874",
                "addr:street": "Stadtplatz",
                "name": "Frisiersalon Böhm",
                "opening_hours": "Tu-Fr 08:00-12:00,14:00-18:00; Sa 07:00-14:00",
                "operator": "Simone Koller",
                "shop": "hairdresser"
              },
              "geometry": {
                "type": "Point",
                "coordinates": [
                  15.0442588,
                  48.944639
                ]
              }
            },
            {
              "type": "Feature",
              "properties": {
                "id": "5829336050",
                "osm_type": "node",
                "lat": 48.9445914,
                "lon": 15.0427153,
                "addr:city": "Litschau",
                "addr:country": "AT",
                "addr:housenumber": "92",
                "addr:postcode": "3874",
                "addr:street": "Stadtplatz",
                "name": "Coiffeur Roswitha",
                "operator": "Roswitha Petrasch",
                "phone": "+43 2865 412",
                "shop": "hairdresser"
              },
              "geometry": {
                "type": "Point",
                "coordinates": [
                  15.0427153,
                  48.9445914
                ]
              }
            },
            {
              "type": "Feature",
              "properties": {
                "id": "12011982289",
                "osm_type": "node",
                "lat": 48.8995979,
                "lon": 15.2122715,
                "name": "Hairstyle Tamara",
                "shop": "hairdresser"
              },
              "geometry": {
                "type": "Point",
                "coordinates": [
                  15.2122715,
                  48.8995979
                ]
              }
            },
            {
              "type": "Feature",
              "properties": {
                "id": "12049457490",
                "osm_type": "node",
                "lat": 48.9311263,
                "lon": 15.2372767,
                "name": "Friseur Silvia, Schuh Silvia",
                "shop": "hairdresser"
              },
              "geometry": {
                "type": "Point",
                "coordinates": [
                  15.2372767,
                  48.9311263
                ]
              }
            }
          ],
          "children": []
        }
      ]
    }
  ]
}