{
  "bbox": {
    "south": 46.372652,
    "west": 13.345766,
    "north": 47.033758500000005,
    "east": 15.253173
  },
  "poiCount": 117,
  "leafCount": 0,
  "averagePosition": [
    14.16743611965812,
    46.67530693846154
  ],
  "data": [],
  "children": [
    {
      "bbox": {
        "south": 46.372652,
        "west": 13.345766,
        "north": 46.70320525,
        "east": 14.2994695
      },
      "poiCount": 41,
      "leafCount": 41,
      "averagePosition": [
        13.974669702439023,
        46.588533500000004
      ],
      "data": [
        {
          "type": "Feature",
          "properties": {
            "id": "881038277",
            "osm_type": "node",
            "lat": 46.6272805,
            "lon": 13.3698885,
            "name": "Kandolf",
            "shop": "bakery"
          },
          "geometry": {
            "type": "Point",
            "coordinates": [
              13.3698885,
              46.6272805
            ]
          }
        },
        {
          "type": "Feature",
          "properties": {
            "id": "3093975370",
            "osm_type": "node",
            "lat": 46.490255,
            "lon": 13.491989,
            "name": "I Dolci di Irma",
            "shop": "bakery",
            "website": "https://www.idolcidiirma.it"
          },
          "geometry": {
            "type": "Point",
            "coordinates": [
              13.491989,
              46.490255
            ]
          }
        },
        {
          "type": "Feature",
          "properties": {
            "id": "817629543",
            "osm_type": "node",
            "lat": 46.4849225,
            "lon": 13.7815869,
            "name": "Trgovina Planika",
            "opening_hours": "Mo-Sa 06:00-20:00; Su 07:00-15:00",
            "shop": "bakery"
          },
          "geometry": {
            "type": "Point",
            "coordinates": [
              13.7815869,
              46.4849225
            ]
          }
        },
        {
          "type": "Feature",
          "properties": {
            "id": "894367070",
            "osm_type": "node",
            "lat": 46.6825183,
            "lon": 13.9715028,
            "addr:city": "Bodensdorf",
            "addr:country": "AT",
            "addr:housenumber": "1",
            "addr:postcode": "9551",
            "addr:street": "Lobisserweg",
            "cafe": "yes",
            "name": "Schieder",
            "opening_hours": "06:30 - 19:00",
            "shop": "bakery",
            "wheelchair": "no"
          },
          "geometry": {
            "type": "Point",
            "coordinates": [
              13.9715028,
              46.6825183
            ]
          }
        },
        {
          "type": "Feature",
          "properties": {
            "id": "1280245494",
            "osm_type": "node",
            "lat": 46.6339971,
            "lon": 13.8830649,
            "addr:city": "Landskron",
            "addr:housenumber": "24",
            "addr:postcode": "9523",
            "addr:street": "Ossiacher Straße",
            "cuisine": "coffee_shop",
            "name": "Strobl's Backstube GmbH",
            "shop": "bakery"
          },
          "geometry": {
            "type": "Point",
            "coordinates": [
              13.8830649,
              46.6339971
            ]
          }
        },
        {
          "type": "Feature",
          "properties": {
            "id": "1311996751",
            "osm_type": "node",
            "lat": 46.6355594,
            "lon": 13.8839028,
            "addr:city": "Landskron",
            "addr:housenumber": "61",
            "addr:postcode": "9523",
            "addr:street": "Ossiacher Straße",
            "email": "office@konditorei-schmoliner.at",
            "name": "Bäckerei Konditorei Schmoliner",
            "phone": "+43 680 120 6963",
            "shop": "bakery",
            "website": "https://www.konditorei-schmoliner.at"
          },
          "geometry": {
            "type": "Point",
            "coordinates": [
              13.8839028,
              46.6355594
            ]
          }
        },
        {
          "type": "Feature",
          "properties": {
            "id": "1602712221",
            "osm_type": "node",
            "lat": 46.5904681,
            "lon": 14.0185096,
            "name": "Bäckerei Mitsche",
            "shop": "bakery"
          },
          "geometry": {
            "type": "Point",
            "coordinates": [
              14.0185096,
              46.5904681
            ]
          }
        },
        {
          "type": "Feature",
          "properties": {
            "id": "1960281922",
            "osm_type": "node",
            "lat": 46.505328,
            "lon": 13.5744793,
            "addr:city": "Tarvisio",
            "addr:country": "IT",
            "addr:housenumber": "50",
            "addr:postcode": "33018",
            "addr:street": "Via Roma",
            "contact:phone": "+39 0428 2004",
            "name": "Svetina Carla Panificio",
            "shop": "bakery"
          },
          "geometry": {
            "type": "Point",
            "coordinates": [
              13.5744793,
              46.505328
            ]
          }
        },
        {
          "type": "Feature",
          "properties": {
            "id": "2315209887",
            "osm_type": "node",
            "lat": 46.6135915,
            "lon": 13.8460878,
            "addr:city": "Villach",
            "addr:housenumber": "28/2",
            "addr:postcode": "9500",
            "addr:street": "Hauptplatz",
            "brand": "Wienerroither",
            "brand:wikidata": "Q110474658",
            "check_date:opening_hours": "2024-08-22",
            "name": "Wienerroither",
            "opening_hours": "Mo-Fr 06:30-18:00; Sa 07:00-13:00; Su off",
            "phone": "+43 4242 29 5 84",
            "shop": "bakery",
            "website": "https://www.wienerroither.com"
          },
          "geometry": {
            "type": "Point",
            "coordinates": [
              13.8460878,
              46.6135915
            ]
          }
        },
        {
          "type": "Feature",
          "properties": {
            "id": "4309632391",
            "osm_type": "node",
            "lat": 46.6121522,
            "lon": 13.8453265,
            "name": "Strobl",
            "shop": "bakery"
          },
          "geometry": {
            "type": "Point",
            "coordinates": [
              13.8453265,
              46.6121522
            ]
          }
        },
        {
          "type": "Feature",
          "properties": {
            "id": "4309632401",
            "osm_type": "node",
            "lat": 46.6142125,
            "lon": 13.8441269,
            "addr:city": "Villach",
            "addr:housenumber": "24",
            "addr:postcode": "9500",
            "addr:street": "Widmanngasse",
            "name": "Bäckerei Berger",
            "opening_hours": "Di-Fr 06:30-13:00; Sa 06:30-12:00",
            "payment:cash": "yes",
            "phone": "+43424224777",
            "shop": "bakery",
            "website": "https://www.facebook.com/BaeckereiBerger"
          },
          "geometry": {
            "type": "Point",
            "coordinates": [
              13.8441269,
              46.6142125
            ]
          }
        },
        {
          "type": "Feature",
          "properties": {
            "id": "4396071506",
            "osm_type": "node",
            "lat": 46.6170424,
            "lon": 13.8490193,
            "indoor_seating": "yes",
            "name": "Bäckerei Strobl",
            "outdoor_seating": "no",
            "shop": "bakery",
            "wheelchair": "yes"
          },
          "geometry": {
            "type": "Point",
            "coordinates": [
              13.8490193,
              46.6170424
            ]
          }
        },
        {
          "type": "Feature",
          "properties": {
            "id": "4396071528",
            "osm_type": "node",
            "lat": 46.6177793,
            "lon": 13.8473944,
            "name": "rei kafe karavanke.3",
            "shop": "bakery"
          },
          "geometry": {
            "type": "Point",
            "coordinates": [
              13.8473944,
              46.6177793
            ]
          }
        },
        {
          "type": "Feature",
          "properties": {
            "id": "4853111924",
            "osm_type": "node",
            "lat": 46.605117,
            "lon": 13.8264784,
            "addr:city": "Villach",
            "addr:country": "AT",
            "addr:housenumber": "88",
            "addr:postcode": "9500",
            "addr:street": "Völkendorfer Straße",
            "name": "Konditorei Kerschner",
            "shop": "bakery",
            "wheelchair": "no"
          },
          "geometry": {
            "type": "Point",
            "coordinates": [
              13.8264784,
              46.605117
            ]
          }
        },
        {
          "type": "Feature",
          "properties": {
            "id": "4978041917",
            "osm_type": "node",
            "lat": 46.5953523,
            "lon": 13.8359209,
            "addr:city": "Villach",
            "addr:housenumber": "34",
            "addr:postcode": "9500",
            "addr:street": "Kärntner Straße",
            "brand": "Martin Auer",
            "brand:wikidata": "Q55523880",
            "email": "office@martinauer.at",
            "indoor_seating": "yes",
            "name": "Martin Auer",
            "opening_hours": "Mo-Fr 07:45-19:30; Sa 07:45-18:00; Su,PH off",
            "outdoor_seating": "yes",
            "phone": "+43 316 8040 125",
            "shop": "bakery",
            "website": "https://www.martinauer.at/",
            "wheelchair": "yes"
          },
          "geometry": {
            "type": "Point",
            "coordinates": [
              13.8359209,
              46.5953523
            ]
          }
        },
        {
          "type": "Feature",
          "properties": {
            "id": "5545159538",
            "osm_type": "node",
            "lat": 46.6040873,
            "lon": 13.8595652,
            "addr:city": "Villach",
            "addr:housenumber": "25",
            "addr:postcode": "9500",
            "addr:street": "Bruno-Kreisky-Straße",
            "brand": "Wienerroither",
            "brand:wikidata": "Q110474658",
            "indoor_seating": "yes",
            "name": "Wienerroither",
            "opening_hours": "Mo-Fr 06:00-18:30; Sa 07:00-18:00; Su 07:00-13:00",
            "outdoor_seating": "yes",
            "shop": "bakery",
            "wheelchair": "yes"
          },
          "geometry": {
            "type": "Point",
            "coordinates": [
              13.8595652,
              46.6040873
            ]
          }
        },
        {
          "type": "Feature",
          "properties": {
            "id": "6439669073",
            "osm_type": "node",
            "lat": 46.5611568,
            "lon": 13.8383742,
            "name": "Bäckerei Gregori",
            "shop": "bakery"
          },
          "geometry": {
            "type": "Point",
            "coordinates": [
              13.8383742,
              46.5611568
            ]
          }
        },
        {
          "type": "Feature",
          "properties": {
            "id": "7079993952",
            "osm_type": "node",
            "lat": 46.6243851,
            "lon": 13.6884032,
            "shop": "bakery"
          },
          "geometry": {
            "type": "Point",
            "coordinates": [
              13.6884032,
              46.6243851
            ]
          }
        },
        {
          "type": "Feature",
          "properties": {
            "id": "9909625586",
            "osm_type": "node",
            "lat": 46.5914667,
            "lon": 13.6234776,
            "addr:city": "Nötsch",
            "addr:housenumber": "39",
            "addr:postcode": "9611",
            "addr:street": "Nötsch im Gailtal",
            "name": "Bäckerei Wiegele",
            "phone": "+43 4256 2148",
            "shop": "bakery"
          },
          "geometry": {
            "type": "Point",
            "coordinates": [
              13.6234776,
              46.5914667
            ]
          }
        },
        {
          "type": "Feature",
          "properties": {
            "id": "10111181432",
            "osm_type": "node",
            "lat": 46.6244534,
            "lon": 13.687636,
            "name": "Bäckerei Konditorei Ebner",
            "shop": "bakery"
          },
          "geometry": {
            "type": "Point",
            "coordinates": [
              13.687636,
              46.6244534
            ]
          }
        },
        {
          "type": "Feature",
          "properties": {
            "id": "10669706274",
            "osm_type": "node",
            "lat": 46.6994153,
            "lon": 14.0145783,
            "diet:gluten_free": "only",
            "name": "Glutenfreie Konditorei Taste of Harmony",
            "opening_hours": "Mo-Fr 09:00-17:00; Sa 08:30-13:00; Su off",
            "shop": "bakery"
          },
          "geometry": {
            "type": "Point",
            "coordinates": [
              14.0145783,
              46.6994153
            ]
          }
        },
        {
          "type": "Feature",
          "properties": {
            "id": "11148843612",
            "osm_type": "node",
            "lat": 46.5690005,
            "lon": 13.9050815,
            "opening_hours": "07:30-11:00",
            "shop": "bakery"
          },
          "geometry": {
            "type": "Point",
            "coordinates": [
              13.9050815,
              46.5690005
            ]
          }
        },
        {
          "type": "Feature",
          "properties": {
            "id": "539581204",
            "osm_type": "node",
            "lat": 46.6029462,
            "lon": 14.0973971,
            "name": "Bäckerei PUKEL",
            "shop": "bakery"
          },
          "geometry": {
            "type": "Point",
            "coordinates": [
              14.0973971,
              46.6029462
            ]
          }
        },
        {
          "type": "Feature",
          "properties": {
            "id": "1433826330",
            "osm_type": "node",
            "lat": 46.6166306,
            "lon": 14.2933493,
            "addr:city": "Klagenfurt am Wörthersee",
            "addr:country": "AT",
            "addr:housenumber": "54",
            "addr:postcode": "9020",
            "addr:street": "Waidmannsdorfer Straße",
            "shop": "bakery",
            "wheelchair": "limited"
          },
          "geometry": {
            "type": "Point",
            "coordinates": [
              14.2933493,
              46.6166306
            ]
          }
        },
        {
          "type": "Feature",
          "properties": {
            "id": "1714339684",
            "osm_type": "node",
            "lat": 46.6579665,
            "lon": 14.1749838,
            "name": "Bäckerei-Cafe MaRo",
            "shop": "bakery"
          },
          "geometry": {
            "type": "Point",
            "coordinates": [
              14.1749838,
              46.6579665
            ]
          }
        },
        {
          "type": "Feature",
          "properties": {
            "id": "1871431730",
            "osm_type": "node",
            "lat": 46.6391759,
            "lon": 14.2976115,
            "addr:city": "Klagenfurt am Wörthersee",
            "addr:country": "AT",
            "addr:housenumber": "14-16",
            "addr:postcode": "9020",
            "addr:street": "Paracelsusgasse",
            "brand": "Taumberger",
            "brand:wikidata": "Q119807559",
            "check_date": "2024-07-22",
            "cuisine": "coffee_shop",
            "level": "0",
            "name": "Taumberger",
            "opening_hours": "Mo-Fr 06:00-18:00; Sa 06:00-12:30",
            "shop": "bakery",
            "website": "http://www.taumberger.co.at/",
            "wheelchair": "yes"
          },
          "geometry": {
            "type": "Point",
            "coordinates": [
              14.2976115,
              46.6391759
            ]
          }
        },
        {
          "type": "Feature",
          "properties": {
            "id": "1944498817",
            "osm_type": "node",
            "lat": 46.6400197,
            "lon": 14.2932121,
            "addr:city": "Klagenfurt am Wörthersee",
            "addr:housenumber": "2",
            "addr:postcode": "9020",
            "addr:street": "Mantschehofgasse",
            "branch": "Schleppekurve",
            "brand": "Lagler",
            "brand:wikidata": "Q119807471",
            "check_date": "2025-05-24",
            "check_date:opening_hours": "2025-05-24",
            "level": "0",
            "name": "Lagler",
            "opening_hours": "Mo-Fr 06:00-18:00; Sa 06:00-17:00; Su,PH off",
            "operator": "Lagler",
            "phone": "+43 463 428545",
            "shop": "bakery",
            "website": "https://www.lagler.at/"
          },
          "geometry": {
            "type": "Point",
            "coordinates": [
              14.2932121,
              46.6400197
            ]
          }
        },
        {
          "type": "Feature",
          "properties": {
            "id": "2085570736",
            "osm_type": "node",
            "lat": 46.6673053,
            "lon": 14.2578051,
            "name": "Cafe Eva",
            "shop": "bakery"
          },
          "geometry": {
            "type": "Point",
            "coordinates": [
              14.2578051,
              46.6673053
            ]
          }
        },
        {
          "type": "Feature",
          "properties": {
            "id": "2302685550",
            "osm_type": "node",
            "lat": 46.6129485,
            "lon": 14.2876331,
            "addr:city": "Klagenfurt am Wörthersee",
            "addr:country": "AT",
            "addr:housenumber": "39",
            "addr:street": "Siebenhügelstraße",
            "brand": "Wienerroither",
            "brand:wikidata": "Q110474658",
            "check_date": "2022-10-07",
            "name": "Wienerroither",
            "shop": "bakery",
            "wheelchair": "yes"
          },
          "geometry": {
            "type": "Point",
            "coordinates": [
              14.2876331,
              46.6129485
            ]
          }
        },
        {
          "type": "Feature",
          "properties": {
            "id": "2392746091",
            "osm_type": "node",
            "lat": 46.4311359,
            "lon": 14.0685237,
            "name": "Pekarna",
            "shop": "bakery"
          },
          "geometry": {
            "type": "Point",
            "coordinates": [
              14.0685237,
              46.4311359
            ]
          }
        },
        {
          "type": "Feature",
          "properties": {
            "id": "2431159362",
            "osm_type": "node",
            "lat": 46.4368555,
            "lon": 14.0523715,
            "name": "Karavanke",
            "shop": "bakery"
          },
          "geometry": {
            "type": "Point",
            "coordinates": [
              14.0523715,
              46.4368555
            ]
          }
        },
        {
          "type": "Feature",
          "properties": {
            "id": "2470526052",
            "osm_type": "node",
            "lat": 46.3806775,
            "lon": 14.0685378,
            "name": "Pekarna Planika",
            "shop": "bakery"
          },
          "geometry": {
            "type": "Point",
            "coordinates": [
              14.0685378,
              46.3806775
            ]
          }
        },
        {
          "type": "Feature",
          "properties": {
            "id": "3367208013",
            "osm_type": "node",
            "lat": 46.619542,
            "lon": 14.2786351,
            "addr:city": "Klagenfurt am Wörthersee",
            "addr:country": "AT",
            "brand": "Taumberger",
            "brand:wikidata": "Q119807559",
            "check_date": "2022-12-21",
            "level": "0",
            "name": "Taumberger",
            "opening_hours": "Mo-Fr 07:00-17:00; Sa 07:00-12:00",
            "shop": "bakery",
            "wheelchair": "yes"
          },
          "geometry": {
            "type": "Point",
            "coordinates": [
              14.2786351,
              46.619542
            ]
          }
        },
        {
          "type": "Feature",
          "properties": {
            "id": "3740068776",
            "osm_type": "node",
            "lat": 46.5538853,
            "lon": 14.0413192,
            "addr:city": "St. Jakob im Rosental",
            "name": "Bäckerei Schuster",
            "shop": "bakery"
          },
          "geometry": {
            "type": "Point",
            "coordinates": [
              14.0413192,
              46.5538853
            ]
          }
        },
        {
          "type": "Feature",
          "properties": {
            "id": "4617168154",
            "osm_type": "node",
            "lat": 46.6078822,
            "lon": 14.29334,
            "addr:city": "Klagenfurt am Wörthersee",
            "addr:country": "AT",
            "addr:housenumber": "221",
            "addr:postcode": "9020",
            "addr:street": "Südring",
            "brand": "Zeppitz",
            "brand:wikidata": "Q119808019",
            "cafe": "yes",
            "name": "Zeppitz",
            "operator": "Zeppitz Handelsgesellschaft m.b.H.",
            "shop": "bakery"
          },
          "geometry": {
            "type": "Point",
            "coordinates": [
              14.29334,
              46.6078822
            ]
          }
        },
        {
          "type": "Feature",
          "properties": {
            "id": "5340914865",
            "osm_type": "node",
            "lat": 46.6162891,
            "lon": 14.0455394,
            "addr:city": "Velden am Wörther See",
            "addr:housenumber": "5",
            "addr:postcode": "9220",
            "addr:street": "Am Corso",
            "brand": "Wienerroither",
            "brand:wikidata": "Q110474658",
            "indoor_seating": "yes",
            "name": "Wienerroither",
            "opening_hours": "Mo-Su 06:30-19:00",
            "outdoor_seating": "yes",
            "phone": "+43 (0)4274 50 6 56",
            "shop": "bakery",
            "website": "https://www.wienerroither.com/"
          },
          "geometry": {
            "type": "Point",
            "coordinates": [
              14.0455394,
              46.6162891
            ]
          }
        },
        {
          "type": "Feature",
          "properties": {
            "id": "5342736830",
            "osm_type": "node",
            "lat": 46.6163919,
            "lon": 14.0447611,
            "addr:city": "Velden am Wörther See",
            "addr:housenumber": "6",
            "addr:postcode": "9220",
            "addr:street": "Am Corso",
            "brand": "Martin Auer",
            "brand:wikidata": "Q55523880",
            "name": "Martin Auer",
            "shop": "bakery"
          },
          "geometry": {
            "type": "Point",
            "coordinates": [
              14.0447611,
              46.6163919
            ]
          }
        },
        {
          "type": "Feature",
          "properties": {
            "id": "8661573799",
            "osm_type": "node",
            "lat": 46.6207102,
            "lon": 14.2680985,
            "addr:city": "Klagenfurt am Wörthersee",
            "addr:country": "AT",
            "addr:housenumber": "102",
            "addr:postcode": "9020",
            "addr:street": "Kohldorfer Straße",
            "cafe": "yes",
            "check_date": "2024-08-24",
            "check_date:opening_hours": "2024-08-24",
            "email": "baeckerei@weissensteiner.at",
            "indoor_seating": "yes",
            "internet_access": "no",
            "level": "0",
            "name": "Weissensteiner",
            "official_name": "WEF GmbH Bäckerei-Cafe Johannes Weissensteiner",
            "opening_hours": "06:30-18:00",
            "outdoor_seating": "yes",
            "pastry_shop": "yes",
            "payment:credit_cards": "yes",
            "payment:debit_cards": "yes",
            "phone": "+43 463 219564",
            "ref:vatin": "ATU64353568",
            "shop": "bakery",
            "website": "https://www.weissensteiner.at/",
            "wheelchair": "yes"
          },
          "geometry": {
            "type": "Point",
            "coordinates": [
              14.2680985,
              46.6207102
            ]
          }
        },
        {
          "type": "Feature",
          "properties": {
            "id": "9179819831",
            "osm_type": "node",
            "lat": 46.6175695,
            "lon": 14.2710701,
            "addr:city": "Klagenfurt am Wörthersee",
            "addr:country": "AT",
            "check_date": "2024-05-29",
            "level": "0",
            "name": "Bäckerei Schupp",
            "opening_hours": "Mo-Fr 07:00-18:00; Sa 07:00-12:00; Su,PH off",
            "payment:cash": "yes",
            "payment:credit_cards": "yes",
            "payment:debit_cards": "yes",
            "shop": "bakery",
            "wheelchair": "yes"
          },
          "geometry": {
            "type": "Point",
            "coordinates": [
              14.2710701,
              46.6175695
            ]
          }
        },
        {
          "type": "Feature",
          "properties": {
            "id": "9911314833",
            "osm_type": "node",
            "lat": 46.3749735,
            "lon": 14.0862856,
            "addr:street": "Triglavska cesta",
            "name": "Pekarna Planika",
            "opening_hours": "Mo-Fr 06:00-14:00;Sa 6:00-13:00;Su 07:00-11:00",
            "payment:cash": "yes",
            "payment:credit_cards": "yes",
            "phone": "+386 4 574 44 65",
            "shop": "bakery"
          },
          "geometry": {
            "type": "Point",
            "coordinates": [
              14.0862856,
              46.3749735
            ]
          }
        },
        {
          "type": "Feature",
          "properties": {
            "id": "11869843376",
            "osm_type": "node",
            "lat": 46.617427,
            "lon": 14.2545898,
            "brand": "Lagler",
            "brand:wikidata": "Q119807471",
            "name": "Lagler",
            "shop": "bakery"
          },
          "geometry": {
            "type": "Point",
            "coordinates": [
              14.2545898,
              46.617427
            ]
          }
        }
      ],
      "children": []
    },
    {
      "bbox": {
        "south": 46.372652,
        "west": 14.2994695,
        "north": 46.70320525,
        "east": 15.253173
      },
      "poiCount": 38,
      "leafCount": 38,
      "averagePosition": [
        14.517459228947368,
        46.61355422368421
      ],
      "data": [
        {
          "type": "Feature",
          "properties": {
            "id": "981314069",
            "osm_type": "node",
            "lat": 46.6016115,
            "lon": 15.0012735,
            "addr:housenumber": "10B",
            "addr:street": "Vič",
            "name": "Pekarna Hlebček",
            "shop": "bakery"
          },
          "geometry": {
            "type": "Point",
            "coordinates": [
              15.0012735,
              46.6016115
            ]
          }
        },
        {
          "type": "Feature",
          "properties": {
            "id": "2853492361",
            "osm_type": "node",
            "lat": 46.7030375,
            "lon": 14.7294051,
            "contact:phone": "+43 4233 2298",
            "name": "Bäckerei Buchleitner",
            "opening_hours": "Mo-Fr 06:00-12:30,14:30-18:30; Sa 06:00-12:30",
            "shop": "bakery"
          },
          "geometry": {
            "type": "Point",
            "coordinates": [
              14.7294051,
              46.7030375
            ]
          }
        },
        {
          "type": "Feature",
          "properties": {
            "id": "3305699462",
            "osm_type": "node",
            "lat": 46.589553,
            "lon": 15.020551,
            "addr:street": "Trg 4. julija",
            "name": "Pekarna Euro",
            "shop": "bakery",
            "wheelchair": "no"
          },
          "geometry": {
            "type": "Point",
            "coordinates": [
              15.020551,
              46.589553
            ]
          }
        },
        {
          "type": "Feature",
          "properties": {
            "id": "3305699463",
            "osm_type": "node",
            "lat": 46.5926812,
            "lon": 15.0280257,
            "name": "Pekarna",
            "shop": "bakery"
          },
          "geometry": {
            "type": "Point",
            "coordinates": [
              15.0280257,
              46.5926812
            ]
          }
        },
        {
          "type": "Feature",
          "properties": {
            "id": "3817957686",
            "osm_type": "node",
            "lat": 46.5899073,
            "lon": 15.0169889,
            "name": "Pekarna in slaščičarna Hlebček",
            "shop": "bakery"
          },
          "geometry": {
            "type": "Point",
            "coordinates": [
              15.0169889,
              46.5899073
            ]
          }
        },
        {
          "type": "Feature",
          "properties": {
            "id": "4445605883",
            "osm_type": "node",
            "lat": 46.610418,
            "lon": 14.5982679,
            "name": "Oswald Friedrich Schuhfleck",
            "shop": "bakery"
          },
          "geometry": {
            "type": "Point",
            "coordinates": [
              14.5982679,
              46.610418
            ]
          }
        },
        {
          "type": "Feature",
          "properties": {
            "id": "5129322280",
            "osm_type": "node",
            "lat": 46.7019423,
            "lon": 14.8691379,
            "contact:facebook": "https://www.facebook.com/BaeckereiCafeNina/",
            "name": "Nina",
            "opening_hours": "Mo-Fr 06:00-18:00; Sa 06:00-12:00; Su off",
            "shop": "bakery"
          },
          "geometry": {
            "type": "Point",
            "coordinates": [
              14.8691379,
              46.7019423
            ]
          }
        },
        {
          "type": "Feature",
          "properties": {
            "id": "6762255504",
            "osm_type": "node",
            "lat": 46.6078757,
            "lon": 14.5855834,
            "name": "Cocina Mexicana",
            "shop": "bakery",
            "wheelchair": "limited"
          },
          "geometry": {
            "type": "Point",
            "coordinates": [
              14.5855834,
              46.6078757
            ]
          }
        },
        {
          "type": "Feature",
          "properties": {
            "id": "11656069045",
            "osm_type": "node",
            "lat": 46.6433852,
            "lon": 14.9413886,
            "name": "Alexander Hartl",
            "shop": "bakery"
          },
          "geometry": {
            "type": "Point",
            "coordinates": [
              14.9413886,
              46.6433852
            ]
          }
        },
        {
          "type": "Feature",
          "properties": {
            "id": "11780371329",
            "osm_type": "node",
            "lat": 46.7003296,
            "lon": 14.7306282,
            "name": "Franko's Bakery",
            "shop": "bakery",
            "website": "https://www.frankos-bakery.com/"
          },
          "geometry": {
            "type": "Point",
            "coordinates": [
              14.7306282,
              46.7003296
            ]
          }
        },
        {
          "type": "Feature",
          "properties": {
            "id": "12063562872",
            "osm_type": "node",
            "lat": 46.5455806,
            "lon": 14.915533,
            "name": "Pekarna in okrepčevalnica Trg",
            "shop": "bakery"
          },
          "geometry": {
            "type": "Point",
            "coordinates": [
              14.915533,
              46.5455806
            ]
          }
        },
        {
          "type": "Feature",
          "properties": {
            "id": "10015375499",
            "osm_type": "node",
            "lat": 46.4243026,
            "lon": 15.1874368,
            "name": "Pekarna Dolič",
            "shop": "bakery"
          },
          "geometry": {
            "type": "Point",
            "coordinates": [
              15.1874368,
              46.4243026
            ]
          }
        },
        {
          "type": "Feature",
          "properties": {
            "id": "10916576958",
            "osm_type": "node",
            "lat": 46.5099216,
            "lon": 15.0800335,
            "name": "Pekarna SG",
            "shop": "bakery"
          },
          "geometry": {
            "type": "Point",
            "coordinates": [
              15.0800335,
              46.5099216
            ]
          }
        },
        {
          "type": "Feature",
          "properties": {
            "id": "528103470",
            "osm_type": "node",
            "lat": 46.622762,
            "lon": 14.3087494,
            "addr:city": "Klagenfurt am Wörthersee",
            "addr:country": "AT",
            "addr:housenumber": "9",
            "addr:postcode": "9020",
            "addr:street": "Karfreitstraße",
            "check_date": "2023-02-16",
            "cuisine": "cake",
            "email": "konditorei@korbelius.at",
            "level": "0",
            "name": "Konditorei Korbelius",
            "phone": "+43 463 54454",
            "shop": "bakery",
            "wheelchair": "limited"
          },
          "geometry": {
            "type": "Point",
            "coordinates": [
              14.3087494,
              46.622762
            ]
          }
        },
        {
          "type": "Feature",
          "properties": {
            "id": "835908134",
            "osm_type": "node",
            "lat": 46.6254962,
            "lon": 14.3079551,
            "addr:city": "Klagenfurt am Wörthersee",
            "addr:country": "AT",
            "addr:housenumber": "1",
            "addr:street": "Alter Platz",
            "brand": "Martin Auer",
            "brand:wikidata": "Q55523880",
            "brand:wikipedia": "de:Martin Auer (Unternehmen)",
            "check_date": "2024-10-11",
            "check_date:opening_hours": "2024-10-11",
            "indoor_seating": "yes",
            "level": "0",
            "name": "Martin Auer",
            "opening_hours": "Mo-Fr 07:30-18:00; Sa 08:00-17:00",
            "outdoor_seating": "yes",
            "shop": "bakery",
            "wheelchair": "yes"
          },
          "geometry": {
            "type": "Point",
            "coordinates": [
              14.3079551,
              46.6254962
            ]
          }
        },
        {
          "type": "Feature",
          "properties": {
            "id": "1426226225",
            "osm_type": "node",
            "lat": 46.6226912,
            "lon": 14.3063009,
            "addr:city": "Klagenfurt am Wörthersee",
            "addr:country": "AT",
            "addr:housenumber": "15",
            "addr:postcode": "9020",
            "addr:street": "Benediktinerplatz",
            "check_date": "2023-04-10",
            "name": "Stocklauser",
            "opening_hours": "Tu-Sa 06:30-14:00",
            "ref": "Stand 21",
            "shop": "bakery",
            "wheelchair": "yes"
          },
          "geometry": {
            "type": "Point",
            "coordinates": [
              14.3063009,
              46.6226912
            ]
          }
        },
        {
          "type": "Feature",
          "properties": {
            "id": "1426864713",
            "osm_type": "node",
            "lat": 46.6249388,
            "lon": 14.3100035,
            "addr:city": "Klagenfurt am Wörthersee",
            "addr:country": "AT",
            "addr:housenumber": "7",
            "addr:postcode": "9020",
            "addr:street": "Fleischmarkt",
            "brand": "Taumberger",
            "brand:wikidata": "Q119807559",
            "check_date:opening_hours": "2022-09-12",
            "name": "Taumberger",
            "opening_hours": "Mo-Fr 06:30-17:00; Sa 07:00-13:00",
            "shop": "bakery",
            "wheelchair": "yes"
          },
          "geometry": {
            "type": "Point",
            "coordinates": [
              14.3100035,
              46.6249388
            ]
          }
        },
        {
          "type": "Feature",
          "properties": {
            "id": "1430319557",
            "osm_type": "node",
            "lat": 46.6223944,
            "lon": 14.3092254,
            "addr:city": "Klagenfurt am Wörthersee",
            "addr:country": "AT",
            "addr:housenumber": "10",
            "addr:postcode": "9020",
            "addr:street": "Lidmanskygasse",
            "brand": "Taumberger",
            "brand:wikidata": "Q119807559",
            "check_date": "2023-02-16",
            "level": "0",
            "name": "Taumberger",
            "opening_hours": "Mo-Fr 07:00-17:00; Sa 07:30-13:00",
            "shop": "bakery"
          },
          "geometry": {
            "type": "Point",
            "coordinates": [
              14.3092254,
              46.6223944
            ]
          }
        },
        {
          "type": "Feature",
          "properties": {
            "id": "1430495085",
            "osm_type": "node",
            "lat": 46.6214034,
            "lon": 14.319974,
            "addr:city": "Klagenfurt am Wörthersee",
            "addr:country": "AT",
            "brand": "Taumberger",
            "brand:wikidata": "Q119807559",
            "name": "Taumberger",
            "shop": "bakery",
            "wheelchair": "no"
          },
          "geometry": {
            "type": "Point",
            "coordinates": [
              14.319974,
              46.6214034
            ]
          }
        },
        {
          "type": "Feature",
          "properties": {
            "id": "1432645040",
            "osm_type": "node",
            "lat": 46.6231128,
            "lon": 14.3022753,
            "addr:city": "Klagenfurt am Wörthersee",
            "addr:country": "AT",
            "addr:housenumber": "7",
            "addr:postcode": "9020",
            "addr:street": "Villacher Straße",
            "check_date": "2024-07-23",
            "check_date:opening_hours": "2024-07-23",
            "level": "0",
            "name": "Dinkel Kornstube",
            "opening_hours:signed": "no",
            "shop": "bakery",
            "wheelchair": "yes"
          },
          "geometry": {
            "type": "Point",
            "coordinates": [
              14.3022753,
              46.6231128
            ]
          }
        },
        {
          "type": "Feature",
          "properties": {
            "id": "1436652830",
            "osm_type": "node",
            "lat": 46.6380282,
            "lon": 14.3318133,
            "addr:city": "Klagenfurt am Wörthersee",
            "addr:country": "AT",
            "addr:housenumber": "151",
            "addr:street": "Pischeldorfer Straße",
            "name": "Brot- & Gebäckerzeugung Srebre GmbH",
            "shop": "bakery",
            "wheelchair": "yes"
          },
          "geometry": {
            "type": "Point",
            "coordinates": [
              14.3318133,
              46.6380282
            ]
          }
        },
        {
          "type": "Feature",
          "properties": {
            "id": "1442612831",
            "osm_type": "node",
            "lat": 46.6180502,
            "lon": 14.3099706,
            "addr:city": "Klagenfurt am Wörthersee",
            "addr:country": "AT",
            "addr:housenumber": "12",
            "addr:postcode": "9020",
            "addr:street": "Kempfstraße",
            "brand": "Zeppitz",
            "brand:wikidata": "Q119808019",
            "cafe": "yes",
            "name": "Zeppitz",
            "opening_hours": "Mo-Fr 07:00-15:00",
            "shop": "bakery",
            "wheelchair": "no"
          },
          "geometry": {
            "type": "Point",
            "coordinates": [
              14.3099706,
              46.6180502
            ]
          }
        },
        {
          "type": "Feature",
          "properties": {
            "id": "1444389407",
            "osm_type": "node",
            "lat": 46.6106392,
            "lon": 14.3491727,
            "addr:city": "Klagenfurt am Wörthersee",
            "addr:country": "AT",
            "addr:housenumber": "225",
            "addr:street": "Ebentaler Straße",
            "name": "Bäckerei Jakits",
            "shop": "bakery",
            "wheelchair": "limited"
          },
          "geometry": {
            "type": "Point",
            "coordinates": [
              14.3491727,
              46.6106392
            ]
          }
        },
        {
          "type": "Feature",
          "properties": {
            "id": "1713022103",
            "osm_type": "node",
            "lat": 46.622177,
            "lon": 14.3072124,
            "addr:city": "Klagenfurt am Wörthersee",
            "addr:country": "AT",
            "addr:housenumber": "16",
            "addr:street": "10.-Oktober-Straße",
            "check_date": "2023-04-10",
            "indoor_seating": "yes",
            "level": "0",
            "name": "Backhaus",
            "opening_hours": "Tu-Su 08:00-15:00; Sa 08:00-12:00",
            "operator": "S. Walter",
            "outdoor_seating": "no",
            "shop": "bakery",
            "wheelchair": "yes"
          },
          "geometry": {
            "type": "Point",
            "coordinates": [
              14.3072124,
              46.622177
            ]
          }
        },
        {
          "type": "Feature",
          "properties": {
            "id": "2036176154",
            "osm_type": "node",
            "lat": 46.6186955,
            "lon": 14.3119736,
            "addr:city": "Klagenfurt am Wörthersee",
            "addr:country": "AT",
            "brand": "Taumberger",
            "brand:wikidata": "Q119807559",
            "name": "Taumberger",
            "opening_hours": "Mo-Fr 06:30-18:00; Sa off",
            "shop": "bakery"
          },
          "geometry": {
            "type": "Point",
            "coordinates": [
              14.3119736,
              46.6186955
            ]
          }
        },
        {
          "type": "Feature",
          "properties": {
            "id": "2260793772",
            "osm_type": "node",
            "lat": 46.6108626,
            "lon": 14.3591476,
            "addr:housename": "Bäckerei Zeppitz",
            "addr:postcode": "9065",
            "addr:street": "Miegerer Straße",
            "name": "Bäcker Zeppitz",
            "shop": "bakery"
          },
          "geometry": {
            "type": "Point",
            "coordinates": [
              14.3591476,
              46.6108626
            ]
          }
        },
        {
          "type": "Feature",
          "properties": {
            "id": "5292156231",
            "osm_type": "node",
            "lat": 46.6253094,
            "lon": 14.338745,
            "name": "Legat",
            "shop": "bakery"
          },
          "geometry": {
            "type": "Point",
            "coordinates": [
              14.338745,
              46.6253094
            ]
          }
        },
        {
          "type": "Feature",
          "properties": {
            "id": "5688548817",
            "osm_type": "node",
            "lat": 46.6226055,
            "lon": 14.3073005,
            "addr:city": "Klagenfurt am Wörthersee",
            "addr:country": "AT",
            "check_date": "2024-09-30",
            "check_date:opening_hours": "2024-09-30",
            "contact:mobile": "+43 664 2111 113",
            "indoor_seating": "yes",
            "level": "0",
            "name": "Karawanke",
            "opening_hours": "Mo-Su 06:00-22:00",
            "outdoor_seating": "yes",
            "shop": "bakery"
          },
          "geometry": {
            "type": "Point",
            "coordinates": [
              14.3073005,
              46.6226055
            ]
          }
        },
        {
          "type": "Feature",
          "properties": {
            "id": "8012327775",
            "osm_type": "node",
            "lat": 46.6273143,
            "lon": 14.3098722,
            "addr:city": "Klagenfurt am Wörthersee",
            "addr:country": "AT",
            "addr:housenumber": "57",
            "addr:postcode": "9020",
            "addr:street": "St. Veiter Ring",
            "brand": "Martin Auer",
            "brand:wikidata": "Q55523880",
            "brand:wikipedia": "de:Martin Auer (Unternehmen)",
            "contact:phone": "+316 80 40 124",
            "level": "0",
            "name": "Martin Auer",
            "opening_hours": "Mo-Fr 08:00-19:00; Sa 08:00-19:00",
            "shop": "bakery",
            "website": "https://www.martinauer.at/"
          },
          "geometry": {
            "type": "Point",
            "coordinates": [
              14.3098722,
              46.6273143
            ]
          }
        },
        {
          "type": "Feature",
          "properties": {
            "id": "8018215894",
            "osm_type": "node",
            "lat": 46.5272647,
            "lon": 14.3006499,
            "name": "Bäckerei Peterlin",
            "shop": "bakery"
          },
          "geometry": {
            "type": "Point",
            "coordinates": [
              14.3006499,
              46.5272647
            ]
          }
        },
        {
          "type": "Feature",
          "properties": {
            "id": "9282356277",
            "osm_type": "node",
            "lat": 46.6475898,
            "lon": 14.3148094,
            "addr:city": "Klagenfurt am Wörthersee",
            "addr:housenumber": "194",
            "addr:postcode": "9020",
            "addr:street": "St. Veiter Straße",
            "currency:EUR": "yes",
            "email": "kaerntnerei@wienerroither.com",
            "name": "Genussraum Wienerroither",
            "opening_hours": "Mo-Fr 05:30-18:00; Sa 05:30-17:00; Su 05:30-11:00",
            "payment:cash": "yes",
            "payment:coins": "yes",
            "payment:contactless": "yes",
            "payment:cryptocurrencies": "no",
            "phone": "+43 463 420 450-50",
            "shop": "bakery"
          },
          "geometry": {
            "type": "Point",
            "coordinates": [
              14.3148094,
              46.6475898
            ]
          }
        },
        {
          "type": "Feature",
          "properties": {
            "id": "11329186878",
            "osm_type": "node",
            "lat": 46.6147814,
            "lon": 14.3086401,
            "check_date": "2023-11-06",
            "level": "0",
            "name": "Bäckerei Arenas",
            "opening_hours": "Mo-Sa 06:00-21:00; Su 08:00-21:00",
            "shop": "bakery"
          },
          "geometry": {
            "type": "Point",
            "coordinates": [
              14.3086401,
              46.6147814
            ]
          }
        },
        {
          "type": "Feature",
          "properties": {
            "id": "11486363104",
            "osm_type": "node",
            "lat": 46.628652,
            "lon": 14.358741,
            "brand": "Zeppitz",
            "brand:wikidata": "Q119808019",
            "cafe": "yes",
            "check_date": "2024-01-04",
            "level": "0",
            "name": "Zeppitz",
            "shop": "bakery"
          },
          "geometry": {
            "type": "Point",
            "coordinates": [
              14.358741,
              46.628652
            ]
          }
        },
        {
          "type": "Feature",
          "properties": {
            "id": "11809783925",
            "osm_type": "node",
            "lat": 46.6146736,
            "lon": 14.3192598,
            "name": "Martin Auer",
            "shop": "bakery",
            "website": "https://suedpark.at/shop/martin-auer/"
          },
          "geometry": {
            "type": "Point",
            "coordinates": [
              14.3192598,
              46.6146736
            ]
          }
        },
        {
          "type": "Feature",
          "properties": {
            "id": "11809783957",
            "osm_type": "node",
            "lat": 46.6147639,
            "lon": 14.3202066,
            "name": "Strobl’s Backstube",
            "phone": "0463-353635",
            "shop": "bakery",
            "website": "https://suedpark.at/shop/strobls-backstube/"
          },
          "geometry": {
            "type": "Point",
            "coordinates": [
              14.3202066,
              46.6147639
            ]
          }
        },
        {
          "type": "Feature",
          "properties": {
            "id": "12082783733",
            "osm_type": "node",
            "lat": 46.6284857,
            "lon": 14.3036308,
            "check_date": "2025-05-27",
            "check_date:opening_hours": "2025-05-27",
            "diet:gluten_free": "yes",
            "level": "0",
            "name": "AC",
            "opening_hours": "Tu-Fr 09:00-19:00; Sa 09:00-13:00; Fr,Su,Mo off",
            "outdoor_seating": "yes",
            "shop": "bakery"
          },
          "geometry": {
            "type": "Point",
            "coordinates": [
              14.3036308,
              46.6284857
            ]
          }
        },
        {
          "type": "Feature",
          "properties": {
            "id": "12611733880",
            "osm_type": "node",
            "lat": 46.636891,
            "lon": 14.3358755,
            "addr:city": "Klagenfurt am Wörthersee",
            "addr:housenumber": "96",
            "addr:postcode": "9020",
            "addr:street": "Welzenegger Str.",
            "name": "Wienerroither",
            "not:brand:wikidata": "Q110474658",
            "opening_hours": "Mo-FR 06:30-18:00 SA 06:30-13:00 SO 06:30-12:00",
            "payment:cash": "yes",
            "payment:credit_cards": "yes",
            "payment:debit_cards": "yes",
            "phone": "+43 463 420313",
            "shop": "bakery"
          },
          "geometry": {
            "type": "Point",
            "coordinates": [
              14.3358755,
              46.636891
            ]
          }
        },
        {
          "type": "Feature",
          "properties": {
            "id": "12997560490",
            "osm_type": "node",
            "lat": 46.6249316,
            "lon": 14.3076926,
            "addr:floor": "0",
            "check_date": "2025-07-13",
            "level": "0",
            "name": "Carlotta",
            "opening_hours": "Mo,Su off; Tu-Sa 09:00-17:00",
            "shop": "bakery",
            "website": "https://www.carlotta.store"
          },
          "geometry": {
            "type": "Point",
            "coordinates": [
              14.3076926,
              46.6249316
            ]
          }
        }
      ],
      "children": []
    },
    {
      "bbox": {
        "south": 46.70320525,
        "west": 13.345766,
        "north": 47.033758500000005,
        "east": 14.2994695
      },
      "poiCount": 26,
      "leafCount": 26,
      "averagePosition": [
        13.67932855,
        46.81050555
      ],
      "data": [
        {
          "type": "Feature",
          "properties": {
            "id": "1788538429",
            "osm_type": "node",
            "lat": 46.9070311,
            "lon": 13.5362265,
            "name": "Pietschnigg",
            "opening_hours": "Mo-Fr 06:00-18:00; Sa 06:00-12:00",
            "shop": "bakery",
            "smoking": "outside",
            "website": "https://pietschnigg.at/"
          },
          "geometry": {
            "type": "Point",
            "coordinates": [
              13.5362265,
              46.9070311
            ]
          }
        },
        {
          "type": "Feature",
          "properties": {
            "id": "2422257575",
            "osm_type": "node",
            "lat": 46.9071799,
            "lon": 13.5357215,
            "name": "Jury",
            "opening_hours": "Mo-Fr 06:00-18:00; Sa 05:30-12:30",
            "shop": "bakery",
            "smoking": "outside",
            "wheelchair": "yes"
          },
          "geometry": {
            "type": "Point",
            "coordinates": [
              13.5357215,
              46.9071799
            ]
          }
        },
        {
          "type": "Feature",
          "properties": {
            "id": "3223044483",
            "osm_type": "node",
            "lat": 47.012965,
            "lon": 13.614093,
            "name": "Bäckerei Grosek",
            "shop": "bakery"
          },
          "geometry": {
            "type": "Point",
            "coordinates": [
              13.614093,
              47.012965
            ]
          }
        },
        {
          "type": "Feature",
          "properties": {
            "id": "11073661923",
            "osm_type": "node",
            "lat": 46.9174485,
            "lon": 13.8734479,
            "name": "Stocklauser",
            "shop": "bakery"
          },
          "geometry": {
            "type": "Point",
            "coordinates": [
              13.8734479,
              46.9174485
            ]
          }
        },
        {
          "type": "Feature",
          "properties": {
            "id": "3054364416",
            "osm_type": "node",
            "lat": 46.7916013,
            "lon": 13.5133883,
            "name": "Patisserie Robert",
            "shop": "bakery"
          },
          "geometry": {
            "type": "Point",
            "coordinates": [
              13.5133883,
              46.7916013
            ]
          }
        },
        {
          "type": "Feature",
          "properties": {
            "id": "3294267612",
            "osm_type": "node",
            "lat": 46.798279,
            "lon": 13.4903407,
            "brand": "Lagler",
            "brand:wikidata": "Q119807471",
            "contact:phone": "+43 4762 37872",
            "level": "0",
            "name": "Lagler",
            "opening_hours": "Mo-Fr 07:00-18:00; Sa 07:00-17:00",
            "shop": "bakery",
            "website": "https://www.lagler.at/"
          },
          "geometry": {
            "type": "Point",
            "coordinates": [
              13.4903407,
              46.798279
            ]
          }
        },
        {
          "type": "Feature",
          "properties": {
            "id": "3294267614",
            "osm_type": "node",
            "lat": 46.8159565,
            "lon": 13.5083241,
            "contact:email": "office@meixner-mueller.at",
            "name": "Meixner-Müller",
            "opening_hours": "Mo-Sa 06:30-18:30; Su 07:00-18:00",
            "shop": "bakery"
          },
          "geometry": {
            "type": "Point",
            "coordinates": [
              13.5083241,
              46.8159565
            ]
          }
        },
        {
          "type": "Feature",
          "properties": {
            "id": "3379980707",
            "osm_type": "node",
            "lat": 46.7996062,
            "lon": 13.4932891,
            "name": "Wendt",
            "shop": "bakery"
          },
          "geometry": {
            "type": "Point",
            "coordinates": [
              13.4932891,
              46.7996062
            ]
          }
        },
        {
          "type": "Feature",
          "properties": {
            "id": "3709606892",
            "osm_type": "node",
            "lat": 46.7981418,
            "lon": 13.4916933,
            "addr:city": "Spittal an der Drau",
            "addr:housenumber": "4",
            "addr:postcode": "9800",
            "addr:street": "Widmannstraße",
            "contact:phone": "+43 664 5392223",
            "name": "Bäckerei Kniesek",
            "opening_hours": "07:00-18:00",
            "operator": "Alexander Kniesek",
            "shop": "bakery"
          },
          "geometry": {
            "type": "Point",
            "coordinates": [
              13.4916933,
              46.7981418
            ]
          }
        },
        {
          "type": "Feature",
          "properties": {
            "id": "3991843586",
            "osm_type": "node",
            "lat": 46.7887692,
            "lon": 13.4873584,
            "name": "Bäckerei Wendt",
            "opening_hours": "Mo-Fr 06:00-12:00; Mo-Fr 15:00-18:00; Sa 06:00-12:00",
            "shop": "bakery"
          },
          "geometry": {
            "type": "Point",
            "coordinates": [
              13.4873584,
              46.7887692
            ]
          }
        },
        {
          "type": "Feature",
          "properties": {
            "id": "4313022607",
            "osm_type": "node",
            "lat": 46.7955753,
            "lon": 13.4888483,
            "name": "Daniel",
            "shop": "bakery"
          },
          "geometry": {
            "type": "Point",
            "coordinates": [
              13.4888483,
              46.7955753
            ]
          }
        },
        {
          "type": "Feature",
          "properties": {
            "id": "4773691114",
            "osm_type": "node",
            "lat": 46.8184576,
            "lon": 13.5184549,
            "level": "0",
            "name": "Lagler",
            "shop": "bakery"
          },
          "geometry": {
            "type": "Point",
            "coordinates": [
              13.5184549,
              46.8184576
            ]
          }
        },
        {
          "type": "Feature",
          "properties": {
            "id": "5621229085",
            "osm_type": "node",
            "lat": 46.7970702,
            "lon": 13.4956822,
            "addr:city": "Spittal an der Drau",
            "addr:housenumber": "4",
            "addr:postcode": "9800",
            "addr:street": "Ortenburger Straße",
            "check_date:opening_hours": "2024-08-22",
            "name": "Bäckerei Kniesek",
            "opening_hours": "07:00-18:00",
            "operator": "Alexander Kniesek",
            "phone": "04762 44192",
            "shop": "bakery"
          },
          "geometry": {
            "type": "Point",
            "coordinates": [
              13.4956822,
              46.7970702
            ]
          }
        },
        {
          "type": "Feature",
          "properties": {
            "id": "5845808181",
            "osm_type": "node",
            "lat": 46.7975549,
            "lon": 13.497123,
            "name": "Wendt",
            "ref:vatin": "ATU26405707",
            "shop": "bakery"
          },
          "geometry": {
            "type": "Point",
            "coordinates": [
              13.497123,
              46.7975549
            ]
          }
        },
        {
          "type": "Feature",
          "properties": {
            "id": "7058374572",
            "osm_type": "node",
            "lat": 46.7976393,
            "lon": 13.4968127,
            "name": "Hattenberger",
            "shop": "bakery"
          },
          "geometry": {
            "type": "Point",
            "coordinates": [
              13.4968127,
              46.7976393
            ]
          }
        },
        {
          "type": "Feature",
          "properties": {
            "id": "742554848",
            "osm_type": "node",
            "lat": 46.8002392,
            "lon": 13.7026671,
            "addr:city": "Radenthein",
            "addr:country": "AT",
            "addr:housenumber": "53",
            "addr:postcode": "9545",
            "addr:street": "Hauptstraße",
            "contact:phone": "+43 4246 29898",
            "disused:contact:email": "office@meixner-mueller.at",
            "disused:name": "Meixner-Müller",
            "level": "0",
            "name": "Naturbäckerei Lagler",
            "opening_hours": "Mo-Fr 06:00-18:00; Sa 06:00-12:00; Su 07:00-12:00",
            "shop": "bakery",
            "website": "https://www.lagler.at/shop/?L=0",
            "wheelchair": "yes"
          },
          "geometry": {
            "type": "Point",
            "coordinates": [
              13.7026671,
              46.8002392
            ]
          }
        },
        {
          "type": "Feature",
          "properties": {
            "id": "1687654097",
            "osm_type": "node",
            "lat": 46.8025899,
            "lon": 13.5719916,
            "addr:city": "Millstatt am See",
            "addr:housenumber": "176",
            "addr:postcode": "9872",
            "addr:street": "Kaiser-Franz-Josef-Straße",
            "name": "Naturbäckerei Lagler Millstatt",
            "not:brand:wikidata": "Q119807471",
            "operator": "Lagler",
            "payment:cash": "yes",
            "phone": "+43 4762 629 29",
            "shop": "bakery",
            "website": "https://www.lagler.at/"
          },
          "geometry": {
            "type": "Point",
            "coordinates": [
              13.5719916,
              46.8025899
            ]
          }
        },
        {
          "type": "Feature",
          "properties": {
            "id": "1820609652",
            "osm_type": "node",
            "lat": 46.8129802,
            "lon": 13.7933083,
            "addr:city": "Bad Kleinkirchheim",
            "addr:housenumber": "58",
            "addr:postcode": "9546",
            "addr:street": "Dorfstraße",
            "contact:email": "baeckerei@weissensteiner.at",
            "contact:fax": "+43 4240 219 5",
            "contact:phone": "+43 4240 219",
            "name": "Weissensteiner",
            "opening_hours": "Mo-Su, PH 06:30-18:00",
            "shop": "bakery",
            "website": "https://www.weissensteiner.at/"
          },
          "geometry": {
            "type": "Point",
            "coordinates": [
              13.7933083,
              46.8129802
            ]
          }
        },
        {
          "type": "Feature",
          "properties": {
            "id": "3008780049",
            "osm_type": "node",
            "lat": 46.8128758,
            "lon": 13.7805686,
            "addr:city": "Bad Kleinkirchheim",
            "addr:country": "AT",
            "addr:housenumber": "2",
            "addr:postcode": "9546",
            "addr:street": "Maibrunnenweg",
            "name": "Bäckerei Weissensteiner",
            "shop": "bakery"
          },
          "geometry": {
            "type": "Point",
            "coordinates": [
              13.7805686,
              46.8128758
            ]
          }
        },
        {
          "type": "Feature",
          "properties": {
            "id": "3012894903",
            "osm_type": "node",
            "lat": 46.7979542,
            "lon": 13.6961632,
            "level": "0",
            "name": "Weissensteiner",
            "opening_hours": "Mo-Fr 06:00-18:00;Sa 06:00-17:00;PH,Su 06:30-11:00",
            "shop": "bakery",
            "smoking": "outside",
            "wheelchair": "yes"
          },
          "geometry": {
            "type": "Point",
            "coordinates": [
              13.6961632,
              46.7979542
            ]
          }
        },
        {
          "type": "Feature",
          "properties": {
            "id": "3294267611",
            "osm_type": "node",
            "lat": 46.7714295,
            "lon": 13.6462055,
            "contact:email": "office@meixner-mueller.at",
            "contact:phone": "+43 4246 7787",
            "level": "0",
            "name": "Meixner-Müller",
            "opening_hours": "Jun-Sep: Mo-Su 06:00-11:00",
            "shop": "bakery"
          },
          "geometry": {
            "type": "Point",
            "coordinates": [
              13.6462055,
              46.7714295
            ]
          }
        },
        {
          "type": "Feature",
          "properties": {
            "id": "4992879386",
            "osm_type": "node",
            "lat": 46.8177767,
            "lon": 13.8643786,
            "name": "Bäckerei Weißensteiner",
            "opening_hours": "Mo-Sa 07:00-12:00",
            "shop": "bakery"
          },
          "geometry": {
            "type": "Point",
            "coordinates": [
              13.8643786,
              46.8177767
            ]
          }
        },
        {
          "type": "Feature",
          "properties": {
            "id": "2211563144",
            "osm_type": "node",
            "lat": 46.7385096,
            "lon": 14.2895953,
            "name": "Bäckerei Kulterer",
            "operator": "Fam. Sternat",
            "shop": "bakery"
          },
          "geometry": {
            "type": "Point",
            "coordinates": [
              14.2895953,
              46.7385096
            ]
          }
        },
        {
          "type": "Feature",
          "properties": {
            "id": "2998019236",
            "osm_type": "node",
            "lat": 46.7255833,
            "lon": 14.090847,
            "addr:city": "Feldkirchen in Kärnten",
            "addr:country": "AT",
            "addr:housenumber": "3-4",
            "addr:postcode": "9560",
            "addr:street": "Bambergerplatz",
            "contact:phone": "+43 4276 2356",
            "name": "Bäckerei Weissensteiner",
            "opening_hours": "Mo-Fr 06:00-18:00; Sa 06:00-10:30; Su, Ph 06:30-10:30",
            "shop": "bakery",
            "website": "https://www.weissensteiner.at/hier-finden-sie-uns/"
          },
          "geometry": {
            "type": "Point",
            "coordinates": [
              14.090847,
              46.7255833
            ]
          }
        },
        {
          "type": "Feature",
          "properties": {
            "id": "4416793190",
            "osm_type": "node",
            "lat": 46.7243384,
            "lon": 14.0938687,
            "addr:city": "Feldkirchen in Kärnten",
            "addr:country": "AT",
            "addr:housenumber": "8",
            "addr:postcode": "9560",
            "addr:street": "10.-Oktober-Straße",
            "contact:phone": "+436766007104",
            "name": "Karawanke Bäckerei",
            "opening_hours": "Mo-Su 06:00-22:00",
            "shop": "bakery"
          },
          "geometry": {
            "type": "Point",
            "coordinates": [
              14.0938687,
              46.7243384
            ]
          }
        },
        {
          "type": "Feature",
          "properties": {
            "id": "7273273388",
            "osm_type": "node",
            "lat": 46.7255917,
            "lon": 14.0921445,
            "addr:city": "Feldkirchen in Kärnten",
            "addr:country": "AT",
            "addr:housenumber": "2",
            "addr:postcode": "9560",
            "addr:street": "Sparkassenstraße",
            "brand": "Lagler",
            "brand:wikidata": "Q119807471",
            "contact:phone": "+43 676 842 22 116",
            "name": "Lagler",
            "shop": "bakery"
          },
          "geometry": {
            "type": "Point",
            "coordinates": [
              14.0921445,
              46.7255917
            ]
          }
        }
      ],
      "children": []
    },
    {
      "bbox": {
        "south": 46.70320525,
        "west": 14.2994695,
        "north": 47.033758500000005,
        "east": 15.253173
      },
      "poiCount": 12,
      "leafCount": 12,
      "averagePosition": [
        14.7752146,
        46.87440279166666
      ],
      "data": [
        {
          "type": "Feature",
          "properties": {
            "id": "1856965985",
            "osm_type": "node",
            "lat": 46.833105,
            "lon": 14.8465134,
            "name": "Bäckerei Lackner",
            "shop": "bakery"
          },
          "geometry": {
            "type": "Point",
            "coordinates": [
              14.8465134,
              46.833105
            ]
          }
        },
        {
          "type": "Feature",
          "properties": {
            "id": "1857086522",
            "osm_type": "node",
            "lat": 46.8298758,
            "lon": 14.8443916,
            "name": "Bäckerei Konditorei Kraschowitz",
            "shop": "bakery"
          },
          "geometry": {
            "type": "Point",
            "coordinates": [
              14.8443916,
              46.8298758
            ]
          }
        },
        {
          "type": "Feature",
          "properties": {
            "id": "7728551922",
            "osm_type": "node",
            "lat": 46.8389,
            "lon": 14.8421,
            "name": "Bäckerei Konditorei Kraschowitz",
            "shop": "bakery"
          },
          "geometry": {
            "type": "Point",
            "coordinates": [
              14.8421,
              46.8389
            ]
          }
        },
        {
          "type": "Feature",
          "properties": {
            "id": "9031377518",
            "osm_type": "node",
            "lat": 46.8198029,
            "lon": 15.2264189,
            "name": "Bäckerei Bartl",
            "shop": "bakery"
          },
          "geometry": {
            "type": "Point",
            "coordinates": [
              15.2264189,
              46.8198029
            ]
          }
        },
        {
          "type": "Feature",
          "properties": {
            "id": "2247759640",
            "osm_type": "node",
            "lat": 46.9536472,
            "lon": 14.4121255,
            "name": "Bäckerei Kronlechner",
            "shop": "bakery"
          },
          "geometry": {
            "type": "Point",
            "coordinates": [
              14.4121255,
              46.9536472
            ]
          }
        },
        {
          "type": "Feature",
          "properties": {
            "id": "10716451707",
            "osm_type": "node",
            "lat": 46.8949177,
            "lon": 14.3309549,
            "name": "Bäckerei",
            "shop": "bakery"
          },
          "geometry": {
            "type": "Point",
            "coordinates": [
              14.3309549,
              46.8949177
            ]
          }
        },
        {
          "type": "Feature",
          "properties": {
            "id": "1012750794",
            "osm_type": "node",
            "lat": 47.0076202,
            "lon": 14.7415859,
            "name": "Kois",
            "shop": "bakery"
          },
          "geometry": {
            "type": "Point",
            "coordinates": [
              14.7415859,
              47.0076202
            ]
          }
        },
        {
          "type": "Feature",
          "properties": {
            "id": "3366683187",
            "osm_type": "node",
            "lat": 46.9633152,
            "lon": 14.791402,
            "addr:housenumber": "36",
            "addr:postcode": "9462",
            "addr:street": "Hauptplatz",
            "name": "Sissys Cafe",
            "shop": "bakery",
            "wheelchair": "yes"
          },
          "geometry": {
            "type": "Point",
            "coordinates": [
              14.791402,
              46.9633152
            ]
          }
        },
        {
          "type": "Feature",
          "properties": {
            "id": "1917470438",
            "osm_type": "node",
            "lat": 46.9118474,
            "lon": 15.2234144,
            "name": "Marhofmüller",
            "shop": "bakery"
          },
          "geometry": {
            "type": "Point",
            "coordinates": [
              15.2234144,
              46.9118474
            ]
          }
        },
        {
          "type": "Feature",
          "properties": {
            "id": "10923658581",
            "osm_type": "node",
            "lat": 46.8910308,
            "lon": 15.2505362,
            "cafe": "yes",
            "opening_hours": "We-Su 06:00-12:00",
            "shop": "bakery"
          },
          "geometry": {
            "type": "Point",
            "coordinates": [
              15.2505362,
              46.8910308
            ]
          }
        },
        {
          "type": "Feature",
          "properties": {
            "id": "12749544766",
            "osm_type": "node",
            "lat": 46.7678932,
            "lon": 14.3621003,
            "shop": "bakery"
          },
          "geometry": {
            "type": "Point",
            "coordinates": [
              14.3621003,
              46.7678932
            ]
          }
        },
        {
          "type": "Feature",
          "properties": {
            "id": "13045564646",
            "osm_type": "node",
            "lat": 46.7808781,
            "lon": 14.4310321,
            "addr:city": "St. Georgen am Längsee",
            "addr:housenumber": "6",
            "addr:postcode": "9313",
            "addr:street": "Schloßallee",
            "name": "Stiftsbäckerei",
            "operator": "Bistum Gurk",
            "payment:cash": "yes",
            "phone": "+43 4213 2046 152",
            "shop": "bakery"
          },
          "geometry": {
            "type": "Point",
            "coordinates": [
              14.4310321,
              46.7808781
            ]
          }
        }
      ],
      "children": []
    }
  ]
}