{
  "bbox": {
    "south": 46.372652,
    "west": 11.438358999999998,
    "north": 47.033758500000005,
    "east": 13.345766
  },
  "poiCount": 148,
  "leafCount": 0,
  "averagePosition": [
    12.122595600675677,
    46.6553273695946
  ],
  "data": [],
  "children": [
    {
      "bbox": {
        "south": 46.372652,
        "west": 11.438358999999998,
        "north": 46.70320525,
        "east": 12.392062499999998
      },
      "poiCount": 49,
      "leafCount": 49,
      "averagePosition": [
        11.796467348979592,
        46.539472006122445
      ],
      "data": [
        {
          "type": "Feature",
          "properties": {
            "id": "475597336",
            "osm_type": "node",
            "lat": 46.4670788,
            "lon": 11.5272113,
            "kids_area": "yes",
            "kids_area:indoor": "yes",
            "level": "0",
            "name": "Tratter",
            "shop": "bakery",
            "wheelchair": "yes"
          },
          "geometry": {
            "type": "Point",
            "coordinates": [
              11.5272113,
              46.4670788
            ]
          }
        },
        {
          "type": "Feature",
          "properties": {
            "id": "1433058495",
            "osm_type": "node",
            "lat": 46.5187003,
            "lon": 11.5046996,
            "email": "haselriederroman@gmail.com",
            "name": "Haselrieder",
            "phone": "+39 0471 725411",
            "shop": "bakery",
            "wheelchair": "yes"
          },
          "geometry": {
            "type": "Point",
            "coordinates": [
              11.5046996,
              46.5187003
            ]
          }
        },
        {
          "type": "Feature",
          "properties": {
            "id": "1579602895",
            "osm_type": "node",
            "lat": 46.5179341,
            "lon": 11.502032,
            "indoor_seating": "no",
            "name": "Naturbäckerei Messner",
            "outdoor_seating": "no",
            "shop": "bakery",
            "takeaway": "only",
            "wheelchair": "yes"
          },
          "geometry": {
            "type": "Point",
            "coordinates": [
              11.502032,
              46.5179341
            ]
          }
        },
        {
          "type": "Feature",
          "properties": {
            "id": "2481716592",
            "osm_type": "node",
            "lat": 46.5380323,
            "lon": 11.4647177,
            "name": "Jakobs Backstube",
            "shop": "bakery"
          },
          "geometry": {
            "type": "Point",
            "coordinates": [
              11.4647177,
              46.5380323
            ]
          }
        },
        {
          "type": "Feature",
          "properties": {
            "id": "4717130778",
            "osm_type": "node",
            "lat": 46.5380462,
            "lon": 11.4590872,
            "name": "Niederstätter",
            "shop": "bakery"
          },
          "geometry": {
            "type": "Point",
            "coordinates": [
              11.4590872,
              46.5380462
            ]
          }
        },
        {
          "type": "Feature",
          "properties": {
            "id": "349238768",
            "osm_type": "node",
            "lat": 46.5891594,
            "lon": 11.902165,
            "addr:housenumber": "24",
            "name": "Furnaria Gasser",
            "payment:credit_cards": "yes",
            "payment:debit_cards": "yes",
            "phone": "+39 0471 847102",
            "shop": "bakery"
          },
          "geometry": {
            "type": "Point",
            "coordinates": [
              11.902165,
              46.5891594
            ]
          }
        },
        {
          "type": "Feature",
          "properties": {
            "id": "349238838",
            "osm_type": "node",
            "lat": 46.5825349,
            "lon": 11.9031924,
            "addr:city": "Badia - Abtei",
            "addr:city:de": "Abtei",
            "addr:city:it": "Badia",
            "addr:city:lld": "Badia",
            "addr:hamlet": "La Ila - Stern - La Villa",
            "addr:hamlet:de": "Stern",
            "addr:hamlet:it": "La Villa",
            "addr:hamlet:lld": "La Ila",
            "addr:housenumber": "72",
            "addr:postcode": "39030",
            "addr:street": "Strada Colz",
            "addr:street:de": "Straße Colz",
            "addr:street:it": "Strada Colz",
            "addr:street:lld": "Strada Colz",
            "name": "Pizzinini Bruno",
            "shop": "bakery"
          },
          "geometry": {
            "type": "Point",
            "coordinates": [
              11.9031924,
              46.5825349
            ]
          }
        },
        {
          "type": "Feature",
          "properties": {
            "id": "497220389",
            "osm_type": "node",
            "lat": 46.5670317,
            "lon": 11.5602888,
            "addr:housenumber": "11",
            "addr:street": "Oswald-von-Wolkenstein-Straße - Via Oswald von Wolkenstein",
            "indoor_seating": "no",
            "name": "Trocker",
            "opening_hours": "Mo-Sa 06:30-12:00, 15:00-19:00; Su off",
            "outdoor_seating": "no",
            "shop": "bakery",
            "takeaway": "only"
          },
          "geometry": {
            "type": "Point",
            "coordinates": [
              11.5602888,
              46.5670317
            ]
          }
        },
        {
          "type": "Feature",
          "properties": {
            "id": "518819158",
            "osm_type": "node",
            "lat": 46.5519272,
            "lon": 11.8729392,
            "addr:postcode": "39033",
            "check_date": "2023-09-21",
            "name": "Dorigo",
            "opening_hours": "Mo-Su 08:00-12:30, 15:00-19:00",
            "shop": "bakery"
          },
          "geometry": {
            "type": "Point",
            "coordinates": [
              11.8729392,
              46.5519272
            ]
          }
        },
        {
          "type": "Feature",
          "properties": {
            "id": "1312808936",
            "osm_type": "node",
            "lat": 46.641854,
            "lon": 11.6809412,
            "fax": "+39 0472 841076",
            "indoor_seating": "no",
            "name": "Gasser",
            "opening_hours": "Mo-Fr 06:30-12:00,15:00-19:00; Sa 06:30-12:00; Jul-Aug Sa 06:30-12:00,15:00-18:00; PH off",
            "outdoor_seating": "no",
            "payment:credit_cards": "yes",
            "payment:debit_cards": "yes",
            "phone": "+39 0472 841 076",
            "shop": "bakery",
            "takeaway": "only",
            "website": "http://www.baeckerei-gasser.it/filialen/villnoess-stpeter.html",
            "wheelchair": "yes"
          },
          "geometry": {
            "type": "Point",
            "coordinates": [
              11.6809412,
              46.641854
            ]
          }
        },
        {
          "type": "Feature",
          "properties": {
            "id": "1358284996",
            "osm_type": "node",
            "lat": 46.4764621,
            "lon": 11.7731022,
            "addr:housenumber": "110",
            "addr:street": "Strèda Dolomites",
            "name": "Panificio Bäckerei",
            "shop": "bakery"
          },
          "geometry": {
            "type": "Point",
            "coordinates": [
              11.7731022,
              46.4764621
            ]
          }
        },
        {
          "type": "Feature",
          "properties": {
            "id": "1481489014",
            "osm_type": "node",
            "lat": 46.6399957,
            "lon": 11.5661514,
            "check_date": "2025-07-25",
            "indoor_seating": "no",
            "name": "Trocker",
            "opening_hours": "Mo-Sa 06:30-12:00, Mo-Fr 15:30-19:00",
            "outdoor_seating": "no",
            "shop": "bakery",
            "takeaway": "only",
            "wheelchair": "yes"
          },
          "geometry": {
            "type": "Point",
            "coordinates": [
              11.5661514,
              46.6399957
            ]
          }
        },
        {
          "type": "Feature",
          "properties": {
            "id": "1538122829",
            "osm_type": "node",
            "lat": 46.3766716,
            "lon": 11.658337,
            "name": "Panificio pasticceria Zanoner",
            "shop": "bakery"
          },
          "geometry": {
            "type": "Point",
            "coordinates": [
              11.658337,
              46.3766716
            ]
          }
        },
        {
          "type": "Feature",
          "properties": {
            "id": "1636849142",
            "osm_type": "node",
            "lat": 46.573097,
            "lon": 11.6754117,
            "shop": "bakery"
          },
          "geometry": {
            "type": "Point",
            "coordinates": [
              11.6754117,
              46.573097
            ]
          }
        },
        {
          "type": "Feature",
          "properties": {
            "id": "1636849154",
            "osm_type": "node",
            "lat": 46.5742328,
            "lon": 11.6623654,
            "name": "Trocker",
            "shop": "bakery"
          },
          "geometry": {
            "type": "Point",
            "coordinates": [
              11.6623654,
              46.5742328
            ]
          }
        },
        {
          "type": "Feature",
          "properties": {
            "id": "1636849155",
            "osm_type": "node",
            "lat": 46.5757299,
            "lon": 11.6718282,
            "addr:housenumber": "3",
            "addr:street": "Streda Sneton",
            "name": "Berna",
            "shop": "bakery"
          },
          "geometry": {
            "type": "Point",
            "coordinates": [
              11.6718282,
              46.5757299
            ]
          }
        },
        {
          "type": "Feature",
          "properties": {
            "id": "1636849156",
            "osm_type": "node",
            "lat": 46.5579487,
            "lon": 11.7208573,
            "name": "Butèiga dal Pan",
            "name:lld": "Butèiga dal Pan",
            "operator": "Überbacher",
            "shop": "bakery"
          },
          "geometry": {
            "type": "Point",
            "coordinates": [
              11.7208573,
              46.5579487
            ]
          }
        },
        {
          "type": "Feature",
          "properties": {
            "id": "1660548542",
            "osm_type": "node",
            "lat": 46.3959043,
            "lon": 11.6676964,
            "name": "Panificio Boninsegna",
            "shop": "bakery"
          },
          "geometry": {
            "type": "Point",
            "coordinates": [
              11.6676964,
              46.3959043
            ]
          }
        },
        {
          "type": "Feature",
          "properties": {
            "id": "1706049661",
            "osm_type": "node",
            "lat": 46.6975211,
            "lon": 11.9315669,
            "name": "Pech d'Al Plan",
            "shop": "bakery"
          },
          "geometry": {
            "type": "Point",
            "coordinates": [
              11.9315669,
              46.6975211
            ]
          }
        },
        {
          "type": "Feature",
          "properties": {
            "id": "1722126770",
            "osm_type": "node",
            "lat": 46.5751228,
            "lon": 11.6709349,
            "addr:city": "Urtijëi - St.Ulrich - Ortisei",
            "addr:housenumber": "2",
            "addr:postcode": "39046",
            "addr:street": "Plaza San Durich",
            "name": "Trocker",
            "name:de": "Bäckerei Trocker",
            "name:it": "Panificio Trocker",
            "name:lad": "Pech Trocker",
            "opening_hours": "Mo-We, Fr 06:30-12:00, 15:00-18:00; Th, Sa 06:30-12:00",
            "phone": "+39 0471 797899",
            "shop": "bakery",
            "website": "https://www.valgardena.it/en/addresses/detail/base/poi/ortisei-val-gardena/bakery-trocker/1410B953269646678D7DD1BFD2BC4C53/"
          },
          "geometry": {
            "type": "Point",
            "coordinates": [
              11.6709349,
              46.5751228
            ]
          }
        },
        {
          "type": "Feature",
          "properties": {
            "id": "1948870934",
            "osm_type": "node",
            "lat": 46.5531384,
            "lon": 11.7627321,
            "addr:housenumber": "258",
            "addr:street": "Streda Mëisules",
            "name": "Costa",
            "opening_hours": "Mo-Sa 06:30-19:00",
            "phone": "+39 0471 795132",
            "shop": "bakery",
            "website": "https://www.valgardena.it/en/addresses/detail/base/poi/selva-val-gardena/bakery-costa/10C2BC306BA34B369D1187A9CA226CFE/"
          },
          "geometry": {
            "type": "Point",
            "coordinates": [
              11.7627321,
              46.5531384
            ]
          }
        },
        {
          "type": "Feature",
          "properties": {
            "id": "2015370729",
            "osm_type": "node",
            "lat": 46.6393777,
            "lon": 11.5656096,
            "check_date": "2025-07-25",
            "indoor_seating": "yes",
            "name": "Gasser",
            "outdoor_seating": "no",
            "shop": "bakery",
            "wheelchair": "yes"
          },
          "geometry": {
            "type": "Point",
            "coordinates": [
              11.5656096,
              46.6393777
            ]
          }
        },
        {
          "type": "Feature",
          "properties": {
            "id": "2015370749",
            "osm_type": "node",
            "lat": 46.6429823,
            "lon": 11.5724661,
            "indoor_seating": "yes",
            "name": "Überbacher",
            "outdoor_seating": "yes",
            "shop": "bakery",
            "wheelchair": "yes"
          },
          "geometry": {
            "type": "Point",
            "coordinates": [
              11.5724661,
              46.6429823
            ]
          }
        },
        {
          "type": "Feature",
          "properties": {
            "id": "2184361172",
            "osm_type": "node",
            "lat": 46.474849,
            "lon": 11.7439886,
            "shop": "bakery"
          },
          "geometry": {
            "type": "Point",
            "coordinates": [
              11.7439886,
              46.474849
            ]
          }
        },
        {
          "type": "Feature",
          "properties": {
            "id": "2402276385",
            "osm_type": "node",
            "lat": 46.4303294,
            "lon": 11.6899377,
            "addr:city": "Pozza di Fassa",
            "addr:country": "IT",
            "addr:housenumber": "4",
            "addr:postcode": "38036",
            "addr:street": "Piaza Deodat De' Dolmieu",
            "name": "Panificio El Peck",
            "shop": "bakery"
          },
          "geometry": {
            "type": "Point",
            "coordinates": [
              11.6899377,
              46.4303294
            ]
          }
        },
        {
          "type": "Feature",
          "properties": {
            "id": "2423847556",
            "osm_type": "node",
            "lat": 46.420082,
            "lon": 11.6720004,
            "addr:housenumber": "26",
            "addr:state": "32",
            "addr:street": "Strada Rezia",
            "baby_feeding": "no",
            "contact:phone": "+39 0462 763563",
            "kids_area": "no",
            "level": "0",
            "name": "Panificio Boninsegna",
            "opening_hours": "Mo-Sa 07:00-12:30,16:15-19:00; Su 07:00-12:30; PH closed",
            "operator": "Boninsegna snc",
            "ref:vatin": "IT02004320228",
            "shop": "bakery",
            "wheelchair": "yes"
          },
          "geometry": {
            "type": "Point",
            "coordinates": [
              11.6720004,
              46.420082
            ]
          }
        },
        {
          "type": "Feature",
          "properties": {
            "id": "2429578381",
            "osm_type": "node",
            "lat": 46.6378291,
            "lon": 11.5622246,
            "name": "Überbacher",
            "shop": "bakery"
          },
          "geometry": {
            "type": "Point",
            "coordinates": [
              11.5622246,
              46.6378291
            ]
          }
        },
        {
          "type": "Feature",
          "properties": {
            "id": "2454263887",
            "osm_type": "node",
            "lat": 46.5708391,
            "lon": 11.9321143,
            "name": "Bäckerei Ploner",
            "shop": "bakery"
          },
          "geometry": {
            "type": "Point",
            "coordinates": [
              11.9321143,
              46.5708391
            ]
          }
        },
        {
          "type": "Feature",
          "properties": {
            "id": "2482403777",
            "osm_type": "node",
            "lat": 46.4770393,
            "lon": 11.7720178,
            "addr:city": "Canazei",
            "addr:housenumber": "149",
            "addr:postcode": "38032",
            "addr:street": "Strèda Dolomites",
            "name": "Zanoner negozio Canazei",
            "opening_hours": "Mo-Fr 07:00-12:15; Sa 07:00-12:15,16:30-19:00; Su 07:00-12:15",
            "payment:cash": "yes",
            "payment:credit_cards": "yes",
            "payment:mastercard": "yes",
            "payment:visa": "yes",
            "phone": "0462 600105",
            "shop": "bakery",
            "website": "http://www.panificiozanoner.it/S/147619/negozio-di-canazei.htm"
          },
          "geometry": {
            "type": "Point",
            "coordinates": [
              11.7720178,
              46.4770393
            ]
          }
        },
        {
          "type": "Feature",
          "properties": {
            "id": "2587982818",
            "osm_type": "node",
            "lat": 46.5508039,
            "lon": 11.8739898,
            "check_date": "2023-09-21",
            "name": "Seppi",
            "shop": "bakery",
            "source": "knowledge"
          },
          "geometry": {
            "type": "Point",
            "coordinates": [
              11.8739898,
              46.5508039
            ]
          }
        },
        {
          "type": "Feature",
          "properties": {
            "id": "3366605664",
            "osm_type": "node",
            "lat": 46.4303831,
            "lon": 11.5386319,
            "addr:city": "Welschnofen",
            "addr:housenumber": "30",
            "addr:postcode": "39056",
            "addr:street": "Romstraße",
            "shop": "bakery",
            "wheelchair": "no"
          },
          "geometry": {
            "type": "Point",
            "coordinates": [
              11.5386319,
              46.4303831
            ]
          }
        },
        {
          "type": "Feature",
          "properties": {
            "id": "5368515475",
            "osm_type": "node",
            "lat": 46.437301,
            "lon": 11.6921692,
            "name": "Panificio Bernard",
            "opening_hours": "Mo-We, Fr, Sa 07:00-12:00, 16:00-19:00; Th, Su 07:00-12:00",
            "shop": "bakery"
          },
          "geometry": {
            "type": "Point",
            "coordinates": [
              11.6921692,
              46.437301
            ]
          }
        },
        {
          "type": "Feature",
          "properties": {
            "id": "5468810922",
            "osm_type": "node",
            "lat": 46.6081951,
            "lon": 11.5678919,
            "name": "Überbacher",
            "opening_hours": "Mo-Fr 06:00-12:00; Sa 07:00-12:00",
            "phone": "+39 0471 655771",
            "shop": "bakery",
            "website": "https://www.baeckerei-ueberbacher.it/"
          },
          "geometry": {
            "type": "Point",
            "coordinates": [
              11.5678919,
              46.6081951
            ]
          }
        },
        {
          "type": "Feature",
          "properties": {
            "id": "5802096655",
            "osm_type": "node",
            "lat": 46.5445525,
            "lon": 11.5609779,
            "indoor_seating": "no",
            "name": "Oberprantacher",
            "opening_hours": "Mo-Sa 06:30-12:00, 15:30-18:30",
            "outdoor_seating": "no",
            "shop": "bakery",
            "takeaway": "only",
            "wheelchair": "yes"
          },
          "geometry": {
            "type": "Point",
            "coordinates": [
              11.5609779,
              46.5445525
            ]
          }
        },
        {
          "type": "Feature",
          "properties": {
            "id": "7809426576",
            "osm_type": "node",
            "lat": 46.4381316,
            "lon": 11.9951578,
            "indoor_seating": "no",
            "name": "Panificio Levai",
            "outdoor_seating": "no",
            "shop": "bakery",
            "takeaway": "only"
          },
          "geometry": {
            "type": "Point",
            "coordinates": [
              11.9951578,
              46.4381316
            ]
          }
        },
        {
          "type": "Feature",
          "properties": {
            "id": "9383867399",
            "osm_type": "node",
            "lat": 46.4979357,
            "lon": 11.8757245,
            "name": "Alimentari Costa",
            "shop": "bakery"
          },
          "geometry": {
            "type": "Point",
            "coordinates": [
              11.8757245,
              46.4979357
            ]
          }
        },
        {
          "type": "Feature",
          "properties": {
            "id": "9754548662",
            "osm_type": "node",
            "lat": 46.6160058,
            "lon": 11.5341074,
            "addr:city": "Villanders - Villandro",
            "addr:housenumber": "17",
            "addr:postcode": "39040",
            "addr:street": "Kalchgrube",
            "email": "info@niki-back.com",
            "name": "Niki Back",
            "operator": "Niki Back GmbH",
            "phone": "+39 0471 650061",
            "ref:vatin": "IT03115900213",
            "shop": "bakery",
            "website": "https://www.niki-back.com"
          },
          "geometry": {
            "type": "Point",
            "coordinates": [
              11.5341074,
              46.6160058
            ]
          }
        },
        {
          "type": "Feature",
          "properties": {
            "id": "11288036369",
            "osm_type": "node",
            "lat": 46.6974926,
            "lon": 11.9317749,
            "shop": "bakery"
          },
          "geometry": {
            "type": "Point",
            "coordinates": [
              11.9317749,
              46.6974926
            ]
          }
        },
        {
          "type": "Feature",
          "properties": {
            "id": "11472793696",
            "osm_type": "node",
            "lat": 46.6324891,
            "lon": 11.5409354,
            "indoor_seating": "yes",
            "name": "Stampfl's Brot",
            "name:de": "Stampfl's Brot",
            "name:it": "Stampfl's Pane",
            "opening_hours": "Mo-Fr 06:30-12:00,14:30-18:00; Sa 06:30-12:30",
            "outdoor_seating": "yes",
            "shop": "bakery",
            "wheelchair": "yes"
          },
          "geometry": {
            "type": "Point",
            "coordinates": [
              11.5409354,
              46.6324891
            ]
          }
        },
        {
          "type": "Feature",
          "properties": {
            "id": "2721631666",
            "osm_type": "node",
            "lat": 46.5397397,
            "lon": 12.1345721,
            "addr:city": "Cortina d'Ampezzo",
            "addr:housenumber": "14",
            "addr:postcode": "32043",
            "addr:street": "Piazza Pittori Fratelli Ghedina",
            "contact:phone": "+39 0436 862166",
            "name": "Panificio Alverà",
            "opening_hours": "Mo-Su 07:00-19:30",
            "operator": "Massimo Alverà",
            "pastry_shop": "yes",
            "shop": "bakery"
          },
          "geometry": {
            "type": "Point",
            "coordinates": [
              12.1345721,
              46.5397397
            ]
          }
        },
        {
          "type": "Feature",
          "properties": {
            "id": "3857674673",
            "osm_type": "node",
            "lat": 46.3922456,
            "lon": 12.2916338,
            "addr:city": "Cibiana di Cadore",
            "addr:postcode": "32040",
            "name": "Panificio Bianchi",
            "shop": "bakery"
          },
          "geometry": {
            "type": "Point",
            "coordinates": [
              12.2916338,
              46.3922456
            ]
          }
        },
        {
          "type": "Feature",
          "properties": {
            "id": "3991019261",
            "osm_type": "node",
            "lat": 46.4607623,
            "lon": 12.2046181,
            "addr:city": "San Vito di Cadore",
            "addr:housenumber": "76",
            "addr:postcode": "32046",
            "addr:street": "Corso Italia",
            "indoor_seating": "no",
            "name": "Panificio Fiori",
            "official_name": "Panificio Fiori di Fonte Ivana",
            "opening_hours": "Mo-Sa 07:30-13:00,15:30-20:00; Su 07:30-13:00,16:00-19:30",
            "outdoor_seating": "yes",
            "shop": "bakery",
            "wheelchair": "limited"
          },
          "geometry": {
            "type": "Point",
            "coordinates": [
              12.2046181,
              46.4607623
            ]
          }
        },
        {
          "type": "Feature",
          "properties": {
            "id": "5242428022",
            "osm_type": "node",
            "lat": 46.6907263,
            "lon": 12.3656965,
            "addr:city": "Sexten - Sesto",
            "addr:housenumber": "12",
            "addr:postcode": "39030",
            "addr:street": "St.-Josef-Straße",
            "email": "baeckerei_happacher@rolmail.net",
            "name": "Happacher",
            "opening_hours": "Mo-Fr 06:30-12:00,15:00-18:45;Sa 06:30-12:00;PH off",
            "phone": "+39 0474 710348",
            "shop": "bakery"
          },
          "geometry": {
            "type": "Point",
            "coordinates": [
              12.3656965,
              46.6907263
            ]
          }
        },
        {
          "type": "Feature",
          "properties": {
            "id": "5723384503",
            "osm_type": "node",
            "lat": 46.5371152,
            "lon": 12.1362578,
            "shop": "bakery"
          },
          "geometry": {
            "type": "Point",
            "coordinates": [
              12.1362578,
              46.5371152
            ]
          }
        },
        {
          "type": "Feature",
          "properties": {
            "id": "5926781737",
            "osm_type": "node",
            "lat": 46.5365589,
            "lon": 12.1377341,
            "shop": "bakery"
          },
          "geometry": {
            "type": "Point",
            "coordinates": [
              12.1377341,
              46.5365589
            ]
          }
        },
        {
          "type": "Feature",
          "properties": {
            "id": "6106598583",
            "osm_type": "node",
            "lat": 46.5107048,
            "lon": 12.1517757,
            "addr:city": "Cortina d'Ampezzo",
            "addr:housenumber": "19a",
            "addr:place": "Località Pian da Lago",
            "addr:postcode": "32043",
            "ele": "1100",
            "email": "info@ghedina.org",
            "name": "Panificio Ghedina",
            "phone": "+39 0436 866313",
            "shop": "bakery",
            "website": "http://www.ghedina.org/"
          },
          "geometry": {
            "type": "Point",
            "coordinates": [
              12.1517757,
              46.5107048
            ]
          }
        },
        {
          "type": "Feature",
          "properties": {
            "id": "7236791549",
            "osm_type": "node",
            "lat": 46.7012751,
            "lon": 12.3508215,
            "email": "info@trenker.com",
            "name": "Trenker",
            "phone": "+39 0474 972112",
            "shop": "bakery",
            "website": "https://www.trenker.com/"
          },
          "geometry": {
            "type": "Point",
            "coordinates": [
              12.3508215,
              46.7012751
            ]
          }
        },
        {
          "type": "Feature",
          "properties": {
            "id": "9984094695",
            "osm_type": "node",
            "lat": 46.3742799,
            "lon": 12.1300254,
            "addr:city": "Val di Zoldo",
            "addr:housenumber": "12",
            "addr:postcode": "32012",
            "addr:street": "Via Fusine",
            "name": "Il fornaio",
            "phone": "+390437789190",
            "shop": "bakery"
          },
          "geometry": {
            "type": "Point",
            "coordinates": [
              12.1300254,
              46.3742799
            ]
          }
        },
        {
          "type": "Feature",
          "properties": {
            "id": "12858143012",
            "osm_type": "node",
            "lat": 46.4359789,
            "lon": 12.3637874,
            "shop": "bakery"
          },
          "geometry": {
            "type": "Point",
            "coordinates": [
              12.3637874,
              46.4359789
            ]
          }
        }
      ],
      "children": []
    },
    {
      "bbox": {
        "south": 46.372652,
        "west": 12.392062499999998,
        "north": 46.70320525,
        "east": 13.345766
      },
      "poiCount": 28,
      "leafCount": 28,
      "averagePosition": [
        12.894484039285715,
        46.50312841428571
      ],
      "data": [
        {
          "type": "Feature",
          "properties": {
            "id": "924305810",
            "osm_type": "node",
            "lat": 46.4852387,
            "lon": 12.4467795,
            "addr:housenumber": "136",
            "name": "Panificio De Meio",
            "opening_hours": "Mo-Sa 05:00-13:00,17:00-19:00; We 05:00-13:00",
            "phone": "+39 0435 76045",
            "shop": "bakery"
          },
          "geometry": {
            "type": "Point",
            "coordinates": [
              12.4467795,
              46.4852387
            ]
          }
        },
        {
          "type": "Feature",
          "properties": {
            "id": "1432658219",
            "osm_type": "node",
            "lat": 46.4605006,
            "lon": 12.4167526,
            "name": "Panificio Siciliano da Giovanni",
            "opening_hours": "Su 06:30-12:30; Mo-Sa 07:00-12:45, 16:00-19:30",
            "shop": "bakery"
          },
          "geometry": {
            "type": "Point",
            "coordinates": [
              12.4167526,
              46.4605006
            ]
          }
        },
        {
          "type": "Feature",
          "properties": {
            "id": "12323663330",
            "osm_type": "node",
            "lat": 46.5471278,
            "lon": 12.453188,
            "addr:city": "Auronzo di Cadore",
            "addr:housenumber": "31",
            "addr:postcode": "32041",
            "addr:street": "Via Unione",
            "name": "Panificio Da Ponte",
            "operator": "Panificio Nuovo di Da Ponte F. & C. SNC",
            "ref:vatin": "IT00187930250",
            "shop": "bakery"
          },
          "geometry": {
            "type": "Point",
            "coordinates": [
              12.453188,
              46.5471278
            ]
          }
        },
        {
          "type": "Feature",
          "properties": {
            "id": "1105107480",
            "osm_type": "node",
            "lat": 46.5590277,
            "lon": 12.5482745,
            "name": "Panificio pasticceria Baldissarutti",
            "shop": "bakery"
          },
          "geometry": {
            "type": "Point",
            "coordinates": [
              12.5482745,
              46.5590277
            ]
          }
        },
        {
          "type": "Feature",
          "properties": {
            "id": "1540327313",
            "osm_type": "node",
            "lat": 46.5519395,
            "lon": 12.8526913,
            "name": "Panificio pasticceria Riguladot Blarasin Giuliana",
            "shop": "bakery"
          },
          "geometry": {
            "type": "Point",
            "coordinates": [
              12.8526913,
              46.5519395
            ]
          }
        },
        {
          "type": "Feature",
          "properties": {
            "id": "1551867307",
            "osm_type": "node",
            "lat": 46.4069622,
            "lon": 13.0100025,
            "shop": "bakery"
          },
          "geometry": {
            "type": "Point",
            "coordinates": [
              13.0100025,
              46.4069622
            ]
          }
        },
        {
          "type": "Feature",
          "properties": {
            "id": "1551867339",
            "osm_type": "node",
            "lat": 46.4054086,
            "lon": 13.0117835,
            "shop": "bakery"
          },
          "geometry": {
            "type": "Point",
            "coordinates": [
              13.0117835,
              46.4054086
            ]
          }
        },
        {
          "type": "Feature",
          "properties": {
            "id": "1551867347",
            "osm_type": "node",
            "lat": 46.4066922,
            "lon": 13.0146642,
            "name": "Manin",
            "opening_hours": "Mo-Sa 06:30-13:00,15:00-19:00; Su 08:00-12:30",
            "shop": "bakery"
          },
          "geometry": {
            "type": "Point",
            "coordinates": [
              13.0146642,
              46.4066922
            ]
          }
        },
        {
          "type": "Feature",
          "properties": {
            "id": "1551879178",
            "osm_type": "node",
            "lat": 46.4032779,
            "lon": 13.0177061,
            "shop": "bakery"
          },
          "geometry": {
            "type": "Point",
            "coordinates": [
              13.0177061,
              46.4032779
            ]
          }
        },
        {
          "type": "Feature",
          "properties": {
            "id": "1882246156",
            "osm_type": "node",
            "lat": 46.529037,
            "lon": 13.016097,
            "name": "Panificio Pasticceria Nazzi",
            "shop": "bakery"
          },
          "geometry": {
            "type": "Point",
            "coordinates": [
              13.016097,
              46.529037
            ]
          }
        },
        {
          "type": "Feature",
          "properties": {
            "id": "3726029097",
            "osm_type": "node",
            "lat": 46.3940361,
            "lon": 12.6713914,
            "addr:city": "Forni di Sotto",
            "addr:housenumber": "202",
            "addr:place": "Borgo Tredolo",
            "addr:postcode": "33020",
            "name": "Panificio Pasticceria Nassivera Boris",
            "shop": "bakery",
            "website": "https://dolcimandi.it/"
          },
          "geometry": {
            "type": "Point",
            "coordinates": [
              12.6713914,
              46.3940361
            ]
          }
        },
        {
          "type": "Feature",
          "properties": {
            "id": "3730391237",
            "osm_type": "node",
            "lat": 46.4021254,
            "lon": 13.0139639,
            "name": "F.lli Bano",
            "shop": "bakery"
          },
          "geometry": {
            "type": "Point",
            "coordinates": [
              13.0139639,
              46.4021254
            ]
          }
        },
        {
          "type": "Feature",
          "properties": {
            "id": "3846371522",
            "osm_type": "node",
            "lat": 46.4096049,
            "lon": 12.8777981,
            "addr:city": "Enemonzo",
            "addr:housenumber": "85",
            "addr:postcode": "33020",
            "addr:street": "Via Nazionale",
            "name": "Al Vecchio Forno",
            "shop": "bakery"
          },
          "geometry": {
            "type": "Point",
            "coordinates": [
              12.8777981,
              46.4096049
            ]
          }
        },
        {
          "type": "Feature",
          "properties": {
            "id": "5073099116",
            "osm_type": "node",
            "lat": 46.5658269,
            "lon": 12.6845953,
            "name": "Tach panificio",
            "shop": "bakery"
          },
          "geometry": {
            "type": "Point",
            "coordinates": [
              12.6845953,
              46.5658269
            ]
          }
        },
        {
          "type": "Feature",
          "properties": {
            "id": "5078605357",
            "osm_type": "node",
            "lat": 46.5645391,
            "lon": 12.6757614,
            "cafe": "yes",
            "name": "dorfarpeck",
            "shop": "bakery"
          },
          "geometry": {
            "type": "Point",
            "coordinates": [
              12.6757614,
              46.5645391
            ]
          }
        },
        {
          "type": "Feature",
          "properties": {
            "id": "5082307178",
            "osm_type": "node",
            "lat": 46.520459,
            "lon": 12.8018503,
            "name": "Panificio Solari",
            "operator": "Paolo Solari",
            "shop": "bakery"
          },
          "geometry": {
            "type": "Point",
            "coordinates": [
              12.8018503,
              46.520459
            ]
          }
        },
        {
          "type": "Feature",
          "properties": {
            "id": "5136310426",
            "osm_type": "node",
            "lat": 46.6623873,
            "lon": 12.9993908,
            "entrance": "staircase",
            "indoor_seating": "yes",
            "name": "Bäckerei Fritz Klaus",
            "outdoor_seating": "no",
            "shop": "bakery"
          },
          "geometry": {
            "type": "Point",
            "coordinates": [
              12.9993908,
              46.6623873
            ]
          }
        },
        {
          "type": "Feature",
          "properties": {
            "id": "5137396131",
            "osm_type": "node",
            "lat": 46.6722988,
            "lon": 13.0026693,
            "check_date": "2025-07-19",
            "indoor_seating": "yes",
            "outdoor_seating": "yes",
            "shop": "bakery",
            "wheelchair": "yes"
          },
          "geometry": {
            "type": "Point",
            "coordinates": [
              13.0026693,
              46.6722988
            ]
          }
        },
        {
          "type": "Feature",
          "properties": {
            "id": "9050035417",
            "osm_type": "node",
            "lat": 46.4249481,
            "lon": 12.5791966,
            "level": "1",
            "name": "Panificio Fornese",
            "opening_hours": "Mo-Su 07:30-12:30",
            "shop": "bakery",
            "wheelchair": "no"
          },
          "geometry": {
            "type": "Point",
            "coordinates": [
              12.5791966,
              46.4249481
            ]
          }
        },
        {
          "type": "Feature",
          "properties": {
            "id": "9543882667",
            "osm_type": "node",
            "lat": 46.580393,
            "lon": 12.5736118,
            "name": "Eicher Clere",
            "shop": "bakery"
          },
          "geometry": {
            "type": "Point",
            "coordinates": [
              12.5736118,
              46.580393
            ]
          }
        },
        {
          "type": "Feature",
          "properties": {
            "id": "12941769779",
            "osm_type": "node",
            "lat": 46.5823787,
            "lon": 13.0049436,
            "name": "Silverio",
            "shop": "bakery"
          },
          "geometry": {
            "type": "Point",
            "coordinates": [
              13.0049436,
              46.5823787
            ]
          }
        },
        {
          "type": "Feature",
          "properties": {
            "id": "12994514602",
            "osm_type": "node",
            "lat": 46.3973205,
            "lon": 13.0272807,
            "name": "Kevin D'Agaro Pasticceria",
            "shop": "bakery"
          },
          "geometry": {
            "type": "Point",
            "coordinates": [
              13.0272807,
              46.3973205
            ]
          }
        },
        {
          "type": "Feature",
          "properties": {
            "id": "665212687",
            "osm_type": "node",
            "lat": 46.6620502,
            "lon": 13.0790748,
            "addr:country": "AT",
            "addr:housenumber": "64",
            "addr:postcode": "9635",
            "addr:street": "Dellach",
            "name": "Janschitz",
            "opening_hours": "Mo-Sa 06:30-12:00",
            "phone": "+434718 213",
            "shop": "bakery"
          },
          "geometry": {
            "type": "Point",
            "coordinates": [
              13.0790748,
              46.6620502
            ]
          }
        },
        {
          "type": "Feature",
          "properties": {
            "id": "2422472381",
            "osm_type": "node",
            "lat": 46.5284139,
            "lon": 13.1186544,
            "name": "Panificio Sbrizzai",
            "shop": "bakery"
          },
          "geometry": {
            "type": "Point",
            "coordinates": [
              13.1186544,
              46.5284139
            ]
          }
        },
        {
          "type": "Feature",
          "properties": {
            "id": "2577261220",
            "osm_type": "node",
            "lat": 46.4083882,
            "lon": 13.3101512,
            "shop": "bakery"
          },
          "geometry": {
            "type": "Point",
            "coordinates": [
              13.3101512,
              46.4083882
            ]
          }
        },
        {
          "type": "Feature",
          "properties": {
            "id": "11822362816",
            "osm_type": "node",
            "lat": 46.6591337,
            "lon": 13.3139124,
            "email": "office@baeckerei-moritz.eu",
            "name": "Bäckerei Hans Moritz",
            "opening_hours": "Mo-Su 06:00-19:00",
            "phone": "+43 4286 311",
            "shop": "bakery",
            "website": "https://baeckerei-moritz.eu/"
          },
          "geometry": {
            "type": "Point",
            "coordinates": [
              13.3139124,
              46.6591337
            ]
          }
        },
        {
          "type": "Feature",
          "properties": {
            "id": "12137263586",
            "osm_type": "node",
            "lat": 46.3929435,
            "lon": 13.2191042,
            "description": "bar;panificio;pasticceria;tabacchi;giornali;riviste",
            "shop": "bakery"
          },
          "geometry": {
            "type": "Point",
            "coordinates": [
              13.2191042,
              46.3929435
            ]
          }
        },
        {
          "type": "Feature",
          "properties": {
            "id": "12747385059",
            "osm_type": "node",
            "lat": 46.5051361,
            "lon": 13.3042637,
            "shop": "bakery"
          },
          "geometry": {
            "type": "Point",
            "coordinates": [
              13.3042637,
              46.5051361
            ]
          }
        }
      ],
      "children": []
    },
    {
      "bbox": {
        "south": 46.70320525,
        "west": 11.438358999999998,
        "north": 47.033758500000005,
        "east": 12.392062499999998
      },
      "poiCount": 55,
      "leafCount": 0,
      "averagePosition": [
        11.83178902,
        46.78200828000001
      ],
      "data": [],
      "children": [
        {
          "bbox": {
            "south": 46.70320525,
            "west": 11.438358999999998,
            "north": 46.868481875,
            "east": 11.915210749999998
          },
          "poiCount": 27,
          "leafCount": 27,
          "averagePosition": [
            11.674864762962963,
            46.74309727777778
          ],
          "data": [
            {
              "type": "Feature",
              "properties": {
                "id": "2191212564",
                "osm_type": "node",
                "lat": 46.8672884,
                "lon": 11.478978,
                "brand": "Spar",
                "brand:wikidata": "Q610492",
                "brand:wikipedia": "en:Spar (retailer)",
                "name": "Walcher",
                "opening_hours": "Mo-Sa 09:00-19:00",
                "shop": "bakery"
              },
              "geometry": {
                "type": "Point",
                "coordinates": [
                  11.478978,
                  46.8672884
                ]
              }
            },
            {
              "type": "Feature",
              "properties": {
                "id": "470599642",
                "osm_type": "node",
                "lat": 46.7163949,
                "lon": 11.660782,
                "addr:city": "Brixen - Bressanone",
                "addr:city:de": "Brixen",
                "addr:city:it": "Bressanone",
                "addr:housenumber": "1",
                "addr:postcode": "39042",
                "addr:street": "Unterdrittelgasse - Via Terzo di Sotto",
                "addr:street:de": "Unterdrittelgasse",
                "addr:street:it": "Via Terzo di Sotto",
                "check_date:opening_hours": "2020-10-19",
                "name": "Mutschlechner",
                "opening_hours": "Mo-Sa 07:15-12:00, Mo-Fr 15:30-18:30",
                "shop": "bakery",
                "wheelchair": "no"
              },
              "geometry": {
                "type": "Point",
                "coordinates": [
                  11.660782,
                  46.7163949
                ]
              }
            },
            {
              "type": "Feature",
              "properties": {
                "id": "471632920",
                "osm_type": "node",
                "lat": 46.7167169,
                "lon": 11.6587465,
                "addr:city": "Brixen - Bressanone",
                "addr:city:de": "Brixen",
                "addr:city:it": "Bressanone",
                "addr:country": "IT",
                "addr:housenumber": "14",
                "addr:postcode": "39042",
                "addr:street": "Adlerbrückengasse - Via Ponte Aquila",
                "addr:street:de": "Adlerbrückengasse",
                "addr:street:it": "Via Ponte Aquila",
                "alt_name": "Casa dello Strudel",
                "cuisine": "ice_cream",
                "lastcheck": "2018-08-30",
                "name": "Profanter",
                "opening_hours": "Mo-Fr 07:30-12:45, 15:00-18:30; Sa 07:30-13:00",
                "operator": "Profanter",
                "phone": "+39 0472 200772",
                "shop": "bakery",
                "wheelchair": "limited"
              },
              "geometry": {
                "type": "Point",
                "coordinates": [
                  11.6587465,
                  46.7167169
                ]
              }
            },
            {
              "type": "Feature",
              "properties": {
                "id": "767946620",
                "osm_type": "node",
                "lat": 46.7078452,
                "lon": 11.6616271,
                "addr:city": "Brixen - Bressanone",
                "addr:housenumber": "35/B",
                "addr:postcode": "39042",
                "addr:street": "Plosestraße - Via Plose",
                "name": "Profanter",
                "opening_hours": "Mo-Fr 06:00-13:00,15:00-19:00; Sa 06:00-13:00,15:00-18:00",
                "phone": "+390472836258",
                "shop": "bakery"
              },
              "geometry": {
                "type": "Point",
                "coordinates": [
                  11.6616271,
                  46.7078452
                ]
              }
            },
            {
              "type": "Feature",
              "properties": {
                "id": "767946653",
                "osm_type": "node",
                "lat": 46.7090755,
                "lon": 11.6613371,
                "contact:phone": "+39 0472 830434",
                "indoor_seating": "yes",
                "name": "Alberti",
                "opening_hours": "Mo-Fr 06:00-12:30,15:00-19:00; Sa 06:00-12:30",
                "outdoor_seating": "yes",
                "shop": "bakery",
                "wheelchair": "yes"
              },
              "geometry": {
                "type": "Point",
                "coordinates": [
                  11.6613371,
                  46.7090755
                ]
              }
            },
            {
              "type": "Feature",
              "properties": {
                "id": "767946700",
                "osm_type": "node",
                "lat": 46.7122063,
                "lon": 11.6664453,
                "name": "Profanter",
                "shop": "bakery"
              },
              "geometry": {
                "type": "Point",
                "coordinates": [
                  11.6664453,
                  46.7122063
                ]
              }
            },
            {
              "type": "Feature",
              "properties": {
                "id": "939123515",
                "osm_type": "node",
                "lat": 46.7863183,
                "lon": 11.6125178,
                "check_date": "2024-09-14",
                "indoor_seating": "yes",
                "level": "-1",
                "name": "Brotladele Riol Panetteria",
                "name:de": "Brotladele Riol",
                "name:it": "Panetteria Riol",
                "opening_hours": "Mo-Sa 07:30-12:00",
                "outdoor_seating": "no",
                "phone": "+39 0472 458609",
                "shop": "bakery",
                "wheelchair": "no"
              },
              "geometry": {
                "type": "Point",
                "coordinates": [
                  11.6125178,
                  46.7863183
                ]
              }
            },
            {
              "type": "Feature",
              "properties": {
                "id": "1443332671",
                "osm_type": "node",
                "lat": 46.7832288,
                "lon": 11.9015669,
                "addr:city": "Sankt Lorenzen",
                "addr:country": "IT",
                "addr:housenumber": "14",
                "addr:postcode": "39030",
                "addr:street": "Josef-Renzler-Straße",
                "name": "Gatterer",
                "shop": "bakery"
              },
              "geometry": {
                "type": "Point",
                "coordinates": [
                  11.9015669,
                  46.7832288
                ]
              }
            },
            {
              "type": "Feature",
              "properties": {
                "id": "1930941372",
                "osm_type": "node",
                "lat": 46.7178742,
                "lon": 11.65675,
                "addr:city": "Brixen - Bressanone",
                "addr:housenumber": "48",
                "addr:postcode": "39032",
                "addr:street": "Via Rio Scaleres",
                "branch": "Brixen - Altenmarktgasse",
                "contact:email": "info@profanter.it",
                "contact:phone": "+39 472 88 55 88",
                "contact:website": "https://www.profanter.it/",
                "indoor_seating": "no",
                "name": "Natur-Backstube Profanter",
                "opening_hours": "Mo-Fr 08:00-19:00; Sa 08:00-18:00",
                "organic": "yes",
                "outdoor_seating": "no",
                "shop": "bakery",
                "takeaway": "only",
                "wheelchair": "yes"
              },
              "geometry": {
                "type": "Point",
                "coordinates": [
                  11.65675,
                  46.7178742
                ]
              }
            },
            {
              "type": "Feature",
              "properties": {
                "id": "1930941373",
                "osm_type": "node",
                "lat": 46.7186043,
                "lon": 11.6565072,
                "addr:city": "Brixen - Bressanone",
                "addr:postcode": "39042",
                "check_date:opening_hours": "2021-10-19",
                "contact:website": "https://www.mutschlechner.biz/",
                "indoor_seating": "no",
                "name": "Bäckerei Mutschlechner",
                "opening_hours": "Mo-Fr 07:15-12:30,15:00-19:00; Sa 07:15-12:30",
                "outdoor_seating": "no",
                "shop": "bakery",
                "takeaway": "only",
                "wheelchair": "yes"
              },
              "geometry": {
                "type": "Point",
                "coordinates": [
                  11.6565072,
                  46.7186043
                ]
              }
            },
            {
              "type": "Feature",
              "properties": {
                "id": "2294713133",
                "osm_type": "node",
                "lat": 46.8155132,
                "lon": 11.7347682,
                "shop": "bakery"
              },
              "geometry": {
                "type": "Point",
                "coordinates": [
                  11.7347682,
                  46.8155132
                ]
              }
            },
            {
              "type": "Feature",
              "properties": {
                "id": "2328413439",
                "osm_type": "node",
                "lat": 46.8302217,
                "lon": 11.7792535,
                "name": "Harregger",
                "shop": "bakery"
              },
              "geometry": {
                "type": "Point",
                "coordinates": [
                  11.7792535,
                  46.8302217
                ]
              }
            },
            {
              "type": "Feature",
              "properties": {
                "id": "2398784171",
                "osm_type": "node",
                "lat": 46.7133598,
                "lon": 11.6520592,
                "addr:city": "Brixen - Bressanone",
                "addr:city:de": "Brixen",
                "addr:city:it": "Bressanone",
                "addr:housenumber": "26",
                "addr:postcode": "39042",
                "addr:street": "Bahnhofstraße - Viale Stazione",
                "addr:street:de": "Bahnhofstraße",
                "addr:street:it": "Viale Stazione",
                "contact:phone": "+39 0472 833125",
                "name": "Alberti",
                "opening_hours": "Mo-Fr 04:00-19:00; Sa 08:30-19:00",
                "shop": "bakery"
              },
              "geometry": {
                "type": "Point",
                "coordinates": [
                  11.6520592,
                  46.7133598
                ]
              }
            },
            {
              "type": "Feature",
              "properties": {
                "id": "2424657471",
                "osm_type": "node",
                "lat": 46.7165646,
                "lon": 11.6571059,
                "indoor_seating": "yes",
                "name": "Lemayr",
                "opening_hours:signed": "no",
                "outdoor_seating": "no",
                "shop": "bakery",
                "wheelchair": "no"
              },
              "geometry": {
                "type": "Point",
                "coordinates": [
                  11.6571059,
                  46.7165646
                ]
              }
            },
            {
              "type": "Feature",
              "properties": {
                "id": "2426073882",
                "osm_type": "node",
                "lat": 46.7152855,
                "lon": 11.6545972,
                "indoor_seating": "yes",
                "name": "Stampfl",
                "opening_hours": "Mo-Fr 07:00-19:00; Sa 07:00-18:00",
                "outdoor_seating": "yes",
                "shop": "bakery",
                "wheelchair": "yes"
              },
              "geometry": {
                "type": "Point",
                "coordinates": [
                  11.6545972,
                  46.7152855
                ]
              }
            },
            {
              "type": "Feature",
              "properties": {
                "id": "2426750952",
                "osm_type": "node",
                "lat": 46.7166889,
                "lon": 11.6545686,
                "addr:city": "Brixen - Bressanone",
                "addr:city:de": "Brixen",
                "addr:city:it": "Bressanone",
                "addr:housenumber": "4a",
                "addr:postcode": "39042",
                "addr:street": "Kleiner Graben - Via Bastioni Minori",
                "addr:street:de": "Kleiner Graben",
                "addr:street:it": "Via Bastioni Minori",
                "name": "Mutschlechner",
                "opening_hours": "Mo-Fr 06:30-19:00; Sa 06:30-18:00",
                "shop": "bakery",
                "wheelchair": "yes"
              },
              "geometry": {
                "type": "Point",
                "coordinates": [
                  11.6545686,
                  46.7166889
                ]
              }
            },
            {
              "type": "Feature",
              "properties": {
                "id": "2429657283",
                "osm_type": "node",
                "lat": 46.7157606,
                "lon": 11.6554778,
                "addr:city": "Brixen - Bressanone",
                "addr:city:de": "Brixen",
                "addr:city:it": "Bressanone",
                "addr:housenumber": "1b",
                "addr:postcode": "39042",
                "addr:street": "Erhardgasse - Via S. Erardo",
                "addr:street:de": "Erhardgasse",
                "addr:street:it": "Via S. Erardo",
                "check_date": "2023-09-26",
                "fax": "+39 0472 205669",
                "fixme": "Nodo duplicato - Duplicated node",
                "name": "Gasser",
                "opening_hours": "Mo-Fr 07:00-18:00; Sa 07:00-14:00; Su,PH off",
                "operator": "Siegfried & Co Kg",
                "phone": "+39 0472 201892",
                "ref:vatin": "IT02737590212",
                "shop": "bakery",
                "start_date": "15/12/2011",
                "website": "http://www.baeckerei-gasser.it/it/punti-vendita/bressanone-piazza-san-erardo.html",
                "wheelchair": "yes"
              },
              "geometry": {
                "type": "Point",
                "coordinates": [
                  11.6554778,
                  46.7157606
                ]
              }
            },
            {
              "type": "Feature",
              "properties": {
                "id": "2430299379",
                "osm_type": "node",
                "lat": 46.7173096,
                "lon": 11.6572213,
                "branch": "Snackcafè Großer Graben Brixen",
                "contact:website": "https://www.baeckerei-gasser.it",
                "indoor_seating": "yes",
                "name": "Gasser",
                "opening_hours": "Mo-Fr 07:00-18:00; Sa 07:00-14:00",
                "outdoor_seating": "yes",
                "payment:credit_cards": "yes",
                "payment:debit_cards": "yes",
                "shop": "bakery",
                "wheelchair": "no"
              },
              "geometry": {
                "type": "Point",
                "coordinates": [
                  11.6572213,
                  46.7173096
                ]
              }
            },
            {
              "type": "Feature",
              "properties": {
                "id": "2430631864",
                "osm_type": "node",
                "lat": 46.7144302,
                "lon": 11.6589516,
                "mapillary": "1100022085060835",
                "name": "Mutschlechner",
                "opening_hours": "Mo-Sa 06:30-12:30",
                "shop": "bakery",
                "wheelchair": "no"
              },
              "geometry": {
                "type": "Point",
                "coordinates": [
                  11.6589516,
                  46.7144302
                ]
              }
            },
            {
              "type": "Feature",
              "properties": {
                "id": "2430895009",
                "osm_type": "node",
                "lat": 46.7211781,
                "lon": 11.6505578,
                "addr:city": "Brixen - Bressanone",
                "addr:city:de": "Brixen",
                "addr:city:it": "Bressanone",
                "addr:housenumber": "64",
                "addr:postcode": "39042",
                "addr:street": "Dantestraße - Via Dante",
                "addr:street:de": "Dantestraße",
                "addr:street:it": "Via Dante",
                "name": "Mutschlechner",
                "opening_hours": "Mo-Fr 06:30-13:00,15:00-19:00; Sa 06:30-12:30",
                "shop": "bakery"
              },
              "geometry": {
                "type": "Point",
                "coordinates": [
                  11.6505578,
                  46.7211781
                ]
              }
            },
            {
              "type": "Feature",
              "properties": {
                "id": "2435215841",
                "osm_type": "node",
                "lat": 46.7099858,
                "lon": 11.6510139,
                "name": "Gasser",
                "shop": "bakery"
              },
              "geometry": {
                "type": "Point",
                "coordinates": [
                  11.6510139,
                  46.7099858
                ]
              }
            },
            {
              "type": "Feature",
              "properties": {
                "id": "2451931996",
                "osm_type": "node",
                "lat": 46.7216331,
                "lon": 11.6526136,
                "name": "Profanter",
                "shop": "bakery"
              },
              "geometry": {
                "type": "Point",
                "coordinates": [
                  11.6526136,
                  46.7216331
                ]
              }
            },
            {
              "type": "Feature",
              "properties": {
                "id": "2569972719",
                "osm_type": "node",
                "lat": 46.7165475,
                "lon": 11.6555061,
                "name": "Alberti",
                "opening_hours": "Mo-Fr 06:30-12:30,14:30-19:00; Sa 06:30-12:30,14:30-18:00",
                "shop": "bakery"
              },
              "geometry": {
                "type": "Point",
                "coordinates": [
                  11.6555061,
                  46.7165475
                ]
              }
            },
            {
              "type": "Feature",
              "properties": {
                "id": "3337846613",
                "osm_type": "node",
                "lat": 46.8107315,
                "lon": 11.8831968,
                "name": "Bäckerei Gatterer",
                "shop": "bakery"
              },
              "geometry": {
                "type": "Point",
                "coordinates": [
                  11.8831968,
                  46.8107315
                ]
              }
            },
            {
              "type": "Feature",
              "properties": {
                "id": "9624247553",
                "osm_type": "node",
                "lat": 46.7157408,
                "lon": 11.6532228,
                "name": "Trenker",
                "name:de": "Trenker",
                "opening_hours": "Mo-Fr 07:00-18:00; Sa 07:00-13:00",
                "shop": "bakery",
                "wheelchair": "yes"
              },
              "geometry": {
                "type": "Point",
                "coordinates": [
                  11.6532228,
                  46.7157408
                ]
              }
            },
            {
              "type": "Feature",
              "properties": {
                "id": "10054108758",
                "osm_type": "node",
                "lat": 46.781008,
                "lon": 11.6887202,
                "name": "Stampfl",
                "shop": "bakery"
              },
              "geometry": {
                "type": "Point",
                "coordinates": [
                  11.6887202,
                  46.781008
                ]
              }
            },
            {
              "type": "Feature",
              "properties": {
                "id": "12859483502",
                "osm_type": "node",
                "lat": 46.7961148,
                "lon": 11.6672562,
                "branch": "Mühlbach - Rio Pusteria",
                "branch:de": "Mühlbach",
                "branch:it": "Rio Pusteria",
                "contact:email": "baeckerei@stampfl.it",
                "contact:fax": "+39 0472 454156",
                "contact:phone": "+39 0472 454326",
                "contact:website": "https://www.stampfl.it/",
                "name": "Bäckerei Stampfl - Panificio Stampfl",
                "name:de": "Bäckerei Stampfl",
                "name:it": "Panificio Stampfl",
                "ref:vatin": "IT02931130211",
                "shop": "bakery"
              },
              "geometry": {
                "type": "Point",
                "coordinates": [
                  11.6672562,
                  46.7961148
                ]
              }
            }
          ],
          "children": []
        },
        {
          "bbox": {
            "south": 46.70320525,
            "west": 11.915210749999998,
            "north": 46.868481875,
            "east": 12.392062499999998
          },
          "poiCount": 22,
          "leafCount": 22,
          "averagePosition": [
            12.046271222727272,
            46.78509791363637
          ],
          "data": [
            {
              "type": "Feature",
              "properties": {
                "id": "1296017892",
                "osm_type": "node",
                "lat": 46.7929378,
                "lon": 11.9304832,
                "addr:city": "Bruneck - Brunico",
                "addr:country": "IT",
                "addr:housenumber": "6f",
                "addr:postcode": "39031",
                "addr:street": "Sankt Lorenzner Straße - Via San Lorenzo",
                "name": "Graziadei",
                "shop": "bakery"
              },
              "geometry": {
                "type": "Point",
                "coordinates": [
                  11.9304832,
                  46.7929378
                ]
              }
            },
            {
              "type": "Feature",
              "properties": {
                "id": "1972698736",
                "osm_type": "node",
                "lat": 46.7613172,
                "lon": 12.0308884,
                "addr:city": "Olang - Valdaora",
                "addr:housenumber": "15",
                "addr:postcode": "39030",
                "addr:street": "Florianiplatz - Piazza Floriani",
                "addr:unit": "d",
                "check_date": "2025-08-21",
                "contact:facebook": "https://www.facebook.com/moserbaeckerei",
                "name": "Moser",
                "opening_hours": "Mo-Fr 06:00-12:00,15:30-18:30; Sa 06:00-12:00; Jul-Aug Sa 06:00-12:00,15:30-18:00; Jul-Aug Su 07:00-12:00",
                "operator": "Bäckerei Moser OHG",
                "phone": "+39 329 286 1440",
                "shop": "bakery",
                "wheelchair": "yes"
              },
              "geometry": {
                "type": "Point",
                "coordinates": [
                  12.0308884,
                  46.7613172
                ]
              }
            },
            {
              "type": "Feature",
              "properties": {
                "id": "2135209866",
                "osm_type": "node",
                "lat": 46.7964301,
                "lon": 11.9371091,
                "check_date": "2024-03-09",
                "name": "Graziadei",
                "opening_hours": "Mo-Fr 06:00-13:00,15:00-19:00; Sa 06:00-12:00; Su off",
                "outdoor_seating": "yes",
                "shop": "bakery",
                "wheelchair": "yes"
              },
              "geometry": {
                "type": "Point",
                "coordinates": [
                  11.9371091,
                  46.7964301
                ]
              }
            },
            {
              "type": "Feature",
              "properties": {
                "id": "2148987667",
                "osm_type": "node",
                "lat": 46.7967872,
                "lon": 11.9287421,
                "name": "Stegener Bäck",
                "shop": "bakery"
              },
              "geometry": {
                "type": "Point",
                "coordinates": [
                  11.9287421,
                  46.7967872
                ]
              }
            },
            {
              "type": "Feature",
              "properties": {
                "id": "3046074522",
                "osm_type": "node",
                "lat": 46.8663676,
                "lon": 11.9490518,
                "name": "Bäckerei Knapp",
                "shop": "bakery"
              },
              "geometry": {
                "type": "Point",
                "coordinates": [
                  11.9490518,
                  46.8663676
                ]
              }
            },
            {
              "type": "Feature",
              "properties": {
                "id": "5849453551",
                "osm_type": "node",
                "lat": 46.8364708,
                "lon": 11.9464154,
                "addr:housenumber": "4",
                "addr:street": "Ulrich Von Taufers Strasse - Via Von Taufers Ulrich",
                "check_date": "2025-08-10",
                "dog": "no",
                "name": "Bäckerei Konditorei Knapp",
                "opening_hours": "Mo-Fr 05:45-12:00,15:00-18:30; Sa 05:45-12:00; Su off",
                "shop": "bakery",
                "website": "http://www.knapp.bz.it"
              },
              "geometry": {
                "type": "Point",
                "coordinates": [
                  11.9464154,
                  46.8364708
                ]
              }
            },
            {
              "type": "Feature",
              "properties": {
                "id": "6791163730",
                "osm_type": "node",
                "lat": 46.7977175,
                "lon": 11.9378744,
                "check_date": "2024-03-09",
                "name": "Knapp",
                "opening_hours": "Mo-Fr 06:00-13:00, Tu 15:00-19:00, Sa 06:00-12:00",
                "shop": "bakery",
                "wheelchair": "yes"
              },
              "geometry": {
                "type": "Point",
                "coordinates": [
                  11.9378744,
                  46.7977175
                ]
              }
            },
            {
              "type": "Feature",
              "properties": {
                "id": "9003538765",
                "osm_type": "node",
                "lat": 46.7959292,
                "lon": 11.939577,
                "check_date": "2025-08-10",
                "name": "Bäckerei Frisch",
                "opening_hours": "Mo-Fr 06:00-19:00; Sa 06:00-18:00; Su off",
                "phone": "+39 0474 411140",
                "shop": "bakery",
                "wheelchair": "no"
              },
              "geometry": {
                "type": "Point",
                "coordinates": [
                  11.939577,
                  46.7959292
                ]
              }
            },
            {
              "type": "Feature",
              "properties": {
                "id": "11045990163",
                "osm_type": "node",
                "lat": 46.79691,
                "lon": 11.9373869,
                "check_date": "2024-03-09",
                "name": "stampfl'",
                "opening_hours": "Mo-Fr 06:30-18:30; Sa 06:30-17:00",
                "payment:credit_cards": "yes",
                "payment:debit_cards": "yes",
                "shop": "bakery",
                "wheelchair": "no"
              },
              "geometry": {
                "type": "Point",
                "coordinates": [
                  11.9373869,
                  46.79691
                ]
              }
            },
            {
              "type": "Feature",
              "properties": {
                "id": "11075158522",
                "osm_type": "node",
                "lat": 46.7609673,
                "lon": 12.0302482,
                "check_date": "2025-08-09",
                "name": "Trenker",
                "opening_hours": "Mo-Sa 06:00-12:00,15:00-18:30",
                "shop": "bakery",
                "wheelchair": "yes"
              },
              "geometry": {
                "type": "Point",
                "coordinates": [
                  12.0302482,
                  46.7609673
                ]
              }
            },
            {
              "type": "Feature",
              "properties": {
                "id": "11708171105",
                "osm_type": "node",
                "lat": 46.7972795,
                "lon": 11.941648,
                "check_date": "2024-03-09",
                "name": "Kapuzinerbäck Frisch Stegenerbäck",
                "opening_hours": "Mo-Fr 05:00-18:00; Sa 05:00-12:00; Su off",
                "shop": "bakery",
                "wheelchair": "yes"
              },
              "geometry": {
                "type": "Point",
                "coordinates": [
                  11.941648,
                  46.7972795
                ]
              }
            },
            {
              "type": "Feature",
              "properties": {
                "id": "11708171154",
                "osm_type": "node",
                "lat": 46.7965726,
                "lon": 11.9379971,
                "check_date": "2024-03-09",
                "name": "Konditorei Pasticceria Götsch",
                "opening_hours": "Mo off; Tu-Sa 08:00-13:00,14:00-18:00; Su 08:00-13:00,14:00-17:00",
                "shop": "bakery",
                "wheelchair": "yes"
              },
              "geometry": {
                "type": "Point",
                "coordinates": [
                  11.9379971,
                  46.7965726
                ]
              }
            },
            {
              "type": "Feature",
              "properties": {
                "id": "13061876118",
                "osm_type": "node",
                "lat": 46.7761378,
                "lon": 11.9482295,
                "check_date": "2025-08-10",
                "dog": "no",
                "name": "Bäckerei Panificio Graziadei",
                "opening_hours": "Mo-Fr 06:00-12:00,15:00-19:00; Sa 06:00-12:15; Su off",
                "shop": "bakery",
                "wheelchair": "yes"
              },
              "geometry": {
                "type": "Point",
                "coordinates": [
                  11.9482295,
                  46.7761378
                ]
              }
            },
            {
              "type": "Feature",
              "properties": {
                "id": "279716574",
                "osm_type": "node",
                "lat": 46.7378847,
                "lon": 12.1699903,
                "contact:city": "Niederdorf - Villabassa",
                "contact:city:de": "Niederdorf",
                "contact:city:it": "Villabassa",
                "contact:housenumber": "6",
                "contact:postcode": "39039",
                "contact:street": "Frau-Emma-Straße - Via Frau Emma",
                "contact:street:de": "Frau-Emma-Straße",
                "contact:street:it": "Via Frau Emma",
                "indoor_seating": "yes",
                "name": "Bäckerei Trenker",
                "operator": "Trenker Johann",
                "outdoor_seating": "no",
                "shop": "bakery"
              },
              "geometry": {
                "type": "Point",
                "coordinates": [
                  12.1699903,
                  46.7378847
                ]
              }
            },
            {
              "type": "Feature",
              "properties": {
                "id": "2042483064",
                "osm_type": "node",
                "lat": 46.7782506,
                "lon": 12.0468555,
                "name": "Harrasser",
                "opening_hours": "Mo-Fr 06:00-12:30,15:00-19:00; Sa 06:00-12:30",
                "shop": "bakery"
              },
              "geometry": {
                "type": "Point",
                "coordinates": [
                  12.0468555,
                  46.7782506
                ]
              }
            },
            {
              "type": "Feature",
              "properties": {
                "id": "2333491067",
                "osm_type": "node",
                "lat": 46.7316476,
                "lon": 12.2827698,
                "indoor_seating": "yes",
                "name": "Trenker",
                "opening_hours": "Mo-Sa 06:00-14:00,14:00-18:00",
                "outdoor_seating": "no",
                "shop": "bakery",
                "wheelchair": "yes"
              },
              "geometry": {
                "type": "Point",
                "coordinates": [
                  12.2827698,
                  46.7316476
                ]
              }
            },
            {
              "type": "Feature",
              "properties": {
                "id": "2445541383",
                "osm_type": "node",
                "lat": 46.7351949,
                "lon": 12.2229839,
                "name": "Bäckerei Trenker",
                "opening_hours": "Mo-Sa 06:00-12:00, 15:00-18:00",
                "shop": "bakery"
              },
              "geometry": {
                "type": "Point",
                "coordinates": [
                  12.2229839,
                  46.7351949
                ]
              }
            },
            {
              "type": "Feature",
              "properties": {
                "id": "2756025843",
                "osm_type": "node",
                "lat": 46.7358259,
                "lon": 12.2206218,
                "addr:city": "Toblach - Dobbiaco",
                "addr:city:de": "Toblach",
                "addr:city:it": "Dobbiaco",
                "addr:housenumber": "7",
                "addr:postcode": "39034",
                "addr:street": "Gustav-Mahler-Straße - Via Gustav Mahler",
                "addr:street:de": "Gustav-Mahler-Straße",
                "addr:street:it": "Via Gustav Mahler",
                "name": "Walder",
                "phone": "+39 474 972625",
                "shop": "bakery"
              },
              "geometry": {
                "type": "Point",
                "coordinates": [
                  12.2206218,
                  46.7358259
                ]
              }
            },
            {
              "type": "Feature",
              "properties": {
                "id": "3815278144",
                "osm_type": "node",
                "lat": 46.7566957,
                "lon": 12.1044039,
                "addr:city": "Welsberg - Monguelfo",
                "addr:country": "IT",
                "addr:housenumber": "2",
                "addr:postcode": "39035",
                "addr:street": "Sankt-Margarethen-Platz - Piazza Santa Margherita",
                "addr:street:de": "Sankt-Margarethen-Platz",
                "addr:street:it": "Piazza Santa Margherita",
                "email": "info@amhof.bz.it",
                "indoor_seating": "yes",
                "name": "Amhof",
                "opening_hours": "Mo-Fr 06:30-12:00,15:00-18:30; Sa 06:30-12:00,15:00-18:00",
                "operator": "Amhof Alois & Co OHG",
                "outdoor_seating": "yes",
                "phone": "+39 474 944052",
                "shop": "bakery",
                "website": "http://www.amhof.bz.it/",
                "wheelchair": "yes"
              },
              "geometry": {
                "type": "Point",
                "coordinates": [
                  12.1044039,
                  46.7566957
                ]
              }
            },
            {
              "type": "Feature",
              "properties": {
                "id": "4193879881",
                "osm_type": "node",
                "lat": 46.7577041,
                "lon": 12.1042554,
                "indoor_seating": "no",
                "name": "Trenker",
                "opening_hours": "Mo-Sa 06:00-12:30,15:00-19:00",
                "outdoor_seating": "no",
                "shop": "bakery",
                "takeaway": "only",
                "wheelchair": "yes"
              },
              "geometry": {
                "type": "Point",
                "coordinates": [
                  12.1042554,
                  46.7577041
                ]
              }
            },
            {
              "type": "Feature",
              "properties": {
                "id": "4401627449",
                "osm_type": "node",
                "lat": 46.8591065,
                "lon": 12.0996822,
                "name": "Seeber",
                "opening_hours": "Mo-Sa 07:00-12:00, 15:30-18:00",
                "shop": "bakery"
              },
              "geometry": {
                "type": "Point",
                "coordinates": [
                  12.0996822,
                  46.8591065
                ]
              }
            },
            {
              "type": "Feature",
              "properties": {
                "id": "6325830046",
                "osm_type": "node",
                "lat": 46.8080195,
                "lon": 12.370753,
                "name": "Bäckerei Bachmann",
                "shop": "bakery"
              },
              "geometry": {
                "type": "Point",
                "coordinates": [
                  12.370753,
                  46.8080195
                ]
              }
            }
          ],
          "children": []
        },
        {
          "bbox": {
            "south": 46.868481875,
            "west": 11.438358999999998,
            "north": 47.033758500000005,
            "east": 11.915210749999998
          },
          "poiCount": 3,
          "leafCount": 3,
          "averagePosition": [
            11.5313582,
            46.9478172
          ],
          "data": [
            {
              "type": "Feature",
              "properties": {
                "id": "2535693812",
                "osm_type": "node",
                "lat": 47.0039195,
                "lon": 11.5047992,
                "addr:housenumber": "13",
                "addr:street": "Valentinstraße - Via San Valentino",
                "shop": "bakery"
              },
              "geometry": {
                "type": "Point",
                "coordinates": [
                  11.5047992,
                  47.0039195
                ]
              }
            },
            {
              "type": "Feature",
              "properties": {
                "id": "4876428372",
                "osm_type": "node",
                "lat": 46.9693269,
                "lon": 11.601204,
                "addr:city": "Pfitsch - Val di Vizze",
                "addr:housenumber": "49",
                "addr:postcode": "39049",
                "addr:street": "St. Jakob - San Giacomo",
                "email": "info@baeckerei-volgger.com",
                "indoor_seating": "yes",
                "name": "Bäckerei Panificio Volgger",
                "operator": "Bäckerei Volgger",
                "outdoor_seating": "yes",
                "phone": "+39 0472 630120",
                "ref:vatin": "IT00601710213",
                "shop": "bakery",
                "website": "http://baeckerei-volgger.com/"
              },
              "geometry": {
                "type": "Point",
                "coordinates": [
                  11.601204,
                  46.9693269
                ]
              }
            },
            {
              "type": "Feature",
              "properties": {
                "id": "2749725602",
                "osm_type": "node",
                "lat": 46.8702052,
                "lon": 11.4880714,
                "addr:city": "Freienfeld - Campo di Trens",
                "addr:city:de": "Freienfeld",
                "addr:city:it": "Campo di Trens",
                "addr:housenumber": "2",
                "addr:place": "Handwerkerzone - Zona Artigianale",
                "addr:place:de": "Handwerkerzone",
                "addr:place:it": "Zona Artigianale",
                "addr:postcode": "39040",
                "name": "Bäckerei Walcher",
                "operator": "Bäckerei Walcher GmbH/srl",
                "shop": "bakery"
              },
              "geometry": {
                "type": "Point",
                "coordinates": [
                  11.4880714,
                  46.8702052
                ]
              }
            }
          ],
          "children": []
        },
        {
          "bbox": {
            "south": 46.868481875,
            "west": 11.915210749999998,
            "north": 47.033758500000005,
            "east": 12.392062499999998
          },
          "poiCount": 3,
          "leafCount": 3,
          "averagePosition": [
            11.971668666666668,
            46.94374106666667
          ],
          "data": [
            {
              "type": "Feature",
              "properties": {
                "id": "299473853",
                "osm_type": "node",
                "lat": 46.9205205,
                "lon": 11.9515647,
                "name": "Bäckerei Konditorei Cafe Röck",
                "shop": "bakery"
              },
              "geometry": {
                "type": "Point",
                "coordinates": [
                  11.9515647,
                  46.9205205
                ]
              }
            },
            {
              "type": "Feature",
              "properties": {
                "id": "1824065560",
                "osm_type": "node",
                "lat": 46.8997817,
                "lon": 11.9436136,
                "name": "Lahner",
                "shop": "bakery"
              },
              "geometry": {
                "type": "Point",
                "coordinates": [
                  11.9436136,
                  46.8997817
                ]
              }
            },
            {
              "type": "Feature",
              "properties": {
                "id": "7856622449",
                "osm_type": "node",
                "lat": 47.010921,
                "lon": 12.0198277,
                "name": "Café Bäck",
                "payment:contactless": "yes",
                "shop": "bakery",
                "smoking": "isolated",
                "wheelchair": "yes"
              },
              "geometry": {
                "type": "Point",
                "coordinates": [
                  12.0198277,
                  47.010921
                ]
              }
            }
          ],
          "children": []
        }
      ]
    },
    {
      "bbox": {
        "south": 46.70320525,
        "west": 12.392062499999998,
        "north": 47.033758500000005,
        "east": 13.345766
      },
      "poiCount": 16,
      "leafCount": 16,
      "averagePosition": [
        12.770206224999999,
        46.8410169625
      ],
      "data": [
        {
          "type": "Feature",
          "properties": {
            "id": "5873571650",
            "osm_type": "node",
            "lat": 47.0029902,
            "lon": 12.4579263,
            "addr:city": "Virgen",
            "addr:country": "AT",
            "addr:housenumber": "3",
            "addr:postcode": "9972",
            "addr:street": "Niedermauern Straße",
            "name": "Joast",
            "opening_hours": "Mo-Fr 06:00-12:00,15:00-18:00; Sa 06:00-12:00",
            "operator": "Joast",
            "phone": "+43 4874 5242",
            "shop": "bakery",
            "wheelchair": "limited"
          },
          "geometry": {
            "type": "Point",
            "coordinates": [
              12.4579263,
              47.0029902
            ]
          }
        },
        {
          "type": "Feature",
          "properties": {
            "id": "346422159",
            "osm_type": "node",
            "lat": 47.0002928,
            "lon": 12.538812,
            "addr:city": "Matrei in Osttirol",
            "addr:country": "AT",
            "addr:housenumber": "2",
            "addr:postcode": "9971",
            "addr:street": "Lienzer Straße",
            "check_date:opening_hours": "2025-08-01",
            "name": "Cafe Baeckerei Patterer",
            "opening_hours": "Mo-Fr 06:00-12:00,14:00-18:00; Sa 06:00-12:00; Su 09:30-18:00",
            "shop": "bakery"
          },
          "geometry": {
            "type": "Point",
            "coordinates": [
              12.538812,
              47.0002928
            ]
          }
        },
        {
          "type": "Feature",
          "properties": {
            "id": "4818343007",
            "osm_type": "node",
            "lat": 47.0017155,
            "lon": 12.5397033,
            "addr:city": "Matrei in Osttirol",
            "addr:country": "AT",
            "addr:housenumber": "6",
            "addr:postcode": "9971",
            "addr:street": "Tauerntalstraße",
            "name": "Joast",
            "name:de": "Bäckerei Joast",
            "opening_hours": "Mo-Fr 06:00-18:00; Sa 06:00-12:00; Su 06:30-10:00",
            "phone": "+43-4875-5461",
            "shop": "bakery",
            "website": "https://www.joast.at/"
          },
          "geometry": {
            "type": "Point",
            "coordinates": [
              12.5397033,
              47.0017155
            ]
          }
        },
        {
          "type": "Feature",
          "properties": {
            "id": "3763721577",
            "osm_type": "node",
            "lat": 46.9326717,
            "lon": 13.2006136,
            "addr:city": "Obervellach",
            "addr:postcode": "9821",
            "name": "Kniesek`s Backtüberl",
            "opening_hours": "06:30-18:00",
            "operator": "Alexander Kniesek",
            "phone": "+43 676 9238403",
            "shop": "bakery",
            "website": "https://brot-online.at/"
          },
          "geometry": {
            "type": "Point",
            "coordinates": [
              13.2006136,
              46.9326717
            ]
          }
        },
        {
          "type": "Feature",
          "properties": {
            "id": "5876978910",
            "osm_type": "node",
            "lat": 46.8875849,
            "lon": 13.0368417,
            "addr:city": "Stall",
            "addr:country": "AT",
            "addr:housenumber": "40",
            "addr:place": "Stall",
            "addr:postcode": "9832",
            "name": "Bäckerei Walter Dulling",
            "phone": "+43 4823 214",
            "shop": "bakery"
          },
          "geometry": {
            "type": "Point",
            "coordinates": [
              13.0368417,
              46.8875849
            ]
          }
        },
        {
          "type": "Feature",
          "properties": {
            "id": "670850291",
            "osm_type": "node",
            "lat": 46.7472052,
            "lon": 12.4157652,
            "name": "Rainer",
            "shop": "bakery"
          },
          "geometry": {
            "type": "Point",
            "coordinates": [
              12.4157652,
              46.7472052
            ]
          }
        },
        {
          "type": "Feature",
          "properties": {
            "id": "2415743835",
            "osm_type": "node",
            "lat": 46.7509125,
            "lon": 12.4272903,
            "brand": "Baguette",
            "brand:wikidata": "Q82512635",
            "name": "Baguette",
            "operator": "MPREIS",
            "shop": "bakery",
            "wheelchair": "yes"
          },
          "geometry": {
            "type": "Point",
            "coordinates": [
              12.4272903,
              46.7509125
            ]
          }
        },
        {
          "type": "Feature",
          "properties": {
            "id": "6178039650",
            "osm_type": "node",
            "lat": 46.7566401,
            "lon": 12.5264546,
            "name": "Bäckerei Rainer",
            "shop": "bakery"
          },
          "geometry": {
            "type": "Point",
            "coordinates": [
              12.5264546,
              46.7566401
            ]
          }
        },
        {
          "type": "Feature",
          "properties": {
            "id": "1835584885",
            "osm_type": "node",
            "lat": 46.8289064,
            "lon": 12.7680551,
            "addr:city": "Lienz",
            "addr:housenumber": "15",
            "addr:postcode": "9900",
            "addr:street": "Hauptplatz",
            "name": "Bäckerei Trenker",
            "opening_hours": "Mo-Fr 08:00-18:00; Sa 08:00-17:00",
            "phone": "+43 4852 72913",
            "shop": "bakery"
          },
          "geometry": {
            "type": "Point",
            "coordinates": [
              12.7680551,
              46.8289064
            ]
          }
        },
        {
          "type": "Feature",
          "properties": {
            "id": "2260110733",
            "osm_type": "node",
            "lat": 46.8271344,
            "lon": 12.8411714,
            "shop": "bakery"
          },
          "geometry": {
            "type": "Point",
            "coordinates": [
              12.8411714,
              46.8271344
            ]
          }
        },
        {
          "type": "Feature",
          "properties": {
            "id": "6139627477",
            "osm_type": "node",
            "lat": 46.8706292,
            "lon": 12.8775546,
            "addr:city": "Winklern",
            "addr:country": "AT",
            "addr:housenumber": "108",
            "addr:postcode": "9841",
            "addr:street": "Winklern",
            "drink:coffee": "yes",
            "name": "Bäckerei Suntinger",
            "opening_hours": "Mo-Sa 06:00-12:00; Su 07:00-10:30",
            "operator": "Hans-Josef Suntinger",
            "payment:cash": "yes",
            "shop": "bakery"
          },
          "geometry": {
            "type": "Point",
            "coordinates": [
              12.8775546,
              46.8706292
            ]
          }
        },
        {
          "type": "Feature",
          "properties": {
            "id": "6267683584",
            "osm_type": "node",
            "lat": 46.8348184,
            "lon": 12.7725318,
            "addr:housenumber": "18",
            "addr:street": "Maximilianstraße",
            "alt_name": "Bäckerei Gruber",
            "contact:facebook": "https://www.facebook.com/baeckerei.gruber/",
            "email": "info@gruberbrot.at",
            "name": "Gruber",
            "opening_hours": "Mo-Fr 06:30-12:00,14:30-18:00; Sa 06:30-12:00",
            "phone": "+43 4852 62776",
            "shop": "bakery",
            "website": "https://www.gruberbrot.at/"
          },
          "geometry": {
            "type": "Point",
            "coordinates": [
              12.7725318,
              46.8348184
            ]
          }
        },
        {
          "type": "Feature",
          "properties": {
            "id": "9561859716",
            "osm_type": "node",
            "lat": 46.8286408,
            "lon": 12.7715072,
            "addr:city": "Lienz",
            "addr:country": "AT",
            "addr:housenumber": "1",
            "addr:postcode": "9900",
            "addr:street": "Bahnhofsplatz",
            "brand": "Baguette",
            "brand:wikidata": "Q82512635",
            "name": "Baguette",
            "shop": "bakery",
            "source": "LT"
          },
          "geometry": {
            "type": "Point",
            "coordinates": [
              12.7715072,
              46.8286408
            ]
          }
        },
        {
          "type": "Feature",
          "properties": {
            "id": "10579255241",
            "osm_type": "node",
            "lat": 46.7090812,
            "lon": 12.6167071,
            "name": "Obererlacher",
            "opening_hours": "Mo-Fr 06:14-12:00, 15:00-18:00; Sa 06:15-12:00",
            "shop": "bakery"
          },
          "geometry": {
            "type": "Point",
            "coordinates": [
              12.6167071,
              46.7090812
            ]
          }
        },
        {
          "type": "Feature",
          "properties": {
            "id": "2264402163",
            "osm_type": "node",
            "lat": 46.7576358,
            "lon": 13.2482325,
            "name": "Murauer",
            "shop": "bakery",
            "wheelchair": "limited"
          },
          "geometry": {
            "type": "Point",
            "coordinates": [
              13.2482325,
              46.7576358
            ]
          }
        },
        {
          "type": "Feature",
          "properties": {
            "id": "12074863921",
            "osm_type": "node",
            "lat": 46.7194123,
            "lon": 13.2841329,
            "name": "Dorfbäckerei & Konditorei Holzer",
            "opening_hours": "Mo-Tu 07:00-19:30; Fr-Su 07:00-19:30",
            "phone": "+43 4713 2379",
            "shop": "bakery",
            "website": "https://www.holzer-weissensee.at/baeckerei-konditorei/"
          },
          "geometry": {
            "type": "Point",
            "coordinates": [
              13.2841329,
              46.7194123
            ]
          }
        }
      ],
      "children": []
    }
  ]
}