{
  "bbox": {
    "south": 47.033758500000005,
    "west": 13.345766,
    "north": 47.694865,
    "east": 15.253173
  },
  "poiCount": 64,
  "leafCount": 0,
  "averagePosition": [
    14.226126775000001,
    47.344036259375
  ],
  "data": [],
  "children": [
    {
      "bbox": {
        "south": 47.033758500000005,
        "west": 13.345766,
        "north": 47.36431175,
        "east": 14.2994695
      },
      "poiCount": 11,
      "leafCount": 11,
      "averagePosition": [
        13.822564654545454,
        47.16053336363636
      ],
      "data": [
        {
          "type": "Feature",
          "properties": {
            "id": "12184833121",
            "osm_type": "node",
            "lat": 47.3457825,
            "lon": 13.3916713,
            "name": "D‘ Bachstub’n",
            "opening_hours": "Mo-Su 06:00-20:00",
            "shop": "bakery"
          },
          "geometry": {
            "type": "Point",
            "coordinates": [
              13.3916713,
              47.3457825
            ]
          }
        },
        {
          "type": "Feature",
          "properties": {
            "id": "1551970443",
            "osm_type": "node",
            "lat": 47.1497778,
            "lon": 13.7454189,
            "name": "Renes Dorfküche",
            "old_name": "Siegl",
            "opening_hours": "Mo-We 09:00-17:00, Fr-Sa 09:00-18:00; PH off",
            "shop": "bakery"
          },
          "geometry": {
            "type": "Point",
            "coordinates": [
              13.7454189,
              47.1497778
            ]
          }
        },
        {
          "type": "Feature",
          "properties": {
            "id": "2289056986",
            "osm_type": "node",
            "lat": 47.0970847,
            "lon": 13.6376974,
            "addr:city": "Sankt Michael im Lungau",
            "addr:country": "AT",
            "addr:housenumber": "257",
            "addr:postcode": "5582",
            "addr:street": "Poststraße",
            "at_bev:addr_date": "2021-04-01",
            "name": "Löcker",
            "shop": "bakery"
          },
          "geometry": {
            "type": "Point",
            "coordinates": [
              13.6376974,
              47.0970847
            ]
          }
        },
        {
          "type": "Feature",
          "properties": {
            "id": "4095095323",
            "osm_type": "node",
            "lat": 47.1267149,
            "lon": 13.8102845,
            "addr:city": "Tamsweg",
            "addr:housenumber": "4",
            "addr:postcode": "5580",
            "addr:street": "Kirchengasse",
            "indoor_seating": "no",
            "name": "Konditorei Hochleitner",
            "operator": "Josef Hochleitner Bäckerei und Konditorei KG",
            "outdoor_seating": "no",
            "shop": "bakery",
            "takeaway": "only"
          },
          "geometry": {
            "type": "Point",
            "coordinates": [
              13.8102845,
              47.1267149
            ]
          }
        },
        {
          "type": "Feature",
          "properties": {
            "id": "4280880795",
            "osm_type": "node",
            "lat": 47.2488087,
            "lon": 13.5574084,
            "name": "Bäckerei Binggl",
            "opening_hours": "07:00-18:00",
            "shop": "bakery"
          },
          "geometry": {
            "type": "Point",
            "coordinates": [
              13.5574084,
              47.2488087
            ]
          }
        },
        {
          "type": "Feature",
          "properties": {
            "id": "7775016699",
            "osm_type": "node",
            "lat": 47.0869176,
            "lon": 13.9807747,
            "name": "Bäckerei Stocklauser",
            "shop": "bakery"
          },
          "geometry": {
            "type": "Point",
            "coordinates": [
              13.9807747,
              47.0869176
            ]
          }
        },
        {
          "type": "Feature",
          "properties": {
            "id": "9559009987",
            "osm_type": "node",
            "lat": 47.1259134,
            "lon": 13.8112193,
            "name": "Bäckerei Löcker",
            "shop": "bakery"
          },
          "geometry": {
            "type": "Point",
            "coordinates": [
              13.8112193,
              47.1259134
            ]
          }
        },
        {
          "type": "Feature",
          "properties": {
            "id": "13017304698",
            "osm_type": "node",
            "lat": 47.099375,
            "lon": 13.6342711,
            "name": "Herzstuben-Backladen",
            "operator": "Hapimag",
            "payment:cash": "yes",
            "shop": "bakery"
          },
          "geometry": {
            "type": "Point",
            "coordinates": [
              13.6342711,
              47.099375
            ]
          }
        },
        {
          "type": "Feature",
          "properties": {
            "id": "2922005588",
            "osm_type": "node",
            "lat": 47.2040393,
            "lon": 14.2811248,
            "name": "Stadtbäckerei Gerhard Zechner",
            "shop": "bakery"
          },
          "geometry": {
            "type": "Point",
            "coordinates": [
              14.2811248,
              47.2040393
            ]
          }
        },
        {
          "type": "Feature",
          "properties": {
            "id": "11672879348",
            "osm_type": "node",
            "lat": 47.1814479,
            "lon": 14.1127841,
            "addr:city": "Schöder",
            "addr:housenumber": "21",
            "addr:postcode": "8844",
            "addr:street": "Schöder",
            "name": "Cafe & Bäckerei Huber",
            "shop": "bakery",
            "website": "https://huber-backt.at/"
          },
          "geometry": {
            "type": "Point",
            "coordinates": [
              14.1127841,
              47.1814479
            ]
          }
        },
        {
          "type": "Feature",
          "properties": {
            "id": "13086579301",
            "osm_type": "node",
            "lat": 47.1000052,
            "lon": 14.0855567,
            "name": "Bäckerei Stocklauser",
            "shop": "bakery",
            "website": "https://www.stocklauser.at"
          },
          "geometry": {
            "type": "Point",
            "coordinates": [
              14.0855567,
              47.1000052
            ]
          }
        }
      ],
      "children": []
    },
    {
      "bbox": {
        "south": 47.033758500000005,
        "west": 14.2994695,
        "north": 47.36431175,
        "east": 15.253173
      },
      "poiCount": 18,
      "leafCount": 18,
      "averagePosition": [
        14.822434427777779,
        47.164923144444444
      ],
      "data": [
        {
          "type": "Feature",
          "properties": {
            "id": "7040307398",
            "osm_type": "node",
            "lat": 47.15397,
            "lon": 14.4146112,
            "addr:city": "Scheifling",
            "addr:country": "AT",
            "addr:housenumber": "4",
            "addr:postcode": "8811",
            "addr:street": "Gewerbepark",
            "contact:phone": "+43 3582 220 11 22",
            "name": "Resch&Frisch",
            "opening_hours": "Mo-Fr 08:00-16:00",
            "shop": "bakery",
            "website": "https://www.resch-frisch.com/de/gastronomie/"
          },
          "geometry": {
            "type": "Point",
            "coordinates": [
              14.4146112,
              47.15397
            ]
          }
        },
        {
          "type": "Feature",
          "properties": {
            "id": "1544050701",
            "osm_type": "node",
            "lat": 47.1537822,
            "lon": 14.7395465,
            "addr:city": "Weißkirchen in Steiermark",
            "addr:country": "AT",
            "addr:district": "Murtal",
            "addr:housenumber": "5",
            "addr:postcode": "8741",
            "addr:street": "Hauptplatz",
            "email": "info@pirkerbrot.at",
            "name": "Bäckerei-Cafe Pirker",
            "opening_hours": "Mo-Fr 06:00-12:00,15:00-18:00; Sa 06:30-12:00",
            "phone": "+43(0)3577",
            "shop": "bakery",
            "website": "https://www.pirkerbrot.at/kontakt/index.htm"
          },
          "geometry": {
            "type": "Point",
            "coordinates": [
              14.7395465,
              47.1537822
            ]
          }
        },
        {
          "type": "Feature",
          "properties": {
            "id": "1575113819",
            "osm_type": "node",
            "lat": 47.1761942,
            "lon": 14.6758919,
            "name": "Bäckerei-Cafe Geatzl",
            "shop": "bakery"
          },
          "geometry": {
            "type": "Point",
            "coordinates": [
              14.6758919,
              47.1761942
            ]
          }
        },
        {
          "type": "Feature",
          "properties": {
            "id": "2040941674",
            "osm_type": "node",
            "lat": 47.2152349,
            "lon": 14.8297366,
            "addr:city": "Knittelfeld",
            "addr:country": "AT",
            "addr:housenumber": "2",
            "addr:postcode": "8720",
            "addr:street": "Frauengasse",
            "contact:phone": "+43 3512 86609",
            "name": "Bäckerei Gruber",
            "opening_hours": "Mo-Fr 06:00-12:00, 15:00-18:00; Sa 06:00-12:00",
            "shop": "bakery",
            "website": "https://www.baeckerei-gruber.at/kontakt.html"
          },
          "geometry": {
            "type": "Point",
            "coordinates": [
              14.8297366,
              47.2152349
            ]
          }
        },
        {
          "type": "Feature",
          "properties": {
            "id": "3395282158",
            "osm_type": "node",
            "lat": 47.1839394,
            "lon": 14.6819295,
            "addr:country": "AT",
            "addr:housenumber": "3",
            "addr:postcode": "8753",
            "addr:street": "Arena am Waldfeld",
            "name": "Madenberger",
            "shop": "bakery",
            "wheelchair": "yes"
          },
          "geometry": {
            "type": "Point",
            "coordinates": [
              14.6819295,
              47.1839394
            ]
          }
        },
        {
          "type": "Feature",
          "properties": {
            "id": "4340746791",
            "osm_type": "node",
            "lat": 47.2507569,
            "lon": 14.8947644,
            "addr:city": "Sankt Margarethen bei Knittelfeld",
            "addr:country": "AT",
            "addr:housenumber": "57",
            "addr:place": "St. Lorenzen",
            "addr:postcode": "8715",
            "email": "info@baeckerei-gruber.at",
            "name": "Bauernbrot Gruber",
            "opening_hours": "Mo-Fr 06:00-12:00,15:00-18:00; Sa 06:00-12:00",
            "phone": "+43 3515 4212",
            "shop": "bakery",
            "website": "https://baeckerei-gruber.at/"
          },
          "geometry": {
            "type": "Point",
            "coordinates": [
              14.8947644,
              47.2507569
            ]
          }
        },
        {
          "type": "Feature",
          "properties": {
            "id": "4755924630",
            "osm_type": "node",
            "lat": 47.2076783,
            "lon": 14.676609,
            "addr:city": "Fohnsdorf",
            "addr:country": "AT",
            "addr:housenumber": "5",
            "addr:postcode": "8753",
            "addr:street": "Hauptstraße",
            "at_bev:addr_date": "2017-04-07",
            "name": "Cafe Madenberger",
            "opening_hours": "Mo-Fr 05:00-18:00; Sa 05:00-12:00",
            "phone": "+43 3573-6034",
            "shop": "bakery",
            "website": "https://madenberger.at/",
            "wheelchair": "yes"
          },
          "geometry": {
            "type": "Point",
            "coordinates": [
              14.676609,
              47.2076783
            ]
          }
        },
        {
          "type": "Feature",
          "properties": {
            "id": "5462726141",
            "osm_type": "node",
            "lat": 47.185232,
            "lon": 14.6864864,
            "addr:city": "Fohnsdorf",
            "addr:country": "AT",
            "addr:housenumber": "18",
            "addr:postcode": "8753",
            "addr:street": "Arena am Waldfeld",
            "name": "Bäckerei & Konditorei Gruber",
            "opening_hours": "Mo-Fr 07:30-18:30; Sa 07:30-18:00",
            "phone": "+43 3572 42332",
            "shop": "bakery",
            "website": "https://baeckerei-gruber.at/"
          },
          "geometry": {
            "type": "Point",
            "coordinates": [
              14.6864864,
              47.185232
            ]
          }
        },
        {
          "type": "Feature",
          "properties": {
            "id": "5600439890",
            "osm_type": "node",
            "lat": 47.1686573,
            "lon": 14.6613286,
            "email": "office@sorgerbrot.at",
            "indoor_seating": "yes",
            "name": "Bäckerei Sorger",
            "opening_hours": "Mo-Fr 07:00-18:00; Sa 07:00-12:30",
            "outdoor_seating": "yes",
            "phone": "+43 3572 42565",
            "shop": "bakery",
            "website": "https://www.sorgerbrot.at/",
            "wheelchair": "yes"
          },
          "geometry": {
            "type": "Point",
            "coordinates": [
              14.6613286,
              47.1686573
            ]
          }
        },
        {
          "type": "Feature",
          "properties": {
            "id": "5630876122",
            "osm_type": "node",
            "lat": 47.2140653,
            "lon": 14.8286287,
            "addr:city": "Knittefeld",
            "addr:country": "AT",
            "addr:district": "Murtal",
            "addr:housenumber": "5",
            "addr:postcode": "8720",
            "addr:street": "Herrengasse",
            "contact:phone": "+43 3512 74337",
            "name": "Madenberger",
            "opening_hours": "Mo-Fr 06:00-18:00; Sa 06:00-12:00",
            "shop": "bakery",
            "website": "https://madenberger.at/filialen.html"
          },
          "geometry": {
            "type": "Point",
            "coordinates": [
              14.8286287,
              47.2140653
            ]
          }
        },
        {
          "type": "Feature",
          "properties": {
            "id": "6710861637",
            "osm_type": "node",
            "lat": 47.2714827,
            "lon": 14.6751126,
            "addr:city": "Gaal",
            "addr:housenumber": "15",
            "addr:place": "Gaal",
            "addr:postcode": "8731",
            "description": "Hausgemachtes Brot und Gebäck - Homemade bread and pastries",
            "name": "Bäckerei Wolfsberger",
            "opening_hours": "Mo-Sa 6:00-12:30",
            "operator": "Familie Wolfsberger",
            "phone": "+43 3513 224",
            "shop": "bakery"
          },
          "geometry": {
            "type": "Point",
            "coordinates": [
              14.6751126,
              47.2714827
            ]
          }
        },
        {
          "type": "Feature",
          "properties": {
            "id": "6848667605",
            "osm_type": "node",
            "lat": 47.3064726,
            "lon": 14.9376672,
            "email": "info@baeckerei-gruber.at",
            "name": "Gruber",
            "opening_hours": "Mo-Fr 06:00-12:00,15:00-18:00; Tu,Sa 06:00-12:00",
            "phone": "+43 3832 22 47",
            "shop": "bakery",
            "website": "https://www.baeckerei-gruber.at/"
          },
          "geometry": {
            "type": "Point",
            "coordinates": [
              14.9376672,
              47.3064726
            ]
          }
        },
        {
          "type": "Feature",
          "properties": {
            "id": "6925170662",
            "osm_type": "node",
            "lat": 47.2166988,
            "lon": 14.8275907,
            "addr:city": "Knittelfeld",
            "addr:country": "AT",
            "addr:housenumber": "14",
            "addr:postcode": "8720",
            "addr:street": "Wiener Straße",
            "name": "Arena Bäckerei",
            "opening_hours": "Mo-Sa 06:00-21:00; Su 07:00-20:00",
            "shop": "bakery"
          },
          "geometry": {
            "type": "Point",
            "coordinates": [
              14.8275907,
              47.2166988
            ]
          }
        },
        {
          "type": "Feature",
          "properties": {
            "id": "12067659183",
            "osm_type": "node",
            "lat": 47.0680566,
            "lon": 14.6951892,
            "addr:housenumber": "30",
            "addr:street": "Hauptstraße",
            "name": "Mundinger",
            "opening_hours": "Mo-Sa 06:30-12:00",
            "operator": "Heidi Mundinger",
            "phone": "035782227",
            "shop": "bakery"
          },
          "geometry": {
            "type": "Point",
            "coordinates": [
              14.6951892,
              47.0680566
            ]
          }
        },
        {
          "type": "Feature",
          "properties": {
            "id": "1417890895",
            "osm_type": "node",
            "lat": 47.0486225,
            "lon": 15.2204117,
            "addr:city": "Stallhofen",
            "addr:country": "AT",
            "addr:postcode": "8152",
            "contact:phone": "+43 3142 22866",
            "name": "Kogler",
            "opening_hours": "Mo-Fr 05:30-15:00; Sa 06:00-12:00",
            "shop": "bakery",
            "website": "https://www.baeckerei-kogler.at/"
          },
          "geometry": {
            "type": "Point",
            "coordinates": [
              15.2204117,
              47.0486225
            ]
          }
        },
        {
          "type": "Feature",
          "properties": {
            "id": "1757344919",
            "osm_type": "node",
            "lat": 47.045301,
            "lon": 15.0768554,
            "addr:city": "Köflach",
            "addr:country": "AT",
            "addr:housename": "Sonnenbäckerei Rumpf",
            "addr:housenumber": "55",
            "addr:postcode": "8580",
            "addr:street": "Alois-Geißler-Straße",
            "name": "Sonnenbäckerei Rumpf",
            "shop": "bakery"
          },
          "geometry": {
            "type": "Point",
            "coordinates": [
              15.0768554,
              47.045301
            ]
          }
        },
        {
          "type": "Feature",
          "properties": {
            "id": "1920555718",
            "osm_type": "node",
            "lat": 47.049146,
            "lon": 15.1514579,
            "addr:city": "Voitsberg",
            "addr:country": "AT",
            "addr:housenumber": "22",
            "addr:postcode": "8570",
            "addr:street": "Hauptplatz",
            "name": "Köck",
            "shop": "bakery"
          },
          "geometry": {
            "type": "Point",
            "coordinates": [
              15.1514579,
              47.049146
            ]
          }
        },
        {
          "type": "Feature",
          "properties": {
            "id": "5892497486",
            "osm_type": "node",
            "lat": 47.0533259,
            "lon": 15.1300022,
            "name": "Sorger Brot",
            "opening_hours": "Mo-Fr 07:00-19:30; Sa 07:00-18:00",
            "phone": "+43 3142 90 500",
            "shop": "bakery",
            "website": "https://www.sorgerbrot.at"
          },
          "geometry": {
            "type": "Point",
            "coordinates": [
              15.1300022,
              47.0533259
            ]
          }
        }
      ],
      "children": []
    },
    {
      "bbox": {
        "south": 47.36431175,
        "west": 13.345766,
        "north": 47.694865,
        "east": 14.2994695
      },
      "poiCount": 25,
      "leafCount": 25,
      "averagePosition": [
        13.687734368,
        47.509239820000005
      ],
      "data": [
        {
          "type": "Feature",
          "properties": {
            "id": "663040674",
            "osm_type": "node",
            "lat": 47.3719319,
            "lon": 13.3884388,
            "name": "Emastoa",
            "shop": "bakery"
          },
          "geometry": {
            "type": "Point",
            "coordinates": [
              13.3884388,
              47.3719319
            ]
          }
        },
        {
          "type": "Feature",
          "properties": {
            "id": "495350676",
            "osm_type": "node",
            "lat": 47.4336608,
            "lon": 13.5220734,
            "addr:city": "Filzmoos",
            "addr:country": "AT",
            "addr:housenumber": "2",
            "addr:postcode": "5532",
            "addr:street": "Dorfstraße",
            "name": "Sieberer",
            "shop": "bakery"
          },
          "geometry": {
            "type": "Point",
            "coordinates": [
              13.5220734,
              47.4336608
            ]
          }
        },
        {
          "type": "Feature",
          "properties": {
            "id": "656704147",
            "osm_type": "node",
            "lat": 47.378159,
            "lon": 13.4226781,
            "addr:city": "Altenmarkt im Pongau",
            "addr:country": "AT",
            "addr:housenumber": "5",
            "addr:postcode": "5541",
            "addr:street": "Marktplatz",
            "name": "Habersatter",
            "shop": "bakery"
          },
          "geometry": {
            "type": "Point",
            "coordinates": [
              13.4226781,
              47.378159
            ]
          }
        },
        {
          "type": "Feature",
          "properties": {
            "id": "958317023",
            "osm_type": "node",
            "lat": 47.5645004,
            "lon": 13.3461437,
            "addr:city": "Abtenau",
            "addr:housenumber": "27",
            "addr:postcode": "5441",
            "addr:street": "Markt",
            "name": "Bäckerei Hollaus",
            "shop": "bakery"
          },
          "geometry": {
            "type": "Point",
            "coordinates": [
              13.3461437,
              47.5645004
            ]
          }
        },
        {
          "type": "Feature",
          "properties": {
            "id": "3337748830",
            "osm_type": "node",
            "lat": 47.5684886,
            "lon": 13.5215521,
            "addr:city": "Gosau",
            "addr:country": "AT",
            "addr:housenumber": "57",
            "addr:postcode": "4824",
            "addr:street": "Gosauseestraße",
            "name": "Ze-Café",
            "opening_hours": "Mo-Sa 07:00-18:30, Su 08:00-18:30",
            "phone": "+43 6136 20610",
            "shop": "bakery",
            "website": "https://www.zekaffee.at/"
          },
          "geometry": {
            "type": "Point",
            "coordinates": [
              13.5215521,
              47.5684886
            ]
          }
        },
        {
          "type": "Feature",
          "properties": {
            "id": "3816140715",
            "osm_type": "node",
            "lat": 47.3902395,
            "lon": 13.3865713,
            "shop": "bakery"
          },
          "geometry": {
            "type": "Point",
            "coordinates": [
              13.3865713,
              47.3902395
            ]
          }
        },
        {
          "type": "Feature",
          "properties": {
            "id": "3940707860",
            "osm_type": "node",
            "lat": 47.409117,
            "lon": 13.394135,
            "addr:street": "Hauptstraße",
            "name": "Bäckerei Café Eder",
            "operator": "Fam. Eder",
            "shop": "bakery"
          },
          "geometry": {
            "type": "Point",
            "coordinates": [
              13.394135,
              47.409117
            ]
          }
        },
        {
          "type": "Feature",
          "properties": {
            "id": "4100400182",
            "osm_type": "node",
            "lat": 47.5637342,
            "lon": 13.3457785,
            "name": "Bäckerei Hauser",
            "shop": "bakery"
          },
          "geometry": {
            "type": "Point",
            "coordinates": [
              13.3457785,
              47.5637342
            ]
          }
        },
        {
          "type": "Feature",
          "properties": {
            "id": "4719935548",
            "osm_type": "node",
            "lat": 47.3842567,
            "lon": 13.4626203,
            "addr:city": "Radstadt",
            "addr:housenumber": "15",
            "addr:postcode": "5550",
            "addr:street": "Stadtplatz",
            "name": "Kirchgasser",
            "opening_hours": "Mo-Fr: 06:30-12:00 und 15:00-18:00, Sa: 06:30-12:00",
            "shop": "bakery"
          },
          "geometry": {
            "type": "Point",
            "coordinates": [
              13.4626203,
              47.3842567
            ]
          }
        },
        {
          "type": "Feature",
          "properties": {
            "id": "12198734938",
            "osm_type": "node",
            "lat": 47.3845853,
            "lon": 13.4610995,
            "addr:city": "Radstadt",
            "addr:housenumber": "17",
            "addr:postcode": "5550",
            "addr:street": "Hoheneggstraße",
            "name": "Stadtbäckerei Radstadt",
            "opening_hours": "Mo-Fr 06:00-18:00; Sa 06:00-12:30; Su,PH 07:00-10:00",
            "shop": "bakery",
            "website": "https://stadtbaeckerei.at/"
          },
          "geometry": {
            "type": "Point",
            "coordinates": [
              13.4610995,
              47.3845853
            ]
          }
        },
        {
          "type": "Feature",
          "properties": {
            "id": "280539018",
            "osm_type": "node",
            "lat": 47.6165999,
            "lon": 13.6350477,
            "name": "Maislinger",
            "shop": "bakery"
          },
          "geometry": {
            "type": "Point",
            "coordinates": [
              13.6350477,
              47.6165999
            ]
          }
        },
        {
          "type": "Feature",
          "properties": {
            "id": "1044827480",
            "osm_type": "node",
            "lat": 47.3939554,
            "lon": 13.6872897,
            "indoor_seating": "yes",
            "name": "Bäckerei Lasser",
            "opening_hours": "Mo-Fr 06:30-18:00; Sa 06:30-12:30; Su,PH 07:00-12:00",
            "outdoor_seating": "yes",
            "payment:cash": "yes",
            "payment:maestro": "yes",
            "phone": "+43 3687 22438",
            "shop": "bakery",
            "website": "https://www.lasser.at/",
            "wheelchair": "no"
          },
          "geometry": {
            "type": "Point",
            "coordinates": [
              13.6872897,
              47.3939554
            ]
          }
        },
        {
          "type": "Feature",
          "properties": {
            "id": "1488353707",
            "osm_type": "node",
            "lat": 47.639716,
            "lon": 13.7637091,
            "name": "Bäckerei Maislinger",
            "shop": "bakery",
            "wheelchair": "yes"
          },
          "geometry": {
            "type": "Point",
            "coordinates": [
              13.7637091,
              47.639716
            ]
          }
        },
        {
          "type": "Feature",
          "properties": {
            "id": "2611813875",
            "osm_type": "node",
            "lat": 47.5613343,
            "lon": 14.0116732,
            "contact:mobile": "+43 664 156 87 98",
            "name": "Tauplitzer Dorfbäckerei",
            "opening_hours": "Mo-Sa 06:00-13:00",
            "shop": "bakery"
          },
          "geometry": {
            "type": "Point",
            "coordinates": [
              14.0116732,
              47.5613343
            ]
          }
        },
        {
          "type": "Feature",
          "properties": {
            "id": "3255197643",
            "osm_type": "node",
            "lat": 47.3914134,
            "lon": 13.6867013,
            "name": "Wieser",
            "shop": "bakery"
          },
          "geometry": {
            "type": "Point",
            "coordinates": [
              13.6867013,
              47.3914134
            ]
          }
        },
        {
          "type": "Feature",
          "properties": {
            "id": "3661642928",
            "osm_type": "node",
            "lat": 47.5554986,
            "lon": 13.9326924,
            "check_date": "2025-02-24",
            "level": "0",
            "name": "Bäckerei Cafe Reisinger",
            "opening_hours": "Mo,Tu,Th,Fr 06:30-12:30,14:00-18:00; We 06:30-12:30; Sa 06:30-12:00; PH off",
            "phone": "+43 3623 2225",
            "shop": "bakery"
          },
          "geometry": {
            "type": "Point",
            "coordinates": [
              13.9326924,
              47.5554986
            ]
          }
        },
        {
          "type": "Feature",
          "properties": {
            "id": "4996745537",
            "osm_type": "node",
            "lat": 47.6412244,
            "lon": 13.6166538,
            "name": "Bäckerei Maislinger",
            "shop": "bakery"
          },
          "geometry": {
            "type": "Point",
            "coordinates": [
              13.6166538,
              47.6412244
            ]
          }
        },
        {
          "type": "Feature",
          "properties": {
            "id": "4996779786",
            "osm_type": "node",
            "lat": 47.6435202,
            "lon": 13.6157757,
            "addr:city": "Bad Goisern am Hallstättersee",
            "addr:country": "AT",
            "addr:housenumber": "34",
            "addr:postcode": "4822",
            "addr:street": "Untere Marktstraße",
            "name": "Leitner",
            "opening_hours": "Mo-Fr 06:30-12:00 15:00-18:00 Sa 06:30-12:00",
            "operator": "Kurt Leitner",
            "shop": "bakery"
          },
          "geometry": {
            "type": "Point",
            "coordinates": [
              13.6157757,
              47.6435202
            ]
          }
        },
        {
          "type": "Feature",
          "properties": {
            "id": "9034290240",
            "osm_type": "node",
            "lat": 47.6094154,
            "lon": 13.7822836,
            "name": "Schlögel Bäckerei",
            "shop": "bakery",
            "wheelchair": "limited"
          },
          "geometry": {
            "type": "Point",
            "coordinates": [
              13.7822836,
              47.6094154
            ]
          }
        },
        {
          "type": "Feature",
          "properties": {
            "id": "9178240364",
            "osm_type": "node",
            "lat": 47.4213459,
            "lon": 13.654783,
            "addr:city": "Ramsau am Dachstein",
            "addr:housenumber": "30",
            "addr:place": "Ramsau",
            "addr:postcode": "8972",
            "name": "Bäckerei Doris",
            "shop": "bakery"
          },
          "geometry": {
            "type": "Point",
            "coordinates": [
              13.654783,
              47.4213459
            ]
          }
        },
        {
          "type": "Feature",
          "properties": {
            "id": "10919513137",
            "osm_type": "node",
            "lat": 47.5575739,
            "lon": 13.6862102,
            "addr:housenumber": "175",
            "addr:place": "Obertraun",
            "name": "Bäckerei Maislinger",
            "opening_hours": "Mo-Sa 06:00-12:00",
            "phone": "+43 6131 517",
            "shop": "bakery",
            "website": "https://www.keltenbrot.at/",
            "wheelchair": "no"
          },
          "geometry": {
            "type": "Point",
            "coordinates": [
              13.6862102,
              47.5575739
            ]
          }
        },
        {
          "type": "Feature",
          "properties": {
            "id": "4961512521",
            "osm_type": "node",
            "lat": 47.5656427,
            "lon": 14.242849,
            "addr:city": "Liezen",
            "addr:country": "AT",
            "addr:housenumber": "1",
            "addr:postcode": "8940",
            "addr:street": "Bahnhofweg",
            "name": "Steindl",
            "name:de": "Steindl",
            "shop": "bakery",
            "wheelchair": "yes"
          },
          "geometry": {
            "type": "Point",
            "coordinates": [
              14.242849,
              47.5656427
            ]
          }
        },
        {
          "type": "Feature",
          "properties": {
            "id": "5012644661",
            "osm_type": "node",
            "lat": 47.5523063,
            "lon": 14.1466583,
            "name": "Bäckerei Vasold",
            "shop": "bakery"
          },
          "geometry": {
            "type": "Point",
            "coordinates": [
              14.1466583,
              47.5523063
            ]
          }
        },
        {
          "type": "Feature",
          "properties": {
            "id": "6833204101",
            "osm_type": "node",
            "lat": 47.5649804,
            "lon": 14.2432283,
            "name": "Lasser",
            "shop": "bakery"
          },
          "geometry": {
            "type": "Point",
            "coordinates": [
              14.2432283,
              47.5649804
            ]
          }
        },
        {
          "type": "Feature",
          "properties": {
            "id": "10856201135",
            "osm_type": "node",
            "lat": 47.5677953,
            "lon": 14.2367132,
            "addr:city": "Liezen",
            "addr:housenumber": "15",
            "addr:postcode": "8940",
            "addr:street": "Grimminggasse",
            "name": "Bäckerei Steindl KG",
            "shop": "bakery"
          },
          "geometry": {
            "type": "Point",
            "coordinates": [
              14.2367132,
              47.5677953
            ]
          }
        }
      ],
      "children": []
    },
    {
      "bbox": {
        "south": 47.36431175,
        "west": 14.2994695,
        "north": 47.694865,
        "east": 15.253173
      },
      "poiCount": 10,
      "leafCount": 10,
      "averagePosition": [
        14.94267235,
        47.45528415
      ],
      "data": [
        {
          "type": "Feature",
          "properties": {
            "id": "2267258212",
            "osm_type": "node",
            "lat": 47.3685689,
            "lon": 15.0936008,
            "name": "Bäckerei Weber",
            "shop": "bakery"
          },
          "geometry": {
            "type": "Point",
            "coordinates": [
              15.0936008,
              47.3685689
            ]
          }
        },
        {
          "type": "Feature",
          "properties": {
            "id": "3606546241",
            "osm_type": "node",
            "lat": 47.4859309,
            "lon": 14.4869617,
            "addr:city": "Trieben",
            "addr:housenumber": "17",
            "addr:postcode": "8784",
            "addr:street": "Triebener Bundesstraße",
            "indoor_seating": "yes",
            "name": "Stadtbäckerei Hupf",
            "opening_hours": "Mo 06:00-12:00; Di geschlossen; Mi-Sa 06:00-12:00; So 07:00-12:00; feiertags geschlossen",
            "outdoor_seating": "no",
            "shop": "bakery",
            "website": "http://stadtcafe-hupf.at/"
          },
          "geometry": {
            "type": "Point",
            "coordinates": [
              14.4869617,
              47.4859309
            ]
          }
        },
        {
          "type": "Feature",
          "properties": {
            "id": "5174511021",
            "osm_type": "node",
            "lat": 47.5906342,
            "lon": 14.3661602,
            "addr:city": "Ardning",
            "addr:housenumber": "97",
            "addr:postcode": "8904",
            "addr:street": "Unterdorfstraße",
            "name": "Bäckerei Gruber",
            "opening_hours": "Mo-Sa 04:00-12:00",
            "phone": "+43 3612 7207",
            "shop": "bakery"
          },
          "geometry": {
            "type": "Point",
            "coordinates": [
              14.3661602,
              47.5906342
            ]
          }
        },
        {
          "type": "Feature",
          "properties": {
            "id": "680045157",
            "osm_type": "node",
            "lat": 47.6658503,
            "lon": 14.7125825,
            "addr:housenumber": "18",
            "addr:place": "Großreifling",
            "addr:postcode": "8931",
            "name": "Bäckerei-Konditorei Schwarzlmüller",
            "phone": "+43 3633 22130",
            "shop": "bakery"
          },
          "geometry": {
            "type": "Point",
            "coordinates": [
              14.7125825,
              47.6658503
            ]
          }
        },
        {
          "type": "Feature",
          "properties": {
            "id": "1114877710",
            "osm_type": "node",
            "lat": 47.3814921,
            "lon": 15.0946269,
            "addr:city": "Leoben",
            "addr:country": "AT",
            "addr:housenumber": "1",
            "addr:postcode": "8700",
            "addr:street": "Dominikanergasse",
            "addr:suburb": "Leoben",
            "name": "Sorger",
            "shop": "bakery"
          },
          "geometry": {
            "type": "Point",
            "coordinates": [
              15.0946269,
              47.3814921
            ]
          }
        },
        {
          "type": "Feature",
          "properties": {
            "id": "1436582130",
            "osm_type": "node",
            "lat": 47.3824499,
            "lon": 15.0955154,
            "shop": "bakery",
            "source": "survey"
          },
          "geometry": {
            "type": "Point",
            "coordinates": [
              15.0955154,
              47.3824499
            ]
          }
        },
        {
          "type": "Feature",
          "properties": {
            "id": "2080179118",
            "osm_type": "node",
            "lat": 47.5239137,
            "lon": 15.2327741,
            "addr:city": "Thörl",
            "addr:country": "AT",
            "addr:housenumber": "176",
            "addr:place": "Palbersdorf",
            "addr:postcode": "8621",
            "designation": "Bäckerei Hollik",
            "name": "Bäckerei Hollik",
            "shop": "bakery",
            "source": "Bing"
          },
          "geometry": {
            "type": "Point",
            "coordinates": [
              15.2327741,
              47.5239137
            ]
          }
        },
        {
          "type": "Feature",
          "properties": {
            "id": "2440703162",
            "osm_type": "node",
            "lat": 47.3774714,
            "lon": 15.091658,
            "shop": "bakery",
            "source": "survey"
          },
          "geometry": {
            "type": "Point",
            "coordinates": [
              15.091658,
              47.3774714
            ]
          }
        },
        {
          "type": "Feature",
          "properties": {
            "id": "3883990626",
            "osm_type": "node",
            "lat": 47.3810609,
            "lon": 15.0942078,
            "brand": "Martin Auer",
            "brand:wikidata": "Q55523880",
            "brand:wikipedia": "de:Martin Auer (Unternehmen)",
            "name": "Martin Auer",
            "shop": "bakery"
          },
          "geometry": {
            "type": "Point",
            "coordinates": [
              15.0942078,
              47.3810609
            ]
          }
        },
        {
          "type": "Feature",
          "properties": {
            "id": "10678433004",
            "osm_type": "node",
            "lat": 47.3954692,
            "lon": 15.1586361,
            "name": "Friedrich",
            "shop": "bakery"
          },
          "geometry": {
            "type": "Point",
            "coordinates": [
              15.1586361,
              47.3954692
            ]
          }
        }
      ],
      "children": []
    }
  ]
}