{
  "bbox": {
    "south": 48.355971499999995,
    "west": 15.253173,
    "north": 49.017078,
    "east": 17.16058
  },
  "poiCount": 114,
  "leafCount": 0,
  "averagePosition": [
    16.267115911403508,
    48.623715924561395
  ],
  "data": [],
  "children": [
    {
      "bbox": {
        "south": 48.355971499999995,
        "west": 15.253173,
        "north": 48.68652475,
        "east": 16.2068765
      },
      "poiCount": 36,
      "leafCount": 36,
      "averagePosition": [
        15.68249173888889,
        48.460247688888884
      ],
      "data": [
        {
          "type": "Feature",
          "properties": {
            "id": "1366120509",
            "osm_type": "node",
            "lat": 48.5165773,
            "lon": 15.4918286,
            "addr:city": "Gföhl",
            "addr:housenumber": "11",
            "addr:postcode": "3542",
            "addr:street": "Pollhammerstraße",
            "check_date": "2025-05-30",
            "name": "Bäckerei Prinz",
            "operator": "Andreas Prinz",
            "phone": "+4327166497",
            "shop": "bakery"
          },
          "geometry": {
            "type": "Point",
            "coordinates": [
              15.4918286,
              48.5165773
            ]
          }
        },
        {
          "type": "Feature",
          "properties": {
            "id": "1756157212",
            "osm_type": "node",
            "lat": 48.4185569,
            "lon": 15.3831464,
            "name": "Burger",
            "shop": "bakery"
          },
          "geometry": {
            "type": "Point",
            "coordinates": [
              15.3831464,
              48.4185569
            ]
          }
        },
        {
          "type": "Feature",
          "properties": {
            "id": "5062457921",
            "osm_type": "node",
            "lat": 48.5491347,
            "lon": 15.2757188,
            "name": "Bäckerei,Café, Kaufhaus Leister",
            "shop": "bakery"
          },
          "geometry": {
            "type": "Point",
            "coordinates": [
              15.2757188,
              48.5491347
            ]
          }
        },
        {
          "type": "Feature",
          "properties": {
            "id": "6447319087",
            "osm_type": "node",
            "lat": 48.3950652,
            "lon": 15.5206347,
            "addr:city": "Dürnstein",
            "addr:country": "AT",
            "addr:housenumber": "21",
            "addr:place": "Dürnstein",
            "addr:postcode": "3601",
            "name": "Bäckerei & Konfiserie Schmidl",
            "opening_hours": "Mo-Fr 07:00-11:00; Sa 07:00-12:00",
            "operator": "Barbara Schmidl",
            "phone": "+43 2711 224",
            "shop": "bakery",
            "website": "https://www.schmidl-wachau.at/"
          },
          "geometry": {
            "type": "Point",
            "coordinates": [
              15.5206347,
              48.3950652
            ]
          }
        },
        {
          "type": "Feature",
          "properties": {
            "id": "7077419161",
            "osm_type": "node",
            "lat": 48.5218618,
            "lon": 15.2626953,
            "name": "Flamm Friedrich, Bäckerei - Lebensmittel",
            "shop": "bakery"
          },
          "geometry": {
            "type": "Point",
            "coordinates": [
              15.2626953,
              48.5218618
            ]
          }
        },
        {
          "type": "Feature",
          "properties": {
            "id": "307385148",
            "osm_type": "node",
            "lat": 48.4699872,
            "lon": 15.9843914,
            "name": "Heu",
            "shop": "bakery"
          },
          "geometry": {
            "type": "Point",
            "coordinates": [
              15.9843914,
              48.4699872
            ]
          }
        },
        {
          "type": "Feature",
          "properties": {
            "id": "385310423",
            "osm_type": "node",
            "lat": 48.4493348,
            "lon": 15.6047633,
            "addr:city": "Stratzing",
            "addr:country": "AT",
            "addr:housenumber": "10",
            "addr:postcode": "3552",
            "addr:street": "Untere Hauptstraße",
            "name": "Kafesy",
            "phone": "+43 2719 23 87",
            "shop": "bakery",
            "website": "https://www.kafesy.at/",
            "wheelchair": "yes"
          },
          "geometry": {
            "type": "Point",
            "coordinates": [
              15.6047633,
              48.4493348
            ]
          }
        },
        {
          "type": "Feature",
          "properties": {
            "id": "480326782",
            "osm_type": "node",
            "lat": 48.4603166,
            "lon": 15.6951737,
            "addr:city": "Gobelsburg",
            "addr:country": "AT",
            "addr:housenumber": "20",
            "addr:postcode": "3550",
            "addr:street": "Weinstraße",
            "name": "Bäckerei Kirschner",
            "opening_hours": "Mo,We,Th 06:00-12:00,15:00-18:00; Tu,Fr,Sa 06:00-12:00",
            "shop": "bakery",
            "wheelchair": "no"
          },
          "geometry": {
            "type": "Point",
            "coordinates": [
              15.6951737,
              48.4603166
            ]
          }
        },
        {
          "type": "Feature",
          "properties": {
            "id": "495175047",
            "osm_type": "node",
            "lat": 48.4582328,
            "lon": 15.7211243,
            "name": "Bäckerei Schalk",
            "shop": "bakery",
            "wheelchair": "limited"
          },
          "geometry": {
            "type": "Point",
            "coordinates": [
              15.7211243,
              48.4582328
            ]
          }
        },
        {
          "type": "Feature",
          "properties": {
            "id": "607148627",
            "osm_type": "node",
            "lat": 48.4098652,
            "lon": 15.6041318,
            "addr:city": "Krems an der Donau",
            "addr:country": "AT",
            "addr:housenumber": "14",
            "addr:postcode": "3500",
            "addr:street": "Bahnhofplatz",
            "check_date": "2025-08-18",
            "contact:email": "office@sabathiel.at",
            "contact:phone": "+43 2732 747 11",
            "contact:website": "http://www.sabathiel.at",
            "level": "0",
            "name": "Sabathiel",
            "opening_hours": "Mo-Fr 05:30-12:30; Su,PH 06:30-11:00",
            "shop": "bakery",
            "wheelchair": "yes"
          },
          "geometry": {
            "type": "Point",
            "coordinates": [
              15.6041318,
              48.4098652
            ]
          }
        },
        {
          "type": "Feature",
          "properties": {
            "id": "1365272354",
            "osm_type": "node",
            "lat": 48.4643265,
            "lon": 15.5756012,
            "addr:city": "Droß",
            "addr:country": "AT",
            "addr:housenumber": "53",
            "addr:postcode": "3552",
            "addr:street": "Am Platzl",
            "name": "Bäckerei Kafesy",
            "phone": "+43 02719 301 53",
            "shop": "bakery",
            "website": "https://www.kafesy.at/"
          },
          "geometry": {
            "type": "Point",
            "coordinates": [
              15.5756012,
              48.4643265
            ]
          }
        },
        {
          "type": "Feature",
          "properties": {
            "id": "1818978239",
            "osm_type": "node",
            "lat": 48.6649853,
            "lon": 15.6585837,
            "name": "Bäckerei, Cafe-Konditorei Leo",
            "opening_hours": "Mo-Fr 05:00-19:00, Sa 05:30-18:00, Su 09:00-18:00",
            "shop": "bakery",
            "wheelchair": "yes"
          },
          "geometry": {
            "type": "Point",
            "coordinates": [
              15.6585837,
              48.6649853
            ]
          }
        },
        {
          "type": "Feature",
          "properties": {
            "id": "1989251622",
            "osm_type": "node",
            "lat": 48.4340643,
            "lon": 15.8990014,
            "name": "Blauensteiner",
            "shop": "bakery"
          },
          "geometry": {
            "type": "Point",
            "coordinates": [
              15.8990014,
              48.4340643
            ]
          }
        },
        {
          "type": "Feature",
          "properties": {
            "id": "2841294129",
            "osm_type": "node",
            "lat": 48.4086826,
            "lon": 15.6134948,
            "addr:city": "Krems an der Donau",
            "addr:country": "AT",
            "addr:housenumber": "33",
            "addr:postcode": "3500",
            "addr:street": "Göttweigergasse",
            "name": "Sabathiel",
            "opening_hours": "Mo-Fr 06:00-18:00; Sa 06:30-12:00",
            "shop": "bakery"
          },
          "geometry": {
            "type": "Point",
            "coordinates": [
              15.6134948,
              48.4086826
            ]
          }
        },
        {
          "type": "Feature",
          "properties": {
            "id": "3461568351",
            "osm_type": "node",
            "lat": 48.384727,
            "lon": 15.613303,
            "addr:city": "Palt",
            "addr:country": "AT",
            "addr:housenumber": "55",
            "addr:postcode": "3511",
            "addr:street": "Wienerstraße",
            "contact:email": "cafe.kittel@aon.at",
            "contact:phone": "+43 2732 78648",
            "name": "Kittel's Kaufladen",
            "opening_hours": "Mo-Fr 06:30-12:30,16:00-19:00; Sa 07:00-12:00",
            "shop": "bakery"
          },
          "geometry": {
            "type": "Point",
            "coordinates": [
              15.613303,
              48.384727
            ]
          }
        },
        {
          "type": "Feature",
          "properties": {
            "id": "4238018691",
            "osm_type": "node",
            "lat": 48.4076502,
            "lon": 15.7758553,
            "name": "Bäckerei Staiger",
            "shop": "bakery"
          },
          "geometry": {
            "type": "Point",
            "coordinates": [
              15.7758553,
              48.4076502
            ]
          }
        },
        {
          "type": "Feature",
          "properties": {
            "id": "4259141738",
            "osm_type": "node",
            "lat": 48.4024255,
            "lon": 15.5841692,
            "addr:city": "Krems an der Donau",
            "addr:country": "AT",
            "addr:housenumber": "50",
            "addr:postcode": "3500",
            "addr:street": "Steiner Donaulände",
            "email": "office@sabathiel.at",
            "name": "Bäckerei Sabathiel",
            "phone": "+43 2732 715 11",
            "shop": "bakery",
            "website": "https://www.sabathiel.at/"
          },
          "geometry": {
            "type": "Point",
            "coordinates": [
              15.5841692,
              48.4024255
            ]
          }
        },
        {
          "type": "Feature",
          "properties": {
            "id": "4949355562",
            "osm_type": "node",
            "lat": 48.4383015,
            "lon": 15.6181732,
            "addr:city": "Gneixendorf",
            "addr:country": "AT",
            "addr:housenumber": "33",
            "addr:postcode": "3500",
            "addr:street": "Gneixendorfer Hauptstraße",
            "name": "Bäckerei Kafesy",
            "phone": "+43 2732 824 40",
            "shop": "bakery"
          },
          "geometry": {
            "type": "Point",
            "coordinates": [
              15.6181732,
              48.4383015
            ]
          }
        },
        {
          "type": "Feature",
          "properties": {
            "id": "5145630759",
            "osm_type": "node",
            "lat": 48.4083534,
            "lon": 15.6147024,
            "addr:city": "Krems an der Donau",
            "addr:country": "AT",
            "addr:housenumber": "16",
            "addr:postcode": "3500",
            "addr:street": "Dr.-Gschmeidler-Straße",
            "check_date:opening_hours": "2024-07-23",
            "name": "Schalk",
            "opening_hours": "Mo-Fr 06:00-18:30; Sa 06:00-17:00",
            "phone": "+43 2732 852 43",
            "shop": "bakery",
            "website": "https://baeckerei-schalk.at/",
            "wheelchair": "yes"
          },
          "geometry": {
            "type": "Point",
            "coordinates": [
              15.6147024,
              48.4083534
            ]
          }
        },
        {
          "type": "Feature",
          "properties": {
            "id": "5202190475",
            "osm_type": "node",
            "lat": 48.4110859,
            "lon": 15.6002734,
            "addr:city": "Krems an der Donau",
            "addr:country": "AT",
            "addr:housenumber": "1",
            "addr:postcode": "3500",
            "addr:street": "Obere Landstraße",
            "contact:email": "office@sabathiel.at",
            "indoor_seating": "yes",
            "name": "Sabathiel",
            "opening_hours": "Mo-Fr 09:00-18:00; Sa 06:30-15:00; PH 07:00-12:30",
            "outdoor_seating": "yes",
            "shop": "bakery",
            "website": "https://www.sabathiel.at/"
          },
          "geometry": {
            "type": "Point",
            "coordinates": [
              15.6002734,
              48.4110859
            ]
          }
        },
        {
          "type": "Feature",
          "properties": {
            "id": "5202190476",
            "osm_type": "node",
            "lat": 48.4109725,
            "lon": 15.5992624,
            "addr:city": "Krems an der Donau",
            "addr:country": "AT",
            "addr:housenumber": "8",
            "addr:postcode": "3500",
            "addr:street": "Obere Landstraße",
            "email": "office@schmidl-duernstein.at",
            "name": "Schmidl",
            "opening_hours": "Mo-Fr 07:00-17:00; Sa 07:00-13:00; PH,Su 07:00-11:30",
            "phone": "+43 2732 751 27",
            "shop": "bakery",
            "website": "http://www.schmidl-duernstein.at",
            "wheelchair": "yes"
          },
          "geometry": {
            "type": "Point",
            "coordinates": [
              15.5992624,
              48.4109725
            ]
          }
        },
        {
          "type": "Feature",
          "properties": {
            "id": "5234995122",
            "osm_type": "node",
            "lat": 48.4139195,
            "lon": 15.6354154,
            "addr:city": "Krems an der Donau",
            "addr:country": "AT",
            "addr:housenumber": "9",
            "addr:postcode": "3500",
            "addr:street": "Lerchenfelder Hauptplatz",
            "delivery:covid19": "no",
            "email": "mehl@brucknerbrot.at",
            "name": "Bäckerei Bruckner",
            "phone": "+43 2732 749 87",
            "shop": "bakery",
            "takeaway:covid19": "yes",
            "website": "http://www.brucknerbrot.at"
          },
          "geometry": {
            "type": "Point",
            "coordinates": [
              15.6354154,
              48.4139195
            ]
          }
        },
        {
          "type": "Feature",
          "properties": {
            "id": "5396024613",
            "osm_type": "node",
            "lat": 48.411552,
            "lon": 15.6128939,
            "addr:city": "Krems an der Donau",
            "addr:country": "AT",
            "addr:housenumber": "55",
            "addr:postcode": "3500",
            "addr:street": "Hohensteinstraße",
            "name": "Sabathiel",
            "opening_hours": "Mo-Fr 06:30-11:30; PH,Su 06:30-11:00",
            "opening_hours:covid19": "off",
            "phone": "+43 2732 820 21",
            "shop": "bakery",
            "website": "https://www.sabathiel.at/"
          },
          "geometry": {
            "type": "Point",
            "coordinates": [
              15.6128939,
              48.411552
            ]
          }
        },
        {
          "type": "Feature",
          "properties": {
            "id": "5396025190",
            "osm_type": "node",
            "lat": 48.4109208,
            "lon": 15.6155788,
            "addr:city": "Krems an der Donau",
            "addr:country": "AT",
            "addr:housenumber": "72",
            "addr:postcode": "3500",
            "addr:street": "Hohensteinstraße",
            "name": "Schmidl",
            "phone": "+43 2732 824 24",
            "shop": "bakery",
            "website": "http://www.schmidl-duernstein.at"
          },
          "geometry": {
            "type": "Point",
            "coordinates": [
              15.6155788,
              48.4109208
            ]
          }
        },
        {
          "type": "Feature",
          "properties": {
            "id": "5913864040",
            "osm_type": "node",
            "lat": 48.4188511,
            "lon": 15.6581059,
            "addr:city": "Rohrendorf bei Krems",
            "addr:country": "AT",
            "addr:housenumber": "5",
            "addr:postcode": "3495",
            "addr:street": "Untere Hauptstraße",
            "name": "Bäckerei Weichslbaum",
            "phone": "+43 2732 844 72",
            "shop": "bakery",
            "website": "http://www.weichslbaum.com"
          },
          "geometry": {
            "type": "Point",
            "coordinates": [
              15.6581059,
              48.4188511
            ]
          }
        },
        {
          "type": "Feature",
          "properties": {
            "id": "7985464968",
            "osm_type": "node",
            "lat": 48.4128152,
            "lon": 15.6059214,
            "addr:city": "Krems an der Donau",
            "addr:country": "AT",
            "addr:housenumber": "1",
            "addr:postcode": "3500",
            "addr:street": "Hohensteinstraße",
            "check_date": "2025-05-05",
            "name": "Bäckerei Ariana",
            "phone": "+43 660 1416414",
            "shop": "bakery"
          },
          "geometry": {
            "type": "Point",
            "coordinates": [
              15.6059214,
              48.4128152
            ]
          }
        },
        {
          "type": "Feature",
          "properties": {
            "id": "10123069219",
            "osm_type": "node",
            "lat": 48.5962764,
            "lon": 15.6591667,
            "name": "Bäckerei & Kurkonditorei Ehrenberger",
            "opening_hours": "Mo-Fr 06:00-18:00; Sa 06:00-12:30; Su 07:30-11:00",
            "phone": "+43 2985 224112",
            "shop": "bakery",
            "website": "https://mohnzuzler.at/de/baeckerei-greisslerei/"
          },
          "geometry": {
            "type": "Point",
            "coordinates": [
              15.6591667,
              48.5962764
            ]
          }
        },
        {
          "type": "Feature",
          "properties": {
            "id": "11093718794",
            "osm_type": "node",
            "lat": 48.4626545,
            "lon": 15.7225782,
            "addr:city": "Hadersdorf am Kamp",
            "addr:country": "AT",
            "addr:housenumber": "2",
            "addr:postcode": "3493",
            "addr:street": "Rosaliastraße",
            "name": "derBartl",
            "phone": "+43 2735 55 15",
            "shop": "bakery",
            "website": "https://www.derbartl.at/"
          },
          "geometry": {
            "type": "Point",
            "coordinates": [
              15.7225782,
              48.4626545
            ]
          }
        },
        {
          "type": "Feature",
          "properties": {
            "id": "12076954800",
            "osm_type": "node",
            "lat": 48.416492,
            "lon": 15.6219539,
            "addr:city": "Krems an der Donau",
            "addr:country": "AT",
            "addr:housenumber": "96-102",
            "addr:postcode": "3500",
            "addr:street": "Wiener Straße",
            "check_date": "2024-07-27",
            "level": "1",
            "name": "Q. Schalk",
            "phone": "+43 2732 72 710",
            "shop": "bakery",
            "website": "https://baeckerei-schalk.at/"
          },
          "geometry": {
            "type": "Point",
            "coordinates": [
              15.6219539,
              48.416492
            ]
          }
        },
        {
          "type": "Feature",
          "properties": {
            "id": "12542136306",
            "osm_type": "node",
            "lat": 48.4443904,
            "lon": 15.739751,
            "addr:city": "Etsdorf am Kamp",
            "addr:country": "AT",
            "addr:housenumber": "1",
            "addr:postcode": "3492",
            "addr:street": "Schloßstraße",
            "name": "Bäckerei Braun",
            "operator": "Karl Braun",
            "phone": "+43 2735 5733",
            "shop": "bakery",
            "website": "https://www.baeckerei-braun.at/"
          },
          "geometry": {
            "type": "Point",
            "coordinates": [
              15.739751,
              48.4443904
            ]
          }
        },
        {
          "type": "Feature",
          "properties": {
            "id": "13019503367",
            "osm_type": "node",
            "lat": 48.4079529,
            "lon": 15.598454,
            "addr:city": "Krems an der Donau",
            "addr:housenumber": "39",
            "addr:postcode": "3500",
            "addr:street": "Ringstraße",
            "diet:gluten_free": "only",
            "name": "GlutenFreeShop.Krems",
            "shop": "bakery",
            "website": "https://www.instagram.com/glutenfreeshop.krems/"
          },
          "geometry": {
            "type": "Point",
            "coordinates": [
              15.598454,
              48.4079529
            ]
          }
        },
        {
          "type": "Feature",
          "properties": {
            "id": "1801463095",
            "osm_type": "node",
            "lat": 48.5687206,
            "lon": 16.079859,
            "addr:city": "Hollabrunn",
            "addr:housenumber": "38",
            "addr:postcode": "2020",
            "addr:street": "Mühlenring",
            "name": "Leo Bäcker Cafe",
            "opening_hours": "Mo-Fr 06:30-18:00; Sa 07:30-17:00; Su 07:30-10:30",
            "phone": "+43 2952 34651",
            "shop": "bakery",
            "wheelchair": "limited"
          },
          "geometry": {
            "type": "Point",
            "coordinates": [
              16.079859,
              48.5687206
            ]
          }
        },
        {
          "type": "Feature",
          "properties": {
            "id": "3005808200",
            "osm_type": "node",
            "lat": 48.6016735,
            "lon": 16.0638326,
            "addr:city": "Grabern",
            "addr:country": "AT",
            "addr:housenumber": "168",
            "addr:place": "Schöngrabern",
            "addr:postcode": "2020",
            "at_bev:addr_date": "2021-10-01",
            "name": "Bäckerei Hartner",
            "shop": "bakery"
          },
          "geometry": {
            "type": "Point",
            "coordinates": [
              16.0638326,
              48.6016735
            ]
          }
        },
        {
          "type": "Feature",
          "properties": {
            "id": "4773571376",
            "osm_type": "node",
            "lat": 48.3936262,
            "lon": 16.1024332,
            "addr:city": "Hausleiten",
            "addr:country": "AT",
            "addr:housenumber": "8",
            "addr:postcode": "3464",
            "addr:street": "F.-W.-Raiffeisen-Platz",
            "at_bev:addr_date": "2017-10-01",
            "name": "Cafe zum Bäck",
            "shop": "bakery",
            "wheelchair": "no"
          },
          "geometry": {
            "type": "Point",
            "coordinates": [
              16.1024332,
              48.3936262
            ]
          }
        },
        {
          "type": "Feature",
          "properties": {
            "id": "7806399330",
            "osm_type": "node",
            "lat": 48.5620587,
            "lon": 16.0796078,
            "addr:city": "Hollabrunn",
            "addr:housenumber": "3",
            "addr:postcode": "2020",
            "addr:street": "Theodor-Körner-Gasse",
            "name": "Felber",
            "opening_hours": "Mo-Fr 06:00-18:30; Sa,Su 07:00-12:00; PH 07:00-12:00",
            "shop": "bakery",
            "website": "https://www.felberbrot.at/home.html"
          },
          "geometry": {
            "type": "Point",
            "coordinates": [
              16.0796078,
              48.5620587
            ]
          }
        },
        {
          "type": "Feature",
          "properties": {
            "id": "8662759567",
            "osm_type": "node",
            "lat": 48.5625058,
            "lon": 16.0781225,
            "addr:city": "Hollabrunn",
            "addr:housenumber": "6",
            "addr:postcode": "2020",
            "addr:street": "Hauptplatz",
            "name": "Bäckerei Geier",
            "shop": "bakery",
            "website": "https://www.geier.at/"
          },
          "geometry": {
            "type": "Point",
            "coordinates": [
              16.0781225,
              48.5625058
            ]
          }
        }
      ],
      "children": []
    },
    {
      "bbox": {
        "south": 48.355971499999995,
        "west": 16.2068765,
        "north": 48.68652475,
        "east": 17.16058
      },
      "poiCount": 37,
      "leafCount": 37,
      "averagePosition": [
        16.703730683783785,
        48.51616081351351
      ],
      "data": [
        {
          "type": "Feature",
          "properties": {
            "id": "250580565",
            "osm_type": "node",
            "lat": 48.382836,
            "lon": 16.5189081,
            "contact:phone": "+43 2245 828 08",
            "name": "Bauer",
            "opening_hours": "Mo-Sa 05:30-12:00",
            "shop": "bakery",
            "website": "https://www.landhand-baeckerei.at/filialfinder"
          },
          "geometry": {
            "type": "Point",
            "coordinates": [
              16.5189081,
              48.382836
            ]
          }
        },
        {
          "type": "Feature",
          "properties": {
            "id": "635951439",
            "osm_type": "node",
            "lat": 48.5269508,
            "lon": 16.3603209,
            "addr:city": "Ernstbrunn",
            "addr:country": "AT",
            "addr:housenumber": "3",
            "addr:postcode": "2115",
            "addr:street": "Hoher-Hausberg",
            "name": "Bio Kreativbäckerei Markus Kürrer",
            "opening_hours": "Mo-Th 06:00-13:00,14:30-18:00; Fr 06:00-18:00; Sa 06:00-13:00",
            "phone": "+43 2576 2330",
            "shop": "bakery"
          },
          "geometry": {
            "type": "Point",
            "coordinates": [
              16.3603209,
              48.5269508
            ]
          }
        },
        {
          "type": "Feature",
          "properties": {
            "id": "635951457",
            "osm_type": "node",
            "lat": 48.5275788,
            "lon": 16.3637652,
            "addr:city": "Ernstbrunn",
            "addr:housenumber": "25",
            "addr:postcode": "2115",
            "addr:street": "Hauptplatz",
            "indoor_seating": "yes",
            "name": "Bäckerei Steingläubl",
            "opening_hours": "Mo-Fr 06:00-17:00, Sa 06:00-12:00; PH off",
            "outdoor_seating": "yes",
            "phone": "+43 2576 2413",
            "shop": "bakery",
            "smoking": "outside",
            "website": "https://www.baeckerei-steinglaeubl.at/"
          },
          "geometry": {
            "type": "Point",
            "coordinates": [
              16.3637652,
              48.5275788
            ]
          }
        },
        {
          "type": "Feature",
          "properties": {
            "id": "1029388647",
            "osm_type": "node",
            "lat": 48.3892411,
            "lon": 16.2138665,
            "check_date:opening_hours": "2023-09-05",
            "name": "Bäckerei Berthold",
            "opening_hours": "Mo-Fr 06:00-18:00; Sa 06:30-12:00",
            "shop": "bakery",
            "wheelchair": "no"
          },
          "geometry": {
            "type": "Point",
            "coordinates": [
              16.2138665,
              48.3892411
            ]
          }
        },
        {
          "type": "Feature",
          "properties": {
            "id": "1116496190",
            "osm_type": "node",
            "lat": 48.3861269,
            "lon": 16.2169665,
            "entrance": "yes",
            "name": "Bäckerei Petermann",
            "opening_hours": "Mo-Fr 06:00-18:00; Sa 06:00-12:00",
            "shop": "bakery"
          },
          "geometry": {
            "type": "Point",
            "coordinates": [
              16.2169665,
              48.3861269
            ]
          }
        },
        {
          "type": "Feature",
          "properties": {
            "id": "1469249661",
            "osm_type": "node",
            "lat": 48.3834445,
            "lon": 16.5177668,
            "name": "Ideenbäckerei Geier",
            "shop": "bakery"
          },
          "geometry": {
            "type": "Point",
            "coordinates": [
              16.5177668,
              48.3834445
            ]
          }
        },
        {
          "type": "Feature",
          "properties": {
            "id": "1488245125",
            "osm_type": "node",
            "lat": 48.3930511,
            "lon": 16.3688579,
            "addr:city": "Rückersdorf",
            "addr:country": "AT",
            "addr:housenumber": "24a",
            "addr:postcode": "2111",
            "addr:street": "Ringgasse",
            "at_bev:addr_date": "2017-10-01",
            "name": "Bäckerei Steingläubl",
            "shop": "bakery"
          },
          "geometry": {
            "type": "Point",
            "coordinates": [
              16.3688579,
              48.3930511
            ]
          }
        },
        {
          "type": "Feature",
          "properties": {
            "id": "1691212313",
            "osm_type": "node",
            "lat": 48.3887301,
            "lon": 16.4263279,
            "addr:city": "Manhartsbrunn",
            "addr:country": "AT",
            "addr:housenumber": "1",
            "addr:postcode": "2203",
            "addr:street": "Hauptplatz",
            "name": "Bäckerei und Konditorei Unterleuthner",
            "shop": "bakery"
          },
          "geometry": {
            "type": "Point",
            "coordinates": [
              16.4263279,
              48.3887301
            ]
          }
        },
        {
          "type": "Feature",
          "properties": {
            "id": "4896034210",
            "osm_type": "node",
            "lat": 48.4179369,
            "lon": 16.243667,
            "addr:city": "Leitzersdorf",
            "addr:country": "AT",
            "addr:housenumber": "1",
            "addr:postcode": "2003",
            "addr:street": "Ernstbrunner Straße",
            "at_bev:addr_date": "2016-10-02",
            "contact:website": "http://www.hartner-brot.at/standorte/baeckerei-hartner-leitzersdorf/",
            "name": "Bäckerei Hartner",
            "shop": "bakery"
          },
          "geometry": {
            "type": "Point",
            "coordinates": [
              16.243667,
              48.4179369
            ]
          }
        },
        {
          "type": "Feature",
          "properties": {
            "id": "7137219876",
            "osm_type": "node",
            "lat": 48.384682,
            "lon": 16.2082621,
            "addr:city": "Stockerau",
            "addr:country": "AT",
            "addr:housenumber": "9",
            "addr:postcode": "2000",
            "addr:street": "Rathausplatz",
            "contact:phone": "+43 2266 62581",
            "name": "Biobäckerei Gepp",
            "opening_hours": "Mo-Fr 06:15-13:00, 14:30-18:00; Sa 06:30-12:00",
            "shop": "bakery",
            "website": "http://www.gepp.co.at/wp/standorte/stockerau/"
          },
          "geometry": {
            "type": "Point",
            "coordinates": [
              16.2082621,
              48.384682
            ]
          }
        },
        {
          "type": "Feature",
          "properties": {
            "id": "9418298063",
            "osm_type": "node",
            "lat": 48.6545107,
            "lon": 16.3806434,
            "addr:street": "a",
            "contact:phone": "+43 2522 88 337",
            "name": "Öfferl Bio-Backstube",
            "operator": "Bäckerei Öfferl GmbH",
            "shop": "bakery",
            "website": "https://www.oefferl.bio/"
          },
          "geometry": {
            "type": "Point",
            "coordinates": [
              16.3806434,
              48.6545107
            ]
          }
        },
        {
          "type": "Feature",
          "properties": {
            "id": "12754523251",
            "osm_type": "node",
            "lat": 48.654778,
            "lon": 16.3801072,
            "contact:phone": "+43 2522 88 337",
            "name": "Öfferl Bio-Verkaufsraum",
            "operator": "Bäckerei Öfferl GmbH",
            "shop": "bakery",
            "website": "https://www.oefferl.bio/"
          },
          "geometry": {
            "type": "Point",
            "coordinates": [
              16.3801072,
              48.654778
            ]
          }
        },
        {
          "type": "Feature",
          "properties": {
            "id": "990289119",
            "osm_type": "node",
            "lat": 48.5641541,
            "lon": 16.853543,
            "addr:city": "Ringelsdorf-Niederabsdorf",
            "addr:country": "AT",
            "addr:housenumber": "207",
            "addr:postcode": "2272",
            "addr:street": "Praterberg-Villagarten",
            "at_bev:addr_date": "2020-04-01",
            "name": "Römer",
            "shop": "bakery"
          },
          "geometry": {
            "type": "Point",
            "coordinates": [
              16.853543,
              48.5641541
            ]
          }
        },
        {
          "type": "Feature",
          "properties": {
            "id": "1022592102",
            "osm_type": "node",
            "lat": 48.6463613,
            "lon": 16.7926175,
            "name": "SB Kaufhaus Eder",
            "shop": "bakery"
          },
          "geometry": {
            "type": "Point",
            "coordinates": [
              16.7926175,
              48.6463613
            ]
          }
        },
        {
          "type": "Feature",
          "properties": {
            "id": "2222292293",
            "osm_type": "node",
            "lat": 48.5023113,
            "lon": 16.9996606,
            "shop": "bakery"
          },
          "geometry": {
            "type": "Point",
            "coordinates": [
              16.9996606,
              48.5023113
            ]
          }
        },
        {
          "type": "Feature",
          "properties": {
            "id": "2280016400",
            "osm_type": "node",
            "lat": 48.3727388,
            "lon": 16.640605,
            "addr:city": "Auersthal",
            "addr:country": "AT",
            "addr:housename": "Bäckerei Thaller",
            "addr:housenumber": "117",
            "addr:postcode": "2214",
            "addr:street": "Hauptstraße",
            "name": "Bäckerei Thaller",
            "shop": "bakery"
          },
          "geometry": {
            "type": "Point",
            "coordinates": [
              16.640605,
              48.3727388
            ]
          }
        },
        {
          "type": "Feature",
          "properties": {
            "id": "2475403935",
            "osm_type": "node",
            "lat": 48.6585119,
            "lon": 17.0203086,
            "name": "Pekáreň Šimek",
            "shop": "bakery"
          },
          "geometry": {
            "type": "Point",
            "coordinates": [
              17.0203086,
              48.6585119
            ]
          }
        },
        {
          "type": "Feature",
          "properties": {
            "id": "2627665521",
            "osm_type": "node",
            "lat": 48.6493786,
            "lon": 16.9022055,
            "name": "Bäckerei Starnberger",
            "shop": "bakery"
          },
          "geometry": {
            "type": "Point",
            "coordinates": [
              16.9022055,
              48.6493786
            ]
          }
        },
        {
          "type": "Feature",
          "properties": {
            "id": "3037252663",
            "osm_type": "node",
            "lat": 48.5454837,
            "lon": 16.758085,
            "name": "Geier",
            "opening_hours": "Mo-Fr 05:30-18:30; Sa 06:00-18:00; Su 07:00-18:00",
            "shop": "bakery"
          },
          "geometry": {
            "type": "Point",
            "coordinates": [
              16.758085,
              48.5454837
            ]
          }
        },
        {
          "type": "Feature",
          "properties": {
            "id": "3225059621",
            "osm_type": "node",
            "lat": 48.5449655,
            "lon": 16.7616434,
            "addr:city": "Zistersdorf",
            "addr:housenumber": "8",
            "addr:postcode": "2225",
            "addr:street": "Kirchenplatz",
            "opening_hours": "Mo-Fr 06:00-18:00; Sa 06:00-12:00; Su off",
            "phone": "+43 2532 2314",
            "shop": "bakery"
          },
          "geometry": {
            "type": "Point",
            "coordinates": [
              16.7616434,
              48.5449655
            ]
          }
        },
        {
          "type": "Feature",
          "properties": {
            "id": "4207666911",
            "osm_type": "node",
            "lat": 48.4346101,
            "lon": 17.0228458,
            "check_date": "2025-07-26",
            "opening_hours": "Mo-Fr 07:00-15:00; Sa 07:00-12:00",
            "operator": "ZPC",
            "shop": "bakery",
            "wheelchair": "no;2 steps"
          },
          "geometry": {
            "type": "Point",
            "coordinates": [
              17.0228458,
              48.4346101
            ]
          }
        },
        {
          "type": "Feature",
          "properties": {
            "id": "4357398994",
            "osm_type": "node",
            "lat": 48.4723718,
            "lon": 16.8521107,
            "name": "Geier",
            "shop": "bakery"
          },
          "geometry": {
            "type": "Point",
            "coordinates": [
              16.8521107,
              48.4723718
            ]
          }
        },
        {
          "type": "Feature",
          "properties": {
            "id": "4534864829",
            "osm_type": "node",
            "lat": 48.4329668,
            "lon": 17.0229827,
            "brand": "Minit",
            "brand:wikidata": "Q116681166",
            "name": "Minit",
            "opening_hours": "Mo-Fr 5:30-17:30",
            "payment:cards": "no",
            "phone": "+421 905 283 952",
            "shop": "bakery",
            "wheelchair": "no;2 steps"
          },
          "geometry": {
            "type": "Point",
            "coordinates": [
              17.0229827,
              48.4329668
            ]
          }
        },
        {
          "type": "Feature",
          "properties": {
            "id": "5048015910",
            "osm_type": "node",
            "lat": 48.5678984,
            "lon": 16.5733503,
            "addr:city": "Mistelbach",
            "addr:country": "AT",
            "addr:housenumber": "3",
            "addr:postcode": "2130",
            "addr:street": "Wiedenstraße",
            "name": "C & H Bäckerei Konditorei",
            "opening_hours": "Mo-Sa 07:00-20:00; Su 08:00-19:00",
            "shop": "bakery"
          },
          "geometry": {
            "type": "Point",
            "coordinates": [
              16.5733503,
              48.5678984
            ]
          }
        },
        {
          "type": "Feature",
          "properties": {
            "id": "5358870664",
            "osm_type": "node",
            "lat": 48.6017121,
            "lon": 16.7861772,
            "addr:city": "Neusiedl an der Zaya",
            "addr:housenumber": "5",
            "addr:postcode": "2183",
            "addr:street": "Bahnstraße",
            "name": "Landbäckerei Römer",
            "opening_hours": "Mo-Sa 05:30-11:00",
            "operator": "Werner Römer",
            "shop": "bakery"
          },
          "geometry": {
            "type": "Point",
            "coordinates": [
              16.7861772,
              48.6017121
            ]
          }
        },
        {
          "type": "Feature",
          "properties": {
            "id": "7167780459",
            "osm_type": "node",
            "lat": 48.4373433,
            "lon": 17.0163263,
            "check_date": "2025-05-08",
            "name": "Pekáreň",
            "opening_hours": "Mo-Fr 7:00-17:30; Sa 7:00-12:00",
            "shop": "bakery",
            "wheelchair": "no",
            "wheelchair:description": "1 step"
          },
          "geometry": {
            "type": "Point",
            "coordinates": [
              17.0163263,
              48.4373433
            ]
          }
        },
        {
          "type": "Feature",
          "properties": {
            "id": "7920621505",
            "osm_type": "node",
            "lat": 48.4399759,
            "lon": 17.0161727,
            "contact:phone": "+421 911 730 905",
            "contact:website": "http://www.nanacelia.sk",
            "diet:gluten_free": "only",
            "name": "NanaCelia",
            "opening_hours": "Mo-Fr 9:00-16:30;Sa 9:00-12:00",
            "organic": "yes",
            "shop": "bakery",
            "wheelchair": "yes"
          },
          "geometry": {
            "type": "Point",
            "coordinates": [
              17.0161727,
              48.4399759
            ]
          }
        },
        {
          "type": "Feature",
          "properties": {
            "id": "9547240078",
            "osm_type": "node",
            "lat": 48.5749367,
            "lon": 16.5717461,
            "name": "Karl Bauer Backshop",
            "phone": "+43 676 90 880 81",
            "shop": "bakery",
            "website": "https://baeckereibauer.at/standorte-uebersicht/backshop-mistelbach"
          },
          "geometry": {
            "type": "Point",
            "coordinates": [
              16.5717461,
              48.5749367
            ]
          }
        },
        {
          "type": "Feature",
          "properties": {
            "id": "9698873638",
            "osm_type": "node",
            "lat": 48.438692,
            "lon": 17.0157175,
            "check_date": "2022-03-06",
            "name": "Mili",
            "opening_hours": "Mo-Su 6:00-21:00",
            "shop": "bakery",
            "wheelchair": "yes"
          },
          "geometry": {
            "type": "Point",
            "coordinates": [
              17.0157175,
              48.438692
            ]
          }
        },
        {
          "type": "Feature",
          "properties": {
            "id": "9698873655",
            "osm_type": "node",
            "lat": 48.4375243,
            "lon": 17.0180925,
            "check_date": "2022-03-06",
            "name": "Chlebík",
            "opening_hours": "Mo-Fr 7:00-18:00; Sa 7:00-12:00",
            "shop": "bakery",
            "wheelchair": "no",
            "wheelchair:description": "3 steps"
          },
          "geometry": {
            "type": "Point",
            "coordinates": [
              17.0180925,
              48.4375243
            ]
          }
        },
        {
          "type": "Feature",
          "properties": {
            "id": "10726013851",
            "osm_type": "node",
            "lat": 48.6070607,
            "lon": 16.9971491,
            "contact:facebook": "https://www.facebook.com/pekarensekule/",
            "email": "marian.kubina@gmail.com",
            "name": "Pekáreň Sekule",
            "opening_hours": "Mo-Fr 09:00-17:00; Sa 05:00-17:00",
            "operator": "Kubina s.r.o.",
            "phone": "+421 905 644 718",
            "shop": "bakery",
            "stroller": "yes",
            "wheelchair": "yes"
          },
          "geometry": {
            "type": "Point",
            "coordinates": [
              16.9971491,
              48.6070607
            ]
          }
        },
        {
          "type": "Feature",
          "properties": {
            "id": "11617965399",
            "osm_type": "node",
            "lat": 48.6573356,
            "lon": 17.0192808,
            "email": "faun@faun.sk",
            "name": "Pekáreň FAUN",
            "opening_hours": "Mo-Fr 05:00-17:00; Sa 07:00-12:00",
            "phone": "+421 917 439 691",
            "shop": "bakery",
            "website": "https://faun.sk/"
          },
          "geometry": {
            "type": "Point",
            "coordinates": [
              17.0192808,
              48.6573356
            ]
          }
        },
        {
          "type": "Feature",
          "properties": {
            "id": "12752977565",
            "osm_type": "node",
            "lat": 48.6665411,
            "lon": 16.6281576,
            "addr:city": "Poysdorf",
            "addr:housenumber": "14",
            "addr:postcode": "2170",
            "addr:street": "Wiener Straße",
            "name": "Die Huglerei",
            "opening_hours": "Tu-Fr 16:00-18:30",
            "phone": "+436606447441",
            "shop": "bakery",
            "website": "https://www.diehuglerei.at/"
          },
          "geometry": {
            "type": "Point",
            "coordinates": [
              16.6281576,
              48.6665411
            ]
          }
        },
        {
          "type": "Feature",
          "properties": {
            "id": "12790319722",
            "osm_type": "node",
            "lat": 48.6655532,
            "lon": 16.6285995,
            "addr:city": "Poysdorf",
            "addr:housenumber": "13",
            "addr:postcode": "2170",
            "addr:street": "Wiener Straße",
            "name": "Bäckerei Bauer",
            "shop": "bakery"
          },
          "geometry": {
            "type": "Point",
            "coordinates": [
              16.6285995,
              48.6655532
            ]
          }
        },
        {
          "type": "Feature",
          "properties": {
            "id": "13057449545",
            "osm_type": "node",
            "lat": 48.4149455,
            "lon": 16.6345082,
            "name": "Bäckerei Bauer",
            "opening_hours": "Mo-Fr 06:00-14:00, Sa 06:00 - 12:00",
            "phone": "+43 677 64690824",
            "shop": "bakery"
          },
          "geometry": {
            "type": "Point",
            "coordinates": [
              16.6345082,
              48.4149455
            ]
          }
        },
        {
          "type": "Feature",
          "properties": {
            "id": "6801553746",
            "osm_type": "node",
            "lat": 48.6373094,
            "lon": 17.1542687,
            "name": "Pekáreň Školuda",
            "opening_hours": "Mo-Fr 6:00-17:30;Sa 6:00-12:00",
            "shop": "bakery",
            "website": "http://www.pekarenskoluda.sk",
            "wheelchair": "limited"
          },
          "geometry": {
            "type": "Point",
            "coordinates": [
              17.1542687,
              48.6373094
            ]
          }
        },
        {
          "type": "Feature",
          "properties": {
            "id": "6859030061",
            "osm_type": "node",
            "lat": 48.6374011,
            "lon": 17.1524215,
            "email": "faun@faun.sk",
            "name": "Faun",
            "opening_hours": "Mo-Fr 5:00-17:00; Sa 6:00-11:00",
            "phone": "+421 917 274 961",
            "shop": "bakery",
            "website": "https://faun.sk/",
            "wheelchair": "no",
            "wheelchair:description": "4 steps"
          },
          "geometry": {
            "type": "Point",
            "coordinates": [
              17.1524215,
              48.6374011
            ]
          }
        }
      ],
      "children": []
    },
    {
      "bbox": {
        "south": 48.68652475,
        "west": 15.253173,
        "north": 49.017078,
        "east": 16.2068765
      },
      "poiCount": 16,
      "leafCount": 16,
      "averagePosition": [
        15.65454203125,
        48.84166548125
      ],
      "data": [
        {
          "type": "Feature",
          "properties": {
            "id": "322653570",
            "osm_type": "node",
            "lat": 48.8550903,
            "lon": 15.288809,
            "addr:city": "Thaya",
            "addr:country": "AT",
            "addr:housenumber": "11",
            "addr:postcode": "3842",
            "addr:street": "Hauptstraße",
            "at_bev:addr_date": "2023-04-15",
            "name": "L. Kasses GmbH",
            "opening_hours": "Mo-Fr 05:30-18:00; Sa 05:30-12:00",
            "shop": "bakery"
          },
          "geometry": {
            "type": "Point",
            "coordinates": [
              15.288809,
              48.8550903
            ]
          }
        },
        {
          "type": "Feature",
          "properties": {
            "id": "331355408",
            "osm_type": "node",
            "lat": 48.8149602,
            "lon": 15.2879011,
            "addr:city": "Waidhofen/Thaya",
            "addr:country": "AT",
            "addr:postcode": "3830",
            "addr:street": "Hauptplatz",
            "shop": "bakery"
          },
          "geometry": {
            "type": "Point",
            "coordinates": [
              15.2879011,
              48.8149602
            ]
          }
        },
        {
          "type": "Feature",
          "properties": {
            "id": "1020684424",
            "osm_type": "node",
            "lat": 48.8155416,
            "lon": 15.2847479,
            "addr:housename": "Müssauer",
            "addr:street": "Böhmgasse",
            "name": "Müssauer",
            "shop": "bakery",
            "shop_1": "pastry",
            "shop_2": "ice_cream",
            "wheelchair": "no"
          },
          "geometry": {
            "type": "Point",
            "coordinates": [
              15.2847479,
              48.8155416
            ]
          }
        },
        {
          "type": "Feature",
          "properties": {
            "id": "1020684491",
            "osm_type": "node",
            "lat": 48.8147768,
            "lon": 15.2835517,
            "name": "Matousek",
            "shop": "bakery"
          },
          "geometry": {
            "type": "Point",
            "coordinates": [
              15.2835517,
              48.8147768
            ]
          }
        },
        {
          "type": "Feature",
          "properties": {
            "id": "1712521296",
            "osm_type": "node",
            "lat": 48.6964192,
            "lon": 15.3248019,
            "check_date": "2025-05-29",
            "name": "Fischer",
            "shop": "bakery",
            "wheelchair": "yes"
          },
          "geometry": {
            "type": "Point",
            "coordinates": [
              15.3248019,
              48.6964192
            ]
          }
        },
        {
          "type": "Feature",
          "properties": {
            "id": "1712573771",
            "osm_type": "node",
            "lat": 48.6957499,
            "lon": 15.3277282,
            "name": "Heindl",
            "shop": "bakery"
          },
          "geometry": {
            "type": "Point",
            "coordinates": [
              15.3277282,
              48.6957499
            ]
          }
        },
        {
          "type": "Feature",
          "properties": {
            "id": "3217991168",
            "osm_type": "node",
            "lat": 48.847336,
            "lon": 15.4925688,
            "name": "Bäckerei Gerald Schneider - Café",
            "shop": "bakery",
            "website": "http://www.schneiderbrot.at/"
          },
          "geometry": {
            "type": "Point",
            "coordinates": [
              15.4925688,
              48.847336
            ]
          }
        },
        {
          "type": "Feature",
          "properties": {
            "id": "2445140738",
            "osm_type": "node",
            "lat": 48.8372505,
            "lon": 16.0643967,
            "addr:postcode": "67181",
            "addr:street": "Dukelských bojovníků",
            "name": "Karlova pekárna",
            "shop": "bakery",
            "source": "http://www.karlova-pekarna.cz",
            "website": "http://www.karlova-pekarna.cz"
          },
          "geometry": {
            "type": "Point",
            "coordinates": [
              16.0643967,
              48.8372505
            ]
          }
        },
        {
          "type": "Feature",
          "properties": {
            "id": "11966068250",
            "osm_type": "node",
            "lat": 48.8530966,
            "lon": 16.0589806,
            "name": "Karlova pekárna",
            "opening_hours": "Mo-Fr 05:00-17:00",
            "shop": "bakery"
          },
          "geometry": {
            "type": "Point",
            "coordinates": [
              16.0589806,
              48.8530966
            ]
          }
        },
        {
          "type": "Feature",
          "properties": {
            "id": "12002763371",
            "osm_type": "node",
            "lat": 48.8537531,
            "lon": 16.051347,
            "indoor_seating": "yes",
            "name": "Karlova pekárna",
            "opening_hours": "Mo-Fr 06:00-15:00",
            "outdoor_seating": "no",
            "shop": "bakery"
          },
          "geometry": {
            "type": "Point",
            "coordinates": [
              16.051347,
              48.8537531
            ]
          }
        },
        {
          "type": "Feature",
          "properties": {
            "id": "12509363132",
            "osm_type": "node",
            "lat": 48.8584189,
            "lon": 16.0488844,
            "name": "Holky z trouby",
            "opening_hours": "Mo-Th 07:30-16:00",
            "shop": "bakery"
          },
          "geometry": {
            "type": "Point",
            "coordinates": [
              16.0488844,
              48.8584189
            ]
          }
        },
        {
          "type": "Feature",
          "properties": {
            "id": "13059561372",
            "osm_type": "node",
            "lat": 48.8586862,
            "lon": 16.057422,
            "indoor_seating": "yes",
            "name": "PEKÁRNA IVANKA",
            "opening_hours": "Mo-Fr 06:30-17:00; Sa 06:30-11:00",
            "outdoor_seating": "yes",
            "payment:credit_cards": "yes",
            "payment:debit_cards": "yes",
            "shop": "bakery",
            "smoking": "no",
            "wheelchair": "yes"
          },
          "geometry": {
            "type": "Point",
            "coordinates": [
              16.057422,
              48.8586862
            ]
          }
        },
        {
          "type": "Feature",
          "properties": {
            "id": "851899918",
            "osm_type": "node",
            "lat": 48.8862083,
            "lon": 15.401499,
            "addr:city": "Karlstein an der Thaya",
            "addr:country": "AT",
            "addr:housenumber": "9",
            "addr:postcode": "3822",
            "addr:street": "Schillerstraße",
            "at_bev:addr_date": "2017-10-01",
            "name": "Hofstätter",
            "phone": "+43-2844-319",
            "shop": "bakery"
          },
          "geometry": {
            "type": "Point",
            "coordinates": [
              15.401499,
              48.8862083
            ]
          }
        },
        {
          "type": "Feature",
          "properties": {
            "id": "12536054347",
            "osm_type": "node",
            "lat": 48.9120139,
            "lon": 15.475031,
            "addr:housenumber": "21",
            "name": "Bäckerei Friedrich Sainitzer",
            "shop": "bakery"
          },
          "geometry": {
            "type": "Point",
            "coordinates": [
              15.475031,
              48.9120139
            ]
          }
        },
        {
          "type": "Feature",
          "properties": {
            "id": "9796472317",
            "osm_type": "node",
            "lat": 48.9892468,
            "lon": 15.9885643,
            "name": "Pekařství u Polášků",
            "shop": "bakery"
          },
          "geometry": {
            "type": "Point",
            "coordinates": [
              15.9885643,
              48.9892468
            ]
          }
        },
        {
          "type": "Feature",
          "properties": {
            "id": "9649197940",
            "osm_type": "node",
            "lat": 48.8780994,
            "lon": 16.0364389,
            "indoor_seating": "yes",
            "name": "Cukrárna a pekařství Ivanka",
            "opening_hours": "Mo-Fr 05:30-18:00; Sa 7:00-11:00; Su 14:30-18:00",
            "operator": "Pekárna Ivanka s.r.o.",
            "outdoor_seating": "no",
            "payment:cash": "yes",
            "payment:credit_cards": "yes",
            "payment:debit_cards": "yes",
            "phone": "+420 604 110 425",
            "shop": "bakery",
            "smoking": "no",
            "stroller": "yes",
            "wheelchair": "yes"
          },
          "geometry": {
            "type": "Point",
            "coordinates": [
              16.0364389,
              48.8780994
            ]
          }
        }
      ],
      "children": []
    },
    {
      "bbox": {
        "south": 48.68652475,
        "west": 16.2068765,
        "north": 49.017078,
        "east": 17.16058
      },
      "poiCount": 25,
      "leafCount": 25,
      "averagePosition": [
        16.85483214,
        48.878804032
      ],
      "data": [
        {
          "type": "Feature",
          "properties": {
            "id": "1491737922",
            "osm_type": "node",
            "lat": 48.7114914,
            "lon": 16.370711,
            "addr:city": "Laa an der Thaya",
            "addr:housenumber": "6",
            "addr:postcode": "2136",
            "addr:street": "Thayapark",
            "name": "Stoiber",
            "shop": "bakery",
            "wheelchair": "limited"
          },
          "geometry": {
            "type": "Point",
            "coordinates": [
              16.370711,
              48.7114914
            ]
          }
        },
        {
          "type": "Feature",
          "properties": {
            "id": "3041756187",
            "osm_type": "node",
            "lat": 48.8051655,
            "lon": 16.6346665,
            "name": "Pekárna",
            "shop": "bakery"
          },
          "geometry": {
            "type": "Point",
            "coordinates": [
              16.6346665,
              48.8051655
            ]
          }
        },
        {
          "type": "Feature",
          "properties": {
            "id": "3496661089",
            "osm_type": "node",
            "lat": 48.8292366,
            "lon": 16.9800981,
            "shop": "bakery"
          },
          "geometry": {
            "type": "Point",
            "coordinates": [
              16.9800981,
              48.8292366
            ]
          }
        },
        {
          "type": "Feature",
          "properties": {
            "id": "3957440454",
            "osm_type": "node",
            "lat": 48.8295895,
            "lon": 16.8585863,
            "name": "Podivínská pekárna",
            "shop": "bakery"
          },
          "geometry": {
            "type": "Point",
            "coordinates": [
              16.8585863,
              48.8295895
            ]
          }
        },
        {
          "type": "Feature",
          "properties": {
            "id": "4045413370",
            "osm_type": "node",
            "lat": 48.8055608,
            "lon": 16.6379344,
            "name": "Pekařství",
            "shop": "bakery"
          },
          "geometry": {
            "type": "Point",
            "coordinates": [
              16.6379344,
              48.8055608
            ]
          }
        },
        {
          "type": "Feature",
          "properties": {
            "id": "4234161199",
            "osm_type": "node",
            "lat": 48.8027749,
            "lon": 16.6340052,
            "name": "Pekařství MaJa",
            "shop": "bakery"
          },
          "geometry": {
            "type": "Point",
            "coordinates": [
              16.6340052,
              48.8027749
            ]
          }
        },
        {
          "type": "Feature",
          "properties": {
            "id": "4234161203",
            "osm_type": "node",
            "lat": 48.8025273,
            "lon": 16.630875,
            "name": "Pekařství MaJa",
            "shop": "bakery"
          },
          "geometry": {
            "type": "Point",
            "coordinates": [
              16.630875,
              48.8025273
            ]
          }
        },
        {
          "type": "Feature",
          "properties": {
            "id": "4243470869",
            "osm_type": "node",
            "lat": 48.7569852,
            "lon": 16.8916042,
            "cafe": "yes",
            "name": "Pekařství Křižák",
            "opening_hours": "Mo-Fr 06:00-17:00; Sa 06:00-10:00; Su,PH off",
            "phone": "+420 724 643053",
            "shop": "bakery",
            "website": "https://www.pekarstvikrizak.cz/pekarny/"
          },
          "geometry": {
            "type": "Point",
            "coordinates": [
              16.8916042,
              48.7569852
            ]
          }
        },
        {
          "type": "Feature",
          "properties": {
            "id": "13085510160",
            "osm_type": "node",
            "lat": 48.8010059,
            "lon": 17.0174135,
            "check_date": "2025-08-21",
            "name": "Pekařství Křivka",
            "opening_hours": "Mo-Fr 05:00-18:00; Sa 05:00-10:00; Su off",
            "shop": "bakery"
          },
          "geometry": {
            "type": "Point",
            "coordinates": [
              17.0174135,
              48.8010059
            ]
          }
        },
        {
          "type": "Feature",
          "properties": {
            "id": "2078583692",
            "osm_type": "node",
            "lat": 48.8156037,
            "lon": 17.1553784,
            "name": "Pekáreň Kopčany",
            "shop": "bakery"
          },
          "geometry": {
            "type": "Point",
            "coordinates": [
              17.1553784,
              48.8156037
            ]
          }
        },
        {
          "type": "Feature",
          "properties": {
            "id": "11882993851",
            "osm_type": "node",
            "lat": 48.7183018,
            "lon": 17.1160371,
            "email": "faun@faun.sk",
            "name": "Faun",
            "opening_hours": "Mo-Su 05:00-14:00",
            "phone": "+421 907 163 757",
            "shop": "bakery",
            "website": "https://faun.sk/"
          },
          "geometry": {
            "type": "Point",
            "coordinates": [
              17.1160371,
              48.7183018
            ]
          }
        },
        {
          "type": "Feature",
          "properties": {
            "id": "2806327060",
            "osm_type": "node",
            "lat": 48.9660068,
            "lon": 16.6068376,
            "addr:conscriptionnumber": "185",
            "addr:housenumber": "185",
            "addr:place": "Vranovice",
            "addr:postcode": "69125",
            "addr:street": "Obchodní",
            "name": "Pekařství KESI",
            "opening_hours": "Mo-Fr 05:30-16:30, Su 06:30-10:30, Su 07:30-09:30",
            "operator": "Libor Kepák",
            "ref:ruian:addr": "10178937",
            "shop": "bakery"
          },
          "geometry": {
            "type": "Point",
            "coordinates": [
              16.6068376,
              48.9660068
            ]
          }
        },
        {
          "type": "Feature",
          "properties": {
            "id": "4822810586",
            "osm_type": "node",
            "lat": 48.9367011,
            "lon": 16.7337864,
            "shop": "bakery"
          },
          "geometry": {
            "type": "Point",
            "coordinates": [
              16.7337864,
              48.9367011
            ]
          }
        },
        {
          "type": "Feature",
          "properties": {
            "id": "4822810789",
            "osm_type": "node",
            "lat": 48.944053,
            "lon": 16.7319245,
            "shop": "bakery"
          },
          "geometry": {
            "type": "Point",
            "coordinates": [
              16.7319245,
              48.944053
            ]
          }
        },
        {
          "type": "Feature",
          "properties": {
            "id": "6657407600",
            "osm_type": "node",
            "lat": 48.896851,
            "lon": 16.8185981,
            "addr:housenumber": "3/6 a",
            "addr:postcode": "69106",
            "addr:street": "Nádražní",
            "name": "Pekařství Pešák",
            "opening_hours": "Mo-Fr 05:00-18:00; Sa 05:00-10:00",
            "phone": "+420 519 428 208",
            "shop": "bakery",
            "website": "http://pekarstvipesak.cz",
            "wheelchair": "no"
          },
          "geometry": {
            "type": "Point",
            "coordinates": [
              16.8185981,
              48.896851
            ]
          }
        },
        {
          "type": "Feature",
          "properties": {
            "id": "8553732295",
            "osm_type": "node",
            "lat": 48.9022592,
            "lon": 16.8163511,
            "addr:city": "Velké Pavlovice",
            "addr:housenumber": "25",
            "addr:postcode": "691 06",
            "addr:street": "Dlouhá",
            "name": "Pekařství Pláteníková",
            "opening_hours": "Mo-Fr 06:00-20:00; Sa 06:00-10:00",
            "payment:cash": "yes",
            "phone": "+420 519 428 227",
            "shop": "bakery",
            "stroller": "yes",
            "website": "https://pekarstviplatenikova.cz/",
            "wheelchair": "yes"
          },
          "geometry": {
            "type": "Point",
            "coordinates": [
              16.8163511,
              48.9022592
            ]
          }
        },
        {
          "type": "Feature",
          "properties": {
            "id": "8903765269",
            "osm_type": "node",
            "lat": 48.8976394,
            "lon": 16.5669132,
            "shop": "bakery"
          },
          "geometry": {
            "type": "Point",
            "coordinates": [
              16.5669132,
              48.8976394
            ]
          }
        },
        {
          "type": "Feature",
          "properties": {
            "id": "11761000867",
            "osm_type": "node",
            "lat": 48.9383186,
            "lon": 16.735662,
            "name": "Rašner",
            "shop": "bakery",
            "takeaway": "yes"
          },
          "geometry": {
            "type": "Point",
            "coordinates": [
              16.735662,
              48.9383186
            ]
          }
        },
        {
          "type": "Feature",
          "properties": {
            "id": "11907882646",
            "osm_type": "node",
            "lat": 48.9389357,
            "lon": 16.7348509,
            "mobile": "+420 603 187 929",
            "opening_hours": "Mo-Fr 07:00-17:00; Sa 07:30-11:00",
            "shop": "bakery"
          },
          "geometry": {
            "type": "Point",
            "coordinates": [
              16.7348509,
              48.9389357
            ]
          }
        },
        {
          "type": "Feature",
          "properties": {
            "id": "1929500008",
            "osm_type": "node",
            "lat": 49.0100994,
            "lon": 17.1243528,
            "addr:housenumber": "40",
            "addr:street": "Masarykovo náměstí",
            "name": "Herold",
            "opening_hours": "Mo-Fr 06:00-17:00; Sa 07:00-11:00",
            "operator": "Mlýn HEROLD spol. s r.o.",
            "payment:coins": "yes",
            "payment:maestro": "yes",
            "payment:mastercard": "yes",
            "payment:notes": "yes",
            "payment:visa": "yes",
            "payment:visa_debit": "yes",
            "payment:visa_electron": "yes",
            "phone": "702 119 355",
            "shop": "bakery",
            "website": "http://mlynherold.cz"
          },
          "geometry": {
            "type": "Point",
            "coordinates": [
              17.1243528,
              49.0100994
            ]
          }
        },
        {
          "type": "Feature",
          "properties": {
            "id": "2270912641",
            "osm_type": "node",
            "lat": 49.0078915,
            "lon": 17.1257653,
            "addr:housename": "Bachan, s.r.o.",
            "addr:housenumber": "277",
            "addr:postcode": "69701",
            "addr:street": "Kollárova",
            "name": "Pekárna Bachan, s.r.o.",
            "shop": "bakery",
            "source": "local knowledge"
          },
          "geometry": {
            "type": "Point",
            "coordinates": [
              17.1257653,
              49.0078915
            ]
          }
        },
        {
          "type": "Feature",
          "properties": {
            "id": "3363350706",
            "osm_type": "node",
            "lat": 48.9173915,
            "lon": 17.0988469,
            "name": "Pekařství Grufík",
            "shop": "bakery"
          },
          "geometry": {
            "type": "Point",
            "coordinates": [
              17.0988469,
              48.9173915
            ]
          }
        },
        {
          "type": "Feature",
          "properties": {
            "id": "3363350707",
            "osm_type": "node",
            "lat": 48.9168562,
            "lon": 17.098085,
            "name": "Pekárna Ratíškovice",
            "shop": "bakery"
          },
          "geometry": {
            "type": "Point",
            "coordinates": [
              17.098085,
              48.9168562
            ]
          }
        },
        {
          "type": "Feature",
          "properties": {
            "id": "9926678801",
            "osm_type": "node",
            "lat": 49.0092778,
            "lon": 17.1251045,
            "name": "Čerstvé pečivo",
            "shop": "bakery"
          },
          "geometry": {
            "type": "Point",
            "coordinates": [
              17.1251045,
              49.0092778
            ]
          }
        },
        {
          "type": "Feature",
          "properties": {
            "id": "12657380635",
            "osm_type": "node",
            "lat": 49.009577,
            "lon": 17.1264155,
            "name": "Hapek",
            "opening_hours": "Mo-Fr 05:30-17:00; Sa 06:00-11:00",
            "payment:diners_club": "yes",
            "payment:discover_card": "yes",
            "payment:jcb": "yes",
            "payment:maestro": "yes",
            "payment:mastercard": "yes",
            "payment:visa": "yes",
            "payment:visa_debit": "yes",
            "payment:visa_electron": "yes",
            "shop": "bakery",
            "wheelchair": "limited"
          },
          "geometry": {
            "type": "Point",
            "coordinates": [
              17.1264155,
              49.009577
            ]
          }
        }
      ],
      "children": []
    }
  ]
}