{
  "bbox": {
    "south": 47.033758500000005,
    "west": 15.253173,
    "north": 47.694865,
    "east": 17.16058
  },
  "poiCount": 204,
  "leafCount": 0,
  "averagePosition": [
    16.0277602122549,
    47.305652155882356
  ],
  "data": [],
  "children": [
    {
      "bbox": {
        "south": 47.033758500000005,
        "west": 15.253173,
        "north": 47.36431175,
        "east": 16.2068765
      },
      "poiCount": 88,
      "leafCount": 0,
      "averagePosition": [
        15.561234614772728,
        47.11280877272727
      ],
      "data": [],
      "children": [
        {
          "bbox": {
            "south": 47.033758500000005,
            "west": 15.253173,
            "north": 47.199035125,
            "east": 15.73002475
          },
          "poiCount": 64,
          "leafCount": 0,
          "averagePosition": [
            15.450493815624998,
            47.0786724640625
          ],
          "data": [],
          "children": [
            {
              "bbox": {
                "south": 47.033758500000005,
                "west": 15.253173,
                "north": 47.1163968125,
                "east": 15.491598875000001
              },
              "poiCount": 56,
              "leafCount": 0,
              "averagePosition": [
                15.436370466071427,
                47.07031750714286
              ],
              "data": [],
              "children": [
                {
                  "bbox": {
                    "south": 47.033758500000005,
                    "west": 15.253173,
                    "north": 47.07507765625,
                    "east": 15.3723859375
                  },
                  "poiCount": 1,
                  "leafCount": 1,
                  "averagePosition": [
                    15.3005784,
                    47.035559
                  ],
                  "data": [
                    {
                      "type": "Feature",
                      "properties": {
                        "id": "3289790636",
                        "osm_type": "node",
                        "lat": 47.035559,
                        "lon": 15.3005784,
                        "addr:city": "Hitzendorf",
                        "addr:country": "AT",
                        "addr:housenumber": "60",
                        "addr:place": "Hitzendorf",
                        "addr:postcode": "8151",
                        "at_bev:addr_date": "2017-10-01",
                        "contact:phone": "+43 3137 22663",
                        "name": "Bäckerei Cafe Kogler",
                        "opening_hours": "Mo-Fr 05:00-20:00; Sa 05:00-13:00; Su off",
                        "operator": "Fam. Kofler",
                        "public_transport:version": "2",
                        "shop": "bakery",
                        "website": "https://baeckerei-kogler.at/kontakt/"
                      },
                      "geometry": {
                        "type": "Point",
                        "coordinates": [
                          15.3005784,
                          47.035559
                        ]
                      }
                    }
                  ],
                  "children": []
                },
                {
                  "bbox": {
                    "south": 47.033758500000005,
                    "west": 15.3723859375,
                    "north": 47.07507765625,
                    "east": 15.491598875000001
                  },
                  "poiCount": 40,
                  "leafCount": 40,
                  "averagePosition": [
                    15.441863322500001,
                    47.063489447500004
                  ],
                  "data": [
                    {
                      "type": "Feature",
                      "properties": {
                        "id": "31622870",
                        "osm_type": "node",
                        "lat": 47.0683289,
                        "lon": 15.4423862,
                        "addr:city": "Graz",
                        "addr:country": "AT",
                        "addr:housenumber": "3",
                        "addr:postcode": "8010",
                        "addr:street": "Am Eisernen Tor",
                        "name": "Sorger",
                        "old_name": "Steiermärkische Sparkasse",
                        "opening_hours": "Mo-Fr 06:30-19:00; Sa 07:00-17:00; Su,PH 08:00-17:00",
                        "phone": "+43 316 8030-0",
                        "shop": "bakery",
                        "smoking": "outside",
                        "source": "https://www.5min.at/202302620384/baeckerei-sorger-eroeffnet-neue-filiale-am-eisernen-tor/",
                        "start_date": "2023-07",
                        "website": "https://sorgerbrot.at/filialen/",
                        "wheelchair": "yes"
                      },
                      "geometry": {
                        "type": "Point",
                        "coordinates": [
                          15.4423862,
                          47.0683289
                        ]
                      }
                    },
                    {
                      "type": "Feature",
                      "properties": {
                        "id": "289440032",
                        "osm_type": "node",
                        "lat": 47.068699,
                        "lon": 15.4555288,
                        "addr:city": "Graz",
                        "addr:country": "AT",
                        "addr:housenumber": "24",
                        "addr:postcode": "8010",
                        "addr:street": "Nibelungengasse",
                        "check_date:opening_hours": "2022-07-16",
                        "description": "Cafe mit Frühstück",
                        "name": "Hubert Auer",
                        "opening_hours": "Mo-Fr 06:30-18:30; Sa 06:30-12:00; Su 07:00-12:00",
                        "phone": "+43 5 96 69 219",
                        "shop": "bakery",
                        "source": "survey",
                        "website": "https://www.hubert-auer.at/filialen/",
                        "wheelchair": "no"
                      },
                      "geometry": {
                        "type": "Point",
                        "coordinates": [
                          15.4555288,
                          47.068699
                        ]
                      }
                    },
                    {
                      "type": "Feature",
                      "properties": {
                        "id": "847359666",
                        "osm_type": "node",
                        "lat": 47.0662509,
                        "lon": 15.4467809,
                        "addr:city": "Graz",
                        "addr:country": "AT",
                        "addr:housenumber": "13",
                        "addr:postcode": "8010",
                        "addr:street": "Dietrichsteinplatz",
                        "brand": "Martin Auer",
                        "brand:wikidata": "Q55523880",
                        "brand:wikipedia": "de:Martin Auer (Unternehmen)",
                        "contact:phone": "+43 316 80 40 101",
                        "cuisine": "breakfast;cake;sandwich",
                        "indoor_seating": "yes",
                        "level": "0",
                        "name": "Martin Auer",
                        "opening_hours": "Mo-Fr 06:00-18:30; Sa 06:30-17:00; Su,PH 07:00-13:00",
                        "outdoor_seating": "yes",
                        "shop": "bakery",
                        "smoking": "no",
                        "website": "https://www.martinauer.at/filialen/",
                        "wheelchair": "yes"
                      },
                      "geometry": {
                        "type": "Point",
                        "coordinates": [
                          15.4467809,
                          47.0662509
                        ]
                      }
                    },
                    {
                      "type": "Feature",
                      "properties": {
                        "id": "861393532",
                        "osm_type": "node",
                        "lat": 47.0724831,
                        "lon": 15.4521429,
                        "addr:city": "Graz",
                        "addr:country": "AT",
                        "addr:housenumber": "33",
                        "addr:postcode": "8010",
                        "addr:street": "Leonhardstraße",
                        "brand": "Martin Auer",
                        "brand:wikidata": "Q55523880",
                        "brand:wikipedia": "de:Martin Auer (Unternehmen)",
                        "check_date:opening_hours": "2025-05-17",
                        "contact:phone": "+43316 8040 114",
                        "contact:website": "https://www.martinauer.at/filialen/",
                        "cuisine": "breakfast;cake;sandwich",
                        "name": "Martin Auer",
                        "opening_hours": "Mo-Fr 06:30-18:30; Sa 07:00-12:30; Su 07:00-12:00",
                        "shop": "bakery",
                        "wheelchair": "limited"
                      },
                      "geometry": {
                        "type": "Point",
                        "coordinates": [
                          15.4521429,
                          47.0724831
                        ]
                      }
                    },
                    {
                      "type": "Feature",
                      "properties": {
                        "id": "863209381",
                        "osm_type": "node",
                        "lat": 47.068635,
                        "lon": 15.4475615,
                        "addr:city": "Graz",
                        "addr:country": "AT",
                        "addr:housenumber": "4",
                        "addr:postcode": "8010",
                        "addr:street": "Kaiser-Josef-Platz",
                        "brand": "Martin Auer",
                        "brand:wikidata": "Q55523880",
                        "brand:wikipedia": "de:Martin Auer (Unternehmen)",
                        "check_date:opening_hours": "2025-07-12",
                        "contact:phone": "+43 316 8040 102",
                        "cuisine": "breakfast;cake;sandwich",
                        "indoor_seating": "yes",
                        "level": "0",
                        "name": "Martin Auer",
                        "opening_hours": "Mo-Fr 06:30-18:30; Sa 06:30-13:00",
                        "outdoor_seating": "no",
                        "shop": "bakery",
                        "smoking": "no",
                        "website": "https://www.martinauer.at/filialen/",
                        "wheelchair": "yes"
                      },
                      "geometry": {
                        "type": "Point",
                        "coordinates": [
                          15.4475615,
                          47.068635
                        ]
                      }
                    },
                    {
                      "type": "Feature",
                      "properties": {
                        "id": "881888277",
                        "osm_type": "node",
                        "lat": 47.066389,
                        "lon": 15.432021,
                        "check_date": "2024-10-13",
                        "name": "Mr. Burek",
                        "shop": "bakery",
                        "wheelchair": "limited"
                      },
                      "geometry": {
                        "type": "Point",
                        "coordinates": [
                          15.432021,
                          47.066389
                        ]
                      }
                    },
                    {
                      "type": "Feature",
                      "properties": {
                        "id": "883061890",
                        "osm_type": "node",
                        "lat": 47.0708024,
                        "lon": 15.4363192,
                        "addr:city": "Graz",
                        "addr:country": "AT",
                        "addr:housenumber": "14",
                        "addr:postcode": "8010",
                        "addr:street": "Franziskanerplatz",
                        "name": "Sorger",
                        "opening_hours": "Mo-Fr 14:30-18:00; Sa 09:30-14:00; Su,PH off",
                        "operator": "Albin Sorger \"zum Weinrebenbäcker\" GmbH",
                        "phone": "+43316 83 16 96",
                        "shop": "bakery",
                        "website": "https://www.sorgerbrot.at/",
                        "wheelchair": "no"
                      },
                      "geometry": {
                        "type": "Point",
                        "coordinates": [
                          15.4363192,
                          47.0708024
                        ]
                      }
                    },
                    {
                      "type": "Feature",
                      "properties": {
                        "id": "970742199",
                        "osm_type": "node",
                        "lat": 47.0677046,
                        "lon": 15.4436203,
                        "addr:city": "Graz",
                        "addr:country": "AT",
                        "addr:housenumber": "10",
                        "addr:postcode": "8010",
                        "addr:street": "Jakominiplatz",
                        "check_date": "2023-08-11",
                        "contact:phone": "+43 316 825 491",
                        "name": "Kern",
                        "opening_hours": "Mo-Fr 06:30-18:00; Sa 07:00-13:00; Su,PH off",
                        "payment:credit_cards": "yes",
                        "payment:debit_cards": "yes",
                        "shop": "bakery",
                        "source": "survey",
                        "website": "https://www.baeckerei-kern.at",
                        "wheelchair": "no"
                      },
                      "geometry": {
                        "type": "Point",
                        "coordinates": [
                          15.4436203,
                          47.0677046
                        ]
                      }
                    },
                    {
                      "type": "Feature",
                      "properties": {
                        "id": "1252326825",
                        "osm_type": "node",
                        "lat": 47.0675902,
                        "lon": 15.4423131,
                        "brand": "Martin Auer",
                        "brand:wikidata": "Q55523880",
                        "brand:wikipedia": "de:Martin Auer (Unternehmen)",
                        "indoor_seating": "no",
                        "name": "Martin Auer",
                        "opening_hours": "Mo-Fr 06:00-18:30; Sa 07:00-13:00",
                        "operator": "Auer Brot GmbH",
                        "outdoor_seating": "no",
                        "phone": "+43316 8040 25",
                        "shop": "bakery",
                        "takeaway": "only",
                        "website": "https://www.martinauer.at/",
                        "wheelchair": "yes"
                      },
                      "geometry": {
                        "type": "Point",
                        "coordinates": [
                          15.4423131,
                          47.0675902
                        ]
                      }
                    },
                    {
                      "type": "Feature",
                      "properties": {
                        "id": "1259706300",
                        "osm_type": "node",
                        "lat": 47.0675675,
                        "lon": 15.4425744,
                        "indoor_seating": "no",
                        "name": "Sorger",
                        "outdoor_seating": "no",
                        "shop": "bakery",
                        "takeaway": "only"
                      },
                      "geometry": {
                        "type": "Point",
                        "coordinates": [
                          15.4425744,
                          47.0675675
                        ]
                      }
                    },
                    {
                      "type": "Feature",
                      "properties": {
                        "id": "1259706311",
                        "osm_type": "node",
                        "lat": 47.0675934,
                        "lon": 15.4428304,
                        "addr:postcode": "8010",
                        "addr:street": "Jakominiplatz",
                        "indoor_seating": "no",
                        "name": "Hubert Auer",
                        "opening_hours": "Mo-Fr 06:00-19:00; Sa 06:00-17:00",
                        "outdoor_seating": "yes",
                        "payment:credit_cards": "yes",
                        "payment:debit_cards": "yes",
                        "shop": "bakery",
                        "smoking": "no",
                        "wheelchair": "yes"
                      },
                      "geometry": {
                        "type": "Point",
                        "coordinates": [
                          15.4428304,
                          47.0675934
                        ]
                      }
                    },
                    {
                      "type": "Feature",
                      "properties": {
                        "id": "1315472557",
                        "osm_type": "node",
                        "lat": 47.0666129,
                        "lon": 15.4697339,
                        "addr:city": "Graz",
                        "addr:country": "AT",
                        "addr:housenumber": "32a",
                        "addr:postcode": "8010",
                        "addr:street": "Waltendorfer Hauptstraße",
                        "check_date": "2025-07-10",
                        "contact:phone": "+43 316 42 26 05-11",
                        "level": "0",
                        "name": "Sorger",
                        "opening_hours": "Mo-Fr 06:30-19:00; Sa,Su 07:00-18:00",
                        "shop": "bakery",
                        "smoking": "no",
                        "wheelchair": "yes"
                      },
                      "geometry": {
                        "type": "Point",
                        "coordinates": [
                          15.4697339,
                          47.0666129
                        ]
                      }
                    },
                    {
                      "type": "Feature",
                      "properties": {
                        "id": "1316046688",
                        "osm_type": "node",
                        "lat": 47.0564565,
                        "lon": 15.4728054,
                        "addr:city": "Graz",
                        "addr:country": "AT",
                        "addr:housenumber": "63",
                        "addr:postcode": "8042",
                        "addr:street": "Sankt-Peter-Hauptstraße",
                        "brand": "Martin Auer",
                        "brand:wikidata": "Q55523880",
                        "contact:phone": "+43 316 80 40 27",
                        "name": "Martin Auer",
                        "opening_hours": "Mo-Fr 06:00-18:30; Sa 06:00-12:30; Su 06:30-12:00",
                        "phone": "+43 316 47 42 43",
                        "shop": "bakery",
                        "source": "survey",
                        "website": "https://www.martinauer.at/",
                        "wheelchair": "limited"
                      },
                      "geometry": {
                        "type": "Point",
                        "coordinates": [
                          15.4728054,
                          47.0564565
                        ]
                      }
                    },
                    {
                      "type": "Feature",
                      "properties": {
                        "id": "1363132393",
                        "osm_type": "node",
                        "lat": 47.0719481,
                        "lon": 15.4374339,
                        "addr:city": "Graz",
                        "addr:country": "AT",
                        "addr:housenumber": "8",
                        "addr:postcode": "8010",
                        "addr:street": "Sackstraße",
                        "fixme": "Add further attributes",
                        "name": "Bäckerei Bartl",
                        "old_name": "Strohmayer",
                        "old_shop:end_date": "2020-04-30",
                        "opening_hours": "Mo-Fr 07:30-18:30; Sa 07:30-17:00",
                        "shop": "bakery",
                        "start_date": "2020-07",
                        "website": "https://www.baeckereicafekonditorei-bartl.at/",
                        "wheelchair": "limited"
                      },
                      "geometry": {
                        "type": "Point",
                        "coordinates": [
                          15.4374339,
                          47.0719481
                        ]
                      }
                    },
                    {
                      "type": "Feature",
                      "properties": {
                        "id": "1363132402",
                        "osm_type": "node",
                        "lat": 47.0714807,
                        "lon": 15.4381699,
                        "addr:city": "Graz",
                        "addr:country": "AT",
                        "addr:housenumber": "12",
                        "addr:postcode": "8010",
                        "addr:street": "Hauptplatz",
                        "brand": "Martin Auer",
                        "brand:wikidata": "Q55523880",
                        "check_date:opening_hours": "2024-11-02",
                        "contact:phone": "+43 316 8040 107",
                        "indoor_seating": "yes",
                        "name": "Martin Auer",
                        "opening_hours": "Mo-Fr 06:30-19:00; Sa 07:00-18:30; Su, PH 09:00-18:00",
                        "organic": "yes",
                        "outdoor_seating": "yes",
                        "payment:cash": "yes",
                        "payment:debit_cards": "yes",
                        "shop": "bakery",
                        "snack": "yes",
                        "website": "https://www.martinauer.at/filialen/",
                        "wheelchair": "yes"
                      },
                      "geometry": {
                        "type": "Point",
                        "coordinates": [
                          15.4381699,
                          47.0714807
                        ]
                      }
                    },
                    {
                      "type": "Feature",
                      "properties": {
                        "id": "1420207253",
                        "osm_type": "node",
                        "lat": 47.0693838,
                        "lon": 15.4515542,
                        "addr:city": "Graz",
                        "addr:country": "AT",
                        "addr:housenumber": "23",
                        "addr:postcode": "8010",
                        "addr:street": "Rechbauerstraße",
                        "check_date:opening_hours": "2023-04-22",
                        "level": "0",
                        "name": "Kern",
                        "opening_hours": "Mo-Fr 06:00-18:00; Sa 07:00-12:00",
                        "phone": "+43 316 319 166",
                        "shop": "bakery",
                        "smoking": "no",
                        "source": "survey",
                        "website": "https://baeckerei-kern.at",
                        "wheelchair": "no"
                      },
                      "geometry": {
                        "type": "Point",
                        "coordinates": [
                          15.4515542,
                          47.0693838
                        ]
                      }
                    },
                    {
                      "type": "Feature",
                      "properties": {
                        "id": "1826537413",
                        "osm_type": "node",
                        "lat": 47.0748648,
                        "lon": 15.4311786,
                        "addr:street": "Lendplatz",
                        "name": "Hubert Auer",
                        "operator": "Hubert Auer",
                        "shop": "bakery",
                        "wheelchair": "no"
                      },
                      "geometry": {
                        "type": "Point",
                        "coordinates": [
                          15.4311786,
                          47.0748648
                        ]
                      }
                    },
                    {
                      "type": "Feature",
                      "properties": {
                        "id": "1831327974",
                        "osm_type": "node",
                        "lat": 47.0663088,
                        "lon": 15.4237449,
                        "addr:city": "Graz",
                        "addr:country": "AT",
                        "addr:housenumber": "67",
                        "addr:postcode": "8020",
                        "addr:street": "Idlhofgasse",
                        "name": "Kara Bâckerei",
                        "opening_hours:signed": "no",
                        "shop": "bakery",
                        "source": "survey"
                      },
                      "geometry": {
                        "type": "Point",
                        "coordinates": [
                          15.4237449,
                          47.0663088
                        ]
                      }
                    },
                    {
                      "type": "Feature",
                      "properties": {
                        "id": "1856083518",
                        "osm_type": "node",
                        "lat": 47.0371795,
                        "lon": 15.4622559,
                        "addr:city": "Graz",
                        "addr:country": "AT",
                        "addr:housenumber": "119",
                        "addr:postcode": "8041",
                        "addr:street": "Liebenauer Hauptstraße",
                        "name": "Hubert Auer",
                        "opening_hours": "Mo 06:00-18:30; Sa 07:00-12:30; Su 07:00-12:00",
                        "operator": "Hubert Auer",
                        "shop": "bakery",
                        "wheelchair": "yes"
                      },
                      "geometry": {
                        "type": "Point",
                        "coordinates": [
                          15.4622559,
                          47.0371795
                        ]
                      }
                    },
                    {
                      "type": "Feature",
                      "properties": {
                        "id": "1856083526",
                        "osm_type": "node",
                        "lat": 47.0474508,
                        "lon": 15.4550553,
                        "addr:city": "Graz",
                        "addr:country": "AT",
                        "addr:housenumber": "27",
                        "addr:postcode": "8010",
                        "addr:street": "Johann-Sebastian-Bach-Gasse",
                        "description": "Gleisdorfer Dampfbäckerei",
                        "name": "Wurm",
                        "opening_hours": "Mo-Sa 06:00-13:00",
                        "operator": "Bäckerei Wurm",
                        "shop": "bakery",
                        "smoking": "no"
                      },
                      "geometry": {
                        "type": "Point",
                        "coordinates": [
                          15.4550553,
                          47.0474508
                        ]
                      }
                    },
                    {
                      "type": "Feature",
                      "properties": {
                        "id": "1908136802",
                        "osm_type": "node",
                        "lat": 47.0705725,
                        "lon": 15.4037944,
                        "addr:city": "Graz",
                        "addr:country": "AT",
                        "addr:housenumber": "30",
                        "addr:postcode": "8020",
                        "addr:street": "Eggenberger Allee",
                        "name": "Martin Auer",
                        "opening_hours": "Mo-Fr 06:00-18:30; Sa 06:00-13:00; PH,Su 06:00-12:30",
                        "shop": "bakery",
                        "wheelchair": "yes"
                      },
                      "geometry": {
                        "type": "Point",
                        "coordinates": [
                          15.4037944,
                          47.0705725
                        ]
                      }
                    },
                    {
                      "type": "Feature",
                      "properties": {
                        "id": "2141640910",
                        "osm_type": "node",
                        "lat": 47.0706052,
                        "lon": 15.4378855,
                        "addr:city": "Graz",
                        "addr:country": "AT",
                        "addr:housenumber": "3",
                        "addr:postcode": "8010",
                        "addr:street": "Hauptplatz",
                        "name": "Hubert Auer",
                        "opening_hours": "Mo-Fr 06:30-19:00; Sa 07:00-13:15",
                        "shop": "bakery",
                        "source": "survey",
                        "wheelchair": "yes"
                      },
                      "geometry": {
                        "type": "Point",
                        "coordinates": [
                          15.4378855,
                          47.0706052
                        ]
                      }
                    },
                    {
                      "type": "Feature",
                      "properties": {
                        "id": "2462758717",
                        "osm_type": "node",
                        "lat": 47.0747819,
                        "lon": 15.4309776,
                        "addr:unit": "Stand 9",
                        "name": "Bäckerei König",
                        "opening_hours": "Mo-Sa 06:30-13:00",
                        "shop": "bakery",
                        "source": "Lokalzeitung „Woche“"
                      },
                      "geometry": {
                        "type": "Point",
                        "coordinates": [
                          15.4309776,
                          47.0747819
                        ]
                      }
                    },
                    {
                      "type": "Feature",
                      "properties": {
                        "id": "2503804465",
                        "osm_type": "node",
                        "lat": 47.0517215,
                        "lon": 15.4289045,
                        "addr:city": "Graz",
                        "addr:country": "AT",
                        "addr:housenumber": "23",
                        "addr:postcode": "8020",
                        "addr:street": "Auf der Tändelwiese",
                        "craft": "bakery",
                        "full_name": "Bäckerei und Konditorei nach Agramer Art",
                        "name": "Agramer Art",
                        "opening_hours": "Mo-Su,PH 05:00-22:00",
                        "operator": "K-BS Gastro GmbH",
                        "ref:UID:AT": "ATU73855704",
                        "shop": "bakery",
                        "source": "GeoImage.at",
                        "start_date": "2017-12-01",
                        "wheelchair": "limited"
                      },
                      "geometry": {
                        "type": "Point",
                        "coordinates": [
                          15.4289045,
                          47.0517215
                        ]
                      }
                    },
                    {
                      "type": "Feature",
                      "properties": {
                        "id": "2948695359",
                        "osm_type": "node",
                        "lat": 47.0471034,
                        "lon": 15.4087673,
                        "addr:city": "Graz",
                        "addr:country": "AT",
                        "addr:housenumber": "95",
                        "addr:postcode": "8053",
                        "addr:street": "Harter Straße",
                        "contact:phone": "+43 316 272019",
                        "name": "Tortenexpress",
                        "opening_hours": "Mo-Fr 05:00-12:00",
                        "operator": "Kumpitsch - Petsche",
                        "shop": "bakery"
                      },
                      "geometry": {
                        "type": "Point",
                        "coordinates": [
                          15.4087673,
                          47.0471034
                        ]
                      }
                    },
                    {
                      "type": "Feature",
                      "properties": {
                        "id": "2990091576",
                        "osm_type": "node",
                        "lat": 47.0600343,
                        "lon": 15.4282848,
                        "level": "0",
                        "loc_ref": "21",
                        "name": "Hubert Auer",
                        "room": "yes",
                        "shop": "bakery"
                      },
                      "geometry": {
                        "type": "Point",
                        "coordinates": [
                          15.4282848,
                          47.0600343
                        ]
                      }
                    },
                    {
                      "type": "Feature",
                      "properties": {
                        "id": "3120739102",
                        "osm_type": "node",
                        "lat": 47.0519739,
                        "lon": 15.4325031,
                        "addr:city": "Graz",
                        "addr:country": "AT",
                        "addr:housenumber": "78",
                        "addr:postcode": "8020",
                        "addr:street": "Herrgottwiesgasse",
                        "craft": "bakery",
                        "name": "Brandl",
                        "operator": "Manfred Brandl",
                        "shop": "bakery",
                        "source": "survey",
                        "wheelchair": "no"
                      },
                      "geometry": {
                        "type": "Point",
                        "coordinates": [
                          15.4325031,
                          47.0519739
                        ]
                      }
                    },
                    {
                      "type": "Feature",
                      "properties": {
                        "id": "3274523680",
                        "osm_type": "node",
                        "lat": 47.0458539,
                        "lon": 15.4332187,
                        "addr:city": "Graz",
                        "addr:country": "AT",
                        "addr:housenumber": "149",
                        "addr:postcode": "8020",
                        "addr:street": "Herrgottwiesgasse",
                        "contact:phone": "+43 316 26 18 11",
                        "name": "Kern",
                        "opening_hours": "Mo-Fr 05:30-20:00; Sa 06:00-13:00",
                        "shop": "bakery",
                        "website": "https://baeckerei-kern.at/"
                      },
                      "geometry": {
                        "type": "Point",
                        "coordinates": [
                          15.4332187,
                          47.0458539
                        ]
                      }
                    },
                    {
                      "type": "Feature",
                      "properties": {
                        "id": "3588654210",
                        "osm_type": "node",
                        "lat": 47.0719911,
                        "lon": 15.4335111,
                        "addr:city": "Graz",
                        "addr:country": "AT",
                        "addr:housenumber": "11",
                        "addr:postcode": "8020",
                        "addr:street": "Mariahilferstraße",
                        "brand": "Martin Auer",
                        "check_date:opening_hours": "2024-08-03",
                        "description": "Brot von Gestern",
                        "name": "Pane",
                        "opening_hours": "Tu-Sa 09:00-12:30",
                        "shop": "bakery"
                      },
                      "geometry": {
                        "type": "Point",
                        "coordinates": [
                          15.4335111,
                          47.0719911
                        ]
                      }
                    },
                    {
                      "type": "Feature",
                      "properties": {
                        "id": "4637859864",
                        "osm_type": "node",
                        "lat": 47.0410972,
                        "lon": 15.4622578,
                        "addr:city": "Graz",
                        "addr:country": "AT",
                        "addr:housenumber": "3",
                        "addr:postcode": "8041",
                        "addr:street": "Ostbahnstraße",
                        "brand": "Martin Auer",
                        "brand:wikidata": "Q55523880",
                        "brand:wikipedia": "de:Martin Auer (Unternehmen)",
                        "contact:phone": "+43 316 80 40 88",
                        "name": "Martin Auer",
                        "opening_hours": "Mo-Fr 07:00-18:30; Sa 08:00-18:00",
                        "shop": "bakery",
                        "wheelchair": "yes",
                        "wheelchair:description": "Barrierefreies WC im Einkaufzentrum"
                      },
                      "geometry": {
                        "type": "Point",
                        "coordinates": [
                          15.4622578,
                          47.0410972
                        ]
                      }
                    },
                    {
                      "type": "Feature",
                      "properties": {
                        "id": "6175091246",
                        "osm_type": "node",
                        "lat": 47.0657625,
                        "lon": 15.4312415,
                        "addr:city": "Graz",
                        "addr:country": "AT",
                        "addr:housenumber": "28",
                        "addr:postcode": "8020",
                        "addr:street": "Griesplatz",
                        "contact:email": "baeckerei.arena@gmail.com",
                        "craft": "bakery",
                        "name": "Arena",
                        "opening_hours": "Mo-Su 05:00-23:00",
                        "shop": "bakery"
                      },
                      "geometry": {
                        "type": "Point",
                        "coordinates": [
                          15.4312415,
                          47.0657625
                        ]
                      }
                    },
                    {
                      "type": "Feature",
                      "properties": {
                        "id": "6175091247",
                        "osm_type": "node",
                        "lat": 47.0656005,
                        "lon": 15.40086,
                        "addr:city": "Graz",
                        "addr:country": "AT",
                        "addr:housenumber": "67",
                        "addr:postcode": "8020",
                        "addr:street": "Karl-Morre-Straße",
                        "name": "Eggenberg",
                        "opening_hours": "Mo-Su 06:00-21:00",
                        "shop": "bakery"
                      },
                      "geometry": {
                        "type": "Point",
                        "coordinates": [
                          15.40086,
                          47.0656005
                        ]
                      }
                    },
                    {
                      "type": "Feature",
                      "properties": {
                        "id": "6175091253",
                        "osm_type": "node",
                        "lat": 47.070248,
                        "lon": 15.4240321,
                        "addr:city": "Graz",
                        "addr:country": "AT",
                        "addr:housenumber": "12",
                        "addr:postcode": "8020",
                        "addr:street": "Idlhofgasse",
                        "craft": "bakery",
                        "operator": "Akdag Yusuf Keg",
                        "shop": "bakery"
                      },
                      "geometry": {
                        "type": "Point",
                        "coordinates": [
                          15.4240321,
                          47.070248
                        ]
                      }
                    },
                    {
                      "type": "Feature",
                      "properties": {
                        "id": "6260260786",
                        "osm_type": "node",
                        "lat": 47.0691214,
                        "lon": 15.4411686,
                        "addr:city": "Graz",
                        "addr:country": "AT",
                        "addr:housenumber": "23",
                        "addr:postcode": "8010",
                        "addr:street": "Herrengasse",
                        "alt_name": "Uhrturmbäckerei",
                        "capacity:outdoor_seating:tables": "6",
                        "description:de": "Backwaren und Lebensmittel in Uhrturm Form",
                        "level": "0",
                        "name": "Uhrturm-Bäckerei",
                        "operator": "Hans Jörg Mackeldey",
                        "outdoor_seating": "yes",
                        "shop": "bakery"
                      },
                      "geometry": {
                        "type": "Point",
                        "coordinates": [
                          15.4411686,
                          47.0691214
                        ]
                      }
                    },
                    {
                      "type": "Feature",
                      "properties": {
                        "id": "8510210735",
                        "osm_type": "node",
                        "lat": 47.0692209,
                        "lon": 15.4372851,
                        "brand": "Martin Auer",
                        "brand:wikidata": "Q55523880",
                        "brand:wikipedia": "de:Martin Auer (Unternehmen)",
                        "contact:phone": "+43 316 80 40 142",
                        "level": "0",
                        "name": "Martin Auer",
                        "opening_hours": "Mo-Th 07:00-17:00; Fr 07:00-14:00",
                        "shop": "bakery",
                        "wheelchair": "yes"
                      },
                      "geometry": {
                        "type": "Point",
                        "coordinates": [
                          15.4372851,
                          47.0692209
                        ]
                      }
                    },
                    {
                      "type": "Feature",
                      "properties": {
                        "id": "9054674707",
                        "osm_type": "node",
                        "lat": 47.0358869,
                        "lon": 15.4819074,
                        "addr:city": "Graz",
                        "addr:country": "AT",
                        "addr:housenumber": "2",
                        "addr:postcode": "8042",
                        "addr:street": "Maggstraße",
                        "brand": "Martin Auer",
                        "brand:wikidata": "Q55523880",
                        "brand:wikipedia": "de:Martin Auer (Unternehmen)",
                        "contact:phone": "+43 316 8040 100",
                        "name": "Martin Auer",
                        "shop": "bakery",
                        "website": "https://www.martinauer.at/filialen/",
                        "wheelchair": "yes"
                      },
                      "geometry": {
                        "type": "Point",
                        "coordinates": [
                          15.4819074,
                          47.0358869
                        ]
                      }
                    },
                    {
                      "type": "Feature",
                      "properties": {
                        "id": "11860309802",
                        "osm_type": "node",
                        "lat": 47.0672515,
                        "lon": 15.4414466,
                        "contact:phone": "+43 676 4901815",
                        "name": "mel&koffie – mehr als eine Bäckerei",
                        "opening_hours": "Mo- Fr 07:00-18:30; Sa07:00-18:00",
                        "shop": "bakery",
                        "website": "https://melkoffie.com/"
                      },
                      "geometry": {
                        "type": "Point",
                        "coordinates": [
                          15.4414466,
                          47.0672515
                        ]
                      }
                    },
                    {
                      "type": "Feature",
                      "properties": {
                        "id": "12649834727",
                        "osm_type": "node",
                        "lat": 47.0639683,
                        "lon": 15.4503168,
                        "addr:floor": "0",
                        "addr:housenumber": "35",
                        "addr:street": "Münzgrabenstraße",
                        "check_date": "2025-04-05",
                        "indoor_seating": "yes",
                        "level": "0",
                        "name": "Lily's Bakery",
                        "opening_hours": "Mo-Fr 08:00-15:00; Sa-Su,PH off",
                        "outdoor_seating": "no",
                        "payment:cash": "yes",
                        "payment:credit_cards": "yes",
                        "payment:debit_cards": "yes",
                        "shop": "bakery",
                        "source": "local knowledge",
                        "start_date": "2024-10",
                        "wheelchair": "yes"
                      },
                      "geometry": {
                        "type": "Point",
                        "coordinates": [
                          15.4503168,
                          47.0639683
                        ]
                      }
                    },
                    {
                      "type": "Feature",
                      "properties": {
                        "id": "12693576891",
                        "osm_type": "node",
                        "lat": 47.063922,
                        "lon": 15.455583,
                        "addr:city": "Graz",
                        "addr:country": "AT",
                        "addr:housenumber": "31",
                        "addr:postcode": "8010",
                        "addr:street": "Petersgasse",
                        "name": "Frau von Dant",
                        "opening_hours": "ondemand",
                        "shop": "bakery",
                        "source": "survey",
                        "website": "https://www.frauvondant.at"
                      },
                      "geometry": {
                        "type": "Point",
                        "coordinates": [
                          15.455583,
                          47.063922
                        ]
                      }
                    },
                    {
                      "type": "Feature",
                      "properties": {
                        "id": "13121738981",
                        "osm_type": "node",
                        "lat": 47.0691311,
                        "lon": 15.4845763,
                        "name": "Kern",
                        "shop": "bakery",
                        "wheelchair": "yes"
                      },
                      "geometry": {
                        "type": "Point",
                        "coordinates": [
                          15.4845763,
                          47.0691311
                        ]
                      }
                    }
                  ],
                  "children": []
                },
                {
                  "bbox": {
                    "south": 47.07507765625,
                    "west": 15.253173,
                    "north": 47.1163968125,
                    "east": 15.3723859375
                  },
                  "poiCount": 1,
                  "leafCount": 1,
                  "averagePosition": [
                    15.3367473,
                    47.1141934
                  ],
                  "data": [
                    {
                      "type": "Feature",
                      "properties": {
                        "id": "10186514330",
                        "osm_type": "node",
                        "lat": 47.1141934,
                        "lon": 15.3367473,
                        "contact:phone": "+43 3124 90 505",
                        "name": "Bäckerei Sorger",
                        "opening_hours": "Mo-Fr 07:00-18:00; Sa, Su 07:00-17:00",
                        "payment:apple_pay": "yes",
                        "payment:cash": "yes",
                        "payment:credit_cards": "yes",
                        "payment:debit_cards": "yes",
                        "payment:google_pay": "yes",
                        "payment:mastercard": "yes",
                        "payment:visa": "yes",
                        "shop": "bakery",
                        "website": "https://www.sorgerbrot.at/"
                      },
                      "geometry": {
                        "type": "Point",
                        "coordinates": [
                          15.3367473,
                          47.1141934
                        ]
                      }
                    }
                  ],
                  "children": []
                },
                {
                  "bbox": {
                    "south": 47.07507765625,
                    "west": 15.3723859375,
                    "north": 47.1163968125,
                    "east": 15.491598875000001
                  },
                  "poiCount": 14,
                  "leafCount": 14,
                  "averagePosition": [
                    15.437491964285714,
                    47.089175007142856
                  ],
                  "data": [
                    {
                      "type": "Feature",
                      "properties": {
                        "id": "825158290",
                        "osm_type": "node",
                        "lat": 47.0816553,
                        "lon": 15.468119,
                        "diet:vegetarian": "yes",
                        "level": "0",
                        "name": "Kern",
                        "operator": "Kern",
                        "shop": "bakery",
                        "source": "survey",
                        "wheelchair": "yes"
                      },
                      "geometry": {
                        "type": "Point",
                        "coordinates": [
                          15.468119,
                          47.0816553
                        ]
                      }
                    },
                    {
                      "type": "Feature",
                      "properties": {
                        "id": "991630050",
                        "osm_type": "node",
                        "lat": 47.0780251,
                        "lon": 15.4436229,
                        "name": "Hubert Auer",
                        "opening_hours": "Mo-Fr 06:00-18:00; Sa 06:00-12:00",
                        "shop": "bakery",
                        "toilets:wheelchair": "no",
                        "wheelchair": "yes"
                      },
                      "geometry": {
                        "type": "Point",
                        "coordinates": [
                          15.4436229,
                          47.0780251
                        ]
                      }
                    },
                    {
                      "type": "Feature",
                      "properties": {
                        "id": "1798478660",
                        "osm_type": "node",
                        "lat": 47.1035327,
                        "lon": 15.4218054,
                        "addr:city": "Graz",
                        "addr:country": "AT",
                        "addr:housenumber": "42a",
                        "addr:postcode": "8045",
                        "addr:street": "Andritzer Reichsstraße",
                        "check_date": "2025-01-01",
                        "internet_access": "no",
                        "name": "Bäckerei Bartl",
                        "old_name": "Wölfl",
                        "phone": "+43316692879",
                        "shop": "bakery",
                        "smoking": "no",
                        "start_date": "2020-05",
                        "website": "https://www.baeckereicafekonditorei-bartl.at/",
                        "wheelchair": "yes"
                      },
                      "geometry": {
                        "type": "Point",
                        "coordinates": [
                          15.4218054,
                          47.1035327
                        ]
                      }
                    },
                    {
                      "type": "Feature",
                      "properties": {
                        "id": "2026013960",
                        "osm_type": "node",
                        "lat": 47.1135936,
                        "lon": 15.4222458,
                        "addr:city": "Graz",
                        "addr:country": "AT",
                        "addr:housenumber": "11",
                        "addr:postcode": "8045",
                        "addr:street": "Sankt-Veiter-Straße",
                        "amenity": "bakery",
                        "cafe": "yes",
                        "check_date": "2024-11-30",
                        "contact:website": "http://www.baeckerei-kern.at/",
                        "diet:vegetarian": "no",
                        "name": "Kern",
                        "opening_hours": "Mo-Fr 05:30-19:30; Sa 06:30-18:00; Su off",
                        "outdoor_seating": "yes",
                        "phone": "+43 316 69 20 48",
                        "shop": "bakery",
                        "smoking": "no",
                        "source": "Echo Graz-Nord",
                        "wheelchair": "yes"
                      },
                      "geometry": {
                        "type": "Point",
                        "coordinates": [
                          15.4222458,
                          47.1135936
                        ]
                      }
                    },
                    {
                      "type": "Feature",
                      "properties": {
                        "id": "2303554157",
                        "osm_type": "node",
                        "lat": 47.0795411,
                        "lon": 15.4673535,
                        "addr:city": "Graz",
                        "addr:country": "AT",
                        "addr:housenumber": "3-7",
                        "addr:postcode": "8010",
                        "addr:street": "Stiftingtalstraße",
                        "brand": "Martin Auer",
                        "brand:wikidata": "Q55523880",
                        "check_date:opening_hours": "2021-07-30",
                        "name": "Martin Auer",
                        "opening_hours": "Mo-Fr 05:00-19:00; Sa,Su,PH 05:30-18:00",
                        "shop": "bakery",
                        "wheelchair": "limited"
                      },
                      "geometry": {
                        "type": "Point",
                        "coordinates": [
                          15.4673535,
                          47.0795411
                        ]
                      }
                    },
                    {
                      "type": "Feature",
                      "properties": {
                        "id": "2474183533",
                        "osm_type": "node",
                        "lat": 47.1053142,
                        "lon": 15.3975942,
                        "addr:city": "Graz",
                        "addr:country": "AT",
                        "addr:housenumber": "351",
                        "addr:postcode": "8051",
                        "addr:street": "Wiener Straße",
                        "brand": "Martin Auer",
                        "brand:wikidata": "Q55523880",
                        "indoor_seating": "yes",
                        "level": "0",
                        "name": "Martin Auer",
                        "outdoor_seating": "no",
                        "shop": "bakery",
                        "wheelchair": "yes"
                      },
                      "geometry": {
                        "type": "Point",
                        "coordinates": [
                          15.3975942,
                          47.1053142
                        ]
                      }
                    },
                    {
                      "type": "Feature",
                      "properties": {
                        "id": "2731595362",
                        "osm_type": "node",
                        "lat": 47.1037289,
                        "lon": 15.4217489,
                        "addr:city": "Graz",
                        "addr:country": "AT",
                        "addr:housenumber": "42c",
                        "addr:postcode": "8045",
                        "addr:street": "Andritzer Reichsstraße",
                        "brand": "Martin Auer",
                        "brand:wikidata": "Q55523880",
                        "brand:wikipedia": "de:Martin Auer (Unternehmen)",
                        "check_date": "2024-06-19",
                        "name": "Martin Auer",
                        "organic": "yes",
                        "shop": "bakery",
                        "smoking": "no",
                        "source": "survey",
                        "wheelchair": "limited",
                        "wheelchair:description": "eine Stufe"
                      },
                      "geometry": {
                        "type": "Point",
                        "coordinates": [
                          15.4217489,
                          47.1037289
                        ]
                      }
                    },
                    {
                      "type": "Feature",
                      "properties": {
                        "id": "3452051783",
                        "osm_type": "node",
                        "lat": 47.1039268,
                        "lon": 15.4005343,
                        "addr:city": "Graz",
                        "addr:postcode": "8051",
                        "contact:phone": "+43 316 674907",
                        "indoor_seating": "yes",
                        "name": "Kern",
                        "opening_hours": "Mo-Fr 07:30-19:30; Sa 07:30-19:00",
                        "outdoor_seating": "yes",
                        "shop": "bakery",
                        "website": "https://www.baeckerei-kern.at/#stores",
                        "wheelchair": "yes"
                      },
                      "geometry": {
                        "type": "Point",
                        "coordinates": [
                          15.4005343,
                          47.1039268
                        ]
                      }
                    },
                    {
                      "type": "Feature",
                      "properties": {
                        "id": "4637859865",
                        "osm_type": "node",
                        "lat": 47.0802556,
                        "lon": 15.4508169,
                        "addr:city": "Graz",
                        "addr:country": "AT",
                        "addr:housenumber": "56",
                        "addr:postcode": "8010",
                        "addr:street": "Heinrichstraße",
                        "brand": "Martin Auer",
                        "brand:wikidata": "Q55523880",
                        "contact:phone": "+43 316 80 40 26",
                        "name": "Martin Auer",
                        "opening_hours": "Mo-Fr 06:30-18:30; Sa 07:00-13:00; Su,PH 06:30-11:00",
                        "shop": "bakery"
                      },
                      "geometry": {
                        "type": "Point",
                        "coordinates": [
                          15.4508169,
                          47.0802556
                        ]
                      }
                    },
                    {
                      "type": "Feature",
                      "properties": {
                        "id": "4756084537",
                        "osm_type": "node",
                        "lat": 47.0816988,
                        "lon": 15.4668559,
                        "addr:city": "Graz",
                        "addr:country": "AT",
                        "addr:housenumber": "14",
                        "addr:postcode": "8036",
                        "addr:street": "Auenbruggerplatz",
                        "cafe": "yes",
                        "name": "Hubert Auer",
                        "shop": "bakery"
                      },
                      "geometry": {
                        "type": "Point",
                        "coordinates": [
                          15.4668559,
                          47.0816988
                        ]
                      }
                    },
                    {
                      "type": "Feature",
                      "properties": {
                        "id": "5907143758",
                        "osm_type": "node",
                        "lat": 47.0807239,
                        "lon": 15.4384303,
                        "addr:city": "Graz",
                        "addr:country": "AT",
                        "addr:housenumber": "17",
                        "addr:street": "Grabenstraße",
                        "name": "Hubert Auer",
                        "opening_hours": "Mo-Fr 06:00-18:30; Sa 06:00-12:30; Su,PH 07:00-12:30",
                        "phone": "+43 59 669201",
                        "shop": "bakery",
                        "wheelchair": "no"
                      },
                      "geometry": {
                        "type": "Point",
                        "coordinates": [
                          15.4384303,
                          47.0807239
                        ]
                      }
                    },
                    {
                      "type": "Feature",
                      "properties": {
                        "id": "5928457930",
                        "osm_type": "node",
                        "lat": 47.0797529,
                        "lon": 15.464046,
                        "addr:city": "Graz",
                        "addr:country": "AT",
                        "addr:housenumber": "29",
                        "addr:postcode": "8010",
                        "addr:street": "Auenbruggerplatz",
                        "cafe": "yes",
                        "contact:phone": "+43 316 319 170",
                        "description": "Standort: LKH Tages-Chirurgie",
                        "level": "0",
                        "name": "Kern",
                        "opening_hours": "Mo-Fr 05:30-18:00; Sa 06:00-14:00; Su,PH off",
                        "shop": "bakery",
                        "website": "https://baeckerei-kern.at/"
                      },
                      "geometry": {
                        "type": "Point",
                        "coordinates": [
                          15.464046,
                          47.0797529
                        ]
                      }
                    },
                    {
                      "type": "Feature",
                      "properties": {
                        "id": "6173128482",
                        "osm_type": "node",
                        "lat": 47.0774762,
                        "lon": 15.4347763,
                        "addr:city": "Graz",
                        "addr:country": "AT",
                        "addr:housenumber": "15",
                        "addr:postcode": "8010",
                        "addr:street": "Wickenburggasse",
                        "cafe": "yes",
                        "check_date:opening_hours": "2024-10-27",
                        "craft": "bakery",
                        "description": "Nachhaltige Bäckerei",
                        "level": "0",
                        "name": "Schloßbergbäckerei",
                        "opening_hours": "Mo-Fr 06:00-13:00; Sa,Su,PH off",
                        "operator": "Berhard Ferdinand Schudi",
                        "shop": "bakery",
                        "wheelchair": "no"
                      },
                      "geometry": {
                        "type": "Point",
                        "coordinates": [
                          15.4347763,
                          47.0774762
                        ]
                      }
                    },
                    {
                      "type": "Feature",
                      "properties": {
                        "id": "8004049171",
                        "osm_type": "node",
                        "lat": 47.079225,
                        "lon": 15.4269381,
                        "addr:city": "Graz",
                        "addr:housenumber": "20",
                        "addr:postcode": "8020",
                        "addr:street": "Wiener Straße",
                        "indoor_seating": "yes",
                        "name": "Sorger",
                        "opening_hours": "Mo-Fr 07:00-18:00; Sa,Su 07:00-17:00",
                        "outdoor_seating": "yes",
                        "shop": "bakery",
                        "website": "https://www.sorgerbrot.at/"
                      },
                      "geometry": {
                        "type": "Point",
                        "coordinates": [
                          15.4269381,
                          47.079225
                        ]
                      }
                    }
                  ],
                  "children": []
                }
              ]
            },
            {
              "bbox": {
                "south": 47.033758500000005,
                "west": 15.491598875000001,
                "north": 47.1163968125,
                "east": 15.73002475
              },
              "poiCount": 3,
              "leafCount": 3,
              "averagePosition": [
                15.639504066666667,
                47.09493196666667
              ],
              "data": [
                {
                  "type": "Feature",
                  "properties": {
                    "id": "1454908660",
                    "osm_type": "node",
                    "lat": 47.0768809,
                    "lon": 15.4967341,
                    "addr:city": "Graz",
                    "addr:country": "AT",
                    "addr:housenumber": "177",
                    "addr:postcode": "8047",
                    "addr:street": "Ragnitzstraße",
                    "indoor_seating": "no",
                    "name": "Sorger",
                    "opening_hours": "Mo-Fr 07:00-19:00; Sa 07:00-14:00; Su, Ph 07:00-11:00",
                    "outdoor_seating": "no",
                    "phone": "+43 316 30 25 70",
                    "shop": "bakery",
                    "takeaway": "only",
                    "wheelchair": "yes"
                  },
                  "geometry": {
                    "type": "Point",
                    "coordinates": [
                      15.4967341,
                      47.0768809
                    ]
                  }
                },
                {
                  "type": "Feature",
                  "properties": {
                    "id": "441566742",
                    "osm_type": "node",
                    "lat": 47.1020435,
                    "lon": 15.7108073,
                    "addr:city": "Gleisdorf",
                    "addr:country": "AT",
                    "addr:housenumber": "14",
                    "addr:postcode": "8200",
                    "addr:street": "Gartengasse",
                    "contact:email": "cafe@wurm.cc",
                    "name": "Bäckerei Wurm",
                    "shop": "bakery",
                    "wheelchair": "no"
                  },
                  "geometry": {
                    "type": "Point",
                    "coordinates": [
                      15.7108073,
                      47.1020435
                    ]
                  }
                },
                {
                  "type": "Feature",
                  "properties": {
                    "id": "3048481412",
                    "osm_type": "node",
                    "lat": 47.1058715,
                    "lon": 15.7109708,
                    "addr:city": "Gleisdorf",
                    "addr:country": "AT",
                    "addr:housenumber": "9",
                    "addr:postcode": "8200",
                    "addr:street": "Hauptplatz",
                    "cafe": "yes",
                    "name": "Martin Auer",
                    "old_name": "König Brot",
                    "opening_hours": "Mo-Fr 06:30-18:30; Sa, Su 07:00-13:00; PH \"varying\"",
                    "phone": "+43 316 8040109",
                    "shop": "bakery"
                  },
                  "geometry": {
                    "type": "Point",
                    "coordinates": [
                      15.7109708,
                      47.1058715
                    ]
                  }
                }
              ],
              "children": []
            },
            {
              "bbox": {
                "south": 47.1163968125,
                "west": 15.253173,
                "north": 47.199035125,
                "east": 15.491598875000001
              },
              "poiCount": 2,
              "leafCount": 2,
              "averagePosition": [
                15.3286905,
                47.16433365
              ],
              "data": [
                {
                  "type": "Feature",
                  "properties": {
                    "id": "5516863725",
                    "osm_type": "node",
                    "lat": 47.1990293,
                    "lon": 15.3367617,
                    "addr:housenumber": "3",
                    "addr:street": "Gartengasse",
                    "cafe": "yes",
                    "craft": "bakery",
                    "description": "Cafe und Bauernladen",
                    "name": "Cafe am Platz Viertler",
                    "opening_hours": "Mo-Fr 06:00-19:00; Sa 06:00-17:00",
                    "phone": "+43 3127 - 41 381",
                    "shop": "bakery"
                  },
                  "geometry": {
                    "type": "Point",
                    "coordinates": [
                      15.3367617,
                      47.1990293
                    ]
                  }
                },
                {
                  "type": "Feature",
                  "properties": {
                    "id": "11525698918",
                    "osm_type": "node",
                    "lat": 47.129638,
                    "lon": 15.3206193,
                    "name": "Pfleger",
                    "shop": "bakery"
                  },
                  "geometry": {
                    "type": "Point",
                    "coordinates": [
                      15.3206193,
                      47.129638
                    ]
                  }
                }
              ],
              "children": []
            },
            {
              "bbox": {
                "south": 47.1163968125,
                "west": 15.491598875000001,
                "north": 47.199035125,
                "east": 15.73002475
              },
              "poiCount": 3,
              "leafCount": 3,
              "averagePosition": [
                15.606321633333332,
                47.161264700000004
              ],
              "data": [
                {
                  "type": "Feature",
                  "properties": {
                    "id": "4206878558",
                    "osm_type": "node",
                    "lat": 47.1765512,
                    "lon": 15.6001124,
                    "addr:city": "Mitterdorf an der Raab",
                    "addr:country": "AT",
                    "addr:housenumber": "10a",
                    "addr:place": "Hohenkogl",
                    "addr:postcode": "8181",
                    "at_bev:addr_date": "2018-10-01",
                    "name": "Bäckerei Scherbauer",
                    "shop": "bakery"
                  },
                  "geometry": {
                    "type": "Point",
                    "coordinates": [
                      15.6001124,
                      47.1765512
                    ]
                  }
                },
                {
                  "type": "Feature",
                  "properties": {
                    "id": "4206878559",
                    "osm_type": "node",
                    "lat": 47.1832083,
                    "lon": 15.6232139,
                    "addr:city": "Weiz",
                    "addr:country": "AT",
                    "addr:housenumber": "44",
                    "addr:place": "Untergreith",
                    "addr:postcode": "8160",
                    "name": "Bäckerei Schloffer",
                    "shop": "bakery"
                  },
                  "geometry": {
                    "type": "Point",
                    "coordinates": [
                      15.6232139,
                      47.1832083
                    ]
                  }
                },
                {
                  "type": "Feature",
                  "properties": {
                    "id": "9942977048",
                    "osm_type": "node",
                    "lat": 47.1240346,
                    "lon": 15.5956386,
                    "name": "Rosenberger Schöckllandbäckerei",
                    "opening_hours": "Mo-Sa 06:00-12:00",
                    "shop": "bakery"
                  },
                  "geometry": {
                    "type": "Point",
                    "coordinates": [
                      15.5956386,
                      47.1240346
                    ]
                  }
                }
              ],
              "children": []
            }
          ]
        },
        {
          "bbox": {
            "south": 47.033758500000005,
            "west": 15.73002475,
            "north": 47.199035125,
            "east": 16.2068765
          },
          "poiCount": 8,
          "leafCount": 8,
          "averagePosition": [
            15.9734783,
            47.097363625
          ],
          "data": [
            {
              "type": "Feature",
              "properties": {
                "id": "1781426992",
                "osm_type": "node",
                "lat": 47.1496641,
                "lon": 15.7691872,
                "addr:country": "AT",
                "addr:housename": "Ilztalerhof",
                "addr:housenumber": "41",
                "addr:postcode": "8211",
                "addr:street": "Großpesendorf",
                "name": "yes Nahversorgercenter",
                "shop": "bakery",
                "source": "owner",
                "website": "www.seppi.at"
              },
              "geometry": {
                "type": "Point",
                "coordinates": [
                  15.7691872,
                  47.1496641
                ]
              }
            },
            {
              "type": "Feature",
              "properties": {
                "id": "3402644459",
                "osm_type": "node",
                "lat": 47.054736,
                "lon": 15.840369,
                "addr:city": "Markt Hartmannsdorf",
                "addr:postcode": "8311",
                "name": "Backstube Donnerer",
                "shop": "bakery"
              },
              "geometry": {
                "type": "Point",
                "coordinates": [
                  15.840369,
                  47.054736
                ]
              }
            },
            {
              "type": "Feature",
              "properties": {
                "id": "4785824927",
                "osm_type": "node",
                "lat": 47.0865763,
                "lon": 15.9242115,
                "name": "Mild",
                "shop": "bakery"
              },
              "geometry": {
                "type": "Point",
                "coordinates": [
                  15.9242115,
                  47.0865763
                ]
              }
            },
            {
              "type": "Feature",
              "properties": {
                "id": "5831817370",
                "osm_type": "node",
                "lat": 47.1011444,
                "lon": 15.8270968,
                "name": "Wurm",
                "shop": "bakery"
              },
              "geometry": {
                "type": "Point",
                "coordinates": [
                  15.8270968,
                  47.1011444
                ]
              }
            },
            {
              "type": "Feature",
              "properties": {
                "id": "1749038271",
                "osm_type": "node",
                "lat": 47.1438422,
                "lon": 16.0967733,
                "addr:city": "Burgau",
                "addr:housenumber": "96",
                "addr:postcode": "8291",
                "addr:street": "Kircheggstraße",
                "name": "Bäckerei Posch",
                "opening_hours": "Mo-Tu,Fr-Sa 06:00-12:00; We-Th 06:00-12:00,14:00-17:30",
                "shop": "bakery",
                "website": "https://www.baeckerei-posch.at/"
              },
              "geometry": {
                "type": "Point",
                "coordinates": [
                  16.0967733,
                  47.1438422
                ]
              }
            },
            {
              "type": "Feature",
              "properties": {
                "id": "3758874528",
                "osm_type": "node",
                "lat": 47.0503972,
                "lon": 16.0763138,
                "addr:city": "Fürstenfeld",
                "addr:country": "AT",
                "addr:housenumber": "13",
                "addr:postcode": "8280",
                "addr:street": "Hauptplatz",
                "name": "Birchbauer",
                "opening_hours": "Mo-Fr 06:00-18:00; Sa 06:00-14:00; Su 06:30-12:00",
                "phone": "+433382 52251",
                "shop": "bakery",
                "website": "https://www.baeckerei-birchbauer.at/"
              },
              "geometry": {
                "type": "Point",
                "coordinates": [
                  16.0763138,
                  47.0503972
                ]
              }
            },
            {
              "type": "Feature",
              "properties": {
                "id": "3858964827",
                "osm_type": "node",
                "lat": 47.0505669,
                "lon": 16.0774648,
                "addr:city": "Fürstenfeld",
                "addr:country": "AT",
                "addr:housenumber": "1",
                "addr:postcode": "8280",
                "addr:street": "Dr.A.-Heinrich-Straße",
                "contact:phone": "+433382 54852",
                "name": "Cafe/ Bäckerei Hütter",
                "opening_hours": "Mo-Fr 05:30-18:00; Sa 05:30-13:00; Su 07:00-11:00",
                "shop": "bakery",
                "website": "http://www.baeckerei-huetter.at"
              },
              "geometry": {
                "type": "Point",
                "coordinates": [
                  16.0774648,
                  47.0505669
                ]
              }
            },
            {
              "type": "Feature",
              "properties": {
                "id": "6077471604",
                "osm_type": "node",
                "lat": 47.1419819,
                "lon": 16.17641,
                "addr:city": "Bocksdorf",
                "addr:country": "AT",
                "addr:housenumber": "2",
                "addr:postcode": "7551",
                "addr:street": "Kirchengasse",
                "at_bev:addr_date": "2018-10-01",
                "name": "Bäckerei Pichler-Schmaldienst",
                "shop": "bakery"
              },
              "geometry": {
                "type": "Point",
                "coordinates": [
                  16.17641,
                  47.1419819
                ]
              }
            }
          ],
          "children": []
        },
        {
          "bbox": {
            "south": 47.199035125,
            "west": 15.253173,
            "north": 47.36431175,
            "east": 15.73002475
          },
          "poiCount": 8,
          "leafCount": 8,
          "averagePosition": [
            15.6067969625,
            47.223086175
          ],
          "data": [
            {
              "type": "Feature",
              "properties": {
                "id": "12463498743",
                "osm_type": "node",
                "lat": 47.2174214,
                "lon": 15.402875,
                "addr:city": "Semriach",
                "addr:housenumber": "31",
                "addr:postcode": "8102",
                "addr:street": "Markt",
                "name": "Bäckerei Pfleger",
                "shop": "bakery",
                "website": "https://www.baecker-pfleger.at/"
              },
              "geometry": {
                "type": "Point",
                "coordinates": [
                  15.402875,
                  47.2174214
                ]
              }
            },
            {
              "type": "Feature",
              "properties": {
                "id": "1334015926",
                "osm_type": "node",
                "lat": 47.2738052,
                "lon": 15.6888754,
                "addr:country": "AT",
                "addr:housenumber": "10",
                "addr:postcode": "8184",
                "addr:street": "Hauptplatz",
                "designation": "Bäckerei Buchgraber",
                "name": "Bäckerei Buchgraber",
                "shop": "bakery"
              },
              "geometry": {
                "type": "Point",
                "coordinates": [
                  15.6888754,
                  47.2738052
                ]
              }
            },
            {
              "type": "Feature",
              "properties": {
                "id": "2001677027",
                "osm_type": "node",
                "lat": 47.2196538,
                "lon": 15.6237134,
                "addr:city": "Weiz",
                "addr:country": "AT",
                "addr:housenumber": "9",
                "addr:postcode": "8160",
                "addr:street": "Kapfensteinergasse",
                "contact:fax": "+43 3172 2463 0",
                "contact:phone": "+43 3172 2463",
                "name": "Bäckerei Gaulhofer",
                "opening_hours": "Mo 5:30-12:30, 15:00-18:00, Tu 5:30-12:30, We-Fr 5:30-12:30, 15:00-18:00, Sa 5:30-12:00",
                "operator": "Franz Gaulhofer",
                "shop": "bakery"
              },
              "geometry": {
                "type": "Point",
                "coordinates": [
                  15.6237134,
                  47.2196538
                ]
              }
            },
            {
              "type": "Feature",
              "properties": {
                "id": "2006121276",
                "osm_type": "node",
                "lat": 47.2179392,
                "lon": 15.6223524,
                "addr:city": "Weiz",
                "addr:country": "AT",
                "addr:housenumber": "5",
                "addr:postcode": "8160",
                "addr:street": "Klammstraße",
                "name": "Schwindhackl",
                "shop": "bakery",
                "wheelchair": "limited"
              },
              "geometry": {
                "type": "Point",
                "coordinates": [
                  15.6223524,
                  47.2179392
                ]
              }
            },
            {
              "type": "Feature",
              "properties": {
                "id": "4006975781",
                "osm_type": "node",
                "lat": 47.2044051,
                "lon": 15.6279141,
                "addr:city": "Weiz",
                "addr:country": "AT",
                "addr:housenumber": "155",
                "addr:postcode": "8160",
                "addr:street": "Marburger Straße",
                "contact:email": "office@wachmann.co.at",
                "contact:fax": "+43 3172 4310 4",
                "contact:phone": "+43 3172 4310",
                "contact:website": "https://wachmann.co.at/",
                "name": "Bäckerei-Konditorei Wachmann",
                "opening_hours": "Mo-Fr 5:00-18:00, Sa 5:00-13:00",
                "operator": "Paul Wachmann",
                "shop": "bakery"
              },
              "geometry": {
                "type": "Point",
                "coordinates": [
                  15.6279141,
                  47.2044051
                ]
              }
            },
            {
              "type": "Feature",
              "properties": {
                "id": "4159305791",
                "osm_type": "node",
                "lat": 47.2194338,
                "lon": 15.6328602,
                "addr:city": "Weiz",
                "addr:country": "AT",
                "addr:housenumber": "51",
                "addr:postcode": "8160",
                "addr:street": "Birkfelder Straße",
                "contact:email": "buchgraber@baeckerei-buchgraber.at",
                "contact:phone": "+43 3172 41082",
                "contact:website": "http://www.brot-fleisch.at/",
                "name": "Bäckerei Buchgraber",
                "opening_hours": "Mo-Fr 6:30-18:00, Sa 6:30-12:30",
                "operator": "Klaus Buchgraber",
                "shop": "bakery"
              },
              "geometry": {
                "type": "Point",
                "coordinates": [
                  15.6328602,
                  47.2194338
                ]
              }
            },
            {
              "type": "Feature",
              "properties": {
                "id": "7626039669",
                "osm_type": "node",
                "lat": 47.2154717,
                "lon": 15.6262583,
                "addr:city": "Weiz",
                "addr:housenumber": "36",
                "addr:postcode": "8160",
                "addr:street": "Mühlgasse",
                "name": "Bäckerei Tengg",
                "shop": "bakery"
              },
              "geometry": {
                "type": "Point",
                "coordinates": [
                  15.6262583,
                  47.2154717
                ]
              }
            },
            {
              "type": "Feature",
              "properties": {
                "id": "11091665622",
                "osm_type": "node",
                "lat": 47.2165592,
                "lon": 15.6295269,
                "contact:phone": "+43 3172 42273",
                "name": "Sorger",
                "opening_hours": "Mo-Fr 07:00-18:00; Sa 07:00-16:00; Su 06:30-12:00",
                "shop": "bakery",
                "website": "https://sorgerbrot.at/speisekarte/weiz"
              },
              "geometry": {
                "type": "Point",
                "coordinates": [
                  15.6295269,
                  47.2165592
                ]
              }
            }
          ],
          "children": []
        },
        {
          "bbox": {
            "south": 47.199035125,
            "west": 15.73002475,
            "north": 47.36431175,
            "east": 16.2068765
          },
          "poiCount": 8,
          "leafCount": 8,
          "averagePosition": [
            15.989354975,
            47.2910669875
          ],
          "data": [
            {
              "type": "Feature",
              "properties": {
                "id": "1538096072",
                "osm_type": "node",
                "lat": 47.2799305,
                "lon": 15.9692151,
                "name": "König",
                "opening_hours": "Mo-Sa 06:30-12:30",
                "phone": "+43 3332 62281",
                "shop": "bakery",
                "wheelchair": "no"
              },
              "geometry": {
                "type": "Point",
                "coordinates": [
                  15.9692151,
                  47.2799305
                ]
              }
            },
            {
              "type": "Feature",
              "properties": {
                "id": "1538096074",
                "osm_type": "node",
                "lat": 47.2781639,
                "lon": 15.9661533,
                "name": "Radl",
                "opening_hours": "Mo-Fr 06:00-18:00, Sa 06:00-12:00",
                "shop": "bakery"
              },
              "geometry": {
                "type": "Point",
                "coordinates": [
                  15.9661533,
                  47.2781639
                ]
              }
            },
            {
              "type": "Feature",
              "properties": {
                "id": "1538366968",
                "osm_type": "node",
                "lat": 47.2813496,
                "lon": 15.970505,
                "name": "Radl",
                "opening_hours": "Mo-Fr 07:00-12:00,15:00-18:00; Th,Sa 07:00-12:00",
                "shop": "bakery"
              },
              "geometry": {
                "type": "Point",
                "coordinates": [
                  15.970505,
                  47.2813496
                ]
              }
            },
            {
              "type": "Feature",
              "properties": {
                "id": "1576669454",
                "osm_type": "node",
                "lat": 47.2805249,
                "lon": 15.9619299,
                "name": "Posch Getreide- & Ölmühle",
                "opening_hours": "Mo-Fr 09:00-17:00; Sa 09:00-13:00",
                "organic": "only",
                "shop": "bakery"
              },
              "geometry": {
                "type": "Point",
                "coordinates": [
                  15.9619299,
                  47.2805249
                ]
              }
            },
            {
              "type": "Feature",
              "properties": {
                "id": "7090537673",
                "osm_type": "node",
                "lat": 47.226311,
                "lon": 15.9101515,
                "addr:city": "Kaindorf",
                "addr:country": "AT",
                "addr:housenumber": "125",
                "addr:place": "Kaindorf",
                "addr:postcode": "8224",
                "at_bev:addr_date": "2019-10-01",
                "name": "Gotthardt Kaindorf",
                "opening_hours": "Mo-Fr 06:00-00:00; Fr,Sa 06:00-02:00, Su 07:00-00:00",
                "operator": "Franz Gotthardt GmbH & Co KG",
                "shop": "bakery",
                "website": "https://www.gotthardt.at/"
              },
              "geometry": {
                "type": "Point",
                "coordinates": [
                  15.9101515,
                  47.226311
                ]
              }
            },
            {
              "type": "Feature",
              "properties": {
                "id": "9492003428",
                "osm_type": "node",
                "lat": 47.2820504,
                "lon": 15.9944485,
                "name": "Bäckerei Kern",
                "shop": "bakery"
              },
              "geometry": {
                "type": "Point",
                "coordinates": [
                  15.9944485,
                  47.2820504
                ]
              }
            },
            {
              "type": "Feature",
              "properties": {
                "id": "1704877743",
                "osm_type": "node",
                "lat": 47.3370261,
                "lon": 16.0769678,
                "name": "Koch",
                "shop": "bakery",
                "wheelchair": "no"
              },
              "geometry": {
                "type": "Point",
                "coordinates": [
                  16.0769678,
                  47.3370261
                ]
              }
            },
            {
              "type": "Feature",
              "properties": {
                "id": "4140963285",
                "osm_type": "node",
                "lat": 47.3631795,
                "lon": 16.0654687,
                "name": "Bayer",
                "shop": "bakery"
              },
              "geometry": {
                "type": "Point",
                "coordinates": [
                  16.0654687,
                  47.3631795
                ]
              }
            }
          ],
          "children": []
        }
      ]
    },
    {
      "bbox": {
        "south": 47.033758500000005,
        "west": 16.2068765,
        "north": 47.36431175,
        "east": 17.16058
      },
      "poiCount": 37,
      "leafCount": 37,
      "averagePosition": [
        16.62583188918919,
        47.218725908108105
      ],
      "data": [
        {
          "type": "Feature",
          "properties": {
            "id": "1583622990",
            "osm_type": "node",
            "lat": 47.3488108,
            "lon": 16.2075799,
            "addr:city": "Oberschützen",
            "addr:housenumber": "6",
            "addr:postcode": "7432",
            "addr:street": "Hauptstraße",
            "name": "Bäckerei Bayer",
            "shop": "bakery",
            "website": "http://www.baeckerei-bayer.com/"
          },
          "geometry": {
            "type": "Point",
            "coordinates": [
              16.2075799,
              47.3488108
            ]
          }
        },
        {
          "type": "Feature",
          "properties": {
            "id": "2329169105",
            "osm_type": "node",
            "lat": 47.3314929,
            "lon": 16.2292233,
            "addr:city": "Bad Tatzmannsdorf",
            "addr:housenumber": "5-6",
            "addr:postcode": "7431",
            "addr:street": "Hauptstraße",
            "name": "Milan Otto Varga",
            "shop": "bakery"
          },
          "geometry": {
            "type": "Point",
            "coordinates": [
              16.2292233,
              47.3314929
            ]
          }
        },
        {
          "type": "Feature",
          "properties": {
            "id": "2414311144",
            "osm_type": "node",
            "lat": 47.2895563,
            "lon": 16.2097379,
            "addr:city": "Oberwart",
            "addr:country": "AT",
            "addr:housenumber": "10",
            "addr:postcode": "7400",
            "addr:street": "Wienerstraße",
            "at_bev:addr_date": "2020-10-01",
            "name": "Ringhofer",
            "shop": "bakery"
          },
          "geometry": {
            "type": "Point",
            "coordinates": [
              16.2097379,
              47.2895563
            ]
          }
        },
        {
          "type": "Feature",
          "properties": {
            "id": "2967343413",
            "osm_type": "node",
            "lat": 47.3193412,
            "lon": 16.2713571,
            "addr:city": "Stadtschlaining",
            "addr:country": "AT",
            "addr:housenumber": "22",
            "addr:postcode": "7461",
            "addr:street": "Oberwarter Straße",
            "name": "Bayer",
            "opening_hours": "Mo,Tu,Th,Fr 05:30-12:00,15:00-18:00; We 06:00-12:00; Sa 07:00-10:00",
            "payment:cash": "yes",
            "payment:credit_cards": "yes",
            "payment:debit_cards": "yes",
            "phone": "+43 3355 33906",
            "shop": "bakery",
            "website": "https://www.baeckerei-bayer.at/"
          },
          "geometry": {
            "type": "Point",
            "coordinates": [
              16.2713571,
              47.3193412
            ]
          }
        },
        {
          "type": "Feature",
          "properties": {
            "id": "3108923125",
            "osm_type": "node",
            "lat": 47.305341,
            "lon": 16.4404461,
            "addr:city": "Rechnitz",
            "addr:country": "AT",
            "addr:housenumber": "12",
            "addr:postcode": "7471",
            "addr:street": "Hauptplatz",
            "contact:phone": "03363/79402",
            "name": "Cafe Bäckerei Gabriel",
            "opening_hours": "Mo-Sa 05:45-12:00",
            "shop": "bakery"
          },
          "geometry": {
            "type": "Point",
            "coordinates": [
              16.4404461,
              47.305341
            ]
          }
        },
        {
          "type": "Feature",
          "properties": {
            "id": "7917468637",
            "osm_type": "node",
            "lat": 47.1067684,
            "lon": 16.4609501,
            "name": "Konditorei Gansfuss",
            "shop": "bakery"
          },
          "geometry": {
            "type": "Point",
            "coordinates": [
              16.4609501,
              47.1067684
            ]
          }
        },
        {
          "type": "Feature",
          "properties": {
            "id": "12731344783",
            "osm_type": "node",
            "lat": 47.0591369,
            "lon": 16.3245793,
            "name": "Bäckerei Wolf",
            "opening_hours": "Mo-Fr 06:00-12:30,15:00-18:00; Sa 06:00-12:30",
            "shop": "bakery"
          },
          "geometry": {
            "type": "Point",
            "coordinates": [
              16.3245793,
              47.0591369
            ]
          }
        },
        {
          "type": "Feature",
          "properties": {
            "id": "12732625478",
            "osm_type": "node",
            "lat": 47.0697775,
            "lon": 16.3210055,
            "name": "Konditorei & Bäckerei Wolf",
            "opening_hours": "Mo-Fr 07:00-18:00; Sa 07:00-17:00",
            "shop": "bakery"
          },
          "geometry": {
            "type": "Point",
            "coordinates": [
              16.3210055,
              47.0697775
            ]
          }
        },
        {
          "type": "Feature",
          "properties": {
            "id": "13059915209",
            "osm_type": "node",
            "lat": 47.2288109,
            "lon": 16.3830297,
            "addr:city": "Hannersdorf",
            "addr:housenumber": "42",
            "addr:postcode": "7473",
            "addr:street": "Hannersdorf",
            "name": "Gabriel",
            "opening_hours": "Mo-Sa 6:00-11:00",
            "shop": "bakery",
            "website": "http://www.bäckerei-gabriel.at/"
          },
          "geometry": {
            "type": "Point",
            "coordinates": [
              16.3830297,
              47.2288109
            ]
          }
        },
        {
          "type": "Feature",
          "properties": {
            "id": "2911073697",
            "osm_type": "node",
            "lat": 47.2362942,
            "lon": 16.6275563,
            "name": "Behari",
            "shop": "bakery"
          },
          "geometry": {
            "type": "Point",
            "coordinates": [
              16.6275563,
              47.2362942
            ]
          }
        },
        {
          "type": "Feature",
          "properties": {
            "id": "2911074401",
            "osm_type": "node",
            "lat": 47.2370491,
            "lon": 16.6315323,
            "name": "Zalaco",
            "shop": "bakery"
          },
          "geometry": {
            "type": "Point",
            "coordinates": [
              16.6315323,
              47.2370491
            ]
          }
        },
        {
          "type": "Feature",
          "properties": {
            "id": "2925087565",
            "osm_type": "node",
            "lat": 47.2229671,
            "lon": 16.6189364,
            "shop": "bakery"
          },
          "geometry": {
            "type": "Point",
            "coordinates": [
              16.6189364,
              47.2229671
            ]
          }
        },
        {
          "type": "Feature",
          "properties": {
            "id": "2939328866",
            "osm_type": "node",
            "lat": 47.232448,
            "lon": 16.6159589,
            "name": "Zalaco",
            "shop": "bakery"
          },
          "geometry": {
            "type": "Point",
            "coordinates": [
              16.6159589,
              47.232448
            ]
          }
        },
        {
          "type": "Feature",
          "properties": {
            "id": "2940356279",
            "osm_type": "node",
            "lat": 47.0505106,
            "lon": 16.7985706,
            "addr:city": "Vasvár",
            "addr:housenumber": "6",
            "addr:postcode": "9800",
            "addr:street": "Járdányi professzor utca",
            "check_date": "2024-03-30",
            "name": "Mini Pékség",
            "opening_hours": "Mo-Fr 06:00-14:00; Sa-Su,PH off",
            "payment:cash": "yes",
            "payment:debit_cards": "yes",
            "shop": "bakery"
          },
          "geometry": {
            "type": "Point",
            "coordinates": [
              16.7985706,
              47.0505106
            ]
          }
        },
        {
          "type": "Feature",
          "properties": {
            "id": "2978099629",
            "osm_type": "node",
            "lat": 47.0498263,
            "lon": 16.7993336,
            "check_date": "2025-04-12",
            "check_date:opening_hours": "2025-04-12",
            "contact:website": "https://zalaco.hu",
            "name": "Zalaco pékség",
            "opening_hours": "Mo-Fr 05:30-17:00; Sa 06:00-12:00; Su,PH off",
            "payment:cash": "yes",
            "payment:credit_cards": "yes",
            "payment:debit_cards": "yes",
            "shop": "bakery"
          },
          "geometry": {
            "type": "Point",
            "coordinates": [
              16.7993336,
              47.0498263
            ]
          }
        },
        {
          "type": "Feature",
          "properties": {
            "id": "3160236885",
            "osm_type": "node",
            "lat": 47.2388573,
            "lon": 16.6060635,
            "check_date:opening_hours": "2024-12-01",
            "name": "Lipóti Pékség",
            "opening_hours": "Mo-Fr 06:00-17:00; Sa 06:00-12:00",
            "shop": "bakery",
            "website": "https://lipotipekseg.hu/"
          },
          "geometry": {
            "type": "Point",
            "coordinates": [
              16.6060635,
              47.2388573
            ]
          }
        },
        {
          "type": "Feature",
          "properties": {
            "id": "3160236892",
            "osm_type": "node",
            "lat": 47.2387272,
            "lon": 16.6061555,
            "name": "Zalaco Pékség és Pizzéria",
            "opening_hours": "Mo-Fr 06:00-18:00; Sa 06:00-12:00",
            "shop": "bakery"
          },
          "geometry": {
            "type": "Point",
            "coordinates": [
              16.6061555,
              47.2387272
            ]
          }
        },
        {
          "type": "Feature",
          "properties": {
            "id": "3177333070",
            "osm_type": "node",
            "lat": 47.231249,
            "lon": 16.6215156,
            "addr:city": "Szombathely",
            "addr:street": "Fő tér",
            "name": "Zalaco pékség",
            "opening_hours": "Mo-Fr 06:00-19:30; Su 07:00-14:00",
            "shop": "bakery"
          },
          "geometry": {
            "type": "Point",
            "coordinates": [
              16.6215156,
              47.231249
            ]
          }
        },
        {
          "type": "Feature",
          "properties": {
            "id": "3177333071",
            "osm_type": "node",
            "lat": 47.2317041,
            "lon": 16.6239978,
            "addr:city": "Szombathely",
            "addr:street": "Király utca",
            "name": "Zalaco pékség",
            "opening_hours": "Mo-Fr 06:00-18:00; Sa 07:00-12:00",
            "operator": "Zalaco",
            "shop": "bakery"
          },
          "geometry": {
            "type": "Point",
            "coordinates": [
              16.6239978,
              47.2317041
            ]
          }
        },
        {
          "type": "Feature",
          "properties": {
            "id": "3251337848",
            "osm_type": "node",
            "lat": 47.2351657,
            "lon": 16.6223353,
            "name": "Lipóti pékség",
            "operator": "Lipóti pékség",
            "shop": "bakery"
          },
          "geometry": {
            "type": "Point",
            "coordinates": [
              16.6223353,
              47.2351657
            ]
          }
        },
        {
          "type": "Feature",
          "properties": {
            "id": "3251747222",
            "osm_type": "node",
            "lat": 47.2338883,
            "lon": 16.6159863,
            "addr:city": "Szombathely",
            "addr:housenumber": "13",
            "addr:postcode": "9700",
            "addr:street": "Petőfi Sándor utca",
            "name": "Behari pékség",
            "phone": "+36 30 829 0651",
            "shop": "bakery"
          },
          "geometry": {
            "type": "Point",
            "coordinates": [
              16.6159863,
              47.2338883
            ]
          }
        },
        {
          "type": "Feature",
          "properties": {
            "id": "3251747225",
            "osm_type": "node",
            "lat": 47.2337635,
            "lon": 16.616276,
            "name": "Zalaco pékség",
            "shop": "bakery"
          },
          "geometry": {
            "type": "Point",
            "coordinates": [
              16.616276,
              47.2337635
            ]
          }
        },
        {
          "type": "Feature",
          "properties": {
            "id": "3348227689",
            "osm_type": "node",
            "lat": 47.242322,
            "lon": 16.6038263,
            "name": "Behari pékség",
            "opening_hours": "Mo-Su 06:00-21:00",
            "shop": "bakery"
          },
          "geometry": {
            "type": "Point",
            "coordinates": [
              16.6038263,
              47.242322
            ]
          }
        },
        {
          "type": "Feature",
          "properties": {
            "id": "3471878000",
            "osm_type": "node",
            "lat": 47.209817,
            "lon": 16.655133,
            "name": "Szentkirályi pékség",
            "shop": "bakery",
            "source": "turistautak.hu",
            "source:date": "2011-09-06",
            "url": "http://turistautak.hu/poi.php?id=17132"
          },
          "geometry": {
            "type": "Point",
            "coordinates": [
              16.655133,
              47.209817
            ]
          }
        },
        {
          "type": "Feature",
          "properties": {
            "id": "3670577730",
            "osm_type": "node",
            "lat": 47.2321168,
            "lon": 16.629537,
            "addr:city": "Szombathely",
            "addr:housenumber": "18",
            "addr:postcode": "9700",
            "addr:street": "Szent Márton utca",
            "name": "Langallóda",
            "shop": "bakery"
          },
          "geometry": {
            "type": "Point",
            "coordinates": [
              16.629537,
              47.2321168
            ]
          }
        },
        {
          "type": "Feature",
          "properties": {
            "id": "3729445144",
            "osm_type": "node",
            "lat": 47.2376531,
            "lon": 16.6298406,
            "addr:city": "Szombathely",
            "addr:housenumber": "32",
            "addr:postcode": "9700",
            "addr:street": "Nádasdy Ferenc utca",
            "name": "Roznár pékség",
            "opening_hours": "Mo-Fr 07:00-14:00",
            "shop": "bakery"
          },
          "geometry": {
            "type": "Point",
            "coordinates": [
              16.6298406,
              47.2376531
            ]
          }
        },
        {
          "type": "Feature",
          "properties": {
            "id": "4933472586",
            "osm_type": "node",
            "lat": 47.1832605,
            "lon": 16.7661124,
            "addr:city": "Vasszécseny",
            "addr:housenumber": "6",
            "addr:postcode": "9763",
            "addr:street": "Dózsa György utca",
            "name": "Zsolnai Pékség",
            "operator": "Zsolnai Sütő- és Édesipari Kft.",
            "phone": "+36 94 577 300",
            "shop": "bakery",
            "source": "local knowledge",
            "wheelchair": "limited"
          },
          "geometry": {
            "type": "Point",
            "coordinates": [
              16.7661124,
              47.1832605
            ]
          }
        },
        {
          "type": "Feature",
          "properties": {
            "id": "6116761021",
            "osm_type": "node",
            "lat": 47.0492721,
            "lon": 16.8006667,
            "check_date": "2024-03-30",
            "name": "Fincsi Pékség",
            "opening_hours": "Mo-Fr 05:00-19:00; Sa 05:00-17:00; Su,PH off",
            "shop": "bakery"
          },
          "geometry": {
            "type": "Point",
            "coordinates": [
              16.8006667,
              47.0492721
            ]
          }
        },
        {
          "type": "Feature",
          "properties": {
            "id": "8503489363",
            "osm_type": "node",
            "lat": 47.2298426,
            "lon": 16.6229676,
            "addr:city": "Szombathely",
            "addr:housenumber": "32",
            "addr:postcode": "9700",
            "addr:street": "Thököly Imre utca",
            "name": "Friss Pékség",
            "shop": "bakery"
          },
          "geometry": {
            "type": "Point",
            "coordinates": [
              16.6229676,
              47.2298426
            ]
          }
        },
        {
          "type": "Feature",
          "properties": {
            "id": "10116116137",
            "osm_type": "node",
            "lat": 47.2372299,
            "lon": 16.6323589,
            "name": "Pek-Snack",
            "opening_hours": "Mo-Fr 05:00-22:00; Sa,Su 05:00-19:00",
            "shop": "bakery",
            "wheelchair": "yes"
          },
          "geometry": {
            "type": "Point",
            "coordinates": [
              16.6323589,
              47.2372299
            ]
          }
        },
        {
          "type": "Feature",
          "properties": {
            "id": "10207082915",
            "osm_type": "node",
            "lat": 47.2286011,
            "lon": 16.6163785,
            "name": "Behari",
            "shop": "bakery"
          },
          "geometry": {
            "type": "Point",
            "coordinates": [
              16.6163785,
              47.2286011
            ]
          }
        },
        {
          "type": "Feature",
          "properties": {
            "id": "10300984839",
            "osm_type": "node",
            "lat": 47.231288,
            "lon": 16.6229557,
            "name": "Lipoti pékség és kávézó",
            "opening_hours": "Mo-Fr 06:00-18:00; Sa 07:00-13:00",
            "shop": "bakery"
          },
          "geometry": {
            "type": "Point",
            "coordinates": [
              16.6229557,
              47.231288
            ]
          }
        },
        {
          "type": "Feature",
          "properties": {
            "id": "10657183929",
            "osm_type": "node",
            "lat": 47.2536116,
            "lon": 16.933954,
            "addr:city": "Sárvár",
            "addr:housenumber": "8",
            "addr:postcode": "9600",
            "addr:street": "Batthyány Lajos utca",
            "name": "Zalaco",
            "shop": "bakery",
            "source": "survey",
            "website": "https://zalaco.hu/"
          },
          "geometry": {
            "type": "Point",
            "coordinates": [
              16.933954,
              47.2536116
            ]
          }
        },
        {
          "type": "Feature",
          "properties": {
            "id": "10657188571",
            "osm_type": "node",
            "lat": 47.2543744,
            "lon": 16.9359147,
            "addr:city": "Sárvár",
            "addr:housenumber": "1",
            "addr:postcode": "9600",
            "addr:street": "Ady Endre utca",
            "name": "Lipóti Pékség",
            "phone": "+3695312444",
            "shop": "bakery",
            "source": "survey"
          },
          "geometry": {
            "type": "Point",
            "coordinates": [
              16.9359147,
              47.2543744
            ]
          }
        },
        {
          "type": "Feature",
          "properties": {
            "id": "4200326587",
            "osm_type": "node",
            "lat": 47.2578764,
            "lon": 17.1515679,
            "name": "Zalaco",
            "shop": "bakery"
          },
          "geometry": {
            "type": "Point",
            "coordinates": [
              17.1515679,
              47.2578764
            ]
          }
        },
        {
          "type": "Feature",
          "properties": {
            "id": "4200327289",
            "osm_type": "node",
            "lat": 47.2580542,
            "lon": 17.1499806,
            "name": "Fincsi Pékség",
            "shop": "bakery"
          },
          "geometry": {
            "type": "Point",
            "coordinates": [
              17.1499806,
              47.2580542
            ]
          }
        },
        {
          "type": "Feature",
          "properties": {
            "id": "4341415606",
            "osm_type": "node",
            "lat": 47.2560526,
            "lon": 17.152459,
            "old_name": "Vodafone",
            "shop": "bakery"
          },
          "geometry": {
            "type": "Point",
            "coordinates": [
              17.152459,
              47.2560526
            ]
          }
        }
      ],
      "children": []
    },
    {
      "bbox": {
        "south": 47.36431175,
        "west": 15.253173,
        "north": 47.694865,
        "east": 16.2068765
      },
      "poiCount": 29,
      "leafCount": 29,
      "averagePosition": [
        15.629957313793103,
        47.4841612
      ],
      "data": [
        {
          "type": "Feature",
          "properties": {
            "id": "8359801242",
            "osm_type": "node",
            "lat": 47.3708922,
            "lon": 16.1206528,
            "addr:city": "Pinkafeld",
            "addr:country": "AT",
            "addr:housenumber": "15",
            "addr:postcode": "7423",
            "addr:street": "Bruckgasse",
            "at_bev:addr_date": "2020-10-01",
            "name": "Bio-Bäckerei Ringhofer",
            "operator": "Günter Ringhofer",
            "phone": "+43 3357 42290",
            "shop": "bakery",
            "website": "https://ringhofer-biobaeck.at/",
            "wikidata": "Q107233903"
          },
          "geometry": {
            "type": "Point",
            "coordinates": [
              16.1206528,
              47.3708922
            ]
          }
        },
        {
          "type": "Feature",
          "properties": {
            "id": "1112778860",
            "osm_type": "node",
            "lat": 47.4390606,
            "lon": 15.2890151,
            "name": "Hollik",
            "shop": "bakery"
          },
          "geometry": {
            "type": "Point",
            "coordinates": [
              15.2890151,
              47.4390606
            ]
          }
        },
        {
          "type": "Feature",
          "properties": {
            "id": "1129158226",
            "osm_type": "node",
            "lat": 47.4255105,
            "lon": 15.2578482,
            "addr:city": "Bruck an der Mur",
            "addr:country": "AT",
            "addr:housenumber": "7",
            "addr:postcode": "8600",
            "addr:street": "Arndorfer Straße",
            "at_bev:addr_date": "2016-10-02",
            "shop": "bakery"
          },
          "geometry": {
            "type": "Point",
            "coordinates": [
              15.2578482,
              47.4255105
            ]
          }
        },
        {
          "type": "Feature",
          "properties": {
            "id": "1347063044",
            "osm_type": "node",
            "lat": 47.4101214,
            "lon": 15.270038,
            "name": "Vanilla",
            "opening_hours": "Mo-Sa 06:00-18:00",
            "operator": "Vanille",
            "pastry_shop": "yes",
            "phone": "+43-664-5489982",
            "shop": "bakery",
            "survey:date": "2025-03-10",
            "website": "https://business.google.com/v/vanille/07101673424166428430/211d/_?caid=22103018559&agid=178497384652&gclid=Cj0KCQjwm7q-BhDRARIsACD6-fUV-Johgj5dqhPH_Al8BWS5_gj2fX56wUMxVn00ejxOrGNf1zNPp5EaAo8JEALw_wcB&gad_source=6",
            "wheelchair": "yes"
          },
          "geometry": {
            "type": "Point",
            "coordinates": [
              15.270038,
              47.4101214
            ]
          }
        },
        {
          "type": "Feature",
          "properties": {
            "id": "1407952893",
            "osm_type": "node",
            "lat": 47.4112175,
            "lon": 15.2637531,
            "entrance": "yes",
            "name": "Köck Bäck",
            "shop": "bakery"
          },
          "geometry": {
            "type": "Point",
            "coordinates": [
              15.2637531,
              47.4112175
            ]
          }
        },
        {
          "type": "Feature",
          "properties": {
            "id": "1434289233",
            "osm_type": "node",
            "lat": 47.4106399,
            "lon": 15.2692932,
            "entrance": "yes",
            "name": "Hubert Auer",
            "operator": "Hubert Auer",
            "shop": "bakery"
          },
          "geometry": {
            "type": "Point",
            "coordinates": [
              15.2692932,
              47.4106399
            ]
          }
        },
        {
          "type": "Feature",
          "properties": {
            "id": "1891101573",
            "osm_type": "node",
            "lat": 47.4686625,
            "lon": 15.3427969,
            "name": "Sorger",
            "opening_hours": "Mo-Sa 07:00-18:00",
            "shop": "bakery"
          },
          "geometry": {
            "type": "Point",
            "coordinates": [
              15.3427969,
              47.4686625
            ]
          }
        },
        {
          "type": "Feature",
          "properties": {
            "id": "2386047200",
            "osm_type": "node",
            "lat": 47.4645324,
            "lon": 15.328945,
            "addr:city": "Kapfenberg",
            "addr:housenumber": "2a",
            "addr:postcode": "8605",
            "addr:street": "Hugo-Wolf-Straße",
            "name": "Fuchs",
            "shop": "bakery"
          },
          "geometry": {
            "type": "Point",
            "coordinates": [
              15.328945,
              47.4645324
            ]
          }
        },
        {
          "type": "Feature",
          "properties": {
            "id": "4203628282",
            "osm_type": "node",
            "lat": 47.4458251,
            "lon": 15.2975004,
            "addr:city": "Kapfenberg",
            "addr:country": "AT",
            "addr:housenumber": "63a",
            "addr:postcode": "8605",
            "addr:street": "Wiener Straße",
            "name": "Koini",
            "official_name": "Bäckerei Gerhard Koini Handels GmbH",
            "operator": "Gerhard Koini",
            "phone": "+43-3862-22910",
            "shop": "bakery"
          },
          "geometry": {
            "type": "Point",
            "coordinates": [
              15.2975004,
              47.4458251
            ]
          }
        },
        {
          "type": "Feature",
          "properties": {
            "id": "7729008535",
            "osm_type": "node",
            "lat": 47.5021317,
            "lon": 15.4451546,
            "name": "Felber",
            "shop": "bakery"
          },
          "geometry": {
            "type": "Point",
            "coordinates": [
              15.4451546,
              47.5021317
            ]
          }
        },
        {
          "type": "Feature",
          "properties": {
            "id": "9147926938",
            "osm_type": "node",
            "lat": 47.4092202,
            "lon": 15.2667448,
            "addr:city": "Bruck an der Mur",
            "addr:country": "AT",
            "addr:housenumber": "20a",
            "addr:postcode": "8600",
            "addr:street": "Dr.-Theodor-Körner-Straße",
            "at_bev:addr_date": "2021-04-01",
            "contact:phone": "+43 676 842691520",
            "name": "Bäckerei Fuchs",
            "opening_hours": "Mo-Fr 05:00-19:00; Sa 05:00-12:00",
            "shop": "bakery",
            "website": "http://www.baeckerei-fuchs.at/"
          },
          "geometry": {
            "type": "Point",
            "coordinates": [
              15.2667448,
              47.4092202
            ]
          }
        },
        {
          "type": "Feature",
          "properties": {
            "id": "9380529790",
            "osm_type": "node",
            "lat": 47.4442507,
            "lon": 15.2911614,
            "addr:city": "Kapfenberg",
            "addr:housenumber": "35a",
            "addr:postcode": "8605",
            "addr:street": "Wiener Straße",
            "level": "0",
            "name": "Bäckerei Köck",
            "opening_hours": "Mo-Fr 08:30-18:30; Sa 09:00-18:00",
            "shop": "bakery",
            "wheelchair": "yes"
          },
          "geometry": {
            "type": "Point",
            "coordinates": [
              15.2911614,
              47.4442507
            ]
          }
        },
        {
          "type": "Feature",
          "properties": {
            "id": "10957612514",
            "osm_type": "node",
            "lat": 47.4063691,
            "lon": 15.2711553,
            "addr:city": "Bruck an der Mur",
            "addr:country": "AT",
            "addr:housenumber": "21",
            "addr:postcode": "8600",
            "addr:street": "Leobner Straße",
            "check_date": "2025-06-01",
            "contact:phone": "+43 3862 51959",
            "indoor_seating": "yes",
            "name": "Bäckerei Köck",
            "opening_hours": "06:30-17h",
            "outdoor_seating": "yes",
            "shop": "bakery"
          },
          "geometry": {
            "type": "Point",
            "coordinates": [
              15.2711553,
              47.4063691
            ]
          }
        },
        {
          "type": "Feature",
          "properties": {
            "id": "1234615258",
            "osm_type": "node",
            "lat": 47.6926638,
            "lon": 15.8585025,
            "name": "Bäckerei Gruber",
            "shop": "bakery"
          },
          "geometry": {
            "type": "Point",
            "coordinates": [
              15.8585025,
              47.6926638
            ]
          }
        },
        {
          "type": "Feature",
          "properties": {
            "id": "1363391008",
            "osm_type": "node",
            "lat": 47.449293,
            "lon": 15.8384186,
            "shop": "bakery"
          },
          "geometry": {
            "type": "Point",
            "coordinates": [
              15.8384186,
              47.449293
            ]
          }
        },
        {
          "type": "Feature",
          "properties": {
            "id": "1545947777",
            "osm_type": "node",
            "lat": 47.5438842,
            "lon": 15.5598106,
            "addr:country": "AT",
            "addr:housenumber": "21",
            "addr:postcode": "8670",
            "addr:street": "Grazer Straße",
            "name": "Bäckerei Rothwangl",
            "opening_hours": "Mo-Fr 05:30-12:30, 14:30-18:00; Sa 05:30-12:00",
            "payment:cash": "yes",
            "phone": "+43 3855 2296",
            "shop": "bakery",
            "wheelchair": "no"
          },
          "geometry": {
            "type": "Point",
            "coordinates": [
              15.5598106,
              47.5438842
            ]
          }
        },
        {
          "type": "Feature",
          "properties": {
            "id": "1545947795",
            "osm_type": "node",
            "lat": 47.5443315,
            "lon": 15.5601646,
            "name": "Jäger",
            "shop": "bakery"
          },
          "geometry": {
            "type": "Point",
            "coordinates": [
              15.5601646,
              47.5443315
            ]
          }
        },
        {
          "type": "Feature",
          "properties": {
            "id": "2007769974",
            "osm_type": "node",
            "lat": 47.4093716,
            "lon": 15.72439,
            "addr:housename": "Bäckerei Felber",
            "name": "Bäckerei Felber",
            "shop": "bakery"
          },
          "geometry": {
            "type": "Point",
            "coordinates": [
              15.72439,
              47.4093716
            ]
          }
        },
        {
          "type": "Feature",
          "properties": {
            "id": "4125925997",
            "osm_type": "node",
            "lat": 47.675048,
            "lon": 15.9402577,
            "addr:city": "Gloggnitz",
            "addr:country": "AT",
            "addr:housenumber": "8",
            "addr:postcode": "2640",
            "addr:street": "Wiener Straße",
            "email": "office@baeckerei-koeck.at",
            "name": "Bäckerei Köck",
            "opening_hours": "Mo-Sa 06:00-12:00",
            "phone": "+43 2662 42828",
            "shop": "bakery",
            "website": "https://baeckerei-koeck.at/",
            "wheelchair": "no"
          },
          "geometry": {
            "type": "Point",
            "coordinates": [
              15.9402577,
              47.675048
            ]
          }
        },
        {
          "type": "Feature",
          "properties": {
            "id": "5819088059",
            "osm_type": "node",
            "lat": 47.6063058,
            "lon": 15.6737854,
            "addr:housenumber": "12",
            "addr:street": "Stadtplatz",
            "indoor_seating": "yes",
            "name": "Köck",
            "opening_hours": "Mo-Fr 06:00-18:00; Sa 06:00-17:00; Su 07:00-17:00",
            "outdoor_seating": "no",
            "shop": "bakery",
            "website": "https://www.baeckerei-koeck.at/",
            "wheelchair": "yes"
          },
          "geometry": {
            "type": "Point",
            "coordinates": [
              15.6737854,
              47.6063058
            ]
          }
        },
        {
          "type": "Feature",
          "properties": {
            "id": "6372011621",
            "osm_type": "node",
            "lat": 47.416845,
            "lon": 16.019731,
            "name": "Szambor",
            "shop": "bakery"
          },
          "geometry": {
            "type": "Point",
            "coordinates": [
              16.019731,
              47.416845
            ]
          }
        },
        {
          "type": "Feature",
          "properties": {
            "id": "6410328422",
            "osm_type": "node",
            "lat": 47.6062638,
            "lon": 15.6797022,
            "addr:city": "Mürzzuschlag",
            "addr:country": "AT",
            "addr:housenumber": "88",
            "addr:postcode": "8680",
            "addr:street": "Wiener Straße",
            "contact:phone": "+43 3852 2390",
            "name": "Köck",
            "shop": "bakery",
            "website": "https://www.baeckerei-koeck.at"
          },
          "geometry": {
            "type": "Point",
            "coordinates": [
              15.6797022,
              47.6062638
            ]
          }
        },
        {
          "type": "Feature",
          "properties": {
            "id": "7913488760",
            "osm_type": "node",
            "lat": 47.4066852,
            "lon": 15.8883508,
            "shop": "bakery"
          },
          "geometry": {
            "type": "Point",
            "coordinates": [
              15.8883508,
              47.4066852
            ]
          }
        },
        {
          "type": "Feature",
          "properties": {
            "id": "11117331205",
            "osm_type": "node",
            "lat": 47.4424459,
            "lon": 15.6507678,
            "name": "haider",
            "opening_hours": "Mo, Do, Fr, Sa 08:00-20:00, So 09:00-20:00",
            "shop": "bakery"
          },
          "geometry": {
            "type": "Point",
            "coordinates": [
              15.6507678,
              47.4424459
            ]
          }
        },
        {
          "type": "Feature",
          "properties": {
            "id": "13074476635",
            "osm_type": "node",
            "lat": 47.6076752,
            "lon": 15.6769883,
            "indoor_seating": "yes",
            "name": "Köck",
            "opening_hours": "Mo-Fr 06:15-18:00; Sa 07:00-12:00",
            "phone": "+43 385223909023",
            "shop": "bakery"
          },
          "geometry": {
            "type": "Point",
            "coordinates": [
              15.6769883,
              47.6076752
            ]
          }
        },
        {
          "type": "Feature",
          "properties": {
            "id": "1445697293",
            "osm_type": "node",
            "lat": 47.5231998,
            "lon": 16.1937405,
            "shop": "bakery"
          },
          "geometry": {
            "type": "Point",
            "coordinates": [
              16.1937405,
              47.5231998
            ]
          }
        },
        {
          "type": "Feature",
          "properties": {
            "id": "1992471676",
            "osm_type": "node",
            "lat": 47.4435258,
            "lon": 16.0652677,
            "shop": "bakery"
          },
          "geometry": {
            "type": "Point",
            "coordinates": [
              16.0652677,
              47.4435258
            ]
          }
        },
        {
          "type": "Feature",
          "properties": {
            "id": "2112726207",
            "osm_type": "node",
            "lat": 47.5106316,
            "lon": 16.1343673,
            "name": "Scherz",
            "shop": "bakery"
          },
          "geometry": {
            "type": "Point",
            "coordinates": [
              16.1343673,
              47.5106316
            ]
          }
        },
        {
          "type": "Feature",
          "properties": {
            "id": "8093188369",
            "osm_type": "node",
            "lat": 47.5540708,
            "lon": 16.0904583,
            "addr:city": "Aspang Markt",
            "addr:country": "AT",
            "addr:housenumber": "5",
            "addr:postcode": "2870",
            "addr:street": "Hauptplatz",
            "name": "Koll",
            "opening_hours": "Mo-Fr 06:00-18:00; Sa 06:00-17:00",
            "shop": "bakery"
          },
          "geometry": {
            "type": "Point",
            "coordinates": [
              16.0904583,
              47.5540708
            ]
          }
        }
      ],
      "children": []
    },
    {
      "bbox": {
        "south": 47.36431175,
        "west": 16.2068765,
        "north": 47.694865,
        "east": 17.16058
      },
      "poiCount": 50,
      "leafCount": 50,
      "averagePosition": [
        16.636997904,
        47.605846688
      ],
      "data": [
        {
          "type": "Feature",
          "properties": {
            "id": "598594698",
            "osm_type": "node",
            "lat": 47.5960035,
            "lon": 16.3919398,
            "addr:housenumber": "1",
            "addr:postcode": "7332",
            "addr:street": "Hauptstraße",
            "name": "Cafe-Konditorei-Bäckerei Kern",
            "phone": "+432618 82 21",
            "shop": "bakery"
          },
          "geometry": {
            "type": "Point",
            "coordinates": [
              16.3919398,
              47.5960035
            ]
          }
        },
        {
          "type": "Feature",
          "properties": {
            "id": "1249769965",
            "osm_type": "node",
            "lat": 47.4290466,
            "lon": 16.5285156,
            "name": "Bäckerei Schuh",
            "shop": "bakery",
            "wheelchair": "no"
          },
          "geometry": {
            "type": "Point",
            "coordinates": [
              16.5285156,
              47.4290466
            ]
          }
        },
        {
          "type": "Feature",
          "properties": {
            "id": "1381574143",
            "osm_type": "node",
            "lat": 47.4055221,
            "lon": 16.255899,
            "addr:city": "Bernstein",
            "addr:housenumber": "1",
            "addr:postcode": "7434",
            "addr:street": "Hauptstraße",
            "breakfast": "yes",
            "cafe": "yes",
            "indoor_seating": "yes",
            "name": "Otto Koll",
            "opening_hours": "Mo-Fr 06:00-18:00 Sa 06:00-17:00",
            "operator": "Koll GmbH",
            "organic": "yes",
            "outdoor_seating": "yes",
            "payment:cash": "yes",
            "payment:credit_cards": "yes",
            "payment:debit_cards": "yes",
            "phone": "+43 3354 6672",
            "shop": "bakery",
            "snack": "yes",
            "website": "https://www.baeckerei-koll.at/"
          },
          "geometry": {
            "type": "Point",
            "coordinates": [
              16.255899,
              47.4055221
            ]
          }
        },
        {
          "type": "Feature",
          "properties": {
            "id": "2167490071",
            "osm_type": "node",
            "lat": 47.407271,
            "lon": 16.4180022,
            "addr:city": "Lockenhaus",
            "addr:housenumber": "12",
            "addr:postcode": "7442",
            "addr:street": "Hauptstraße",
            "opening_hours:url": "https://www.baeckerei-koll.at/filialen/lockenhaus",
            "shop": "bakery"
          },
          "geometry": {
            "type": "Point",
            "coordinates": [
              16.4180022,
              47.407271
            ]
          }
        },
        {
          "type": "Feature",
          "properties": {
            "id": "2606744941",
            "osm_type": "node",
            "lat": 47.5892218,
            "lon": 16.4651658,
            "addr:city": "Lackenbach",
            "addr:country": "AT",
            "addr:housenumber": "5",
            "addr:postcode": "7322",
            "addr:street": "Hauptplatz",
            "name": "Warda",
            "operator": "Viktor Warda",
            "phone": "+432619 8527",
            "shop": "bakery"
          },
          "geometry": {
            "type": "Point",
            "coordinates": [
              16.4651658,
              47.5892218
            ]
          }
        },
        {
          "type": "Feature",
          "properties": {
            "id": "3520238908",
            "osm_type": "node",
            "lat": 47.4480379,
            "lon": 16.4192519,
            "addr:city": "Piringsdorf",
            "addr:country": "AT",
            "addr:housenumber": "45",
            "addr:postcode": "7373",
            "addr:street": "Bundesstraße",
            "atm": "yes",
            "contact:phone": "+43 2616 8740",
            "name": "Backstube Hauser",
            "opening_hours": "Mo, Tu, We, Fr 04:30-12:00, 15:00-18:00; Th 04:30-12:00; Sa 05:30-12:00",
            "shop": "bakery",
            "website": "https://www.traditionsbaeckerei-hauser.at/kontakt"
          },
          "geometry": {
            "type": "Point",
            "coordinates": [
              16.4192519,
              47.4480379
            ]
          }
        },
        {
          "type": "Feature",
          "properties": {
            "id": "4276207269",
            "osm_type": "node",
            "lat": 47.4688698,
            "lon": 16.4932454,
            "addr:housenumber": "94",
            "addr:postcode": "7453",
            "addr:street": "Untere Hauptstraße",
            "name": "Thurner Beugl",
            "shop": "bakery"
          },
          "geometry": {
            "type": "Point",
            "coordinates": [
              16.4932454,
              47.4688698
            ]
          }
        },
        {
          "type": "Feature",
          "properties": {
            "id": "6401964320",
            "osm_type": "node",
            "lat": 47.5809605,
            "lon": 16.4258255,
            "addr:city": "Weppersdorf",
            "addr:country": "AT",
            "addr:housenumber": "40",
            "addr:postcode": "7331",
            "addr:street": "Hauptstraße",
            "email": "office@gradwohl.info",
            "name": "Gradwohl",
            "opening_hours": "Mo-Th 06:00-12:00,14:00-18:00; Fr 06:00-18:00; Sa 06:00-12:00; PH,Su 06:30-10:30",
            "operator": "Bio Vollwertbäckerei Gradwohl GmbH",
            "phone": "+43 2618 27179",
            "shop": "bakery",
            "website": "https://www.gradwohl.info/kontakt/filiale-weppersdorf/",
            "wheelchair": "no",
            "wheelchair:description": "4 Stufen am Eingang"
          },
          "geometry": {
            "type": "Point",
            "coordinates": [
              16.4258255,
              47.5809605
            ]
          }
        },
        {
          "type": "Feature",
          "properties": {
            "id": "13088746720",
            "osm_type": "node",
            "lat": 47.6645941,
            "lon": 16.2121212,
            "addr:city": "Bromberg",
            "addr:housenumber": "13",
            "addr:postcode": "2833",
            "addr:street": "Markt",
            "contact:email": "office@baeckerei-bernhard.at",
            "contact:fax": "+43 2629 8223 15",
            "contact:phone": "+43 2629 8223",
            "name": "Bäckerei Bernhard",
            "opening_hours": "Mo-Fr 06:00-18:00; Sa 06:00-12:00",
            "operator": "Birnbauer OG",
            "shop": "bakery"
          },
          "geometry": {
            "type": "Point",
            "coordinates": [
              16.2121212,
              47.6645941
            ]
          }
        },
        {
          "type": "Feature",
          "properties": {
            "id": "1397547969",
            "osm_type": "node",
            "lat": 47.6804089,
            "lon": 16.5837193,
            "name": "Peresztegi",
            "shop": "bakery"
          },
          "geometry": {
            "type": "Point",
            "coordinates": [
              16.5837193,
              47.6804089
            ]
          }
        },
        {
          "type": "Feature",
          "properties": {
            "id": "1406976404",
            "osm_type": "node",
            "lat": 47.6823201,
            "lon": 16.6097609,
            "addr:city": "Sopron",
            "addr:housenumber": "156",
            "addr:postcode": "9400",
            "addr:street": "Balfi út",
            "name": "Anger Büfé",
            "opening_hours": "Mo-Sa 06:00-21:00; Su 08:00-21:00",
            "shop": "bakery",
            "toilets:wheelchair": "no",
            "wheelchair": "limited"
          },
          "geometry": {
            "type": "Point",
            "coordinates": [
              16.6097609,
              47.6823201
            ]
          }
        },
        {
          "type": "Feature",
          "properties": {
            "id": "1417794043",
            "osm_type": "node",
            "lat": 47.3880283,
            "lon": 16.5420225,
            "name": "Zalaco pékség, tejivó",
            "shop": "bakery"
          },
          "geometry": {
            "type": "Point",
            "coordinates": [
              16.5420225,
              47.3880283
            ]
          }
        },
        {
          "type": "Feature",
          "properties": {
            "id": "1417794044",
            "osm_type": "node",
            "lat": 47.3874121,
            "lon": 16.5418237,
            "name": "Sütöde",
            "operator": "Csepregi Pékség",
            "shop": "bakery"
          },
          "geometry": {
            "type": "Point",
            "coordinates": [
              16.5418237,
              47.3874121
            ]
          }
        },
        {
          "type": "Feature",
          "properties": {
            "id": "1448679483",
            "osm_type": "node",
            "lat": 47.6870158,
            "lon": 16.5920724,
            "name": "Royal Croissant",
            "shop": "bakery"
          },
          "geometry": {
            "type": "Point",
            "coordinates": [
              16.5920724,
              47.6870158
            ]
          }
        },
        {
          "type": "Feature",
          "properties": {
            "id": "1448843933",
            "osm_type": "node",
            "lat": 47.6872247,
            "lon": 16.5908453,
            "name": "Friss pékség",
            "opening_hours": "Mo-Sa 04:30-20:00; Su 06:00-20:00",
            "shop": "bakery"
          },
          "geometry": {
            "type": "Point",
            "coordinates": [
              16.5908453,
              47.6872247
            ]
          }
        },
        {
          "type": "Feature",
          "properties": {
            "id": "1520139295",
            "osm_type": "node",
            "lat": 47.6846525,
            "lon": 16.5791979,
            "name": "Ágoaton kézműves pékség",
            "opening_hours": "Mo-Fr 05:00-17:00",
            "shop": "bakery"
          },
          "geometry": {
            "type": "Point",
            "coordinates": [
              16.5791979,
              47.6846525
            ]
          }
        },
        {
          "type": "Feature",
          "properties": {
            "id": "1576787820",
            "osm_type": "node",
            "lat": 47.6887276,
            "lon": 16.5859256,
            "addr:city": "Sopron",
            "addr:housenumber": "9",
            "addr:postcode": "9400",
            "addr:street": "Dózsa György utca",
            "email": "info@lipotipekseg.hu",
            "name": "Lipóti",
            "opening_hours": "Mo-Fr 07:00-15:00; Sa 07:00-12:00",
            "phone": "+36 30 983 0245",
            "shop": "bakery",
            "website": "https://lipotipekseg.hu/"
          },
          "geometry": {
            "type": "Point",
            "coordinates": [
              16.5859256,
              47.6887276
            ]
          }
        },
        {
          "type": "Feature",
          "properties": {
            "id": "1648906148",
            "osm_type": "node",
            "lat": 47.6788876,
            "lon": 16.5833052,
            "addr:city": "Sopron",
            "addr:housenumber": "18",
            "addr:postcode": "9400",
            "addr:street": "Béke út",
            "email": "info@lipotipekseg.hu",
            "name": "Lipóti",
            "opening_hours": "Mo-Fr 05:30-17:45; Sa 07:00-12:30",
            "phone": "+36 30 478 1578",
            "shop": "bakery",
            "website": "https://lipotipekseg.hu/"
          },
          "geometry": {
            "type": "Point",
            "coordinates": [
              16.5833052,
              47.6788876
            ]
          }
        },
        {
          "type": "Feature",
          "properties": {
            "id": "2191071446",
            "osm_type": "node",
            "lat": 47.6013156,
            "lon": 16.7405522,
            "name": "Peresztegi Pékség",
            "shop": "bakery"
          },
          "geometry": {
            "type": "Point",
            "coordinates": [
              16.7405522,
              47.6013156
            ]
          }
        },
        {
          "type": "Feature",
          "properties": {
            "id": "2313256807",
            "osm_type": "node",
            "lat": 47.6193057,
            "lon": 16.8643459,
            "addr:city": "Fertőd",
            "addr:housenumber": "1",
            "addr:postcode": "9431",
            "addr:street": "Fő út",
            "name": "Lena Pékség",
            "shop": "bakery"
          },
          "geometry": {
            "type": "Point",
            "coordinates": [
              16.8643459,
              47.6193057
            ]
          }
        },
        {
          "type": "Feature",
          "properties": {
            "id": "2438510279",
            "osm_type": "node",
            "lat": 47.6857597,
            "lon": 16.5887019,
            "addr:city": "Sopron",
            "addr:housenumber": "25",
            "addr:postcode": "9400",
            "addr:street": "Színház utca",
            "name": "Gellért",
            "opening_hours": "Mo-Fr 06:00-17:00",
            "shop": "bakery",
            "takeaway": "only"
          },
          "geometry": {
            "type": "Point",
            "coordinates": [
              16.5887019,
              47.6857597
            ]
          }
        },
        {
          "type": "Feature",
          "properties": {
            "id": "2475202177",
            "osm_type": "node",
            "lat": 47.6783042,
            "lon": 16.5877942,
            "name": "Niki pékség",
            "phone": "+36 30 495 1458",
            "shop": "bakery"
          },
          "geometry": {
            "type": "Point",
            "coordinates": [
              16.5877942,
              47.6783042
            ]
          }
        },
        {
          "type": "Feature",
          "properties": {
            "id": "3035581576",
            "osm_type": "node",
            "lat": 47.6840718,
            "lon": 16.5927238,
            "addr:city": "Sopron",
            "addr:housenumber": "71",
            "addr:postcode": "9400",
            "addr:street": "Várkerület",
            "email": "info@lipotipekseg.hu",
            "name": "Vekni Pékség",
            "opening_hours": "Mo-Fr 06:00-19:30; Sa 06:00-16:00",
            "phone": "+36 99 311 300",
            "shop": "bakery",
            "website": "https://lipotipekseg.hu/"
          },
          "geometry": {
            "type": "Point",
            "coordinates": [
              16.5927238,
              47.6840718
            ]
          }
        },
        {
          "type": "Feature",
          "properties": {
            "id": "3054316302",
            "osm_type": "node",
            "lat": 47.6788457,
            "lon": 16.5927951,
            "addr:city": "Sopron",
            "addr:housenumber": "5",
            "addr:postcode": "9400",
            "addr:street": "Király Jenő utca",
            "name": "Lipóti",
            "opening_hours": "Mo-Fr 06:00-19:30; Sa 06:00-14:00",
            "phone": "+36 30 997 1498",
            "shop": "bakery"
          },
          "geometry": {
            "type": "Point",
            "coordinates": [
              16.5927951,
              47.6788457
            ]
          }
        },
        {
          "type": "Feature",
          "properties": {
            "id": "3067770423",
            "osm_type": "node",
            "lat": 47.677279,
            "lon": 16.5849049,
            "addr:city": "Sopron",
            "addr:housenumber": "1",
            "addr:postcode": "9400",
            "addr:street": "Felsőbüki Nagy Pál utca",
            "email": "fahazvendeglo@gmail.com",
            "food": "yes",
            "name": "Faház",
            "opening_hours": "Mo-Th,Su 12:00-22:00; Fr-Sa 12:00-23:00",
            "phone": "+36 20 968 0906",
            "shop": "bakery"
          },
          "geometry": {
            "type": "Point",
            "coordinates": [
              16.5849049,
              47.677279
            ]
          }
        },
        {
          "type": "Feature",
          "properties": {
            "id": "3087375657",
            "osm_type": "node",
            "lat": 47.6912076,
            "lon": 16.582161,
            "name": "Luan Berisha",
            "phone": "+36 30 867 5973",
            "shop": "bakery"
          },
          "geometry": {
            "type": "Point",
            "coordinates": [
              16.582161,
              47.6912076
            ]
          }
        },
        {
          "type": "Feature",
          "properties": {
            "id": "3238618206",
            "osm_type": "node",
            "lat": 47.4017853,
            "lon": 16.7068202,
            "check_date:opening_hours": "2020-08-15",
            "name": "Zalaco",
            "opening_hours": "Mo-Fr 06:00-17:00; Sa 06:00-12:00; Su,PH off",
            "shop": "bakery",
            "source:opening_hours": "entrance",
            "wheelchair": "no"
          },
          "geometry": {
            "type": "Point",
            "coordinates": [
              16.7068202,
              47.4017853
            ]
          }
        },
        {
          "type": "Feature",
          "properties": {
            "id": "3466253172",
            "osm_type": "node",
            "lat": 47.6759018,
            "lon": 16.952642,
            "name": "Ambrózia pékség",
            "shop": "bakery",
            "source": "turistautak.hu",
            "source:date": "2012-02-16",
            "url": "http://turistautak.hu/poi.php?id=133813"
          },
          "geometry": {
            "type": "Point",
            "coordinates": [
              16.952642,
              47.6759018
            ]
          }
        },
        {
          "type": "Feature",
          "properties": {
            "id": "3466253910",
            "osm_type": "node",
            "lat": 47.5802695,
            "lon": 16.8782334,
            "name": "Horváth pékség",
            "shop": "bakery",
            "source": "turistautak.hu",
            "source:date": "2011-08-25",
            "url": "http://turistautak.hu/poi.php?id=123632"
          },
          "geometry": {
            "type": "Point",
            "coordinates": [
              16.8782334,
              47.5802695
            ]
          }
        },
        {
          "type": "Feature",
          "properties": {
            "id": "3466253934",
            "osm_type": "node",
            "lat": 47.5874527,
            "lon": 16.8848508,
            "name": "Alti pékség",
            "opening_hours:signed": "no",
            "shop": "bakery",
            "source": "turistautak.hu",
            "source:date": "2013-01-20",
            "url": "http://turistautak.hu/poi.php?id=105179"
          },
          "geometry": {
            "type": "Point",
            "coordinates": [
              16.8848508,
              47.5874527
            ]
          }
        },
        {
          "type": "Feature",
          "properties": {
            "id": "3466253938",
            "osm_type": "node",
            "lat": 47.5925792,
            "lon": 16.8663426,
            "name": "Marton Pékség",
            "shop": "bakery",
            "source": "turistautak.hu",
            "source:date": "2011-01-08",
            "url": "http://turistautak.hu/poi.php?id=105192"
          },
          "geometry": {
            "type": "Point",
            "coordinates": [
              16.8663426,
              47.5925792
            ]
          }
        },
        {
          "type": "Feature",
          "properties": {
            "id": "3496854684",
            "osm_type": "node",
            "lat": 47.5923361,
            "lon": 17.0259872,
            "name": "Peresztegi pékség",
            "name:hu": "Peresztegi pékség",
            "shop": "bakery"
          },
          "geometry": {
            "type": "Point",
            "coordinates": [
              17.0259872,
              47.5923361
            ]
          }
        },
        {
          "type": "Feature",
          "properties": {
            "id": "4294277101",
            "osm_type": "node",
            "lat": 47.5413532,
            "lon": 16.552472,
            "name": "Bäckerei Varga",
            "shop": "bakery"
          },
          "geometry": {
            "type": "Point",
            "coordinates": [
              16.552472,
              47.5413532
            ]
          }
        },
        {
          "type": "Feature",
          "properties": {
            "id": "4548988332",
            "osm_type": "node",
            "lat": 47.6831069,
            "lon": 16.5892776,
            "name": "Panino tejivó",
            "shop": "bakery"
          },
          "geometry": {
            "type": "Point",
            "coordinates": [
              16.5892776,
              47.6831069
            ]
          }
        },
        {
          "type": "Feature",
          "properties": {
            "id": "4549030583",
            "osm_type": "node",
            "lat": 47.6798843,
            "lon": 16.5884176,
            "brand": "Lipóti Pékség",
            "name": "Lipóti pékség",
            "opening_hours": "Mo-Fr 04:30-17:00; Sa 06:00-11:00",
            "shop": "bakery"
          },
          "geometry": {
            "type": "Point",
            "coordinates": [
              16.5884176,
              47.6798843
            ]
          }
        },
        {
          "type": "Feature",
          "properties": {
            "id": "4558359043",
            "osm_type": "node",
            "lat": 47.6806525,
            "lon": 16.5892676,
            "name": "Pek-snack",
            "shop": "bakery"
          },
          "geometry": {
            "type": "Point",
            "coordinates": [
              16.5892676,
              47.6806525
            ]
          }
        },
        {
          "type": "Feature",
          "properties": {
            "id": "4558359047",
            "osm_type": "node",
            "lat": 47.6870877,
            "lon": 16.5890474,
            "name": "Módos",
            "shop": "bakery"
          },
          "geometry": {
            "type": "Point",
            "coordinates": [
              16.5890474,
              47.6870877
            ]
          }
        },
        {
          "type": "Feature",
          "properties": {
            "id": "4933475772",
            "osm_type": "node",
            "lat": 47.6748389,
            "lon": 16.5944761,
            "name": "Zalaco",
            "shop": "bakery",
            "source": "route4u",
            "wheelchair": "no"
          },
          "geometry": {
            "type": "Point",
            "coordinates": [
              16.5944761,
              47.6748389
            ]
          }
        },
        {
          "type": "Feature",
          "properties": {
            "id": "6101403915",
            "osm_type": "node",
            "lat": 47.6844408,
            "lon": 16.600035,
            "addr:city": "Sopron",
            "addr:housenumber": "24",
            "addr:postcode": "9400",
            "addr:street": "Híd utca",
            "name": "Pek-Snack",
            "opening_hours": "Mo-Fr 04:00-11:00; Sa 05:00-11:00",
            "shop": "bakery"
          },
          "geometry": {
            "type": "Point",
            "coordinates": [
              16.600035,
              47.6844408
            ]
          }
        },
        {
          "type": "Feature",
          "properties": {
            "id": "6409468783",
            "osm_type": "node",
            "lat": 47.6823193,
            "lon": 16.5877329,
            "brand": "Fornetti",
            "brand:wikidata": "Q1003020",
            "name": "Fornetti",
            "shop": "bakery"
          },
          "geometry": {
            "type": "Point",
            "coordinates": [
              16.5877329,
              47.6823193
            ]
          }
        },
        {
          "type": "Feature",
          "properties": {
            "id": "6715875686",
            "osm_type": "node",
            "lat": 47.6136227,
            "lon": 16.8332047,
            "addr:city": "Fertőszéplak",
            "addr:postcode": "9436",
            "addr:street": "Hegy utca",
            "fixme": "Működik ez még?",
            "name": "Pék Gyuszi",
            "shop": "bakery"
          },
          "geometry": {
            "type": "Point",
            "coordinates": [
              16.8332047,
              47.6136227
            ]
          }
        },
        {
          "type": "Feature",
          "properties": {
            "id": "7314436341",
            "osm_type": "node",
            "lat": 47.620148,
            "lon": 16.865481,
            "addr:city": "Fertőd",
            "addr:housenumber": "2",
            "addr:postcode": "9431",
            "addr:street": "Fő út",
            "brand": "Lipóti Pékség",
            "brand:wikidata": "Q128245525",
            "name": "Lipóti Pékség",
            "phone": "+36 99 200 204",
            "shop": "bakery"
          },
          "geometry": {
            "type": "Point",
            "coordinates": [
              16.865481,
              47.620148
            ]
          }
        },
        {
          "type": "Feature",
          "properties": {
            "id": "7476320827",
            "osm_type": "node",
            "lat": 47.3860405,
            "lon": 16.5438866,
            "name": "Bleona Pékség",
            "shop": "bakery"
          },
          "geometry": {
            "type": "Point",
            "coordinates": [
              16.5438866,
              47.3860405
            ]
          }
        },
        {
          "type": "Feature",
          "properties": {
            "id": "8354177644",
            "osm_type": "node",
            "lat": 47.6208132,
            "lon": 16.7933214,
            "addr:city": "Hegykő",
            "addr:postcode": "9437",
            "addr:street": "Szent Mihály utca",
            "shop": "bakery"
          },
          "geometry": {
            "type": "Point",
            "coordinates": [
              16.7933214,
              47.6208132
            ]
          }
        },
        {
          "type": "Feature",
          "properties": {
            "id": "9641109888",
            "osm_type": "node",
            "lat": 47.6842601,
            "lon": 16.6017705,
            "addr:city": "Sopron",
            "addr:postcode": "9400",
            "addr:street": "Ruszti utca",
            "name": "Módos",
            "shop": "bakery"
          },
          "geometry": {
            "type": "Point",
            "coordinates": [
              16.6017705,
              47.6842601
            ]
          }
        },
        {
          "type": "Feature",
          "properties": {
            "id": "10781606805",
            "osm_type": "node",
            "lat": 47.6889387,
            "lon": 16.585603,
            "addr:city": "Sopron",
            "addr:housenumber": "11",
            "addr:postcode": "9400",
            "addr:street": "Ferenczy János utca",
            "brand": "Fornetti",
            "brand:wikidata": "Q1003020",
            "name": "Fornetti",
            "name:hu": "\"4\" Sajtos Pékség / Fornetti Pékség",
            "shop": "bakery"
          },
          "geometry": {
            "type": "Point",
            "coordinates": [
              16.585603,
              47.6889387
            ]
          }
        },
        {
          "type": "Feature",
          "properties": {
            "id": "11871443581",
            "osm_type": "node",
            "lat": 47.5933139,
            "lon": 17.0245355,
            "name": "Toni",
            "shop": "bakery"
          },
          "geometry": {
            "type": "Point",
            "coordinates": [
              17.0245355,
              47.5933139
            ]
          }
        },
        {
          "type": "Feature",
          "properties": {
            "id": "11871443588",
            "osm_type": "node",
            "lat": 47.5932832,
            "lon": 17.0250774,
            "brand": "Lipóti Pékség",
            "name": "Lipóti Pékség",
            "shop": "bakery"
          },
          "geometry": {
            "type": "Point",
            "coordinates": [
              17.0250774,
              47.5932832
            ]
          }
        },
        {
          "type": "Feature",
          "properties": {
            "id": "11871443593",
            "osm_type": "node",
            "lat": 47.5930806,
            "lon": 17.0257634,
            "name": "Zalaco",
            "shop": "bakery"
          },
          "geometry": {
            "type": "Point",
            "coordinates": [
              17.0257634,
              47.5930806
            ]
          }
        },
        {
          "type": "Feature",
          "properties": {
            "id": "12207130700",
            "osm_type": "node",
            "lat": 47.6845311,
            "lon": 16.5930311,
            "check_date": "2024-09-28",
            "name": "Vekni",
            "shop": "bakery",
            "wheelchair": "no"
          },
          "geometry": {
            "type": "Point",
            "coordinates": [
              16.5930311,
              47.6845311
            ]
          }
        }
      ],
      "children": []
    }
  ]
}