{
  "bbox": {
    "south": 48.355971499999995,
    "west": 13.345766,
    "north": 49.017078,
    "east": 15.253173
  },
  "poiCount": 118,
  "leafCount": 0,
  "averagePosition": [
    14.152039556779663,
    48.769180344915256
  ],
  "data": [],
  "children": [
    {
      "bbox": {
        "south": 48.355971499999995,
        "west": 13.345766,
        "north": 48.68652475,
        "east": 14.2994695
      },
      "poiCount": 37,
      "leafCount": 37,
      "averagePosition": [
        13.61270624864865,
        48.559883694594596
      ],
      "data": [
        {
          "type": "Feature",
          "properties": {
            "id": "1546433815",
            "osm_type": "node",
            "lat": 48.3717982,
            "lon": 13.5767906,
            "amenity": "pharmacy",
            "healthcare": "pharmacy",
            "name": "St. Michael-Apotheke"
          },
          "geometry": {
            "type": "Point",
            "coordinates": [
              13.5767906,
              48.3717982
            ]
          }
        },
        {
          "type": "Feature",
          "properties": {
            "id": "8808957069",
            "osm_type": "node",
            "lat": 48.3589827,
            "lon": 14.1381934,
            "amenity": "pharmacy",
            "building": "yes",
            "dispensing": "yes",
            "name": "Apotheke Walding",
            "opening_hours": "Mo-Fr 08:00-12:00, 14:00-18:00; Sa 08:00-12:00"
          },
          "geometry": {
            "type": "Point",
            "coordinates": [
              14.1381934,
              48.3589827
            ]
          }
        },
        {
          "type": "Feature",
          "properties": {
            "id": "293023295",
            "osm_type": "node",
            "lat": 48.5723441,
            "lon": 13.456346,
            "addr:city": "Passau",
            "addr:country": "DE",
            "addr:housenumber": "1",
            "addr:postcode": "94032",
            "addr:street": "Nibelungenplatz",
            "amenity": "pharmacy",
            "check_date": "2024-02-27",
            "healthcare": "pharmacy",
            "level": "0",
            "name": "Nibelungen-Apotheke",
            "opening_hours": "Mo-Fr 08:00-19:00; Sa 08:00-14:00",
            "operator": "Sigrun Weidenbeck",
            "phone": "+49 851 72302",
            "website": "https://www.nibelungen-apotheke-passau-app.de/",
            "wheelchair": "yes"
          },
          "geometry": {
            "type": "Point",
            "coordinates": [
              13.456346,
              48.5723441
            ]
          }
        },
        {
          "type": "Feature",
          "properties": {
            "id": "297616861",
            "osm_type": "node",
            "lat": 48.5729438,
            "lon": 13.4565031,
            "addr:city": "Passau",
            "addr:country": "DE",
            "addr:housenumber": "1",
            "addr:postcode": "94032",
            "addr:street": "Bahnhofstraße",
            "amenity": "pharmacy",
            "brand": "Guten Tag Apotheke",
            "contact:phone": "+49 851 966233-0",
            "healthcare": "pharmacy",
            "level": "1",
            "name": "Apotheke Stadtgalerie",
            "opening_hours": "Mo-Sa 08:30-20:00",
            "operator": "Daniela Streit",
            "website": "https://www.apotheke-stadtgalerie.de/",
            "wheelchair": "yes"
          },
          "geometry": {
            "type": "Point",
            "coordinates": [
              13.4565031,
              48.5729438
            ]
          }
        },
        {
          "type": "Feature",
          "properties": {
            "id": "297819052",
            "osm_type": "node",
            "lat": 48.574332,
            "lon": 13.4554864,
            "amenity": "pharmacy",
            "healthcare": "pharmacy",
            "name": "Engel-Apotheke",
            "opening_hours": "Mo-Fr 08:00-18:15;Sa 09:00-16:00",
            "website": "https://www.engel-apotheke-passau.de/",
            "wheelchair": "yes"
          },
          "geometry": {
            "type": "Point",
            "coordinates": [
              13.4554864,
              48.574332
            ]
          }
        },
        {
          "type": "Feature",
          "properties": {
            "id": "297819053",
            "osm_type": "node",
            "lat": 48.573983,
            "lon": 13.4575649,
            "addr:city": "Passau",
            "addr:country": "DE",
            "addr:postcode": "94032",
            "amenity": "pharmacy",
            "contact:phone": "+49 851 36133",
            "healthcare": "pharmacy",
            "name": "Wittelsbacher Apotheke",
            "opening_hours": "Mo-Fr 08:00-18:30; Sa 09:30-14:00",
            "website": "https://www.apotheke-passau.de/",
            "wheelchair": "yes"
          },
          "geometry": {
            "type": "Point",
            "coordinates": [
              13.4575649,
              48.573983
            ]
          }
        },
        {
          "type": "Feature",
          "properties": {
            "id": "297966291",
            "osm_type": "node",
            "lat": 48.5744152,
            "lon": 13.4676669,
            "addr:city": "Passau",
            "addr:country": "DE",
            "addr:housenumber": "12",
            "addr:postcode": "94032",
            "addr:street": "Residenzplatz",
            "amenity": "pharmacy",
            "check_date": "2024-07-21",
            "healthcare": "pharmacy",
            "name": "Hofapotheke zum schwarzen Adler",
            "opening_hours": "Mo-Fr 08:00-18:00; Sa 08:00-12:30",
            "phone": "+49 851 2408",
            "website": "https://www.hofapotheke-passau.de/",
            "wheelchair": "no",
            "wheelchair:description:de": "Stufen im Eingangsbereich"
          },
          "geometry": {
            "type": "Point",
            "coordinates": [
              13.4676669,
              48.5744152
            ]
          }
        },
        {
          "type": "Feature",
          "properties": {
            "id": "300822199",
            "osm_type": "node",
            "lat": 48.5628346,
            "lon": 13.4168547,
            "amenity": "pharmacy",
            "dispensing": "yes",
            "name": "St.-Peter-Apotheke",
            "wheelchair": "yes"
          },
          "geometry": {
            "type": "Point",
            "coordinates": [
              13.4168547,
              48.5628346
            ]
          }
        },
        {
          "type": "Feature",
          "properties": {
            "id": "334319438",
            "osm_type": "node",
            "lat": 48.5730316,
            "lon": 13.4517031,
            "addr:city": "Passau",
            "addr:country": "DE",
            "addr:housenumber": "13a",
            "addr:postcode": "94032",
            "addr:street": "Grünaustraße",
            "amenity": "pharmacy",
            "check_date": "2024-06-12",
            "healthcare": "pharmacy",
            "name": "Bavaria Apotheke",
            "opening_hours": "Mo 08:00-18:00; Tu 08:00-18:30; We 08:00-18:00; Th 08:00-18:30; Fr 08:00-18:00; Sa 09:00-13:00",
            "website": "http://www.bavaria-apotheke-passau.de",
            "wheelchair": "limited"
          },
          "geometry": {
            "type": "Point",
            "coordinates": [
              13.4517031,
              48.5730316
            ]
          }
        },
        {
          "type": "Feature",
          "properties": {
            "id": "447877472",
            "osm_type": "node",
            "lat": 48.616383,
            "lon": 13.4824824,
            "amenity": "pharmacy",
            "dispensing": "yes",
            "name": "Sonnen-Apotheke",
            "wheelchair": "limited"
          },
          "geometry": {
            "type": "Point",
            "coordinates": [
              13.4824824,
              48.616383
            ]
          }
        },
        {
          "type": "Feature",
          "properties": {
            "id": "1387761114",
            "osm_type": "node",
            "lat": 48.5742143,
            "lon": 13.4587509,
            "addr:city": "Passau",
            "addr:country": "DE",
            "addr:housenumber": "18",
            "addr:postcode": "94032",
            "addr:street": "Ludwigstraße",
            "amenity": "pharmacy",
            "check_date": "2023-08-25",
            "dispensing": "yes",
            "healthcare": "pharmacy",
            "name": "Egger-Apotheke",
            "opening_hours": "Mo-Fr 08:00-18:00; Sa 09:00-14:00",
            "phone": "+49 851 9666890",
            "website": "http://egger-apotheke-passau.de/",
            "wheelchair": "yes"
          },
          "geometry": {
            "type": "Point",
            "coordinates": [
              13.4587509,
              48.5742143
            ]
          }
        },
        {
          "type": "Feature",
          "properties": {
            "id": "1803939890",
            "osm_type": "node",
            "lat": 48.4550852,
            "lon": 13.4389321,
            "amenity": "pharmacy",
            "name": "Delphin Apotheke",
            "wheelchair": "yes"
          },
          "geometry": {
            "type": "Point",
            "coordinates": [
              13.4389321,
              48.4550852
            ]
          }
        },
        {
          "type": "Feature",
          "properties": {
            "id": "1920671424",
            "osm_type": "node",
            "lat": 48.6240893,
            "lon": 13.3991453,
            "addr:city": "Tiefenbach",
            "addr:country": "DE",
            "addr:housenumber": "7",
            "addr:postcode": "94113",
            "addr:street": "Weideneckerstraße",
            "amenity": "pharmacy",
            "contact:phone": "+49 8509 93233",
            "healthcare": "pharmacy",
            "name": "Apotheke am Markt",
            "operator": "Anton Obermayer"
          },
          "geometry": {
            "type": "Point",
            "coordinates": [
              13.3991453,
              48.6240893
            ]
          }
        },
        {
          "type": "Feature",
          "properties": {
            "id": "2058713936",
            "osm_type": "node",
            "lat": 48.4040404,
            "lon": 13.3897656,
            "amenity": "pharmacy",
            "name": "St. Gallus Apotheke"
          },
          "geometry": {
            "type": "Point",
            "coordinates": [
              13.3897656,
              48.4040404
            ]
          }
        },
        {
          "type": "Feature",
          "properties": {
            "id": "2503250193",
            "osm_type": "node",
            "lat": 48.584345,
            "lon": 13.4824699,
            "addr:city": "Passau",
            "addr:country": "DE",
            "addr:housenumber": "4",
            "addr:postcode": "94034",
            "addr:street": "Prinz-Eugen-Straße",
            "addr:suburb": "Grubweg",
            "amenity": "pharmacy",
            "healthcare": "pharmacy",
            "name": "Andreas Apotheke",
            "opening_hours": "Mo-Fr 08:00-18:30; Sa 08:00-13:00; Su,PH off",
            "operator": "Mehdi Nategh-Sharif",
            "payment:american_express": "no",
            "payment:cash": "yes",
            "payment:contactless": "yes",
            "payment:credit_cards": "yes",
            "payment:debit_cards": "yes",
            "payment:girocard": "yes",
            "payment:maestro": "yes",
            "payment:mastercard": "yes",
            "payment:v_pay": "yes",
            "payment:visa": "yes",
            "phone": "+49 851 42900",
            "source": "http://www.gelbeseiten.de/apotheke/passau"
          },
          "geometry": {
            "type": "Point",
            "coordinates": [
              13.4824699,
              48.584345
            ]
          }
        },
        {
          "type": "Feature",
          "properties": {
            "id": "3002588682",
            "osm_type": "node",
            "lat": 48.5749474,
            "lon": 13.4028669,
            "amenity": "pharmacy",
            "healthcare": "pharmacy",
            "name": "Pazzawa-Apotheke",
            "opening_hours": "Mo-Sa 07:00-20:00",
            "source": "knowledge",
            "wheelchair": "yes"
          },
          "geometry": {
            "type": "Point",
            "coordinates": [
              13.4028669,
              48.5749474
            ]
          }
        },
        {
          "type": "Feature",
          "properties": {
            "id": "3206153902",
            "osm_type": "node",
            "lat": 48.5709414,
            "lon": 13.4784991,
            "amenity": "pharmacy",
            "healthcare": "pharmacy",
            "name": "Severin-Apotheke",
            "opening_hours": "Mo-Fr 08:30-18:00; Sa 08:30-12:00",
            "website": "https://www.severin-apotheke-passau.de/",
            "wheelchair": "yes"
          },
          "geometry": {
            "type": "Point",
            "coordinates": [
              13.4784991,
              48.5709414
            ]
          }
        },
        {
          "type": "Feature",
          "properties": {
            "id": "3228638260",
            "osm_type": "node",
            "lat": 48.5706416,
            "lon": 13.4230279,
            "addr:postcode": "94032",
            "addr:suburb": "Haidenhof",
            "amenity": "pharmacy",
            "check_date": "2024-10-27",
            "contact:phone": "+49 851 51084",
            "dispensing": "yes",
            "name": "Apotheke im PaWo-Center"
          },
          "geometry": {
            "type": "Point",
            "coordinates": [
              13.4230279,
              48.5706416
            ]
          }
        },
        {
          "type": "Feature",
          "properties": {
            "id": "3560306795",
            "osm_type": "node",
            "lat": 48.6521683,
            "lon": 13.4112309,
            "addr:housenumber": "1",
            "addr:street": "Fischhauser Straße",
            "amenity": "pharmacy",
            "name": "Rosen-Apotheke",
            "opening_hours": "Mo-Fr 08:00-12:30, 13:30-18:00; Sa 08:00-12:00",
            "phone": "08509632",
            "website": "https://www.rosenapotheke-ruderting.de",
            "wheelchair": "yes"
          },
          "geometry": {
            "type": "Point",
            "coordinates": [
              13.4112309,
              48.6521683
            ]
          }
        },
        {
          "type": "Feature",
          "properties": {
            "id": "3694992924",
            "osm_type": "node",
            "lat": 48.6676568,
            "lon": 13.5101858,
            "amenity": "pharmacy",
            "name": "St.-Ulrich-Apotheke"
          },
          "geometry": {
            "type": "Point",
            "coordinates": [
              13.5101858,
              48.6676568
            ]
          }
        },
        {
          "type": "Feature",
          "properties": {
            "id": "5888692290",
            "osm_type": "node",
            "lat": 48.4570503,
            "lon": 13.4319717,
            "addr:city": "Schärding",
            "addr:country": "AT",
            "addr:housenumber": "11",
            "addr:postcode": "4780",
            "addr:street": "Silberzeile",
            "addr:suburb": "Schärding Innere Stadt",
            "amenity": "pharmacy",
            "at_bev:addr_date": "2018-04-02",
            "name": "Stadtapotheke Schärding",
            "opening_hours": "Mo-Fr 08:00-18:00; Sa 08:00-12:00",
            "website": "https://stadtapotheke-schaerding.at/",
            "wheelchair": "no"
          },
          "geometry": {
            "type": "Point",
            "coordinates": [
              13.4319717,
              48.4570503
            ]
          }
        },
        {
          "type": "Feature",
          "properties": {
            "id": "6368080459",
            "osm_type": "node",
            "lat": 48.5708105,
            "lon": 13.4709702,
            "amenity": "pharmacy",
            "healthcare": "pharmacy",
            "name": "Innstadt Apotheke"
          },
          "geometry": {
            "type": "Point",
            "coordinates": [
              13.4709702,
              48.5708105
            ]
          }
        },
        {
          "type": "Feature",
          "properties": {
            "id": "7266896555",
            "osm_type": "node",
            "lat": 48.5912231,
            "lon": 13.4827648,
            "addr:city": "Passau",
            "addr:country": "DE",
            "addr:housenumber": "69",
            "addr:postcode": "94034",
            "addr:street": "Alte Straße",
            "amenity": "pharmacy",
            "contact:email": "blaue@apopassau.de",
            "contact:facebook": "https://www.facebook.com/BlaueApotheken/",
            "contact:fax": "+49 851 37934209",
            "contact:phone": "+49 851 37934200",
            "contact:website": "https://www.blaue-apotheken.de",
            "dispensing": "yes",
            "email": "blaue@apopassau.de",
            "fax": "+49 851 37934209",
            "healthcare": "pharmacy",
            "name": "Blaue Apotheke",
            "operator": "Blaue Apotheke e.K.",
            "phone": "+49 851 37934200",
            "website": "https://www.blaue-apotheken.de"
          },
          "geometry": {
            "type": "Point",
            "coordinates": [
              13.4827648,
              48.5912231
            ]
          }
        },
        {
          "type": "Feature",
          "properties": {
            "id": "8322489954",
            "osm_type": "node",
            "lat": 48.5556051,
            "lon": 13.413139,
            "addr:city": "Passau",
            "addr:country": "DE",
            "addr:housenumber": "3",
            "addr:postcode": "94036",
            "addr:street": "Dr.-Emil-Brichta-Straße",
            "addr:suburb": "Haidenhof",
            "amenity": "pharmacy",
            "dispensing": "yes",
            "healthcare": "pharmacy",
            "level": "0",
            "name": "Apotheke am Messepark",
            "website": "https://www.gesundleben-apotheken.de/apotheke-am-messepark-passau",
            "wheelchair": "limited"
          },
          "geometry": {
            "type": "Point",
            "coordinates": [
              13.413139,
              48.5556051
            ]
          }
        },
        {
          "type": "Feature",
          "properties": {
            "id": "11548038259",
            "osm_type": "node",
            "lat": 48.5735938,
            "lon": 13.3941606,
            "amenity": "pharmacy",
            "name": "Marien Apotheke",
            "opening_hours": "Mo-Fr 08:00-18:30; Sa 08:00-12:15"
          },
          "geometry": {
            "type": "Point",
            "coordinates": [
              13.3941606,
              48.5735938
            ]
          }
        },
        {
          "type": "Feature",
          "properties": {
            "id": "306504750",
            "osm_type": "node",
            "lat": 48.6463751,
            "lon": 13.9711445,
            "addr:city": "Aigen-Schlägl",
            "addr:country": "AT",
            "addr:housenumber": "11",
            "addr:postcode": "4160",
            "addr:street": "Marktplatz",
            "amenity": "pharmacy",
            "healthcare": "pharmacy",
            "name": "Zur Jungfrau Maria",
            "wheelchair": "yes"
          },
          "geometry": {
            "type": "Point",
            "coordinates": [
              13.9711445,
              48.6463751
            ]
          }
        },
        {
          "type": "Feature",
          "properties": {
            "id": "310137523",
            "osm_type": "node",
            "lat": 48.6159414,
            "lon": 13.540247,
            "amenity": "pharmacy",
            "dispensing": "yes",
            "healthcare": "pharmacy",
            "name": "Antonius-Apotheke",
            "wheelchair": "yes"
          },
          "geometry": {
            "type": "Point",
            "coordinates": [
              13.540247,
              48.6159414
            ]
          }
        },
        {
          "type": "Feature",
          "properties": {
            "id": "335982381",
            "osm_type": "node",
            "lat": 48.5729328,
            "lon": 13.6738777,
            "addr:city": "Untergriesbach",
            "addr:country": "DE",
            "addr:housenumber": "40",
            "addr:postcode": "94107",
            "addr:street": "Marktstraße",
            "amenity": "pharmacy",
            "contact:phone": "+49 8593 246",
            "dispensing": "yes",
            "name": "Apotheke am Berg",
            "operator": "Werner Käser",
            "wheelchair": "limited"
          },
          "geometry": {
            "type": "Point",
            "coordinates": [
              13.6738777,
              48.5729328
            ]
          }
        },
        {
          "type": "Feature",
          "properties": {
            "id": "335990765",
            "osm_type": "node",
            "lat": 48.5548814,
            "lon": 13.6348546,
            "amenity": "pharmacy",
            "dispensing": "yes",
            "healthcare": "pharmacy",
            "name": "Hafner",
            "opening_hours": "Sa 08:00-12:30; Mo-Fr 07:45-12:45,13:30-18:30",
            "wheelchair": "limited"
          },
          "geometry": {
            "type": "Point",
            "coordinates": [
              13.6348546,
              48.5548814
            ]
          }
        },
        {
          "type": "Feature",
          "properties": {
            "id": "880423058",
            "osm_type": "node",
            "lat": 48.571594,
            "lon": 13.9921043,
            "addr:city": "Rohrbach",
            "addr:country": "AT",
            "addr:housenumber": "18",
            "addr:postcode": "4150",
            "addr:street": "Stadtplatz",
            "amenity": "pharmacy",
            "dispensing": "yes",
            "healthcare": "pharmacy",
            "name": "Stadtapotheke Mariahilf",
            "opening_hours": "Mo-Fr 08:00-13:00, 14:00-18:00; Sa 08:00-12:00",
            "phone": "+4372894273",
            "website": "https://www.apotheke-rohrbach.at/",
            "wheelchair": "yes"
          },
          "geometry": {
            "type": "Point",
            "coordinates": [
              13.9921043,
              48.571594
            ]
          }
        },
        {
          "type": "Feature",
          "properties": {
            "id": "2169059983",
            "osm_type": "node",
            "lat": 48.4571055,
            "lon": 13.986844,
            "amenity": "pharmacy",
            "healthcare": "pharmacy",
            "name": "Hausapotheke Dr. Syrowatka"
          },
          "geometry": {
            "type": "Point",
            "coordinates": [
              13.986844,
              48.4571055
            ]
          }
        },
        {
          "type": "Feature",
          "properties": {
            "id": "6782075059",
            "osm_type": "node",
            "lat": 48.6014037,
            "lon": 13.7894579,
            "amenity": "pharmacy",
            "healthcare": "pharmacy",
            "name": "Arnika-Apotheke"
          },
          "geometry": {
            "type": "Point",
            "coordinates": [
              13.7894579,
              48.6014037
            ]
          }
        },
        {
          "type": "Feature",
          "properties": {
            "id": "11052539950",
            "osm_type": "node",
            "lat": 48.4854191,
            "lon": 14.0034845,
            "addr:city": "Neufelden",
            "addr:housenumber": "4",
            "addr:postcode": "4120",
            "addr:street": "Linzer Straße",
            "amenity": "pharmacy",
            "email": "post@apotheke-neufelden.at",
            "healthcare": "pharmacy",
            "name": "Apotheke zum weißen Adler",
            "opening_hours": "Mo-Fr 08:00-12:00,14:30-18:00; Sa 08:00-12:00",
            "operator": "Mag. pharm. Johanna Hehenberger",
            "phone": "+4372826264",
            "website": "https://www.apotheke-neufelden.at"
          },
          "geometry": {
            "type": "Point",
            "coordinates": [
              14.0034845,
              48.4854191
            ]
          }
        },
        {
          "type": "Feature",
          "properties": {
            "id": "11782430017",
            "osm_type": "node",
            "lat": 48.5736181,
            "lon": 13.6683521,
            "amenity": "pharmacy",
            "healthcare": "pharmacy",
            "name": "Apotheke am hohen Markt"
          },
          "geometry": {
            "type": "Point",
            "coordinates": [
              13.6683521,
              48.5736181
            ]
          }
        },
        {
          "type": "Feature",
          "properties": {
            "id": "783941081",
            "osm_type": "node",
            "lat": 48.5757036,
            "lon": 14.0387974,
            "addr:city": "Haslach an der Mühl",
            "addr:country": "AT",
            "addr:housenumber": "26",
            "addr:postcode": "4170",
            "addr:street": "Marktplatz",
            "amenity": "pharmacy",
            "healthcare": "pharmacy",
            "name": "Apotheke St. Nikolaus",
            "opening_hours": "Mo-Fr 08:00-12:15, 14:30-18:00; Sa 08:00-12:15"
          },
          "geometry": {
            "type": "Point",
            "coordinates": [
              14.0387974,
              48.5757036
            ]
          }
        },
        {
          "type": "Feature",
          "properties": {
            "id": "10314814716",
            "osm_type": "node",
            "lat": 48.6200429,
            "lon": 14.2575999,
            "addr:city": "Loučovice",
            "addr:housenumber": "290",
            "addr:postcode": "38276",
            "amenity": "pharmacy",
            "healthcare": "pharmacy",
            "name": "Lékárna U Anděla"
          },
          "geometry": {
            "type": "Point",
            "coordinates": [
              14.2575999,
              48.6200429
            ]
          }
        },
        {
          "type": "Feature",
          "properties": {
            "id": "12808960677",
            "osm_type": "node",
            "lat": 48.6632184,
            "lon": 14.1658951,
            "amenity": "pharmacy",
            "contact:email": "frymburk@lipenskelekarny.cz",
            "contact:phone": "+420 602 858 929",
            "contact:website": "https://lipenskelekarny.cz/",
            "healthcare": "pharmacy",
            "name": "U Lva",
            "ref:SUKL": "00212893432"
          },
          "geometry": {
            "type": "Point",
            "coordinates": [
              14.1658951,
              48.6632184
            ]
          }
        }
      ],
      "children": []
    },
    {
      "bbox": {
        "south": 48.355971499999995,
        "west": 14.2994695,
        "north": 48.68652475,
        "east": 15.253173
      },
      "poiCount": 9,
      "leafCount": 9,
      "averagePosition": [
        14.760349077777777,
        48.53602971111111
      ],
      "data": [
        {
          "type": "Feature",
          "properties": {
            "id": "60116285",
            "osm_type": "node",
            "lat": 48.3672097,
            "lon": 14.5167252,
            "amenity": "pharmacy",
            "check_date:opening_hours": "2021-06-13",
            "contact:email": "office@apothekehagenberg.at",
            "contact:fax": "+43 7236 20683-15",
            "contact:phone": "+43 7236 20683",
            "contact:website": "http://www.apothekehagenberg.at/",
            "dispensing": "yes",
            "healthcare": "pharmacy",
            "level": "0",
            "name": "Apotheke Hagenberg",
            "opening_hours": "Mo-Fr 08:00-12:30,14:00-18:00; Sa 08:00-12:00",
            "wheelchair": "yes"
          },
          "geometry": {
            "type": "Point",
            "coordinates": [
              14.5167252,
              48.3672097
            ]
          }
        },
        {
          "type": "Feature",
          "properties": {
            "id": "330912113",
            "osm_type": "node",
            "lat": 48.5112878,
            "lon": 14.5056626,
            "addr:city": "Freistadt",
            "addr:country": "AT",
            "addr:housenumber": "16",
            "addr:postcode": "4240",
            "addr:street": "Hauptplatz",
            "amenity": "pharmacy",
            "dispensing": "no",
            "healthcare": "pharmacy",
            "name": "Apotheke zum Goldenen Engel",
            "wheelchair": "yes"
          },
          "geometry": {
            "type": "Point",
            "coordinates": [
              14.5056626,
              48.5112878
            ]
          }
        },
        {
          "type": "Feature",
          "properties": {
            "id": "4311815398",
            "osm_type": "node",
            "lat": 48.6185743,
            "lon": 14.309345,
            "addr:city": "Vyšší Brod",
            "addr:country": "CZ",
            "addr:place": "Vyšší Brod",
            "addr:postcode": "38273",
            "amenity": "pharmacy",
            "drive_through": "no",
            "healthcare": "pharmacy",
            "name": "U Lípy",
            "phone": "+420 380 746 900"
          },
          "geometry": {
            "type": "Point",
            "coordinates": [
              14.309345,
              48.6185743
            ]
          }
        },
        {
          "type": "Feature",
          "properties": {
            "id": "11140945695",
            "osm_type": "node",
            "lat": 48.499796,
            "lon": 14.5025318,
            "addr:street": "Linzer Straße",
            "amenity": "pharmacy",
            "healthcare": "pharmacy",
            "name": "Katharinenapotheke"
          },
          "geometry": {
            "type": "Point",
            "coordinates": [
              14.5025318,
              48.499796
            ]
          }
        },
        {
          "type": "Feature",
          "properties": {
            "id": "11691803354",
            "osm_type": "node",
            "lat": 48.6154994,
            "lon": 14.502961,
            "amenity": "pharmacy",
            "healthcare": "pharmacy",
            "name": "Hausapotheke Dr. Roland Stöger"
          },
          "geometry": {
            "type": "Point",
            "coordinates": [
              14.502961,
              48.6154994
            ]
          }
        },
        {
          "type": "Feature",
          "properties": {
            "id": "582480113",
            "osm_type": "node",
            "lat": 48.5739808,
            "lon": 14.9567918,
            "addr:city": "Groß Gerungs",
            "addr:housenumber": "10",
            "addr:postcode": "3920",
            "addr:street": "Hauptplatz",
            "amenity": "pharmacy",
            "healthcare": "pharmacy",
            "name": "Apotheke zur hl. Margaretha",
            "website": "http://www.apogerungs.at",
            "wheelchair": "yes"
          },
          "geometry": {
            "type": "Point",
            "coordinates": [
              14.9567918,
              48.5739808
            ]
          }
        },
        {
          "type": "Feature",
          "properties": {
            "id": "457137235",
            "osm_type": "node",
            "lat": 48.610411,
            "lon": 15.1610895,
            "addr:city": "Zwettl-Niederösterreich",
            "addr:country": "AT",
            "addr:housenumber": "45",
            "addr:postcode": "3910",
            "addr:street": "Weitraer Straße",
            "amenity": "pharmacy",
            "at_bev:addr_date": "2023-04-15",
            "check_date": "2023-12-10",
            "healthcare": "pharmacy",
            "name": "Kuenringer Apotheke",
            "opening_hours": "Mo-Fr 08:00-12:00, 14:00-18:00; Sa 08:00-12:00",
            "wheelchair": "yes"
          },
          "geometry": {
            "type": "Point",
            "coordinates": [
              15.1610895,
              48.610411
            ]
          }
        },
        {
          "type": "Feature",
          "properties": {
            "id": "3235807349",
            "osm_type": "node",
            "lat": 48.4236833,
            "lon": 15.2197862,
            "amenity": "pharmacy",
            "name": "Schloss-Apotheke"
          },
          "geometry": {
            "type": "Point",
            "coordinates": [
              15.2197862,
              48.4236833
            ]
          }
        },
        {
          "type": "Feature",
          "properties": {
            "id": "5061724579",
            "osm_type": "node",
            "lat": 48.6038251,
            "lon": 15.1682486,
            "addr:city": "Zwettl",
            "addr:country": "AT",
            "addr:housenumber": "11",
            "addr:postcode": "3910",
            "addr:street": "Hauptplatz",
            "amenity": "pharmacy",
            "contact:phone": "+43 2822 524 58",
            "healthcare": "pharmacy",
            "name": "Apotheke zum schwarzen Adler",
            "opening_hours": "Mo-Fr 08:00-12:00, 14:00-18:00; Sa 08:00-12:00",
            "website": "https://www.apotheke-zwettl.at/"
          },
          "geometry": {
            "type": "Point",
            "coordinates": [
              15.1682486,
              48.6038251
            ]
          }
        }
      ],
      "children": []
    },
    {
      "bbox": {
        "south": 48.68652475,
        "west": 13.345766,
        "north": 49.017078,
        "east": 14.2994695
      },
      "poiCount": 17,
      "leafCount": 17,
      "averagePosition": [
        13.647483182352941,
        48.85369754117647
      ],
      "data": [
        {
          "type": "Feature",
          "properties": {
            "id": "895451969",
            "osm_type": "node",
            "lat": 48.8589066,
            "lon": 13.3969475,
            "amenity": "pharmacy",
            "healthcare": "pharmacy",
            "name": "Obere Apotheke",
            "operator": "Andreas Klein",
            "wheelchair": "limited"
          },
          "geometry": {
            "type": "Point",
            "coordinates": [
              13.3969475,
              48.8589066
            ]
          }
        },
        {
          "type": "Feature",
          "properties": {
            "id": "1567342649",
            "osm_type": "node",
            "lat": 48.7871174,
            "lon": 13.439845,
            "amenity": "pharmacy",
            "name": "Podologenpraxis"
          },
          "geometry": {
            "type": "Point",
            "coordinates": [
              13.439845,
              48.7871174
            ]
          }
        },
        {
          "type": "Feature",
          "properties": {
            "id": "1732778662",
            "osm_type": "node",
            "lat": 48.7790434,
            "lon": 13.4433984,
            "addr:city": "Perlesreut",
            "addr:housename": "Schürger Georg",
            "addr:housenumber": "8",
            "addr:postcode": "94157",
            "addr:street": "Marktplatz",
            "amenity": "pharmacy",
            "contact:phone": "+49 8555 315",
            "contact:website": "http://www.marktapotheke-perlesreut.de/",
            "name": "Markt-Apotheke",
            "opening_hours": "Mo-Fr 08:00-12:30,14:30-18:00; Sa 08:00-12:00",
            "operator": "Georg Schürger"
          },
          "geometry": {
            "type": "Point",
            "coordinates": [
              13.4433984,
              48.7790434
            ]
          }
        },
        {
          "type": "Feature",
          "properties": {
            "id": "3376370556",
            "osm_type": "node",
            "lat": 48.7282334,
            "lon": 13.3805792,
            "addr:city": "Tittling",
            "addr:country": "DE",
            "addr:housenumber": "7",
            "addr:postcode": "94104",
            "addr:street": "Marktplatz",
            "amenity": "pharmacy",
            "name": "Dreiburgen-Apotheke",
            "operator": "Apothekerin Monika Mautner e.Kfr.",
            "wheelchair": "yes"
          },
          "geometry": {
            "type": "Point",
            "coordinates": [
              13.3805792,
              48.7282334
            ]
          }
        },
        {
          "type": "Feature",
          "properties": {
            "id": "5882750990",
            "osm_type": "node",
            "lat": 48.8554133,
            "lon": 13.396485,
            "amenity": "pharmacy",
            "healthcare": "pharmacy",
            "name": "Marien-Apotheke",
            "wheelchair": "yes"
          },
          "geometry": {
            "type": "Point",
            "coordinates": [
              13.396485,
              48.8554133
            ]
          }
        },
        {
          "type": "Feature",
          "properties": {
            "id": "1374088868",
            "osm_type": "node",
            "lat": 48.7303363,
            "lon": 13.601319,
            "addr:city": "Waldkirchen",
            "addr:country": "DE",
            "addr:housenumber": "23",
            "addr:postcode": "94065",
            "addr:street": "Marktplatz",
            "amenity": "pharmacy",
            "dispensing": "yes",
            "name": "Apotheke Goldener Steig",
            "phone": "+49 8581 96210",
            "website": "https://www.apotheke-waldkirchen.de/",
            "wheelchair": "limited"
          },
          "geometry": {
            "type": "Point",
            "coordinates": [
              13.601319,
              48.7303363
            ]
          }
        },
        {
          "type": "Feature",
          "properties": {
            "id": "1374088874",
            "osm_type": "node",
            "lat": 48.7301712,
            "lon": 13.6009293,
            "addr:city": "Waldkirchen",
            "addr:country": "DE",
            "addr:housenumber": "20",
            "addr:postcode": "94065",
            "addr:street": "Marktplatz",
            "amenity": "pharmacy",
            "dispensing": "yes",
            "drive_through": "no",
            "name": "Marien-Apotheke",
            "opening_hours": "Mo-Fr 10:00-13:00,14:00-18:00; Sa 10:00-13:00",
            "phone": "+49 8581 8617",
            "wheelchair": "limited"
          },
          "geometry": {
            "type": "Point",
            "coordinates": [
              13.6009293,
              48.7301712
            ]
          }
        },
        {
          "type": "Feature",
          "properties": {
            "id": "1501074925",
            "osm_type": "node",
            "lat": 48.8080406,
            "lon": 13.5476398,
            "amenity": "pharmacy",
            "drive_through": "no",
            "healthcare": "pharmacy",
            "name": "Stadt-Apotheke Freyung",
            "opening_hours": "Mo-Fr 08:00-18:30; Sa 08:00-12:30; PH off",
            "operator": "Elisabeth Gahbauer"
          },
          "geometry": {
            "type": "Point",
            "coordinates": [
              13.5476398,
              48.8080406
            ]
          }
        },
        {
          "type": "Feature",
          "properties": {
            "id": "10175072367",
            "osm_type": "node",
            "lat": 48.7470722,
            "lon": 13.7480987,
            "addr:city": "Neureichenau",
            "addr:country": "DE",
            "addr:housenumber": "41",
            "addr:postcode": "94089",
            "addr:street": "Dreisesselstraße",
            "amenity": "pharmacy",
            "contact:phone": "+49 8583 96090",
            "dispensing": "yes",
            "healthcare": "pharmacy",
            "name": "Dreisessel Apotheke",
            "opening_hours": "Mo-Fr 08:00-13:00,14:00-18:00; We 08:00-13:00,14:00-19:00; Sa 08:00-12:00",
            "operator": "Dreisessel-Apotheke oHG",
            "website": "https://dreisesselapotheke.de/",
            "wheelchair": "yes"
          },
          "geometry": {
            "type": "Point",
            "coordinates": [
              13.7480987,
              48.7470722
            ]
          }
        },
        {
          "type": "Feature",
          "properties": {
            "id": "12791310938",
            "osm_type": "node",
            "lat": 48.7314828,
            "lon": 13.6004466,
            "amenity": "pharmacy",
            "name": "Neue Apotheke",
            "note": "Name ist der Eigenname"
          },
          "geometry": {
            "type": "Point",
            "coordinates": [
              13.6004466,
              48.7314828
            ]
          }
        },
        {
          "type": "Feature",
          "properties": {
            "id": "659873481",
            "osm_type": "node",
            "lat": 48.914968,
            "lon": 13.3596292,
            "addr:city": "Spiegelau",
            "addr:country": "DE",
            "addr:housenumber": "9",
            "addr:postcode": "94518",
            "addr:street": "Pfarrer-Schweikl-Straße",
            "amenity": "pharmacy",
            "contact:phone": "+49 8553 9604 0",
            "contact:website": "https://www.wald-apotheke-spiegelau.de/",
            "dispensing": "yes",
            "healthcare": "pharmacy",
            "name": "Waldapotheke",
            "opening_hours": "Mo 08:00-18:00, Tu 08:00-19:00, We 08:00-18:00, Th 08:00-19:00, Fr 08:00-18:00, Sa 08:00-13:00; PH off",
            "operator": "Wald-Apotheke Hackl-Wernsdorfer OHG"
          },
          "geometry": {
            "type": "Point",
            "coordinates": [
              13.3596292,
              48.914968
            ]
          }
        },
        {
          "type": "Feature",
          "properties": {
            "id": "822027058",
            "osm_type": "node",
            "lat": 49.0073413,
            "lon": 14.0120956,
            "amenity": "pharmacy",
            "contact:email": "lekarna@nempt.cz",
            "contact:phone": "+420 388 600 445",
            "contact:website": "https://www.nempt.cz/lekarna/",
            "name": "Nemocnice Prachatice, a.s., lékárna",
            "opening_hours": "Mo-Fr 07:00-16:00",
            "ref": "37313000000"
          },
          "geometry": {
            "type": "Point",
            "coordinates": [
              14.0120956,
              49.0073413
            ]
          }
        },
        {
          "type": "Feature",
          "properties": {
            "id": "825062078",
            "osm_type": "node",
            "lat": 49.0147805,
            "lon": 14.0014971,
            "amenity": "pharmacy",
            "brand": "Dr. Max",
            "brand:wikidata": "Q56317371",
            "brand:wikipedia": "fr:Dr.Max",
            "healthcare": "pharmacy",
            "name": "Dr. Max"
          },
          "geometry": {
            "type": "Point",
            "coordinates": [
              14.0014971,
              49.0147805
            ]
          }
        },
        {
          "type": "Feature",
          "properties": {
            "id": "1650223217",
            "osm_type": "node",
            "lat": 48.8870036,
            "lon": 13.5836769,
            "amenity": "pharmacy",
            "healthcare": "pharmacy",
            "name": "Lusen-Apotheke"
          },
          "geometry": {
            "type": "Point",
            "coordinates": [
              13.5836769,
              48.8870036
            ]
          }
        },
        {
          "type": "Feature",
          "properties": {
            "id": "7353216437",
            "osm_type": "node",
            "lat": 49.0093728,
            "lon": 14.0000313,
            "amenity": "pharmacy",
            "brand": "Benu",
            "brand:wikidata": "Q62562792",
            "contact:email": "prachatice.ockaufland@benu.cz",
            "contact:phone": "+420 731 638 141",
            "contact:website": "http://www.benu.cz",
            "healthcare": "pharmacy",
            "name": "Benu",
            "opening_hours": "Mo-Su 08:00-18:00",
            "ref": "37328000000"
          },
          "geometry": {
            "type": "Point",
            "coordinates": [
              14.0000313,
              49.0093728
            ]
          }
        },
        {
          "type": "Feature",
          "properties": {
            "id": "11388383931",
            "osm_type": "node",
            "lat": 48.9110933,
            "lon": 13.8910572,
            "amenity": "pharmacy",
            "contact:email": "lekbavorov@volny.cz",
            "contact:phone": "+420 602 447 364",
            "healthcare": "pharmacy",
            "opening_hours": "Mo-Fr 08:00-16:00",
            "ref:SUKL": "37332000000"
          },
          "geometry": {
            "type": "Point",
            "coordinates": [
              13.8910572,
              48.9110933
            ]
          }
        },
        {
          "type": "Feature",
          "properties": {
            "id": "11388383942",
            "osm_type": "node",
            "lat": 49.0124815,
            "lon": 14.0035383,
            "amenity": "pharmacy",
            "brand": "Benu",
            "brand:wikidata": "Q62562792",
            "contact:email": "prachatice.primatorska@benu.cz",
            "contact:phone": "+420 731 638 112",
            "contact:website": "https://www.benu.cz/lekarna-benu-prachatice-primatorska",
            "healthcare": "pharmacy",
            "name": "Benu",
            "opening_hours": "Mo-Fr 07:30-17:00",
            "ref:SUKL": "37315000000"
          },
          "geometry": {
            "type": "Point",
            "coordinates": [
              14.0035383,
              49.0124815
            ]
          }
        }
      ],
      "children": []
    },
    {
      "bbox": {
        "south": 48.68652475,
        "west": 14.2994695,
        "north": 49.017078,
        "east": 15.253173
      },
      "poiCount": 55,
      "leafCount": 0,
      "averagePosition": [
        14.571276012727274,
        48.92200833454545
      ],
      "data": [],
      "children": [
        {
          "bbox": {
            "south": 48.68652475,
            "west": 14.2994695,
            "north": 48.851801374999994,
            "east": 14.77632125
          },
          "poiCount": 10,
          "leafCount": 10,
          "averagePosition": [
            14.449217970000001,
            48.79984043
          ],
          "data": [
            {
              "type": "Feature",
              "properties": {
                "id": "2461023234",
                "osm_type": "node",
                "lat": 48.7392232,
                "lon": 14.4936581,
                "addr:city": "Kaplice",
                "addr:housenumber": "44",
                "addr:postcode": "38241",
                "addr:street": "Náměstí",
                "amenity": "pharmacy",
                "brand": "Dr. Max",
                "brand:wikidata": "Q56317371",
                "brand:wikipedia": "fr:Dr.Max",
                "dispensing": "yes",
                "drive_through": "no",
                "email": "kaplice.namesti@drmax.cz",
                "healthcare": "pharmacy",
                "level": "0",
                "name": "Dr. Max",
                "operator": "Dr. Max",
                "payment:cash": "yes",
                "payment:coins": "yes",
                "payment:credit_cards": "yes",
                "website": "https://www.drmax.cz"
              },
              "geometry": {
                "type": "Point",
                "coordinates": [
                  14.4936581,
                  48.7392232
                ]
              }
            },
            {
              "type": "Feature",
              "properties": {
                "id": "2461023236",
                "osm_type": "node",
                "lat": 48.7391657,
                "lon": 14.487536,
                "amenity": "pharmacy",
                "brand": "Dr. Max",
                "brand:wikidata": "Q56317371",
                "brand:wikipedia": "fr:Dr.Max",
                "dispensing": "yes",
                "healthcare": "pharmacy",
                "name": "Dr. Max"
              },
              "geometry": {
                "type": "Point",
                "coordinates": [
                  14.487536,
                  48.7391657
                ]
              }
            },
            {
              "type": "Feature",
              "properties": {
                "id": "2503668968",
                "osm_type": "node",
                "lat": 48.8160237,
                "lon": 14.3149137,
                "addr:city": "Český Krumlov",
                "addr:conscriptionnumber": "212",
                "addr:country": "CZ",
                "addr:housenumber": "212",
                "addr:place": "Latrán",
                "addr:postcode": "38101",
                "addr:street": "T. G. Masaryka",
                "amenity": "pharmacy",
                "brand": "Dr. Max",
                "brand:wikidata": "Q56317371",
                "brand:wikipedia": "fr:Dr.Max",
                "dispensing": "yes",
                "drive_through": "no",
                "healthcare": "pharmacy",
                "name": "Dr. Max",
                "opening_hours": "Mo-Fr 07:45-18:00",
                "phone": "+420 380 711 181",
                "source:addr": "cuzk:ruian",
                "website": "https://www.drmax.cz/"
              },
              "geometry": {
                "type": "Point",
                "coordinates": [
                  14.3149137,
                  48.8160237
                ]
              }
            },
            {
              "type": "Feature",
              "properties": {
                "id": "2503668982",
                "osm_type": "node",
                "lat": 48.8163885,
                "lon": 14.3159014,
                "addr:city": "Český Krumlov",
                "addr:conscriptionnumber": "188",
                "addr:country": "CZ",
                "addr:housenumber": "188",
                "addr:place": "Latrán",
                "addr:postcode": "38101",
                "addr:street": "T. G. Masaryka",
                "amenity": "pharmacy",
                "brand": "Benu",
                "brand:wikidata": "Q62562792",
                "dispensing": "yes",
                "drive_through": "no",
                "healthcare": "pharmacy",
                "name": "Benu",
                "opening_hours": "Mo-Th 07:00-17:00; Fr 07:00-14:30",
                "operator": "Alba-farm s.r.o.",
                "phone": "+420 380 713 164",
                "source:addr": "cuzk:ruian",
                "source:loc": "survey",
                "website": "https://www.benu.cz/"
              },
              "geometry": {
                "type": "Point",
                "coordinates": [
                  14.3159014,
                  48.8163885
                ]
              }
            },
            {
              "type": "Feature",
              "properties": {
                "id": "4397079638",
                "osm_type": "node",
                "lat": 48.812033,
                "lon": 14.3251938,
                "addr:city": "Český Krumlov",
                "addr:country": "CZ",
                "addr:place": "Horní Brána",
                "addr:postcode": "38101",
                "addr:street": "Nad Nemocnicí",
                "amenity": "pharmacy",
                "check_date:opening_hours": "2025-09-08",
                "dispensing": "yes",
                "drive_through": "no",
                "email": "lekarna@nemck.cz",
                "healthcare": "pharmacy",
                "level": "0",
                "name": "Lékárna Český Krumlov",
                "opening_hours": "Mo-Fr 07:30-16:30",
                "operator": "Nemocnice Český Krumlov, a.s.",
                "payment:cash": "yes",
                "payment:credit_cards": "yes",
                "phone": "+420 380 761 253",
                "website": "http://www.nemck.cz/"
              },
              "geometry": {
                "type": "Point",
                "coordinates": [
                  14.3251938,
                  48.812033
                ]
              }
            },
            {
              "type": "Feature",
              "properties": {
                "id": "4709920298",
                "osm_type": "node",
                "lat": 48.8254576,
                "lon": 14.332028,
                "addr:city": "Český Krumlov",
                "addr:conscriptionnumber": "236",
                "addr:country": "CZ",
                "addr:housenumber": "236",
                "addr:place": "Domoradice",
                "addr:postcode": "38101",
                "addr:street": "Urbinská",
                "amenity": "pharmacy",
                "brand": "Benu",
                "brand:website": "https://www.benu.cz/",
                "brand:wikidata": "Q62562792",
                "check_date:opening_hours": "2025-08-18",
                "dispensing": "yes",
                "drive_through": "no",
                "healthcare": "pharmacy",
                "name": "Benu",
                "opening_hours": "Mo-Su 08:00-20:00",
                "phone": "+420 731 638 130",
                "source:addr": "cuzk:ruian",
                "source:loc": "survey",
                "wheelchair": "yes"
              },
              "geometry": {
                "type": "Point",
                "coordinates": [
                  14.332028,
                  48.8254576
                ]
              }
            },
            {
              "type": "Feature",
              "properties": {
                "id": "5269603657",
                "osm_type": "node",
                "lat": 48.8311313,
                "lon": 14.4611221,
                "amenity": "pharmacy",
                "healthcare": "pharmacy"
              },
              "geometry": {
                "type": "Point",
                "coordinates": [
                  14.4611221,
                  48.8311313
                ]
              }
            },
            {
              "type": "Feature",
              "properties": {
                "id": "11388383948",
                "osm_type": "node",
                "lat": 48.7398507,
                "lon": 14.4873297,
                "amenity": "pharmacy",
                "contact:email": "kaplice@nemck.cz",
                "contact:phone": "+420 778 533 599",
                "contact:website": "https://www.nemck.cz/",
                "healthcare": "pharmacy",
                "name": "Lékárna Poliklinika Kaplice",
                "opening_hours": "Mo-Th 07:30-15:30; Fr 07:30-13:00",
                "ref:SUKL": "33318000000"
              },
              "geometry": {
                "type": "Point",
                "coordinates": [
                  14.4873297,
                  48.7398507
                ]
              }
            },
            {
              "type": "Feature",
              "properties": {
                "id": "7031877354",
                "osm_type": "node",
                "lat": 48.8405243,
                "lon": 14.6384092,
                "amenity": "pharmacy",
                "brand": "Benu",
                "brand:wikidata": "Q62562792",
                "contact:email": "tsviny.husova@benu.cz",
                "contact:phone": "+420 731 638 140",
                "contact:website": "https://www.benu.cz/lekarna-benu-trhove-sviny",
                "healthcare": "pharmacy",
                "name": "Benu",
                "opening_hours": "Mo-Fr 08:00-17:00; Sa 08:00-10:30",
                "ref": "32074000001",
                "wheelchair": "yes"
              },
              "geometry": {
                "type": "Point",
                "coordinates": [
                  14.6384092,
                  48.8405243
                ]
              }
            },
            {
              "type": "Feature",
              "properties": {
                "id": "11388383935",
                "osm_type": "node",
                "lat": 48.8386063,
                "lon": 14.6360877,
                "amenity": "pharmacy",
                "contact:email": "info@lekarnapoliklinika.cz",
                "contact:phone": "+420 386 322 196",
                "contact:website": "http://www.lekarnapoliklinika.cz",
                "healthcare": "pharmacy",
                "name": "Lékárna Poliklinika",
                "opening_hours": "Mo-Th 07:30-17:00; Fr 07:30-16:00",
                "ref:SUKL": "32995044001"
              },
              "geometry": {
                "type": "Point",
                "coordinates": [
                  14.6360877,
                  48.8386063
                ]
              }
            }
          ],
          "children": []
        },
        {
          "bbox": {
            "south": 48.68652475,
            "west": 14.77632125,
            "north": 48.851801374999994,
            "east": 15.253173
          },
          "poiCount": 5,
          "leafCount": 5,
          "averagePosition": [
            14.97648676,
            48.7597838
          ],
          "data": [
            {
              "type": "Feature",
              "properties": {
                "id": "465210569",
                "osm_type": "node",
                "lat": 48.7009974,
                "lon": 14.8934267,
                "amenity": "pharmacy",
                "healthcare": "pharmacy",
                "name": "Apotheke \"Zum schwarzen Adler\"",
                "opening_hours": "Mo 08:00-12:00,14:30-18:30; Tu-Fr 08:00-12:00,14:30-18:00; Sa 07:30-12:00",
                "phone": "02856235014",
                "wheelchair": "yes"
              },
              "geometry": {
                "type": "Point",
                "coordinates": [
                  14.8934267,
                  48.7009974
                ]
              }
            },
            {
              "type": "Feature",
              "properties": {
                "id": "1272419753",
                "osm_type": "node",
                "lat": 48.761149,
                "lon": 14.9727812,
                "addr:city": "Gmünd",
                "addr:country": "AT",
                "addr:housenumber": "21",
                "addr:postcode": "3950",
                "addr:street": "Schubertplatz",
                "amenity": "pharmacy",
                "at_bev:addr_date": "2021-04-01",
                "dispensing": "yes",
                "healthcare": "pharmacy",
                "name": "Apotheke Gmünd Neustadt",
                "opening_hours": "Mo-Fr 07:45-12:15,14:30-18:00; Sa 07:30-12:00",
                "operator": "Apotheke Gmünd Neustadt Mag.pharm. Isabella Kitzler OHG",
                "website": "http://www.apothekegmuend.at",
                "wheelchair": "yes"
              },
              "geometry": {
                "type": "Point",
                "coordinates": [
                  14.9727812,
                  48.761149
                ]
              }
            },
            {
              "type": "Feature",
              "properties": {
                "id": "2430229778",
                "osm_type": "node",
                "lat": 48.7706835,
                "lon": 14.9600231,
                "amenity": "pharmacy",
                "contact:email": "lekarnavitalis@email.cz",
                "contact:phone": "+420 384 794 262",
                "contact:website": "http://www.lekarnavitalis.cz",
                "name": "Lékárna Vitalis",
                "opening_hours": "Mo-Fr 07:30-16:00; Sa 08:00-11:00",
                "ref": "34632000001",
                "source": "survey"
              },
              "geometry": {
                "type": "Point",
                "coordinates": [
                  14.9600231,
                  48.7706835
                ]
              }
            },
            {
              "type": "Feature",
              "properties": {
                "id": "2477780603",
                "osm_type": "node",
                "lat": 48.7731269,
                "lon": 14.9863312,
                "addr:city": "Gmünd",
                "addr:country": "AT",
                "addr:housenumber": "37",
                "addr:postcode": "3950",
                "addr:street": "Stadtplatz",
                "amenity": "pharmacy",
                "check_date": "2024-01-06",
                "name": "Apotheke zum Auge Gottes",
                "opening_hours": "Mo-Fr 07:45-12:15,14:30-18:00; Sa 07:45-12:15",
                "operator": "Apotheke zum Auge Gottes Mag.pharm. G. Libowitzky KG",
                "website": "http://www.apotheke-gmuend.at"
              },
              "geometry": {
                "type": "Point",
                "coordinates": [
                  14.9863312,
                  48.7731269
                ]
              }
            },
            {
              "type": "Feature",
              "properties": {
                "id": "343807750",
                "osm_type": "node",
                "lat": 48.7929622,
                "lon": 15.0698716,
                "addr:city": "Schrems",
                "addr:country": "AT",
                "addr:housenumber": "6",
                "addr:postcode": "3943",
                "addr:street": "Hauptplatz",
                "amenity": "pharmacy",
                "check_date": "2024-05-10",
                "dispensing": "yes",
                "name": "Stadt-Apotheke",
                "opening_hours": "Mo-Fr 08:00-12:00,14:30-18:00; Sa 08:00-12:00; Su,PH off",
                "wheelchair": "yes"
              },
              "geometry": {
                "type": "Point",
                "coordinates": [
                  15.0698716,
                  48.7929622
                ]
              }
            }
          ],
          "children": []
        },
        {
          "bbox": {
            "south": 48.851801374999994,
            "west": 14.2994695,
            "north": 49.017078,
            "east": 14.77632125
          },
          "poiCount": 37,
          "leafCount": 37,
          "averagePosition": [
            14.513607472972973,
            48.97873655675676
          ],
          "data": [
            {
              "type": "Feature",
              "properties": {
                "id": "1276440270",
                "osm_type": "node",
                "lat": 48.9594999,
                "lon": 14.4686552,
                "amenity": "pharmacy",
                "contact:email": "verlek@nemcb.cz",
                "contact:phone": "+420 387 873 120",
                "dispensing": "yes",
                "healthcare": "pharmacy",
                "name": "Lékárna Nemocnice ČB",
                "opening_hours": "24/7",
                "ref:SUKL": "32069000000"
              },
              "geometry": {
                "type": "Point",
                "coordinates": [
                  14.4686552,
                  48.9594999
                ]
              }
            },
            {
              "type": "Feature",
              "properties": {
                "id": "2485193165",
                "osm_type": "node",
                "lat": 48.9744887,
                "lon": 14.4822115,
                "amenity": "pharmacy",
                "brand": "Benu",
                "brand:wikidata": "Q62562792",
                "healthcare": "pharmacy",
                "name": "Benu",
                "opening_hours": "Mo-Fr 08:00-18:00; Sa 08:00-12:30",
                "wheelchair": "no"
              },
              "geometry": {
                "type": "Point",
                "coordinates": [
                  14.4822115,
                  48.9744887
                ]
              }
            },
            {
              "type": "Feature",
              "properties": {
                "id": "3181359115",
                "osm_type": "node",
                "lat": 48.9728084,
                "lon": 14.4748407,
                "amenity": "pharmacy",
                "dispensing": "yes",
                "healthcare": "pharmacy",
                "name": "Medipont Plus",
                "opening_hours": "Mo-Fr 08:30-15:30"
              },
              "geometry": {
                "type": "Point",
                "coordinates": [
                  14.4748407,
                  48.9728084
                ]
              }
            },
            {
              "type": "Feature",
              "properties": {
                "id": "3421607599",
                "osm_type": "node",
                "lat": 48.9775745,
                "lon": 14.477401,
                "amenity": "pharmacy",
                "brand": "Dr. Max",
                "brand:wikidata": "Q56317371",
                "check_date": "2025-04-15",
                "healthcare": "pharmacy",
                "name": "Dr. Max",
                "operator": "Dr. Max"
              },
              "geometry": {
                "type": "Point",
                "coordinates": [
                  14.477401,
                  48.9775745
                ]
              }
            },
            {
              "type": "Feature",
              "properties": {
                "id": "3426821320",
                "osm_type": "node",
                "lat": 48.9718733,
                "lon": 14.4772754,
                "amenity": "pharmacy",
                "brand": "Benu",
                "brand:wikidata": "Q62562792",
                "healthcare": "pharmacy",
                "name": "Benu",
                "opening_hours": "Mo-Th 07:00-17:00; Fr 07:00-16:00; Sa,Su off",
                "ref:SUKL": "32995021000",
                "wheelchair": "yes"
              },
              "geometry": {
                "type": "Point",
                "coordinates": [
                  14.4772754,
                  48.9718733
                ]
              }
            },
            {
              "type": "Feature",
              "properties": {
                "id": "3429319360",
                "osm_type": "node",
                "lat": 48.9769973,
                "lon": 14.4760459,
                "amenity": "pharmacy",
                "brand": "Benu",
                "brand:wikidata": "Q62562792",
                "contact:email": "cbudejovice.mlynska@benu.cz",
                "contact:phone": "+420 703 462 285",
                "contact:website": "https://www.benu.cz/",
                "healthcare": "pharmacy",
                "name": "Benu",
                "opening_hours": "Mo-Fr 07:30-18:00",
                "ref:SUKL": "00203195911"
              },
              "geometry": {
                "type": "Point",
                "coordinates": [
                  14.4760459,
                  48.9769973
                ]
              }
            },
            {
              "type": "Feature",
              "properties": {
                "id": "3429319361",
                "osm_type": "node",
                "lat": 48.9803041,
                "lon": 14.4702,
                "amenity": "pharmacy",
                "healthcare": "pharmacy",
                "name": "Lékárna Patriot",
                "opening_hours": "Mo-Fr 08:00-17:00"
              },
              "geometry": {
                "type": "Point",
                "coordinates": [
                  14.4702,
                  48.9803041
                ]
              }
            },
            {
              "type": "Feature",
              "properties": {
                "id": "3429319362",
                "osm_type": "node",
                "lat": 48.9747244,
                "lon": 14.484789,
                "addr:city": "České Budějovice",
                "addr:housenumber": "43",
                "addr:postcode": "37001",
                "addr:street": "Lannova tř.",
                "amenity": "pharmacy",
                "brand": "Pilulka",
                "brand:wikidata": "Q41960196",
                "healthcare": "pharmacy",
                "name": "Pilulka",
                "wheelchair": "no"
              },
              "geometry": {
                "type": "Point",
                "coordinates": [
                  14.484789,
                  48.9747244
                ]
              }
            },
            {
              "type": "Feature",
              "properties": {
                "id": "3429319363",
                "osm_type": "node",
                "lat": 48.972459,
                "lon": 14.4791386,
                "amenity": "pharmacy",
                "brand": "Benu",
                "brand:wikidata": "Q62562792",
                "contact:email": "cbudejovice.metropol@benu.cz",
                "contact:phone": "+420 731 638 166",
                "contact:website": "https://www.benu.cz",
                "healthcare": "pharmacy",
                "name": "Benu",
                "opening_hours": "Mo-Th 07:30-17:30; Fr 07:30-15:00",
                "ref:SUKL": "32087000000"
              },
              "geometry": {
                "type": "Point",
                "coordinates": [
                  14.4791386,
                  48.972459
                ]
              }
            },
            {
              "type": "Feature",
              "properties": {
                "id": "3429319364",
                "osm_type": "node",
                "lat": 48.9744157,
                "lon": 14.4752969,
                "addr:city": "České Budějovice",
                "addr:housenumber": "26",
                "addr:postcode": "37001",
                "addr:street": "nám. Přemysla Otakara II.",
                "amenity": "pharmacy",
                "brand": "Dr. Max",
                "brand:wikidata": "Q56317371",
                "brand:wikipedia": "fr:Dr.Max",
                "check_date": "2025-05-23",
                "healthcare": "pharmacy",
                "level": "0",
                "name": "Dr. Max",
                "opening_hours": "Mo-Fr 08:00-16:00",
                "wheelchair": "yes"
              },
              "geometry": {
                "type": "Point",
                "coordinates": [
                  14.4752969,
                  48.9744157
                ]
              }
            },
            {
              "type": "Feature",
              "properties": {
                "id": "3429319365",
                "osm_type": "node",
                "lat": 48.9710903,
                "lon": 14.4793807,
                "amenity": "pharmacy",
                "healthcare": "pharmacy",
                "name": "U Tří lvů"
              },
              "geometry": {
                "type": "Point",
                "coordinates": [
                  14.4793807,
                  48.9710903
                ]
              }
            },
            {
              "type": "Feature",
              "properties": {
                "id": "3429319366",
                "osm_type": "node",
                "lat": 48.9662285,
                "lon": 14.4758585,
                "amenity": "pharmacy",
                "healthcare": "pharmacy",
                "name": "EUC Lékárna",
                "opening_hours": "Mo-Fr 07:00-18:30",
                "wheelchair": "yes"
              },
              "geometry": {
                "type": "Point",
                "coordinates": [
                  14.4758585,
                  48.9662285
                ]
              }
            },
            {
              "type": "Feature",
              "properties": {
                "id": "3429319367",
                "osm_type": "node",
                "lat": 48.9612684,
                "lon": 14.4709055,
                "amenity": "pharmacy",
                "brand": "Dr. Max",
                "brand:wikidata": "Q56317371",
                "brand:wikipedia": "fr:Dr.Max",
                "healthcare": "pharmacy",
                "name": "Dr. Max"
              },
              "geometry": {
                "type": "Point",
                "coordinates": [
                  14.4709055,
                  48.9612684
                ]
              }
            },
            {
              "type": "Feature",
              "properties": {
                "id": "3429319369",
                "osm_type": "node",
                "lat": 48.9596879,
                "lon": 14.4698116,
                "amenity": "pharmacy",
                "healthcare": "pharmacy",
                "name": "Lékárna Před špitálem"
              },
              "geometry": {
                "type": "Point",
                "coordinates": [
                  14.4698116,
                  48.9596879
                ]
              }
            },
            {
              "type": "Feature",
              "properties": {
                "id": "3429319372",
                "osm_type": "node",
                "lat": 48.9842114,
                "lon": 14.4714066,
                "addr:city": "České Budějovice",
                "addr:housenumber": "1014/71",
                "addr:postcode": "37004",
                "addr:street": "Pražská tř.",
                "amenity": "pharmacy",
                "brand": "Dr. Max",
                "brand:wikidata": "Q56317371",
                "brand:wikipedia": "fr:Dr.Max",
                "contact:email": "lek199@drmax.cz",
                "contact:phone": "+420 225 574 199",
                "contact:website": "http://www.drmax.cz",
                "dispensing": "yes",
                "drive_through": "no",
                "healthcare": "pharmacy",
                "name": "Dr. Max",
                "opening_hours": "Mo-Fr 07:30-17:00",
                "ref:SUKL": "32995036000"
              },
              "geometry": {
                "type": "Point",
                "coordinates": [
                  14.4714066,
                  48.9842114
                ]
              }
            },
            {
              "type": "Feature",
              "properties": {
                "id": "3429319374",
                "osm_type": "node",
                "lat": 48.9889541,
                "lon": 14.4543123,
                "amenity": "pharmacy",
                "contact:email": "vltava.cb@lekia.cz",
                "contact:phone": "+420 383 134 371",
                "contact:website": "https://www.lekia.cz/",
                "healthcare": "pharmacy",
                "name": "Lékárna Vltava",
                "opening_hours": "Mo-Th 07:30-17:00; Fr 07:30-15:00",
                "ref:SUKL": "201509536"
              },
              "geometry": {
                "type": "Point",
                "coordinates": [
                  14.4543123,
                  48.9889541
                ]
              }
            },
            {
              "type": "Feature",
              "properties": {
                "id": "3429319375",
                "osm_type": "node",
                "lat": 48.9833708,
                "lon": 14.4475212,
                "amenity": "pharmacy",
                "healthcare": "pharmacy",
                "name": "Zahradní"
              },
              "geometry": {
                "type": "Point",
                "coordinates": [
                  14.4475212,
                  48.9833708
                ]
              }
            },
            {
              "type": "Feature",
              "properties": {
                "id": "3429319376",
                "osm_type": "node",
                "lat": 48.9826138,
                "lon": 14.445897,
                "addr:city": "České Budějovice",
                "addr:housenumber": "887/64",
                "addr:postcode": "37005",
                "addr:street": "K. Šafáře",
                "amenity": "pharmacy",
                "healthcare": "pharmacy",
                "name": "Lékárna Šumava",
                "wheelchair": "yes"
              },
              "geometry": {
                "type": "Point",
                "coordinates": [
                  14.445897,
                  48.9826138
                ]
              }
            },
            {
              "type": "Feature",
              "properties": {
                "id": "4030951597",
                "osm_type": "node",
                "lat": 48.976165,
                "lon": 14.3620951,
                "addr:city": "Dubné",
                "addr:housenumber": "34",
                "addr:postcode": "37384",
                "addr:street": "Dubné",
                "amenity": "pharmacy",
                "drive_through": "no",
                "healthcare": "pharmacy",
                "name": "Lékárna Dubné",
                "operator": "OOVL - L Máj v.o.s."
              },
              "geometry": {
                "type": "Point",
                "coordinates": [
                  14.3620951,
                  48.976165
                ]
              }
            },
            {
              "type": "Feature",
              "properties": {
                "id": "4416752626",
                "osm_type": "node",
                "lat": 48.9701193,
                "lon": 14.5031731,
                "amenity": "pharmacy",
                "contact:email": "lekarnazlatarybka@email.cz",
                "contact:phone": "+420 734 177 877",
                "healthcare": "pharmacy",
                "level": "1",
                "name": "Lékárna U Zlaté rybky",
                "opening_hours": "Mo-Fr 08:00-17:00",
                "ref:SUKL": "32995045000"
              },
              "geometry": {
                "type": "Point",
                "coordinates": [
                  14.5031731,
                  48.9701193
                ]
              }
            },
            {
              "type": "Feature",
              "properties": {
                "id": "4435217969",
                "osm_type": "node",
                "lat": 48.973635,
                "lon": 14.463261,
                "addr:housenumber": "1444",
                "addr:street": "Na Sádkách",
                "amenity": "pharmacy",
                "brand": "Benu",
                "brand:wikidata": "Q62562792",
                "email": "cbudejovice.ockaufland@benu.cz",
                "healthcare": "pharmacy",
                "name": "Benu",
                "opening_hours": "Mo-Su 08:00-20:00",
                "operator": "BENU Česká republika s.r.o.",
                "phone": "+420 731 638 178",
                "wheelchair": "yes"
              },
              "geometry": {
                "type": "Point",
                "coordinates": [
                  14.463261,
                  48.973635
                ]
              }
            },
            {
              "type": "Feature",
              "properties": {
                "id": "5992892217",
                "osm_type": "node",
                "lat": 49.0022133,
                "lon": 14.45126,
                "amenity": "pharmacy",
                "brand": "Dr. Max",
                "brand:wikidata": "Q56317371",
                "contact:email": "budejovice2@drmax.cz",
                "contact:phone": "+420 225 574 087",
                "contact:website": "https://www.drmax.cz/",
                "healthcare": "pharmacy",
                "name": "Dr. Max",
                "opening_hours": "Mo-Su 08:00-20:00",
                "ref:SUKL": "32995005000"
              },
              "geometry": {
                "type": "Point",
                "coordinates": [
                  14.45126,
                  49.0022133
                ]
              }
            },
            {
              "type": "Feature",
              "properties": {
                "id": "6215835346",
                "osm_type": "node",
                "lat": 48.9699416,
                "lon": 14.528011,
                "amenity": "pharmacy",
                "brand": "PharmaPoint",
                "dispensing": "yes",
                "drive_through": "no",
                "email": "vedouci.lekarna@domov-dobravoda.cz",
                "healthcare": "pharmacy",
                "opening_hours": "Mo-Fr 09:00-11:00,13:00-16:00",
                "operator": "Domov důchodců Dobrá Voda",
                "phone": "+420387721141",
                "website": "https://pharmapoint.cz"
              },
              "geometry": {
                "type": "Point",
                "coordinates": [
                  14.528011,
                  48.9699416
                ]
              }
            },
            {
              "type": "Feature",
              "properties": {
                "id": "8292456753",
                "osm_type": "node",
                "lat": 48.9965158,
                "lon": 14.4894749,
                "addr:housenumber": "2885/5",
                "addr:postcode": "37001",
                "addr:street": "Za Otýlií",
                "amenity": "pharmacy",
                "brand": "Dr. Max",
                "brand:wikidata": "Q56317371",
                "brand:wikipedia": "fr:Dr.Max",
                "check_date": "2025-04-20",
                "dispensing": "yes",
                "healthcare": "pharmacy",
                "name": "Dr. Max",
                "opening_hours": "Mo-Fr 08:00-16:00",
                "phone": "+420 225 574 607",
                "website": "https://www.drmax.cz/",
                "wheelchair": "yes"
              },
              "geometry": {
                "type": "Point",
                "coordinates": [
                  14.4894749,
                  48.9965158
                ]
              }
            },
            {
              "type": "Feature",
              "properties": {
                "id": "8306524215",
                "osm_type": "node",
                "lat": 48.9941619,
                "lon": 14.4704683,
                "amenity": "pharmacy",
                "contact:email": "Rychlik.Terno@seznam.cz",
                "contact:phone": "+420 387 222 028",
                "dispensing": "yes",
                "healthcare": "pharmacy",
                "name": "Lékárna v Ternu s.r.o.",
                "opening_hours": "Mo-Fr 08:00-19:00; Sa 08:00-17:00; Su 09:00-17:00",
                "ref:SUKL": "32995009001"
              },
              "geometry": {
                "type": "Point",
                "coordinates": [
                  14.4704683,
                  48.9941619
                ]
              }
            },
            {
              "type": "Feature",
              "properties": {
                "id": "9393607868",
                "osm_type": "node",
                "lat": 48.9996311,
                "lon": 14.4499169,
                "amenity": "pharmacy",
                "contact:email": "lekarnagecko@gmail.com",
                "contact:phone": "+420 380 427 803",
                "contact:website": "https://www.pharmapoint.cz/lekarny/",
                "healthcare": "pharmacy",
                "name": "Lékárna Géčko",
                "opening_hours": "Mo-Fr 07:30-17:30; Sa 09:00-13:00",
                "ref:SUKL": "200012218"
              },
              "geometry": {
                "type": "Point",
                "coordinates": [
                  14.4499169,
                  48.9996311
                ]
              }
            },
            {
              "type": "Feature",
              "properties": {
                "id": "10939571303",
                "osm_type": "node",
                "lat": 48.9825205,
                "lon": 14.4420581,
                "amenity": "pharmacy",
                "brand": "Benu",
                "brand:wikidata": "Q62562792",
                "healthcare": "pharmacy",
                "level": "0",
                "name": "Benu",
                "opening_hours": "Mo-Fr 08:00-18:00; Sa 08:00-16:00; Su off",
                "wheelchair": "yes"
              },
              "geometry": {
                "type": "Point",
                "coordinates": [
                  14.4420581,
                  48.9825205
                ]
              }
            },
            {
              "type": "Feature",
              "properties": {
                "id": "11387015744",
                "osm_type": "node",
                "lat": 48.9727216,
                "lon": 14.4871111,
                "amenity": "pharmacy",
                "brand": "Dr. Max",
                "brand:wikidata": "Q56317371",
                "contact:email": "LEK685@drmax.cz",
                "contact:phone": "+420 225 574 685",
                "contact:website": "https://www.drmax.cz/",
                "dispensing": "yes",
                "healthcare": "pharmacy",
                "level": "0",
                "name": "Dr. Max",
                "opening_hours": "Mo-Su 08:00-20:00",
                "ref:SUKL": "00203626734"
              },
              "geometry": {
                "type": "Point",
                "coordinates": [
                  14.4871111,
                  48.9727216
                ]
              }
            },
            {
              "type": "Feature",
              "properties": {
                "id": "11462907458",
                "osm_type": "node",
                "lat": 48.9932839,
                "lon": 14.4699805,
                "amenity": "pharmacy",
                "brand": "Dr. Max",
                "brand:wikidata": "Q56317371",
                "check_date": "2025-04-16",
                "healthcare": "pharmacy",
                "name": "Dr. Max",
                "wheelchair": "yes"
              },
              "geometry": {
                "type": "Point",
                "coordinates": [
                  14.4699805,
                  48.9932839
                ]
              }
            },
            {
              "type": "Feature",
              "properties": {
                "id": "11587797439",
                "osm_type": "node",
                "lat": 48.9747641,
                "lon": 14.4879252,
                "amenity": "pharmacy",
                "brand": "Benu",
                "brand:wikidata": "Q62562792",
                "healthcare": "pharmacy",
                "level": "0",
                "name": "Benu",
                "opening_hours": "Mo-Fr 08:00-18:00",
                "website": "https://benu.cz"
              },
              "geometry": {
                "type": "Point",
                "coordinates": [
                  14.4879252,
                  48.9747641
                ]
              }
            },
            {
              "type": "Feature",
              "properties": {
                "id": "913510652",
                "osm_type": "node",
                "lat": 48.9332545,
                "lon": 14.6190598,
                "amenity": "pharmacy",
                "healthcare": "pharmacy",
                "name": "U Beránků"
              },
              "geometry": {
                "type": "Point",
                "coordinates": [
                  14.6190598,
                  48.9332545
                ]
              }
            },
            {
              "type": "Feature",
              "properties": {
                "id": "942823984",
                "osm_type": "node",
                "lat": 49.0168381,
                "lon": 14.6100282,
                "amenity": "pharmacy",
                "healthcare": "pharmacy",
                "opening_hours": "Mo 08:00-16:00;Tu 08:00-17:00;We 08:00-16:00;Th 08:00-17:00;Fr 08:00-16:00"
              },
              "geometry": {
                "type": "Point",
                "coordinates": [
                  14.6100282,
                  49.0168381
                ]
              }
            },
            {
              "type": "Feature",
              "properties": {
                "id": "2384648716",
                "osm_type": "node",
                "lat": 48.9006954,
                "lon": 14.6427829,
                "amenity": "pharmacy",
                "contact:email": "ladka.bartonova@seznam.cz",
                "contact:phone": "+420 387 200 268",
                "healthcare": "pharmacy",
                "name": "Borovanská lékárna",
                "opening_hours": "Mo,We 07:30-17:00; Tu,Th,Fr 07:30-16:00",
                "ref": "32995012001"
              },
              "geometry": {
                "type": "Point",
                "coordinates": [
                  14.6427829,
                  48.9006954
                ]
              }
            },
            {
              "type": "Feature",
              "properties": {
                "id": "2404901661",
                "osm_type": "node",
                "lat": 49.0041204,
                "lon": 14.7609521,
                "amenity": "pharmacy",
                "brand": "Dr. Max",
                "brand:wikidata": "Q56317371",
                "brand:wikipedia": "fr:Dr.Max",
                "dispensing": "no",
                "healthcare": "pharmacy",
                "name": "Dr. Max",
                "opening_hours": "Mo-Fr 08:00-17:00; Sa,Su off"
              },
              "geometry": {
                "type": "Point",
                "coordinates": [
                  14.7609521,
                  49.0041204
                ]
              }
            },
            {
              "type": "Feature",
              "properties": {
                "id": "2404901882",
                "osm_type": "node",
                "lat": 49.0037404,
                "lon": 14.7630241,
                "amenity": "pharmacy",
                "dispensing": "no",
                "healthcare": "pharmacy",
                "opening_hours": "Mo-Fr 08:00-17:00"
              },
              "geometry": {
                "type": "Point",
                "coordinates": [
                  14.7630241,
                  49.0037404
                ]
              }
            },
            {
              "type": "Feature",
              "properties": {
                "id": "2404901967",
                "osm_type": "node",
                "lat": 49.0060075,
                "lon": 14.7625121,
                "amenity": "pharmacy",
                "dispensing": "no",
                "healthcare": "pharmacy",
                "opening_hours": "Mo-Fr 07:30-16:00"
              },
              "geometry": {
                "type": "Point",
                "coordinates": [
                  14.7625121,
                  49.0060075
                ]
              }
            },
            {
              "type": "Feature",
              "properties": {
                "id": "11388383934",
                "osm_type": "node",
                "lat": 49.0103527,
                "lon": 14.7594345,
                "amenity": "pharmacy",
                "brand": "Benu",
                "brand:wikidata": "Q62562792",
                "contact:email": "trebon.ockaufland@benu.cz",
                "contact:phone": "+420 703 462 251",
                "contact:website": "https://www.benu.cz/trebon-oc-kaufland",
                "healthcare": "pharmacy",
                "name": "Benu",
                "opening_hours": "Mo-Su 08:00-20:00",
                "ref:SUKL": "00201129642"
              },
              "geometry": {
                "type": "Point",
                "coordinates": [
                  14.7594345,
                  49.0103527
                ]
              }
            }
          ],
          "children": []
        },
        {
          "bbox": {
            "south": 48.851801374999994,
            "west": 14.77632125,
            "north": 49.017078,
            "east": 15.253173
          },
          "poiCount": 3,
          "leafCount": 3,
          "averagePosition": [
            15.014030233333335,
            48.89996083333333
          ],
          "data": [
            {
              "type": "Feature",
              "properties": {
                "id": "1369315062",
                "osm_type": "node",
                "lat": 48.865156,
                "lon": 15.1201756,
                "addr:city": "Heidenreichstein",
                "addr:country": "AT",
                "addr:housenumber": "18",
                "addr:postcode": "3860",
                "addr:street": "Schremser Straße",
                "amenity": "pharmacy",
                "contact:phone": "+43 2862 522 28",
                "dispensing": "yes",
                "healthcare": "pharmacy",
                "name": "Apotheke Hl. Margarete",
                "opening_hours": "Mo-Fr 08:00-12:30,14:30-18:00; Sa 08:00-12:00",
                "website": "https://www.apotheke-heidenreichstein.at/"
              },
              "geometry": {
                "type": "Point",
                "coordinates": [
                  15.1201756,
                  48.865156
                ]
              }
            },
            {
              "type": "Feature",
              "properties": {
                "id": "1361074950",
                "osm_type": "node",
                "lat": 48.8902005,
                "lon": 14.876623,
                "addr:conscriptionnumber": "459",
                "addr:housenumber": "459",
                "addr:place": "Suchdol nad Lužnicí",
                "addr:postcode": "37806",
                "addr:street": "28. října",
                "amenity": "pharmacy",
                "check_date": "2025-05-29",
                "email": "durek@treb.cz",
                "healthcare": "pharmacy",
                "name": "Lékárna U Panny Marie Pomocné",
                "opening_hours": "Mo-Fr 07:30-16:00",
                "phone": "+420 384 781 155",
                "ref:ruian:addr": "2182726",
                "source": "cuzk:ruian",
                "website": "https://www.lekarnasuchdol.cz/"
              },
              "geometry": {
                "type": "Point",
                "coordinates": [
                  14.876623,
                  48.8902005
                ]
              }
            },
            {
              "type": "Feature",
              "properties": {
                "id": "2371962023",
                "osm_type": "node",
                "lat": 48.944526,
                "lon": 15.0452921,
                "addr:city": "Litschau",
                "addr:country": "AT",
                "addr:housenumber": "74",
                "addr:postcode": "3874",
                "addr:street": "Stadtplatz",
                "amenity": "pharmacy",
                "dispensing": "yes",
                "email": "office@stadtapo-litschau.at",
                "name": "STAL Stadt Apotheke Litschau",
                "opening_hours": "Tu,We,Th,Fr 08:00-12:30,14:30-18:00, Mo,Sa 08:00-12:00",
                "operator": "Stadt Apotheke Litschau",
                "phone": "+43(0)2865 278",
                "website": "https://www.stal.at/"
              },
              "geometry": {
                "type": "Point",
                "coordinates": [
                  15.0452921,
                  48.944526
                ]
              }
            }
          ],
          "children": []
        }
      ]
    }
  ]
}