{
  "bbox": {
    "south": 46.372652,
    "west": 15.253173,
    "north": 47.033758500000005,
    "east": 17.16058
  },
  "poiCount": 166,
  "leafCount": 0,
  "averagePosition": [
    16.1843232,
    46.643064577710845
  ],
  "data": [],
  "children": [
    {
      "bbox": {
        "south": 46.372652,
        "west": 15.253173,
        "north": 46.70320525,
        "east": 16.2068765
      },
      "poiCount": 52,
      "leafCount": 0,
      "averagePosition": [
        15.761554149999998,
        46.52943819807692
      ],
      "data": [],
      "children": [
        {
          "bbox": {
            "south": 46.372652,
            "west": 15.253173,
            "north": 46.537928625000006,
            "east": 15.73002475
          },
          "poiCount": 11,
          "leafCount": 11,
          "averagePosition": [
            15.6087019,
            46.45453401818182
          ],
          "data": [
            {
              "type": "Feature",
              "properties": {
                "id": "8434983391",
                "osm_type": "node",
                "lat": 46.3822564,
                "lon": 15.2952507,
                "addr:city": "Vitanje",
                "addr:housenumber": "12b",
                "addr:postcode": "3205",
                "addr:street": "Na vasi",
                "amenity": "pharmacy",
                "dispensing": "yes",
                "healthcare": "pharmacy",
                "name": "Lekarniška podružnica Vitanje, Celjske Lekarne,"
              },
              "geometry": {
                "type": "Point",
                "coordinates": [
                  15.2952507,
                  46.3822564
                ]
              }
            },
            {
              "type": "Feature",
              "properties": {
                "id": "447033196",
                "osm_type": "node",
                "lat": 46.3952842,
                "lon": 15.6612953,
                "addr:housenumber": "3",
                "addr:street": "Kolodvorska ulica",
                "amenity": "pharmacy",
                "name": "Lekarna"
              },
              "geometry": {
                "type": "Point",
                "coordinates": [
                  15.6612953,
                  46.3952842
                ]
              }
            },
            {
              "type": "Feature",
              "properties": {
                "id": "492167165",
                "osm_type": "node",
                "lat": 46.5020409,
                "lon": 15.7013633,
                "amenity": "pharmacy",
                "name": "Apoteka Miklavž - Vrabl Miglar Maja"
              },
              "geometry": {
                "type": "Point",
                "coordinates": [
                  15.7013633,
                  46.5020409
                ]
              }
            },
            {
              "type": "Feature",
              "properties": {
                "id": "1244907377",
                "osm_type": "node",
                "lat": 46.5362488,
                "lon": 15.6885598,
                "addr:city": "Maribor",
                "addr:country": "SI",
                "addr:housenumber": "1b",
                "addr:postcode": "2000",
                "addr:street": "Ulica borcev",
                "amenity": "pharmacy",
                "email": "lekarna.brezje@siol.net",
                "name": "Lekarna Brezje",
                "opening_hours": "Mo-Tu 08:30-19:00; We-Fr 08:30-18:00; Sa 08:30-13:00",
                "phone": "+386 2 426 0331",
                "website": "https://www.lekarna-brezje.si/"
              },
              "geometry": {
                "type": "Point",
                "coordinates": [
                  15.6885598,
                  46.5362488
                ]
              }
            },
            {
              "type": "Feature",
              "properties": {
                "id": "1820398990",
                "osm_type": "node",
                "lat": 46.4536224,
                "lon": 15.6746047,
                "amenity": "pharmacy",
                "name": "Lekarna Rače"
              },
              "geometry": {
                "type": "Point",
                "coordinates": [
                  15.6746047,
                  46.4536224
                ]
              }
            },
            {
              "type": "Feature",
              "properties": {
                "id": "2344481995",
                "osm_type": "node",
                "lat": 46.3866975,
                "lon": 15.5739806,
                "addr:city": "Slovenska Bistrica",
                "addr:housenumber": "27",
                "addr:postcode": "2310",
                "addr:street": "Plečnikova ulica",
                "amenity": "pharmacy",
                "dispensing": "yes",
                "healthcare": "pharmacy",
                "name": "Lekarna Slovenska Bistrica",
                "opening_hours": "Mo-Fr 08:00-07:00, Sa 08:00-13:00",
                "website": "http://www.lekarna-slov.bistrica.si/lek-plecnik.html",
                "wheelchair": "yes"
              },
              "geometry": {
                "type": "Point",
                "coordinates": [
                  15.5739806,
                  46.3866975
                ]
              }
            },
            {
              "type": "Feature",
              "properties": {
                "id": "2392663663",
                "osm_type": "node",
                "lat": 46.5227613,
                "lon": 15.6528476,
                "addr:housenumber": "67a",
                "addr:street": "Tržaška cesta",
                "amenity": "pharmacy",
                "name": "Lekarna v E. Leclercu",
                "opening_hours": "Mo-Fr 08:30-19:30; Sa 08:30-15:00",
                "wheelchair": "yes"
              },
              "geometry": {
                "type": "Point",
                "coordinates": [
                  15.6528476,
                  46.5227613
                ]
              }
            },
            {
              "type": "Feature",
              "properties": {
                "id": "2779328841",
                "osm_type": "node",
                "lat": 46.3953283,
                "lon": 15.5623469,
                "addr:city": "Slovenska Bistrica",
                "addr:housenumber": "30",
                "addr:postcode": "2310",
                "addr:street": "Partizanska ulica",
                "amenity": "pharmacy",
                "healthcare": "pharmacy",
                "name": "Lekarna Slovenska Bistrica - Bistrica",
                "website": "http://www.lekarna-slov.bistrica.si/lek-bistrica.html",
                "wheelchair": "yes"
              },
              "geometry": {
                "type": "Point",
                "coordinates": [
                  15.5623469,
                  46.3953283
                ]
              }
            },
            {
              "type": "Feature",
              "properties": {
                "id": "2779386211",
                "osm_type": "node",
                "lat": 46.3919278,
                "lon": 15.572065,
                "addr:city": "Slovenska Bistrica",
                "addr:housenumber": "1",
                "addr:postcode": "2310",
                "addr:street": "Partizanska ulica",
                "amenity": "pharmacy",
                "healthcare": "pharmacy",
                "name": "Lekarna Slovenska Bistrica - Center",
                "website": "http://www.lekarna-slov.bistrica.si/lek-center.html",
                "wheelchair": "yes"
              },
              "geometry": {
                "type": "Point",
                "coordinates": [
                  15.572065,
                  46.3919278
                ]
              }
            },
            {
              "type": "Feature",
              "properties": {
                "id": "4629930903",
                "osm_type": "node",
                "lat": 46.4994573,
                "lon": 15.6490428,
                "amenity": "pharmacy",
                "check_date": "2025-07-30",
                "name": "Lekarna",
                "opening_hours": "Mo,Th 14:30-20:00; Tu,We 08:00-15:00; Fr 10:00-14:00",
                "operator": "Radiomed d.o.o.",
                "phone": "+386 2 618 52 17"
              },
              "geometry": {
                "type": "Point",
                "coordinates": [
                  15.6490428,
                  46.4994573
                ]
              }
            },
            {
              "type": "Feature",
              "properties": {
                "id": "11023138740",
                "osm_type": "node",
                "lat": 46.5342493,
                "lon": 15.6643642,
                "amenity": "pharmacy",
                "healthcare": "pharmacy",
                "image:1": "https://i.imgur.com/4YqKHhW.jpg",
                "name": "Lekarna Tezno",
                "opening_hours": "Mo-Fr 07:30-19:00; Sa 07:30-12:00",
                "phone": "+386 2 320 79 10"
              },
              "geometry": {
                "type": "Point",
                "coordinates": [
                  15.6643642,
                  46.5342493
                ]
              }
            }
          ],
          "children": []
        },
        {
          "bbox": {
            "south": 46.372652,
            "west": 15.73002475,
            "north": 46.537928625000006,
            "east": 16.2068765
          },
          "poiCount": 12,
          "leafCount": 12,
          "averagePosition": [
            15.921727924999999,
            46.442125991666664
          ],
          "data": [
            {
              "type": "Feature",
              "properties": {
                "id": "1270182661",
                "osm_type": "node",
                "lat": 46.5011575,
                "lon": 15.7489303,
                "amenity": "pharmacy",
                "name": "Lekarna Duplek"
              },
              "geometry": {
                "type": "Point",
                "coordinates": [
                  15.7489303,
                  46.5011575
                ]
              }
            },
            {
              "type": "Feature",
              "properties": {
                "id": "1822975005",
                "osm_type": "node",
                "lat": 46.4680902,
                "lon": 15.7643641,
                "amenity": "pharmacy"
              },
              "geometry": {
                "type": "Point",
                "coordinates": [
                  15.7643641,
                  46.4680902
                ]
              }
            },
            {
              "type": "Feature",
              "properties": {
                "id": "2836458713",
                "osm_type": "node",
                "lat": 46.4252415,
                "lon": 15.8769857,
                "addr:city": "Ptuj",
                "addr:housenumber": "23",
                "addr:postcode": "2250",
                "addr:street": "Potrčeva cesta",
                "amenity": "pharmacy",
                "healthcare": "pharmacy",
                "name": "LEKARNA TOPLEK",
                "opening_hours": "Mo-Fr 07:00-19:00",
                "operator": "LEKARNA TOPLEK",
                "wheelchair": "yes"
              },
              "geometry": {
                "type": "Point",
                "coordinates": [
                  15.8769857,
                  46.4252415
                ]
              }
            },
            {
              "type": "Feature",
              "properties": {
                "id": "3159096261",
                "osm_type": "node",
                "lat": 46.4205366,
                "lon": 15.8741457,
                "addr:city": "Ptuj",
                "addr:housenumber": "9",
                "addr:postcode": "2250",
                "addr:street": "Trstenjakova ulica",
                "amenity": "pharmacy",
                "name": "Lekarne Ptuj",
                "operator": "Lekarne Ptuj",
                "website": "https://www.lekarne-ptuj.si/",
                "wheelchair": "yes"
              },
              "geometry": {
                "type": "Point",
                "coordinates": [
                  15.8741457,
                  46.4205366
                ]
              }
            },
            {
              "type": "Feature",
              "properties": {
                "id": "3966904857",
                "osm_type": "node",
                "lat": 46.4078186,
                "lon": 15.8373917,
                "amenity": "pharmacy",
                "name": "Lekarna pri Sv. Martinu"
              },
              "geometry": {
                "type": "Point",
                "coordinates": [
                  15.8373917,
                  46.4078186
                ]
              }
            },
            {
              "type": "Feature",
              "properties": {
                "id": "4005231478",
                "osm_type": "node",
                "lat": 46.485701,
                "lon": 15.9678973,
                "addr:city": "Juršinci",
                "addr:housenumber": "3",
                "addr:postcode": "2256",
                "addr:street": "Juršinci",
                "amenity": "pharmacy",
                "healthcare": "pharmacy",
                "name": "Lekarna Juršinci",
                "opening_hours": "Mo 7:30-16:00; Tu 7:15-15:15; We 11:15-19:30; Th 7:15-15:15; Fr 7:15-14:30",
                "operator": "Tadeja Tobias Klemar mag. farm.",
                "phone": "+386 2 758 21 12"
              },
              "geometry": {
                "type": "Point",
                "coordinates": [
                  15.9678973,
                  46.485701
                ]
              }
            },
            {
              "type": "Feature",
              "properties": {
                "id": "7921281785",
                "osm_type": "node",
                "lat": 46.4046821,
                "lon": 15.7948272,
                "amenity": "pharmacy",
                "healthcare": "pharmacy",
                "name": "Lekarne Ptuj (Lekarna Kidričevo)"
              },
              "geometry": {
                "type": "Point",
                "coordinates": [
                  15.7948272,
                  46.4046821
                ]
              }
            },
            {
              "type": "Feature",
              "properties": {
                "id": "11479183846",
                "osm_type": "node",
                "lat": 46.4342207,
                "lon": 15.9518358,
                "addr:city": "Dornava",
                "addr:housenumber": "135B",
                "addr:postcode": "2252",
                "addr:street": "Dornava",
                "amenity": "pharmacy",
                "healthcare": "pharmacy",
                "name": "Lekarna Dornava",
                "operator": "Lekarna Špringer",
                "website": "https://lekarna-springer.si/lekarna-dornava/"
              },
              "geometry": {
                "type": "Point",
                "coordinates": [
                  15.9518358,
                  46.4342207
                ]
              }
            },
            {
              "type": "Feature",
              "properties": {
                "id": "11599108513",
                "osm_type": "node",
                "lat": 46.4189807,
                "lon": 15.8791379,
                "addr:city": "Ptuj",
                "addr:housenumber": "15",
                "addr:postcode": "2250",
                "addr:street": "Ormoška cesta",
                "amenity": "pharmacy",
                "email": "budina@lekarne-ptuj.si",
                "healthcare": "pharmacy",
                "name": "Lekarne Ptuj - PE Budina-Brstje",
                "operator": "Javni zavod Lekarne Ptuj",
                "phone": "+386 2 748 18 66",
                "website": "https://www.lekarne-ptuj.si/lekarne/#gallery-details-budina-brstje"
              },
              "geometry": {
                "type": "Point",
                "coordinates": [
                  15.8791379,
                  46.4189807
                ]
              }
            },
            {
              "type": "Feature",
              "properties": {
                "id": "11623683839",
                "osm_type": "node",
                "lat": 46.4100865,
                "lon": 16.0129895,
                "addr:city": "Gorišnica",
                "addr:housenumber": "60a",
                "addr:postcode": "2272",
                "addr:street": "Gorišnica",
                "amenity": "pharmacy",
                "email": "gorisnica@lekarne-ptuj.si",
                "healthcare": "pharmacy",
                "name": "Lekarna Gorišnica",
                "operator": "Lekarne Ptuj",
                "ref:gurs:hs_mid": "21018104",
                "website": "https://www.lekarne-ptuj.si/lekarne/lekarna-gorisnica/"
              },
              "geometry": {
                "type": "Point",
                "coordinates": [
                  16.0129895,
                  46.4100865
                ]
              }
            },
            {
              "type": "Feature",
              "properties": {
                "id": "3464834606",
                "osm_type": "node",
                "lat": 46.5213025,
                "lon": 16.1937504,
                "amenity": "pharmacy",
                "name": "Lekarna Ljutomer",
                "opening_hours": "Mo-Fr 07:30-19:00; Sa 07:30-12:00"
              },
              "geometry": {
                "type": "Point",
                "coordinates": [
                  16.1937504,
                  46.5213025
                ]
              }
            },
            {
              "type": "Feature",
              "properties": {
                "id": "11635257960",
                "osm_type": "node",
                "lat": 46.407694,
                "lon": 16.1584795,
                "addr:city": "Ormož",
                "addr:housenumber": "2B",
                "addr:postcode": "2270",
                "addr:street": "Opekarniška cesta",
                "amenity": "pharmacy",
                "email": "lekarna.ormoz2@siol.net",
                "healthcare": "pharmacy",
                "name": "Lekarna Ormož, PE Lekarna Holermuos",
                "operator": "Lekarna Ormož",
                "website": "https://lekarnaormoz.com/lekarna-holermuos/"
              },
              "geometry": {
                "type": "Point",
                "coordinates": [
                  16.1584795,
                  46.407694
                ]
              }
            }
          ],
          "children": []
        },
        {
          "bbox": {
            "south": 46.537928625000006,
            "west": 15.253173,
            "north": 46.70320525,
            "east": 15.73002475
          },
          "poiCount": 20,
          "leafCount": 20,
          "averagePosition": [
            15.605000290000001,
            46.57150191
          ],
          "data": [
            {
              "type": "Feature",
              "properties": {
                "id": "379757820",
                "osm_type": "node",
                "lat": 46.5516011,
                "lon": 15.4934267,
                "amenity": "pharmacy",
                "dispensing": "yes",
                "name": "Lekarna Anita",
                "opening_hours": "Mo 12:00-19:00; Tu-Fr 07:30-15:30"
              },
              "geometry": {
                "type": "Point",
                "coordinates": [
                  15.4934267,
                  46.5516011
                ]
              }
            },
            {
              "type": "Feature",
              "properties": {
                "id": "1212462481",
                "osm_type": "node",
                "lat": 46.5895874,
                "lon": 15.3291523,
                "addr:city": "Podvelka",
                "addr:country": "SI",
                "addr:housenumber": "2",
                "addr:postcode": "2363",
                "addr:street": "Podvelka",
                "amenity": "pharmacy",
                "dispensing": "yes",
                "healthcare": "pharmacy",
                "name": "Koroška lekarna",
                "opening_hours": "Mo,We,Fr 08:00-15:00"
              },
              "geometry": {
                "type": "Point",
                "coordinates": [
                  15.3291523,
                  46.5895874
                ]
              }
            },
            {
              "type": "Feature",
              "properties": {
                "id": "2516101235",
                "osm_type": "node",
                "lat": 46.6673855,
                "lon": 15.4668858,
                "addr:city": "Leutschach",
                "addr:country": "AT",
                "addr:housenumber": "5",
                "addr:postcode": "8463",
                "addr:street": "Arnfelser Straße",
                "amenity": "pharmacy",
                "contact:phone": "+43 3454 70000",
                "healthcare": "pharmacy",
                "name": "Rebenlandapotheke",
                "opening_hours": "Mo-Fr 08:00-12:30, 15:00-18:30; Sa 08:00-12:00",
                "source": "Österr. Apothekerkammer - www.apotheker.or.at",
                "website": "https://www.rebenlandapotheke.at/",
                "wheelchair": "yes"
              },
              "geometry": {
                "type": "Point",
                "coordinates": [
                  15.4668858,
                  46.6673855
                ]
              }
            },
            {
              "type": "Feature",
              "properties": {
                "id": "477424492",
                "osm_type": "node",
                "lat": 46.5436091,
                "lon": 15.6290969,
                "amenity": "pharmacy",
                "name": "Lekarna Nova vas"
              },
              "geometry": {
                "type": "Point",
                "coordinates": [
                  15.6290969,
                  46.5436091
                ]
              }
            },
            {
              "type": "Feature",
              "properties": {
                "id": "862362108",
                "osm_type": "node",
                "lat": 46.5388807,
                "lon": 15.6332685,
                "addr:city": "Maribor",
                "addr:housenumber": "31",
                "addr:postcode": "2000",
                "addr:street": "Knafelčeva ulica",
                "amenity": "pharmacy",
                "email": "info@lekarna-arnica.si",
                "name": "Lekarna Arnica montana",
                "opening_hours": "Mo-Fr 7:00-19:30; Sa 8:00-13:00",
                "phone": "+386 90 57 00",
                "website": "http://www.lekarna-arnica.si/pages/si/predstavitev.php"
              },
              "geometry": {
                "type": "Point",
                "coordinates": [
                  15.6332685,
                  46.5388807
                ]
              }
            },
            {
              "type": "Feature",
              "properties": {
                "id": "1189122042",
                "osm_type": "node",
                "lat": 46.5515401,
                "lon": 15.6628075,
                "addr:city": "Maribor",
                "addr:housenumber": "30a",
                "addr:postcode": "2000",
                "addr:street": "Cesta XIV. divizije",
                "amenity": "pharmacy",
                "email": "lekarna.pobrezje@mb-lekarne.si",
                "name": "Lekarna Pobrežje",
                "opening_hours": "Mo-Fr 7:30-19:00, Sa 7:30-12:00",
                "phone": "+386 2 480 5440",
                "website": "https://www.mb-lekarne.si/slo/",
                "wheelchair": "yes"
              },
              "geometry": {
                "type": "Point",
                "coordinates": [
                  15.6628075,
                  46.5515401
                ]
              }
            },
            {
              "type": "Feature",
              "properties": {
                "id": "1847525395",
                "osm_type": "node",
                "lat": 46.5394303,
                "lon": 15.6406774,
                "addr:housenumber": "1",
                "addr:street": "Ulica Eve Lovše",
                "amenity": "pharmacy",
                "check_date:opening_hours": "2023-07-18",
                "email": "lekarna.betnava@mb-lekarne.si",
                "name": "Lekarna Betnava",
                "opening_hours": "Mo-Fr 08:00-20:00; Sa 08:00-15:00",
                "phone": "+386 2 799 5066",
                "website": "https://www.mb-lekarne.si/"
              },
              "geometry": {
                "type": "Point",
                "coordinates": [
                  15.6406774,
                  46.5394303
                ]
              }
            },
            {
              "type": "Feature",
              "properties": {
                "id": "1889591704",
                "osm_type": "node",
                "lat": 46.5386327,
                "lon": 15.6054391,
                "addr:housenumber": "9",
                "addr:street": "Pohorska ulica",
                "amenity": "pharmacy",
                "dispensing": "yes",
                "name": "Lekarna Radvanje",
                "opening_hours": "Mo-Fr 08:00-19:00; Sa 08:00-13:00"
              },
              "geometry": {
                "type": "Point",
                "coordinates": [
                  15.6054391,
                  46.5386327
                ]
              }
            },
            {
              "type": "Feature",
              "properties": {
                "id": "1914134208",
                "osm_type": "node",
                "lat": 46.5583217,
                "lon": 15.6464622,
                "addr:housenumber": "12",
                "addr:street": "Gosposka ulica",
                "amenity": "pharmacy",
                "email": "lekarna.center@mb-lekarne.si",
                "name": "Lekarna Center",
                "opening_hours": "Mo-Fr 9:00-17:00; Sa 8:00-13:00",
                "phone": "+386 2 229 45 30",
                "wheelchair": "yes"
              },
              "geometry": {
                "type": "Point",
                "coordinates": [
                  15.6464622,
                  46.5583217
                ]
              }
            },
            {
              "type": "Feature",
              "properties": {
                "id": "1914134214",
                "osm_type": "node",
                "lat": 46.561309,
                "lon": 15.6345698,
                "addr:city": "Maribor",
                "addr:housenumber": "41",
                "addr:postcode": "2000",
                "addr:street": "Gosposvetska cesta",
                "amenity": "pharmacy",
                "dispensing": "yes",
                "drive_through": "no",
                "healthcare": "pharmacy",
                "name": "Lekarna Gosposvetska",
                "opening_hours": "Mo-Fr 07:00-19:00; Sa 07:00-13:00",
                "operator": "Mariborske lekarne"
              },
              "geometry": {
                "type": "Point",
                "coordinates": [
                  15.6345698,
                  46.561309
                ]
              }
            },
            {
              "type": "Feature",
              "properties": {
                "id": "1914134219",
                "osm_type": "node",
                "lat": 46.561566,
                "lon": 15.6565116,
                "addr:city": "Maribor",
                "addr:country": "SI",
                "addr:housenumber": "39",
                "addr:postcode": "2000",
                "addr:street": "Partizanska cesta",
                "amenity": "pharmacy",
                "email": "lekarna.melje@mb-lekarne.si",
                "name": "Lekarna Melje",
                "opening_hours": "Mo-Fr 8:00-19:00; Sa 8:00-12:00",
                "phone": "+386 2 250 6410",
                "website": "https://www.mb-lekarne.si/slo/prodajna_mesta/seznam_lekaren/lekarna/17/melje",
                "wheelchair": "yes"
              },
              "geometry": {
                "type": "Point",
                "coordinates": [
                  15.6565116,
                  46.561566
                ]
              }
            },
            {
              "type": "Feature",
              "properties": {
                "id": "1914134224",
                "osm_type": "node",
                "lat": 46.560566,
                "lon": 15.6498686,
                "addr:city": "Maribor",
                "addr:housenumber": "1",
                "addr:postcode": "2000",
                "addr:street": "Partizanska cesta",
                "amenity": "pharmacy",
                "healthcare": "pharmacy",
                "name": "Lekarna pri Gradu",
                "opening_hours": "Mo-Fr 07:30-19:00; Sa 07:30-13:00",
                "operator": "Mariborske lekarne"
              },
              "geometry": {
                "type": "Point",
                "coordinates": [
                  15.6498686,
                  46.560566
                ]
              }
            },
            {
              "type": "Feature",
              "properties": {
                "id": "1914134230",
                "osm_type": "node",
                "lat": 46.5534024,
                "lon": 15.6466496,
                "addr:housenumber": "9",
                "addr:street": "Ljubljanska ulica",
                "amenity": "pharmacy",
                "healthcare": "pharmacy",
                "name": "Lekarna Tabor",
                "opening_hours": "24/7",
                "wheelchair": "yes"
              },
              "geometry": {
                "type": "Point",
                "coordinates": [
                  15.6466496,
                  46.5534024
                ]
              }
            },
            {
              "type": "Feature",
              "properties": {
                "id": "1919108928",
                "osm_type": "node",
                "lat": 46.5535096,
                "lon": 15.6423106,
                "addr:housenumber": "18",
                "addr:postcode": "2000",
                "addr:street": "Gorkega ulica",
                "amenity": "pharmacy",
                "name": "Lekarna Lah",
                "opening_hours": "Mo-Fr 08:00-19:00; Sa 08:00-12:00"
              },
              "geometry": {
                "type": "Point",
                "coordinates": [
                  15.6423106,
                  46.5535096
                ]
              }
            },
            {
              "type": "Feature",
              "properties": {
                "id": "2206943552",
                "osm_type": "node",
                "lat": 46.5732837,
                "lon": 15.6156528,
                "amenity": "pharmacy",
                "dispensing": "yes",
                "name": "Lekarna Kamnica",
                "opening_hours": "Mo-Fr 07:30-19:00; Sa 08:00-12:00; PH off",
                "operator": "Lekarne Maribor"
              },
              "geometry": {
                "type": "Point",
                "coordinates": [
                  15.6156528,
                  46.5732837
                ]
              }
            },
            {
              "type": "Feature",
              "properties": {
                "id": "3382873222",
                "osm_type": "node",
                "lat": 46.5539052,
                "lon": 15.5816585,
                "addr:country": "SI",
                "addr:housenumber": "269",
                "addr:place": "Limbuš",
                "addr:postcode": "2431",
                "addr:street": "Lackova cesta",
                "amenity": "pharmacy",
                "dispensing": "yes",
                "name": "Lekarna Limbuš",
                "opening_hours": "Mo-Fr 08:00-16:00; Tu,We 11:30-19:30; PH off",
                "operator": "Lekarne Maribor"
              },
              "geometry": {
                "type": "Point",
                "coordinates": [
                  15.5816585,
                  46.5539052
                ]
              }
            },
            {
              "type": "Feature",
              "properties": {
                "id": "5178974908",
                "osm_type": "node",
                "lat": 46.5541037,
                "lon": 15.6519261,
                "amenity": "pharmacy",
                "email": "Lekarna.Europark@siol.net",
                "healthcare": "pharmacy",
                "level": "0",
                "name": "Lekarna",
                "phone": "+386 2 320 40 56"
              },
              "geometry": {
                "type": "Point",
                "coordinates": [
                  15.6519261,
                  46.5541037
                ]
              }
            },
            {
              "type": "Feature",
              "properties": {
                "id": "6163743553",
                "osm_type": "node",
                "lat": 46.5601227,
                "lon": 15.6429702,
                "addr:city": "Maribor",
                "addr:housenumber": "33",
                "addr:postcode": "2000",
                "addr:street": "Slovenska ulica",
                "amenity": "pharmacy",
                "email": "info@e-lekarna.si",
                "name": "Lekarna pri gledališču",
                "opening_hours": "Mo-Fr 08:00-19:00; Sa 08:00-12:00",
                "phone": "+386 2 228 1620",
                "website": "http://www.e-lekarna.si/pages/si/predstavitev.php"
              },
              "geometry": {
                "type": "Point",
                "coordinates": [
                  15.6429702,
                  46.5601227
                ]
              }
            },
            {
              "type": "Feature",
              "properties": {
                "id": "10764256648",
                "osm_type": "node",
                "lat": 46.6392812,
                "lon": 15.6155635,
                "amenity": "pharmacy",
                "healthcare": "pharmacy",
                "name": "Lekarna"
              },
              "geometry": {
                "type": "Point",
                "coordinates": [
                  15.6155635,
                  46.6392812
                ]
              }
            },
            {
              "type": "Feature",
              "properties": {
                "id": "12444368701",
                "osm_type": "node",
                "lat": 46.6800001,
                "lon": 15.6551081,
                "addr:postcode": "2212",
                "amenity": "pharmacy",
                "name": "Lekarne Maribor, Lekarna Šentilj",
                "opening_hours": "Mo-Fr 08:00-19:00; Sa 08:00-12:00",
                "phone": "+386 2 650 59 00"
              },
              "geometry": {
                "type": "Point",
                "coordinates": [
                  15.6551081,
                  46.6800001
                ]
              }
            }
          ],
          "children": []
        },
        {
          "bbox": {
            "south": 46.537928625000006,
            "west": 15.73002475,
            "north": 46.70320525,
            "east": 16.2068765
          },
          "poiCount": 9,
          "leafCount": 9,
          "averagePosition": [
            16.082705999999998,
            46.64392911111111
          ],
          "data": [
            {
              "type": "Feature",
              "properties": {
                "id": "3197332703",
                "osm_type": "node",
                "lat": 46.6742504,
                "lon": 15.9939661,
                "amenity": "pharmacy",
                "name": "Lekarna"
              },
              "geometry": {
                "type": "Point",
                "coordinates": [
                  15.9939661,
                  46.6742504
                ]
              }
            },
            {
              "type": "Feature",
              "properties": {
                "id": "3352658425",
                "osm_type": "node",
                "lat": 46.5674802,
                "lon": 16.0143686,
                "amenity": "pharmacy",
                "name": "Lekarna"
              },
              "geometry": {
                "type": "Point",
                "coordinates": [
                  16.0143686,
                  46.5674802
                ]
              }
            },
            {
              "type": "Feature",
              "properties": {
                "id": "6855892180",
                "osm_type": "node",
                "lat": 46.6968611,
                "lon": 15.9018584,
                "amenity": "pharmacy",
                "name": "Lekarna Špringler"
              },
              "geometry": {
                "type": "Point",
                "coordinates": [
                  15.9018584,
                  46.6968611
                ]
              }
            },
            {
              "type": "Feature",
              "properties": {
                "id": "620019801",
                "osm_type": "node",
                "lat": 46.6608687,
                "lon": 16.1633053,
                "addr:city": "Murska Sobota",
                "addr:housenumber": "2",
                "addr:postcode": "9000",
                "addr:street": "Kocljeva ulica",
                "amenity": "pharmacy",
                "check_date": "2023-10-06",
                "dispensing": "yes",
                "drive_through": "no",
                "healthcare": "pharmacy",
                "name": "Pomurske Lekarne",
                "opening_hours": "Mo-Fr 07:30-19:00; Sa 07:30-14:00",
                "wheelchair": "yes"
              },
              "geometry": {
                "type": "Point",
                "coordinates": [
                  16.1633053,
                  46.6608687
                ]
              }
            },
            {
              "type": "Feature",
              "properties": {
                "id": "3109260546",
                "osm_type": "node",
                "lat": 46.6604899,
                "lon": 16.1673048,
                "addr:city": "Murska Sobota",
                "addr:housenumber": "12",
                "addr:postcode": "9000",
                "addr:street": "Cvetkova ulica",
                "amenity": "pharmacy",
                "drive_through": "no",
                "healthcare": "pharmacy",
                "opening_hours": "Mo-Fr 08:00-17:00",
                "operator": "Pomurske Lekarne",
                "phone": "+38625124460"
              },
              "geometry": {
                "type": "Point",
                "coordinates": [
                  16.1673048,
                  46.6604899
                ]
              }
            },
            {
              "type": "Feature",
              "properties": {
                "id": "3122758997",
                "osm_type": "node",
                "lat": 46.6619864,
                "lon": 16.1456413,
                "addr:city": "Murska Sobota",
                "addr:housenumber": "43",
                "addr:postcode": "9000",
                "addr:street": "Ulica Štefana Kovača",
                "amenity": "pharmacy",
                "healthcare": "pharmacy",
                "name": "Pomurske Lekarne"
              },
              "geometry": {
                "type": "Point",
                "coordinates": [
                  16.1456413,
                  46.6619864
                ]
              }
            },
            {
              "type": "Feature",
              "properties": {
                "id": "3242428395",
                "osm_type": "node",
                "lat": 46.669726,
                "lon": 16.1778325,
                "addr:city": "Murska Sobota",
                "addr:housenumber": "1d",
                "addr:postcode": "9000",
                "addr:street": "Nemčavci",
                "amenity": "pharmacy",
                "healthcare": "pharmacy",
                "name": "Lekarna BTC"
              },
              "geometry": {
                "type": "Point",
                "coordinates": [
                  16.1778325,
                  46.669726
                ]
              }
            },
            {
              "type": "Feature",
              "properties": {
                "id": "3441608812",
                "osm_type": "node",
                "lat": 46.5627512,
                "lon": 16.1411885,
                "amenity": "pharmacy",
                "healthcare": "pharmacy",
                "name": "Lekarna Apoteka Križevci",
                "phone": "02 5888 156"
              },
              "geometry": {
                "type": "Point",
                "coordinates": [
                  16.1411885,
                  46.5627512
                ]
              }
            },
            {
              "type": "Feature",
              "properties": {
                "id": "4999124525",
                "osm_type": "node",
                "lat": 46.6409481,
                "lon": 16.0388885,
                "amenity": "pharmacy",
                "contact:phone": "+38640 640 968",
                "name": "Lekarna",
                "operator": "Erika Brajnik",
                "phone": "+3862 568 4608",
                "website": "https://www.saeka.si/poslovalnice-po-sloveniji/"
              },
              "geometry": {
                "type": "Point",
                "coordinates": [
                  16.0388885,
                  46.6409481
                ]
              }
            }
          ],
          "children": []
        }
      ]
    },
    {
      "bbox": {
        "south": 46.372652,
        "west": 16.2068765,
        "north": 46.70320525,
        "east": 17.16058
      },
      "poiCount": 54,
      "leafCount": 0,
      "averagePosition": [
        16.644571407407412,
        46.48321603518519
      ],
      "data": [],
      "children": [
        {
          "bbox": {
            "south": 46.372652,
            "west": 16.2068765,
            "north": 46.537928625000006,
            "east": 16.68372825
          },
          "poiCount": 23,
          "leafCount": 23,
          "averagePosition": [
            16.431077969565216,
            46.42538814782609
          ],
          "data": [
            {
              "type": "Feature",
              "properties": {
                "id": "380601764",
                "osm_type": "node",
                "lat": 46.4401871,
                "lon": 16.3783011,
                "addr:city": "Lopatinec",
                "addr:housenumber": "30A",
                "addr:postcode": "40311",
                "addr:street": "Pleškovec",
                "amenity": "pharmacy",
                "healthcare": "pharmacy",
                "name": "Ljekarna Dominko"
              },
              "geometry": {
                "type": "Point",
                "coordinates": [
                  16.3783011,
                  46.4401871
                ]
              }
            },
            {
              "type": "Feature",
              "properties": {
                "id": "760806406",
                "osm_type": "node",
                "lat": 46.3885519,
                "lon": 16.4362341,
                "addr:city": "Čakovec",
                "addr:housenumber": "1",
                "addr:postcode": "40000",
                "addr:street": "Ulica Valenta Morandinija",
                "amenity": "pharmacy",
                "dispensing": "yes",
                "healthcare": "pharmacy",
                "name": "Ljekarna Čakovec",
                "opening_hours": "Mo-Sa 07:00-20:00; Su 08:00-20:00",
                "website": "https://ljekarna-cakovec.hr",
                "wheelchair": "yes"
              },
              "geometry": {
                "type": "Point",
                "coordinates": [
                  16.4362341,
                  46.3885519
                ]
              }
            },
            {
              "type": "Feature",
              "properties": {
                "id": "760806449",
                "osm_type": "node",
                "lat": 46.3927005,
                "lon": 16.4364619,
                "addr:city": "Čakovec",
                "addr:housenumber": "2C",
                "addr:postcode": "40000",
                "addr:street": "Ulica ZAVNOH-a",
                "amenity": "pharmacy",
                "healthcare": "pharmacy",
                "name": "Ljekarna Kropek"
              },
              "geometry": {
                "type": "Point",
                "coordinates": [
                  16.4364619,
                  46.3927005
                ]
              }
            },
            {
              "type": "Feature",
              "properties": {
                "id": "1039799492",
                "osm_type": "node",
                "lat": 46.3894111,
                "lon": 16.4291328,
                "addr:city": "Čakovec",
                "addr:housenumber": "10",
                "addr:postcode": "40000",
                "addr:street": "Zrinsko-Frankopanska ulica",
                "amenity": "pharmacy",
                "dispensing": "no",
                "healthcare": "pharmacy",
                "name": "Ljekarna Čakovec",
                "opening_hours": "Mo-Fr 07:00-20:00; Sa 07:30-15:00",
                "website": "https://ljekarna-cakovec.hr/"
              },
              "geometry": {
                "type": "Point",
                "coordinates": [
                  16.4291328,
                  46.3894111
                ]
              }
            },
            {
              "type": "Feature",
              "properties": {
                "id": "1913706413",
                "osm_type": "node",
                "lat": 46.4781228,
                "lon": 16.4559186,
                "amenity": "pharmacy",
                "dispensing": "no",
                "name": "Ljekarna Bečirević"
              },
              "geometry": {
                "type": "Point",
                "coordinates": [
                  16.4559186,
                  46.4781228
                ]
              }
            },
            {
              "type": "Feature",
              "properties": {
                "id": "2377197643",
                "osm_type": "node",
                "lat": 46.5008345,
                "lon": 16.2859932,
                "addr:city": "Štrigova",
                "addr:housenumber": "27",
                "addr:postcode": "40312",
                "addr:street": "Štrigova",
                "amenity": "pharmacy",
                "dispensing": "yes",
                "healthcare": "pharmacy",
                "name": "Ljekarna Čakovec",
                "source": "local knowledge",
                "website": "https://ljekarna-cakovec.hr/wq"
              },
              "geometry": {
                "type": "Point",
                "coordinates": [
                  16.2859932,
                  46.5008345
                ]
              }
            },
            {
              "type": "Feature",
              "properties": {
                "id": "2387652994",
                "osm_type": "node",
                "lat": 46.5253034,
                "lon": 16.3637885,
                "addr:city": "Sveti Martin na Muri",
                "addr:housenumber": "10",
                "addr:postcode": "40313",
                "addr:street": "Trg svetog Martina",
                "amenity": "pharmacy",
                "dispensing": "yes",
                "healthcare": "pharmacy",
                "name": "Ljekarna Počuča",
                "opening_hours": "Mo-Sa 07:30-20:00; Su 08:00-12:00",
                "website": "http://www.ljekarna-poc.hr/"
              },
              "geometry": {
                "type": "Point",
                "coordinates": [
                  16.3637885,
                  46.5253034
                ]
              }
            },
            {
              "type": "Feature",
              "properties": {
                "id": "2410350447",
                "osm_type": "node",
                "lat": 46.3755176,
                "lon": 16.5297756,
                "addr:city": "Mala Subotica",
                "addr:housenumber": "9",
                "addr:postcode": "40321",
                "addr:street": "Benkovec",
                "amenity": "pharmacy",
                "dispensing": "yes",
                "healthcare": "pharmacy",
                "name": "Ljekarne Petek"
              },
              "geometry": {
                "type": "Point",
                "coordinates": [
                  16.5297756,
                  46.3755176
                ]
              }
            },
            {
              "type": "Feature",
              "properties": {
                "id": "2477951870",
                "osm_type": "node",
                "lat": 46.3911899,
                "lon": 16.3237219,
                "addr:city": "Macinec",
                "addr:housenumber": "26",
                "addr:postcode": "40306",
                "addr:street": "Glavna ulica",
                "amenity": "pharmacy",
                "dispensing": "yes",
                "healthcare": "pharmacy",
                "name": "Ljekarna Petek"
              },
              "geometry": {
                "type": "Point",
                "coordinates": [
                  16.3237219,
                  46.3911899
                ]
              }
            },
            {
              "type": "Feature",
              "properties": {
                "id": "3034002295",
                "osm_type": "node",
                "lat": 46.3884352,
                "lon": 16.4454487,
                "addr:city": "Čakovec",
                "addr:housenumber": "5",
                "addr:postcode": "40000",
                "addr:street": "Ulica Dobriše Cesarića",
                "amenity": "pharmacy",
                "healthcare": "pharmacy",
                "name": "Ljekarna Kovač",
                "opening_hours": "Mo-Fr 07:00-20:00; Sa 07:30-15:00"
              },
              "geometry": {
                "type": "Point",
                "coordinates": [
                  16.4454487,
                  46.3884352
                ]
              }
            },
            {
              "type": "Feature",
              "properties": {
                "id": "3816921143",
                "osm_type": "node",
                "lat": 46.3786454,
                "lon": 16.443511,
                "addr:city": "Čakovec",
                "addr:housenumber": "15",
                "addr:postcode": "40000",
                "addr:street": "Ulica Nikole Pavića",
                "amenity": "pharmacy",
                "healthcare": "pharmacy",
                "name": "Ljekarna Štefan"
              },
              "geometry": {
                "type": "Point",
                "coordinates": [
                  16.443511,
                  46.3786454
                ]
              }
            },
            {
              "type": "Feature",
              "properties": {
                "id": "4718877897",
                "osm_type": "node",
                "lat": 46.5135013,
                "lon": 16.4398027,
                "addr:city": "Mursko Središće",
                "addr:housenumber": "6",
                "addr:postcode": "40315",
                "addr:street": "Trg bana Josipa Jelačića",
                "amenity": "pharmacy",
                "name": "Ljekarna Čakovec",
                "phone": "+385 40 543 140",
                "website": "https://ljekarna-cakovec.hr/"
              },
              "geometry": {
                "type": "Point",
                "coordinates": [
                  16.4398027,
                  46.5135013
                ]
              }
            },
            {
              "type": "Feature",
              "properties": {
                "id": "5048663903",
                "osm_type": "node",
                "lat": 46.5131316,
                "lon": 16.4391531,
                "amenity": "pharmacy",
                "name": "Poljoprivredna Ljekarna"
              },
              "geometry": {
                "type": "Point",
                "coordinates": [
                  16.4391531,
                  46.5131316
                ]
              }
            },
            {
              "type": "Feature",
              "properties": {
                "id": "5094614799",
                "osm_type": "node",
                "lat": 46.3969101,
                "lon": 16.2718557,
                "addr:city": "Središče ob Dravi",
                "addr:postcode": "2277",
                "addr:street": "Trg talcev",
                "amenity": "pharmacy",
                "fixme": "This node was inside building but didn't match any of its addresses."
              },
              "geometry": {
                "type": "Point",
                "coordinates": [
                  16.2718557,
                  46.3969101
                ]
              }
            },
            {
              "type": "Feature",
              "properties": {
                "id": "6161708919",
                "osm_type": "node",
                "lat": 46.5123499,
                "lon": 16.4415778,
                "addr:city": "Mursko Središće",
                "addr:country": "HR",
                "addr:housenumber": "20",
                "addr:postcode": "40315",
                "addr:street": "Frankopanska ulica",
                "amenity": "pharmacy",
                "name": "Ljekarna Bećirović"
              },
              "geometry": {
                "type": "Point",
                "coordinates": [
                  16.4415778,
                  46.5123499
                ]
              }
            },
            {
              "type": "Feature",
              "properties": {
                "id": "6558016644",
                "osm_type": "node",
                "lat": 46.3888527,
                "lon": 16.4135865,
                "addr:city": "Čakovec",
                "addr:housenumber": "1",
                "addr:postcode": "40000",
                "addr:street": "Obrtnička ulica",
                "amenity": "pharmacy",
                "dispensing": "no",
                "healthcare": "pharmacy",
                "website": "https://www.farmacia.hr/"
              },
              "geometry": {
                "type": "Point",
                "coordinates": [
                  16.4135865,
                  46.3888527
                ]
              }
            },
            {
              "type": "Feature",
              "properties": {
                "id": "6606338740",
                "osm_type": "node",
                "lat": 46.3933096,
                "lon": 16.4359937,
                "addr:city": "Čakovec",
                "addr:housenumber": "20",
                "addr:postcode": "40000",
                "addr:street": "Ulica Ivana Gorana Kovačića",
                "amenity": "pharmacy",
                "healthcare": "pharmacy",
                "name": "Ljekarna Počuča",
                "opening_hours": "Mo-Fr 07:00-20:00; Sa 07:30-15:00",
                "website": "http://www.ljekarna-poc.hr/"
              },
              "geometry": {
                "type": "Point",
                "coordinates": [
                  16.4359937,
                  46.3933096
                ]
              }
            },
            {
              "type": "Feature",
              "properties": {
                "id": "6948799346",
                "osm_type": "node",
                "lat": 46.376841,
                "lon": 16.3808708,
                "addr:city": "Nedelišće",
                "addr:housenumber": "1A",
                "addr:postcode": "40305",
                "addr:street": "Ulica maršala Tita",
                "amenity": "pharmacy",
                "dispensing": "yes",
                "healthcare": "pharmacy",
                "name": "Ljekarna Počuča",
                "opening_hours": "Mo-Fr 07:00-20:00; Sa 07:30-15:00",
                "website": "https://www.ljekarna-poc.hr/"
              },
              "geometry": {
                "type": "Point",
                "coordinates": [
                  16.3808708,
                  46.376841
                ]
              }
            },
            {
              "type": "Feature",
              "properties": {
                "id": "7283235124",
                "osm_type": "node",
                "lat": 46.4067819,
                "lon": 16.5225885,
                "addr:city": "Belica",
                "addr:housenumber": "118A",
                "addr:postcode": "40319",
                "addr:street": "Ulica kralja Tomislava",
                "amenity": "pharmacy",
                "dispensing": "yes",
                "healthcare": "pharmacy",
                "name": "Ljekarna Počuča",
                "website": "http://www.ljekarna-poc.hr/"
              },
              "geometry": {
                "type": "Point",
                "coordinates": [
                  16.5225885,
                  46.4067819
                ]
              }
            },
            {
              "type": "Feature",
              "properties": {
                "id": "11902357946",
                "osm_type": "node",
                "lat": 46.389037,
                "lon": 16.4491663,
                "addr:city": "Čakovec",
                "addr:street": "Ulica 34. inženjerijske bojne",
                "amenity": "pharmacy",
                "healthcare": "pharmacy",
                "name": "Mandis Pharm"
              },
              "geometry": {
                "type": "Point",
                "coordinates": [
                  16.4491663,
                  46.389037
                ]
              }
            },
            {
              "type": "Feature",
              "properties": {
                "id": "12539477634",
                "osm_type": "node",
                "lat": 46.4301725,
                "lon": 16.3218239,
                "amenity": "pharmacy",
                "name": "Lekarna"
              },
              "geometry": {
                "type": "Point",
                "coordinates": [
                  16.3218239,
                  46.4301725
                ]
              }
            },
            {
              "type": "Feature",
              "properties": {
                "id": "1132542925",
                "osm_type": "node",
                "lat": 46.3840734,
                "lon": 16.6726302,
                "addr:city": "Goričan",
                "addr:street": "Školska",
                "amenity": "pharmacy",
                "name": "Ljekarna Počuća"
              },
              "geometry": {
                "type": "Point",
                "coordinates": [
                  16.6726302,
                  46.3840734
                ]
              }
            },
            {
              "type": "Feature",
              "properties": {
                "id": "7356182448",
                "osm_type": "node",
                "lat": 46.430067,
                "lon": 16.5974567,
                "addr:housenumber": "13",
                "addr:place": "Domašinec",
                "addr:street": "Ulica Martina Pušteka",
                "amenity": "pharmacy",
                "healthcare": "pharmacy",
                "name": "Ljekarna Čakovec",
                "opening_hours": "Mo-Fr 08:00-14:00",
                "website": "https://ljekarna-cakovec.hr/"
              },
              "geometry": {
                "type": "Point",
                "coordinates": [
                  16.5974567,
                  46.430067
                ]
              }
            }
          ],
          "children": []
        },
        {
          "bbox": {
            "south": 46.372652,
            "west": 16.68372825,
            "north": 46.537928625000006,
            "east": 17.16058
          },
          "poiCount": 18,
          "leafCount": 18,
          "averagePosition": [
            16.929074533333335,
            46.467462688888894
          ],
          "data": [
            {
              "type": "Feature",
              "properties": {
                "id": "2096176993",
                "osm_type": "node",
                "lat": 46.4621683,
                "lon": 17.014832,
                "amenity": "pharmacy",
                "healthcare": "pharmacy",
                "name": "Keleti Gyógyszertár"
              },
              "geometry": {
                "type": "Point",
                "coordinates": [
                  17.014832,
                  46.4621683
                ]
              }
            },
            {
              "type": "Feature",
              "properties": {
                "id": "2271890133",
                "osm_type": "node",
                "lat": 46.4543577,
                "lon": 17.0117573,
                "amenity": "pharmacy",
                "healthcare": "pharmacy",
                "name": "Centrum Gyógyszertár",
                "opening_hours": "Mo-Sa 09:00-19:00; Su 09:00-15:00"
              },
              "geometry": {
                "type": "Point",
                "coordinates": [
                  17.0117573,
                  46.4543577
                ]
              }
            },
            {
              "type": "Feature",
              "properties": {
                "id": "2366239536",
                "osm_type": "node",
                "lat": 46.4550563,
                "lon": 16.9892821,
                "amenity": "pharmacy",
                "healthcare": "pharmacy",
                "name": "Belvárosi Patika",
                "opening_hours": "Mo-Fr 07:30-18:00; Sa 07:30-12:00"
              },
              "geometry": {
                "type": "Point",
                "coordinates": [
                  16.9892821,
                  46.4550563
                ]
              }
            },
            {
              "type": "Feature",
              "properties": {
                "id": "2366239539",
                "osm_type": "node",
                "lat": 46.4567267,
                "lon": 16.9896214,
                "amenity": "pharmacy",
                "brand": "Benu",
                "brand:wikidata": "Q62562792",
                "dispensing": "yes",
                "healthcare": "pharmacy",
                "name": "Benu",
                "opening_hours": "Mo-Fr 07:00-18:00; Sa 08:00-12:00"
              },
              "geometry": {
                "type": "Point",
                "coordinates": [
                  16.9896214,
                  46.4567267
                ]
              }
            },
            {
              "type": "Feature",
              "properties": {
                "id": "2366239658",
                "osm_type": "node",
                "lat": 46.4555554,
                "lon": 16.9846028,
                "amenity": "pharmacy",
                "healthcare": "pharmacy",
                "name": "Király gyógyszertár",
                "opening_hours": "Mo-Fr 07:30-17:30; Sa 07:30-12:30"
              },
              "geometry": {
                "type": "Point",
                "coordinates": [
                  16.9846028,
                  46.4555554
                ]
              }
            },
            {
              "type": "Feature",
              "properties": {
                "id": "2504386826",
                "osm_type": "node",
                "lat": 46.4642063,
                "lon": 17.0120772,
                "addr:city": "Nagykanizsa",
                "addr:housenumber": "2",
                "addr:postcode": "8800",
                "addr:street": "Boszorkány utca",
                "amenity": "pharmacy",
                "dispensing": "yes",
                "healthcare": "pharmacy",
                "name": "Zsálya gyógyszertár",
                "wheelchair": "yes"
              },
              "geometry": {
                "type": "Point",
                "coordinates": [
                  17.0120772,
                  46.4642063
                ]
              }
            },
            {
              "type": "Feature",
              "properties": {
                "id": "2508600785",
                "osm_type": "node",
                "lat": 46.4525562,
                "lon": 16.9985044,
                "amenity": "pharmacy",
                "dispensing": "yes",
                "healthcare": "pharmacy",
                "name": "Fagyöngy Patika"
              },
              "geometry": {
                "type": "Point",
                "coordinates": [
                  16.9985044,
                  46.4525562
                ]
              }
            },
            {
              "type": "Feature",
              "properties": {
                "id": "2624815098",
                "osm_type": "node",
                "lat": 46.4543064,
                "lon": 17.01217,
                "amenity": "pharmacy",
                "brand": "Benu",
                "brand:wikidata": "Q62562792",
                "dispensing": "yes",
                "healthcare": "pharmacy",
                "name": "Benu",
                "opening_hours": "Mo-Fr 09:00-19:00; Sa 09:00-16:00; Su 09:00-15:00"
              },
              "geometry": {
                "type": "Point",
                "coordinates": [
                  17.01217,
                  46.4543064
                ]
              }
            },
            {
              "type": "Feature",
              "properties": {
                "id": "3456438478",
                "osm_type": "node",
                "lat": 46.5006925,
                "lon": 16.9857721,
                "addr:city": "Nagykanizsa",
                "addr:housenumber": "51",
                "addr:postcode": "8808",
                "addr:street": "Alkotmány út",
                "addr:suburb": "Palin",
                "amenity": "pharmacy",
                "contact:phone": "+36 93 333 521",
                "healthcare": "pharmacy",
                "name": "Zöldfenyő Gyógyszertár",
                "opening_hours": "Mo-Fr 08:00-17:00",
                "url": "http://turistautak.hu/poi.php?id=59819",
                "wheelchair": "no"
              },
              "geometry": {
                "type": "Point",
                "coordinates": [
                  16.9857721,
                  46.5006925
                ]
              }
            },
            {
              "type": "Feature",
              "properties": {
                "id": "3465219831",
                "osm_type": "node",
                "lat": 46.5222029,
                "lon": 16.7284394,
                "amenity": "pharmacy",
                "healthcare": "pharmacy",
                "name": "Nyírfa Patika",
                "source": "turistautak.hu",
                "source:date": "2011-09-19",
                "url": "http://turistautak.hu/poi.php?id=75949"
              },
              "geometry": {
                "type": "Point",
                "coordinates": [
                  16.7284394,
                  46.5222029
                ]
              }
            },
            {
              "type": "Feature",
              "properties": {
                "id": "5715927281",
                "osm_type": "node",
                "lat": 46.4345229,
                "lon": 16.9009077,
                "amenity": "pharmacy",
                "dispensing": "yes",
                "healthcare": "pharmacy"
              },
              "geometry": {
                "type": "Point",
                "coordinates": [
                  16.9009077,
                  46.4345229
                ]
              }
            },
            {
              "type": "Feature",
              "properties": {
                "id": "6002601630",
                "osm_type": "node",
                "lat": 46.5078461,
                "lon": 16.7815294,
                "amenity": "pharmacy"
              },
              "geometry": {
                "type": "Point",
                "coordinates": [
                  16.7815294,
                  46.5078461
                ]
              }
            },
            {
              "type": "Feature",
              "properties": {
                "id": "6018781158",
                "osm_type": "node",
                "lat": 46.4506475,
                "lon": 16.8031161,
                "addr:street": "Kossuth Lajos utca",
                "amenity": "pharmacy",
                "building": "retail",
                "healthcare": "pharmacy"
              },
              "geometry": {
                "type": "Point",
                "coordinates": [
                  16.8031161,
                  46.4506475
                ]
              }
            },
            {
              "type": "Feature",
              "properties": {
                "id": "6046573208",
                "osm_type": "node",
                "lat": 46.4334887,
                "lon": 16.7239026,
                "amenity": "pharmacy",
                "dispensing": "yes",
                "healthcare": "pharmacy",
                "name": "Állatgyógyszertár"
              },
              "geometry": {
                "type": "Point",
                "coordinates": [
                  16.7239026,
                  46.4334887
                ]
              }
            },
            {
              "type": "Feature",
              "properties": {
                "id": "6050459488",
                "osm_type": "node",
                "lat": 46.4564664,
                "lon": 16.9874391,
                "amenity": "pharmacy",
                "healthcare": "pharmacy",
                "name": "Szent Kristóf Patika",
                "opening_hours": "Mo-Fr 06:00-22:00; Sa 07:00-13:00"
              },
              "geometry": {
                "type": "Point",
                "coordinates": [
                  16.9874391,
                  46.4564664
                ]
              }
            },
            {
              "type": "Feature",
              "properties": {
                "id": "10875293857",
                "osm_type": "node",
                "lat": 46.5074049,
                "lon": 16.7818208,
                "amenity": "pharmacy",
                "healthcare": "pharmacy"
              },
              "geometry": {
                "type": "Point",
                "coordinates": [
                  16.7818208,
                  46.5074049
                ]
              }
            },
            {
              "type": "Feature",
              "properties": {
                "id": "11323207269",
                "osm_type": "node",
                "lat": 46.4558096,
                "lon": 16.965496,
                "amenity": "pharmacy",
                "healthcare": "pharmacy"
              },
              "geometry": {
                "type": "Point",
                "coordinates": [
                  16.965496,
                  46.4558096
                ]
              }
            },
            {
              "type": "Feature",
              "properties": {
                "id": "3456438467",
                "osm_type": "node",
                "lat": 46.4903136,
                "lon": 17.0520712,
                "amenity": "pharmacy",
                "healthcare": "pharmacy",
                "source": "turistautak.hu",
                "source:date": "2013-05-24",
                "url": "http://turistautak.hu/poi.php?id=153854"
              },
              "geometry": {
                "type": "Point",
                "coordinates": [
                  17.0520712,
                  46.4903136
                ]
              }
            }
          ],
          "children": []
        },
        {
          "bbox": {
            "south": 46.537928625000006,
            "west": 16.2068765,
            "north": 46.70320525,
            "east": 16.68372825
          },
          "poiCount": 9,
          "leafCount": 9,
          "averagePosition": [
            16.4622529,
            46.61572588888889
          ],
          "data": [
            {
              "type": "Feature",
              "properties": {
                "id": "3053258068",
                "osm_type": "node",
                "lat": 46.6847671,
                "lon": 16.2195546,
                "amenity": "pharmacy",
                "check_date": "2023-11-05",
                "dispensing": "no",
                "name": "Lekarna",
                "opening_hours": "Mo-Fr 08:00-16:00; Sa 08:00-12:00"
              },
              "geometry": {
                "type": "Point",
                "coordinates": [
                  16.2195546,
                  46.6847671
                ]
              }
            },
            {
              "type": "Feature",
              "properties": {
                "id": "3089074409",
                "osm_type": "node",
                "lat": 46.5624424,
                "lon": 16.4526852,
                "addr:city": "Lendava / Lendva",
                "addr:city:hu": "Lendva",
                "addr:city:sl": "Lendava",
                "addr:housenumber": "5c",
                "addr:postcode": "9220",
                "addr:street": "Mlinska ulica / Malom utca",
                "addr:street:hu": "Malom utca",
                "addr:street:sl": "Mlinska ulica",
                "amenity": "pharmacy",
                "name": "Lekarna",
                "opening_hours": "Mo-Fr 07:30-19:00; Sa 07:30-12:00",
                "ref:gurs:hs_mid": "16346896",
                "source:addr": "GURS",
                "source:addr:date": "2016-06-02"
              },
              "geometry": {
                "type": "Point",
                "coordinates": [
                  16.4526852,
                  46.5624424
                ]
              }
            },
            {
              "type": "Feature",
              "properties": {
                "id": "3389563043",
                "osm_type": "node",
                "lat": 46.6516712,
                "lon": 16.3512154,
                "amenity": "pharmacy",
                "healthcare": "pharmacy",
                "name": "Lekarna"
              },
              "geometry": {
                "type": "Point",
                "coordinates": [
                  16.3512154,
                  46.6516712
                ]
              }
            },
            {
              "type": "Feature",
              "properties": {
                "id": "11248028641",
                "osm_type": "node",
                "lat": 46.625989,
                "lon": 16.3123886,
                "amenity": "pharmacy",
                "healthcare": "pharmacy",
                "name": "Lekarna",
                "opening_hours": "Mo 11:00-19:00; Tu-Fr 07:00-15:00",
                "wheelchair": "yes"
              },
              "geometry": {
                "type": "Point",
                "coordinates": [
                  16.3123886,
                  46.625989
                ]
              }
            },
            {
              "type": "Feature",
              "properties": {
                "id": "2862520516",
                "osm_type": "node",
                "lat": 46.6244213,
                "lon": 16.5454498,
                "amenity": "pharmacy",
                "healthcare": "pharmacy"
              },
              "geometry": {
                "type": "Point",
                "coordinates": [
                  16.5454498,
                  46.6244213
                ]
              }
            },
            {
              "type": "Feature",
              "properties": {
                "id": "3324625531",
                "osm_type": "node",
                "lat": 46.5922315,
                "lon": 16.6459587,
                "amenity": "pharmacy",
                "healthcare": "pharmacy",
                "opening_hours": "Mo,We,Th,Fr 07:15-15:30; Tu 07:15-16:00"
              },
              "geometry": {
                "type": "Point",
                "coordinates": [
                  16.6459587,
                  46.5922315
                ]
              }
            },
            {
              "type": "Feature",
              "properties": {
                "id": "3468083706",
                "osm_type": "node",
                "lat": 46.5546242,
                "lon": 16.5514519,
                "amenity": "pharmacy",
                "source": "turistautak.hu",
                "source:date": "2011-09-19",
                "url": "http://turistautak.hu/poi.php?id=32400"
              },
              "geometry": {
                "type": "Point",
                "coordinates": [
                  16.5514519,
                  46.5546242
                ]
              }
            },
            {
              "type": "Feature",
              "properties": {
                "id": "4345516345",
                "osm_type": "node",
                "lat": 46.6227572,
                "lon": 16.5405538,
                "addr:city": "Lenti",
                "addr:postcode": "8960",
                "addr:street": "Kossuth utca",
                "amenity": "pharmacy",
                "branch": "Lenti Gyöngyvirág",
                "brand": "Benu",
                "brand:wikidata": "Q62562792",
                "check_date:opening_hours": "2025-08-11",
                "contact:phone": "+36 92 351 383",
                "healthcare": "pharmacy",
                "name": "Benu",
                "opening_hours": "Mo-Fr 08:00-16:30",
                "operator": "Zalai Gyöngyvirág Gyógyszertári Bt.",
                "website": "https://benu.hu/shop/gyogyszertarak/benu-gyogyszertar-lenti-gyongyvirag"
              },
              "geometry": {
                "type": "Point",
                "coordinates": [
                  16.5405538,
                  46.6227572
                ]
              }
            },
            {
              "type": "Feature",
              "properties": {
                "id": "10293730773",
                "osm_type": "node",
                "lat": 46.6226291,
                "lon": 16.5410181,
                "addr:city": "Lenti",
                "addr:housenumber": "4",
                "addr:postcode": "8960",
                "addr:street": "Kossuth utca",
                "amenity": "pharmacy",
                "healthcare": "pharmacy",
                "name": "Herbatar Lenti",
                "opening_hours": "Mo-Fr 08:00-17:00; Sa 08:00-13:00",
                "operator": "Budahazi Peter"
              },
              "geometry": {
                "type": "Point",
                "coordinates": [
                  16.5410181,
                  46.6226291
                ]
              }
            }
          ],
          "children": []
        },
        {
          "bbox": {
            "south": 46.537928625000006,
            "west": 16.68372825,
            "north": 46.70320525,
            "east": 17.16058
          },
          "poiCount": 4,
          "leafCount": 4,
          "averagePosition": [
            17.00211125,
            46.588469275
          ],
          "data": [
            {
              "type": "Feature",
              "properties": {
                "id": "3744899217",
                "osm_type": "node",
                "lat": 46.6056564,
                "lon": 16.9907307,
                "amenity": "pharmacy",
                "healthcare": "pharmacy",
                "name": "Nova"
              },
              "geometry": {
                "type": "Point",
                "coordinates": [
                  16.9907307,
                  46.6056564
                ]
              }
            },
            {
              "type": "Feature",
              "properties": {
                "id": "11759135256",
                "osm_type": "node",
                "lat": 46.5450096,
                "lon": 16.7821902,
                "addr:city": "Bánokszentgyörgy",
                "addr:housenumber": "11",
                "addr:postcode": "8891",
                "addr:street": "Kossuth Lajos utca",
                "amenity": "pharmacy",
                "opening_hours": "Mo 07:00-16:00; Tu 07:00-17:00; We 07:00-12:30; Th 11:00-16:00; Fr 07:00-14:30"
              },
              "geometry": {
                "type": "Point",
                "coordinates": [
                  16.7821902,
                  46.5450096
                ]
              }
            },
            {
              "type": "Feature",
              "properties": {
                "id": "1377915110",
                "osm_type": "node",
                "lat": 46.5609473,
                "lon": 17.1235662,
                "amenity": "pharmacy",
                "brand": "Benu",
                "dispensing": "no",
                "healthcare": "pharmacy"
              },
              "geometry": {
                "type": "Point",
                "coordinates": [
                  17.1235662,
                  46.5609473
                ]
              }
            },
            {
              "type": "Feature",
              "properties": {
                "id": "3744909793",
                "osm_type": "node",
                "lat": 46.6422638,
                "lon": 17.1119579,
                "amenity": "pharmacy",
                "healthcare": "pharmacy"
              },
              "geometry": {
                "type": "Point",
                "coordinates": [
                  17.1119579,
                  46.6422638
                ]
              }
            }
          ],
          "children": []
        }
      ]
    },
    {
      "bbox": {
        "south": 46.70320525,
        "west": 15.253173,
        "north": 47.033758500000005,
        "east": 16.2068765
      },
      "poiCount": 33,
      "leafCount": 33,
      "averagePosition": [
        15.625445545454546,
        46.9105116030303
      ],
      "data": [
        {
          "type": "Feature",
          "properties": {
            "id": "1720241069",
            "osm_type": "node",
            "lat": 46.7532578,
            "lon": 15.3642735,
            "addr:city": "Gleinstätten",
            "addr:country": "AT",
            "addr:housenumber": "333",
            "addr:place": "Gleinstätten",
            "addr:postcode": "8443",
            "addr:unit": "1",
            "amenity": "pharmacy",
            "at_bev:addr_date": "2019-04-01",
            "check_date:opening_hours": "2022-03-22",
            "contact:phone": "+43 3457 31630",
            "drive_through": "no",
            "healthcare": "pharmacy",
            "name": "Michaeli Apotheke",
            "opening_hours": "Mo-Fr 08:00-12:30,15:00-18:00; Sa 08:00-12:00; Su,PH off",
            "ref:ogdsteiermark": "109",
            "website": "https://www.michaeli-apotheke.at/",
            "wheelchair": "yes"
          },
          "geometry": {
            "type": "Point",
            "coordinates": [
              15.3642735,
              46.7532578
            ]
          }
        },
        {
          "type": "Feature",
          "properties": {
            "id": "520165767",
            "osm_type": "node",
            "lat": 46.7810606,
            "lon": 15.5379897,
            "Leibnitz_lädt_ein": "yes",
            "addr:city": "Leibnitz",
            "addr:country": "AT",
            "addr:housenumber": "29",
            "addr:postcode": "8430",
            "addr:street": "Hauptplatz",
            "amenity": "pharmacy",
            "contact:phone": "+43 3452 820 10",
            "healthcare": "pharmacy",
            "name": "Apotheke Zum Hirschen",
            "note": "„Leibnitz lädt ein“-Gutschein",
            "opening_hours": "Mo-Fr 08:00-18:00; Sa 08:00-12:00",
            "operator": "Mag. pharm. Franz Petzolt & Sohn KG",
            "ref:ogdsteiermark": "106",
            "website": "http://www.azh.at"
          },
          "geometry": {
            "type": "Point",
            "coordinates": [
              15.5379897,
              46.7810606
            ]
          }
        },
        {
          "type": "Feature",
          "properties": {
            "id": "620113718",
            "osm_type": "node",
            "lat": 46.87142,
            "lon": 15.9044642,
            "addr:city": "Bad Gleichenberg",
            "addr:housenumber": "78",
            "addr:postcode": "8344",
            "addr:street": "Ringstraße",
            "amenity": "pharmacy",
            "contact:phone": "+43 316 29 22 87",
            "name": "Johannes-Apotheke",
            "ref:ogdsteiermark": "100"
          },
          "geometry": {
            "type": "Point",
            "coordinates": [
              15.9044642,
              46.87142
            ]
          }
        },
        {
          "type": "Feature",
          "properties": {
            "id": "1690758584",
            "osm_type": "node",
            "lat": 46.8237295,
            "lon": 15.5681902,
            "amenity": "pharmacy",
            "name": "Gesundheitscenter Gralla",
            "source": "survey",
            "wheelchair": "limited"
          },
          "geometry": {
            "type": "Point",
            "coordinates": [
              15.5681902,
              46.8237295
            ]
          }
        },
        {
          "type": "Feature",
          "properties": {
            "id": "1904543676",
            "osm_type": "node",
            "lat": 46.7283406,
            "lon": 15.6193855,
            "addr:city": "Straß in Steiermark",
            "addr:housenumber": "14a",
            "addr:postcode": "8472",
            "addr:street": "Hauptstraße",
            "amenity": "pharmacy",
            "contact:phone": "+43 3453 26 10",
            "dispensing": "yes",
            "email": "apotheke@mariahilf.net",
            "name": "Mariahilf-Apotheke",
            "phone": "+43 3453 2610",
            "ref:ogdsteiermark": "112",
            "wheelchair": "limited"
          },
          "geometry": {
            "type": "Point",
            "coordinates": [
              15.6193855,
              46.7283406
            ]
          }
        },
        {
          "type": "Feature",
          "properties": {
            "id": "2313532224",
            "osm_type": "node",
            "lat": 46.7073873,
            "lon": 15.774056,
            "addr:city": "Mureck",
            "addr:housenumber": "24",
            "addr:postcode": "8480",
            "addr:street": "Hauptplatz",
            "amenity": "pharmacy",
            "contact:phone": "+43 3472 24 36",
            "healthcare": "pharmacy",
            "name": "Zur Reichskrone",
            "ref:ogdsteiermark": "113",
            "wheelchair": "limited"
          },
          "geometry": {
            "type": "Point",
            "coordinates": [
              15.774056,
              46.7073873
            ]
          }
        },
        {
          "type": "Feature",
          "properties": {
            "id": "2362045858",
            "osm_type": "node",
            "lat": 46.8537894,
            "lon": 15.7385981,
            "amenity": "pharmacy"
          },
          "geometry": {
            "type": "Point",
            "coordinates": [
              15.7385981,
              46.8537894
            ]
          }
        },
        {
          "type": "Feature",
          "properties": {
            "id": "3432113540",
            "osm_type": "node",
            "lat": 46.8025115,
            "lon": 16.0910888,
            "amenity": "pharmacy",
            "name": "Lekarna Grad"
          },
          "geometry": {
            "type": "Point",
            "coordinates": [
              16.0910888,
              46.8025115
            ]
          }
        },
        {
          "type": "Feature",
          "properties": {
            "id": "4624073655",
            "osm_type": "node",
            "lat": 46.7048662,
            "lon": 16.1542671,
            "amenity": "pharmacy"
          },
          "geometry": {
            "type": "Point",
            "coordinates": [
              16.1542671,
              46.7048662
            ]
          }
        },
        {
          "type": "Feature",
          "properties": {
            "id": "269224687",
            "osm_type": "node",
            "lat": 46.9926354,
            "lon": 15.5080116,
            "addr:city": "Hausmannstätten",
            "addr:country": "AT",
            "addr:housenumber": "6",
            "addr:postcode": "8071",
            "addr:street": "St. Peter Straße",
            "amenity": "pharmacy",
            "contact:phone": "+43 3135 475 11",
            "healthcare": "pharmacy",
            "name": "team santé Apotheke Hausmannstätten",
            "ref:ogdsteiermark": "64"
          },
          "geometry": {
            "type": "Point",
            "coordinates": [
              15.5080116,
              46.9926354
            ]
          }
        },
        {
          "type": "Feature",
          "properties": {
            "id": "295079334",
            "osm_type": "node",
            "lat": 46.8874224,
            "lon": 15.5114286,
            "addr:city": "Wildon",
            "addr:housenumber": "74",
            "addr:postcode": "8410",
            "addr:street": "Hauptplatz",
            "amenity": "pharmacy",
            "contact:phone": "+43 316 71 34 31",
            "dispensing": "yes",
            "name": "Apotheke zur Mariahilf",
            "ref:ogdsteiermark": "104"
          },
          "geometry": {
            "type": "Point",
            "coordinates": [
              15.5114286,
              46.8874224
            ]
          }
        },
        {
          "type": "Feature",
          "properties": {
            "id": "333979214",
            "osm_type": "node",
            "lat": 47.0118983,
            "lon": 15.4433492,
            "addr:city": "Feldkirchen bei Graz",
            "addr:housenumber": "32",
            "addr:postcode": "8073",
            "addr:street": "Triester Straße",
            "amenity": "pharmacy",
            "contact:phone": "+43 316 29 22 87",
            "healthcare": "pharmacy",
            "name": "Johannes Apotheke",
            "ref:ogdsteiermark": "66",
            "wheelchair": "yes"
          },
          "geometry": {
            "type": "Point",
            "coordinates": [
              15.4433492,
              47.0118983
            ]
          }
        },
        {
          "type": "Feature",
          "properties": {
            "id": "376955404",
            "osm_type": "node",
            "lat": 46.8938415,
            "lon": 15.2655921,
            "addr:city": "Stainz",
            "addr:housenumber": "8",
            "addr:postcode": "8510",
            "addr:street": "Hauptplatz",
            "amenity": "pharmacy",
            "contact:phone": "+43 3463 / 2156",
            "healthcare": "pharmacy",
            "name": "Apotheke Stainz",
            "old_name": "Zur Mariahilf",
            "opening_hours": "Mo-Fr 08:00-12:30,14:45-19:00; Sa 08:00-12:00",
            "ref:ogdsteiermark": "117",
            "website": "http://www.apotheke-stainz.at/",
            "wheelchair": "no"
          },
          "geometry": {
            "type": "Point",
            "coordinates": [
              15.2655921,
              46.8938415
            ]
          }
        },
        {
          "type": "Feature",
          "properties": {
            "id": "440129679",
            "osm_type": "node",
            "lat": 47.0119408,
            "lon": 15.4096274,
            "addr:city": "Seiersberg",
            "addr:housenumber": "4/1/7b",
            "addr:postcode": "8055",
            "addr:street": "Shopping City Seiersbg 1,Top",
            "amenity": "pharmacy",
            "contact:phone": "+43 316 29 20 20",
            "healthcare": "pharmacy",
            "level": "1",
            "name": "Apotheke im Zentrum",
            "ref:ogdsteiermark": "61",
            "wheelchair": "yes"
          },
          "geometry": {
            "type": "Point",
            "coordinates": [
              15.4096274,
              47.0119408
            ]
          }
        },
        {
          "type": "Feature",
          "properties": {
            "id": "440637484",
            "osm_type": "node",
            "lat": 47.0112352,
            "lon": 15.3991683,
            "addr:city": "Seiersberg",
            "addr:housenumber": "537",
            "addr:postcode": "8054",
            "addr:street": "Kärntner Straße",
            "amenity": "pharmacy",
            "contact:phone": "+43 316 25 30 05",
            "healthcare": "pharmacy",
            "name": "Lilienapotheke",
            "ref:ogdsteiermark": "59"
          },
          "geometry": {
            "type": "Point",
            "coordinates": [
              15.3991683,
              47.0112352
            ]
          }
        },
        {
          "type": "Feature",
          "properties": {
            "id": "748035839",
            "osm_type": "node",
            "lat": 46.9654245,
            "lon": 15.4765415,
            "addr:city": "Kalsdorf bei Graz",
            "addr:housenumber": "102",
            "addr:postcode": "8401",
            "addr:street": "Hauptstraße",
            "amenity": "pharmacy",
            "contact:email": "office@apotheke-kalsdorf.at",
            "contact:fax": "+433135 523 60 6",
            "contact:phone": "+43 3135 523 60",
            "contact:website": "http://www.apotheke-kalsdorf.at/",
            "dispensing": "yes",
            "drive_through": "no",
            "name": "Apotheke Kalsdorf",
            "opening_hours": "Mo-Fr 8:00-18:00, Sa 8:00-12:00",
            "operator": "Mag. pharm. Ulli Walther",
            "ref:ogdsteiermark": "102",
            "wheelchair": "yes"
          },
          "geometry": {
            "type": "Point",
            "coordinates": [
              15.4765415,
              46.9654245
            ]
          }
        },
        {
          "type": "Feature",
          "properties": {
            "id": "1255823248",
            "osm_type": "node",
            "lat": 46.9236159,
            "lon": 15.4818685,
            "addr:city": "Werndorf",
            "addr:country": "AT",
            "addr:housenumber": "114",
            "addr:postcode": "8402",
            "addr:street": "Bundesstraße",
            "amenity": "pharmacy",
            "contact:phone": "+43 3135 519 92",
            "name": "Diana Apotheke",
            "ref:ogdsteiermark": "103"
          },
          "geometry": {
            "type": "Point",
            "coordinates": [
              15.4818685,
              46.9236159
            ]
          }
        },
        {
          "type": "Feature",
          "properties": {
            "id": "1821307192",
            "osm_type": "node",
            "lat": 47.0231903,
            "lon": 15.4001963,
            "addr:city": "Graz",
            "addr:country": "AT",
            "addr:housenumber": "410-412",
            "addr:postcode": "8054",
            "addr:street": "Kärntner Straße",
            "amenity": "pharmacy",
            "contact:email": "office@floriani-apotheke.at",
            "contact:fax": "+43 316 28 22 29",
            "contact:phone": "+43 316 28 36 42-0",
            "contact:website": "www.floriani-apotheke.at",
            "dispensing": "yes",
            "healthcare": "pharmacy",
            "name": "Floriani-Apotheke",
            "operator": "Mag. pharm Heinz Musar KG",
            "source": "Stadt Graz - data.graz.gv.at",
            "wheelchair": "yes"
          },
          "geometry": {
            "type": "Point",
            "coordinates": [
              15.4001963,
              47.0231903
            ]
          }
        },
        {
          "type": "Feature",
          "properties": {
            "id": "1885632093",
            "osm_type": "node",
            "lat": 46.9754434,
            "lon": 15.3323827,
            "addr:city": "Lieboch",
            "addr:housenumber": "128",
            "addr:postcode": "8501",
            "addr:street": "Packer Straße",
            "amenity": "pharmacy",
            "contact:phone": "+43 3136 609 00",
            "dispensing": "yes",
            "drive_through": "no",
            "healthcare": "pharmacy",
            "name": "Damian-Apotheke",
            "opening_hours": "Mo,Fr 07:30-18:30; Tu-Th 07:30-20:00; Sa 08:00-12:00",
            "operator": "Mag. Sebastian Dams",
            "phone": "+43 03136/60900",
            "ref:ogdsteiermark": "115",
            "website": "https://www.damianapotheke.at/"
          },
          "geometry": {
            "type": "Point",
            "coordinates": [
              15.3323827,
              46.9754434
            ]
          }
        },
        {
          "type": "Feature",
          "properties": {
            "id": "2064768559",
            "osm_type": "node",
            "lat": 46.9739923,
            "lon": 15.5018317,
            "addr:city": "Fernitz",
            "addr:housenumber": "1",
            "addr:postcode": "8072",
            "addr:street": "Schulgasse",
            "amenity": "pharmacy",
            "contact:phone": "+43 3135 577 76",
            "name": "Apotheke Fernitz",
            "ref:ogdsteiermark": "65"
          },
          "geometry": {
            "type": "Point",
            "coordinates": [
              15.5018317,
              46.9739923
            ]
          }
        },
        {
          "type": "Feature",
          "properties": {
            "id": "9428301752",
            "osm_type": "node",
            "lat": 46.945825,
            "lon": 15.3347003,
            "addr:city": "Lannach",
            "addr:housenumber": "6",
            "addr:postcode": "8502",
            "addr:street": "Hauptstraße",
            "amenity": "pharmacy",
            "dispensing": "yes",
            "drive_through": "no",
            "healthcare": "pharmacy",
            "name": "Lebensart Apotheke",
            "opening_hours": "Mo-Sa 08:00-12:30; Mo-Th 14:00-18:00; Fr 14:00-19:00; Su,PH off",
            "operator": "Mag. Margit Stiegler-Trummer KG",
            "phone": "+43 3136 809 80",
            "website": "www.apotheke-lannach.at"
          },
          "geometry": {
            "type": "Point",
            "coordinates": [
              15.3347003,
              46.945825
            ]
          }
        },
        {
          "type": "Feature",
          "properties": {
            "id": "10183219569",
            "osm_type": "node",
            "lat": 46.963199,
            "lon": 15.3532758,
            "addr:city": "Lieboch",
            "addr:housenumber": "1",
            "addr:postcode": "8501",
            "addr:street": "Johann Assl-Platz",
            "amenity": "pharmacy",
            "healthcare": "pharmacy",
            "name": "Amica Apotheke",
            "opening_hours": "Mo-Fr 07:30-18:30; Sa 08:00-12:00",
            "website": "https://www.amica-apotheke.at"
          },
          "geometry": {
            "type": "Point",
            "coordinates": [
              15.3532758,
              46.963199
            ]
          }
        },
        {
          "type": "Feature",
          "properties": {
            "id": "11603180581",
            "osm_type": "node",
            "lat": 47.000806,
            "lon": 15.3890753,
            "addr:city": "Seiersberg-Pirka",
            "addr:housenumber": "36",
            "addr:postcode": "8054",
            "addr:street": "Packer Straße",
            "amenity": "pharmacy",
            "dispensing": "yes",
            "drive_through": "no",
            "healthcare": "pharmacy",
            "name": "Apotheke Pirka",
            "opening_hours": "Mo-Fr 08:00-12:00,14:00-18:00; Sa 08:00-12:00"
          },
          "geometry": {
            "type": "Point",
            "coordinates": [
              15.3890753,
              47.000806
            ]
          }
        },
        {
          "type": "Feature",
          "properties": {
            "id": "12409885500",
            "osm_type": "node",
            "lat": 47.0072581,
            "lon": 15.4816647,
            "amenity": "pharmacy",
            "contact:phone": "+43 316 228 150",
            "healthcare": "pharmacy",
            "name": "Apotheke Gössendorf",
            "opening_hours": "Mo-Fr 08:00-18:00; Sa 08:00-12:00",
            "website": "https://apotheke-goessendorf.at/"
          },
          "geometry": {
            "type": "Point",
            "coordinates": [
              15.4816647,
              47.0072581
            ]
          }
        },
        {
          "type": "Feature",
          "properties": {
            "id": "866526170",
            "osm_type": "node",
            "lat": 46.9525976,
            "lon": 15.8884432,
            "addr:city": "Feldbach",
            "addr:housenumber": "15",
            "addr:postcode": "8330",
            "addr:street": "Hauptplatz",
            "amenity": "pharmacy",
            "contact:phone": "+43 316 71 34 31",
            "contact:website": "http://www.koenig-apotheke.at",
            "healthcare": "pharmacy",
            "name": "Apotheke & Drogerie \"Zur Mariahilf\"",
            "operator": "Mag. pharm. Gernot König e.U.",
            "ref:ogdsteiermark": "97",
            "wheelchair": "yes"
          },
          "geometry": {
            "type": "Point",
            "coordinates": [
              15.8884432,
              46.9525976
            ]
          }
        },
        {
          "type": "Feature",
          "properties": {
            "id": "1363444286",
            "osm_type": "node",
            "lat": 47.0143207,
            "lon": 15.6901929,
            "addr:city": "Sankt Marein bei Graz",
            "addr:housenumber": "137",
            "addr:place": "Markt",
            "addr:postcode": "8323",
            "addr:street": "Markt",
            "amenity": "pharmacy",
            "contact:phone": "+43 3119 311 11",
            "healthcare": "pharmacy",
            "name": "FuxApotheke",
            "opening_hours": "Mo-Fr 08:00-18:00; Sa 08:00-12:00",
            "operator": "Mag. pharm. Judith Schachenreiter",
            "ref:ogdsteiermark": "96",
            "source": "local_knowledge"
          },
          "geometry": {
            "type": "Point",
            "coordinates": [
              15.6901929,
              47.0143207
            ]
          }
        },
        {
          "type": "Feature",
          "properties": {
            "id": "2264402442",
            "osm_type": "node",
            "lat": 46.9554237,
            "lon": 15.5884365,
            "addr:city": "Heiligenkreuz am Waasen",
            "addr:housenumber": "5",
            "addr:postcode": "8081",
            "addr:street": "Pirchingstraße",
            "amenity": "pharmacy",
            "contact:phone": "+43 3134 21 79",
            "name": "Rochus-Apotheke",
            "ref:ogdsteiermark": "68"
          },
          "geometry": {
            "type": "Point",
            "coordinates": [
              15.5884365,
              46.9554237
            ]
          }
        },
        {
          "type": "Feature",
          "properties": {
            "id": "2313532221",
            "osm_type": "node",
            "lat": 46.9508437,
            "lon": 15.8850408,
            "addr:city": "Feldbach",
            "addr:housenumber": "26",
            "addr:postcode": "8330",
            "addr:street": "Schillerstraße",
            "amenity": "pharmacy",
            "contact:phone": "+43 3152 53 18",
            "contact:website": "http://www.leonhardapotheke.at",
            "healthcare": "pharmacy",
            "name": "Leonhard-Apotheke",
            "ref:ogdsteiermark": "98"
          },
          "geometry": {
            "type": "Point",
            "coordinates": [
              15.8850408,
              46.9508437
            ]
          }
        },
        {
          "type": "Feature",
          "properties": {
            "id": "2313532222",
            "osm_type": "node",
            "lat": 46.8746479,
            "lon": 15.8261306,
            "addr:city": "Gnas",
            "addr:country": "AT",
            "addr:housenumber": "47",
            "addr:place": "Gnas",
            "addr:postcode": "8342",
            "amenity": "pharmacy",
            "name": "Marien-Apotheke",
            "phone": "+43 3117 279 88",
            "ref:ogdsteiermark": "99"
          },
          "geometry": {
            "type": "Point",
            "coordinates": [
              15.8261306,
              46.8746479
            ]
          }
        },
        {
          "type": "Feature",
          "properties": {
            "id": "2313532223",
            "osm_type": "node",
            "lat": 46.935847,
            "lon": 16.0100725,
            "addr:city": "Fehring",
            "addr:housenumber": "10",
            "addr:place": "Hauptplatz",
            "addr:postcode": "8350",
            "amenity": "pharmacy",
            "contact:phone": "+43 316 69 11 50",
            "name": "St. Josef-Apotheke",
            "ref:ogdsteiermark": "101"
          },
          "geometry": {
            "type": "Point",
            "coordinates": [
              16.0100725,
              46.935847
            ]
          }
        },
        {
          "type": "Feature",
          "properties": {
            "id": "5888692316",
            "osm_type": "node",
            "lat": 46.876495,
            "lon": 15.9081937,
            "addr:city": "Bad Gleichenberg",
            "addr:housenumber": "3",
            "addr:postcode": "8344",
            "addr:street": "Kaiser-Franz-Josef-Straße",
            "amenity": "pharmacy",
            "name": "Cur Apotheke",
            "opening_hours": "Mo-Fr 08:00-12:30, 14:30-18:00; Sa 08:00-12:00",
            "website": "https://curapotheke.at/"
          },
          "geometry": {
            "type": "Point",
            "coordinates": [
              15.9081937,
              46.876495
            ]
          }
        },
        {
          "type": "Feature",
          "properties": {
            "id": "8781431542",
            "osm_type": "node",
            "lat": 46.9352309,
            "lon": 15.6622693,
            "addr:city": "Kirchbach-Zerlach",
            "addr:country": "AT",
            "addr:housenumber": "145",
            "addr:place": "Zerlach",
            "addr:postcode": "8082",
            "amenity": "pharmacy",
            "contact:email": "info@huegellandapotheke.at",
            "contact:phone": "+43 3116 2288",
            "healthcare": "pharmacy",
            "name": "Hügellandapotheke",
            "opening_hours": "Mo-Fr 08:00-12:30, 15:00-18:00; Sa 08:00-12:00",
            "website": "https://www.huegellandapotheke.at/",
            "wheelchair": "yes"
          },
          "geometry": {
            "type": "Point",
            "coordinates": [
              15.6622693,
              46.9352309
            ]
          }
        },
        {
          "type": "Feature",
          "properties": {
            "id": "5888692313",
            "osm_type": "node",
            "lat": 46.9373854,
            "lon": 16.1398964,
            "addr:city": "Jennersdorf",
            "addr:country": "AT",
            "addr:housenumber": "7",
            "addr:postcode": "8380",
            "addr:street": "Hauptplatz",
            "amenity": "pharmacy",
            "healthcare": "pharmacy",
            "name": "Stadtapotheke Jennersdorf zum Salvator",
            "opening_hours": "Mo-Fr 08:00-18:00; Sa 08:00-12:00",
            "website": "https://www.stadtapotheke-jennersdorf.at/"
          },
          "geometry": {
            "type": "Point",
            "coordinates": [
              16.1398964,
              46.9373854
            ]
          }
        }
      ],
      "children": []
    },
    {
      "bbox": {
        "south": 46.70320525,
        "west": 16.2068765,
        "north": 47.033758500000005,
        "east": 17.16058
      },
      "poiCount": 27,
      "leafCount": 27,
      "averagePosition": [
        16.761121348148148,
        46.85471795555555
      ],
      "data": [
        {
          "type": "Feature",
          "properties": {
            "id": "3992062336",
            "osm_type": "node",
            "lat": 46.8052427,
            "lon": 16.2181082,
            "amenity": "pharmacy",
            "healthcare": "pharmacy",
            "name": "Lekarna"
          },
          "geometry": {
            "type": "Point",
            "coordinates": [
              16.2181082,
              46.8052427
            ]
          }
        },
        {
          "type": "Feature",
          "properties": {
            "id": "9907539881",
            "osm_type": "node",
            "lat": 46.8393131,
            "lon": 16.4200834,
            "amenity": "pharmacy",
            "brand": "Alma Gyógyszertár",
            "brand:website": "https://almapatika.hu",
            "brand:wikidata": "Q105626221",
            "contact:phone": "+36 94 548 044",
            "healthcare": "pharmacy",
            "name": "Encián",
            "opening_hours": "Mo-Th 08:00-17:00; Fr 08:00-16:00; Sa 08:00-12:00",
            "wheelchair": "no"
          },
          "geometry": {
            "type": "Point",
            "coordinates": [
              16.4200834,
              46.8393131
            ]
          }
        },
        {
          "type": "Feature",
          "properties": {
            "id": "12136352468",
            "osm_type": "node",
            "lat": 46.7150822,
            "lon": 16.5131593,
            "amenity": "pharmacy",
            "brand": "Benu",
            "brand:wikidata": "Q62562792",
            "healthcare": "pharmacy",
            "wheelchair": "yes"
          },
          "geometry": {
            "type": "Point",
            "coordinates": [
              16.5131593,
              46.7150822
            ]
          }
        },
        {
          "type": "Feature",
          "properties": {
            "id": "514999736",
            "osm_type": "node",
            "lat": 46.8407137,
            "lon": 16.8317594,
            "amenity": "pharmacy",
            "brand": "Benu",
            "brand:wikidata": "Q62562792",
            "healthcare": "pharmacy",
            "name": "Benu"
          },
          "geometry": {
            "type": "Point",
            "coordinates": [
              16.8317594,
              46.8407137
            ]
          }
        },
        {
          "type": "Feature",
          "properties": {
            "id": "514999780",
            "osm_type": "node",
            "lat": 46.835859,
            "lon": 16.8310601,
            "amenity": "pharmacy",
            "healthcare": "pharmacy"
          },
          "geometry": {
            "type": "Point",
            "coordinates": [
              16.8310601,
              46.835859
            ]
          }
        },
        {
          "type": "Feature",
          "properties": {
            "id": "2900459114",
            "osm_type": "node",
            "lat": 46.8433305,
            "lon": 16.8494848,
            "amenity": "pharmacy",
            "healthcare": "pharmacy"
          },
          "geometry": {
            "type": "Point",
            "coordinates": [
              16.8494848,
              46.8433305
            ]
          }
        },
        {
          "type": "Feature",
          "properties": {
            "id": "2900459116",
            "osm_type": "node",
            "lat": 46.8449571,
            "lon": 16.8464247,
            "amenity": "pharmacy",
            "branch": "Gyógyszertár Zalaegerszeg Belváros",
            "brand": "Benu",
            "brand:wikidata": "Q62562792",
            "healthcare": "pharmacy",
            "name": "Benu",
            "opening_hours": "Mo-Fr 08:00-18:00; Sa 08:00-12:00"
          },
          "geometry": {
            "type": "Point",
            "coordinates": [
              16.8464247,
              46.8449571
            ]
          }
        },
        {
          "type": "Feature",
          "properties": {
            "id": "2900459117",
            "osm_type": "node",
            "lat": 46.8426938,
            "lon": 16.8467545,
            "amenity": "pharmacy",
            "healthcare": "pharmacy",
            "name": "Kristály Patika",
            "opening_hours": "Mo-Fr 07:30-17:00"
          },
          "geometry": {
            "type": "Point",
            "coordinates": [
              16.8467545,
              46.8426938
            ]
          }
        },
        {
          "type": "Feature",
          "properties": {
            "id": "2900784349",
            "osm_type": "node",
            "lat": 46.836962,
            "lon": 16.844817,
            "addr:city": "Zalaegerszeg",
            "addr:housenumber": "1",
            "addr:postcode": "8900",
            "addr:street": "Csány László tér",
            "amenity": "pharmacy",
            "contact:email": "parabel8888@gmail.com",
            "contact:phone": "+36 92 510 049",
            "contact:website": "https://legjobbpatika.hu/",
            "healthcare": "pharmacy",
            "name": "Paracelsus Gyógyszertár",
            "opening_hours": "Mo-Fr 07:00-18:00; Sa 08:00-12:00"
          },
          "geometry": {
            "type": "Point",
            "coordinates": [
              16.844817,
              46.836962
            ]
          }
        },
        {
          "type": "Feature",
          "properties": {
            "id": "2900784350",
            "osm_type": "node",
            "lat": 46.8364127,
            "lon": 16.8448781,
            "amenity": "pharmacy",
            "healthcare": "pharmacy",
            "name": "Egerszeg Gyógyszertár",
            "wheelchair": "yes"
          },
          "geometry": {
            "type": "Point",
            "coordinates": [
              16.8448781,
              46.8364127
            ]
          }
        },
        {
          "type": "Feature",
          "properties": {
            "id": "2900834867",
            "osm_type": "node",
            "lat": 46.8453808,
            "lon": 16.8445537,
            "amenity": "pharmacy",
            "check_date:opening_hours": "2024-03-19",
            "healthcare": "pharmacy",
            "name": "Szentlélek Gyógyszertár",
            "opening_hours": "Mo-Fr 07:30-15:30; Sa 07:30-12:00"
          },
          "geometry": {
            "type": "Point",
            "coordinates": [
              16.8445537,
              46.8453808
            ]
          }
        },
        {
          "type": "Feature",
          "properties": {
            "id": "2901832881",
            "osm_type": "node",
            "lat": 46.8160872,
            "lon": 16.988111,
            "amenity": "pharmacy",
            "healthcare": "pharmacy"
          },
          "geometry": {
            "type": "Point",
            "coordinates": [
              16.988111,
              46.8160872
            ]
          }
        },
        {
          "type": "Feature",
          "properties": {
            "id": "2904358533",
            "osm_type": "node",
            "lat": 46.8398074,
            "lon": 16.8456161,
            "amenity": "pharmacy",
            "brand": "Benu gyógyszertár",
            "healthcare": "pharmacy",
            "name": "Kabay gyógyszertár",
            "opening_hours": "Mo-Fr 07:00-20:00; Sa 07:00-13:00"
          },
          "geometry": {
            "type": "Point",
            "coordinates": [
              16.8456161,
              46.8398074
            ]
          }
        },
        {
          "type": "Feature",
          "properties": {
            "id": "3673293496",
            "osm_type": "node",
            "lat": 46.8450291,
            "lon": 16.8484586,
            "addr:city": "Zalaegerszeg",
            "addr:housenumber": "4/a",
            "addr:postcode": "8900",
            "addr:street": "Kovács Károly tér",
            "amenity": "pharmacy",
            "email": "zsoltkenez@gmail.com",
            "healthcare": "pharmacy",
            "name": "Zalai Gondviselés Gyógyszertár",
            "opening_hours": "Mo-Fr 06:30-18:30; Sa 07:30-12:30",
            "operator": "Zalai Gondviselés Patika Bt.",
            "operator:addr": "8900 Zalaegerszeg, Kovács Károly tér 4/a",
            "phone": "+36 92 323 804",
            "ref:HU:vatin": "22397368-2-20",
            "ref:vatin": "HU22397368"
          },
          "geometry": {
            "type": "Point",
            "coordinates": [
              16.8484586,
              46.8450291
            ]
          }
        },
        {
          "type": "Feature",
          "properties": {
            "id": "4936706271",
            "osm_type": "node",
            "lat": 46.7656583,
            "lon": 16.7858016,
            "amenity": "pharmacy"
          },
          "geometry": {
            "type": "Point",
            "coordinates": [
              16.7858016,
              46.7656583
            ]
          }
        },
        {
          "type": "Feature",
          "properties": {
            "id": "5036896298",
            "osm_type": "node",
            "lat": 46.8247978,
            "lon": 16.83347,
            "addr:city": "Zalaegerszeg",
            "addr:housenumber": "43",
            "addr:postcode": "8900",
            "addr:street": "Hegyalja utca",
            "amenity": "pharmacy",
            "drive_through": "no",
            "healthcare": "pharmacy",
            "name": "Hegyalja Gyógyszertár"
          },
          "geometry": {
            "type": "Point",
            "coordinates": [
              16.83347,
              46.8247978
            ]
          }
        },
        {
          "type": "Feature",
          "properties": {
            "id": "9133187481",
            "osm_type": "node",
            "lat": 46.8406175,
            "lon": 16.8511029,
            "amenity": "pharmacy",
            "dispensing": "yes",
            "healthcare": "pharmacy",
            "name": "Páter Patika"
          },
          "geometry": {
            "type": "Point",
            "coordinates": [
              16.8511029,
              46.8406175
            ]
          }
        },
        {
          "type": "Feature",
          "properties": {
            "id": "11251468301",
            "osm_type": "node",
            "lat": 46.8626422,
            "lon": 16.8007861,
            "addr:city": "Zalaegerszeg",
            "addr:housenumber": "19",
            "addr:postcode": "8904",
            "addr:street": "Körmendi út",
            "addr:suburb": "Andráshida",
            "amenity": "pharmacy",
            "contact:email": "info@fenyopatika.hu",
            "contact:phone": "+36 92 599 094",
            "contact:website": "https://fenyopatika.hu/",
            "healthcare": "pharmacy",
            "name": "Fenyő Patika",
            "operator": "Zalai Kandikó Gyógyszertár Bt."
          },
          "geometry": {
            "type": "Point",
            "coordinates": [
              16.8007861,
              46.8626422
            ]
          }
        },
        {
          "type": "Feature",
          "properties": {
            "id": "12127553651",
            "osm_type": "node",
            "lat": 46.8465036,
            "lon": 16.5864909,
            "amenity": "pharmacy",
            "brand": "Benu",
            "brand:wikidata": "Q62562792",
            "contact:phone": "+36 92 571 041",
            "healthcare": "pharmacy",
            "name": "Borostyánkő Gyógyszertár",
            "opening_hours": "Mo-Fr 08:00-16:00",
            "wheelchair": "yes"
          },
          "geometry": {
            "type": "Point",
            "coordinates": [
              16.5864909,
              46.8465036
            ]
          }
        },
        {
          "type": "Feature",
          "properties": {
            "id": "2129719610",
            "osm_type": "node",
            "lat": 46.8433132,
            "lon": 17.0951771,
            "amenity": "pharmacy",
            "check_date": "2025-05-09",
            "name": "Margaréta Gyógyszertár",
            "opening_hours": "Mo-Th 08:30-16:30; Fr 08:00-14:00; Sa-Su off",
            "wheelchair": "yes"
          },
          "geometry": {
            "type": "Point",
            "coordinates": [
              17.0951771,
              46.8433132
            ]
          }
        },
        {
          "type": "Feature",
          "properties": {
            "id": "2859679017",
            "osm_type": "node",
            "lat": 46.7384066,
            "lon": 17.107134,
            "amenity": "pharmacy",
            "dispensing": "yes",
            "healthcare": "pharmacy"
          },
          "geometry": {
            "type": "Point",
            "coordinates": [
              17.107134,
              46.7384066
            ]
          }
        },
        {
          "type": "Feature",
          "properties": {
            "id": "1779417659",
            "osm_type": "node",
            "lat": 46.9535951,
            "lon": 16.2735324,
            "addr:city": "Szentgotthárd",
            "addr:housenumber": "16",
            "addr:postcode": "9970",
            "addr:street": "Széll Kálmán tér",
            "amenity": "pharmacy",
            "brand": "Szimpatika",
            "dispensing": "yes",
            "healthcare": "pharmacy",
            "name": "Szent István Gyógyszertár",
            "not:brand:wikidata": "Q105626428",
            "opening_hours": "Mo-Fr 08:00-18:00; Sa 08:00-14:00",
            "payment:cards": "yes",
            "payment:cash": "yes",
            "payment:contactless": "yes",
            "phone": "+36 94 554 331",
            "website": "https://szimpatika.hu/szent-istvan-gyogyszertar"
          },
          "geometry": {
            "type": "Point",
            "coordinates": [
              16.2735324,
              46.9535951
            ]
          }
        },
        {
          "type": "Feature",
          "properties": {
            "id": "6147975397",
            "osm_type": "node",
            "lat": 46.9747461,
            "lon": 16.5047378,
            "addr:city": "Csákánydoroszló",
            "addr:housenumber": "27",
            "addr:postcode": "9919",
            "addr:street": "Vasút utca",
            "amenity": "pharmacy",
            "dispensing": "yes",
            "healthcare": "pharmacy",
            "name": "Elixír Patika"
          },
          "geometry": {
            "type": "Point",
            "coordinates": [
              16.5047378,
              46.9747461
            ]
          }
        },
        {
          "type": "Feature",
          "properties": {
            "id": "3039410060",
            "osm_type": "node",
            "lat": 46.8736998,
            "lon": 16.8587804,
            "addr:street": "Külső Kórház utca",
            "amenity": "pharmacy",
            "dispensing": "yes",
            "healthcare": "pharmacy"
          },
          "geometry": {
            "type": "Point",
            "coordinates": [
              16.8587804,
              46.8736998
            ]
          }
        },
        {
          "type": "Feature",
          "properties": {
            "id": "5841787969",
            "osm_type": "node",
            "lat": 47.0104548,
            "lon": 16.6036082,
            "amenity": "pharmacy",
            "dispensing": "yes",
            "healthcare": "pharmacy",
            "name": "Paracelsus Gyógyszertár"
          },
          "geometry": {
            "type": "Point",
            "coordinates": [
              16.6036082,
              47.0104548
            ]
          }
        },
        {
          "type": "Feature",
          "properties": {
            "id": "10108432869",
            "osm_type": "node",
            "lat": 47.0107979,
            "lon": 16.5976361,
            "addr:city": "Körmend",
            "addr:housenumber": "6",
            "addr:postcode": "9900",
            "addr:street": "Mátyás király utca",
            "amenity": "pharmacy",
            "dispensing": "yes",
            "drive_through": "no",
            "healthcare": "pharmacy",
            "name": "Elixír Patika",
            "opening_hours": "Mo-Fr 07:30-19:00; Sa 08:00-12:30"
          },
          "geometry": {
            "type": "Point",
            "coordinates": [
              16.5976361,
              47.0107979
            ]
          }
        },
        {
          "type": "Feature",
          "properties": {
            "id": "1281959799",
            "osm_type": "node",
            "lat": 46.9452806,
            "lon": 17.07875,
            "addr:city": "Zalaszentgrót",
            "addr:housenumber": "9",
            "addr:postcode": "8790",
            "addr:street": "Dózsa György utca",
            "amenity": "pharmacy",
            "contact:phone": "+36 83 360 158",
            "dispensing": "yes",
            "healthcare": "pharmacy",
            "name": "Kristály Gyógyszertár",
            "opening_hours": "Mo-Fr 07:30-17:00; Sa 07:30-12:30"
          },
          "geometry": {
            "type": "Point",
            "coordinates": [
              17.07875,
              46.9452806
            ]
          }
        }
      ],
      "children": []
    }
  ]
}