{
  "bbox": {
    "south": 47.033758500000005,
    "west": 13.345766,
    "north": 47.694865,
    "east": 15.253173
  },
  "poiCount": 52,
  "leafCount": 0,
  "averagePosition": [
    14.416579590384616,
    47.324126376923076
  ],
  "data": [],
  "children": [
    {
      "bbox": {
        "south": 47.033758500000005,
        "west": 13.345766,
        "north": 47.36431175,
        "east": 14.2994695
      },
      "poiCount": 5,
      "leafCount": 5,
      "averagePosition": [
        13.78677562,
        47.14781514
      ],
      "data": [
        {
          "type": "Feature",
          "properties": {
            "id": "1106843937",
            "osm_type": "node",
            "lat": 47.0991246,
            "lon": 13.6386067,
            "addr:city": "Sankt Michael im Lungau",
            "addr:country": "AT",
            "addr:housenumber": "87",
            "addr:postcode": "5582",
            "addr:street": "Marktstraße",
            "amenity": "pharmacy",
            "dispensing": "yes",
            "email": "Apo.lip@utanet.at",
            "healthcare": "pharmacy",
            "name": "Apotheke zum Hl. Michael",
            "phone": "+43 6477 8204"
          },
          "geometry": {
            "type": "Point",
            "coordinates": [
              13.6386067,
              47.0991246
            ]
          }
        },
        {
          "type": "Feature",
          "properties": {
            "id": "3633498233",
            "osm_type": "node",
            "lat": 47.1496948,
            "lon": 13.745423,
            "addr:city": "Mariapfarr",
            "addr:country": "AT",
            "addr:housenumber": "147",
            "addr:postcode": "5571",
            "addr:street": "Pfarrstraße",
            "amenity": "pharmacy",
            "name": "Drogerie Dr. Heidi Rauter",
            "opening_hours": "Mo-Fr 08:00-13:00,16:00-19:00",
            "operator": "Dr. Heidi Rauter",
            "phone": "+43 6473 8989",
            "source": "basemap.at; geoimage.at"
          },
          "geometry": {
            "type": "Point",
            "coordinates": [
              13.745423,
              47.1496948
            ]
          }
        },
        {
          "type": "Feature",
          "properties": {
            "id": "3987757457",
            "osm_type": "node",
            "lat": 47.2480108,
            "lon": 13.5579985,
            "amenity": "pharmacy",
            "healthcare": "pharmacy",
            "name": "Dr. Aufmesser",
            "operator": "in Arztordination"
          },
          "geometry": {
            "type": "Point",
            "coordinates": [
              13.5579985,
              47.2480108
            ]
          }
        },
        {
          "type": "Feature",
          "properties": {
            "id": "8722990245",
            "osm_type": "node",
            "lat": 47.1284803,
            "lon": 13.8118327,
            "addr:city": "Tamsweg",
            "addr:housenumber": "9",
            "addr:postcode": "5580",
            "addr:street": "Kuenburgstraße",
            "amenity": "pharmacy",
            "dispensing": "yes",
            "drive_through": "no",
            "healthcare": "pharmacy",
            "name": "St. Leonhard Apotheke",
            "opening_hours": "Mo-Fr 08:00-12:00, 14:30-18:00, Sa 08:00-12:00",
            "operator": "Mag. pharm. Herbich Christian"
          },
          "geometry": {
            "type": "Point",
            "coordinates": [
              13.8118327,
              47.1284803
            ]
          }
        },
        {
          "type": "Feature",
          "properties": {
            "id": "2313456672",
            "osm_type": "node",
            "lat": 47.1137652,
            "lon": 14.1800172,
            "addr:city": "St. Egidi/Murau",
            "addr:country": "AT",
            "addr:housenumber": "141",
            "addr:postcode": "8850",
            "addr:street": "Keltensiedlung",
            "amenity": "pharmacy",
            "contact:phone": "+43 3532 2340",
            "dispensing": "yes",
            "drive_through": "no",
            "healthcare": "pharmacy",
            "name": "Salvator Apotheke",
            "opening_hours": "Mo-Fr 08:00-12:30, 14:30-18:00; Sa 08:00-12:00",
            "ref:ogdsteiermark": "177",
            "source": "https://www.murau.gv.at/apotheke.html"
          },
          "geometry": {
            "type": "Point",
            "coordinates": [
              14.1800172,
              47.1137652
            ]
          }
        }
      ],
      "children": []
    },
    {
      "bbox": {
        "south": 47.033758500000005,
        "west": 14.2994695,
        "north": 47.36431175,
        "east": 15.253173
      },
      "poiCount": 20,
      "leafCount": 20,
      "averagePosition": [
        14.807952449999998,
        47.151906329999996
      ],
      "data": [
        {
          "type": "Feature",
          "properties": {
            "id": "982667011",
            "osm_type": "node",
            "lat": 47.0727231,
            "lon": 14.4266759,
            "addr:city": "Neumarkt in der Steiermark",
            "addr:country": "AT",
            "addr:housenumber": "29",
            "addr:postcode": "8820",
            "addr:street": "Hauptplatz",
            "amenity": "pharmacy",
            "check_date": "2025-04-12",
            "contact:phone": "+43 316 71 34 31",
            "dispensing": "yes",
            "healthcare": "pharmacy",
            "name": "Apotheke zur Mariahilf",
            "opening_hours": "Mo-Fr 08:00-12:30, 15:00-18:00; Sa 08:00-12:00",
            "ref:ogdsteiermark": "175"
          },
          "geometry": {
            "type": "Point",
            "coordinates": [
              14.4266759,
              47.0727231
            ]
          }
        },
        {
          "type": "Feature",
          "properties": {
            "id": "1572482884",
            "osm_type": "node",
            "lat": 47.0708141,
            "lon": 14.3001371,
            "addr:city": "Sankt Lambrecht",
            "addr:housenumber": "1",
            "addr:postcode": "8813",
            "addr:street": "Hauptstraße",
            "amenity": "pharmacy",
            "check_date": "2024-02-03",
            "contact:phone": "+43 3585 22 80",
            "dispensing": "yes",
            "healthcare": "pharmacy",
            "name": "Stiftsapotheke",
            "opening_hours": "Mo-Fr 09:00-12:00,15:00-18:00; Sa 09:00-12:00",
            "post_office": "post_partner",
            "ref:ogdsteiermark": "174"
          },
          "geometry": {
            "type": "Point",
            "coordinates": [
              14.3001371,
              47.0708141
            ]
          }
        },
        {
          "type": "Feature",
          "properties": {
            "id": "9190149833",
            "osm_type": "node",
            "lat": 47.1492309,
            "lon": 14.4138774,
            "addr:city": "Scheifling",
            "addr:country": "AT",
            "addr:housenumber": "8",
            "addr:postcode": "8811",
            "addr:street": "Bahnhofstraße",
            "amenity": "pharmacy",
            "email": "office@apo-scheifling.info",
            "healthcare": "pharmacy",
            "name": "Apotheke Scheifling",
            "opening_hours": "Mo-Fr 09:00-12:00,15:00-18:00; Sa 09:00-12:00",
            "phone": "+43 358222354",
            "wheelchair": "yes"
          },
          "geometry": {
            "type": "Point",
            "coordinates": [
              14.4138774,
              47.1492309
            ]
          }
        },
        {
          "type": "Feature",
          "properties": {
            "id": "411855132",
            "osm_type": "node",
            "lat": 47.1683816,
            "lon": 14.6570334,
            "addr:city": "Judenburg",
            "addr:country": "AT",
            "addr:housenumber": "32",
            "addr:postcode": "8750",
            "addr:street": "Burggasse",
            "amenity": "pharmacy",
            "at_bev:addr_date": "2017-04-07",
            "contact:phone": "+43 3382 524 17",
            "dispensing": "yes",
            "drive_through": "no",
            "healthcare": "pharmacy",
            "name": "Stadtapotheke",
            "ref:ogdsteiermark": "162"
          },
          "geometry": {
            "type": "Point",
            "coordinates": [
              14.6570334,
              47.1683816
            ]
          }
        },
        {
          "type": "Feature",
          "properties": {
            "id": "626586152",
            "osm_type": "node",
            "lat": 47.2160519,
            "lon": 14.8328554,
            "addr:city": "Knittelfeld",
            "addr:district": "Murtal",
            "addr:housenumber": "27",
            "addr:postcode": "8720",
            "addr:street": "Bahnstraße",
            "amenity": "pharmacy",
            "contact:phone": "+43 316 83 03 42",
            "healthcare": "pharmacy",
            "name": "Adler Apotheke",
            "ref:ogdsteiermark": "157",
            "wheelchair": "yes"
          },
          "geometry": {
            "type": "Point",
            "coordinates": [
              14.8328554,
              47.2160519
            ]
          }
        },
        {
          "type": "Feature",
          "properties": {
            "id": "1315535622",
            "osm_type": "node",
            "lat": 47.2711851,
            "lon": 14.7818379,
            "addr:city": "Seckau",
            "addr:conscriptionnumber": "85",
            "addr:country": "AT",
            "addr:hamlet": "Seckau",
            "addr:housenumber": "3",
            "addr:postcode": "8732",
            "addr:street": "Hammerbergstraße",
            "amenity": "pharmacy",
            "at_bev:addr_date": "2022-10-02",
            "contact:phone": "+43 664 / 524 3 525",
            "dispensing": "yes",
            "fax": "+43 3514 / 5206 - 4",
            "healthcare": "pharmacy",
            "name": "Dr. Robert Missmann",
            "opening_hours": "Mo-Fr 07:30-11:30; Tu,Th 14:00-18:00",
            "phone": "+43 3514 / 5206",
            "website": "https://www.missmann.at/"
          },
          "geometry": {
            "type": "Point",
            "coordinates": [
              14.7818379,
              47.2711851
            ]
          }
        },
        {
          "type": "Feature",
          "properties": {
            "id": "1575084929",
            "osm_type": "node",
            "lat": 47.1692715,
            "lon": 14.6609787,
            "addr:city": "Judenburg",
            "addr:country": "AT",
            "addr:district": "Murtal",
            "addr:housenumber": "5",
            "addr:postcode": "8750",
            "addr:street": "Hauptplatz",
            "amenity": "pharmacy",
            "contact:phone": "+43 316 83 04 20",
            "dispensing": "yes",
            "drive_through": "no",
            "healthcare": "pharmacy",
            "name": "Landschafts-Apotheke",
            "opening_hours": "Mo-Fr 08:00-18:00, Sa 08:00-12:00",
            "ref:ogdsteiermark": "163",
            "wheelchair": "yes"
          },
          "geometry": {
            "type": "Point",
            "coordinates": [
              14.6609787,
              47.1692715
            ]
          }
        },
        {
          "type": "Feature",
          "properties": {
            "id": "2313486251",
            "osm_type": "node",
            "lat": 47.2196135,
            "lon": 14.5818327,
            "addr:city": "Pöls",
            "addr:country": "AT",
            "addr:housenumber": "18",
            "addr:postcode": "8761",
            "addr:street": "Marktplatz",
            "amenity": "pharmacy",
            "contact:phone": "+43 3579 210 20",
            "healthcare": "pharmacy",
            "name": "Pölstal Apotheke",
            "opening_hours": "Mo-Fr 08:00-12:30,14:30-18:00; Sa 08:00-12:00",
            "ref:ogdsteiermark": "166",
            "website": "http://www.poelstal-apotheke.at/",
            "wheelchair": "yes"
          },
          "geometry": {
            "type": "Point",
            "coordinates": [
              14.5818327,
              47.2196135
            ]
          }
        },
        {
          "type": "Feature",
          "properties": {
            "id": "2313486259",
            "osm_type": "node",
            "lat": 47.2077505,
            "lon": 14.6806218,
            "addr:city": "Fohnsdorf",
            "addr:country": "AT",
            "addr:housenumber": "22",
            "addr:postcode": "8753",
            "addr:street": "Grazerstraße",
            "amenity": "pharmacy",
            "at_bev:addr_date": "2017-04-07",
            "contact:phone": "+43 316 58 12 65",
            "dispensing": "yes",
            "email": "apotheke-schutzengel@fohnsdorf.at",
            "fax": "+43 3573/34580-22",
            "healthcare": "pharmacy",
            "name": "Schutzengel-Apotheke",
            "phone": "+43 3573/34580-0",
            "ref:ogdsteiermark": "164"
          },
          "geometry": {
            "type": "Point",
            "coordinates": [
              14.6806218,
              47.2077505
            ]
          }
        },
        {
          "type": "Feature",
          "properties": {
            "id": "2313486267",
            "osm_type": "node",
            "lat": 47.2083656,
            "lon": 14.7970138,
            "addr:city": "Spielberg",
            "addr:country": "AT",
            "addr:housenumber": "6",
            "addr:postcode": "8724",
            "addr:street": "Marktpassage",
            "amenity": "pharmacy",
            "dispensing": "yes",
            "email": "office@apotheke-spielberg.at",
            "fax": "+43 3512 73360-15",
            "healthcare": "pharmacy",
            "name": "Apotheke Spielberg",
            "opening_hours": "Mo-Fr 08:00-12:30,14:30-18:00; Sa 08:00-12:00",
            "phone": "+43 3512 73360",
            "website": "https://www.apotheke-spielberg.at/",
            "wheelchair": "yes"
          },
          "geometry": {
            "type": "Point",
            "coordinates": [
              14.7970138,
              47.2083656
            ]
          }
        },
        {
          "type": "Feature",
          "properties": {
            "id": "2313486274",
            "osm_type": "node",
            "lat": 47.2074893,
            "lon": 14.674627,
            "addr:city": "Fohnsdorf",
            "addr:housenumber": "11",
            "addr:postcode": "8753",
            "addr:street": "Hauptstraße",
            "amenity": "pharmacy",
            "contact:phone": "+43 3573 21 24",
            "healthcare": "pharmacy",
            "name": "Zum Bergmann",
            "ref:ogdsteiermark": "165"
          },
          "geometry": {
            "type": "Point",
            "coordinates": [
              14.674627,
              47.2074893
            ]
          }
        },
        {
          "type": "Feature",
          "properties": {
            "id": "6366235637",
            "osm_type": "node",
            "lat": 47.3386132,
            "lon": 15.0110559,
            "addr:city": "Sankt Michael in Obersteiermark",
            "addr:country": "AT",
            "addr:housenumber": "1",
            "addr:postcode": "8770",
            "addr:street": "Kärntner Straße",
            "amenity": "pharmacy",
            "dispensing": "yes",
            "drive_through": "yes",
            "email": "office@michael-apotheke.at",
            "fax": "+43 3843 2910-4",
            "healthcare": "pharmacy",
            "name": "Michael Apotheke KG",
            "opening_hours": "Mo-Fr 08:00-18:00; Sa 08:00-12:00",
            "operator": "Mag. Pharm. Sandra Tahedl",
            "phone": "+43 3843 2910",
            "website": "https://www.michael-apotheke.at/de/kontakt/"
          },
          "geometry": {
            "type": "Point",
            "coordinates": [
              15.0110559,
              47.3386132
            ]
          }
        },
        {
          "type": "Feature",
          "properties": {
            "id": "7452685147",
            "osm_type": "node",
            "lat": 47.2108103,
            "lon": 14.807615,
            "amenity": "pharmacy",
            "dispensing": "yes",
            "fax": "+43 3512 72 367 4",
            "healthcare": "pharmacy",
            "name": "Kolibri Apotheke",
            "opening_hours": "Mo-Fr 08:00-18:00; Sa 08:00-12:00",
            "phone": "+43 3512 72 367",
            "website": "https://www.kolibri-apotheke.at/",
            "wheelchair": "yes"
          },
          "geometry": {
            "type": "Point",
            "coordinates": [
              14.807615,
              47.2108103
            ]
          }
        },
        {
          "type": "Feature",
          "properties": {
            "id": "8516583131",
            "osm_type": "node",
            "lat": 47.213833,
            "lon": 14.8292605,
            "addr:city": "Knittelfeld",
            "addr:country": "AT",
            "addr:housenumber": "9",
            "addr:postcode": "8720",
            "addr:street": "Hauptplatz",
            "amenity": "pharmacy",
            "contact:phone": "+43 3512 82661",
            "dispensing": "yes",
            "healthcare": "pharmacy",
            "name": "Stadt-Apotheke zur heiligen Dreifaltigkeit",
            "opening_hours": "Mo-Fr 08:00-18:00; Sa 08:00-12:00",
            "operator": "Mag. pharm. Michaela Zaversky e.U.",
            "ref:ogdsteiermark": "158",
            "website": "https://www.zaversky.at/"
          },
          "geometry": {
            "type": "Point",
            "coordinates": [
              14.8292605,
              47.213833
            ]
          }
        },
        {
          "type": "Feature",
          "properties": {
            "id": "1373736838",
            "osm_type": "node",
            "lat": 47.0489412,
            "lon": 15.0712093,
            "addr:city": "Köflach-Pichling",
            "addr:housenumber": "69",
            "addr:postcode": "8580",
            "addr:street": "Packerstraße",
            "amenity": "pharmacy",
            "contact:phone": "+43 3144 713 15",
            "healthcare": "pharmacy",
            "name": "Johannes-Apotheke",
            "opening_hours": "Mo-Fr 08:00-12:30, 14:30-18:00; Sa 08:00-12:00",
            "ref:ogdsteiermark": "131",
            "website": "http://www.apothekenindex.at/apotheken/product_info.php?products_id=900"
          },
          "geometry": {
            "type": "Point",
            "coordinates": [
              15.0712093,
              47.0489412
            ]
          }
        },
        {
          "type": "Feature",
          "properties": {
            "id": "1702495399",
            "osm_type": "node",
            "lat": 47.0636967,
            "lon": 15.0812874,
            "addr:city": "Köflach",
            "addr:country": "AT",
            "addr:housenumber": "5",
            "addr:postcode": "8580",
            "addr:street": "Kärntnerstraße",
            "amenity": "pharmacy",
            "contact:phone": "+43 316 82 31 59",
            "healthcare": "pharmacy",
            "name": "Sonnenapotheke",
            "opening_hours": "Mo-Fr 08:00-12:30; 14:30-18:00; Sa 09:00-12:00; PH off",
            "ref:ogdsteiermark": "130",
            "website": "https://www.sonnenapotheke-koeflach.at/kontakt",
            "wheelchair": "yes"
          },
          "geometry": {
            "type": "Point",
            "coordinates": [
              15.0812874,
              47.0636967
            ]
          }
        },
        {
          "type": "Feature",
          "properties": {
            "id": "1919127479",
            "osm_type": "node",
            "lat": 47.0641461,
            "lon": 15.0844737,
            "addr:city": "Köflach",
            "addr:country": "AT",
            "addr:housenumber": "17",
            "addr:postcode": "8580",
            "addr:street": "Hauptplatz",
            "amenity": "pharmacy",
            "contact:phone": "+43 3144 22 66",
            "healthcare": "pharmacy",
            "name": "Zum heiligen Schutzengel",
            "opening_hours": "Mo-Fr 08:00-12:00,14:30-18:00; Sa 09:00-12:00",
            "ref:ogdsteiermark": "129",
            "website": "https://www.apotheke8580.at/kontakt/"
          },
          "geometry": {
            "type": "Point",
            "coordinates": [
              15.0844737,
              47.0641461
            ]
          }
        },
        {
          "type": "Feature",
          "properties": {
            "id": "2313549508",
            "osm_type": "node",
            "lat": 47.0496396,
            "lon": 15.150176,
            "addr:city": "Voitsberg",
            "addr:country": "AT",
            "addr:housenumber": "33",
            "addr:postcode": "8570",
            "addr:street": "Hauptplatz",
            "amenity": "pharmacy",
            "contact:phone": "+43 3142 225 78",
            "healthcare": "pharmacy",
            "lastcheck": "2017-07-17",
            "name": "Rathaus-Apotheke",
            "opening_hours": "Mo-Fr 08:00-12:30, 14:30-18:00; Sa 08:00-12:00",
            "ref:ogdsteiermark": "127",
            "website": "https://www.rathaus-apotheke.co.at/",
            "wheelchair": "no"
          },
          "geometry": {
            "type": "Point",
            "coordinates": [
              15.150176,
              47.0496396
            ]
          }
        },
        {
          "type": "Feature",
          "properties": {
            "id": "2622871506",
            "osm_type": "node",
            "lat": 47.0361369,
            "lon": 15.174623,
            "addr:city": "Voitsberg",
            "addr:housenumber": "152",
            "addr:postcode": "8570",
            "addr:street": "Grazer Vorstadt",
            "amenity": "pharmacy",
            "email": "office@apotheke-krems.at",
            "healthcare": "pharmacy",
            "name": "Apotheke Krems",
            "opening_hours": "Mo-Fr 07:30-18:00; Sa 08:00-12:00",
            "phone": "+433142 21 202",
            "website": "https://apotheke-krems.at/"
          },
          "geometry": {
            "type": "Point",
            "coordinates": [
              15.174623,
              47.0361369
            ]
          }
        },
        {
          "type": "Feature",
          "properties": {
            "id": "6032321295",
            "osm_type": "node",
            "lat": 47.0514325,
            "lon": 15.1418571,
            "addr:city": "Voitsberg",
            "addr:country": "AT",
            "addr:housenumber": "6",
            "addr:postcode": "8570",
            "addr:street": "Conrad-von-Hötzendorf-Straße",
            "amenity": "pharmacy",
            "at_bev:addr_date": "2018-10-01",
            "contact:phone": "+43 3142 223 56",
            "healthcare": "pharmacy",
            "name": "St. Josef Apotheke",
            "opening_hours": "Mo-Fr 08:00-12:30, 14:30-18:00; Sa 08:00-12:00",
            "ref:ogdsteiermark": "126",
            "website": "https://www.apotheke-voitsberg.at/"
          },
          "geometry": {
            "type": "Point",
            "coordinates": [
              15.1418571,
              47.0514325
            ]
          }
        }
      ],
      "children": []
    },
    {
      "bbox": {
        "south": 47.36431175,
        "west": 13.345766,
        "north": 47.694865,
        "east": 14.2994695
      },
      "poiCount": 14,
      "leafCount": 14,
      "averagePosition": [
        13.666131614285714,
        47.49906757142857
      ],
      "data": [
        {
          "type": "Feature",
          "properties": {
            "id": "854357584",
            "osm_type": "node",
            "lat": 47.3812392,
            "lon": 13.4179505,
            "addr:city": "Altenmarkt im Pongau",
            "addr:country": "AT",
            "addr:housenumber": "46",
            "addr:postcode": "5541",
            "addr:street": "Obere Marktstraße",
            "amenity": "pharmacy",
            "dispensing": "yes",
            "email": "apotheke.altenmarkt@sbg.at",
            "healthcare": "pharmacy",
            "name": "Tauern-Apotheke",
            "opening_hours": "Mo-Fr 08:00-12:00,14:45-18:00; Sa 08:00-12:00",
            "operator": "Mag. Künßberg KG",
            "phone": "+43 6452 7875",
            "wheelchair": "yes"
          },
          "geometry": {
            "type": "Point",
            "coordinates": [
              13.4179505,
              47.3812392
            ]
          }
        },
        {
          "type": "Feature",
          "properties": {
            "id": "1184554210",
            "osm_type": "node",
            "lat": 47.3852707,
            "lon": 13.4624412,
            "addr:housenumber": "2",
            "addr:postcode": "5550",
            "addr:street": "Ernest-Thun-Gasse",
            "amenity": "pharmacy",
            "dispensing": "yes",
            "healthcare": "pharmacy",
            "name": "Stadtapotheke Radstadt",
            "opening_hours": "Mo-Fr 08:00-12:00,14:00-18:00; Sa 08:00-12:00"
          },
          "geometry": {
            "type": "Point",
            "coordinates": [
              13.4624412,
              47.3852707
            ]
          }
        },
        {
          "type": "Feature",
          "properties": {
            "id": "8179144417",
            "osm_type": "node",
            "lat": 47.3767303,
            "lon": 13.4215202,
            "amenity": "pharmacy",
            "contact:facebook": "https://www.facebook.com/ApothekeAGZ/",
            "contact:phone": "+43 6452 51511000",
            "healthcare": "pharmacy",
            "name": "AGZ Apotheke",
            "opening_hours": "Mo-Th 08:00-18:00; Fr 08:00-12:00, 14:00-18:00; Sa 08:00-12:00; "
          },
          "geometry": {
            "type": "Point",
            "coordinates": [
              13.4215202,
              47.3767303
            ]
          }
        },
        {
          "type": "Feature",
          "properties": {
            "id": "8179221417",
            "osm_type": "node",
            "lat": 47.407115,
            "lon": 13.3956677,
            "amenity": "pharmacy",
            "healthcare": "pharmacy",
            "name": "Apotheke Eben"
          },
          "geometry": {
            "type": "Point",
            "coordinates": [
              13.3956677,
              47.407115
            ]
          }
        },
        {
          "type": "Feature",
          "properties": {
            "id": "281887682",
            "osm_type": "node",
            "lat": 47.6402856,
            "lon": 13.6173727,
            "addr:city": "Bad Goisern am Hallstättersee",
            "addr:country": "AT",
            "addr:housenumber": "4",
            "addr:postcode": "4822",
            "addr:street": "Obere Marktstraße",
            "amenity": "pharmacy",
            "contact:email": "info@apotheke-goisern.at",
            "contact:phone": "+43 6135 722 00",
            "dispensing": "yes",
            "healthcare": "pharmacy",
            "name": "Edelweiss Apotheke",
            "opening_hours": "Mo-Fr 08:00-12:30, 14:00-18:00; Sa 08:00-12:00",
            "operator": "Mag. Helmut Schreiber",
            "website": "https://www.apotheke-goisern.at/",
            "wheelchair": "yes"
          },
          "geometry": {
            "type": "Point",
            "coordinates": [
              13.6173727,
              47.6402856
            ]
          }
        },
        {
          "type": "Feature",
          "properties": {
            "id": "356721802",
            "osm_type": "node",
            "lat": 47.5543905,
            "lon": 13.9362786,
            "addr:city": "Bad Mitterndorf",
            "addr:housenumber": "284",
            "addr:postcode": "8983",
            "addr:street": "Bad Mitterndorf",
            "amenity": "pharmacy",
            "check_date": "2025-08-03",
            "contact:email": "info@diekurapotheke.at",
            "contact:phone": "+43 3133 24 56",
            "dispensing": "yes",
            "healthcare": "pharmacy",
            "name": "Die Kur-Apotheke",
            "opening_hours": "Mo-Fr 08:00-12:30,15:00-18:00; Sa 08:00-12:00",
            "ref:ogdsteiermark": "184",
            "wheelchair": "yes"
          },
          "geometry": {
            "type": "Point",
            "coordinates": [
              13.9362786,
              47.5543905
            ]
          }
        },
        {
          "type": "Feature",
          "properties": {
            "id": "1044942937",
            "osm_type": "node",
            "lat": 47.392416,
            "lon": 13.6878009,
            "addr:city": "Schladming",
            "addr:housenumber": "677",
            "addr:postcode": "8970",
            "addr:street": "Pfarrgasse",
            "amenity": "pharmacy",
            "contact:email": "service@edelweiss-apotheke.at",
            "contact:fax": "+43 3687 22577-7",
            "contact:phone": "+43 3687 22577",
            "dispensing": "yes",
            "healthcare": "pharmacy",
            "name": "Edelweiss Apotheke",
            "opening_hours": "Mo-Fr 08:00-12:30,14:30-18:30; Sa 08:00-12:00,18:00-19:00; Su 11:00-12:00,18:00-19:00",
            "ref:ogdsteiermark": "183",
            "website": "https://www.edelweiss-apotheke.at/",
            "wheelchair": "yes"
          },
          "geometry": {
            "type": "Point",
            "coordinates": [
              13.6878009,
              47.392416
            ]
          }
        },
        {
          "type": "Feature",
          "properties": {
            "id": "2313470827",
            "osm_type": "node",
            "lat": 47.4439846,
            "lon": 13.9018493,
            "addr:city": "Gröbming",
            "addr:country": "AT",
            "addr:postcode": "8962",
            "amenity": "pharmacy",
            "contact:phone": "+43 3685 223 06",
            "dispensing": "yes",
            "healthcare": "pharmacy",
            "name": "Alpen Apotheke",
            "opening_hours": "Mo-Fr 08:00-12:30,14:30-18:00; Sa 08:00-12:00",
            "ref:ogdsteiermark": "182",
            "website": "https://www.apotheke-groebming.at/"
          },
          "geometry": {
            "type": "Point",
            "coordinates": [
              13.9018493,
              47.4439846
            ]
          }
        },
        {
          "type": "Feature",
          "properties": {
            "id": "3235072559",
            "osm_type": "node",
            "lat": 47.5853384,
            "lon": 13.5356411,
            "addr:city": "Gosau",
            "addr:country": "AT",
            "addr:housenumber": "32",
            "addr:postcode": "4824",
            "addr:street": "Vordertalstraße",
            "amenity": "pharmacy",
            "name": "Hausapotheke",
            "opening_hours": "Mo 07:30-11:30,17:00-19:00; Tu,Th,Fr 07:30-11:30; We off; Sa 08:00-10:00; Su off",
            "operator": "Gemeindearzt mit Hausapotheke",
            "phone": "06136 82 15",
            "source": "http://www.gosau.ooe.gv.at/system/web/arzt.aspx?typ=100&bezirkonr=0&menuonr=219803125"
          },
          "geometry": {
            "type": "Point",
            "coordinates": [
              13.5356411,
              47.5853384
            ]
          }
        },
        {
          "type": "Feature",
          "properties": {
            "id": "3643354020",
            "osm_type": "node",
            "lat": 47.6399764,
            "lon": 13.7646989,
            "amenity": "pharmacy",
            "healthcare": "pharmacy",
            "name": "Narzissen-Apotheke",
            "wheelchair": "yes"
          },
          "geometry": {
            "type": "Point",
            "coordinates": [
              13.7646989,
              47.6399764
            ]
          }
        },
        {
          "type": "Feature",
          "properties": {
            "id": "3656188158",
            "osm_type": "node",
            "lat": 47.6469575,
            "lon": 13.6146628,
            "addr:city": "Bad Goisern am Hallstättersee",
            "addr:country": "AT",
            "addr:housenumber": "112",
            "addr:postcode": "4822",
            "addr:street": "Bundesstraße",
            "amenity": "pharmacy",
            "dispensing": "yes",
            "healthcare": "pharmacy",
            "name": "Apotheke im Baumhaus",
            "opening_hours": "Mo-Fr 08:00-18:00; Sa 08:00-12:00",
            "website": "https://www.apoimbaumhaus.at/"
          },
          "geometry": {
            "type": "Point",
            "coordinates": [
              13.6146628,
              47.6469575
            ]
          }
        },
        {
          "type": "Feature",
          "properties": {
            "id": "9913976240",
            "osm_type": "node",
            "lat": 47.3913345,
            "lon": 13.678236,
            "addr:city": "Schladming",
            "addr:housenumber": "304",
            "addr:postcode": "8970",
            "addr:street": "Salzburgerstraße",
            "amenity": "pharmacy",
            "contact:email": "office@apothekeplanaiwest.at",
            "contact:fax": "+43 3687-21700-21",
            "healthcare": "pharmacy",
            "name": "Apotheke Planai West",
            "opening_hours": "Mo-Fr 08:00-12:00, 14:00-18:00; Sa 08:00-12:00",
            "phone": "+43 3687-21700",
            "website": "https://www.apothekeplanaiwest.at/"
          },
          "geometry": {
            "type": "Point",
            "coordinates": [
              13.678236,
              47.3913345
            ]
          }
        },
        {
          "type": "Feature",
          "properties": {
            "id": "11257762539",
            "osm_type": "node",
            "lat": 47.6086958,
            "lon": 13.7839529,
            "addr:city": "Bad Aussee",
            "addr:country": "AT",
            "addr:housenumber": "104",
            "addr:postcode": "8990",
            "addr:street": "Oppauerplatz",
            "amenity": "pharmacy",
            "at_bev:addr_date": "2018-10-01",
            "dispensing": "yes",
            "drive_through": "no",
            "healthcare": "pharmacy",
            "name": "Kurapotheke",
            "wheelchair": "yes"
          },
          "geometry": {
            "type": "Point",
            "coordinates": [
              13.7839529,
              47.6086958
            ]
          }
        },
        {
          "type": "Feature",
          "properties": {
            "id": "393775626",
            "osm_type": "node",
            "lat": 47.5332115,
            "lon": 14.1077698,
            "addr:city": "Stainach-Pürgg",
            "addr:country": "AT",
            "addr:housenumber": "255",
            "addr:postcode": "8950",
            "addr:street": "Salzburgerstraße",
            "amenity": "pharmacy",
            "at_bev:addr_date": "2017-10-01",
            "contact:phone": "+43 316 71 11 47",
            "dispensing": "yes",
            "healthcare": "pharmacy",
            "name": "Panther-Apotheke",
            "opening_hours": "Mo-Fr 08:00-12:00,15:00-18:00; Sa 08:00-12:00; Su,PH off",
            "ref:ogdsteiermark": "181"
          },
          "geometry": {
            "type": "Point",
            "coordinates": [
              14.1077698,
              47.5332115
            ]
          }
        }
      ],
      "children": []
    },
    {
      "bbox": {
        "south": 47.36431175,
        "west": 14.2994695,
        "north": 47.694865,
        "east": 15.253173
      },
      "poiCount": 13,
      "leafCount": 13,
      "averagePosition": [
        14.864874538461539,
        47.4684941
      ],
      "data": [
        {
          "type": "Feature",
          "properties": {
            "id": "296465653",
            "osm_type": "node",
            "lat": 47.5749238,
            "lon": 14.461188,
            "addr:city": "Admont",
            "addr:country": "AT",
            "addr:housenumber": "1",
            "addr:postcode": "8911",
            "addr:street": "Kirchplatz",
            "amenity": "pharmacy",
            "contact:phone": "+43 3585 22 80",
            "dispensing": "yes",
            "healthcare": "pharmacy",
            "name": "Stiftsapotheke Admont",
            "opening_hours": "Mo-Fr 08:00-12:00, 14:30-18:00; Sa 08:00-12:00",
            "ref:ogdsteiermark": "178"
          },
          "geometry": {
            "type": "Point",
            "coordinates": [
              14.461188,
              47.5749238
            ]
          }
        },
        {
          "type": "Feature",
          "properties": {
            "id": "2313470829",
            "osm_type": "node",
            "lat": 47.4876131,
            "lon": 14.4875009,
            "addr:city": "Trieben",
            "addr:country": "AT",
            "addr:housenumber": "3",
            "addr:postcode": "8784",
            "addr:street": "Marktgasse",
            "amenity": "pharmacy",
            "contact:phone": "+43 3615 23 93",
            "healthcare": "pharmacy",
            "name": "Stadt-Apotheke Zur hl. Barbara",
            "ref:ogdsteiermark": "168"
          },
          "geometry": {
            "type": "Point",
            "coordinates": [
              14.4875009,
              47.4876131
            ]
          }
        },
        {
          "type": "Feature",
          "properties": {
            "id": "2779689592",
            "osm_type": "node",
            "lat": 47.6650802,
            "lon": 14.3415476,
            "addr:city": "Spital am Pyhrn",
            "addr:country": "AT",
            "addr:housenumber": "4",
            "addr:postcode": "4582",
            "addr:street": "Linzerstraße",
            "amenity": "pharmacy",
            "healthcare": "pharmacy",
            "name": "Dr. Christa Lichtenberger",
            "operator": "Allgemeinmedizinerin"
          },
          "geometry": {
            "type": "Point",
            "coordinates": [
              14.3415476,
              47.6650802
            ]
          }
        },
        {
          "type": "Feature",
          "properties": {
            "id": "9287938642",
            "osm_type": "node",
            "lat": 47.5263872,
            "lon": 14.3624331,
            "amenity": "pharmacy",
            "contact:phone": "+43 3614 2228-0",
            "email": "info@apo-rottenmann.at",
            "healthcare": "pharmacy",
            "name": "Stadt-Apotheke",
            "opening_hours": "Mo-Fr 08:00-12:30, 14:30-18:00; Sa 08:00-12:00",
            "website": "https://apo-rottenmann.at/",
            "wheelchair": "yes"
          },
          "geometry": {
            "type": "Point",
            "coordinates": [
              14.3624331,
              47.5263872
            ]
          }
        },
        {
          "type": "Feature",
          "properties": {
            "id": "679402829",
            "osm_type": "node",
            "lat": 47.5415303,
            "lon": 14.8941162,
            "addr:city": "Eisenerz",
            "addr:housenumber": "16",
            "addr:postcode": "8790",
            "addr:street": "Vordernberger Straße",
            "amenity": "pharmacy",
            "contact:phone": "+43 3848 2350",
            "healthcare": "pharmacy",
            "name": "Erzberg Apotheke",
            "opening_hours": "Mo-Fr 08:00-12:00, 15:00-18:00; Sa 08:00-12:00",
            "ref:ogdsteiermark": "171",
            "website": "https://www.erzberg-apotheke.at/"
          },
          "geometry": {
            "type": "Point",
            "coordinates": [
              14.8941162,
              47.5415303
            ]
          }
        },
        {
          "type": "Feature",
          "properties": {
            "id": "2313509786",
            "osm_type": "node",
            "lat": 47.426868,
            "lon": 15.0061964,
            "addr:city": "Trofaiach",
            "addr:housenumber": "2a",
            "addr:postcode": "8793",
            "addr:street": "Hauptplatz",
            "amenity": "pharmacy",
            "contact:phone": "+43 3453 26 10",
            "contact:website": "http://www.mariahilf.co.at/index.php",
            "healthcare": "pharmacy",
            "name": "Apotheke zur Mariahilf",
            "opening_hours": "Mo-Th 8:00-19:00; Fr 8:00-18:00; Sa 8:00-12:00",
            "ref:ogdsteiermark": "172"
          },
          "geometry": {
            "type": "Point",
            "coordinates": [
              15.0061964,
              47.426868
            ]
          }
        },
        {
          "type": "Feature",
          "properties": {
            "id": "2313509787",
            "osm_type": "node",
            "lat": 47.4243047,
            "lon": 14.9979243,
            "addr:city": "Trofaiach",
            "addr:housenumber": "12",
            "addr:postcode": "8793",
            "addr:street": "Langefelderstraße",
            "amenity": "pharmacy",
            "contact:phone": "+43 3382 524 17",
            "healthcare": "pharmacy",
            "name": "Stadt-Apotheke",
            "opening_hours": "Mo-Th 8:00-19:00; Fr 8:00-18:00; Sa 8:00-12:00",
            "ref:ogdsteiermark": "173"
          },
          "geometry": {
            "type": "Point",
            "coordinates": [
              14.9979243,
              47.4243047
            ]
          }
        },
        {
          "type": "Feature",
          "properties": {
            "id": "489450826",
            "osm_type": "node",
            "lat": 47.3826593,
            "lon": 15.0934564,
            "addr:city": "Leoben",
            "addr:country": "AT",
            "addr:housenumber": "7",
            "addr:postcode": "8700",
            "addr:street": "Franz Josef-Straße",
            "addr:suburb": "Leoben",
            "amenity": "pharmacy",
            "contact:phone": "+43 3842 432 64",
            "dispensing": "yes",
            "healthcare": "pharmacy",
            "name": "Josefee Apotheke",
            "opening_hours": "Mo-Fr 08:00-18:00; Sa 08:00-12:00",
            "phone": "+43 3842 43264",
            "ref:ogdsteiermark": "150",
            "website": "https://www.josefeeapotheke-leoben.at/",
            "wheelchair": "yes"
          },
          "geometry": {
            "type": "Point",
            "coordinates": [
              15.0934564,
              47.3826593
            ]
          }
        },
        {
          "type": "Feature",
          "properties": {
            "id": "614467787",
            "osm_type": "node",
            "lat": 47.3786996,
            "lon": 15.0914778,
            "addr:city": "Leoben",
            "addr:housenumber": "10",
            "addr:postcode": "8700",
            "addr:street": "Waasenstraße",
            "addr:suburb": "Waasen",
            "amenity": "pharmacy",
            "contact:phone": "+43 3842 225 26",
            "healthcare": "pharmacy",
            "name": "Waasen Apotheke",
            "ref:ogdsteiermark": "155"
          },
          "geometry": {
            "type": "Point",
            "coordinates": [
              15.0914778,
              47.3786996
            ]
          }
        },
        {
          "type": "Feature",
          "properties": {
            "id": "614467811",
            "osm_type": "node",
            "lat": 47.3794724,
            "lon": 15.0940236,
            "addr:city": "Leoben",
            "addr:country": "AT",
            "addr:housenumber": "6",
            "addr:postcode": "8700",
            "addr:street": "Krottendorfergasse",
            "addr:suburb": "Leoben",
            "amenity": "pharmacy",
            "contact:phone": "+43 3842 423 51",
            "healthcare": "pharmacy",
            "name": "Stadt Apotheke",
            "opening_hours": "Mo-Sa 08:00-18:00; Sa 08:00-12:00",
            "ref:ogdsteiermark": "151",
            "website": "http://stadtapotheke-leoben.at/",
            "wheelchair": "yes"
          },
          "geometry": {
            "type": "Point",
            "coordinates": [
              15.0940236,
              47.3794724
            ]
          }
        },
        {
          "type": "Feature",
          "properties": {
            "id": "851461575",
            "osm_type": "node",
            "lat": 47.3760915,
            "lon": 15.0742763,
            "addr:city": "Leoben",
            "addr:country": "AT",
            "addr:housenumber": "67",
            "addr:postcode": "8700",
            "addr:street": "Pestalozzistraße",
            "addr:suburb": "Donawitz",
            "amenity": "pharmacy",
            "at_bev:addr_date": "2017-10-01",
            "contact:phone": "+43 3842 213 86",
            "email": "office@apo-donawitz.at",
            "healthcare": "pharmacy",
            "name": "Apotheke zur Hütte",
            "opening_hours": "Mo-Fr 08:00-12:30,14:30-18:00; Sa 08:00-12:00",
            "ref:ogdsteiermark": "152",
            "website": "https://www.apo-donawitz.at/"
          },
          "geometry": {
            "type": "Point",
            "coordinates": [
              15.0742763,
              47.3760915
            ]
          }
        },
        {
          "type": "Feature",
          "properties": {
            "id": "2504774367",
            "osm_type": "node",
            "lat": 47.3826536,
            "lon": 15.1005207,
            "amenity": "pharmacy",
            "contact:phone": "+43 3842 448 10",
            "healthcare": "pharmacy",
            "name": "Glück Auf Apotheke",
            "opening_hours": "Mo-Fr 08:00-12:30; Mo-Fr 14:30-18:00; Sa 08:00-12:00",
            "ref:ogdsteiermark": "153",
            "source": "data.steiermark.at"
          },
          "geometry": {
            "type": "Point",
            "coordinates": [
              15.1005207,
              47.3826536
            ]
          }
        },
        {
          "type": "Feature",
          "properties": {
            "id": "6784762677",
            "osm_type": "node",
            "lat": 47.5441396,
            "lon": 15.2387077,
            "addr:city": "Aflenz-Kurort",
            "addr:housenumber": "14",
            "addr:postcode": "8623",
            "addr:street": "Mariazeller Straße",
            "amenity": "pharmacy",
            "contact:phone": "+43 316 82 31 59",
            "healthcare": "pharmacy",
            "name": "Hochschwab Apotheke",
            "operator": "Mag. Schwendenwein",
            "ref:ogdsteiermark": "141"
          },
          "geometry": {
            "type": "Point",
            "coordinates": [
              15.2387077,
              47.5441396
            ]
          }
        }
      ],
      "children": []
    }
  ]
}