{
  "bbox": {
    "south": 48.355971499999995,
    "west": 15.253173,
    "north": 49.017078,
    "east": 17.16058
  },
  "poiCount": 156,
  "leafCount": 0,
  "averagePosition": [
    16.553067534615387,
    48.722513316666664
  ],
  "data": [],
  "children": [
    {
      "bbox": {
        "south": 48.355971499999995,
        "west": 15.253173,
        "north": 48.68652475,
        "east": 16.2068765
      },
      "poiCount": 19,
      "leafCount": 19,
      "averagePosition": [
        15.748857231578947,
        48.47226055263158
      ],
      "data": [
        {
          "type": "Feature",
          "properties": {
            "id": "1800925548",
            "osm_type": "node",
            "lat": 48.3606744,
            "lon": 15.4126536,
            "addr:city": "Spitz",
            "addr:country": "AT",
            "addr:housenumber": "29 b",
            "addr:postcode": "3620",
            "addr:street": "Hauptstraße",
            "amenity": "pharmacy",
            "check_date": "2023-08-29",
            "name": "Apotheke \"Zum heiligen Geist\"",
            "phone": "+43 2713 2204"
          },
          "geometry": {
            "type": "Point",
            "coordinates": [
              15.4126536,
              48.3606744
            ]
          }
        },
        {
          "type": "Feature",
          "properties": {
            "id": "1261028658",
            "osm_type": "node",
            "lat": 48.3675349,
            "lon": 15.6196694,
            "addr:city": "Furth bei Göttweig",
            "addr:country": "AT",
            "addr:housenumber": "532",
            "addr:postcode": "3511",
            "addr:street": "Obere Landstraße",
            "amenity": "pharmacy",
            "contact:email": "apo.goettweiger@speed.at",
            "contact:phone": "+43 2732 48039",
            "healthcare": "pharmacy",
            "name": "Apotheke am Göttweiger",
            "opening_hours": "Mo-Fr 07:30-12:30, 14:30-18:00"
          },
          "geometry": {
            "type": "Point",
            "coordinates": [
              15.6196694,
              48.3675349
            ]
          }
        },
        {
          "type": "Feature",
          "properties": {
            "id": "274792126",
            "osm_type": "node",
            "lat": 48.4112899,
            "lon": 15.6004067,
            "addr:city": "Krems an der Donau",
            "addr:country": "AT",
            "addr:housenumber": "2",
            "addr:postcode": "3500",
            "addr:street": "Obere Landstraße",
            "amenity": "pharmacy",
            "email": "office@mohrenapotheke.co.at",
            "fax": "+43 2732 832 41-74",
            "name": "Mohren-Apotheke",
            "opening_hours": "Mo-Fr 08:00-18:00; Sa 08:00-12:00; PH off",
            "phone": "+43 2732 832 41-0",
            "source": "http://www.krems.gv.at/system/web/gelbeseite.aspx?menuonr=218454387&detailonr=112151890",
            "wheelchair": "limited"
          },
          "geometry": {
            "type": "Point",
            "coordinates": [
              15.6004067,
              48.4112899
            ]
          }
        },
        {
          "type": "Feature",
          "properties": {
            "id": "274792136",
            "osm_type": "node",
            "lat": 48.401631,
            "lon": 15.5802126,
            "addr:city": "Krems an der Donau",
            "addr:country": "AT",
            "addr:housenumber": "80",
            "addr:postcode": "3500",
            "addr:street": "Steiner Landstraße",
            "amenity": "pharmacy",
            "check_date:opening_hours": "2023-01-21",
            "dispensing": "yes",
            "email": "info@engelapo.at",
            "fax": "+43 2732 72221",
            "name": "Apotheke Zum Engel",
            "opening_hours": "Mo-Fr 07:30-12:00,14:30-18:00; Sa 08:00-12:00; PH off",
            "phone": "+43 2732 84567",
            "website": "https://engelapo.at/"
          },
          "geometry": {
            "type": "Point",
            "coordinates": [
              15.5802126,
              48.401631
            ]
          }
        },
        {
          "type": "Feature",
          "properties": {
            "id": "274792141",
            "osm_type": "node",
            "lat": 48.4085588,
            "lon": 15.6128865,
            "addr:city": "Krems an der Donau",
            "addr:country": "AT",
            "addr:housenumber": "29",
            "addr:postcode": "3500",
            "addr:street": "Göttweigergasse",
            "amenity": "pharmacy",
            "email": "apotheke@apotheke-mitterau.at",
            "fax": "+43 (0) 27 32 / 85 774 - 44",
            "name": "Apotheke Mitterau",
            "opening_hours": "Mo-Fr 08:00-18:00; Sa 08:00-12:00; PH off",
            "phone": "+43 (0) 27 32 / 85 774",
            "source": "http://www.krems.gv.at/system/web/gelbeseite.aspx?detailonr=112151882",
            "wheelchair": "yes"
          },
          "geometry": {
            "type": "Point",
            "coordinates": [
              15.6128865,
              48.4085588
            ]
          }
        },
        {
          "type": "Feature",
          "properties": {
            "id": "307383697",
            "osm_type": "node",
            "lat": 48.4734859,
            "lon": 15.9822453,
            "addr:city": "Großweikersdorf",
            "addr:country": "AT",
            "addr:housenumber": "2",
            "addr:postcode": "3701",
            "addr:street": "Hauptplatz",
            "amenity": "pharmacy",
            "contact:phone": "+43 2955 702 01",
            "healthcare": "pharmacy",
            "name": "Apotheke zur hl. Dreifaltigkeit",
            "opening_hours": "Mo-Fr 08:00-12:00, 14:00-18:00; Sa 08:00-12:00"
          },
          "geometry": {
            "type": "Point",
            "coordinates": [
              15.9822453,
              48.4734859
            ]
          }
        },
        {
          "type": "Feature",
          "properties": {
            "id": "335884631",
            "osm_type": "node",
            "lat": 48.4131961,
            "lon": 15.6354255,
            "addr:city": "Krems an der Donau",
            "addr:country": "AT",
            "addr:housenumber": "12",
            "addr:postcode": "3500",
            "addr:street": "Lerchenfelder Hauptplatz",
            "amenity": "pharmacy",
            "email": "office@apotheke-lerchenfeld.at",
            "fax": "+43 2732 833 20 4",
            "healthcare": "pharmacy",
            "name": "Apotheke Lerchenfeld",
            "opening_hours": "Mo-Fr 07:30-12:30,14:30-18:00; Sa 08:00-12:00; PH off",
            "phone": "+43 2732 833 20",
            "source": "http://www.krems.gv.at/system/web/gelbeseite.aspx?detailonr=112151878"
          },
          "geometry": {
            "type": "Point",
            "coordinates": [
              15.6354255,
              48.4131961
            ]
          }
        },
        {
          "type": "Feature",
          "properties": {
            "id": "340180416",
            "osm_type": "node",
            "lat": 48.4110053,
            "lon": 15.5999626,
            "addr:city": "Krems an der Donau",
            "addr:country": "AT",
            "addr:housenumber": "3",
            "addr:postcode": "3500",
            "addr:street": "Obere Landstraße",
            "amenity": "pharmacy",
            "dispensing": "yes",
            "email": "office@adlerapotheke-krems.at",
            "fax": "+43 2732 814 33",
            "healthcare": "pharmacy",
            "name": "Adler Apotheke",
            "opening_hours": "Mo-Fr 07:30-18:00; Sa 08:00-12:00; PH off",
            "phone": "+43 2732 820 01",
            "website": "https://www.adlerapotheke-krems.at/",
            "wheelchair": "yes"
          },
          "geometry": {
            "type": "Point",
            "coordinates": [
              15.5999626,
              48.4110053
            ]
          }
        },
        {
          "type": "Feature",
          "properties": {
            "id": "393885000",
            "osm_type": "node",
            "lat": 48.4349297,
            "lon": 15.8979794,
            "amenity": "pharmacy",
            "dispensing": "no",
            "healthcare": "pharmacy",
            "name": "Zu Maria Trost",
            "phone": "+43-2279- 2218 0"
          },
          "geometry": {
            "type": "Point",
            "coordinates": [
              15.8979794,
              48.4349297
            ]
          }
        },
        {
          "type": "Feature",
          "properties": {
            "id": "410949949",
            "osm_type": "node",
            "lat": 48.5280571,
            "lon": 15.9264638,
            "addr:city": "Ziersdorf",
            "addr:housenumber": "5",
            "addr:postcode": "3710",
            "addr:street": "Horner Straße",
            "amenity": "pharmacy",
            "contact:phone": "+43 2956 2229",
            "name": "Zum Heiligen Leopold",
            "opening_hours": "Mo-Fr 08:00-12:00, 14:00-18:00; Sa 08:00-12:00",
            "wheelchair": "yes"
          },
          "geometry": {
            "type": "Point",
            "coordinates": [
              15.9264638,
              48.5280571
            ]
          }
        },
        {
          "type": "Feature",
          "properties": {
            "id": "443006286",
            "osm_type": "node",
            "lat": 48.4721934,
            "lon": 15.6762206,
            "addr:city": "Langenlois",
            "addr:country": "AT",
            "addr:housenumber": "1",
            "addr:postcode": "3550",
            "addr:street": "Holzplatz",
            "amenity": "pharmacy",
            "dispensing": "yes",
            "healthcare": "pharmacy",
            "name": "Adler Apotheke Langenlois",
            "opening_hours": "Mo-Fr 08:00-18:00; Sa 08:00-12:30"
          },
          "geometry": {
            "type": "Point",
            "coordinates": [
              15.6762206,
              48.4721934
            ]
          }
        },
        {
          "type": "Feature",
          "properties": {
            "id": "607110859",
            "osm_type": "node",
            "lat": 48.4120779,
            "lon": 15.6048941,
            "addr:city": "Krems an der Donau",
            "addr:country": "AT",
            "addr:housenumber": "56",
            "addr:postcode": "3500",
            "addr:street": "Untere Landstraße",
            "amenity": "pharmacy",
            "check_date:opening_hours": "2025-06-07",
            "dispensing": "yes",
            "email": "apo-wienertor@aon.at",
            "fax": "+43 2732 828 25 04",
            "name": "Wienertor Apotheke",
            "opening_hours": "Mo-Fr 07:30-12:00,14:30-18:00; Sa 08:00-12:00; PH off",
            "opening_hours:signed": "no",
            "phone": "+43 2732 828 25",
            "source": "http://www.krems.gv.at/system/web/gelbeseite.aspx?detailonr=112151895"
          },
          "geometry": {
            "type": "Point",
            "coordinates": [
              15.6048941,
              48.4120779
            ]
          }
        },
        {
          "type": "Feature",
          "properties": {
            "id": "683262595",
            "osm_type": "node",
            "lat": 48.6416413,
            "lon": 15.817591,
            "addr:city": "Eggenburg",
            "addr:country": "AT",
            "addr:housenumber": "7",
            "addr:postcode": "3730",
            "addr:street": "Kremserstraße",
            "amenity": "pharmacy",
            "at_bev:addr_date": "2021-10-01",
            "dispensing": "yes",
            "email": "apo-eggenburg@aon.at",
            "fax": "+43 2984 35122",
            "name": "Apotheke Zum heiligen Leopold",
            "opening_hours": "Mo-Fr 08:00-12:00, 14:00-18:00; Sa 08:00-12:00; Su,PH off",
            "phone": "+43 2984 3512"
          },
          "geometry": {
            "type": "Point",
            "coordinates": [
              15.817591,
              48.6416413
            ]
          }
        },
        {
          "type": "Feature",
          "properties": {
            "id": "1821096640",
            "osm_type": "node",
            "lat": 48.6640149,
            "lon": 15.6565279,
            "addr:city": "Horn",
            "addr:country": "AT",
            "addr:housenumber": "14",
            "addr:postcode": "3580",
            "addr:street": "Hauptplatz",
            "alt_name": "zum schwarzen Adler",
            "amenity": "pharmacy",
            "contact:phone": "+43 2982 2255",
            "healthcare": "pharmacy",
            "name": "Landschafts-Apotheke",
            "opening_hours": "Mo-Fr 08:00-18:00; Sa 08:00-12:00",
            "website": "http://landschafts-apotheke-horn.at/de/home/",
            "wheelchair": "no"
          },
          "geometry": {
            "type": "Point",
            "coordinates": [
              15.6565279,
              48.6640149
            ]
          }
        },
        {
          "type": "Feature",
          "properties": {
            "id": "2579133255",
            "osm_type": "node",
            "lat": 48.6683267,
            "lon": 15.6587544,
            "addr:city": "Horn",
            "addr:country": "AT",
            "addr:housenumber": "20",
            "addr:postcode": "3580",
            "addr:street": "Puechhaimgasse",
            "amenity": "pharmacy",
            "healthcare": "pharmacy",
            "name": "Stefans-Apotheke",
            "opening_hours": "Mo-Fr 08:00-12:00, 14:00-18:00; Sa 08:00-12:00",
            "phone": "+43 2982 4331",
            "website": "http://www.apo-horn.at/de/portal/",
            "wheelchair": "yes"
          },
          "geometry": {
            "type": "Point",
            "coordinates": [
              15.6587544,
              48.6683267
            ]
          }
        },
        {
          "type": "Feature",
          "properties": {
            "id": "3846134263",
            "osm_type": "node",
            "lat": 48.3917664,
            "lon": 15.5812834,
            "addr:city": "Mautern an der Donau",
            "addr:country": "AT",
            "addr:housenumber": "1",
            "addr:postcode": "3512",
            "addr:street": "Baumgartner Straße",
            "addr:unit": "2",
            "amenity": "pharmacy",
            "dispensing": "yes",
            "email": "mautern@engelapo.at",
            "name": "Apotheke Zum Engel",
            "phone": "+43 2732 73231",
            "website": "https://www.engelapo.at/",
            "wheelchair": "yes"
          },
          "geometry": {
            "type": "Point",
            "coordinates": [
              15.5812834,
              48.3917664
            ]
          }
        },
        {
          "type": "Feature",
          "properties": {
            "id": "249502700",
            "osm_type": "node",
            "lat": 48.5658182,
            "lon": 16.0799825,
            "addr:city": "Hollabrunn",
            "addr:country": "AT",
            "addr:housenumber": "36",
            "addr:postcode": "2020",
            "addr:street": "Sparkassegasse",
            "amenity": "pharmacy",
            "dispensing": "yes",
            "email": "apo@ulrichapotheke.at",
            "fax": "+43 2952 43304",
            "healthcare": "pharmacy",
            "name": "St. Ulrich-Apotheke",
            "opening_hours": "Mo-Fr 08:00-12:00, 14:00-18:00; Sa 08:00-12:00; Su,PH off",
            "phone": "+43 2952 4330",
            "website": "http://www.ulrichapotheke.at/",
            "wheelchair": "yes"
          },
          "geometry": {
            "type": "Point",
            "coordinates": [
              16.0799825,
              48.5658182
            ]
          }
        },
        {
          "type": "Feature",
          "properties": {
            "id": "2190971770",
            "osm_type": "node",
            "lat": 48.561977,
            "lon": 16.0784741,
            "addr:city": "Hollabrunn",
            "addr:country": "AT",
            "addr:housenumber": "2",
            "addr:postcode": "2020",
            "addr:street": "Hauptplatz",
            "amenity": "pharmacy",
            "dispensing": "yes",
            "email": "office@apotheke-hollabrunn.com",
            "fax": "+43 2952 2153 71",
            "healthcare": "pharmacy",
            "name": "Stadtapotheke",
            "opening_hours": "Mo-Fr 08:00-12:00, 14:00-18:00; Sa 08:00-12:00; Su,PH off",
            "operator": "Mag. pharm. Christine Kronberger KG",
            "phone": "+43 2952 2153",
            "website": "http://www.apotheke-hollabrunn.com/wp/",
            "wheelchair": "yes"
          },
          "geometry": {
            "type": "Point",
            "coordinates": [
              16.0784741,
              48.561977
            ]
          }
        },
        {
          "type": "Feature",
          "properties": {
            "id": "4745131078",
            "osm_type": "node",
            "lat": 48.3847716,
            "lon": 16.206654,
            "addr:city": "Stockerau",
            "addr:country": "AT",
            "addr:housenumber": "2-4",
            "addr:postcode": "2000",
            "addr:street": "Josef Wolfik-Straße",
            "amenity": "pharmacy",
            "contact:phone": "+43 2266 62107",
            "healthcare": "pharmacy",
            "name": "Apotheke \"Zum göttlichen Heiland\"",
            "opening_hours": "Mo-Fr 08:00-12:00, 14:00-18:00; Sa 08:00-12:00",
            "website": "https://www.heiland-apotheke.at/"
          },
          "geometry": {
            "type": "Point",
            "coordinates": [
              16.206654,
              48.3847716
            ]
          }
        }
      ],
      "children": []
    },
    {
      "bbox": {
        "south": 48.355971499999995,
        "west": 16.2068765,
        "north": 48.68652475,
        "east": 17.16058
      },
      "poiCount": 38,
      "leafCount": 38,
      "averagePosition": [
        16.8674245,
        48.49794032631579
      ],
      "data": [
        {
          "type": "Feature",
          "properties": {
            "id": "505800430",
            "osm_type": "node",
            "lat": 48.3634025,
            "lon": 16.9712178,
            "amenity": "pharmacy",
            "dispensing": "yes"
          },
          "geometry": {
            "type": "Point",
            "coordinates": [
              16.9712178,
              48.3634025
            ]
          }
        },
        {
          "type": "Feature",
          "properties": {
            "id": "731484436",
            "osm_type": "node",
            "lat": 48.3786831,
            "lon": 16.3220333,
            "addr:city": "Leobendorf",
            "addr:country": "AT",
            "addr:housenumber": "10",
            "addr:postcode": "2100",
            "addr:street": "Rohrbacher Straße",
            "amenity": "pharmacy",
            "check_date:opening_hours": "2021-06-07",
            "contact:phone": "+43 2262 660 41",
            "contact:website": "http://www.rohrwaldapotheke.at/",
            "dispensing": "yes",
            "healthcare": "pharmacy",
            "name": "Rohrwald Apotheke",
            "opening_hours": "Mo-Fr 08:00-18:00; Sa 08:00-12:00; Su,PH off",
            "wheelchair": "yes"
          },
          "geometry": {
            "type": "Point",
            "coordinates": [
              16.3220333,
              48.3786831
            ]
          }
        },
        {
          "type": "Feature",
          "properties": {
            "id": "3354594302",
            "osm_type": "node",
            "lat": 48.6525178,
            "lon": 16.2978384,
            "addr:city": "Stronsdorf",
            "addr:country": "AT",
            "addr:housenumber": "112",
            "addr:place": "Stronsdorf",
            "addr:postcode": "2153",
            "amenity": "pharmacy",
            "dispensing": "yes",
            "email": "mariahilf@apo-stronsdorf.at",
            "fax": "+43 2526 72024",
            "name": "Apotheke \"Zur Mariahilf\"",
            "opening_hours": "Mo,Th 07:30-12:00,14:30-18:00; Tu,Fr 07:30-12:00,14:00-17:30; We 07:30-12:00; Sa 07:30-11:30",
            "phone": "+43 2526 7202",
            "wheelchair": "no"
          },
          "geometry": {
            "type": "Point",
            "coordinates": [
              16.2978384,
              48.6525178
            ]
          }
        },
        {
          "type": "Feature",
          "properties": {
            "id": "3467340275",
            "osm_type": "node",
            "lat": 48.5274584,
            "lon": 16.3609346,
            "addr:city": "Ernstbrunn",
            "addr:country": "AT",
            "addr:housenumber": "2",
            "addr:postcode": "2115",
            "addr:street": "Hauptplatz",
            "amenity": "pharmacy",
            "contact:email": "apo.ernstbrunn@aon.at",
            "contact:fax": "+43 2576 22344",
            "contact:phone": "+43 2576 2234",
            "dispensing": "yes",
            "healthcare": "pharmacy",
            "name": "Apotheke Ernstbrunn",
            "opening_hours": "Mo-Tu,Th-Fr 08:00-12:00, 14:30-18:00; We,Sa 08:00-12:00; Su,PH off"
          },
          "geometry": {
            "type": "Point",
            "coordinates": [
              16.3609346,
              48.5274584
            ]
          }
        },
        {
          "type": "Feature",
          "properties": {
            "id": "5057222580",
            "osm_type": "node",
            "lat": 48.3851778,
            "lon": 16.2118652,
            "addr:city": "Stockerau",
            "addr:country": "AT",
            "addr:housenumber": "26",
            "addr:postcode": "2000",
            "addr:street": "Hauptstraße",
            "amenity": "pharmacy",
            "contact:email": "info@apotheke-schaumann.at",
            "contact:fax": "+43 2266 62706-21",
            "contact:phone": "+43 2266 62706-0",
            "contact:website": "http://www.apotheke-schaumann.at",
            "healthcare": "pharmacy",
            "name": "Apotheke zur hl. Dreifaltigkeit",
            "opening_hours": "Mo-Fr 08:00-12:00,14:00-18:00; Sa 08:00-12:00",
            "operator": "Landschaftliche Apotheke zur hl. Dreifaltigkeit Julius Schaumann KG"
          },
          "geometry": {
            "type": "Point",
            "coordinates": [
              16.2118652,
              48.3851778
            ]
          }
        },
        {
          "type": "Feature",
          "properties": {
            "id": "7177265923",
            "osm_type": "node",
            "lat": 48.383951,
            "lon": 16.5167662,
            "addr:city": "Wolkersdorf im Weinviertel",
            "addr:housenumber": "16",
            "addr:postcode": "2120",
            "addr:street": "Hauptstraße",
            "amenity": "pharmacy",
            "contact:email": "info@apotheke-wolkersdorf.at",
            "contact:phone": "+43 2245 23 54",
            "dispensing": "yes",
            "healthcare": "pharmacy",
            "name": "Plus Apotheke Wolkersdorf",
            "opening_hours": "Mo-Fr 08:00-12:00, 14:00-18:00; Sa 08:00-12:00",
            "website": "https://www.apotheke-wolkersdorf.at/"
          },
          "geometry": {
            "type": "Point",
            "coordinates": [
              16.5167662,
              48.383951
            ]
          }
        },
        {
          "type": "Feature",
          "properties": {
            "id": "298142986",
            "osm_type": "node",
            "lat": 48.5676074,
            "lon": 16.592168,
            "addr:city": "Mistelbach",
            "addr:country": "AT",
            "addr:housenumber": "1-3",
            "addr:postcode": "2130",
            "addr:street": "Herzog Albrecht-Straße",
            "amenity": "pharmacy",
            "dispensing": "yes",
            "email": "office@weinviertel-apo.at",
            "healthcare": "pharmacy",
            "name": "Weinviertel Apotheke",
            "opening_hours": "Mo-Fr 09:00-18:00; Sa 09:00-13:00; PH off",
            "phone": "+43 2572 326 30",
            "website": "https://www.aposonah.at/de/apotheke-weinviertel/"
          },
          "geometry": {
            "type": "Point",
            "coordinates": [
              16.592168,
              48.5676074
            ]
          }
        },
        {
          "type": "Feature",
          "properties": {
            "id": "442498630",
            "osm_type": "node",
            "lat": 48.3732269,
            "lon": 17.0045922,
            "amenity": "pharmacy",
            "dispensing": "yes",
            "drive_through": "no",
            "healthcare": "pharmacy"
          },
          "geometry": {
            "type": "Point",
            "coordinates": [
              17.0045922,
              48.3732269
            ]
          }
        },
        {
          "type": "Feature",
          "properties": {
            "id": "662220186",
            "osm_type": "node",
            "lat": 48.4368188,
            "lon": 17.0211748,
            "amenity": "pharmacy",
            "check_date": "2025-03-21",
            "dispensing": "yes",
            "healthcare": "pharmacy",
            "name": "Egi",
            "opening_hours": "Mo-Fr 08:00-17:30",
            "operator": "Mgr. Foltýnová Eva",
            "wheelchair": "yes"
          },
          "geometry": {
            "type": "Point",
            "coordinates": [
              17.0211748,
              48.4368188
            ]
          }
        },
        {
          "type": "Feature",
          "properties": {
            "id": "1437400310",
            "osm_type": "node",
            "lat": 48.590818,
            "lon": 17.0036224,
            "amenity": "pharmacy",
            "email": "lekarenusvjana@gmail.com",
            "healthcare": "pharmacy",
            "name": "Lekáreň u sv. Jána",
            "opening_hours": "Mo-Fr 07:30-15:30",
            "phone": "+421 34 777 0143",
            "website": "https://pluslekaren.sk/"
          },
          "geometry": {
            "type": "Point",
            "coordinates": [
              17.0036224,
              48.590818
            ]
          }
        },
        {
          "type": "Feature",
          "properties": {
            "id": "1437445010",
            "osm_type": "node",
            "lat": 48.6563875,
            "lon": 17.0185339,
            "amenity": "pharmacy",
            "brand:wikipedia": "fr:Dr.Max",
            "dispensing": "yes",
            "healthcare": "pharmacy",
            "name": "Nová lekáreň",
            "opening_hours": "Mo-Fr 07:00-17:00"
          },
          "geometry": {
            "type": "Point",
            "coordinates": [
              17.0185339,
              48.6563875
            ]
          }
        },
        {
          "type": "Feature",
          "properties": {
            "id": "1542247123",
            "osm_type": "node",
            "lat": 48.4356844,
            "lon": 17.0175571,
            "amenity": "pharmacy",
            "brand": "Benu",
            "brand:wikidata": "Q62562792",
            "dispensing": "yes",
            "healthcare": "pharmacy",
            "name": "Benu",
            "opening_hours": "Mo-Fr 08:00-16:00",
            "website": "https://www.benulekaren.sk/"
          },
          "geometry": {
            "type": "Point",
            "coordinates": [
              17.0175571,
              48.4356844
            ]
          }
        },
        {
          "type": "Feature",
          "properties": {
            "id": "2222292241",
            "osm_type": "node",
            "lat": 48.5025554,
            "lon": 17.0054679,
            "amenity": "pharmacy",
            "dispensing": "yes",
            "healthcare": "pharmacy",
            "name": "Galena",
            "opening_hours": "Mo-Fr 07:30-15:00"
          },
          "geometry": {
            "type": "Point",
            "coordinates": [
              17.0054679,
              48.5025554
            ]
          }
        },
        {
          "type": "Feature",
          "properties": {
            "id": "2536157532",
            "osm_type": "node",
            "lat": 48.5693983,
            "lon": 16.5716508,
            "addr:city": "Mistelbach",
            "addr:country": "AT",
            "addr:housenumber": "36",
            "addr:postcode": "2130",
            "addr:street": "Hauptplatz",
            "amenity": "pharmacy",
            "dispensing": "yes",
            "email": "office@landschaftsapo.at",
            "fax": "+43 2572 24 42 16",
            "healthcare": "pharmacy",
            "name": "Apotheke Mistelbach",
            "opening_hours": "Mo-Fr 08:00-18:00; Sa 08:00-12:00; PH off",
            "phone": "+43 2572 24 42 0",
            "website": "https://www.aposonah.at/de/apotheke-mistelbach/"
          },
          "geometry": {
            "type": "Point",
            "coordinates": [
              16.5716508,
              48.5693983
            ]
          }
        },
        {
          "type": "Feature",
          "properties": {
            "id": "3187646946",
            "osm_type": "node",
            "lat": 48.5455045,
            "lon": 16.7589323,
            "addr:city": "Zistersdorf",
            "addr:country": "AT",
            "addr:housenumber": "10",
            "addr:postcode": "2225",
            "addr:street": "Kaiserstraße",
            "amenity": "pharmacy",
            "dispensing": "yes",
            "email": "office@apotheke-zistersdorf.at",
            "fax": "+43 2532 22353",
            "healthcare": "pharmacy",
            "name": "Apotheke \"Zur heiligen Dreifaltigkeit\"",
            "opening_hours": "Mo-Fr 08:00-12:00,14:00-18:00; Sa 08:00-12:00; PH off",
            "phone": "+43 2532 2235",
            "website": "https://www.apotheke-zistersdorf.at/"
          },
          "geometry": {
            "type": "Point",
            "coordinates": [
              16.7589323,
              48.5455045
            ]
          }
        },
        {
          "type": "Feature",
          "properties": {
            "id": "3344277016",
            "osm_type": "node",
            "lat": 48.5620595,
            "lon": 16.5574703,
            "addr:city": "Mistelbach",
            "addr:country": "AT",
            "addr:housenumber": "189",
            "addr:place": "Hüttendorf",
            "addr:postcode": "2130",
            "amenity": "pharmacy",
            "dispensing": "yes",
            "email": "office@st-martinapo.at",
            "healthcare": "pharmacy",
            "name": "Apotheke Lebenskraft",
            "opening_hours": "Mo-Fr 08:00-18:00; Sa 08:00-12:00; PH off",
            "phone": "+43 2572 22 71",
            "website": "https://www.aposonah.at/#kontakt"
          },
          "geometry": {
            "type": "Point",
            "coordinates": [
              16.5574703,
              48.5620595
            ]
          }
        },
        {
          "type": "Feature",
          "properties": {
            "id": "3356477455",
            "osm_type": "node",
            "lat": 48.477313,
            "lon": 16.5902341,
            "addr:city": "Gaweinstal",
            "addr:country": "AT",
            "addr:housenumber": "13",
            "addr:postcode": "2191",
            "addr:street": "Hauptplatz",
            "amenity": "pharmacy",
            "contact:email": "apo.z.hl.georg@lewepharm.at",
            "contact:fax": "+43 2574 2275 12",
            "contact:phone": "+43 2574 2275",
            "healthcare": "pharmacy",
            "name": "Apotheke \"Zum Hl. Georg\"",
            "opening_hours": "Mo-Fr 08:00-12:00,14:00-18:00; Sa 08:00-12:00; PH off",
            "wheelchair": "yes"
          },
          "geometry": {
            "type": "Point",
            "coordinates": [
              16.5902341,
              48.477313
            ]
          }
        },
        {
          "type": "Feature",
          "properties": {
            "id": "3356477456",
            "osm_type": "node",
            "lat": 48.6686101,
            "lon": 16.628524,
            "addr:city": "Poysdorf",
            "addr:country": "AT",
            "addr:housenumber": "4",
            "addr:postcode": "2170",
            "addr:street": "Oberer Markt",
            "amenity": "pharmacy",
            "dispensing": "yes",
            "email": "office@apopoysdorf.at",
            "fax": "+43 2552 2223 20",
            "healthcare": "pharmacy",
            "name": "Apotheke Poysdorf",
            "opening_hours": "Mo-Fr 08:00-13:00,14:00-18:00; Sa 08:00-12:00; PH off",
            "phone": "+43 2552 2223",
            "website": "https://www.aposonah.at/apotheken/#Poysdorf"
          },
          "geometry": {
            "type": "Point",
            "coordinates": [
              16.628524,
              48.6686101
            ]
          }
        },
        {
          "type": "Feature",
          "properties": {
            "id": "3363883821",
            "osm_type": "node",
            "lat": 48.6066282,
            "lon": 16.9059256,
            "addr:city": "Hohenau an der March",
            "addr:country": "AT",
            "addr:housenumber": "3",
            "addr:postcode": "2273",
            "addr:street": "Rathausplatz",
            "amenity": "pharmacy",
            "dispensing": "yes",
            "email": "apotheke-hohenau@aon.at",
            "fax": "+43 2535 22165",
            "healthcare": "pharmacy",
            "name": "Apotheke Zum schwarzen Adler",
            "opening_hours": "Mo-Tu,Th-Fr 07:40-12:00,14:30-18:00; We,Sa 07:40-12:00; PH Su off",
            "phone": "+43 2535 2216"
          },
          "geometry": {
            "type": "Point",
            "coordinates": [
              16.9059256,
              48.6066282
            ]
          }
        },
        {
          "type": "Feature",
          "properties": {
            "id": "3363883822",
            "osm_type": "node",
            "lat": 48.4719246,
            "lon": 16.85304,
            "addr:city": "Dürnkrut",
            "addr:country": "AT",
            "addr:housenumber": "49",
            "addr:postcode": "2263",
            "addr:street": "Hauptstraße",
            "amenity": "pharmacy",
            "dispensing": "yes",
            "email": "apo.duernkrut@aon.at",
            "fax": "+43 2538 803204",
            "name": "Marien-Apotheke",
            "opening_hours": "Mo-Fr 08:00-12:00, 14:30-18:30; Sa 08:00-12:00; Su,PH off",
            "phone": "+43 2538 80320",
            "website": "https://www.apotheke-duernkrut.at/"
          },
          "geometry": {
            "type": "Point",
            "coordinates": [
              16.85304,
              48.4719246
            ]
          }
        },
        {
          "type": "Feature",
          "properties": {
            "id": "3699930320",
            "osm_type": "node",
            "lat": 48.4382355,
            "lon": 17.0178137,
            "amenity": "pharmacy",
            "check_date": "2025-04-13",
            "dispensing": "yes",
            "healthcare": "pharmacy",
            "name": "Harmónia",
            "opening_hours": "Mo-Fr 08:00-17:00; Sa 08:00-12:00",
            "wheelchair": "yes"
          },
          "geometry": {
            "type": "Point",
            "coordinates": [
              17.0178137,
              48.4382355
            ]
          }
        },
        {
          "type": "Feature",
          "properties": {
            "id": "3877305333",
            "osm_type": "node",
            "lat": 48.4244988,
            "lon": 17.0190156,
            "amenity": "pharmacy",
            "dispensing": "yes",
            "healthcare": "pharmacy",
            "name": "Zdravie",
            "opening_hours": "Mo-Fr 07:30-18:00; Sa 08:00-12:00"
          },
          "geometry": {
            "type": "Point",
            "coordinates": [
              17.0190156,
              48.4244988
            ]
          }
        },
        {
          "type": "Feature",
          "properties": {
            "id": "4117337452",
            "osm_type": "node",
            "lat": 48.4387996,
            "lon": 17.0155384,
            "amenity": "pharmacy",
            "check_date": "2022-03-06",
            "contact:phone": "+421 34 7722 130",
            "contact:website": "https://pluslekaren.sk/",
            "dispensing": "yes",
            "healthcare": "pharmacy",
            "name": "U sv. Severína",
            "opening_hours": "Mo-Fr 08:00-17:30; Sa 08:00-12:00",
            "wheelchair": "yes"
          },
          "geometry": {
            "type": "Point",
            "coordinates": [
              17.0155384,
              48.4387996
            ]
          }
        },
        {
          "type": "Feature",
          "properties": {
            "id": "4207666898",
            "osm_type": "node",
            "lat": 48.4370204,
            "lon": 17.0175008,
            "amenity": "pharmacy",
            "brand": "Dr. Max",
            "brand:wikidata": "Q56317371",
            "brand:wikipedia": "fr:Dr.Max",
            "check_date": "2025-09-06",
            "dispensing": "yes",
            "healthcare": "pharmacy",
            "name": "Dr. Max",
            "opening_hours": "Mo-Fr 08:00-16:30",
            "wheelchair": "no;2 steps"
          },
          "geometry": {
            "type": "Point",
            "coordinates": [
              17.0175008,
              48.4370204
            ]
          }
        },
        {
          "type": "Feature",
          "properties": {
            "id": "7710025824",
            "osm_type": "node",
            "lat": 48.3809454,
            "lon": 16.8451313,
            "amenity": "pharmacy",
            "dispensing": "yes",
            "email": "vistapoint.eu@gmail.com",
            "healthcare": "pharmacy",
            "name": "Lekáreň sv. Michala",
            "opening_hours": "Mo 15:00-17:00; Tu,Th 11:00-16:00; Fr 13:00-16:00",
            "phone": "+421 34 774 64 53",
            "townhall:type": "village"
          },
          "geometry": {
            "type": "Point",
            "coordinates": [
              16.8451313,
              48.3809454
            ]
          }
        },
        {
          "type": "Feature",
          "properties": {
            "id": "9291403640",
            "osm_type": "node",
            "lat": 48.4404332,
            "lon": 17.0249227,
            "amenity": "pharmacy",
            "brand": "Benu",
            "brand:wikidata": "Q62562792",
            "dispensing": "yes",
            "email": "benu17@benulekaren.sk",
            "healthcare": "pharmacy",
            "level": "0",
            "name": "Benu",
            "opening_hours": "Mo-Fr 07:30-16:00",
            "operator": "Benu",
            "phone": "+421 907 958 130",
            "website": "https://www.benulekaren.sk/"
          },
          "geometry": {
            "type": "Point",
            "coordinates": [
              17.0249227,
              48.4404332
            ]
          }
        },
        {
          "type": "Feature",
          "properties": {
            "id": "9768165606",
            "osm_type": "node",
            "lat": 48.4331933,
            "lon": 17.0226455,
            "amenity": "pharmacy",
            "brand": "Benu",
            "brand:wikidata": "Q62562792",
            "check_date": "2025-03-23",
            "contact:phone": "+421 948 449 686",
            "dispensing": "yes",
            "healthcare": "pharmacy",
            "name": "Benu",
            "opening_hours": "Mo-Fr 7:30-17:00",
            "website": "https://www.benulekaren.sk/",
            "wheelchair": "yes"
          },
          "geometry": {
            "type": "Point",
            "coordinates": [
              17.0226455,
              48.4331933
            ]
          }
        },
        {
          "type": "Feature",
          "properties": {
            "id": "9768165607",
            "osm_type": "node",
            "lat": 48.4378756,
            "lon": 17.0192784,
            "amenity": "pharmacy",
            "brand": "Vaša Lekáreň",
            "brand:wikidata": "Q108368884",
            "check_date": "2022-05-20",
            "contact:phone": "+421 917 679 777",
            "contact:website": "http://www.vasalekaren.sk",
            "dispensing": "yes",
            "healthcare": "pharmacy",
            "name": "Vaša Lekáreň",
            "opening_hours": "Mo-Fr 08:00-17:30; Sa 08:00-12:00"
          },
          "geometry": {
            "type": "Point",
            "coordinates": [
              17.0192784,
              48.4378756
            ]
          }
        },
        {
          "type": "Feature",
          "properties": {
            "id": "9969341816",
            "osm_type": "node",
            "lat": 48.4317056,
            "lon": 17.0294878,
            "amenity": "pharmacy",
            "brand": "Benu",
            "brand:wikidata": "Q62562792",
            "dispensing": "yes",
            "healthcare": "pharmacy",
            "name": "Benu",
            "opening_hours": "Mo-Su 08:00-20:00",
            "website": "https://www.benulekaren.sk/"
          },
          "geometry": {
            "type": "Point",
            "coordinates": [
              17.0294878,
              48.4317056
            ]
          }
        },
        {
          "type": "Feature",
          "properties": {
            "id": "11429126972",
            "osm_type": "node",
            "lat": 48.6580022,
            "lon": 17.0205721,
            "amenity": "pharmacy",
            "brand": "Dr. Max",
            "brand:wikidata": "Q56317371",
            "dispensing": "yes",
            "email": "drmax@drmax.sk",
            "healthcare": "pharmacy",
            "name": "Dr. Max",
            "opening_hours": "Mo-Fr 07:00-15:30",
            "phone": "+421901961311",
            "website": "https://www.drmax.sk/"
          },
          "geometry": {
            "type": "Point",
            "coordinates": [
              17.0205721,
              48.6580022
            ]
          }
        },
        {
          "type": "Feature",
          "properties": {
            "id": "12064411625",
            "osm_type": "node",
            "lat": 48.442537,
            "lon": 17.0105451,
            "amenity": "pharmacy",
            "brand": "Dr. Max",
            "brand:wikidata": "Q56317371",
            "dispensing": "yes",
            "healthcare": "pharmacy",
            "name": "Dr. Max",
            "opening_hours": "Mo-Su 08:00-20:00",
            "website": "https://www.drmax.sk/"
          },
          "geometry": {
            "type": "Point",
            "coordinates": [
              17.0105451,
              48.442537
            ]
          }
        },
        {
          "type": "Feature",
          "properties": {
            "id": "2505844223",
            "osm_type": "node",
            "lat": 48.4072348,
            "lon": 17.1580008,
            "amenity": "pharmacy",
            "name": "Lekáreň sv. Anny",
            "opening_hours": "Mo 08:00-12:00,13:00-16:00; Tu 08:00-12:00; Th 08:00-12:00; Fr 08:00-14:30"
          },
          "geometry": {
            "type": "Point",
            "coordinates": [
              17.1580008,
              48.4072348
            ]
          }
        },
        {
          "type": "Feature",
          "properties": {
            "id": "3105108938",
            "osm_type": "node",
            "lat": 48.5446068,
            "lon": 17.03261,
            "amenity": "pharmacy",
            "drive_through": "no",
            "healthcare": "pharmacy",
            "name": "Prima",
            "opening_hours": "Mo-Fr 08:00-13:00",
            "operator": "Lekim s.r.o.",
            "phone": "+421 34 779 92 21",
            "website": "https://www.lekarenprima.sk/"
          },
          "geometry": {
            "type": "Point",
            "coordinates": [
              17.03261,
              48.5446068
            ]
          }
        },
        {
          "type": "Feature",
          "properties": {
            "id": "4105964223",
            "osm_type": "node",
            "lat": 48.5262469,
            "lon": 17.1372178,
            "amenity": "pharmacy",
            "dispensing": "yes",
            "healthcare": "pharmacy",
            "name": "Hasprunka",
            "opening_hours": "Mo-Fr 07:30-15:00",
            "source": "survey"
          },
          "geometry": {
            "type": "Point",
            "coordinates": [
              17.1372178,
              48.5262469
            ]
          }
        },
        {
          "type": "Feature",
          "properties": {
            "id": "6859030059",
            "osm_type": "node",
            "lat": 48.637319,
            "lon": 17.1531619,
            "amenity": "pharmacy",
            "brand": "Dr. Max",
            "brand:wikidata": "Q56317371",
            "brand:wikipedia": "fr:Dr.Max",
            "email": "drmax@drmax.sk",
            "healthcare": "pharmacy",
            "name": "Dr. Max",
            "opening_hours": "Mo-Fr 07:30-17:00; Sa 07:30-12:00",
            "phone": "+421901961241",
            "website": "https://www.drmax.sk/",
            "wheelchair": "no",
            "wheelchair:description": "3 steps"
          },
          "geometry": {
            "type": "Point",
            "coordinates": [
              17.1531619,
              48.637319
            ]
          }
        },
        {
          "type": "Feature",
          "properties": {
            "id": "7580100390",
            "osm_type": "node",
            "lat": 48.6099082,
            "lon": 17.0423468,
            "amenity": "pharmacy",
            "brand": "Dr. Max",
            "brand:wikidata": "Q56317371",
            "brand:wikipedia": "fr:Dr.Max",
            "dispensing": "yes",
            "email": "drmax@drmax.sk",
            "healthcare": "pharmacy",
            "name": "Dr. Max",
            "opening_hours": "Mo-Fr 08:00 - 12:30",
            "phone": "+421 901 961 341",
            "website": "https://www.drmax.sk/"
          },
          "geometry": {
            "type": "Point",
            "coordinates": [
              17.0423468,
              48.6099082
            ]
          }
        },
        {
          "type": "Feature",
          "properties": {
            "id": "7796447025",
            "osm_type": "node",
            "lat": 48.6367379,
            "lon": 17.1532848,
            "amenity": "pharmacy",
            "brand": "Vaša Lekáreň",
            "brand:website": "https://www.vasalekaren.sk/",
            "brand:wikidata": "Q108368884",
            "contact:facebook": "https://www.facebook.com/lekaren.na.namesti.sastin",
            "dispensing": "yes",
            "email": "lekaren@nanamesti.sk",
            "healthcare": "pharmacy",
            "name": "Lekáreň Na námestí",
            "opening_hours": "Mo-Fr 07:30-16:30; Sa 08:00-11:30",
            "phone": "+421 950 591 588",
            "website": "https://nanamesti.sk/"
          },
          "geometry": {
            "type": "Point",
            "coordinates": [
              17.1532848,
              48.6367379
            ]
          }
        },
        {
          "type": "Feature",
          "properties": {
            "id": "12064411626",
            "osm_type": "node",
            "lat": 48.440705,
            "lon": 17.0335086,
            "amenity": "pharmacy",
            "dispensing": "yes",
            "healthcare": "pharmacy",
            "name": "Nemocničná",
            "opening_hours": "Mo-Fr 07:00-15:30",
            "phone": "+421 34 282 91 50",
            "website": "https://www.nemocnicamalacky.sk/pre-pacientov/lekaren"
          },
          "geometry": {
            "type": "Point",
            "coordinates": [
              17.0335086,
              48.440705
            ]
          }
        }
      ],
      "children": []
    },
    {
      "bbox": {
        "south": 48.68652475,
        "west": 15.253173,
        "north": 49.017078,
        "east": 16.2068765
      },
      "poiCount": 28,
      "leafCount": 28,
      "averagePosition": [
        15.852187635714285,
        48.837366025
      ],
      "data": [
        {
          "type": "Feature",
          "properties": {
            "id": "331355406",
            "osm_type": "node",
            "lat": 48.8151976,
            "lon": 15.2879847,
            "addr:city": "Waidhofen/Thaya",
            "addr:country": "AT",
            "addr:housenumber": "2",
            "addr:postcode": "3830",
            "addr:street": "Hauptplatz",
            "amenity": "pharmacy",
            "contact:phone": "+43 2842 525 740",
            "dispensing": "yes",
            "healthcare": "pharmacy",
            "name": "Apotheke Zum Schwarzen Adler",
            "opening_hours": "Mo-Fr 08:00-12:30,14:30-18:00; Sa 08:00-12:00",
            "wheelchair": "yes"
          },
          "geometry": {
            "type": "Point",
            "coordinates": [
              15.2879847,
              48.8151976
            ]
          }
        },
        {
          "type": "Feature",
          "properties": {
            "id": "370650263",
            "osm_type": "node",
            "lat": 48.8546351,
            "lon": 15.2961323,
            "amenity": "pharmacy",
            "dispensing": "yes",
            "healthcare": "pharmacy",
            "name": "Ärztliche Hausapotheke",
            "operator": "Dr. Ute Waldmann"
          },
          "geometry": {
            "type": "Point",
            "coordinates": [
              15.2961323,
              48.8546351
            ]
          }
        },
        {
          "type": "Feature",
          "properties": {
            "id": "1020745626",
            "osm_type": "node",
            "lat": 48.8109918,
            "lon": 15.2667335,
            "addr:city": "Waidhofen an der Thaya",
            "addr:country": "AT",
            "addr:housename": "Apotheke Zum Heiligen Hubertus",
            "addr:housenumber": "43",
            "addr:postcode": "3830",
            "addr:street": "Brunnerstraße",
            "amenity": "pharmacy",
            "contact:phone": "+43 2842 537 57",
            "healthcare": "pharmacy",
            "name": "Apotheke Zum Heiligen Hubertus",
            "opening_hours": "Mo-Fr 08:00-12:30,14:30-18:00; Sa 08:00-12:00",
            "wheelchair": "yes"
          },
          "geometry": {
            "type": "Point",
            "coordinates": [
              15.2667335,
              48.8109918
            ]
          }
        },
        {
          "type": "Feature",
          "properties": {
            "id": "1562573794",
            "osm_type": "node",
            "lat": 48.7886944,
            "lon": 15.403762,
            "addr:city": "Gross Siegharts",
            "addr:country": "AT",
            "addr:housenumber": "17",
            "addr:postcode": "3812",
            "addr:street": "Berggasse",
            "amenity": "pharmacy",
            "healthcare": "pharmacy",
            "name": "Apotheke und Drogerie Mag. Heidrun Holik"
          },
          "geometry": {
            "type": "Point",
            "coordinates": [
              15.403762,
              48.7886944
            ]
          }
        },
        {
          "type": "Feature",
          "properties": {
            "id": "2044203397",
            "osm_type": "node",
            "lat": 48.696147,
            "lon": 15.3278673,
            "addr:city": "Allentsteig",
            "addr:country": "AT",
            "addr:housenumber": "1",
            "addr:postcode": "3804",
            "addr:street": "Am Stadtberg",
            "amenity": "pharmacy",
            "check_date": "2025-05-29",
            "contact:phone": "+43 2824 232 70",
            "healthcare": "pharmacy",
            "name": "Apotheke \"Zur Mariahilf\"",
            "opening_hours": "Mo-Fr 07:45-12:00, 15:00-18:00; Sa 07:45-12:00",
            "operator": "Mag. Alice Ranftl e.U.",
            "website": "https://apo24.at/apotheke/niederoesterreich/3804/allentsteig/507/apotheke-zur-mariahilf",
            "wheelchair": "yes"
          },
          "geometry": {
            "type": "Point",
            "coordinates": [
              15.3278673,
              48.696147
            ]
          }
        },
        {
          "type": "Feature",
          "properties": {
            "id": "3217991166",
            "osm_type": "node",
            "lat": 48.8472666,
            "lon": 15.493012,
            "addr:city": "Raabs an der Thaya",
            "addr:country": "AT",
            "addr:housenumber": "15",
            "addr:postcode": "3820",
            "addr:street": "Hauptplatz",
            "amenity": "pharmacy",
            "healthcare": "pharmacy",
            "name": "Landschaftsapotheke Mag. Ernst Baurek und Postpartner",
            "opening_hours": "Mo-Fr 08:00-12:00,14:30-18:00; Sa 08:00-12:00",
            "website": "https://www.landschafts-apotheke.at/"
          },
          "geometry": {
            "type": "Point",
            "coordinates": [
              15.493012,
              48.8472666
            ]
          }
        },
        {
          "type": "Feature",
          "properties": {
            "id": "459972315",
            "osm_type": "node",
            "lat": 48.8679911,
            "lon": 15.6201419,
            "addr:city": "Drosendorf-Zissersdorf",
            "addr:country": "AT",
            "addr:housenumber": "13",
            "addr:postcode": "2095",
            "addr:street": "Hauptplatz",
            "amenity": "pharmacy",
            "at_bev:addr_date": "2021-10-01",
            "check_date": "2024-10-26",
            "dispensing": "yes",
            "healthcare": "pharmacy",
            "name": "Zum Erlöser",
            "opening_hours": "Mo-Fr 08:00-12:30,15:00-18:00; Sa 08:00-12:00",
            "website": "https://www.apotheke-drosendorf.at/"
          },
          "geometry": {
            "type": "Point",
            "coordinates": [
              15.6201419,
              48.8679911
            ]
          }
        },
        {
          "type": "Feature",
          "properties": {
            "id": "1363446690",
            "osm_type": "node",
            "lat": 48.7576452,
            "lon": 15.9586585,
            "addr:city": "Retz",
            "addr:country": "AT",
            "addr:housenumber": "4",
            "addr:postcode": "2070",
            "addr:street": "Sandweg",
            "amenity": "pharmacy",
            "contact:email": "office@homeocur.com",
            "contact:fax": "+43 2942 2287 20",
            "contact:phone": "+43 2942 2287",
            "dispensing": "yes",
            "healthcare": "pharmacy",
            "name": "Apotheke Zum Weißen Engel",
            "opening_hours": "Mo-Fr 08:00-12:00, 14:00-18:00; Sa 08:00-12:00; Su,PH off",
            "operator": "Dr. Leisser",
            "website": "https://www.apotheke-retz.at/de/pages/impressum-95.aspx"
          },
          "geometry": {
            "type": "Point",
            "coordinates": [
              15.9586585,
              48.7576452
            ]
          }
        },
        {
          "type": "Feature",
          "properties": {
            "id": "3359471687",
            "osm_type": "node",
            "lat": 48.705526,
            "lon": 15.859547,
            "addr:city": "Pulkau",
            "addr:country": "AT",
            "addr:housenumber": "10",
            "addr:postcode": "3741",
            "addr:street": "Rathausplatz",
            "amenity": "pharmacy",
            "dispensing": "yes",
            "email": "apotheke.pulkau@aon.at",
            "fax": "+43 2946 22434",
            "healthcare": "pharmacy",
            "name": "Apotheke Pulkau",
            "opening_hours": "Mo-Tu,Fr 08:00-12:00, 15:00-18:00; We,Sa 08:00-12:00; Th 08:00-12:00, 14:00-19:00",
            "phone": "+43 2946 2243"
          },
          "geometry": {
            "type": "Point",
            "coordinates": [
              15.859547,
              48.705526
            ]
          }
        },
        {
          "type": "Feature",
          "properties": {
            "id": "875915261",
            "osm_type": "node",
            "lat": 48.85249,
            "lon": 16.0527145,
            "amenity": "pharmacy",
            "contact:email": "alzbetaznojmo@seznam.cz",
            "contact:phone": "+420 515 224 562",
            "healthcare": "pharmacy",
            "name": "U svaté Alžběty",
            "opening_hours": "Mo,We 07:00-17:00; Tu,Th,Fr 07:00-16:30",
            "ref": "83638000000"
          },
          "geometry": {
            "type": "Point",
            "coordinates": [
              16.0527145,
              48.85249
            ]
          }
        },
        {
          "type": "Feature",
          "properties": {
            "id": "1088585946",
            "osm_type": "node",
            "lat": 48.8602676,
            "lon": 16.0557601,
            "amenity": "pharmacy",
            "brand": "Benu",
            "brand:wikidata": "Q62562792",
            "contact:email": "znojmo.ockaufland2@benu.cz",
            "contact:phone": "+420 703 462 245",
            "contact:website": "https://www.benu.cz/znojmo-oc-kaufland-jarosova",
            "healthcare": "pharmacy",
            "name": "Benu",
            "opening_hours": "Mo-Su 08:00-20:00",
            "ref:SUKL": "201479124"
          },
          "geometry": {
            "type": "Point",
            "coordinates": [
              16.0557601,
              48.8602676
            ]
          }
        },
        {
          "type": "Feature",
          "properties": {
            "id": "1224530129",
            "osm_type": "node",
            "lat": 48.863462,
            "lon": 16.0433219,
            "amenity": "pharmacy",
            "contact:email": "nahvezdove@lekarnaznojmo.cz",
            "contact:phone": "+420 515 248 444",
            "contact:website": "https://www.lekarnaznojmo.cz/",
            "healthcare": "pharmacy",
            "name": "Na Hvězdové",
            "opening_hours": "Mo-Fr 07:30-18:00; Sa 08:00-12:00",
            "ref:SUKL": "00201587140"
          },
          "geometry": {
            "type": "Point",
            "coordinates": [
              16.0433219,
              48.863462
            ]
          }
        },
        {
          "type": "Feature",
          "properties": {
            "id": "1607921511",
            "osm_type": "node",
            "lat": 48.7089929,
            "lon": 16.0778778,
            "addr:city": "Haugsdorf",
            "addr:country": "AT",
            "addr:housenumber": "5",
            "addr:postcode": "2054",
            "addr:street": "Kellerstraße",
            "amenity": "pharmacy",
            "dispensing": "yes",
            "email": "apotheke-haugsdorf@aon.at",
            "fax": "+43 2944 22294",
            "name": "Zur Hl. Dreifaltigkeit",
            "opening_hours": "Mo-Fr 08:00-12:00, 14:00-18:00; Sa 08:00-12:00; Su,PH off",
            "phone": "+43 2944 2229"
          },
          "geometry": {
            "type": "Point",
            "coordinates": [
              16.0778778,
              48.7089929
            ]
          }
        },
        {
          "type": "Feature",
          "properties": {
            "id": "2067900227",
            "osm_type": "node",
            "lat": 48.8694594,
            "lon": 16.0506018,
            "addr:housenumber": "2675/11",
            "addr:postcode": "669 02",
            "addr:street": "MUDr. Jana Janského",
            "amenity": "pharmacy",
            "contact:email": "renata.rockova@nemzn.cz",
            "contact:phone": "+420 515 223 216",
            "contact:website": "http://www.nemzn.cz",
            "name": "Nemocniční",
            "opening_hours": "Mo-Th 07:00-17:00; Fr 07:00-15:30",
            "ref": "83699000000",
            "website": "www.nemzn.cz"
          },
          "geometry": {
            "type": "Point",
            "coordinates": [
              16.0506018,
              48.8694594
            ]
          }
        },
        {
          "type": "Feature",
          "properties": {
            "id": "2445140632",
            "osm_type": "node",
            "lat": 48.8373617,
            "lon": 16.0642894,
            "amenity": "pharmacy",
            "brand": "Benu",
            "brand:wikidata": "Q62562792",
            "contact:email": "znojmo.ockaufland@benu.cz",
            "contact:phone": "+420 731 638 179",
            "contact:website": "https://www.benu.cz/lekarna-benu-znojmo-dukelskych-bojovniku",
            "healthcare": "pharmacy",
            "name": "Benu",
            "opening_hours": "08:00-20:00",
            "ref": "83650000000"
          },
          "geometry": {
            "type": "Point",
            "coordinates": [
              16.0642894,
              48.8373617
            ]
          }
        },
        {
          "type": "Feature",
          "properties": {
            "id": "6303160362",
            "osm_type": "node",
            "lat": 48.8520475,
            "lon": 16.0563218,
            "amenity": "pharmacy",
            "contact:email": "unadrazi@volny.cz",
            "contact:phone": "+420 515 294 740",
            "healthcare": "pharmacy",
            "name": "U Nádraží",
            "opening_hours": "Mo-Fr 07:30-17:00",
            "phone": "+420 515 294 740",
            "ref": "83647000000"
          },
          "geometry": {
            "type": "Point",
            "coordinates": [
              16.0563218,
              48.8520475
            ]
          }
        },
        {
          "type": "Feature",
          "properties": {
            "id": "7026720130",
            "osm_type": "node",
            "lat": 48.8541792,
            "lon": 16.0686175,
            "amenity": "pharmacy",
            "brand": "Dr. Max",
            "brand:wikidata": "Q56317371",
            "contact:email": "znojmo.dobsicka@drmax.cz",
            "contact:phone": "+420 703 848 211",
            "contact:website": "https://lekarny.drmax.cz/lekarny/znojmo-dobsicka-3929-4/",
            "healthcare": "pharmacy",
            "name": "Dr. Max",
            "opening_hours": "Mo-Su 08:00-20:00",
            "ref": "200273442"
          },
          "geometry": {
            "type": "Point",
            "coordinates": [
              16.0686175,
              48.8541792
            ]
          }
        },
        {
          "type": "Feature",
          "properties": {
            "id": "7100866873",
            "osm_type": "node",
            "lat": 48.8375201,
            "lon": 16.1594296,
            "amenity": "pharmacy",
            "contact:email": "lekarna-hodonice@hytych.cz",
            "contact:phone": "+420 515 294 585",
            "contact:website": "http://www.hytych.cz",
            "healthcare": "pharmacy",
            "opening_hours": "Mo,We 07:00-16:30; Tu,Th 07:00-15:00; Fr 07:00-14:30",
            "ref": "83648000000"
          },
          "geometry": {
            "type": "Point",
            "coordinates": [
              16.1594296,
              48.8375201
            ]
          }
        },
        {
          "type": "Feature",
          "properties": {
            "id": "7100866875",
            "osm_type": "node",
            "lat": 48.7642515,
            "lon": 16.0640073,
            "amenity": "pharmacy",
            "contact:phone": "+420 420 515 206",
            "healthcare": "pharmacy",
            "name": "U Sv. Zdislavy",
            "opening_hours": "Mo-Su 09:00-21:00",
            "ref:SUKL": "83623000001"
          },
          "geometry": {
            "type": "Point",
            "coordinates": [
              16.0640073,
              48.7642515
            ]
          }
        },
        {
          "type": "Feature",
          "properties": {
            "id": "7100866876",
            "osm_type": "node",
            "lat": 48.8407622,
            "lon": 16.0658446,
            "amenity": "pharmacy",
            "contact:email": "info@lekarnaznojmo.cz",
            "contact:phone": "+420 515 227 711",
            "contact:website": "http://www.lekarnaznojmo.cz",
            "healthcare": "pharmacy",
            "name": "Na Holandské",
            "opening_hours": "Mo-Fr 07:30-18:00; Sa 08:00-12:00",
            "ref": "83636000001"
          },
          "geometry": {
            "type": "Point",
            "coordinates": [
              16.0658446,
              48.8407622
            ]
          }
        },
        {
          "type": "Feature",
          "properties": {
            "id": "7100866877",
            "osm_type": "node",
            "lat": 48.8460274,
            "lon": 16.0661772,
            "amenity": "pharmacy",
            "contact:email": "anna@usvatehoducha.cz",
            "contact:phone": "+420 515 223 616",
            "name": "U svaté Anny",
            "opening_hours": "Mo-Sa 09:00-20:30; Su 09:00-20:00",
            "ref": "83633000000"
          },
          "geometry": {
            "type": "Point",
            "coordinates": [
              16.0661772,
              48.8460274
            ]
          }
        },
        {
          "type": "Feature",
          "properties": {
            "id": "7100866878",
            "osm_type": "node",
            "lat": 48.8459497,
            "lon": 16.0593402,
            "amenity": "pharmacy",
            "brand": "Dr. Max",
            "brand:wikidata": "Q56317371",
            "contact:email": "znojmo.videnska@drmax.cz",
            "contact:phone": "+420 515 230 516",
            "contact:website": "https://www.drmax.cz/lekarny/znojmo-videnska-trida-684-69",
            "healthcare": "pharmacy",
            "name": "Dr. Max",
            "opening_hours": "08:00-20:00",
            "ref": "83646000000"
          },
          "geometry": {
            "type": "Point",
            "coordinates": [
              16.0593402,
              48.8459497
            ]
          }
        },
        {
          "type": "Feature",
          "properties": {
            "id": "7100866880",
            "osm_type": "node",
            "lat": 48.8591092,
            "lon": 16.047912,
            "amenity": "pharmacy",
            "brand": "Alphega lékárna",
            "check_date:opening_hours": "2024-08-10",
            "contact:email": "sindelarova@usvatehoducha.cz",
            "contact:phone": "+420 515 224 175",
            "contact:website": "http://usvatehoducha.cz",
            "healthcare": "pharmacy",
            "name": "Lékárna U svatého Ducha",
            "opening_hours": "Mo-Fr 07:00-18:00; Sa 08:00-11:00",
            "operator": "Lékárna u Svatého Ducha s.r.o.",
            "ref": "83611000000",
            "ref:vatin": "CZ60719290",
            "wheelchair": "limited"
          },
          "geometry": {
            "type": "Point",
            "coordinates": [
              16.047912,
              48.8591092
            ]
          }
        },
        {
          "type": "Feature",
          "properties": {
            "id": "7100866881",
            "osm_type": "node",
            "lat": 48.8595719,
            "lon": 16.0561669,
            "amenity": "pharmacy",
            "brand": "Dr. Max",
            "brand:wikidata": "Q56317371",
            "brand:wikipedia": "fr:Dr.Max",
            "contact:email": "lek548@drmax.cz",
            "contact:phone": "+420 542 213 980",
            "contact:website": "https://www.drmax.cz/lekarny/znojmo-kucharovicka-3611-11",
            "healthcare": "pharmacy",
            "name": "Dr. Max",
            "opening_hours": "Mo-Fr 07:30-17:00",
            "ref": "83649000000"
          },
          "geometry": {
            "type": "Point",
            "coordinates": [
              16.0561669,
              48.8595719
            ]
          }
        },
        {
          "type": "Feature",
          "properties": {
            "id": "11388383940",
            "osm_type": "node",
            "lat": 48.9969572,
            "lon": 15.3577857,
            "amenity": "pharmacy",
            "contact:email": "salkova@volny.cz",
            "contact:phone": "+420 384 493 140",
            "healthcare": "pharmacy",
            "opening_hours": "Mo-Fr 07:30-15:00; Tu,Th 07:30-17:00",
            "ref:SUKL": "34607000000"
          },
          "geometry": {
            "type": "Point",
            "coordinates": [
              15.3577857,
              48.9969572
            ]
          }
        },
        {
          "type": "Feature",
          "properties": {
            "id": "5015370564",
            "osm_type": "node",
            "lat": 48.8943002,
            "lon": 15.8124388,
            "amenity": "pharmacy",
            "contact:email": "vranov@usvatehoducha.cz",
            "contact:phone": "+420 513 033 053",
            "healthcare": "pharmacy",
            "name": "Zámecká lékárna",
            "ref:SUKL": "83642000000"
          },
          "geometry": {
            "type": "Point",
            "coordinates": [
              15.8124388,
              48.8943002
            ]
          }
        },
        {
          "type": "Feature",
          "properties": {
            "id": "7100866882",
            "osm_type": "node",
            "lat": 48.8774204,
            "lon": 16.0386745,
            "amenity": "pharmacy",
            "contact:email": "lekarnik@volny.cz",
            "contact:phone": "+420 515 228 355",
            "contact:website": "https://www.kezdravi.cz/",
            "name": "Přímětická",
            "opening_hours": "Mo-Fr 08:00-12:00,12:00-16:00",
            "ref": "83627000000"
          },
          "geometry": {
            "type": "Point",
            "coordinates": [
              16.0386745,
              48.8774204
            ]
          }
        },
        {
          "type": "Feature",
          "properties": {
            "id": "10780225610",
            "osm_type": "node",
            "lat": 48.9820238,
            "lon": 16.150133,
            "amenity": "pharmacy",
            "name": "naše lékárna",
            "opening_hours": "Mo 08:00-16:00; We 12:00-18:00; Th 08:00-14:30; Fr 08:00-14:00"
          },
          "geometry": {
            "type": "Point",
            "coordinates": [
              16.150133,
              48.9820238
            ]
          }
        }
      ],
      "children": []
    },
    {
      "bbox": {
        "south": 48.68652475,
        "west": 16.2068765,
        "north": 49.017078,
        "east": 17.16058
      },
      "poiCount": 71,
      "leafCount": 0,
      "averagePosition": [
        16.87643469295775,
        48.86438233521127
      ],
      "data": [],
      "children": [
        {
          "bbox": {
            "south": 48.68652475,
            "west": 16.2068765,
            "north": 48.851801374999994,
            "east": 16.68372825
          },
          "poiCount": 9,
          "leafCount": 9,
          "averagePosition": [
            16.472671655555555,
            48.798735533333335
          ],
          "data": [
            {
              "type": "Feature",
              "properties": {
                "id": "3023167639",
                "osm_type": "node",
                "lat": 48.7203376,
                "lon": 16.3853858,
                "addr:city": "Laa an der Thaya",
                "addr:country": "AT",
                "addr:housenumber": "4",
                "addr:postcode": "2136",
                "addr:street": "Stadtplatz",
                "amenity": "pharmacy",
                "dispensing": "yes",
                "healthcare": "pharmacy",
                "name": "Zum Hl. Josef",
                "opening_hours": "Mo-Fr 07:30-12:00, 14:00-17:30; Sa 08:00-12:00; PH off",
                "phone": "+43 2522 2436",
                "wheelchair": "limited"
              },
              "geometry": {
                "type": "Point",
                "coordinates": [
                  16.3853858,
                  48.7203376
                ]
              }
            },
            {
              "type": "Feature",
              "properties": {
                "id": "7100866872",
                "osm_type": "node",
                "lat": 48.8344495,
                "lon": 16.2892887,
                "amenity": "pharmacy",
                "contact:email": "lekarna-bozice@hytych.cz",
                "contact:phone": "+420 515 257 609",
                "name": "U sv. Tadeáše",
                "opening_hours": "Mo,We 07:00-15:00; Tu,Th 07:00-16:30; Fr 07:00-14:30",
                "ref": "74819000000"
              },
              "geometry": {
                "type": "Point",
                "coordinates": [
                  16.2892887,
                  48.8344495
                ]
              }
            },
            {
              "type": "Feature",
              "properties": {
                "id": "7100866874",
                "osm_type": "node",
                "lat": 48.7573881,
                "lon": 16.2342303,
                "amenity": "pharmacy",
                "contact:email": "alzbetaznojmo@seznam.cz",
                "contact:phone": "+420 721 468 812",
                "description": "výdejna léků",
                "healthcare": "pharmacy",
                "opening_hours": "Tu 07:30-12:30; Th 13:30-16:30",
                "ref": "83638000001"
              },
              "geometry": {
                "type": "Point",
                "coordinates": [
                  16.2342303,
                  48.7573881
                ]
              }
            },
            {
              "type": "Feature",
              "properties": {
                "id": "12810938988",
                "osm_type": "node",
                "lat": 48.8304557,
                "lon": 16.4033563,
                "amenity": "pharmacy",
                "contact:email": "lekarna-hrusovany@hytych.cz",
                "contact:phone": "+420 515 223 849",
                "contact:website": "https://www.hytych.cz/",
                "healthcare": "pharmacy",
                "name": "Nová Lékárna",
                "opening_hours": "Mo-Fr 07:30-17:00; Sa 08:00-12:00",
                "ref:SUKL": "83641000001"
              },
              "geometry": {
                "type": "Point",
                "coordinates": [
                  16.4033563,
                  48.8304557
                ]
              }
            },
            {
              "type": "Feature",
              "properties": {
                "id": "12810938989",
                "osm_type": "node",
                "lat": 48.8286609,
                "lon": 16.3998695,
                "amenity": "pharmacy",
                "contact:email": "hrusovanska-lekarna@hytych.cz",
                "contact:phone": "+420 515 238 285",
                "contact:website": "https://www.lekarnahrusovany.cz/",
                "healthcare": "pharmacy",
                "name": "Hrušovanská lékárna",
                "opening_hours": "Mo-Fr 07:00-15:30",
                "ref:SUKL": "83607000001"
              },
              "geometry": {
                "type": "Point",
                "coordinates": [
                  16.3998695,
                  48.8286609
                ]
              }
            },
            {
              "type": "Feature",
              "properties": {
                "id": "415608721",
                "osm_type": "node",
                "lat": 48.8049768,
                "lon": 16.6373274,
                "addr:conscriptionnumber": "220",
                "addr:country": "CZ",
                "addr:housenumber": "220/2",
                "addr:street": "Svobody",
                "addr:streetnumber": "2",
                "amenity": "pharmacy",
                "healthcare": "pharmacy",
                "name": "Lékárna Dům zdraví",
                "opening_hours": "Mo-Fr 08:00-16:00",
                "source:addr": "mvcr:adresa"
              },
              "geometry": {
                "type": "Point",
                "coordinates": [
                  16.6373274,
                  48.8049768
                ]
              }
            },
            {
              "type": "Feature",
              "properties": {
                "id": "415608845",
                "osm_type": "node",
                "lat": 48.8025169,
                "lon": 16.6336128,
                "addr:city": "Mikulov",
                "addr:conscriptionnumber": "989",
                "addr:country": "CZ",
                "addr:housenumber": "26",
                "addr:postcode": "69201",
                "addr:street": "Piaristů",
                "addr:streetnumber": "26",
                "amenity": "pharmacy",
                "healthcare": "pharmacy",
                "name": "Lékárna Camellia",
                "source:addr": "mvcr:adresa"
              },
              "geometry": {
                "type": "Point",
                "coordinates": [
                  16.6336128,
                  48.8025169
                ]
              }
            },
            {
              "type": "Feature",
              "properties": {
                "id": "415608967",
                "osm_type": "node",
                "lat": 48.8053851,
                "lon": 16.6345717,
                "addr:conscriptionnumber": "306",
                "addr:country": "CZ",
                "addr:housenumber": "306/48",
                "addr:street": "Husova",
                "addr:streetnumber": "48",
                "amenity": "pharmacy",
                "healthcare": "pharmacy",
                "name": "Lékárna U Lva",
                "opening_hours": "Mo-Fr 07:00-17:00; Sa 08:00-12:00",
                "source:addr": "mvcr:adresa"
              },
              "geometry": {
                "type": "Point",
                "coordinates": [
                  16.6345717,
                  48.8053851
                ]
              }
            },
            {
              "type": "Feature",
              "properties": {
                "id": "4404403810",
                "osm_type": "node",
                "lat": 48.8044492,
                "lon": 16.6364024,
                "amenity": "pharmacy",
                "healthcare": "pharmacy",
                "name": "Lékárna Komenského",
                "opening_hours": "Mo-Fr 08:00-16:30"
              },
              "geometry": {
                "type": "Point",
                "coordinates": [
                  16.6364024,
                  48.8044492
                ]
              }
            }
          ],
          "children": []
        },
        {
          "bbox": {
            "south": 48.68652475,
            "west": 16.68372825,
            "north": 48.851801374999994,
            "east": 17.16058
          },
          "poiCount": 27,
          "leafCount": 27,
          "averagePosition": [
            16.96967704814815,
            48.77977371481481
          ],
          "data": [
            {
              "type": "Feature",
              "properties": {
                "id": "512253237",
                "osm_type": "node",
                "lat": 48.7550482,
                "lon": 16.8916833,
                "amenity": "pharmacy",
                "contact:email": "lekarnaunadrazi@seznam.cz",
                "contact:phone": "+420 519 370 293",
                "healthcare": "pharmacy",
                "name": "U Nádraží",
                "opening_hours": "Mo-Fr 07:30-17:00",
                "ref:SUKL": "00202732284",
                "wheelchair": "yes"
              },
              "geometry": {
                "type": "Point",
                "coordinates": [
                  16.8916833,
                  48.7550482
                ]
              }
            },
            {
              "type": "Feature",
              "properties": {
                "id": "1217866318",
                "osm_type": "node",
                "lat": 48.8279547,
                "lon": 16.8475895,
                "addr:conscriptionnumber": "269",
                "addr:country": "CZ",
                "addr:housenumber": "269/26",
                "addr:street": "Komenského",
                "addr:streetnumber": "26",
                "amenity": "pharmacy",
                "name": "Lékárna Podivín",
                "source:addr": "mvcr:adresa",
                "source:loc": "cuzk:km"
              },
              "geometry": {
                "type": "Point",
                "coordinates": [
                  16.8475895,
                  48.8279547
                ]
              }
            },
            {
              "type": "Feature",
              "properties": {
                "id": "2254704165",
                "osm_type": "node",
                "lat": 48.8017076,
                "lon": 17.0154762,
                "addr:city": "Moravská Nová Ves",
                "addr:housenumber": "790",
                "addr:postcode": "69155",
                "addr:street": "náměstí Republiky",
                "amenity": "pharmacy",
                "contact:email": "labogroupcz@gmail.com",
                "contact:phone": "+420 519 342 391",
                "drive_through": "no",
                "healthcare": "pharmacy",
                "name": "U kostela sv. Jakuba",
                "opening_hours": "Mo,We,Th 08:00-16:00",
                "ref:SUKL": "00208308595"
              },
              "geometry": {
                "type": "Point",
                "coordinates": [
                  17.0154762,
                  48.8017076
                ]
              }
            },
            {
              "type": "Feature",
              "properties": {
                "id": "2261286046",
                "osm_type": "node",
                "lat": 48.752993,
                "lon": 16.8807674,
                "amenity": "pharmacy",
                "contact:email": "lekarna@nembv.cz",
                "contact:phone": "+420 519 315 590",
                "contact:website": "http://www.nembv.cz/oddeleni-zdravotni-pece-lekarna",
                "dispensing": "yes",
                "healthcare": "pharmacy",
                "name": "Nemocniční",
                "opening_hours": "Mo-Fr 07:30-16:00",
                "ref": "74820000000"
              },
              "geometry": {
                "type": "Point",
                "coordinates": [
                  16.8807674,
                  48.752993
                ]
              }
            },
            {
              "type": "Feature",
              "properties": {
                "id": "2466567118",
                "osm_type": "node",
                "lat": 48.7578587,
                "lon": 16.8545548,
                "amenity": "pharmacy",
                "healthcare": "pharmacy"
              },
              "geometry": {
                "type": "Point",
                "coordinates": [
                  16.8545548,
                  48.7578587
                ]
              }
            },
            {
              "type": "Feature",
              "properties": {
                "id": "3168407050",
                "osm_type": "node",
                "lat": 48.8001974,
                "lon": 16.8028495,
                "amenity": "pharmacy",
                "contact:email": "pilulka.lednice@gmail.com",
                "contact:phone": "+420 519 340 513",
                "contact:website": "https://www.pilulka.cz/",
                "healthcare": "pharmacy",
                "name": "Pilulka",
                "opening_hours": "Mo-Fr 07:30-17:00",
                "ref:SUKL": "00200355525"
              },
              "geometry": {
                "type": "Point",
                "coordinates": [
                  16.8028495,
                  48.8001974
                ]
              }
            },
            {
              "type": "Feature",
              "properties": {
                "id": "3188381687",
                "osm_type": "node",
                "lat": 48.7429766,
                "lon": 16.7567696,
                "addr:city": "Valtice",
                "addr:housenumber": "151",
                "addr:postcode": "69142",
                "addr:street": "Mikulovská",
                "amenity": "pharmacy",
                "branch": "PharmaPoint",
                "healthcare": "pharmacy",
                "name": "Lékárna U Raka",
                "opening_hours": "Mo-Fr 08:00-17:00; Sa 08:00-10:00",
                "operator": "Xita s.r.o.",
                "operator:ref:ico": "01742981",
                "phone": "+420 519 352 509",
                "wheelchair": "yes"
              },
              "geometry": {
                "type": "Point",
                "coordinates": [
                  16.7567696,
                  48.7429766
                ]
              }
            },
            {
              "type": "Feature",
              "properties": {
                "id": "3216524563",
                "osm_type": "node",
                "lat": 48.7581383,
                "lon": 16.8821291,
                "addr:city": "Břeclav",
                "addr:housenumber": "52",
                "addr:postcode": "69002",
                "addr:street": "Fintajslova",
                "amenity": "pharmacy",
                "contact:email": "uherkula@stavovska.cz",
                "contact:phone": "+420 519 324 519",
                "healthcare": "pharmacy",
                "name": "U Herkula",
                "opening_hours": "Mo-Fr 08:00-17:00; Sa 08:00-11:30",
                "ref": "74797000000"
              },
              "geometry": {
                "type": "Point",
                "coordinates": [
                  16.8821291,
                  48.7581383
                ]
              }
            },
            {
              "type": "Feature",
              "properties": {
                "id": "6416586692",
                "osm_type": "node",
                "lat": 48.6894825,
                "lon": 16.874038,
                "amenity": "pharmacy",
                "dispensing": "yes",
                "healthcare": "pharmacy"
              },
              "geometry": {
                "type": "Point",
                "coordinates": [
                  16.874038,
                  48.6894825
                ]
              }
            },
            {
              "type": "Feature",
              "properties": {
                "id": "7100866868",
                "osm_type": "node",
                "lat": 48.7522418,
                "lon": 16.8822339,
                "amenity": "pharmacy",
                "contact:email": "lekarna.poliklinika@quick.cz",
                "contact:phone": "+420 519 321 241",
                "contact:website": "http://www.poliklinika.cz",
                "healthcare": "pharmacy",
                "name": "Na Poliklinice",
                "opening_hours": "Mo-Fr 07:00-18:00; Sa 08:00-20:00; Su 08:00-18:00",
                "ref": "74785000000"
              },
              "geometry": {
                "type": "Point",
                "coordinates": [
                  16.8822339,
                  48.7522418
                ]
              }
            },
            {
              "type": "Feature",
              "properties": {
                "id": "7100866869",
                "osm_type": "node",
                "lat": 48.7575321,
                "lon": 16.8870405,
                "air_conditioning": "yes",
                "amenity": "pharmacy",
                "branch": "Břeclav, J. Palacha",
                "brand": "Dr. Max",
                "brand:wikidata": "Q56317371",
                "brand:wikipedia": "fr:Dr.Max",
                "contact:email": "breclav@drmax.cz",
                "contact:facebook": "https://www.facebook.com/lekarnadrmax",
                "contact:instagram": "https://www.instagram.com/drmaxlekarna",
                "contact:phone": "+420 519 327 361",
                "dispensing": "yes",
                "healthcare": "pharmacy",
                "level": "0",
                "name": "Dr. Max",
                "opening_hours": "Mo-Fr 07:30-18:00; Sa 08:00-12:00",
                "ref": "74821000000",
                "stroller": "yes",
                "website": "https://www.drmax.cz/lekarny/breclav-jana-palacha-3152",
                "wheelchair": "yes"
              },
              "geometry": {
                "type": "Point",
                "coordinates": [
                  16.8870405,
                  48.7575321
                ]
              }
            },
            {
              "type": "Feature",
              "properties": {
                "id": "7100866870",
                "osm_type": "node",
                "lat": 48.7561198,
                "lon": 16.8895175,
                "amenity": "pharmacy",
                "branch": "Břeclav, J. Palacha",
                "brand": "Benu",
                "brand:wikidata": "Q62562792",
                "contact:email": "breclav.ocbreclove@benu.cz",
                "contact:phone": "+420 731 638 186",
                "contact:website": "https://www.benu.cz/lekarna-benu-breclav-oc-breclove",
                "healthcare": "pharmacy",
                "name": "Benu",
                "opening_hours": "Mo-Fr 07:30-19:00; Sa 08:00-13:00",
                "ref": "74827000000"
              },
              "geometry": {
                "type": "Point",
                "coordinates": [
                  16.8895175,
                  48.7561198
                ]
              }
            },
            {
              "type": "Feature",
              "properties": {
                "id": "8543856716",
                "osm_type": "node",
                "lat": 48.6915827,
                "lon": 17.0172121,
                "amenity": "pharmacy",
                "email": "lekaren.brodske@gmail.com",
                "healthcare": "pharmacy",
                "name": "Zdravie",
                "opening_hours": "Mo-Fr 08:00-12:00,13:00-15:00",
                "phone": "+421 34 6591 1057",
                "website": "https://pluslekaren.sk/"
              },
              "geometry": {
                "type": "Point",
                "coordinates": [
                  17.0172121,
                  48.6915827
                ]
              }
            },
            {
              "type": "Feature",
              "properties": {
                "id": "10235551713",
                "osm_type": "node",
                "lat": 48.8509059,
                "lon": 16.8904075,
                "amenity": "pharmacy",
                "healthcare": "pharmacy",
                "name": "Lékarna Velké Bílovice"
              },
              "geometry": {
                "type": "Point",
                "coordinates": [
                  16.8904075,
                  48.8509059
                ]
              }
            },
            {
              "type": "Feature",
              "properties": {
                "id": "10860319439",
                "osm_type": "node",
                "lat": 48.7798346,
                "lon": 16.9019613,
                "amenity": "pharmacy",
                "branch": "Břeclav, Lidická, Tesco",
                "brand": "Benu",
                "brand:wikidata": "Q62562792",
                "healthcare": "pharmacy",
                "name": "Benu",
                "wheelchair": "yes"
              },
              "geometry": {
                "type": "Point",
                "coordinates": [
                  16.9019613,
                  48.7798346
                ]
              }
            },
            {
              "type": "Feature",
              "properties": {
                "id": "12170568656",
                "osm_type": "node",
                "lat": 48.7814502,
                "lon": 16.9037332,
                "amenity": "pharmacy",
                "brand": "Dr. Max",
                "brand:wikidata": "Q56317371",
                "check_date": "2024-09-11",
                "healthcare": "pharmacy",
                "level": "0",
                "name": "Dr. Max",
                "opening_hours": "08:00-19:00",
                "payment:cash": "yes",
                "payment:maestro": "yes",
                "payment:mastercard": "yes",
                "payment:visa": "yes",
                "wheelchair": "yes"
              },
              "geometry": {
                "type": "Point",
                "coordinates": [
                  16.9037332,
                  48.7814502
                ]
              }
            },
            {
              "type": "Feature",
              "properties": {
                "id": "12810938971",
                "osm_type": "node",
                "lat": 48.7602981,
                "lon": 16.9925062,
                "amenity": "pharmacy",
                "contact:email": "info@lekarnatvrdonice.cz",
                "contact:phone": "+420 603 580 960",
                "contact:website": "https://www.lekarna-tvrdonice.cz/",
                "healthcare": "pharmacy",
                "name": "Lékárna Tvrdonice",
                "opening_hours": "Mo-Fr 08:30-16:00; Tu,Th 08:30-13:00",
                "ref:SUKL": "74830000000"
              },
              "geometry": {
                "type": "Point",
                "coordinates": [
                  16.9925062,
                  48.7602981
                ]
              }
            },
            {
              "type": "Feature",
              "properties": {
                "id": "12810938981",
                "osm_type": "node",
                "lat": 48.725581,
                "lon": 16.9696974,
                "amenity": "pharmacy",
                "contact:email": "lekarna.lanzhot@email.cz",
                "contact:phone": "+420 519 336 874",
                "healthcare": "pharmacy",
                "opening_hours": "Mo-Fr 07:30-15:30; Th 07:30-16:30",
                "ref:SUKL": "74774000000"
              },
              "geometry": {
                "type": "Point",
                "coordinates": [
                  16.9696974,
                  48.725581
                ]
              }
            },
            {
              "type": "Feature",
              "properties": {
                "id": "1695267016",
                "osm_type": "node",
                "lat": 48.8513976,
                "lon": 17.1324025,
                "addr:conscriptionnumber": "4133",
                "addr:country": "CZ",
                "addr:housename": "Dům zdraví",
                "addr:housenumber": "4133/13",
                "addr:place": "Hodonín",
                "addr:postcode": "69501",
                "addr:street": "Horní Valy",
                "addr:streetnumber": "13",
                "amenity": "pharmacy",
                "email": "lekarna@dum-zdravi.cz",
                "healthcare": "pharmacy",
                "name": "Dům Zdraví Hodonín",
                "opening_hours": "Mo-Th 07:00-18:00;Fr 07:00-17:00",
                "phone": "+420 518 325 502",
                "ref": "75640000001",
                "ref:ruian:addr": "26304546",
                "source": "cuzk:km",
                "website": "https://www.dum-zdravi.cz/lekarna/"
              },
              "geometry": {
                "type": "Point",
                "coordinates": [
                  17.1324025,
                  48.8513976
                ]
              }
            },
            {
              "type": "Feature",
              "properties": {
                "id": "2971966199",
                "osm_type": "node",
                "lat": 48.718648,
                "lon": 17.1208803,
                "amenity": "pharmacy",
                "contact:facebook": "https://www.facebook.com/profile.php?id=100069036197540",
                "dispensing": "yes",
                "email": "lecivka@mail.t-com.sk",
                "healthcare": "pharmacy",
                "name": "Léčivka",
                "opening_hours": "Mo-Fr 07:00-17:00; Sa 07:00-12:00",
                "phone": "+421 948 799 756",
                "website": "https://www.vasalekaren.sk/"
              },
              "geometry": {
                "type": "Point",
                "coordinates": [
                  17.1208803,
                  48.718648
                ]
              }
            },
            {
              "type": "Feature",
              "properties": {
                "id": "2971966202",
                "osm_type": "node",
                "lat": 48.718529,
                "lon": 17.1206932,
                "amenity": "pharmacy",
                "dispensing": "yes",
                "email": "lekaren.veronika@stonline.sk",
                "healthcare": "pharmacy",
                "name": "Veronika",
                "opening_hours": "Mo-Fr 07:00-16:30; Sa 07:30-11:00",
                "phone": "+421 346 621 326",
                "website": "http://www.lekarengbely.sk/"
              },
              "geometry": {
                "type": "Point",
                "coordinates": [
                  17.1206932,
                  48.718529
                ]
              }
            },
            {
              "type": "Feature",
              "properties": {
                "id": "7704546420",
                "osm_type": "node",
                "lat": 48.8490156,
                "lon": 17.0938575,
                "amenity": "pharmacy",
                "email": "info@gigalekarna.cz",
                "healthcare": "pharmacy",
                "name": "GigaLékárna",
                "opening_hours": "Mo-Fr 13:00-14:00",
                "phone": "+420 511 116 771",
                "ref": "75640000004",
                "website": "https://www.gigalekarna.cz/"
              },
              "geometry": {
                "type": "Point",
                "coordinates": [
                  17.0938575,
                  48.8490156
                ]
              }
            },
            {
              "type": "Feature",
              "properties": {
                "id": "7704546434",
                "osm_type": "node",
                "lat": 48.8507469,
                "lon": 17.1300799,
                "amenity": "pharmacy",
                "email": "melova.alena@iol.cz",
                "healthcare": "pharmacy",
                "opening_hours": "Mo-Fr 07:30-18:00; Sa 08:00-12:00",
                "phone": "+420 518 351 003",
                "ref": "75605000000",
                "website": "http://lekarna-melova.info.gf"
              },
              "geometry": {
                "type": "Point",
                "coordinates": [
                  17.1300799,
                  48.8507469
                ]
              }
            },
            {
              "type": "Feature",
              "properties": {
                "id": "7704546435",
                "osm_type": "node",
                "lat": 48.8513031,
                "lon": 17.1266663,
                "amenity": "pharmacy",
                "check_date:opening_hours": "2025-02-22",
                "contact:email": "lekarnahodonin@lekarnaujakuba.cz",
                "contact:phone": "+420 518 344 413",
                "contact:website": "https://lekarnaujakuba.cz",
                "healthcare": "pharmacy",
                "name": "U Jakuba",
                "opening_hours": "Mo-Fr 08:00-17:00; Sa 08:00-12:00",
                "ref:SUKL": "00200812452",
                "website": "https://lekarnaujakuba.cz/"
              },
              "geometry": {
                "type": "Point",
                "coordinates": [
                  17.1266663,
                  48.8513031
                ]
              }
            },
            {
              "type": "Feature",
              "properties": {
                "id": "11618048299",
                "osm_type": "node",
                "lat": 48.7883909,
                "lon": 17.1194891,
                "amenity": "pharmacy",
                "email": "karamed@karamed.sk",
                "healthcare": "pharmacy",
                "name": "Lekáreň Mária Terézia",
                "opening_hours": "Mo-Fr 08:00-16:00",
                "phone": "+421346681387",
                "website": "https://www.vasalekaren.sk/"
              },
              "geometry": {
                "type": "Point",
                "coordinates": [
                  17.1194891,
                  48.7883909
                ]
              }
            },
            {
              "type": "Feature",
              "properties": {
                "id": "12810938980",
                "osm_type": "node",
                "lat": 48.834242,
                "lon": 17.0682585,
                "amenity": "pharmacy",
                "contact:email": "lekarna.luzice@gmail.com",
                "contact:phone": "+420 518 357 011",
                "healthcare": "pharmacy",
                "name": "Na Podluží",
                "opening_hours": "Mo-Fr 08:00-16:00",
                "ref:SUKL": "75649000000"
              },
              "geometry": {
                "type": "Point",
                "coordinates": [
                  17.0682585,
                  48.834242
                ]
              }
            },
            {
              "type": "Feature",
              "properties": {
                "id": "12810938990",
                "osm_type": "node",
                "lat": 48.849714,
                "lon": 17.128786,
                "amenity": "pharmacy",
                "contact:email": "beno@zdravi3v1.cz",
                "contact:phone": "+420 732 993 990",
                "contact:website": "https://www.zdravi3v1.cz/",
                "healthcare": "pharmacy",
                "name": "Lékárna zdravi3v1.cz, Obchodní dům iRO",
                "opening_hours": "Mo-Fr 07:30-16:00; Sa 08:00-17:30",
                "ref:SUKL": "00202197332"
              },
              "geometry": {
                "type": "Point",
                "coordinates": [
                  17.128786,
                  48.849714
                ]
              }
            }
          ],
          "children": []
        },
        {
          "bbox": {
            "south": 48.851801374999994,
            "west": 16.2068765,
            "north": 49.017078,
            "east": 16.68372825
          },
          "poiCount": 7,
          "leafCount": 7,
          "averagePosition": [
            16.468077114285713,
            48.95110492857143
          ],
          "data": [
            {
              "type": "Feature",
              "properties": {
                "id": "5026707243",
                "osm_type": "node",
                "lat": 48.8568319,
                "lon": 16.4862439,
                "amenity": "pharmacy",
                "name": "Lékárna Pod Sloupem"
              },
              "geometry": {
                "type": "Point",
                "coordinates": [
                  16.4862439,
                  48.8568319
                ]
              }
            },
            {
              "type": "Feature",
              "properties": {
                "id": "6740145964",
                "osm_type": "node",
                "lat": 48.9831695,
                "lon": 16.5250951,
                "amenity": "pharmacy",
                "contact:email": "pohorelice2@cyrmex.cz",
                "contact:phone": "+420 533 555 655",
                "contact:website": "https://cyrmex.cz/",
                "name": "Cyrmex II",
                "opening_hours": "Mo-Fr 07:30-16:30",
                "ref:SUKL": "00202918573"
              },
              "geometry": {
                "type": "Point",
                "coordinates": [
                  16.5250951,
                  48.9831695
                ]
              }
            },
            {
              "type": "Feature",
              "properties": {
                "id": "6740145965",
                "osm_type": "node",
                "lat": 48.9815478,
                "lon": 16.5251655,
                "amenity": "pharmacy",
                "contact:email": "pohorelice@cyrmex.cz",
                "contact:phone": "+420 515 553 727",
                "contact:website": "https://www.cyrmex.cz",
                "name": "Cyrmex",
                "opening_hours": "Mo-Fr 07:30-17:00; Sa 07:30-11:00",
                "ref": "73662000000"
              },
              "geometry": {
                "type": "Point",
                "coordinates": [
                  16.5251655,
                  48.9815478
                ]
              }
            },
            {
              "type": "Feature",
              "properties": {
                "id": "12810938975",
                "osm_type": "node",
                "lat": 48.9768792,
                "lon": 16.5017223,
                "amenity": "pharmacy",
                "brand": "Dr. Max",
                "brand:wikidata": "Q56317371",
                "contact:email": "lek662@drmax.cz",
                "contact:phone": "+420 225 574 662",
                "contact:website": "https://www.drmax.cz",
                "healthcare": "pharmacy",
                "name": "Dr. Max",
                "opening_hours": "Mo-Fr 08:00-19:00; Sa 08:00-14:00",
                "ref:SUKL": "00203525232"
              },
              "geometry": {
                "type": "Point",
                "coordinates": [
                  16.5017223,
                  48.9768792
                ]
              }
            },
            {
              "type": "Feature",
              "properties": {
                "id": "12810938978",
                "osm_type": "node",
                "lat": 48.9466122,
                "lon": 16.3164695,
                "amenity": "pharmacy",
                "contact:email": "lekarnaanna@seznam.cz",
                "contact:phone": "+420 517 578 038",
                "healthcare": "pharmacy",
                "name": "Anna",
                "opening_hours": "Mo-Fr 07:30-17:00; Sa 08:00-12:00",
                "ref:SUKL": "00213994138"
              },
              "geometry": {
                "type": "Point",
                "coordinates": [
                  16.3164695,
                  48.9466122
                ]
              }
            },
            {
              "type": "Feature",
              "properties": {
                "id": "12810938979",
                "osm_type": "node",
                "lat": 48.9482936,
                "lon": 16.3128063,
                "amenity": "pharmacy",
                "contact:email": "hbauerova@tiscali.cz",
                "contact:phone": "+420 515 333 600",
                "healthcare": "pharmacy",
                "name": "U Bílého anděla",
                "opening_hours": "Mo 07:30-16:00; Tu,Th,Fr 07:30-15:00; We 07:30-17:30",
                "ref:SUKL": "83624000000"
              },
              "geometry": {
                "type": "Point",
                "coordinates": [
                  16.3128063,
                  48.9482936
                ]
              }
            },
            {
              "type": "Feature",
              "properties": {
                "id": "3733679488",
                "osm_type": "node",
                "lat": 48.9644003,
                "lon": 16.6090372,
                "amenity": "pharmacy",
                "contact:email": "lekarna.vranovice@seznam.cz",
                "contact:phone": "+420 519 322 751",
                "healthcare": "pharmacy",
                "name": "Lékárna Vranovice",
                "opening_hours": "Mo-We 07:30-15:30; Th 07:30-16:30; Fr 07:30-15:00",
                "ref:SUKL": "73652000000"
              },
              "geometry": {
                "type": "Point",
                "coordinates": [
                  16.6090372,
                  48.9644003
                ]
              }
            }
          ],
          "children": []
        },
        {
          "bbox": {
            "south": 48.851801374999994,
            "west": 16.68372825,
            "north": 49.017078,
            "east": 17.16058
          },
          "poiCount": 28,
          "leafCount": 28,
          "averagePosition": [
            17.018392792857146,
            48.94538932857143
          ],
          "data": [
            {
              "type": "Feature",
              "properties": {
                "id": "8383206713",
                "osm_type": "node",
                "lat": 48.8614254,
                "lon": 17.0261302,
                "addr:city": "Dolní Bojanovice",
                "addr:housenumber": "1112",
                "addr:postcode": "69617",
                "addr:street": "Okružní",
                "amenity": "pharmacy",
                "dispensing": "yes",
                "healthcare": "pharmacy",
                "name": "Lékárna Primula",
                "opening_hours": "Mo-Fr 08:00-17:00",
                "operator": "Mgr. Ivana Kantková",
                "phone": "+420 776 193 921"
              },
              "geometry": {
                "type": "Point",
                "coordinates": [
                  17.0261302,
                  48.8614254
                ]
              }
            },
            {
              "type": "Feature",
              "properties": {
                "id": "7704546421",
                "osm_type": "node",
                "lat": 48.8545843,
                "lon": 17.134272,
                "amenity": "pharmacy",
                "email": "lekarna@medicentrum-hodonin.cz",
                "healthcare": "pharmacy",
                "name": "MediCentrum Hodonín",
                "opening_hours": "Mo-Fr 07:00-17:00",
                "phone": "+420 511 110 529",
                "ref": "75640000003",
                "website": "https://www.medicentrum-hodonin.cz/lekarna/"
              },
              "geometry": {
                "type": "Point",
                "coordinates": [
                  17.134272,
                  48.8545843
                ]
              }
            },
            {
              "type": "Feature",
              "properties": {
                "id": "7704546423",
                "osm_type": "node",
                "lat": 48.8623362,
                "lon": 17.1434784,
                "amenity": "pharmacy",
                "email": "lekarna@nemho.cz",
                "name": "Nemocniční lékárna",
                "opening_hours": "Mo-Fr 07:30-12:30, 13:00-14:30",
                "phone": "+420 518 306 119",
                "ref": "75648000000",
                "website": "https://www.nemho.cz/lekarna"
              },
              "geometry": {
                "type": "Point",
                "coordinates": [
                  17.1434784,
                  48.8623362
                ]
              }
            },
            {
              "type": "Feature",
              "properties": {
                "id": "7704546433",
                "osm_type": "node",
                "lat": 48.8573466,
                "lon": 17.1379182,
                "amenity": "pharmacy",
                "brand": "Dr. Max",
                "brand:wikidata": "Q56317371",
                "brand:wikipedia": "fr:Dr.Max",
                "contact:email": "hodonin@drmax.cz",
                "contact:phone": "+420 225 574 020",
                "contact:website": "https://www.drmax.cz/lekarny/hodonin-konecna-4010-4",
                "healthcare": "pharmacy",
                "name": "Dr. Max",
                "opening_hours": "Mo-Su 08:00-20:00",
                "ref:SUKL": "75639000002"
              },
              "geometry": {
                "type": "Point",
                "coordinates": [
                  17.1379182,
                  48.8573466
                ]
              }
            },
            {
              "type": "Feature",
              "properties": {
                "id": "7704546437",
                "osm_type": "node",
                "lat": 48.8530399,
                "lon": 17.1185687,
                "amenity": "pharmacy",
                "brand": "Dr. Max",
                "brand:wikidata": "Q56317371",
                "brand:wikipedia": "fr:Dr.Max",
                "email": "hodonin2@drmax.cz",
                "healthcare": "pharmacy",
                "name": "Dr. Max",
                "opening_hours": "Mo-Su 08:00-20:00",
                "phone": "+420 518 324 050",
                "ref": "75657000000",
                "website": "https://www.drmax.cz/lekarny/hodonin-dvorakova-4115-6"
              },
              "geometry": {
                "type": "Point",
                "coordinates": [
                  17.1185687,
                  48.8530399
                ]
              }
            },
            {
              "type": "Feature",
              "properties": {
                "id": "7704546462",
                "osm_type": "node",
                "lat": 48.8555078,
                "lon": 17.1249738,
                "amenity": "pharmacy",
                "contact:email": "polhodonin@stavovska.cz",
                "contact:phone": "+420 518 346 511",
                "contact:website": "https://stavovska.cz/",
                "healthcare": "pharmacy",
                "name": "Na staré poliklinice",
                "opening_hours": "Mo-Th 07:00-16:30; Fr 07:00-15:00",
                "ref:SUKL": "00202917991"
              },
              "geometry": {
                "type": "Point",
                "coordinates": [
                  17.1249738,
                  48.8555078
                ]
              }
            },
            {
              "type": "Feature",
              "properties": {
                "id": "12531802549",
                "osm_type": "node",
                "lat": 48.8520076,
                "lon": 17.1163384,
                "air_conditioning": "yes",
                "amenity": "pharmacy",
                "branch": "Hodonín, Albert",
                "brand": "Dr. Max",
                "brand:wikidata": "Q56317371",
                "contact:facebook": "https://www.facebook.com/lekarnadrmax/",
                "contact:instagram": "https://www.instagram.com/drmaxlekarna/",
                "dispensing": "yes",
                "healthcare": "pharmacy",
                "level": "0",
                "name": "Dr. Max",
                "opening_hours": "Mo-Fr 08:00-20:00; Sa 08:00-14:00",
                "phone": "+420 225 574 689",
                "stroller": "yes",
                "website": "https://www.drmax.cz/",
                "wheelchair": "yes"
              },
              "geometry": {
                "type": "Point",
                "coordinates": [
                  17.1163384,
                  48.8520076
                ]
              }
            },
            {
              "type": "Feature",
              "properties": {
                "id": "467468930",
                "osm_type": "node",
                "lat": 48.9432739,
                "lon": 16.7330113,
                "amenity": "pharmacy",
                "check_date:opening_hours": "2021-06-30",
                "contact:email": "lekarna-tadeas@hytych.cz",
                "contact:phone": "+420 519 411 294",
                "contact:website": "http://www.hytych.cz",
                "name": "U sv. Tadeáše",
                "opening_hours": "Mo-Fr 07:00-18:00; Sa 08:00-12:00",
                "ref": "74798000000"
              },
              "geometry": {
                "type": "Point",
                "coordinates": [
                  16.7330113,
                  48.9432739
                ]
              }
            },
            {
              "type": "Feature",
              "properties": {
                "id": "467468932",
                "osm_type": "node",
                "lat": 48.942822,
                "lon": 16.7336035,
                "amenity": "pharmacy",
                "brand": "Dr. Max",
                "brand:wikidata": "Q56317371",
                "brand:wikipedia": "fr:Dr.Max",
                "check_date:opening_hours": "2021-06-30",
                "contact:email": "hustopece.brnenska@drmax.cz",
                "contact:phone": "+420 225 574 567",
                "contact:website": "https://www.drmax.cz",
                "healthcare": "pharmacy",
                "name": "Dr. Max",
                "opening_hours": "Mo-Fr 07:00-18:00; Sa 07:30-11:00",
                "ref:SUKL": "200138257"
              },
              "geometry": {
                "type": "Point",
                "coordinates": [
                  16.7336035,
                  48.942822
                ]
              }
            },
            {
              "type": "Feature",
              "properties": {
                "id": "1192913120",
                "osm_type": "node",
                "lat": 48.9038963,
                "lon": 16.8143388,
                "addr:city": "Velké Pavlovice",
                "addr:conscriptionnumber": "790",
                "addr:country": "CZ",
                "addr:housenumber": "790/42",
                "addr:postcode": "69106",
                "addr:street": "Náměstí 9. Května",
                "addr:streetnumber": "42",
                "amenity": "pharmacy",
                "name": "Lékárna U Alexandra",
                "opening_hours": "Mo-Fr 07:30-11:30,12:00-16:00",
                "source:addr": "mvcr:adresa",
                "source:loc": "cuzk:km",
                "wheelchair": "limited"
              },
              "geometry": {
                "type": "Point",
                "coordinates": [
                  16.8143388,
                  48.9038963
                ]
              }
            },
            {
              "type": "Feature",
              "properties": {
                "id": "2306205192",
                "osm_type": "node",
                "lat": 48.9053534,
                "lon": 17.0229402,
                "amenity": "pharmacy",
                "name": "Lékárna",
                "source": "local knowledge"
              },
              "geometry": {
                "type": "Point",
                "coordinates": [
                  17.0229402,
                  48.9053534
                ]
              }
            },
            {
              "type": "Feature",
              "properties": {
                "id": "6883039941",
                "osm_type": "node",
                "lat": 48.9404965,
                "lon": 16.7379284,
                "amenity": "pharmacy",
                "contact:email": "lekarna-namesti@hytych.cz",
                "contact:phone": "+420 519 411 360",
                "contact:website": "http://www.hytych.cz",
                "name": "Na náměstí",
                "opening_hours": "Mo-Fr 07:00-17:00; Sa 08:00-12:00",
                "ref": "74686000000"
              },
              "geometry": {
                "type": "Point",
                "coordinates": [
                  16.7379284,
                  48.9404965
                ]
              }
            },
            {
              "type": "Feature",
              "properties": {
                "id": "8059457881",
                "osm_type": "node",
                "lat": 49.015731,
                "lon": 16.7760751,
                "amenity": "pharmacy",
                "name": "u sv. Mikuláše",
                "opening_hours": "Mo-Fr 08:00-13:30; We 14:30-18:00",
                "wheelchair": "yes"
              },
              "geometry": {
                "type": "Point",
                "coordinates": [
                  16.7760751,
                  49.015731
                ]
              }
            },
            {
              "type": "Feature",
              "properties": {
                "id": "12810938973",
                "osm_type": "node",
                "lat": 48.9496315,
                "lon": 16.7233291,
                "amenity": "pharmacy",
                "brand": "Dr. Max",
                "brand:wikidata": "Q56317371",
                "contact:email": "lek661@drmax.cz",
                "contact:phone": "+420 225 574 661",
                "contact:website": "https://www.drmax.cz/",
                "healthcare": "pharmacy",
                "name": "Dr. Max",
                "opening_hours": "Mo-Su 08:00-20:00",
                "ref:SUKL": "00203596052"
              },
              "geometry": {
                "type": "Point",
                "coordinates": [
                  16.7233291,
                  48.9496315
                ]
              }
            },
            {
              "type": "Feature",
              "properties": {
                "id": "12810938985",
                "osm_type": "node",
                "lat": 48.9959532,
                "lon": 16.8602023,
                "amenity": "pharmacy",
                "contact:email": "klobouky@cyrmex.cz",
                "contact:phone": "+420 519 419 156",
                "contact:website": "https://cyrmex.cz/",
                "healthcare": "pharmacy",
                "name": "Cyrmex",
                "opening_hours": "Mo-Fr 07:30-17:00",
                "ref:SUKL": "74671000000"
              },
              "geometry": {
                "type": "Point",
                "coordinates": [
                  16.8602023,
                  48.9959532
                ]
              }
            },
            {
              "type": "Feature",
              "properties": {
                "id": "12810938992",
                "osm_type": "node",
                "lat": 48.902652,
                "lon": 16.9384228,
                "amenity": "pharmacy",
                "contact:email": "comfortpharmacy@seznam.cz",
                "contact:phone": "+420 606 746 974",
                "healthcare": "pharmacy",
                "name": "Comfort Pharmacy",
                "opening_hours": "Mo-Th 08:00-15:00; Fr 08:00-13:00",
                "ref:SUKL": "00214386689"
              },
              "geometry": {
                "type": "Point",
                "coordinates": [
                  16.9384228,
                  48.902652
                ]
              }
            },
            {
              "type": "Feature",
              "properties": {
                "id": "1841029048",
                "osm_type": "node",
                "lat": 49.0070876,
                "lon": 17.110358,
                "addr:housename": "Nemocnice Kyjov",
                "addr:housenumber": "965/2",
                "addr:postcode": "69701",
                "addr:street": "Strážovská",
                "amenity": "pharmacy",
                "contact:email": "lekarna.nemocnice2@nemkyj.cz",
                "contact:phone": "+420 518 601 902",
                "contact:website": "https://www.nemkyj.cz/lekarny-pro-verejnost",
                "dispensing": "yes",
                "healthcare": "pharmacy",
                "name": "Lékárna Nemocnice Kyjov II.",
                "opening_hours": "Mo-Fr 07:00-16:00",
                "ref:SUKL": "00201338421"
              },
              "geometry": {
                "type": "Point",
                "coordinates": [
                  17.110358,
                  49.0070876
                ]
              }
            },
            {
              "type": "Feature",
              "properties": {
                "id": "1929499997",
                "osm_type": "node",
                "lat": 49.0102127,
                "lon": 17.1232301,
                "amenity": "pharmacy",
                "contact:email": "lekarna.slavie@seznam.cz",
                "contact:phone": "+420 518 324 299",
                "healthcare": "pharmacy",
                "name": "Slavie",
                "opening_hours": "Mo-Fr 07:00-17:00; Sa 07:30-11:30",
                "payment:maestro": "yes",
                "payment:mastercard": "yes",
                "payment:visa": "yes",
                "payment:visa_debit": "yes",
                "payment:visa_electron": "yes",
                "ref": "75674000000",
                "wheelchair": "yes"
              },
              "geometry": {
                "type": "Point",
                "coordinates": [
                  17.1232301,
                  49.0102127
                ]
              }
            },
            {
              "type": "Feature",
              "properties": {
                "id": "2076221392",
                "osm_type": "node",
                "lat": 48.9159823,
                "lon": 17.1001323,
                "amenity": "pharmacy",
                "contact:email": "info@lekarnadubnany.cz",
                "contact:phone": "+420 518 366 609",
                "contact:website": "https://www.lekarnadubnany.cz/",
                "healthcare": "pharmacy",
                "name": "Lékárna Dubňany",
                "opening_hours": "Mo,We,Fr 07:00-15:30; Tu,Th 07:00-17:00",
                "ref:SUKL": "75621000001",
                "wheelchair": "yes"
              },
              "geometry": {
                "type": "Point",
                "coordinates": [
                  17.1001323,
                  48.9159823
                ]
              }
            },
            {
              "type": "Feature",
              "properties": {
                "id": "2225816657",
                "osm_type": "node",
                "lat": 49.0066033,
                "lon": 17.1250456,
                "addr:housename": "Lékárna Dr. Max",
                "addr:housenumber": "1331",
                "addr:postcode": "69701",
                "addr:street": "Jiráskova",
                "amenity": "pharmacy",
                "brand": "Dr. Max",
                "brand:wikidata": "Q56317371",
                "brand:wikipedia": "fr:Dr.Max",
                "contact:email": "kyjov@drmax.cz",
                "contact:phone": "+420 518 325 718",
                "contact:website": "https://www.drmax.cz/lekarny/kyjov-jiraskova-1331",
                "healthcare": "pharmacy",
                "name": "Dr. Max",
                "opening_hours": "Mo-Fr 07:30-18:00; Sa 08:00-12:00",
                "ref": "75663000000",
                "source": "local knowledge"
              },
              "geometry": {
                "type": "Point",
                "coordinates": [
                  17.1250456,
                  49.0066033
                ]
              }
            },
            {
              "type": "Feature",
              "properties": {
                "id": "6796001982",
                "osm_type": "node",
                "lat": 49.0045726,
                "lon": 17.1096019,
                "amenity": "pharmacy",
                "contact:email": "lekarna.kyjov@seznam.cz",
                "contact:phone": "+420 534 008 844",
                "dispensing": "yes",
                "healthcare": "pharmacy",
                "name": "Novea",
                "opening_hours": "Mo-Sa 09:00-20:00; Su 09:00-18:00",
                "ref": "75672000000"
              },
              "geometry": {
                "type": "Point",
                "coordinates": [
                  17.1096019,
                  49.0045726
                ]
              }
            },
            {
              "type": "Feature",
              "properties": {
                "id": "7099380182",
                "osm_type": "node",
                "lat": 48.972137,
                "lon": 17.0842244,
                "amenity": "pharmacy",
                "contact:email": "lekunem@gmail.com",
                "contact:phone": "+420 518 620 044",
                "name": "U Zlaté koruny",
                "opening_hours": "Mo-Fr 07:30-12:00,12:30-15:00",
                "ref": "200265695"
              },
              "geometry": {
                "type": "Point",
                "coordinates": [
                  17.0842244,
                  48.972137
                ]
              }
            },
            {
              "type": "Feature",
              "properties": {
                "id": "7099380183",
                "osm_type": "node",
                "lat": 49.014845,
                "lon": 17.125236,
                "amenity": "pharmacy",
                "contact:email": "lekarnakyjov@seznam.cz",
                "contact:phone": "+420 518 614 524",
                "contact:website": "http://www.prvni-lekarna.cz",
                "name": "1. lékárenská Kyjov",
                "opening_hours": "Mo 07:00-15:30; Tu-Th 07:00-16:30; Fr 07:00-15:00",
                "ref": "75642000000"
              },
              "geometry": {
                "type": "Point",
                "coordinates": [
                  17.125236,
                  49.014845
                ]
              }
            },
            {
              "type": "Feature",
              "properties": {
                "id": "7099380184",
                "osm_type": "node",
                "lat": 49.0103672,
                "lon": 17.1266864,
                "amenity": "pharmacy",
                "contact:email": "lekarnakyjov@lekarnaujakuba.cz",
                "contact:phone": "+420 515 556 320",
                "contact:website": "https://lekarnaujakuba.cz",
                "healthcare": "pharmacy",
                "name": "U Jakuba",
                "opening_hours": "Mo-Fr 08:00-16:00",
                "ref:SUKL": "00200812491"
              },
              "geometry": {
                "type": "Point",
                "coordinates": [
                  17.1266864,
                  49.0103672
                ]
              }
            },
            {
              "type": "Feature",
              "properties": {
                "id": "7099382629",
                "osm_type": "node",
                "lat": 49.0096156,
                "lon": 17.1240404,
                "amenity": "pharmacy",
                "contact:email": "leknanam@email.cz",
                "contact:phone": "+420 518 612 160",
                "contact:website": "http://www.swisspharma-lekarna.cz",
                "healthcare": "pharmacy",
                "name": "U Zlaté koruny",
                "opening_hours": "Mo-Fr 07:00-17:00; Sa 07:30-11:30",
                "ref": "75638000002"
              },
              "geometry": {
                "type": "Point",
                "coordinates": [
                  17.1240404,
                  49.0096156
                ]
              }
            },
            {
              "type": "Feature",
              "properties": {
                "id": "7099382630",
                "osm_type": "node",
                "lat": 49.0047247,
                "lon": 17.10848,
                "amenity": "pharmacy",
                "brand": "Benu",
                "brand:wikidata": "Q62562792",
                "contact:email": "kyjov.ockaufland@benu.cz",
                "contact:phone": "+420 731 638 162",
                "contact:website": "https://www.benu.cz/lekarna-benu-kyjov-oc-kaufland",
                "healthcare": "pharmacy",
                "name": "Benu",
                "opening_hours": "08:00-20:00",
                "ref": "75676000000"
              },
              "geometry": {
                "type": "Point",
                "coordinates": [
                  17.10848,
                  49.0047247
                ]
              }
            },
            {
              "type": "Feature",
              "properties": {
                "id": "7099382631",
                "osm_type": "node",
                "lat": 49.0089182,
                "lon": 17.1138426,
                "amenity": "pharmacy",
                "contact:email": "lekarna.nemocnice@nemkyj.cz",
                "contact:phone": "+420 518 601 073",
                "contact:website": "http://www.nemkyj.cz/lekarny-pro-verejnost",
                "name": "Lékárna Nemocnice Kyjov I.",
                "opening_hours": "Mo-Fr 07:00-16:00",
                "ref": "75671000000"
              },
              "geometry": {
                "type": "Point",
                "coordinates": [
                  17.1138426,
                  49.0089182
                ]
              }
            },
            {
              "type": "Feature",
              "properties": {
                "id": "12810938982",
                "osm_type": "node",
                "lat": 49.0097774,
                "lon": 17.1225893,
                "amenity": "pharmacy",
                "brand": "Dr. Max",
                "brand:wikidata": "Q56317371",
                "contact:email": "kyjov.masarykovonam@drmax.cz",
                "contact:phone": "+420 225 574 625",
                "contact:website": "https://www.drmax.cz/",
                "healthcare": "pharmacy",
                "name": "Dr. Max",
                "opening_hours": "Mo-Fr 07:00-17:00; Sa 07:30-11:30",
                "ref:SUKL": "00201095586"
              },
              "geometry": {
                "type": "Point",
                "coordinates": [
                  17.1225893,
                  49.0097774
                ]
              }
            }
          ],
          "children": []
        }
      ]
    }
  ]
}