{
  "bbox": {
    "south": 47.033758500000005,
    "west": 9.530952,
    "north": 47.694865,
    "east": 11.438358999999998
  },
  "poiCount": 1,
  "leafCount": 1,
  "averagePosition": [
    11.3927685,
    47.2654296
  ],
  "data": [
    {
      "type": "Feature",
      "properties": {
        "id": "34840064",
        "osm_type": "node",
        "lat": 47.2654296,
        "lon": 11.3927685,
        "alt_name:cs": "Inomostí",
        "capital": "4",
        "ele": "574",
        "name": "Innsbruck",
        "name:ar": "إنسبروك",
        "name:az": "İnsbruk",
        "name:bar": "Innschbrugg",
        "name:be": "Інсбрук",
        "name:be-tarask": "Інсбрук",
        "name:bg": "Инсбрук",
        "name:bn": "ইন্সব্রুক",
        "name:cs": "Innsbruck",
        "name:cv": "Инсбрук",
        "name:de": "Innsbruck",
        "name:el": "Ίνσμπρουκ",
        "name:en": "Innsbruck",
        "name:fa": "اینسبروک",
        "name:fr": "Innsbruck",
        "name:he": "אינסברוק",
        "name:hu": "Innsbruck",
        "name:it": "Innsbruck",
        "name:ja": "インスブルック",
        "name:ka": "ინსბრუკი",
        "name:kk": "Инсбрук",
        "name:ko": "인스브루크",
        "name:la": "Pons Aeni",
        "name:lld": "Dispruch",
        "name:lt": "Insbrukas",
        "name:lv": "Insbruka",
        "name:mk": "Инсбрук",
        "name:ml": "ഇൻസ്ബ്രൂക്ക്",
        "name:mr": "इन्सब्रुक",
        "name:os": "Инсбрук",
        "name:rm": "Puntina",
        "name:ru": "Инсбрук",
        "name:sr": "Инзбрук",
        "name:th": "อินส์บรุค",
        "name:tr": "İnnsbruck",
        "name:uk": "Інсбрук",
        "name:zh": "因斯布鲁克",
        "name:zh-Hant": "因斯布魯克",
        "old_name:hr": "Inomost;Inšpruk",
        "old_name:it": "Ponte sull'Eno",
        "old_name:sl": "Inomost;Inšpruk",
        "place": "city",
        "population": "130585",
        "population:date": "2022",
        "website": "http://www.innsbruck.at/",
        "wikidata": "Q1735",
        "wikipedia": "de:Innsbruck"
      },
      "geometry": {
        "type": "Point",
        "coordinates": [
          11.3927685,
          47.2654296
        ]
      }
    }
  ],
  "children": []
}