{
  "bbox": {
    "south": 48.355971499999995,
    "west": 13.345766,
    "north": 49.017078,
    "east": 15.253173
  },
  "poiCount": 1,
  "leafCount": 1,
  "averagePosition": [
    14.474285,
    48.9747357
  ],
  "data": [
    {
      "type": "Feature",
      "properties": {
        "id": "1599120629",
        "osm_type": "node",
        "lat": 48.9747357,
        "lon": 14.474285,
        "alt_name:de": "Böhmisch Budweis",
        "capital": "4",
        "ele": "381",
        "name": "České Budějovice",
        "name:ar": "تشيسكي بوديوفيتسه",
        "name:ba": "Ческе-Будеёвице",
        "name:be": "Чэске-Будзеёвіцы",
        "name:bg": "Ческе Будейовице",
        "name:bn": "চেস্কে বুদেজোভিসে",
        "name:ce": "Ческе-Будеёвице",
        "name:cs": "České Budějovice",
        "name:de": "Budweis",
        "name:el": "Τσέσκε Μπουντεγιόβιτσε",
        "name:en": "České Budějovice",
        "name:es": "České Budějovice",
        "name:fa": "چسکه بودیوویتسه",
        "name:fr": "České Budějovice",
        "name:he": "צ'סקה בודייוביצה",
        "name:hr": "České Budějovice",
        "name:hu": "České Budějovice",
        "name:hy": "Չեսկե Բուդեյովիցե",
        "name:ja": "チェスケー・ブジェヨヴィツェ",
        "name:ka": "ჩესკე-ბუდეიოვიცე",
        "name:kk": "Ческе-Будеёвице",
        "name:ko": "체스케부데요비체",
        "name:la": "Budovicium",
        "name:lt": "Česke Budejovicai",
        "name:lv": "Česke Budejovice",
        "name:mk": "Ческе Будјејовице",
        "name:os": "Ческе-Будеёвице",
        "name:pl": "Czeskie Budziejowice",
        "name:ru": "Ческе-Будеёвице",
        "name:sk": "České Budějovice",
        "name:sl": "Češke Budejovice",
        "name:sr": "Чешке Будјејовице",
        "name:tg": "Ческе-Будейовитсе",
        "name:th": "แช็สแกบูแยโยวิตแซ",
        "name:tt": "Ческе-Будеёвице",
        "name:uk": "Чеські Будейовиці",
        "name:ur": "چسکے بودییوویتسے",
        "name:uz": "Cheskebudeyovitse",
        "name:zh": "捷克布杰约维采",
        "place": "city",
        "population": "93426",
        "postal_code": "37001",
        "short_name": "Č. Budějovice",
        "source": "csu:uir-zsj",
        "website": "https://www.c-budejovice.cz/",
        "wikidata": "Q16506",
        "wikipedia": "cs:České Budějovice"
      },
      "geometry": {
        "type": "Point",
        "coordinates": [
          14.474285,
          48.9747357
        ]
      }
    }
  ],
  "children": []
}