{
  "bbox": {
    "south": 46.372652,
    "west": 9.530952,
    "north": 47.033758500000005,
    "east": 11.438358999999998
  },
  "poiCount": 1,
  "leafCount": 1,
  "averagePosition": [
    11.3547399,
    46.4984781
  ],
  "data": [
    {
      "type": "Feature",
      "properties": {
        "id": "64776486",
        "osm_type": "node",
        "lat": 46.4984781,
        "lon": 11.3547399,
        "alt_name:eo": "Boceno",
        "alt_name:hr": "Bocen",
        "alt_name:lld": "Balsan",
        "alt_name:rm": "Bulsan",
        "alt_name:sr": "Боцен",
        "capital": "6",
        "ele": "262",
        "name": "Bolzano - Bozen",
        "name:az": "Boltsano",
        "name:bar": "Boazn",
        "name:ca": "Bozen",
        "name:cim": "Poatzan",
        "name:de": "Bozen",
        "name:el": "Μπολτσάνο",
        "name:eo": "Bolcano",
        "name:es": "Bolzano",
        "name:fr": "Bolzano",
        "name:fur": "Bolzan",
        "name:hr": "Bolzano",
        "name:it": "Bolzano",
        "name:ja": "ボルツァーノ",
        "name:ko": "볼차노",
        "name:la": "Bauzanum",
        "name:lb": "Bozen",
        "name:lld": "Bulsan",
        "name:lmo": "Bulsan",
        "name:lt": "Bolcāno",
        "name:mhn": "Poazn",
        "name:ml": "ബോൾസാനോ",
        "name:nl": "Bozen",
        "name:pms": "Bolsan",
        "name:pt": "Bolzano",
        "name:rm": "Bulsaun",
        "name:ru": "Больцано",
        "name:sc": "Bolzanu",
        "name:scn": "Buzzanu",
        "name:sl": "Bolzano",
        "name:sr": "Болцано",
        "name:uk": "Больцано",
        "name:vec": "Bolxan",
        "name:zh": "博尔扎诺",
        "place": "city",
        "population": "105713",
        "wikidata": "Q6526",
        "wikipedia": "it:Bolzano"
      },
      "geometry": {
        "type": "Point",
        "coordinates": [
          11.3547399,
          46.4984781
        ]
      }
    }
  ],
  "children": []
}