{
  "bbox": {
    "south": 48.355971499999995,
    "west": 9.530952,
    "north": 49.017078,
    "east": 11.438358999999998
  },
  "poiCount": 3,
  "leafCount": 3,
  "averagePosition": [
    10.771412500000002,
    48.51018246666666
  ],
  "data": [
    {
      "type": "Feature",
      "properties": {
        "id": "1559853166",
        "osm_type": "node",
        "lat": 48.3690341,
        "lon": 10.8979522,
        "name": "Augsburg",
        "name:als": "Augschburg",
        "name:ar": "أوغسبورغ",
        "name:bar": "Augschburg",
        "name:br": "Augsburg",
        "name:cs": "Augšpurk",
        "name:de": "Augsburg",
        "name:el": "Άουγκσμπουργκ",
        "name:en": "Augsburg",
        "name:es": "Augsburgo",
        "name:eu": "Augsburg",
        "name:fa": "اوگسبورگ",
        "name:fr": "Augsbourg",
        "name:hy": "Աուգսբուրգ",
        "name:it": "Augusta",
        "name:ja": "アウクスブルク",
        "name:ka": "აუგსბურგი",
        "name:la": "Augusta Vindelicorum",
        "name:lv": "Augsburga",
        "name:ml": "ഓഗ്സ്ബർഗ്",
        "name:ru": "Аугсбург",
        "name:sr": "Аугзбург",
        "name:th": "เอาก์สบูร์ก",
        "name:tr": "Augsburg",
        "name:uk": "Аугсбург",
        "name:zh": "奥格斯堡",
        "name:zh-Hant": "奧格斯堡",
        "old_name:hu": "Ágosta",
        "place": "city",
        "population": "301033",
        "ref:LOCODE": "DEAGB",
        "website": "https://www.augsburg.de/",
        "wikidata": "Q2749",
        "wikipedia": "de:Augsburg"
      },
      "geometry": {
        "type": "Point",
        "coordinates": [
          10.8979522,
          48.3690341
        ]
      }
    },
    {
      "type": "Feature",
      "properties": {
        "id": "1699831958",
        "osm_type": "node",
        "lat": 48.3984968,
        "lon": 9.9912458,
        "name": "Ulm",
        "name:ar": "أولم",
        "name:de": "Ulm",
        "name:dsb": "Ulm",
        "name:el": "Ουλμ",
        "name:en": "Ulm",
        "name:fr": "Ulm",
        "name:hy": "Ուլմ",
        "name:it": "Ulmo",
        "name:ja": "ウルム",
        "name:ka": "ულმი",
        "name:ko": "울름",
        "name:la": "Ulma",
        "name:ml": "ഉൽമ്",
        "name:ru": "Ульм",
        "name:sr": "Улм",
        "name:uk": "Ульм",
        "name:zh": "乌尔姆",
        "name:zh-Hant": "烏爾姆",
        "place": "city",
        "population": "121648",
        "ref:LOCODE": "DEULM",
        "website": "http://www.ulm.de/ulm/",
        "wikidata": "Q3012",
        "wikimedia_commons": "Category:Ulm",
        "wikipedia": "de:Ulm"
      },
      "geometry": {
        "type": "Point",
        "coordinates": [
          9.9912458,
          48.3984968
        ]
      }
    },
    {
      "type": "Feature",
      "properties": {
        "id": "2110382406",
        "osm_type": "node",
        "lat": 48.7630165,
        "lon": 11.4250395,
        "de:amtlicher_gemeindeschluessel": "09161000",
        "ele": "374",
        "name": "Ingolstadt",
        "name:ar": "إنغولشتات",
        "name:bar": "Inglstood",
        "name:de": "Ingolstadt",
        "name:el": "Ίνγκολστατ",
        "name:he": "אינגולשטאט",
        "name:hu": "Ingolstadt",
        "name:ja": "インゴルシュタット",
        "name:ko": "잉골슈타트",
        "name:la": "Ingolstadium",
        "name:ml": "ഇങ്കോൾസ്റ്റാറ്റ്",
        "name:ru": "Ингольштадт",
        "name:sr": "Инголштат",
        "name:uk": "Інгольштадт",
        "place": "city",
        "population": "127886",
        "ref:LOCODE": "DEING",
        "website": "https://www.ingolstadt.de/",
        "wikidata": "Q3004",
        "wikipedia": "de:Ingolstadt"
      },
      "geometry": {
        "type": "Point",
        "coordinates": [
          11.4250395,
          48.7630165
        ]
      }
    }
  ],
  "children": []
}