{
  "bbox": {
    "south": 47.694865,
    "west": 15.253173,
    "north": 48.355971499999995,
    "east": 17.16058
  },
  "poiCount": 2,
  "leafCount": 2,
  "averagePosition": [
    16.74090525,
    48.18002625
  ],
  "data": [
    {
      "type": "Feature",
      "properties": {
        "id": "17328659",
        "osm_type": "node",
        "lat": 48.2083537,
        "lon": 16.3725042,
        "ISO3166-1:alpha2": "AT",
        "admin_level": "2",
        "alt_name:gl": "Wien",
        "alt_name:ml": "വീൻ",
        "capital": "yes",
        "capital_ISO3166-1": "yes",
        "description": "Wien ist die Hauptstadt der Republik Österreich und zugleich eines der neun österreichischen Bundesländer.",
        "ele": "542",
        "name": "Wien",
        "name:ab": "Вена",
        "name:ace": "Wina",
        "name:af": "Wene",
        "name:am": "ቪየና",
        "name:an": "Viena",
        "name:ar": "فيينا",
        "name:arc": "ܒܝܝܢܐ",
        "name:arz": "فيينا",
        "name:as": "ভিয়েনা",
        "name:ast": "Viena",
        "name:av": "Вена",
        "name:az": "Vyana",
        "name:ba": "Beč",
        "name:bar": "Wean",
        "name:bat-smg": "Viena",
        "name:be": "Вена",
        "name:be-tarask": "Вена",
        "name:bg": "Виена",
        "name:bi": "Vienna",
        "name:bm": "Vienna",
        "name:bn": "ভিয়েনা",
        "name:bo": "ཝི་ཨེ་ན།",
        "name:br": "Vienna",
        "name:bs": "Beč",
        "name:ca": "Viena",
        "name:ce": "Вена",
        "name:ceb": "Vienna",
        "name:ch": "Vienna",
        "name:ckb": "ڤیێنا",
        "name:co": "Vienna",
        "name:crh": "Viyana",
        "name:cs": "Vídeň",
        "name:cu": "Вѥнъ",
        "name:cv": "Вена",
        "name:cy": "Fienna",
        "name:de": "Wien",
        "name:diq": "Wiyana",
        "name:ee": "Vienna",
        "name:el": "Βιέννη",
        "name:en": "Vienna",
        "name:eo": "Vieno",
        "name:es": "Viena",
        "name:et": "Viin",
        "name:eu": "Viena",
        "name:ext": "Viena",
        "name:fa": "وین",
        "name:ff": "Vienna",
        "name:fi": "Wien",
        "name:fr": "Vienne",
        "name:frp": "Vièna",
        "name:fur": "Viene",
        "name:fy": "Wenen",
        "name:ga": "Vín",
        "name:gag": "Vena",
        "name:gd": "Vienna",
        "name:gl": "Viena",
        "name:gn": "Viéna",
        "name:gv": "Veen",
        "name:ha": "Vienna",
        "name:he": "וינה",
        "name:hi": "वियना",
        "name:hif": "Vienna",
        "name:hr": "Beč",
        "name:ht": "Vyèn",
        "name:hu": "Bécs",
        "name:hy": "Վիեննա",
        "name:ia": "Vienna",
        "name:id": "Wina",
        "name:ie": "Vienna",
        "name:ilo": "Vienna",
        "name:is": "Vín",
        "name:it": "Vienna",
        "name:ja": "ウィーン",
        "name:jv": "Wina",
        "name:ka": "ვენა",
        "name:kab": "Wien",
        "name:ki": "Vienna",
        "name:kk": "Вена",
        "name:kn": "ವಿಯೆನ್ನ",
        "name:ko": "빈",
        "name:koi": "Вин",
        "name:krc": "Вена",
        "name:ku": "Viyana",
        "name:kv": "Вена",
        "name:ky": "Вена",
        "name:la": "Vindobona",
        "name:lez": "Вена",
        "name:li": "Wene",
        "name:lij": "Vienna",
        "name:lmo": "Viena",
        "name:ln": "Viɛnɛ",
        "name:lt": "Viena",
        "name:lv": "Vīne",
        "name:mg": "Vienna",
        "name:mhr": "Вена",
        "name:mi": "Whiena",
        "name:mk": "Виена",
        "name:ml": "വിയന്ന",
        "name:mn": "Вена",
        "name:mr": "व्हियेना",
        "name:mrj": "Вена",
        "name:ms": "Vienna",
        "name:mt": "Vjenna",
        "name:my": "ဗီယင်နာမြို့",
        "name:mzn": "وین",
        "name:nah": "Viena",
        "name:nds": "Wien",
        "name:nds-nl": "Wienen",
        "name:ne": "भिएना",
        "name:nl": "Wenen",
        "name:no": "Wien",
        "name:nv": "Tsinyiʼ Tóhí",
        "name:ny": "Vienna",
        "name:oc": "Viena",
        "name:or": "ଭିଏନା",
        "name:os": "Венæ",
        "name:pa": "ਵਿਆਨਾ",
        "name:pap": "Viena",
        "name:pih": "Wienna",
        "name:pl": "Wiedeń",
        "name:pms": "Vien-a",
        "name:pnb": "ویآنا",
        "name:ps": "وين",
        "name:pt": "Viena",
        "name:rm": "Vienna",
        "name:rmy": "Bech",
        "name:ro": "Viena",
        "name:roa-tara": "Vienne",
        "name:ru": "Вена",
        "name:rue": "Відень",
        "name:sah": "Вена",
        "name:sc": "Vienna",
        "name:scn": "Vienna",
        "name:sco": "Vienna",
        "name:sd": "ويانا",
        "name:sh": "Beč",
        "name:sk": "Viedeň",
        "name:sl": "Dunaj",
        "name:sn": "Vienna",
        "name:so": "Fiyena",
        "name:sq": "Vjena",
        "name:sr": "Беч",
        "name:st": "Vienna",
        "name:sv": "Wien",
        "name:sw": "Vienna",
        "name:szl": "Wiedziyń",
        "name:ta": "வியன்னா",
        "name:te": "వియన్నా",
        "name:tg": "Вена",
        "name:th": "เวียนนา",
        "name:tk": "Wena",
        "name:tl": "Vienna",
        "name:tr": "Viyana",
        "name:tt": "Вена шәһәре",
        "name:tw": "Vienna",
        "name:tzl": "Viadna",
        "name:udm": "Вена",
        "name:ug": "Wyéna",
        "name:uk": "Відень",
        "name:ur": "ویانا",
        "name:uz": "Vena",
        "name:vec": "Viena",
        "name:vep": "Ven",
        "name:vi": "Viên",
        "name:vro": "Viin",
        "name:wa": "Wîne",
        "name:war": "Vienna",
        "name:wo": "Wiyen",
        "name:wuu": "维恩纳",
        "name:xh": "EVienna",
        "name:yi": "וויען",
        "name:yo": "Vienna",
        "name:yue": "維也納",
        "name:yue-Latn": "Wai4 Jaa5 Naap6",
        "name:zh": "維也納",
        "name:zh-Hans": "维也纳",
        "name:zh-Hant": "維也納",
        "name:zh-Latn": "Wéiyěnà",
        "place": "city",
        "population": "1920949",
        "population:date": "2021-01-01",
        "source:population": "wikipedia",
        "website": "https://www.wien.gv.at/",
        "wikidata": "Q1741",
        "wikipedia": "de:Wien"
      },
      "geometry": {
        "type": "Point",
        "coordinates": [
          16.3725042,
          48.2083537
        ]
      }
    },
    {
      "type": "Feature",
      "properties": {
        "id": "530544342",
        "osm_type": "node",
        "lat": 48.1516988,
        "lon": 17.1093063,
        "admin_level": "2",
        "alt_name:de": "Bratislava",
        "capital": "yes",
        "capital_ISO3166-1": "yes",
        "city_id": "582000",
        "contact:facebook": "Bratislava.sk",
        "contact:instagram": "bratislava.sk",
        "contact:website": "https://bratislava.sk",
        "int_name": "Bratislava",
        "name": "Bratislava",
        "name:am": "ብራቲስላቫ",
        "name:ar": "براتيسلافا",
        "name:arc": "ܒܪܛܝܣܠܐܒܐ",
        "name:av": "Братислава",
        "name:azb": "براتیسلاوا",
        "name:ba": "Братислава",
        "name:bar": "Pressburg",
        "name:be": "Браціслава",
        "name:be-tarask": "Браціслава",
        "name:bg": "Братислава",
        "name:bn": "ব্রাতিস্লাভা",
        "name:bo": "བ་ར་ཏིསི་ལ་བ།",
        "name:br": "Bratislava",
        "name:ca": "Bratislava",
        "name:ce": "Братислава",
        "name:ckb": "براتسیلاڤا",
        "name:cs": "Bratislava",
        "name:cu": "Братислава",
        "name:cv": "Братислава",
        "name:de": "Bratislava",
        "name:diq": "Bratislawa",
        "name:el": "Μπρατισλάβα",
        "name:en": "Bratislava",
        "name:eo": "Bratislavo",
        "name:es": "Bratislava",
        "name:fa": "براتیسلاوا",
        "name:fr": "Bratislava",
        "name:ga": "An Bhratasláiv",
        "name:grc": "Ἰστρόπολις",
        "name:he": "ברטיסלאבה",
        "name:hi": "ब्रातिस्लावा",
        "name:hr": "Bratislava",
        "name:hu": "Pozsony",
        "name:hy": "Բրատիսլավա",
        "name:it": "Bratislava",
        "name:ja": "ブラチスラヴァ",
        "name:ka": "ბრატისლავა",
        "name:kk": "Братислава",
        "name:kn": "ಬ್ರಾಟಿಸ್ಲಾವಾ",
        "name:ko": "브라티슬라바",
        "name:koi": "Братислава",
        "name:ku": "Bratîslava",
        "name:kv": "Братислава",
        "name:ky": "Братислава",
        "name:la": "Posonium",
        "name:lt": "Bratislava",
        "name:mk": "Братислава",
        "name:ml": "ബ്രാട്ടിസ്ലാവ",
        "name:mn": "Братислав",
        "name:mr": "ब्रातिस्लाव्हा",
        "name:nds": "Pressburg",
        "name:ne": "ब्रातिस्लाभा",
        "name:nl": "Bratislava",
        "name:no": "Bratislava",
        "name:oc": "Bratislava",
        "name:os": "Братиславæ",
        "name:pa": "ਬ੍ਰਾਤਿਸਲਾਵਾ",
        "name:pl": "Bratysława",
        "name:pnb": "براتسلاوا",
        "name:ps": "براتیسلاوا",
        "name:pt": "Bratislava",
        "name:ro": "Bratislava",
        "name:ru": "Братислава",
        "name:rue": "Братїслава",
        "name:sah": "Братислава",
        "name:sd": "براٽيسلاوا",
        "name:sk": "Bratislava",
        "name:sq": "Bratisllava",
        "name:sr": "Братислава",
        "name:sv": "Bratislava",
        "name:syc": "ܒܪܛܝܣܠܐܒܐ",
        "name:ta": "பிராத்திஸ்லாவா",
        "name:tg": "Братислава",
        "name:th": "บราติสลาวา",
        "name:tr": "Bratislava",
        "name:tt": "Братислава",
        "name:tw": "Bratislawa",
        "name:udm": "Братислава",
        "name:ug": "براتىسلاۋا",
        "name:uk": "Братислава",
        "name:ur": "براٹیسلاوا",
        "name:vep": "Bratislav",
        "name:wo": "Baratislawa",
        "name:yi": "בראטיסלאווא",
        "name:yue": "布拉迪斯拉發",
        "name:zh": "布拉迪斯拉發",
        "name:zh-Hans": "布拉迪斯拉发",
        "name:zh-Hant": "布拉迪斯拉發",
        "old_name:bar": "Preßburg",
        "old_name:cs": "Prešpurk",
        "old_name:de": "Preßburg",
        "old_name:el": "Istropolis",
        "old_name:en": "Pressburg",
        "old_name:es": "Presburgo",
        "old_name:hr": "Požun",
        "old_name:hu": "Pozsony",
        "old_name:la": "Posonium",
        "old_name:nds": "Preßburg",
        "old_name:sk": "Prešporok",
        "place": "city",
        "population": "432801",
        "reg_name:de": "Pressburg",
        "source:name": "http://www.statistics.sk",
        "source:name:br": "ofis publik ar brezhoneg",
        "source:name:oc": "Lo Congrès",
        "wikidata": "Q1780",
        "wikipedia": "sk:Bratislava"
      },
      "geometry": {
        "type": "Point",
        "coordinates": [
          17.1093063,
          48.1516988
        ]
      }
    }
  ],
  "children": []
}