{
  "bbox": {
    "south": 47.694865,
    "west": 9.530952,
    "north": 48.355971499999995,
    "east": 11.438358999999998
  },
  "poiCount": 34,
  "leafCount": 34,
  "averagePosition": [
    10.317242414705882,
    47.959262305882355
  ],
  "data": [
    {
      "type": "Feature",
      "properties": {
        "id": "246997721",
        "osm_type": "node",
        "lat": 47.7782126,
        "lon": 9.6122992,
        "addr:city": "Ravensburg",
        "addr:country": "DE",
        "addr:housenumber": "11",
        "addr:postcode": "88214",
        "addr:street": "Seestraße",
        "amenity": "police",
        "contact:phone": "+49 751 803-3333",
        "name": "Polizeirevier Ravensburg",
        "toilets:wheelchair": "no",
        "wheelchair": "yes",
        "wheelchair:description": "Mittlerweile gibt es eine Rampe am Eingang."
      },
      "geometry": {
        "type": "Point",
        "coordinates": [
          9.6122992,
          47.7782126
        ]
      }
    },
    {
      "type": "Feature",
      "properties": {
        "id": "872522043",
        "osm_type": "node",
        "lat": 47.7692308,
        "lon": 9.8914558,
        "amenity": "police",
        "name": "Autobahnpolizeirevier Kißlegg"
      },
      "geometry": {
        "type": "Point",
        "coordinates": [
          9.8914558,
          47.7692308
        ]
      }
    },
    {
      "type": "Feature",
      "properties": {
        "id": "916619311",
        "osm_type": "node",
        "lat": 47.7765152,
        "lon": 9.7713572,
        "amenity": "police",
        "name": "Polizeiposten Vogt"
      },
      "geometry": {
        "type": "Point",
        "coordinates": [
          9.7713572,
          47.7765152
        ]
      }
    },
    {
      "type": "Feature",
      "properties": {
        "id": "12547073701",
        "osm_type": "node",
        "lat": 47.7779683,
        "lon": 9.6129916,
        "addr:city": "Ravensburg",
        "addr:country": "DE",
        "addr:housenumber": "3",
        "addr:postcode": "88214",
        "addr:street": "Rudolfstraße",
        "amenity": "police",
        "name": "Kriminalkommissariat Ravensburg"
      },
      "geometry": {
        "type": "Point",
        "coordinates": [
          9.6129916,
          47.7779683
        ]
      }
    },
    {
      "type": "Feature",
      "properties": {
        "id": "638623243",
        "osm_type": "node",
        "lat": 47.7111296,
        "lon": 10.3181975,
        "amenity": "police",
        "name": "Bundespolizei",
        "opening_hours": "24/7",
        "operator": "Bundespolizei",
        "operator:short": "BPOL",
        "operator:wikidata": "Q56026",
        "phone": "+49 831 5407980",
        "website": "https://www.bundespolizei.de/",
        "wheelchair": "no"
      },
      "geometry": {
        "type": "Point",
        "coordinates": [
          10.3181975,
          47.7111296
        ]
      }
    },
    {
      "type": "Feature",
      "properties": {
        "id": "639217277",
        "osm_type": "node",
        "lat": 47.7224409,
        "lon": 10.3126727,
        "amenity": "police",
        "description": "Klingel barrierefrei erreichbar, anschließend wird barrierefreier Zugang ermöglicht.",
        "fax": "+49 831/9909-1709",
        "name": "Kriminalpolizeiinspektion Kempten",
        "phone": "+49 831/9909-0",
        "website": "https://www.polizei.bayern.de/schwaben_sw/wir/organisation/dienststellen/index.html/70351",
        "wheelchair": "limited"
      },
      "geometry": {
        "type": "Point",
        "coordinates": [
          10.3126727,
          47.7224409
        ]
      }
    },
    {
      "type": "Feature",
      "properties": {
        "id": "665384294",
        "osm_type": "node",
        "lat": 47.7383079,
        "lon": 10.3116836,
        "addr:city": "Kempten (Allgäu)",
        "addr:country": "DE",
        "addr:housenumber": "17",
        "addr:postcode": "87439",
        "addr:street": "Auf der Breite",
        "amenity": "police",
        "name": "Polizeipräsidium Schwaben Süd/West",
        "phone": "+49 831 99090"
      },
      "geometry": {
        "type": "Point",
        "coordinates": [
          10.3116836,
          47.7383079
        ]
      }
    },
    {
      "type": "Feature",
      "properties": {
        "id": "866710386",
        "osm_type": "node",
        "lat": 47.7311134,
        "lon": 10.3135006,
        "addr:city": "Kempten (Allgäu)",
        "addr:country": "DE",
        "addr:housenumber": "19",
        "addr:postcode": "87439",
        "addr:street": "Rottachstraße",
        "amenity": "police",
        "name": "Verkehrspolizeiinspektion Kempten",
        "wheelchair": "yes"
      },
      "geometry": {
        "type": "Point",
        "coordinates": [
          10.3135006,
          47.7311134
        ]
      }
    },
    {
      "type": "Feature",
      "properties": {
        "id": "876267154",
        "osm_type": "node",
        "lat": 47.7380398,
        "lon": 10.3115163,
        "addr:city": "Kempten (Allgäu)",
        "addr:country": "DE",
        "addr:housenumber": "17",
        "addr:postcode": "87439",
        "addr:street": "Auf der Breite",
        "amenity": "police",
        "name": "Polizeiinspektion Kempten",
        "phone": "+49831 99090",
        "wheelchair": "limited"
      },
      "geometry": {
        "type": "Point",
        "coordinates": [
          10.3115163,
          47.7380398
        ]
      }
    },
    {
      "type": "Feature",
      "properties": {
        "id": "1550749001",
        "osm_type": "node",
        "lat": 47.7285999,
        "lon": 10.3145214,
        "amenity": "police",
        "check_date": "2024-04-08",
        "name": "Polizeiverwaltungsamt"
      },
      "geometry": {
        "type": "Point",
        "coordinates": [
          10.3145214,
          47.7285999
        ]
      }
    },
    {
      "type": "Feature",
      "properties": {
        "id": "862274904",
        "osm_type": "node",
        "lat": 47.7733095,
        "lon": 10.6163314,
        "amenity": "police",
        "check_date": "2024-12-14",
        "name": "Polizei Marktoberdorf",
        "wheelchair": "limited"
      },
      "geometry": {
        "type": "Point",
        "coordinates": [
          10.6163314,
          47.7733095
        ]
      }
    },
    {
      "type": "Feature",
      "properties": {
        "id": "6150181154",
        "osm_type": "node",
        "lat": 47.8166596,
        "lon": 10.8993307,
        "amenity": "police",
        "name": "Polizei Schongau",
        "wheelchair": "limited"
      },
      "geometry": {
        "type": "Point",
        "coordinates": [
          10.8993307,
          47.8166596
        ]
      }
    },
    {
      "type": "Feature",
      "properties": {
        "id": "3324878679",
        "osm_type": "node",
        "lat": 47.7484549,
        "lon": 11.3781472,
        "addr:city": "Penzberg",
        "addr:country": "DE",
        "addr:housenumber": "1",
        "addr:postcode": "82377",
        "addr:street": "Josef-Boos-Platz",
        "amenity": "police",
        "phone": "+49 8856 9257 0",
        "website": "https://www.polizei-penzberg.de/",
        "wheelchair": "yes",
        "wheelchair:description": "Rollstuhlfahrereingang hinten"
      },
      "geometry": {
        "type": "Point",
        "coordinates": [
          11.3781472,
          47.7484549
        ]
      }
    },
    {
      "type": "Feature",
      "properties": {
        "id": "12829258549",
        "osm_type": "node",
        "lat": 47.8392599,
        "lon": 11.1493881,
        "addr:city": "Weilheim in Oberbayern",
        "addr:country": "DE",
        "addr:housenumber": "5",
        "addr:postcode": "82362",
        "addr:street": "Am Meisteranger",
        "amenity": "police",
        "contact:fax": "+49 881 640-215",
        "contact:phone": "+49 881 640-0",
        "contact:website": "https://www.polizei.bayern.de/wir-ueber-uns/organisation/dienststellen/0901713070000.html",
        "name": "Polizeiinspektion",
        "official_name": "Polizeiinspektion Weilheim i.OB"
      },
      "geometry": {
        "type": "Point",
        "coordinates": [
          11.1493881,
          47.8392599
        ]
      }
    },
    {
      "type": "Feature",
      "properties": {
        "id": "320943609",
        "osm_type": "node",
        "lat": 47.9087259,
        "lon": 9.8959112,
        "amenity": "police",
        "name": "Polizeiposten"
      },
      "geometry": {
        "type": "Point",
        "coordinates": [
          9.8959112,
          47.9087259
        ]
      }
    },
    {
      "type": "Feature",
      "properties": {
        "id": "1453977885",
        "osm_type": "node",
        "lat": 47.9199219,
        "lon": 9.755962,
        "addr:city": "Bad Waldsee",
        "addr:country": "DE",
        "addr:housenumber": "10",
        "addr:postcode": "88339",
        "addr:street": "Hauptstraße",
        "amenity": "police",
        "contact:phone": "+49 7524 4043-0",
        "lastcheck": "2017-01-19",
        "wheelchair": "no",
        "wheelchair:description": "Altes Gebäude"
      },
      "geometry": {
        "type": "Point",
        "coordinates": [
          9.755962,
          47.9199219
        ]
      }
    },
    {
      "type": "Feature",
      "properties": {
        "id": "1477222170",
        "osm_type": "node",
        "lat": 48.3520641,
        "lon": 9.9743309,
        "amenity": "police",
        "is_in": "Wiblingen,Ulm,Baden-Württemberg,Bundesrepublik Deutschland,Europe",
        "name": "Polizeiposten Ulm-Wiblingen",
        "opening_hours": "Mo-Fr 07:00-20:00",
        "wheelchair": "yes"
      },
      "geometry": {
        "type": "Point",
        "coordinates": [
          9.9743309,
          48.3520641
        ]
      }
    },
    {
      "type": "Feature",
      "properties": {
        "id": "1637313163",
        "osm_type": "node",
        "lat": 48.3260056,
        "lon": 9.8935283,
        "amenity": "police",
        "check_date": "2024-07-16",
        "name": "Polizistation Erbach",
        "wheelchair": "yes"
      },
      "geometry": {
        "type": "Point",
        "coordinates": [
          9.8935283,
          48.3260056
        ]
      }
    },
    {
      "type": "Feature",
      "properties": {
        "id": "2428165489",
        "osm_type": "node",
        "lat": 47.9354402,
        "lon": 9.538138,
        "addr:housenumber": "7",
        "addr:postcode": "88361",
        "addr:street": "Schloßstraße",
        "amenity": "police",
        "name": "Polizeiposten Altshausen",
        "phone": "+49 7584 92170"
      },
      "geometry": {
        "type": "Point",
        "coordinates": [
          9.538138,
          47.9354402
        ]
      }
    },
    {
      "type": "Feature",
      "properties": {
        "id": "4708484446",
        "osm_type": "node",
        "lat": 48.2365817,
        "lon": 9.6426949,
        "amenity": "police",
        "name": "Polizeiposten Munderkingen"
      },
      "geometry": {
        "type": "Point",
        "coordinates": [
          9.6426949,
          48.2365817
        ]
      }
    },
    {
      "type": "Feature",
      "properties": {
        "id": "323981074",
        "osm_type": "node",
        "lat": 48.142938,
        "lon": 10.2541442,
        "addr:city": "Babenhausen",
        "addr:country": "DE",
        "addr:postcode": "87727",
        "amenity": "police",
        "phone": "+49 8333 2280",
        "wheelchair": "yes"
      },
      "geometry": {
        "type": "Point",
        "coordinates": [
          10.2541442,
          48.142938
        ]
      }
    },
    {
      "type": "Feature",
      "properties": {
        "id": "580707648",
        "osm_type": "node",
        "lat": 48.3242882,
        "lon": 10.0438666,
        "addr:city": "Senden",
        "addr:country": "DE",
        "addr:housenumber": "2",
        "addr:postcode": "89250",
        "addr:street": "Kemptener Straße",
        "amenity": "police",
        "fax": "+49 7307 91000 40",
        "name": "Polizeistation Senden",
        "phone": "+49 7307 91000 0",
        "website": "https://www.polizei.bayern.de/wir-ueber-uns/organisation/dienststellen/0901612090100.html",
        "wheelchair": "no"
      },
      "geometry": {
        "type": "Point",
        "coordinates": [
          10.0438666,
          48.3242882
        ]
      }
    },
    {
      "type": "Feature",
      "properties": {
        "id": "1531493807",
        "osm_type": "node",
        "lat": 48.2254423,
        "lon": 10.1032475,
        "amenity": "police"
      },
      "geometry": {
        "type": "Point",
        "coordinates": [
          10.1032475,
          48.2254423
        ]
      }
    },
    {
      "type": "Feature",
      "properties": {
        "id": "6855852821",
        "osm_type": "node",
        "lat": 47.9792225,
        "lon": 10.1805302,
        "addr:city": "Memmingen",
        "addr:housenumber": "2",
        "addr:postcode": "87700",
        "addr:street": "Am Schanzmeister",
        "amenity": "police",
        "name": "Polizeiinspektion Memmingen",
        "phone": "+49 8331 100 0"
      },
      "geometry": {
        "type": "Point",
        "coordinates": [
          10.1805302,
          47.9792225
        ]
      }
    },
    {
      "type": "Feature",
      "properties": {
        "id": "6855852822",
        "osm_type": "node",
        "lat": 47.979159,
        "lon": 10.1798064,
        "addr:city": "Memmingen",
        "addr:country": "DE",
        "addr:housenumber": "2",
        "addr:postcode": "87700",
        "addr:street": "Am Schanzmeister",
        "amenity": "police",
        "name": "Autobahnpolizeistation Memmingen",
        "phone": "+49 8331 100 0"
      },
      "geometry": {
        "type": "Point",
        "coordinates": [
          10.1798064,
          47.979159
        ]
      }
    },
    {
      "type": "Feature",
      "properties": {
        "id": "7510028879",
        "osm_type": "node",
        "lat": 47.9894683,
        "lon": 10.2302568,
        "amenity": "police",
        "name": "Bundespolizei Memmingen",
        "operator": "Bundespolizei",
        "operator:short": "BPOL",
        "operator:wikidata": "Q56026"
      },
      "geometry": {
        "type": "Point",
        "coordinates": [
          10.2302568,
          47.9894683
        ]
      }
    },
    {
      "type": "Feature",
      "properties": {
        "id": "11184698164",
        "osm_type": "node",
        "lat": 48.2077271,
        "lon": 10.070466,
        "addr:city": "Dietenheim",
        "addr:housenumber": "13",
        "addr:postcode": "89165",
        "addr:street": "Königstraße",
        "amenity": "police",
        "name": "Polizeiposten Dietenheim"
      },
      "geometry": {
        "type": "Point",
        "coordinates": [
          10.070466,
          48.2077271
        ]
      }
    },
    {
      "type": "Feature",
      "properties": {
        "id": "271122193",
        "osm_type": "node",
        "lat": 48.2705284,
        "lon": 10.834251,
        "addr:city": "Bobingen",
        "addr:country": "DE",
        "addr:housenumber": "22",
        "addr:postcode": "86399",
        "addr:street": "Hochstraße",
        "amenity": "police",
        "name": "Polizeistation Bobingen",
        "wheelchair": "yes"
      },
      "geometry": {
        "type": "Point",
        "coordinates": [
          10.834251,
          48.2705284
        ]
      }
    },
    {
      "type": "Feature",
      "properties": {
        "id": "529263582",
        "osm_type": "node",
        "lat": 48.0384238,
        "lon": 10.7292078,
        "addr:city": "Buchloe",
        "addr:housenumber": "7",
        "addr:postcode": "86807",
        "addr:street": "Augsburger Straße",
        "amenity": "police",
        "fax": "+49 8241 9690-40",
        "name": "Polizeiinspektion Buchloe",
        "phone": "+49 8241 9690-0",
        "website": "https://www.polizei.bayern.de/schwaben_sw/wir/organisation/dienststellen/index.html/70348"
      },
      "geometry": {
        "type": "Point",
        "coordinates": [
          10.7292078,
          48.0384238
        ]
      }
    },
    {
      "type": "Feature",
      "properties": {
        "id": "6385130047",
        "osm_type": "node",
        "lat": 47.8784272,
        "lon": 10.6222612,
        "amenity": "police",
        "name": "Polizeiinspektion Kaufbeuren",
        "phone": "+49-8341-933-0",
        "website": "https://www.polizei.bayern.de/schwaben_sw/wir/organisation/dienststellen/index.html/70343",
        "wheelchair": "no"
      },
      "geometry": {
        "type": "Point",
        "coordinates": [
          10.6222612,
          47.8784272
        ]
      }
    },
    {
      "type": "Feature",
      "properties": {
        "id": "8903918643",
        "osm_type": "node",
        "lat": 48.0036479,
        "lon": 10.6081213,
        "amenity": "police",
        "check_date": "2025-08-05",
        "name": "Polizeiinspektion Bad Wörishofen"
      },
      "geometry": {
        "type": "Point",
        "coordinates": [
          10.6081213,
          48.0036479
        ]
      }
    },
    {
      "type": "Feature",
      "properties": {
        "id": "10832885558",
        "osm_type": "node",
        "lat": 48.2699396,
        "lon": 10.8888837,
        "addr:city": "Königsbrunn",
        "addr:housenumber": "3a",
        "addr:postcode": "86343",
        "addr:street": "Marktstraße",
        "amenity": "police",
        "level": "0",
        "name": "Polizeidienstzimmer",
        "opening_hours": "Tu 13:00-16:00; Th 15:00-18:00"
      },
      "geometry": {
        "type": "Point",
        "coordinates": [
          10.8888837,
          48.2699396
        ]
      }
    },
    {
      "type": "Feature",
      "properties": {
        "id": "1439177299",
        "osm_type": "node",
        "lat": 47.9479336,
        "lon": 11.0992877,
        "addr:city": "Dießen am Ammersee",
        "addr:country": "DE",
        "addr:housenumber": "4",
        "addr:postcode": "86911",
        "addr:street": "Hofmark",
        "amenity": "police",
        "name": "Polizei",
        "opening_hours": "24/7",
        "phone": "+49 8807 92110",
        "website": "https://www.polizei.bayern.de/wir/organisation/dienststellen/index.html/84101"
      },
      "geometry": {
        "type": "Point",
        "coordinates": [
          11.0992877,
          47.9479336
        ]
      }
    },
    {
      "type": "Feature",
      "properties": {
        "id": "1765926066",
        "osm_type": "node",
        "lat": 48.0297908,
        "lon": 11.4279531,
        "amenity": "police",
        "name": "Autobahnpolizei Oberdill 1",
        "wheelchair": "no"
      },
      "geometry": {
        "type": "Point",
        "coordinates": [
          11.4279531,
          48.0297908
        ]
      }
    }
  ],
  "children": []
}