{
  "bbox": {
    "south": 46.372652,
    "west": 11.438358999999998,
    "north": 47.033758500000005,
    "east": 13.345766
  },
  "poiCount": 53,
  "leafCount": 0,
  "averagePosition": [
    12.254140162264148,
    46.69268133773585
  ],
  "data": [],
  "children": [
    {
      "bbox": {
        "south": 46.372652,
        "west": 11.438358999999998,
        "north": 46.70320525,
        "east": 12.392062499999998
      },
      "poiCount": 12,
      "leafCount": 12,
      "averagePosition": [
        11.705656374999998,
        46.55178425
      ],
      "data": [
        {
          "type": "Feature",
          "properties": {
            "id": "2214757479",
            "osm_type": "node",
            "lat": 46.5158052,
            "lon": 11.5051385,
            "amenity": "police",
            "name": "Carabinieristation",
            "operator": "Arma dei Carabinieri",
            "operator:short": "Carabinieri",
            "operator:wikidata": "Q54852"
          },
          "geometry": {
            "type": "Point",
            "coordinates": [
              11.5051385,
              46.5158052
            ]
          }
        },
        {
          "type": "Feature",
          "properties": {
            "id": "2286943111",
            "osm_type": "node",
            "lat": 46.4946207,
            "lon": 11.4456113,
            "amenity": "police",
            "operator": "Arma dei Carabinieri",
            "operator:wikidata": "Q54852"
          },
          "geometry": {
            "type": "Point",
            "coordinates": [
              11.4456113,
              46.4946207
            ]
          }
        },
        {
          "type": "Feature",
          "properties": {
            "id": "1312811325",
            "osm_type": "node",
            "lat": 46.6401254,
            "lon": 11.6818097,
            "amenity": "police",
            "name": "Carabinieri",
            "operator": "Arma dei Carabinieri",
            "operator:wikidata": "Q54852"
          },
          "geometry": {
            "type": "Point",
            "coordinates": [
              11.6818097,
              46.6401254
            ]
          }
        },
        {
          "type": "Feature",
          "properties": {
            "id": "2296274670",
            "osm_type": "node",
            "lat": 46.5747001,
            "lon": 11.6644729,
            "amenity": "police",
            "name": "Carabinieri",
            "operator": "Arma dei Carabinieri",
            "operator:wikidata": "Q54852"
          },
          "geometry": {
            "type": "Point",
            "coordinates": [
              11.6644729,
              46.5747001
            ]
          }
        },
        {
          "type": "Feature",
          "properties": {
            "id": "5835920585",
            "osm_type": "node",
            "lat": 46.6074435,
            "lon": 11.566328,
            "addr:housenumber": "34",
            "addr:postcode": "39040",
            "addr:street": "Trojer-Anger",
            "amenity": "police",
            "email": "stbz531940@carabinieri.it",
            "name": "Carabineri",
            "opening_hours": "Mo-Su 09:00-12:00",
            "operator": "Arma dei Carabinieri",
            "operator:wikidata": "Q54852",
            "phone": "+39 0471 655614"
          },
          "geometry": {
            "type": "Point",
            "coordinates": [
              11.566328,
              46.6074435
            ]
          }
        },
        {
          "type": "Feature",
          "properties": {
            "id": "6193416146",
            "osm_type": "node",
            "lat": 46.5899232,
            "lon": 11.9032813,
            "amenity": "police",
            "name": "Carabinieri",
            "operator": "Arma dei Carabinieri",
            "operator:short": "Carabinieri",
            "operator:wikidata": "Q54852"
          },
          "geometry": {
            "type": "Point",
            "coordinates": [
              11.9032813,
              46.5899232
            ]
          }
        },
        {
          "type": "Feature",
          "properties": {
            "id": "6213436965",
            "osm_type": "node",
            "lat": 46.4202483,
            "lon": 11.672629,
            "amenity": "police",
            "name": "Polizia Comun"
          },
          "geometry": {
            "type": "Point",
            "coordinates": [
              11.672629,
              46.4202483
            ]
          }
        },
        {
          "type": "Feature",
          "properties": {
            "id": "10109748778",
            "osm_type": "node",
            "lat": 46.6414863,
            "lon": 11.5682282,
            "addr:city": "Klausen - Chiusa",
            "addr:housenumber": "74",
            "addr:postcode": "39043",
            "addr:street": "Oberstadt - Città Alta",
            "amenity": "police",
            "name": "Ortspolizei Klausen - Polizia Locale di Chiusa",
            "opening_hours": "Mo-Fr 08:00-09:00",
            "operator": "Polizia Locale",
            "operator:wikidata": "Q61634147",
            "phone": "+39 0472858225",
            "website": "https://www.klausen.eu/de/Gemeindepolizei"
          },
          "geometry": {
            "type": "Point",
            "coordinates": [
              11.5682282,
              46.6414863
            ]
          }
        },
        {
          "type": "Feature",
          "properties": {
            "id": "10111794690",
            "osm_type": "node",
            "lat": 46.5681415,
            "lon": 11.5585404,
            "amenity": "police",
            "contact:website": "https://www.comuniecitta.it/carabinieri/comandi-di-castelrotto-21019",
            "name": "Carabinieri",
            "opening_hours": "08:30-12:30, 13:00-15:00",
            "operator": "Arma dei Carabinieri",
            "operator:short": "Carabinieri",
            "operator:wikidata": "Q54852"
          },
          "geometry": {
            "type": "Point",
            "coordinates": [
              11.5585404,
              46.5681415
            ]
          }
        },
        {
          "type": "Feature",
          "properties": {
            "id": "11650023013",
            "osm_type": "node",
            "lat": 46.5680639,
            "lon": 11.5594302,
            "addr:housenumber": "1",
            "addr:place": "Krausenplatz - Piazza Krausen",
            "addr:place:de": "Krausenplatz",
            "addr:place:it": "Piazza Krausen",
            "amenity": "police",
            "contact:phone": "+390471711520",
            "contact:website:de": "https://www.gemeinde.kastelruth.bz.it/de/Verwaltung/Organisation/Aemter/Ortspolizei",
            "contact:website:it": "https://www.gemeinde.kastelruth.bz.it/it/Ufficio_polizia_locale",
            "name": "Gemeindepolizei - Polizia Municipale",
            "name:de": "Gemeindepolizei",
            "name:it": "Polizia Municipale",
            "opening_hours": "Tu,Fr 10:30-12:30",
            "operator": "Polizia Municipale"
          },
          "geometry": {
            "type": "Point",
            "coordinates": [
              11.5594302,
              46.5680639
            ]
          }
        },
        {
          "type": "Feature",
          "properties": {
            "id": "2369271128",
            "osm_type": "node",
            "lat": 46.5393048,
            "lon": 12.1375297,
            "amenity": "police",
            "name": "Polizia Locale",
            "operator": "Polizia Locale"
          },
          "geometry": {
            "type": "Point",
            "coordinates": [
              12.1375297,
              46.5393048
            ]
          }
        },
        {
          "type": "Feature",
          "properties": {
            "id": "3991018554",
            "osm_type": "node",
            "lat": 46.4615481,
            "lon": 12.2048773,
            "amenity": "police",
            "name": "Polizia Locale",
            "operator": "Polizia Locale",
            "operator:wikidata": "Q61634147",
            "operator:wikipedia": "it:Polizia locale (Italia)"
          },
          "geometry": {
            "type": "Point",
            "coordinates": [
              12.2048773,
              46.4615481
            ]
          }
        }
      ],
      "children": []
    },
    {
      "bbox": {
        "south": 46.372652,
        "west": 12.392062499999998,
        "north": 46.70320525,
        "east": 13.345766
      },
      "poiCount": 12,
      "leafCount": 12,
      "averagePosition": [
        12.930554883333334,
        46.51672703333333
      ],
      "data": [
        {
          "type": "Feature",
          "properties": {
            "id": "7824325885",
            "osm_type": "node",
            "lat": 46.4901774,
            "lon": 12.4565568,
            "amenity": "police",
            "name": "Carabinieri",
            "operator:wikidata": "Q54852"
          },
          "geometry": {
            "type": "Point",
            "coordinates": [
              12.4565568,
              46.4901774
            ]
          }
        },
        {
          "type": "Feature",
          "properties": {
            "id": "7824325985",
            "osm_type": "node",
            "lat": 46.4900248,
            "lon": 12.4575338,
            "amenity": "police",
            "name": "Carabinieri Forestali",
            "operator": "Arma dei Carabinieri",
            "operator:short": "Carabinieri",
            "operator:wikidata": "Q54852"
          },
          "geometry": {
            "type": "Point",
            "coordinates": [
              12.4575338,
              46.4900248
            ]
          }
        },
        {
          "type": "Feature",
          "properties": {
            "id": "3731060426",
            "osm_type": "node",
            "lat": 46.407695,
            "lon": 13.011906,
            "amenity": "police",
            "name": "Guardia di Finanza",
            "operator": "Guardia di Finanza",
            "operator:wikidata": "Q1552861"
          },
          "geometry": {
            "type": "Point",
            "coordinates": [
              13.011906,
              46.407695
            ]
          }
        },
        {
          "type": "Feature",
          "properties": {
            "id": "4423440389",
            "osm_type": "node",
            "lat": 46.691767,
            "lon": 12.8182688,
            "addr:city": "Liesing",
            "addr:country": "AT",
            "addr:housenumber": "37",
            "addr:place": "Liesing",
            "addr:postcode": "9653",
            "amenity": "police",
            "at_bev:addr_date": "2017-04-07",
            "contact:email": "pi-k-liesing@polzei.gv.at",
            "contact:fax": "+43 59133 2213-109",
            "contact:phone": "+43 59133 2213-100",
            "name": "Polizeiinspektion Liesing",
            "name:de": "Polizeiinspektion Liesing",
            "opening_hours": "24/7"
          },
          "geometry": {
            "type": "Point",
            "coordinates": [
              12.8182688,
              46.691767
            ]
          }
        },
        {
          "type": "Feature",
          "properties": {
            "id": "5120474868",
            "osm_type": "node",
            "lat": 46.6717878,
            "lon": 13.0003003,
            "addr:city": "Kötschach-Mauthen",
            "addr:country": "AT",
            "addr:housenumber": "390",
            "addr:place": "Kötschach",
            "addr:postcode": "9640",
            "addr:street": "Kötschach",
            "amenity": "police",
            "at_bev:addr_date": "2017-04-07",
            "contact:email": "PI-K-Koetschach-Mauthen@polizei.gv.at",
            "contact:fax": "+43 59133 2212109",
            "contact:phone": "+43 59133 2212100",
            "level": "1",
            "name": "Polizeiinspektion Kötschach-Mauthen"
          },
          "geometry": {
            "type": "Point",
            "coordinates": [
              13.0003003,
              46.6717878
            ]
          }
        },
        {
          "type": "Feature",
          "properties": {
            "id": "9667837968",
            "osm_type": "node",
            "lat": 46.5848013,
            "lon": 12.7791499,
            "amenity": "police",
            "operator": "Arma dei Carabinieri",
            "operator:short": "Carabinieri",
            "operator:wikidata": "Q54852",
            "operator:wikipedia": "it:Arma dei Carabinieri"
          },
          "geometry": {
            "type": "Point",
            "coordinates": [
              12.7791499,
              46.5848013
            ]
          }
        },
        {
          "type": "Feature",
          "properties": {
            "id": "11503931107",
            "osm_type": "node",
            "lat": 46.514323,
            "lon": 12.8661249,
            "amenity": "police",
            "operator": "Carabinieri"
          },
          "geometry": {
            "type": "Point",
            "coordinates": [
              12.8661249,
              46.514323
            ]
          }
        },
        {
          "type": "Feature",
          "properties": {
            "id": "12167834310",
            "osm_type": "node",
            "lat": 46.5659583,
            "lon": 12.6838546,
            "alt_name": "Polizia Municipale",
            "amenity": "police",
            "name": "Polizia Locale",
            "operator": "Polizia Municipale",
            "operator:wikidata": "Q1431981",
            "website": "https://www.poliziamunicipale.it/comune/1927/sappada"
          },
          "geometry": {
            "type": "Point",
            "coordinates": [
              12.6838546,
              46.5659583
            ]
          }
        },
        {
          "type": "Feature",
          "properties": {
            "id": "2088822231",
            "osm_type": "node",
            "lat": 46.4075962,
            "lon": 13.1967924,
            "amenity": "police",
            "name": "Carabinieri",
            "operator": "Arma dei Carabinieri"
          },
          "geometry": {
            "type": "Point",
            "coordinates": [
              13.1967924,
              46.4075962
            ]
          }
        },
        {
          "type": "Feature",
          "properties": {
            "id": "2121668841",
            "osm_type": "node",
            "lat": 46.4081366,
            "lon": 13.3099621,
            "amenity": "police",
            "name": "Carabinieri",
            "operator": "Arma dei Carabinieri"
          },
          "geometry": {
            "type": "Point",
            "coordinates": [
              13.3099621,
              46.4081366
            ]
          }
        },
        {
          "type": "Feature",
          "properties": {
            "id": "3835890509",
            "osm_type": "node",
            "lat": 46.56017,
            "lon": 13.2754547,
            "addr:city": "Hermagor-Pressegger See",
            "addr:country": "AT",
            "addr:housenumber": "2",
            "addr:place": "Sonnenalpe Nassfeld",
            "addr:postcode": "9620",
            "amenity": "police",
            "at_bev:addr_date": "2017-04-07",
            "fax": "+43 59133 2217109",
            "name": "Polizei Expositur Hermagor/Nassfeld",
            "phone": "+43 59133 2217100"
          },
          "geometry": {
            "type": "Point",
            "coordinates": [
              13.2754547,
              46.56017
            ]
          }
        },
        {
          "type": "Feature",
          "properties": {
            "id": "12167834309",
            "osm_type": "node",
            "lat": 46.408287,
            "lon": 13.3107543,
            "alt_name": "Polizia Municipale",
            "amenity": "police",
            "name": "Polizia Locale",
            "operator": "Polizia Municipale",
            "operator:wikidata": "Q1431981",
            "website": "https://www.poliziamunicipale.it/comune/1562/chiusaforte"
          },
          "geometry": {
            "type": "Point",
            "coordinates": [
              13.3107543,
              46.408287
            ]
          }
        }
      ],
      "children": []
    },
    {
      "bbox": {
        "south": 46.70320525,
        "west": 11.438358999999998,
        "north": 47.033758500000005,
        "east": 12.392062499999998
      },
      "poiCount": 20,
      "leafCount": 20,
      "averagePosition": [
        11.892722879999999,
        46.82147497
      ],
      "data": [
        {
          "type": "Feature",
          "properties": {
            "id": "2342255026",
            "osm_type": "node",
            "lat": 46.9352279,
            "lon": 11.4468877,
            "amenity": "police",
            "check_date": "2024-09-20",
            "name": "Carabinieri Gossensaß",
            "operator": "Carabinieri Gossensaß",
            "operator:short": "Carabinieri",
            "operator:wikidata": "Q54852"
          },
          "geometry": {
            "type": "Point",
            "coordinates": [
              11.4468877,
              46.9352279
            ]
          }
        },
        {
          "type": "Feature",
          "properties": {
            "id": "11508699135",
            "osm_type": "node",
            "lat": 47.018851,
            "lon": 11.5069342,
            "amenity": "police",
            "loc_name": "ÖBB Kontrollstelle Brennersee",
            "name": "Bahn Kontrollstelle Brennersee-Seehof"
          },
          "geometry": {
            "type": "Point",
            "coordinates": [
              11.5069342,
              47.018851
            ]
          }
        },
        {
          "type": "Feature",
          "properties": {
            "id": "2173364097",
            "osm_type": "node",
            "lat": 46.9688099,
            "lon": 11.6023525,
            "amenity": "police",
            "name": "Carabinieri",
            "operator": "Arma dei Carabinieri",
            "operator:short": "Carabinieri",
            "operator:wikidata": "Q54852"
          },
          "geometry": {
            "type": "Point",
            "coordinates": [
              11.6023525,
              46.9688099
            ]
          }
        },
        {
          "type": "Feature",
          "properties": {
            "id": "2400546567",
            "osm_type": "node",
            "lat": 46.916937,
            "lon": 11.9619892,
            "amenity": "police",
            "name": "Carabinieri Campo Tures",
            "operator": "Arma dei Carabinieri",
            "operator:short": "Carabinieri",
            "operator:wikidata": "Q54852"
          },
          "geometry": {
            "type": "Point",
            "coordinates": [
              11.9619892,
              46.916937
            ]
          }
        },
        {
          "type": "Feature",
          "properties": {
            "id": "5282286696",
            "osm_type": "node",
            "lat": 46.9957935,
            "lon": 11.9822584,
            "addr:city": "Ahrntal - Valle Aurina",
            "addr:housenumber": "18",
            "addr:postcode": "39030",
            "addr:street": "Klausbergstraße - Via Klausberg",
            "amenity": "police",
            "name": "Carabinieri",
            "operator:wikidata": "Q54852"
          },
          "geometry": {
            "type": "Point",
            "coordinates": [
              11.9822584,
              46.9957935
            ]
          }
        },
        {
          "type": "Feature",
          "properties": {
            "id": "436129118",
            "osm_type": "node",
            "lat": 46.9159641,
            "lon": 12.3313609,
            "addr:city": "St. Jakob in Defereggen",
            "addr:country": "AT",
            "addr:housenumber": "75",
            "addr:place": "Unterrotte",
            "addr:postcode": "9963",
            "amenity": "police",
            "at_bev:addr_date": "2017-04-07",
            "name:signed": "no"
          },
          "geometry": {
            "type": "Point",
            "coordinates": [
              12.3313609,
              46.9159641
            ]
          }
        },
        {
          "type": "Feature",
          "properties": {
            "id": "2749726423",
            "osm_type": "node",
            "lat": 46.8710381,
            "lon": 11.4822641,
            "addr:city": "Freienfeld - Campo di Trens",
            "addr:city:de": "Freienfeld",
            "addr:city:it": "Campo di Trens",
            "addr:hamlet": "Trens",
            "addr:housenumber": "5",
            "addr:postcode": "39040",
            "addr:street": "Bliegerweg - Via Blieger",
            "addr:street:de": "Bliegerweg",
            "addr:street:it": "Via Blieger",
            "amenity": "police",
            "name": "Carabinieri",
            "operator:wikidata": "Q54852"
          },
          "geometry": {
            "type": "Point",
            "coordinates": [
              11.4822641,
              46.8710381
            ]
          }
        },
        {
          "type": "Feature",
          "properties": {
            "id": "493814394",
            "osm_type": "node",
            "lat": 46.7186278,
            "lon": 11.6501302,
            "amenity": "police",
            "name": "Finanzpolizei - Guardia di Finanza",
            "name:de": "Finanzpolizei",
            "name:it": "Guardia di Finanza",
            "operator": "Guardia di Finanza",
            "operator:wikidata": "Q1552861"
          },
          "geometry": {
            "type": "Point",
            "coordinates": [
              11.6501302,
              46.7186278
            ]
          }
        },
        {
          "type": "Feature",
          "properties": {
            "id": "1245552306",
            "osm_type": "node",
            "lat": 46.8072666,
            "lon": 11.8389899,
            "amenity": "police",
            "name": "Carabinieri Kiens - Chienes",
            "name:de": "Karabinieristation Kiens",
            "operator": "Arma dei Carabinieri",
            "operator:wikidata": "Q54852"
          },
          "geometry": {
            "type": "Point",
            "coordinates": [
              11.8389899,
              46.8072666
            ]
          }
        },
        {
          "type": "Feature",
          "properties": {
            "id": "2749637301",
            "osm_type": "node",
            "lat": 46.7147189,
            "lon": 11.6511078,
            "addr:city": "Brixen - Bressanone",
            "addr:city:de": "Brixen",
            "addr:city:it": "Bressanone",
            "addr:housenumber": "5b",
            "addr:postcode": "39042",
            "addr:street": "Carduccistraße - Via G. Carducci",
            "addr:street:de": "Carduccistraße",
            "addr:street:it": "Via G. Carducci",
            "amenity": "police",
            "name": "Ortspolizei - Polizia Locale",
            "name:de": "Ortspolizei",
            "name:it": "Polizia Locale",
            "opening_hours": "Mo-Fr 08:00-12:15, 14:00-17:00",
            "operator": "Polizia Locale",
            "operator:wikidata": "Q61634147",
            "wheelchair": "yes"
          },
          "geometry": {
            "type": "Point",
            "coordinates": [
              11.6511078,
              46.7147189
            ]
          }
        },
        {
          "type": "Feature",
          "properties": {
            "id": "2749652520",
            "osm_type": "node",
            "lat": 46.8035523,
            "lon": 11.9360538,
            "amenity": "police",
            "contact:city": "Bruneck - Brunico",
            "contact:city:de": "Bruneck",
            "contact:city:it": "Brunico",
            "contact:housenumber": "23",
            "contact:postcode": "39031",
            "contact:street": "Peter-Anich-Siedlung - Rione Peter Anich",
            "contact:street:de": "Peter-Anich-Siedlung",
            "contact:street:it": "Rione Peter Anich",
            "name": "Polizia Stradale",
            "name:de": "Stadtpolizei",
            "name:it": "Polizia Stradale",
            "operator": "Polizia di Stato",
            "operator:wikidata": "Q897817"
          },
          "geometry": {
            "type": "Point",
            "coordinates": [
              11.9360538,
              46.8035523
            ]
          }
        },
        {
          "type": "Feature",
          "properties": {
            "id": "2755778690",
            "osm_type": "node",
            "lat": 46.746254,
            "lon": 11.7603722,
            "addr:city": "Lüsen - Luson",
            "addr:city:de": "Lüsen",
            "addr:city:it": "Luson",
            "addr:housenumber": "4",
            "addr:postcode": "39040",
            "addr:street": "Unterdorfer Weg - Vicolo Unterdorf",
            "addr:street:de": "Unterdorfer Weg",
            "addr:street:it": "Vicolo Unterdorf",
            "amenity": "police",
            "name": "Comando Carabinieri Luson",
            "operator": "Corpo Carabinieri",
            "operator:wikidata": "Q54852"
          },
          "geometry": {
            "type": "Point",
            "coordinates": [
              11.7603722,
              46.746254
            ]
          }
        },
        {
          "type": "Feature",
          "properties": {
            "id": "2755894295",
            "osm_type": "node",
            "lat": 46.7687446,
            "lon": 11.6643539,
            "addr:city": "Natz-Schabs - Naz-Sciaves",
            "addr:city:de": "Natz-Schabs",
            "addr:city:it": "Naz-Sciaves",
            "addr:hamlet": "Schabs - Sciaves",
            "addr:hamlet:de": "Schabs",
            "addr:hamlet:it": "Sciaves",
            "addr:housenumber": "1;1/B",
            "addr:postcode": "39040",
            "addr:street": "Peter-Kemenater-Straße - Via Peter Kemenater",
            "addr:street:de": "Peter-Kemenater-Straße",
            "addr:street:it": "Via Peter Kemenater",
            "amenity": "police",
            "name": "Carabinieri Schabs - Carabinieri Sciaves",
            "name:de": "Carabinieri Schabs",
            "name:it": "Carabinieri Sciaves",
            "operator:wikidata": "Q54852"
          },
          "geometry": {
            "type": "Point",
            "coordinates": [
              11.6643539,
              46.7687446
            ]
          }
        },
        {
          "type": "Feature",
          "properties": {
            "id": "7089446987",
            "osm_type": "node",
            "lat": 46.8000861,
            "lon": 11.9425353,
            "amenity": "police",
            "contact:city": "Bruneck - Brunico",
            "contact:housenumber": "11a",
            "contact:postcode": "39031",
            "contact:street": "Alpinistraße - via Alpini",
            "name": "Carabinieri",
            "operator": "Arma dei Carabinieri",
            "operator:short": "Carabinieri",
            "operator:wikidata": "Q54852"
          },
          "geometry": {
            "type": "Point",
            "coordinates": [
              11.9425353,
              46.8000861
            ]
          }
        },
        {
          "type": "Feature",
          "properties": {
            "id": "7678280885",
            "osm_type": "node",
            "lat": 46.7965228,
            "lon": 11.9350415,
            "amenity": "police",
            "check_date": "2023-04-09",
            "level": "0",
            "name": "Ortspolizei Bruneck",
            "name:it": "Polizia Locale di Brunico",
            "phone": "+39 0474 545999"
          },
          "geometry": {
            "type": "Point",
            "coordinates": [
              11.9350415,
              46.7965228
            ]
          }
        },
        {
          "type": "Feature",
          "properties": {
            "id": "2206644248",
            "osm_type": "node",
            "lat": 46.7553965,
            "lon": 12.0408899,
            "amenity": "police",
            "name": "Carabinieri Valdaora",
            "operator": "Arma dei Carabinieri",
            "operator:wikidata": "Q54852"
          },
          "geometry": {
            "type": "Point",
            "coordinates": [
              12.0408899,
              46.7553965
            ]
          }
        },
        {
          "type": "Feature",
          "properties": {
            "id": "2333490747",
            "osm_type": "node",
            "lat": 46.7337536,
            "lon": 12.2765653,
            "amenity": "police",
            "check_date": "2024-11-04",
            "name": "Polizia - Polizei",
            "name:de": "Polizei",
            "name:it": "Polizia",
            "operator": "Polizia di Stato",
            "operator:wikidata": "Q897817",
            "operator:wikipedia": "it:Polizia di Stato"
          },
          "geometry": {
            "type": "Point",
            "coordinates": [
              12.2765653,
              46.7337536
            ]
          }
        },
        {
          "type": "Feature",
          "properties": {
            "id": "11030388261",
            "osm_type": "node",
            "lat": 46.733121,
            "lon": 12.2750457,
            "amenity": "police",
            "check_date": "2023-07-04",
            "name": "Carabinieri",
            "operator": "Arma dei Carabinieri",
            "operator:wikidata": "Q54852"
          },
          "geometry": {
            "type": "Point",
            "coordinates": [
              12.2750457,
              46.733121
            ]
          }
        },
        {
          "type": "Feature",
          "properties": {
            "id": "12060252626",
            "osm_type": "node",
            "lat": 46.7037351,
            "lon": 12.3476938,
            "amenity": "police",
            "name": "Carabinieri Sexten",
            "operator": "Arma dei Carabinieri",
            "operator:short": "Carabinieri",
            "operator:wikidata": "Q54852"
          },
          "geometry": {
            "type": "Point",
            "coordinates": [
              12.3476938,
              46.7037351
            ]
          }
        },
        {
          "type": "Feature",
          "properties": {
            "id": "13002747769",
            "osm_type": "node",
            "lat": 46.7250986,
            "lon": 12.2216313,
            "alt_name:de": "Stationskommando Toblach",
            "alt_name:it": "Comando Stazione Dobbiaco",
            "amenity": "police",
            "contact:city": "Toblach - Dobbiaco",
            "contact:city:de": "Toblach",
            "contact:city:it": "Dobbiaco",
            "contact:email": "stbz531650@carabinieri.it",
            "contact:housenumber": "4",
            "contact:pec": "tbz20250@pec.carabinieri.it",
            "contact:phone": "+39 0474 972123",
            "contact:postcode": "39034",
            "contact:street": "Rienzstraße - Via Rienza",
            "contact:street:de": "Rienzstraße",
            "contact:street:it": "Via Rienza",
            "name": "Carabinieristation Toblach - Stazione Carabinieri Dobbiaco",
            "name:de": "Carabinieristation Toblach",
            "name:it": "Stazione Carabinieri Dobbiaco",
            "operator": "Arma dei Carabinieri",
            "operator:short": "Carabinieri",
            "operator:wikidata": "Q54852",
            "ref": "ESK9QE",
            "ref:aoo": "AEF11DB"
          },
          "geometry": {
            "type": "Point",
            "coordinates": [
              12.2216313,
              46.7250986
            ]
          }
        }
      ],
      "children": []
    },
    {
      "bbox": {
        "south": 46.70320525,
        "west": 12.392062499999998,
        "north": 47.033758500000005,
        "east": 13.345766
      },
      "poiCount": 9,
      "leafCount": 9,
      "averagePosition": [
        12.8867151,
        46.82894178888889
      ],
      "data": [
        {
          "type": "Feature",
          "properties": {
            "id": "4818342078",
            "osm_type": "node",
            "lat": 47.0019241,
            "lon": 12.53907,
            "addr:city": "Matrei in Osttirol",
            "addr:country": "AT",
            "addr:housenumber": "2",
            "addr:postcode": "9971",
            "addr:street": "Gerichtsplatz",
            "amenity": "police",
            "name:de": "Polzeistation Matrei"
          },
          "geometry": {
            "type": "Point",
            "coordinates": [
              12.53907,
              47.0019241
            ]
          }
        },
        {
          "type": "Feature",
          "properties": {
            "id": "2395456048",
            "osm_type": "node",
            "lat": 46.9325327,
            "lon": 13.20001,
            "addr:city": "Obervellach",
            "addr:country": "AT",
            "addr:housenumber": "15",
            "addr:postcode": "9821",
            "addr:street": "Hauptplatz",
            "amenity": "police",
            "email": "PI-K-Obervellach@polizei.gv.at",
            "fax": "+43 59133 2232-109",
            "name": "Polizeiinspektion Obervellach",
            "phone": "+43 59133 2232-100"
          },
          "geometry": {
            "type": "Point",
            "coordinates": [
              13.20001,
              46.9325327
            ]
          }
        },
        {
          "type": "Feature",
          "properties": {
            "id": "670643514",
            "osm_type": "node",
            "lat": 46.7495751,
            "lon": 12.4267547,
            "addr:city": "Sillian",
            "addr:country": "AT",
            "addr:housenumber": "203b",
            "addr:place": "Sillian",
            "addr:postcode": "9920",
            "amenity": "police",
            "at_bev:addr_date": "2017-04-07",
            "name": "Polizeiinspektion Sillian"
          },
          "geometry": {
            "type": "Point",
            "coordinates": [
              12.4267547,
              46.7495751
            ]
          }
        },
        {
          "type": "Feature",
          "properties": {
            "id": "297306197",
            "osm_type": "node",
            "lat": 46.8691785,
            "lon": 12.8758146,
            "addr:city": "Winklern",
            "addr:country": "AT",
            "addr:housenumber": "81",
            "addr:place": "Winklern",
            "addr:postcode": "9841",
            "amenity": "police",
            "at_bev:addr_date": "2017-04-07",
            "check_date": "2024-07-05",
            "email": "PI-K-Winklern@polizei.gv.at",
            "fax": "+43 59133 2241109",
            "name": "Polizeiinspektion Winklern",
            "phone": "+43 59133 2241100"
          },
          "geometry": {
            "type": "Point",
            "coordinates": [
              12.8758146,
              46.8691785
            ]
          }
        },
        {
          "type": "Feature",
          "properties": {
            "id": "1376112545",
            "osm_type": "node",
            "lat": 46.7485698,
            "lon": 12.97183,
            "addr:city": "Oberdrauburg",
            "addr:country": "AT",
            "addr:housenumber": "6",
            "addr:postcode": "9781",
            "addr:street": "Marktstraße",
            "amenity": "police",
            "at_bev:addr_date": "2017-04-07",
            "email": "PI-K-Oberdrauburg@polizei.gv.at",
            "fax": "+43 59133 2231109",
            "name": "Polizeiinspektion Oberdrauburg",
            "phone": "+43 59133 2231100"
          },
          "geometry": {
            "type": "Point",
            "coordinates": [
              12.97183,
              46.7485698
            ]
          }
        },
        {
          "type": "Feature",
          "properties": {
            "id": "1403560100",
            "osm_type": "node",
            "lat": 46.8287843,
            "lon": 12.769258,
            "addr:city": "Lienz",
            "addr:country": "AT",
            "addr:housenumber": "5a",
            "addr:postcode": "9900",
            "addr:street": "Hauptplatz",
            "amenity": "police",
            "contact:email": "PI-T-Lienz@polizei.gv.at",
            "contact:fax": "+43 59133 7230 109",
            "contact:phone": "+43 59133 7230 100",
            "name": "Polizeiinspektion Lienz"
          },
          "geometry": {
            "type": "Point",
            "coordinates": [
              12.769258,
              46.8287843
            ]
          }
        },
        {
          "type": "Feature",
          "properties": {
            "id": "6775288687",
            "osm_type": "node",
            "lat": 46.8288271,
            "lon": 12.7691951,
            "addr:city": "Lienz",
            "addr:country": "AT",
            "addr:housenumber": "5a",
            "addr:postcode": "9900",
            "addr:street": "Hauptplatz",
            "amenity": "police",
            "contact:email": "BPK-T-Lienz@polizei.gv.at",
            "contact:fax": "+43 59133 7230 309",
            "contact:phone": "+43 59133 7230 305",
            "email": "PI-T-Lienz@polizei.gv.at",
            "fax": "+43 59133 7230-109",
            "name": "Bezirkspolizeikommando Lienz",
            "phone": "+43 59133 7230-100"
          },
          "geometry": {
            "type": "Point",
            "coordinates": [
              12.7691951,
              46.8288271
            ]
          }
        },
        {
          "type": "Feature",
          "properties": {
            "id": "2264409771",
            "osm_type": "node",
            "lat": 46.751619,
            "lon": 13.2504872,
            "addr:city": "Steinfeld",
            "addr:country": "AT",
            "addr:housenumber": "18F",
            "addr:postcode": "9754",
            "addr:street": "Josef Fräß-Ehrfeldstraße",
            "amenity": "police",
            "at_bev:addr_date": "2017-04-07",
            "email": "PI-K-Steinfeld@polizei.gv.at",
            "fax": "+43 59133 2238-109",
            "name": "Polizeiinspektion Steinfeld",
            "phone": "+43 59133 2238-100",
            "wheelchair": "yes"
          },
          "geometry": {
            "type": "Point",
            "coordinates": [
              13.2504872,
              46.751619
            ]
          }
        },
        {
          "type": "Feature",
          "properties": {
            "id": "4460642791",
            "osm_type": "node",
            "lat": 46.7494655,
            "lon": 13.1780163,
            "addr:city": "Greifenburg",
            "addr:country": "AT",
            "addr:housenumber": "241",
            "addr:postcode": "9761",
            "addr:street": "Schulstraße",
            "amenity": "police",
            "at_bev:addr_date": "2017-04-07",
            "check_date": "2025-08-21",
            "contact:email": "PI-K-Greifenburg@polizei.gv.at",
            "contact:fax": "+43 59133 2224 109",
            "contact:phone": "+43 59133 2224 100",
            "name": "Polizeiinspektion Greifenburg",
            "name:en": "Police Departement Greifenburg",
            "wheelchair": "no"
          },
          "geometry": {
            "type": "Point",
            "coordinates": [
              13.1780163,
              46.7494655
            ]
          }
        }
      ],
      "children": []
    }
  ]
}