{
  "bbox": {
    "south": 47.033758500000005,
    "west": 13.345766,
    "north": 47.694865,
    "east": 15.253173
  },
  "poiCount": 37,
  "leafCount": 37,
  "averagePosition": [
    14.267287821621624,
    47.346832470270265
  ],
  "data": [
    {
      "type": "Feature",
      "properties": {
        "id": "495381714",
        "osm_type": "node",
        "lat": 47.0866814,
        "lon": 13.9804133,
        "addr:city": "Stadl-Predlitz",
        "addr:country": "AT",
        "addr:housenumber": "120",
        "addr:place": "Stadl an der Mur",
        "addr:postcode": "8862",
        "amenity": "police",
        "contact:email": "PI-ST-Stadl-an-der-Mur@polizei.gv.at",
        "contact:phone": "+43 59133 6366-100",
        "name": "Polizeiinspektion Stadl an der Mur",
        "website": "https://www.polizei.gv.at/stmk/lpd/dst/dienststellen.aspx?org=64656546663033355056303D",
        "wheelchair": "no"
      },
      "geometry": {
        "type": "Point",
        "coordinates": [
          13.9804133,
          47.0866814
        ]
      }
    },
    {
      "type": "Feature",
      "properties": {
        "id": "880154012",
        "osm_type": "node",
        "lat": 47.2476563,
        "lon": 13.5608912,
        "addr:city": "Obertauern",
        "addr:housenumber": "69",
        "addr:postcode": "5562",
        "addr:street": "Römerstraße",
        "amenity": "police",
        "description": "Operated during winter months",
        "name": "Polizeistation Obertauern",
        "operator": "Polizeiinspektion Mauterndorf",
        "source": "http://www.salzburg24.at/neun-polizeidienststellen-in-salzburg-vor-dem-aus/3842441"
      },
      "geometry": {
        "type": "Point",
        "coordinates": [
          13.5608912,
          47.2476563
        ]
      }
    },
    {
      "type": "Feature",
      "properties": {
        "id": "1121946856",
        "osm_type": "node",
        "lat": 47.0988687,
        "lon": 13.6371486,
        "addr:city": "St. Michael im Lungau",
        "addr:housenumber": "1",
        "addr:postcode": "5582",
        "addr:street": "Marktplatz",
        "amenity": "police",
        "name": "Polizeiinspektion St. Michael im Lungau",
        "wheelchair": "no"
      },
      "geometry": {
        "type": "Point",
        "coordinates": [
          13.6371486,
          47.0988687
        ]
      }
    },
    {
      "type": "Feature",
      "properties": {
        "id": "1848563400",
        "osm_type": "node",
        "lat": 47.1340619,
        "lon": 13.6835814,
        "addr:city": "Mauterndorf",
        "addr:country": "AT",
        "addr:housenumber": "157",
        "addr:place": "Markt",
        "addr:postcode": "5570",
        "amenity": "police",
        "check_date": "2024-07-07",
        "contact:phone": "+43 5 91335162",
        "name": "Polizeiinspektion Mauterndorf"
      },
      "geometry": {
        "type": "Point",
        "coordinates": [
          13.6835814,
          47.1340619
        ]
      }
    },
    {
      "type": "Feature",
      "properties": {
        "id": "5437096912",
        "osm_type": "node",
        "lat": 47.1098565,
        "lon": 13.5895887,
        "addr:city": "Sankt Michael im Lungau",
        "addr:housenumber": "122",
        "addr:place": "Oberweißburg",
        "addr:postcode": "5582",
        "addr:suburb": "Oberweißburg",
        "amenity": "police",
        "name": "Autobahnpolizeiinspektion St. Michael/Lungau"
      },
      "geometry": {
        "type": "Point",
        "coordinates": [
          13.5895887,
          47.1098565
        ]
      }
    },
    {
      "type": "Feature",
      "properties": {
        "id": "797336003",
        "osm_type": "node",
        "lat": 47.075959,
        "lon": 14.424672,
        "addr:city": "Neumarkt in der Steiermark",
        "addr:country": "AT",
        "addr:housenumber": "9",
        "addr:postcode": "8820",
        "addr:street": "Wiener Straße",
        "amenity": "police",
        "at_bev:addr_date": "2017-04-07",
        "name": "Polizeiinspektion Neumarkt"
      },
      "geometry": {
        "type": "Point",
        "coordinates": [
          14.424672,
          47.075959
        ]
      }
    },
    {
      "type": "Feature",
      "properties": {
        "id": "7040232303",
        "osm_type": "node",
        "lat": 47.148229,
        "lon": 14.4122649,
        "addr:city": "Scheifling",
        "addr:country": "AT",
        "addr:housenumber": "1",
        "addr:postcode": "8811",
        "addr:street": "Amtsplatz",
        "amenity": "police",
        "contact:email": "PI-ST-Scheifling@polizei.gv.at",
        "contact:phone": "++43 59133 6363-100",
        "name": "Polizeiinspektion Scheifling",
        "website": "https://www.polizei.gv.at/stmk/lpd/dst/dienststellen.aspx?org=64656546663033355056303D"
      },
      "geometry": {
        "type": "Point",
        "coordinates": [
          14.4122649,
          47.148229
        ]
      }
    },
    {
      "type": "Feature",
      "properties": {
        "id": "11672879349",
        "osm_type": "node",
        "lat": 47.1798833,
        "lon": 14.1117722,
        "addr:city": "Schöder",
        "addr:housenumber": "155",
        "addr:postcode": "8844",
        "addr:street": "Schöder",
        "amenity": "police",
        "email": "PI-ST-Schoeder@polizei.gv.at",
        "name": "Polizeiinspektion Schöder",
        "phone": "+43 59133 6364-100",
        "website": "https://www.polizei.gv.at/stmk/lpd/dst/dienststellen.aspx?org=434C62596C647147784B6F3D"
      },
      "geometry": {
        "type": "Point",
        "coordinates": [
          14.1117722,
          47.1798833
        ]
      }
    },
    {
      "type": "Feature",
      "properties": {
        "id": "366165944",
        "osm_type": "node",
        "lat": 47.337663,
        "lon": 15.0164414,
        "addr:city": "Sankt Michael in Obersteiermark",
        "addr:country": "AT",
        "addr:housenumber": "46",
        "addr:postcode": "8770",
        "addr:street": "Raiffeisenstraße",
        "amenity": "police",
        "contact:email": "PI-ST-St-Michael-in-Obersteiermark@polizei.gv.at",
        "contact:phone": "+43 59133 63  20-100",
        "name": "Polizeiinspektion St. Michael in Obersteiermark",
        "website": "https://www.polizei.gv.at/stmk/lpd/dst/dienststellen.aspx?org=7154304249694A51416F553D"
      },
      "geometry": {
        "type": "Point",
        "coordinates": [
          15.0164414,
          47.337663
        ]
      }
    },
    {
      "type": "Feature",
      "properties": {
        "id": "368229626",
        "osm_type": "node",
        "lat": 47.273666,
        "lon": 14.7853875,
        "addr:city": "Seckau",
        "addr:conscriptionnumber": "83",
        "addr:country": "AT",
        "addr:hamlet": "Seckau",
        "addr:housenumber": "4",
        "addr:postcode": "8732",
        "addr:street": "Marktstraße",
        "amenity": "police",
        "at_bev:addr_date": "2022-10-02",
        "contact:email": "PI-ST-Seckau@polizei.gv.at",
        "contact:phone": "+43 59 133 6311-100",
        "name": "Polizeiinspektion Seckau",
        "website": "https://www.polizei.gv.at/stmk/lpd/dst/dienststellen.aspx?org=51504A5155474E397277303D"
      },
      "geometry": {
        "type": "Point",
        "coordinates": [
          14.7853875,
          47.273666
        ]
      }
    },
    {
      "type": "Feature",
      "properties": {
        "id": "540338956",
        "osm_type": "node",
        "lat": 47.1890933,
        "lon": 14.7483414,
        "addr:city": "Zeltweg",
        "addr:country": "AT",
        "addr:housenumber": "79",
        "addr:postcode": "8740",
        "addr:street": "Bahnhofstraße",
        "amenity": "police",
        "at_bev:addr_date": "2017-04-07"
      },
      "geometry": {
        "type": "Point",
        "coordinates": [
          14.7483414,
          47.1890933
        ]
      }
    },
    {
      "type": "Feature",
      "properties": {
        "id": "995085845",
        "osm_type": "node",
        "lat": 47.2189008,
        "lon": 14.8311052,
        "addr:city": "Knittelfeld",
        "addr:country": "AT",
        "addr:district": "Murtal",
        "addr:housenumber": "19",
        "addr:postcode": "8720",
        "addr:street": "Franz-Leitner-Straße",
        "amenity": "police",
        "at_bev:addr_date": "2017-04-07",
        "contact:email": "PI-ST-Knittelfeld@polizei.gv.at",
        "contact:fax": "+43 59133 6310-109",
        "contact:phone": "+43 59133 6310-100",
        "name": "Polizeiinspektion Knittelfeld",
        "website": "http://www.bmi.gv.at/cms/bmi/_news/_or_orga.aspx?base=STEIERMARK&id=0"
      },
      "geometry": {
        "type": "Point",
        "coordinates": [
          14.8311052,
          47.2189008
        ]
      }
    },
    {
      "type": "Feature",
      "properties": {
        "id": "1544021217",
        "osm_type": "node",
        "lat": 47.1522787,
        "lon": 14.739011,
        "addr:city": "Weißkirchen in der Steiermark",
        "addr:housenumber": "1",
        "addr:postcode": "8741",
        "addr:street": "Gemeindeplatz",
        "amenity": "police",
        "contact:email": "PI-ST-Weisskirchen-in-Steiermark@polizei.gv.at",
        "contact:phone": "+43 59133 6306 100",
        "name": "Polizeiinspektion Weißkirchen",
        "website": "http://www.bmi.gv.at/cms/bmi/_news/_or_orga.aspx?base=STEIERMARK&id=13618"
      },
      "geometry": {
        "type": "Point",
        "coordinates": [
          14.739011,
          47.1522787
        ]
      }
    },
    {
      "type": "Feature",
      "properties": {
        "id": "4718019594",
        "osm_type": "node",
        "lat": 47.2050348,
        "lon": 14.676213,
        "addr:city": "Fohnsdorf",
        "addr:country": "AT",
        "addr:housenumber": "5",
        "addr:postcode": "8753",
        "addr:street": "Siemensstraße",
        "amenity": "police",
        "at_bev:addr_date": "2017-04-07",
        "email": "PI-ST-Fohnsdorf@polizei.gv.at",
        "name": "Polizeiinspektion Fohnsdorf",
        "phone": "+43 59133 6301 100"
      },
      "geometry": {
        "type": "Point",
        "coordinates": [
          14.676213,
          47.2050348
        ]
      }
    },
    {
      "type": "Feature",
      "properties": {
        "id": "6174659456",
        "osm_type": "node",
        "lat": 47.2200782,
        "lon": 14.5799974,
        "addr:city": "Pöls-Oberkurzheim",
        "addr:country": "AT",
        "addr:housenumber": "6",
        "addr:postcode": "8761",
        "addr:street": "Hauptplatz",
        "amenity": "police",
        "email": "PI-ST-Poels@polizei.gv.at",
        "fax": "+43 59133 6304-109",
        "name": "Polizeiinspektion Pöls",
        "phone": "+43 9133 6304-100",
        "website": "https://www.polizei.gv.at/stmk/lpd/dst/dienststellen.aspx?org=72732B636D4A446F314B733D"
      },
      "geometry": {
        "type": "Point",
        "coordinates": [
          14.5799974,
          47.2200782
        ]
      }
    },
    {
      "type": "Feature",
      "properties": {
        "id": "6211244796",
        "osm_type": "node",
        "lat": 47.1691291,
        "lon": 14.6548114,
        "addr:city": "Judenburg",
        "addr:country": "AT",
        "addr:housenumber": "32",
        "addr:postcode": "8750",
        "addr:street": "Herrengasse",
        "amenity": "police",
        "contact:email": "PI-ST-Judenburg@polizei.gv.at",
        "contact:fax": "+43 59133 6300-109",
        "contact:phone": "+43 59133 6300-100",
        "name": "Polizeiinspektion Judenburg",
        "website": "https://www.polizei.gv.at/stmk/lpd/dst/dienststellen.aspx?org=6876794a2b3246656c59413d",
        "wheelchair": "yes"
      },
      "geometry": {
        "type": "Point",
        "coordinates": [
          14.6548114,
          47.1691291
        ]
      }
    },
    {
      "type": "Feature",
      "properties": {
        "id": "2104353983",
        "osm_type": "node",
        "lat": 47.0475876,
        "lon": 15.150073,
        "addr:city": "Voitsberg",
        "addr:country": "AT",
        "addr:housenumber": "1",
        "addr:postcode": "8570",
        "addr:street": "Dr.-H.-Kravcar-Platz",
        "amenity": "police",
        "contact:email": "BPK-ST-Voitsberg@polizei.gv.at",
        "contact:phone": "+43 59133 6190-305",
        "name": "Bezirkspolizeikommando Voitsberg",
        "website": "https://www.polizei.gv.at/stmk/lpd/dst/dienststellen.aspx?org=4465764B4E6B6271354E493D"
      },
      "geometry": {
        "type": "Point",
        "coordinates": [
          15.150073,
          47.0475876
        ]
      }
    },
    {
      "type": "Feature",
      "properties": {
        "id": "888685863",
        "osm_type": "node",
        "lat": 47.3849322,
        "lon": 13.462568,
        "addr:city": "Radstadt",
        "addr:housenumber": "1",
        "addr:postcode": "5550",
        "addr:street": "Stadtplatz",
        "amenity": "police",
        "name": "Polizeiinspektion Radstadt",
        "phone": "+43 5 9133 5151"
      },
      "geometry": {
        "type": "Point",
        "coordinates": [
          13.462568,
          47.3849322
        ]
      }
    },
    {
      "type": "Feature",
      "properties": {
        "id": "1474217560",
        "osm_type": "node",
        "lat": 47.3803918,
        "lon": 13.4263013,
        "addr:city": "Altenmarkt im Pongau",
        "addr:country": "AT",
        "addr:housenumber": "11",
        "addr:postcode": "5541",
        "addr:street": "Malergasse",
        "alt_name": "Polizei",
        "amenity": "police",
        "at_bev:addr_date": "2017-04-07",
        "email": "PI-S-Altenmarkt@polizei.gv.at",
        "fax": "+43 59133  5141-109",
        "name": "Polizeiinspektion Altenmarkt im Pongau",
        "phone": "+43 59133  5141"
      },
      "geometry": {
        "type": "Point",
        "coordinates": [
          13.4263013,
          47.3803918
        ]
      }
    },
    {
      "type": "Feature",
      "properties": {
        "id": "5839803926",
        "osm_type": "node",
        "lat": 47.411757,
        "lon": 13.390539,
        "addr:city": "Eben im Pongau",
        "addr:country": "AT",
        "addr:housenumber": "351",
        "addr:postcode": "5531",
        "addr:street": "Hauptstraße",
        "amenity": "police",
        "at_bev:addr_date": "2018-04-02",
        "name": "Polizeiinspektion Eben im Pongau"
      },
      "geometry": {
        "type": "Point",
        "coordinates": [
          13.390539,
          47.411757
        ]
      }
    },
    {
      "type": "Feature",
      "properties": {
        "id": "1044750165",
        "osm_type": "node",
        "lat": 47.4216256,
        "lon": 13.6559845,
        "addr:city": "Ramsau am Dachstein",
        "addr:postcode": "8972",
        "amenity": "police",
        "name": "Polizeiinspektion"
      },
      "geometry": {
        "type": "Point",
        "coordinates": [
          13.6559845,
          47.4216256
        ]
      }
    },
    {
      "type": "Feature",
      "properties": {
        "id": "1044827071",
        "osm_type": "node",
        "lat": 47.3925345,
        "lon": 13.691439,
        "addr:city": "Schladming",
        "addr:country": "AT",
        "addr:housenumber": "46",
        "addr:postcode": "8970",
        "addr:street": "Coburgstraße",
        "amenity": "police",
        "contact:email": "PI-ST-Schladming@polizei.gv.at",
        "contact:phone": "+43 59133 6356-100",
        "name": "Polizeiinspektion Schladming",
        "website": "https://www.polizei.gv.at/stmk/lpd/dst/dienststellen.aspx?org=64665732414B794F6467453D"
      },
      "geometry": {
        "type": "Point",
        "coordinates": [
          13.691439,
          47.3925345
        ]
      }
    },
    {
      "type": "Feature",
      "properties": {
        "id": "1388246808",
        "osm_type": "node",
        "lat": 47.4101224,
        "lon": 13.7687952,
        "addr:city": "Haus",
        "addr:country": "AT",
        "addr:housenumber": "47",
        "addr:postcode": "8967",
        "addr:street": "Schloßplatz",
        "amenity": "police",
        "at_bev:addr_date": "2018-04-02",
        "check_date": "2024-11-15",
        "contact:email": "PI-ST-Haus@polizei.gv.at",
        "contact:phone": "+43 59133 6353-100",
        "name": "Polizeiinspektion Haus im Ennstal",
        "website": "http://www.bmi.gv.at/cms/bmi/_news/_or_orga.aspx?base=STEIERMARK&id=1530"
      },
      "geometry": {
        "type": "Point",
        "coordinates": [
          13.7687952,
          47.4101224
        ]
      }
    },
    {
      "type": "Feature",
      "properties": {
        "id": "1643419591",
        "osm_type": "node",
        "lat": 47.5550819,
        "lon": 13.9349754,
        "addr:city": "Bad Mitterndorf",
        "addr:country": "AT",
        "addr:postcode": "8983",
        "amenity": "police",
        "contact:email": "PI-ST-Bad-Mitterndorf@polizei.gv.at",
        "contact:phone": "+43 59133 6352-100",
        "name": "Polizeiinspektion Bad Mitterndorf",
        "website": "https://www.polizei.gv.at/stmk/lpd/dst/dienststellen.aspx?org=64665732414B794F6467453D"
      },
      "geometry": {
        "type": "Point",
        "coordinates": [
          13.9349754,
          47.5550819
        ]
      }
    },
    {
      "type": "Feature",
      "properties": {
        "id": "2142776698",
        "osm_type": "node",
        "lat": 47.4484598,
        "lon": 13.90277,
        "amenity": "police",
        "at_bev:addr_date": "2017-04-07",
        "check_date": "2024-07-10",
        "contact:email": "PI-ST-Groebming@polizei.gv.at",
        "contact:fax": "+43 59133 6350-109",
        "contact:phone": "+43 59133 6350-100",
        "name": "Polizeiinspektion Gröbming"
      },
      "geometry": {
        "type": "Point",
        "coordinates": [
          13.90277,
          47.4484598
        ]
      }
    },
    {
      "type": "Feature",
      "properties": {
        "id": "2422739504",
        "osm_type": "node",
        "lat": 47.641621,
        "lon": 13.6181234,
        "addr:city": "Bad Goisern",
        "addr:country": "AT",
        "addr:housenumber": "9a",
        "addr:postcode": "4822",
        "addr:street": "Rudolf-von-Alt-Weg",
        "amenity": "police",
        "contact:email": "PI-O-Bad-Goisern@polizei.gv.at",
        "contact:phone": "+43 59 133 4102-100",
        "name": "Polizeiinspektion Bad Goisern",
        "website": "https://www.polizei.gv.at/ooe/lpd/dst/dienststellen.aspx?org=6B4B4548306D314F3951553D"
      },
      "geometry": {
        "type": "Point",
        "coordinates": [
          13.6181234,
          47.641621
        ]
      }
    },
    {
      "type": "Feature",
      "properties": {
        "id": "3337748795",
        "osm_type": "node",
        "lat": 47.585208,
        "lon": 13.5346956,
        "addr:city": "Gosau",
        "addr:country": "AT",
        "addr:housenumber": "574",
        "addr:place": "Gosau",
        "addr:postcode": "4824",
        "amenity": "police",
        "name": "Polizeiinspektion Gosau",
        "phone": "+43 59133 4105 100",
        "website": "https://www.polizei.gv.at/"
      },
      "geometry": {
        "type": "Point",
        "coordinates": [
          13.5346956,
          47.585208
        ]
      }
    },
    {
      "type": "Feature",
      "properties": {
        "id": "616439153",
        "osm_type": "node",
        "lat": 47.5763244,
        "lon": 14.4574614,
        "addr:city": "Admont",
        "addr:country": "AT",
        "addr:housenumber": "446b",
        "addr:postcode": "8911",
        "addr:street": "Schulstraße",
        "amenity": "police",
        "contact:email": "PI-ST-Admont@polizei.gv.at",
        "contact:phone": "+43 59 133 6341-100",
        "name": "Polizeiinspektion Admont",
        "website": "https://www.polizei.gv.at/stmk/lpd/dst/dienststellen.aspx?org=64665732414B794F6467453D"
      },
      "geometry": {
        "type": "Point",
        "coordinates": [
          14.4574614,
          47.5763244
        ]
      }
    },
    {
      "type": "Feature",
      "properties": {
        "id": "1905069789",
        "osm_type": "node",
        "lat": 47.5074674,
        "lon": 14.107688,
        "addr:city": "Irdning-Donnersbachtal",
        "addr:country": "AT",
        "addr:housenumber": "23",
        "addr:postcode": "8952",
        "addr:street": "Irdning Aignerstraße",
        "amenity": "police",
        "at_bev:addr_date": "2018-10-01",
        "check_date": "2024-04-30",
        "contact:email": "PI-ST-Irdning@polizei.gv.at",
        "contact:phone": "+43 59133 6354-100",
        "name": "Polizeiinspektion Irdning",
        "website": "http://www.bmi.gv.at/cms/bmi/_news/_or_orga.aspx?base=STEIERMARK&id=1530"
      },
      "geometry": {
        "type": "Point",
        "coordinates": [
          14.107688,
          47.5074674
        ]
      }
    },
    {
      "type": "Feature",
      "properties": {
        "id": "4170226391",
        "osm_type": "node",
        "lat": 47.5331271,
        "lon": 14.1101887,
        "addr:city": "Stainach-Pürgg",
        "addr:housenumber": "338",
        "addr:postcode": "8950",
        "addr:street": "Grazerstraße",
        "amenity": "police",
        "contact:email": "PI-ST-Stainach@polizei.gv.at",
        "contact:phone": "+43 59133 6357-100",
        "name": "Polizeiinspektion Stainach",
        "website": "http://www.bmi.gv.at/cms/bmi/_news/_or_orga.aspx?base=STEIERMARK&id=1530"
      },
      "geometry": {
        "type": "Point",
        "coordinates": [
          14.1101887,
          47.5331271
        ]
      }
    },
    {
      "type": "Feature",
      "properties": {
        "id": "6278280096",
        "osm_type": "node",
        "lat": 47.4867542,
        "lon": 14.4865195,
        "amenity": "police",
        "level": "1",
        "name": "Polizeiinspektion Trieben"
      },
      "geometry": {
        "type": "Point",
        "coordinates": [
          14.4865195,
          47.4867542
        ]
      }
    },
    {
      "type": "Feature",
      "properties": {
        "id": "411022550",
        "osm_type": "node",
        "lat": 47.6060557,
        "lon": 14.7448051,
        "amenity": "police"
      },
      "geometry": {
        "type": "Point",
        "coordinates": [
          14.7448051,
          47.6060557
        ]
      }
    },
    {
      "type": "Feature",
      "properties": {
        "id": "2450766485",
        "osm_type": "node",
        "lat": 47.4866805,
        "lon": 14.9919606,
        "addr:city": "Vordernberg",
        "addr:country": "AT",
        "addr:housenumber": "108a",
        "addr:postcode": "8794",
        "addr:street": "Hauptstraße",
        "amenity": "police",
        "at_bev:addr_date": "2017-04-07"
      },
      "geometry": {
        "type": "Point",
        "coordinates": [
          14.9919606,
          47.4866805
        ]
      }
    },
    {
      "type": "Feature",
      "properties": {
        "id": "6290429452",
        "osm_type": "node",
        "lat": 47.4261663,
        "lon": 15.0083303,
        "addr:city": "Trofaiach",
        "addr:country": "AT",
        "addr:housenumber": "9",
        "addr:postcode": "8793",
        "addr:street": "Luchinettigasse",
        "amenity": "police",
        "contact:email": "PI-ST-Trofaiach@polizei.gv.at",
        "contact:fax": "+43 59133 63 27-109",
        "contact:phone": "+43 59133 63 27-100",
        "name": "Polizeiinspektion Trofaiach",
        "website": "https://www.polizei.gv.at/stmk/lpd/dst/dienststellen.aspx?org=775830314B4D544D7739733D"
      },
      "geometry": {
        "type": "Point",
        "coordinates": [
          15.0083303,
          47.4261663
        ]
      }
    },
    {
      "type": "Feature",
      "properties": {
        "id": "11595208987",
        "osm_type": "node",
        "lat": 47.6908011,
        "lon": 14.6168751,
        "addr:city": "Sankt Gallen",
        "addr:country": "AT",
        "addr:housenumber": "208",
        "addr:postcode": "8933",
        "addr:street": "Markt",
        "amenity": "police",
        "contact:email": "PI-ST-St-Gallen@polizei.gv.at",
        "contact:phone": "+43 59133 6344-100",
        "name": "Polizeiinspektion St. Gallen",
        "website": "https://www.polizei.gv.at/stmk/lpd/dst/dienststellen.aspx?org=4B4948783832664561706F3D"
      },
      "geometry": {
        "type": "Point",
        "coordinates": [
          14.6168751,
          47.6908011
        ]
      }
    },
    {
      "type": "Feature",
      "properties": {
        "id": "344599996",
        "osm_type": "node",
        "lat": 47.5224429,
        "lon": 15.2340916,
        "addr:city": "Thörl",
        "addr:country": "AT",
        "addr:housenumber": "205",
        "addr:place": "Palbersdorf",
        "addr:postcode": "8621",
        "amenity": "police",
        "check_date": "2025-05-31",
        "contact:email": "PI-ST-Thoerl@polizei.gv.at",
        "contact:phone": "+43 59 133 6209-100",
        "name": "Polizeiinspektion Thörl",
        "website": "https://www.polizei.gv.at/stmk/lpd/dst/dienststellen.aspx?org=46436533484F31475041633D"
      },
      "geometry": {
        "type": "Point",
        "coordinates": [
          15.2340916,
          47.5224429
        ]
      }
    },
    {
      "type": "Feature",
      "properties": {
        "id": "1301795890",
        "osm_type": "node",
        "lat": 47.47062,
        "lon": 15.1638241,
        "addr:city": "Tragöß-Sankt Katharein",
        "addr:country": "AT",
        "addr:housenumber": "65",
        "addr:place": "St. Katharein an der Laming",
        "addr:postcode": "8611",
        "amenity": "police",
        "at_bev:addr_date": "2017-04-07"
      },
      "geometry": {
        "type": "Point",
        "coordinates": [
          15.1638241,
          47.47062
        ]
      }
    }
  ],
  "children": []
}