{
  "bbox": {
    "south": 48.355971499999995,
    "west": 11.438358999999998,
    "north": 49.017078,
    "east": 13.345766
  },
  "poiCount": 20,
  "leafCount": 20,
  "averagePosition": [
    12.44978346,
    48.649867295
  ],
  "data": [
    {
      "type": "Feature",
      "properties": {
        "id": "4028898883",
        "osm_type": "node",
        "lat": 48.3567717,
        "lon": 11.7728798,
        "addr:city": "Freising",
        "addr:country": "DE",
        "addr:housenumber": "2",
        "addr:place": "München-Flughafen",
        "addr:postcode": "85356",
        "addr:street": "Nordallee",
        "amenity": "police",
        "name": "Bundespolizeiinspektion Flughafen München",
        "phone": "+49 89 973070",
        "police": "offices",
        "police:DE": "Bundespolizei",
        "wheelchair": "yes"
      },
      "geometry": {
        "type": "Point",
        "coordinates": [
          11.7728798,
          48.3567717
        ]
      }
    },
    {
      "type": "Feature",
      "properties": {
        "id": "4028898884",
        "osm_type": "node",
        "lat": 48.3576332,
        "lon": 11.7724988,
        "addr:city": "Flughafen München",
        "addr:country": "DE",
        "addr:housenumber": "6",
        "addr:postcode": "85356",
        "addr:street": "Nordallee",
        "amenity": "police",
        "contact:fax": "+49 89 979-1329",
        "contact:phone": "+49 89 979-0",
        "contact:website": "https://www.polizei.bayern.de/wir-ueber-uns/organisation/dienststellen/0900111100000.html",
        "name": "Polizeiinspektion Flughafen München",
        "wheelchair": "yes"
      },
      "geometry": {
        "type": "Point",
        "coordinates": [
          11.7724988,
          48.3576332
        ]
      }
    },
    {
      "type": "Feature",
      "properties": {
        "id": "25578870",
        "osm_type": "node",
        "lat": 48.5332632,
        "lon": 11.5077427,
        "addr:city": "Pfaffenhofen a.d. Ilm",
        "addr:country": "DE",
        "addr:housenumber": "47",
        "addr:postcode": "85276",
        "addr:street": "Ingolstädter Straße",
        "amenity": "police",
        "check_date": "2024-09-28",
        "name": "Polizeiinspektion Pfaffenhofen",
        "wheelchair": "no"
      },
      "geometry": {
        "type": "Point",
        "coordinates": [
          11.5077427,
          48.5332632
        ]
      }
    },
    {
      "type": "Feature",
      "properties": {
        "id": "21548295",
        "osm_type": "node",
        "lat": 48.6881487,
        "lon": 11.6121404,
        "amenity": "police",
        "check_date": "2024-08-20",
        "name": "Polizei"
      },
      "geometry": {
        "type": "Point",
        "coordinates": [
          11.6121404,
          48.6881487
        ]
      }
    },
    {
      "type": "Feature",
      "properties": {
        "id": "1690525644",
        "osm_type": "node",
        "lat": 48.6395085,
        "lon": 11.779275,
        "amenity": "police",
        "name": "Polizeiinspektion Mainburg",
        "phone": "+49 8751 8633 0"
      },
      "geometry": {
        "type": "Point",
        "coordinates": [
          11.779275,
          48.6395085
        ]
      }
    },
    {
      "type": "Feature",
      "properties": {
        "id": "7178229557",
        "osm_type": "node",
        "lat": 48.3866682,
        "lon": 11.7784733,
        "amenity": "police",
        "name": "Verkehrspolizeiinspektion Freising"
      },
      "geometry": {
        "type": "Point",
        "coordinates": [
          11.7784733,
          48.3866682
        ]
      }
    },
    {
      "type": "Feature",
      "properties": {
        "id": "1962838678",
        "osm_type": "node",
        "lat": 48.5469792,
        "lon": 12.1353754,
        "addr:city": "Landshut",
        "addr:country": "DE",
        "addr:housenumber": "1",
        "addr:postcode": "84032",
        "addr:street": "Bahnhofstraße",
        "amenity": "police",
        "check_date": "2024-05-27",
        "name": "Bundespolizei Landshut",
        "phone": "+49 871 9637650"
      },
      "geometry": {
        "type": "Point",
        "coordinates": [
          12.1353754,
          48.5469792
        ]
      }
    },
    {
      "type": "Feature",
      "properties": {
        "id": "5405005623",
        "osm_type": "node",
        "lat": 48.6310657,
        "lon": 12.5024825,
        "addr:city": "Dingolfing",
        "addr:country": "DE",
        "addr:housenumber": "2",
        "addr:postcode": "84130",
        "addr:street": "Bräuhausgasse",
        "amenity": "police",
        "name": "Polizeiinspektion Dingolfing",
        "phone": "+49 8731 31440",
        "website": "https://www.polizei.bayern.de/niederbayern/wir/organisation/dienststellen/index.html/93543"
      },
      "geometry": {
        "type": "Point",
        "coordinates": [
          12.5024825,
          48.6310657
        ]
      }
    },
    {
      "type": "Feature",
      "properties": {
        "id": "278143572",
        "osm_type": "node",
        "lat": 48.4352798,
        "lon": 12.9373343,
        "addr:city": "Pfarrkirchen",
        "addr:country": "DE",
        "addr:housenumber": "4",
        "addr:postcode": "84347",
        "addr:street": "Arnstorfer Straße",
        "amenity": "police",
        "contact:phone": "+49 8561 9604-0",
        "name": "Polizeiinspektion Pfarrkirchen",
        "wheelchair": "no"
      },
      "geometry": {
        "type": "Point",
        "coordinates": [
          12.9373343,
          48.4352798
        ]
      }
    },
    {
      "type": "Feature",
      "properties": {
        "id": "290227811",
        "osm_type": "node",
        "lat": 48.6694757,
        "lon": 12.6932236,
        "amenity": "police",
        "name": "Polizeiinspektion Landau an der Isar"
      },
      "geometry": {
        "type": "Point",
        "coordinates": [
          12.6932236,
          48.6694757
        ]
      }
    },
    {
      "type": "Feature",
      "properties": {
        "id": "333555459",
        "osm_type": "node",
        "lat": 48.3982971,
        "lon": 12.7664251,
        "amenity": "police",
        "name": "Polizeiinspektion Eggenfelden",
        "toilets:wheelchair": "no",
        "wheelchair": "yes"
      },
      "geometry": {
        "type": "Point",
        "coordinates": [
          12.7664251,
          48.3982971
        ]
      }
    },
    {
      "type": "Feature",
      "properties": {
        "id": "8727125440",
        "osm_type": "node",
        "lat": 48.8293984,
        "lon": 12.9615325,
        "addr:city": "Deggendorf",
        "addr:housenumber": "18",
        "addr:postcode": "94469",
        "addr:street": "Haselbeckstraße",
        "amenity": "police",
        "contact:mobile": "+491713321327",
        "name": "Wasserschutzpolizei",
        "phone": "+499913896370"
      },
      "geometry": {
        "type": "Point",
        "coordinates": [
          12.9615325,
          48.8293984
        ]
      }
    },
    {
      "type": "Feature",
      "properties": {
        "id": "271192197",
        "osm_type": "node",
        "lat": 48.4580285,
        "lon": 13.1956918,
        "amenity": "police",
        "name": "Polizei"
      },
      "geometry": {
        "type": "Point",
        "coordinates": [
          13.1956918,
          48.4580285
        ]
      }
    },
    {
      "type": "Feature",
      "properties": {
        "id": "271194448",
        "osm_type": "node",
        "lat": 48.4014663,
        "lon": 13.315396,
        "amenity": "police",
        "name": "Polizeistation Pocking"
      },
      "geometry": {
        "type": "Point",
        "coordinates": [
          13.315396,
          48.4014663
        ]
      }
    },
    {
      "type": "Feature",
      "properties": {
        "id": "1229607319",
        "osm_type": "node",
        "lat": 48.8397894,
        "lon": 13.2298447,
        "amenity": "police",
        "name": "Polizeistation"
      },
      "geometry": {
        "type": "Point",
        "coordinates": [
          13.2298447,
          48.8397894
        ]
      }
    },
    {
      "type": "Feature",
      "properties": {
        "id": "296191576",
        "osm_type": "node",
        "lat": 48.9107883,
        "lon": 11.8732606,
        "addr:city": "Kelheim",
        "addr:country": "DE",
        "addr:housenumber": "30",
        "addr:postcode": "93309",
        "addr:street": "Bahnhofstraße",
        "amenity": "police",
        "contact:phone": "+49 9441 5042 0",
        "name": "Polizeiinspektion Kelheim",
        "website": "https://www.polizei.bayern.de/niederbayern/wir/organisation/dienststellen/index.html/93545"
      },
      "geometry": {
        "type": "Point",
        "coordinates": [
          11.8732606,
          48.9107883
        ]
      }
    },
    {
      "type": "Feature",
      "properties": {
        "id": "389957242",
        "osm_type": "node",
        "lat": 48.9621333,
        "lon": 11.6833309,
        "amenity": "police",
        "check_date": "2024-08-28",
        "name": "Riedenburg Polizeiinspektion",
        "wheelchair": "yes"
      },
      "geometry": {
        "type": "Point",
        "coordinates": [
          11.6833309,
          48.9621333
        ]
      }
    },
    {
      "type": "Feature",
      "properties": {
        "id": "416685691",
        "osm_type": "node",
        "lat": 48.9715788,
        "lon": 13.1279119,
        "amenity": "police"
      },
      "geometry": {
        "type": "Point",
        "coordinates": [
          13.1279119,
          48.9715788
        ]
      }
    },
    {
      "type": "Feature",
      "properties": {
        "id": "1636931717",
        "osm_type": "node",
        "lat": 48.9718246,
        "lon": 13.1280422,
        "addr:city": "Regen",
        "addr:country": "DE",
        "addr:housenumber": "4",
        "addr:postcode": "94209",
        "addr:street": "Amtsgerichtstraße",
        "amenity": "police",
        "name": "Polizei Regen"
      },
      "geometry": {
        "type": "Point",
        "coordinates": [
          13.1280422,
          48.9718246
        ]
      }
    },
    {
      "type": "Feature",
      "properties": {
        "id": "5034624527",
        "osm_type": "node",
        "lat": 49.0092473,
        "lon": 13.2228077,
        "addr:city": "Zwiesel",
        "addr:country": "DE",
        "addr:housenumber": "8",
        "addr:postcode": "94227",
        "addr:street": "Regener Straße",
        "amenity": "police",
        "name": "Bundespolizeirevier Zwiesel",
        "url": "https://www.bundespolizei.de/SharedDocs/Webs/Web/Organisationseinheiten/BPOLR/Zwiesel.html"
      },
      "geometry": {
        "type": "Point",
        "coordinates": [
          13.2228077,
          49.0092473
        ]
      }
    }
  ],
  "children": []
}