{
  "bbox": {
    "south": 47.694865,
    "west": 11.438358999999998,
    "north": 48.355971499999995,
    "east": 13.345766
  },
  "poiCount": 69,
  "leafCount": 0,
  "averagePosition": [
    12.368671320289854,
    48.007705881159424
  ],
  "data": [],
  "children": [
    {
      "bbox": {
        "south": 47.694865,
        "west": 11.438358999999998,
        "north": 48.02541825,
        "east": 12.392062499999998
      },
      "poiCount": 6,
      "leafCount": 6,
      "averagePosition": [
        11.870253783333334,
        47.807176733333336
      ],
      "data": [
        {
          "type": "Feature",
          "properties": {
            "id": "614947078",
            "osm_type": "node",
            "lat": 47.7863289,
            "lon": 11.835342,
            "amenity": "police",
            "name": "Polizeiinspektion Miesbach",
            "phone": "+49 8025 299-0",
            "short_name": "PI Miesbach"
          },
          "geometry": {
            "type": "Point",
            "coordinates": [
              11.835342,
              47.7863289
            ]
          }
        },
        {
          "type": "Feature",
          "properties": {
            "id": "1227269823",
            "osm_type": "node",
            "lat": 47.7583163,
            "lon": 11.5841938,
            "addr:city": "Bad Tölz",
            "addr:country": "DE",
            "addr:housenumber": "7",
            "addr:postcode": "83646",
            "addr:street": "Professor-Max-Lange-Platz",
            "amenity": "police",
            "fax": "+49 8041 76106 109",
            "name": "Polizei",
            "phone": "+49 8041 76106 0",
            "website": "https://www.polizei.bayern.de/oberbayern/wir/organisation/dienststellen/index.html/73005"
          },
          "geometry": {
            "type": "Point",
            "coordinates": [
              11.5841938,
              47.7583163
            ]
          }
        },
        {
          "type": "Feature",
          "properties": {
            "id": "4455583807",
            "osm_type": "node",
            "lat": 47.7864222,
            "lon": 11.835668,
            "amenity": "police",
            "name": "Kriminalpolizeistation Miesbach",
            "phone": "+49 8025 299-0",
            "short_name": "KPS Miesbach"
          },
          "geometry": {
            "type": "Point",
            "coordinates": [
              11.835668,
              47.7864222
            ]
          }
        },
        {
          "type": "Feature",
          "properties": {
            "id": "10419766048",
            "osm_type": "node",
            "lat": 47.8092365,
            "lon": 12.1212721,
            "addr:city": "Raubling",
            "addr:country": "DE",
            "addr:housenumber": "2",
            "addr:postcode": "83064",
            "addr:street": "Seestraße",
            "amenity": "police",
            "name": "Grenzpolizeiinspektion Raubling",
            "opening_hours": "24/7",
            "operator": "Freistaat Bayern",
            "source": "DOP_LVA_BY_01"
          },
          "geometry": {
            "type": "Point",
            "coordinates": [
              12.1212721,
              47.8092365
            ]
          }
        },
        {
          "type": "Feature",
          "properties": {
            "id": "10419766049",
            "osm_type": "node",
            "lat": 47.80943,
            "lon": 12.1215025,
            "addr:city": "Raubling",
            "addr:country": "DE",
            "addr:housenumber": "2",
            "addr:postcode": "83064",
            "addr:street": "Seestraße",
            "amenity": "police",
            "name": "Verkehrspolizeiinspektion Rosenheim",
            "opening_hours": "24/7",
            "operator": "Freistaat Bayern",
            "source": "DOP_LVA_BY_01"
          },
          "geometry": {
            "type": "Point",
            "coordinates": [
              12.1215025,
              47.80943
            ]
          }
        },
        {
          "type": "Feature",
          "properties": {
            "id": "278668164",
            "osm_type": "node",
            "lat": 47.8933265,
            "lon": 11.7235443,
            "amenity": "police",
            "name": "Autobahnpolizeistation Holzkirchen",
            "start_date": "1962-06-02",
            "website": "https://www.polizei.bayern.de/wir-ueber-uns/organisation/dienststellen/0901711601000.html"
          },
          "geometry": {
            "type": "Point",
            "coordinates": [
              11.7235443,
              47.8933265
            ]
          }
        }
      ],
      "children": []
    },
    {
      "bbox": {
        "south": 47.694865,
        "west": 12.392062499999998,
        "north": 48.02541825,
        "east": 13.345766
      },
      "poiCount": 29,
      "leafCount": 29,
      "averagePosition": [
        13.019760920689654,
        47.8482373862069
      ],
      "data": [
        {
          "type": "Feature",
          "properties": {
            "id": "910645755",
            "osm_type": "node",
            "lat": 47.810613,
            "lon": 13.0261507,
            "addr:city": "Salzburg",
            "addr:country": "AT",
            "addr:housenumber": "41",
            "addr:postcode": "5020",
            "addr:street": "Rudolf-Biebl-Straße",
            "amenity": "police",
            "at_bev:addr_date": "2017-04-07",
            "name": "Polizeiwache Lehen",
            "wheelchair": "yes"
          },
          "geometry": {
            "type": "Point",
            "coordinates": [
              13.0261507,
              47.810613
            ]
          }
        },
        {
          "type": "Feature",
          "properties": {
            "id": "1300403694",
            "osm_type": "node",
            "lat": 47.841298,
            "lon": 13.0228386,
            "addr:city": "Bergheim",
            "addr:housenumber": "39",
            "addr:street": "Dorfstraße",
            "amenity": "police",
            "name": "Polizeiinspektion Bergheim",
            "phone": "059133 5112",
            "website": "https://www.polizei.gv.at/sbg/lpd/dst/dienststellen.aspx?org=7036446765425575317A733D"
          },
          "geometry": {
            "type": "Point",
            "coordinates": [
              13.0228386,
              47.841298
            ]
          }
        },
        {
          "type": "Feature",
          "properties": {
            "id": "1423972393",
            "osm_type": "node",
            "lat": 47.8015096,
            "lon": 13.0183245,
            "addr:city": "Salzburg",
            "addr:country": "AT",
            "addr:housenumber": "72",
            "addr:postcode": "5020",
            "addr:street": "Maxglaner Hauptstraße",
            "amenity": "police",
            "contact:email": "PI-S-Salzburg-Maxglan@polizei.gv.at",
            "contact:phone": "+43 59 133 5587 100",
            "name": "Polizeiinspektion Maxglan",
            "website": "https://www.polizei.gv.at/sbg/lpd/dst/dienststellen.aspx?org=6B596B6E4A32624B502F6B3D"
          },
          "geometry": {
            "type": "Point",
            "coordinates": [
              13.0183245,
              47.8015096
            ]
          }
        },
        {
          "type": "Feature",
          "properties": {
            "id": "2279297277",
            "osm_type": "node",
            "lat": 47.7937973,
            "lon": 12.9977017,
            "amenity": "police",
            "name": "Condor Polizei Flughafen Salzburg"
          },
          "geometry": {
            "type": "Point",
            "coordinates": [
              12.9977017,
              47.7937973
            ]
          }
        },
        {
          "type": "Feature",
          "properties": {
            "id": "3193728466",
            "osm_type": "node",
            "lat": 47.8152455,
            "lon": 13.0084872,
            "addr:city": "Salzburg",
            "addr:country": "AT",
            "addr:housenumber": "1",
            "addr:postcode": "5020",
            "addr:street": "Europastraße",
            "amenity": "police",
            "check_date": "2025-07-10",
            "contact:email": "pi-s-salzburg-taxham@polizei.gv.at",
            "contact:phone": "+43 59 133 55  89100",
            "level": "0",
            "name": "Polizeiinspektion Taxham",
            "website": "https://www.polizei.gv.at/sbg/lpd/dst/dienststellen.aspx?org=6B596B6E4A32624B502F6B3D"
          },
          "geometry": {
            "type": "Point",
            "coordinates": [
              13.0084872,
              47.8152455
            ]
          }
        },
        {
          "type": "Feature",
          "properties": {
            "id": "3765842623",
            "osm_type": "node",
            "lat": 47.8215351,
            "lon": 12.6498376,
            "amenity": "police",
            "check_date": "2024-03-05",
            "name": "Verkehrspolizeiinspektion Traunstein",
            "wheelchair": "limited"
          },
          "geometry": {
            "type": "Point",
            "coordinates": [
              12.6498376,
              47.8215351
            ]
          }
        },
        {
          "type": "Feature",
          "properties": {
            "id": "5248848909",
            "osm_type": "node",
            "lat": 47.7632283,
            "lon": 12.6442292,
            "addr:city": "Ruhpolding",
            "addr:housenumber": "12",
            "addr:postcode": "83324",
            "addr:street": "Rathausstraße",
            "amenity": "police",
            "fax": "+49 8663 881719",
            "name": "Polizeiinspektion Ruhpolding",
            "phone": "+49 8663 88170",
            "website": "https://www.polizei.bayern.de/oberbayern/wir/organisation/dienststellen/index.html/73532"
          },
          "geometry": {
            "type": "Point",
            "coordinates": [
              12.6442292,
              47.7632283
            ]
          }
        },
        {
          "type": "Feature",
          "properties": {
            "id": "5418290922",
            "osm_type": "node",
            "lat": 47.7915733,
            "lon": 12.9975485,
            "addr:city": "Salzburg",
            "addr:housenumber": "105",
            "addr:postcode": "5020",
            "addr:street": "Innsbrucker Bundesstraße",
            "amenity": "police",
            "check_date": "2024-08-16",
            "name": "Grenzpolizeiinspektion Flughafen",
            "opening_hours": "24/7"
          },
          "geometry": {
            "type": "Point",
            "coordinates": [
              12.9975485,
              47.7915733
            ]
          }
        },
        {
          "type": "Feature",
          "properties": {
            "id": "9247817040",
            "osm_type": "node",
            "lat": 47.795912,
            "lon": 12.9973619,
            "amenity": "police",
            "name": "BMI Flugpolizei Salzburg",
            "ref": "BMI Flugpolizei"
          },
          "geometry": {
            "type": "Point",
            "coordinates": [
              12.9973619,
              47.795912
            ]
          }
        },
        {
          "type": "Feature",
          "properties": {
            "id": "256169299",
            "osm_type": "node",
            "lat": 47.8130811,
            "lon": 13.0700856,
            "addr:city": "Salzburg",
            "addr:country": "AT",
            "addr:housenumber": "20",
            "addr:postcode": "5023",
            "addr:street": "Minnesheimstraße",
            "amenity": "police",
            "at_bev:addr_date": "2017-04-07",
            "check_date": "2024-09-08",
            "name": "Wachstube Gnigl"
          },
          "geometry": {
            "type": "Point",
            "coordinates": [
              13.0700856,
              47.8130811
            ]
          }
        },
        {
          "type": "Feature",
          "properties": {
            "id": "265498431",
            "osm_type": "node",
            "lat": 47.8003414,
            "lon": 13.0447001,
            "addr:city": "Salzburg",
            "addr:country": "AT",
            "addr:housenumber": "2",
            "addr:postcode": "5020",
            "addr:street": "Rudolfskai",
            "amenity": "police",
            "at_bev:addr_date": "2017-04-07",
            "check_date": "2024-04-24",
            "name": "Polizeiinspektion Rathaus",
            "opening_hours": "24/7",
            "phone": "+43591335588100",
            "wheelchair": "yes"
          },
          "geometry": {
            "type": "Point",
            "coordinates": [
              13.0447001,
              47.8003414
            ]
          }
        },
        {
          "type": "Feature",
          "properties": {
            "id": "1493180456",
            "osm_type": "node",
            "lat": 47.8128775,
            "lon": 13.0434811,
            "addr:city": "Salzburg",
            "addr:housenumber": "3",
            "addr:postcode": "5020",
            "addr:street": "Südtiroler Platz",
            "amenity": "police",
            "check_date": "2024-04-13",
            "name": "Polizeiinspektion Bahnhof",
            "wheelchair": "no"
          },
          "geometry": {
            "type": "Point",
            "coordinates": [
              13.0434811,
              47.8128775
            ]
          }
        },
        {
          "type": "Feature",
          "properties": {
            "id": "1692249296",
            "osm_type": "node",
            "lat": 47.8227484,
            "lon": 13.0414847,
            "addr:city": "Salzburg",
            "addr:country": "AT",
            "addr:housenumber": "5A",
            "addr:postcode": "5020",
            "addr:street": "Jakob-Haringer-Straße",
            "amenity": "police",
            "at_bev:addr_date": "2017-04-07",
            "name": "Polizeiwachstube Itzling"
          },
          "geometry": {
            "type": "Point",
            "coordinates": [
              13.0414847,
              47.8227484
            ]
          }
        },
        {
          "type": "Feature",
          "properties": {
            "id": "1818526353",
            "osm_type": "node",
            "lat": 47.86563,
            "lon": 13.3282581,
            "addr:city": "Mondsee",
            "addr:country": "AT",
            "addr:housenumber": "619",
            "addr:postcode": "5310",
            "addr:street": "Am Moos",
            "amenity": "police",
            "at_bev:addr_date": "2017-04-07",
            "contact:email": "PI-O-Mondsee@polizei.gv.at",
            "contact:fax": "+43 59133 41 67-109",
            "contact:phone": "+43 59133 41 67-100",
            "name": "Polizeiinspektion Mondsee"
          },
          "geometry": {
            "type": "Point",
            "coordinates": [
              13.3282581,
              47.86563
            ]
          }
        },
        {
          "type": "Feature",
          "properties": {
            "id": "2344705762",
            "osm_type": "node",
            "lat": 47.8181974,
            "lon": 13.215437,
            "addr:city": "Hof bei Salzburg",
            "addr:country": "AT",
            "addr:housenumber": "4",
            "addr:postcode": "5322",
            "addr:street": "Brunnfeldstraße",
            "amenity": "police",
            "name": "Polizeiinspektion Hof bei Salzburg"
          },
          "geometry": {
            "type": "Point",
            "coordinates": [
              13.215437,
              47.8181974
            ]
          }
        },
        {
          "type": "Feature",
          "properties": {
            "id": "3214435071",
            "osm_type": "node",
            "lat": 47.7362027,
            "lon": 13.0507869,
            "addr:city": "Anif",
            "addr:country": "AT",
            "addr:housenumber": "111",
            "addr:postcode": "5081",
            "addr:street": "Alpenstraße",
            "addr:suburb": "Neu-Anif",
            "amenity": "police",
            "at_bev:addr_date": "2017-04-07"
          },
          "geometry": {
            "type": "Point",
            "coordinates": [
              13.0507869,
              47.7362027
            ]
          }
        },
        {
          "type": "Feature",
          "properties": {
            "id": "5092120841",
            "osm_type": "node",
            "lat": 47.8649458,
            "lon": 13.1253389,
            "addr:city": "Eugendorf",
            "addr:country": "AT",
            "addr:housenumber": "6",
            "addr:postcode": "5301",
            "addr:street": "Kirchenstraße",
            "amenity": "police",
            "email": "PI-S-Eugendorf@polizei.gv.at",
            "name": "Polizeiinspektion Eugendorf",
            "phone": "+43 59133 5113",
            "website": "https://www.polizei.gv.at/"
          },
          "geometry": {
            "type": "Point",
            "coordinates": [
              13.1253389,
              47.8649458
            ]
          }
        },
        {
          "type": "Feature",
          "properties": {
            "id": "5775178510",
            "osm_type": "node",
            "lat": 47.793867,
            "lon": 13.0601489,
            "addr:city": "Salzburg",
            "addr:housenumber": "4",
            "addr:postcode": "5020",
            "addr:street": "Franz-Hinterholzer-Kai",
            "amenity": "police",
            "name": "Stadtpolizeikommando Salzburg"
          },
          "geometry": {
            "type": "Point",
            "coordinates": [
              13.0601489,
              47.793867
            ]
          }
        },
        {
          "type": "Feature",
          "properties": {
            "id": "5775178511",
            "osm_type": "node",
            "lat": 47.7939789,
            "lon": 13.0602881,
            "addr:city": "Salzburg",
            "addr:housenumber": "4",
            "addr:postcode": "5020",
            "addr:street": "Franz-Hinterholzer-Kai",
            "amenity": "police",
            "name": "Verkehrsinspektion Salzburg"
          },
          "geometry": {
            "type": "Point",
            "coordinates": [
              13.0602881,
              47.7939789
            ]
          }
        },
        {
          "type": "Feature",
          "properties": {
            "id": "7843845756",
            "osm_type": "node",
            "lat": 47.6971825,
            "lon": 13.1243658,
            "amenity": "police"
          },
          "geometry": {
            "type": "Point",
            "coordinates": [
              13.1243658,
              47.6971825
            ]
          }
        },
        {
          "type": "Feature",
          "properties": {
            "id": "459528894",
            "osm_type": "node",
            "lat": 47.9921166,
            "lon": 12.9561061,
            "addr:city": "Lamprechtshausen",
            "addr:country": "AT",
            "addr:housenumber": "1a",
            "addr:postcode": "5112",
            "addr:street": "Hauptstraße",
            "amenity": "police",
            "at_bev:addr_date": "2017-04-07",
            "name": "Polizei",
            "toilets:wheelchair": "no",
            "wheelchair": "no"
          },
          "geometry": {
            "type": "Point",
            "coordinates": [
              12.9561061,
              47.9921166
            ]
          }
        },
        {
          "type": "Feature",
          "properties": {
            "id": "1112907236",
            "osm_type": "node",
            "lat": 47.9394121,
            "lon": 12.9397972,
            "addr:city": "Oberndorf bei Salzburg",
            "addr:country": "AT",
            "addr:housenumber": "26",
            "addr:postcode": "5110",
            "addr:street": "Uferstraße",
            "amenity": "police",
            "name": "Polizeiinspektion Oberndorf bei Salzburg"
          },
          "geometry": {
            "type": "Point",
            "coordinates": [
              12.9397972,
              47.9394121
            ]
          }
        },
        {
          "type": "Feature",
          "properties": {
            "id": "1635275739",
            "osm_type": "node",
            "lat": 47.9663083,
            "lon": 12.5897677,
            "amenity": "police",
            "name": "Polizeistation Traunreut"
          },
          "geometry": {
            "type": "Point",
            "coordinates": [
              12.5897677,
              47.9663083
            ]
          }
        },
        {
          "type": "Feature",
          "properties": {
            "id": "12864185210",
            "osm_type": "node",
            "lat": 47.8746805,
            "lon": 12.6343481,
            "addr:city": "Traunstein",
            "addr:housenumber": "2",
            "addr:postcode": "83278",
            "addr:street": "Eugen-Rosner-Straße",
            "amenity": "police",
            "name": "Kriminalpolizeiinspektion Traunstein"
          },
          "geometry": {
            "type": "Point",
            "coordinates": [
              12.6343481,
              47.8746805
            ]
          }
        },
        {
          "type": "Feature",
          "properties": {
            "id": "459746493",
            "osm_type": "node",
            "lat": 47.9375953,
            "lon": 13.0726224,
            "addr:city": "Obertrum am See",
            "addr:country": "AT",
            "addr:housenumber": "2",
            "addr:postcode": "5162",
            "addr:street": "Haunsbergstraße",
            "amenity": "police",
            "at_bev:addr_date": "2017-04-07",
            "email": "PI-S-Obertrum@polizei.gv.at",
            "name": "Polizeiinspektion Obertrum am See",
            "phone": "059133 5123",
            "website": "https://www.polizei.gv.at/"
          },
          "geometry": {
            "type": "Point",
            "coordinates": [
              13.0726224,
              47.9375953
            ]
          }
        },
        {
          "type": "Feature",
          "properties": {
            "id": "574860860",
            "osm_type": "node",
            "lat": 47.9448382,
            "lon": 13.2243666,
            "amenity": "police",
            "name": "Polizeiinspektion"
          },
          "geometry": {
            "type": "Point",
            "coordinates": [
              13.2243666,
              47.9448382
            ]
          }
        },
        {
          "type": "Feature",
          "properties": {
            "id": "600201668",
            "osm_type": "node",
            "lat": 47.8954053,
            "lon": 13.1260671,
            "amenity": "police",
            "name": "Polizeiinspektion Seekirchen am Wallersee",
            "wheelchair": "no"
          },
          "geometry": {
            "type": "Point",
            "coordinates": [
              13.1260671,
              47.8954053
            ]
          }
        },
        {
          "type": "Feature",
          "properties": {
            "id": "767656593",
            "osm_type": "node",
            "lat": 47.9784516,
            "lon": 13.2543832,
            "amenity": "police",
            "at_bev:addr_date": "2017-04-07",
            "name": "Polizei",
            "wheelchair": "no"
          },
          "geometry": {
            "type": "Point",
            "coordinates": [
              13.2543832,
              47.9784516
            ]
          }
        },
        {
          "type": "Feature",
          "properties": {
            "id": "1589542573",
            "osm_type": "node",
            "lat": 48.0163115,
            "lon": 13.2487532,
            "addr:city": "Lengau",
            "addr:country": "AT",
            "addr:housenumber": "9",
            "addr:postcode": "5211",
            "addr:street": "Salzburger Straße",
            "amenity": "police",
            "at_bev:addr_date": "2017-04-07",
            "name": "Polizeistation Friedburg"
          },
          "geometry": {
            "type": "Point",
            "coordinates": [
              13.2487532,
              48.0163115
            ]
          }
        }
      ],
      "children": []
    },
    {
      "bbox": {
        "south": 48.02541825,
        "west": 11.438358999999998,
        "north": 48.355971499999995,
        "east": 12.392062499999998
      },
      "poiCount": 27,
      "leafCount": 27,
      "averagePosition": [
        11.61026172962963,
        48.16603406666667
      ],
      "data": [
        {
          "type": "Feature",
          "properties": {
            "id": "286509141",
            "osm_type": "node",
            "lat": 48.1178549,
            "lon": 11.5178703,
            "addr:city": "München",
            "addr:country": "DE",
            "addr:housenumber": "56",
            "addr:postcode": "81373",
            "addr:street": "Treffauerstraße",
            "amenity": "police",
            "name": "Polizeiinspektion München 15 (Sendling)",
            "ref": "PI 15",
            "url": "https://www.polizei.bayern.de/wir-ueber-uns/organisation/dienststellen/0900811050000.html",
            "wheelchair": "yes",
            "wheelchair:description": "Stufen"
          },
          "geometry": {
            "type": "Point",
            "coordinates": [
              11.5178703,
              48.1178549
            ]
          }
        },
        {
          "type": "Feature",
          "properties": {
            "id": "3329359394",
            "osm_type": "node",
            "lat": 48.1430103,
            "lon": 11.4989375,
            "addr:city": "München",
            "addr:housenumber": "1",
            "addr:postcode": "80687",
            "addr:street": "Rapotostraße",
            "amenity": "police",
            "fax": "+49 89 54652 128",
            "name": "Polizeiinspektion München 41 (Laim)",
            "phone": "+49 89 54652 0",
            "ref": "PI 41",
            "website": "https://www.polizei.bayern.de/wir-ueber-uns/organisation/dienststellen/0900814010000.html",
            "wheelchair": "no"
          },
          "geometry": {
            "type": "Point",
            "coordinates": [
              11.4989375,
              48.1430103
            ]
          }
        },
        {
          "type": "Feature",
          "properties": {
            "id": "4509075789",
            "osm_type": "node",
            "lat": 48.2669979,
            "lon": 11.4543722,
            "addr:housenumber": "1",
            "addr:street": "John-F.-Kennedy-Platz",
            "amenity": "police",
            "name": "VI. Bereitschaftspolizeiabteilung",
            "name:de": "VI. Bereitschaftspolizeiabteilung"
          },
          "geometry": {
            "type": "Point",
            "coordinates": [
              11.4543722,
              48.2669979
            ]
          }
        },
        {
          "type": "Feature",
          "properties": {
            "id": "4801275000",
            "osm_type": "node",
            "lat": 48.133207,
            "lon": 11.5273199,
            "addr:city": "München",
            "addr:country": "DE",
            "addr:housenumber": "24",
            "addr:postcode": "80686",
            "addr:street": "Hansastraße",
            "amenity": "police",
            "name": "Kriminalfachdezernat 1, 4 und 8 München",
            "police": "offices",
            "ref": "K 1;K 4;K 8"
          },
          "geometry": {
            "type": "Point",
            "coordinates": [
              11.5273199,
              48.133207
            ]
          }
        },
        {
          "type": "Feature",
          "properties": {
            "id": "6498825436",
            "osm_type": "node",
            "lat": 48.0924209,
            "lon": 11.5060929,
            "addr:city": "München",
            "addr:housenumber": "20",
            "addr:postcode": "81477",
            "addr:street": "Meglingerstraße",
            "amenity": "police",
            "check_date": "2025-08-23",
            "fax": "+49 89 78501-128",
            "name": "Polizeiinspektion München 29 (Forstenried)",
            "phone": "+49 89 78501-0",
            "ref": "PI 29",
            "website": "https://www.polizei.bayern.de/wir-ueber-uns/organisation/dienststellen/0900812090000.html"
          },
          "geometry": {
            "type": "Point",
            "coordinates": [
              11.5060929,
              48.0924209
            ]
          }
        },
        {
          "type": "Feature",
          "properties": {
            "id": "30564960",
            "osm_type": "node",
            "lat": 48.1693825,
            "lon": 11.5879408,
            "addr:city": "München",
            "addr:country": "DE",
            "addr:housenumber": "6",
            "addr:postcode": "80805",
            "addr:street": "Johann-Fichte-Straße",
            "amenity": "police",
            "check_date": "2024-12-07",
            "contact:fax": "+49 89 36056 128",
            "contact:phone": "+49 89 36056 0",
            "contact:website": "https://www.polizei.bayern.de/wir-ueber-uns/organisation/dienststellen/0900811030000.html",
            "name": "Polizeiinspektion München 13 (Schwabing)",
            "ref": "PI 13"
          },
          "geometry": {
            "type": "Point",
            "coordinates": [
              11.5879408,
              48.1693825
            ]
          }
        },
        {
          "type": "Feature",
          "properties": {
            "id": "82504558",
            "osm_type": "node",
            "lat": 48.2287736,
            "lon": 11.6709953,
            "addr:city": "Ismaning",
            "addr:country": "DE",
            "addr:housenumber": "1",
            "addr:postcode": "85737",
            "addr:street": "Leuchtenbergstraße",
            "amenity": "police",
            "contact:fax": "+49 89 96243128",
            "contact:phone": "+49 89 9624310",
            "name": "Polizeiinspektion München 26 (Ismaning)"
          },
          "geometry": {
            "type": "Point",
            "coordinates": [
              11.6709953,
              48.2287736
            ]
          }
        },
        {
          "type": "Feature",
          "properties": {
            "id": "146982804",
            "osm_type": "node",
            "lat": 48.164985,
            "lon": 11.8115368,
            "amenity": "police",
            "check_date": "2024-10-07",
            "name": "Polizeiinspektion Poing",
            "wheelchair": "no"
          },
          "geometry": {
            "type": "Point",
            "coordinates": [
              11.8115368,
              48.164985
            ]
          }
        },
        {
          "type": "Feature",
          "properties": {
            "id": "266317492",
            "osm_type": "node",
            "lat": 48.2524601,
            "lon": 11.561357,
            "addr:city": "Oberschleißheim",
            "addr:country": "DE",
            "addr:housenumber": "9",
            "addr:postcode": "85764",
            "addr:street": "Hofkurat-Diehl-Straße",
            "amenity": "police",
            "name": "Polizeiwache Oberschleißheim",
            "name:official": "Polizeiinspektion München 48 (Oberschleißheim)",
            "phone": "+49 89 31564 0",
            "wheelchair": "no",
            "wheelchair:description": "Zugang erster Stock über Treppe"
          },
          "geometry": {
            "type": "Point",
            "coordinates": [
              11.561357,
              48.2524601
            ]
          }
        },
        {
          "type": "Feature",
          "properties": {
            "id": "268265406",
            "osm_type": "node",
            "lat": 48.1387597,
            "lon": 11.6073629,
            "addr:city": "München",
            "addr:country": "DE",
            "addr:housenumber": "16",
            "addr:postcode": "81675",
            "addr:street": "Prinzregentenplatz",
            "amenity": "police",
            "check_date": "2025-02-02",
            "description": "Der Dienstbereich der Polizeiinspektion 22 umfasst die Stadtteile Bogenhausen, Denning, Daglfing, Englschalking, Johanneskirchen, Oberföhring, Steinhausen, Zamdorf und Haidhausen Nord.",
            "fax": "+49 89 457271-128",
            "name": "Polizeiinspektion München 22 (Bogenhausen)",
            "opening_hours": "24/7",
            "phone": "+49 89 457271-0",
            "ref": "PI 22",
            "website": "https://www.polizei.bayern.de/wir-ueber-uns/organisation/dienststellen/0900812020000.html",
            "wheelchair:description:de": "Kein barrierefreier Zugang, lediglich ein Treppenlift"
          },
          "geometry": {
            "type": "Point",
            "coordinates": [
              11.6073629,
              48.1387597
            ]
          }
        },
        {
          "type": "Feature",
          "properties": {
            "id": "298033598",
            "osm_type": "node",
            "lat": 48.1468594,
            "lon": 11.5739694,
            "addr:city": "München",
            "addr:country": "DE",
            "addr:housenumber": "20",
            "addr:postcode": "80333",
            "addr:street": "Türkenstraße",
            "amenity": "police",
            "name": "Polizeiinspektion München 12 (Maxvorstadt)",
            "ref": "PI 12",
            "wheelchair": "yes"
          },
          "geometry": {
            "type": "Point",
            "coordinates": [
              11.5739694,
              48.1468594
            ]
          }
        },
        {
          "type": "Feature",
          "properties": {
            "id": "303853097",
            "osm_type": "node",
            "lat": 48.1341243,
            "lon": 11.6872096,
            "addr:city": "München",
            "addr:housenumber": "12",
            "addr:postcode": "81829",
            "addr:street": "Werner-Eckert-Straße",
            "amenity": "police",
            "name": "Polizeiinspektion München 25 (Trudering-Riem)",
            "ref": "PI 25",
            "website": "https://www.polizei.bayern.de/wir-ueber-uns/organisation/dienststellen/0900812050000.html",
            "wheelchair": "no"
          },
          "geometry": {
            "type": "Point",
            "coordinates": [
              11.6872096,
              48.1341243
            ]
          }
        },
        {
          "type": "Feature",
          "properties": {
            "id": "342343152",
            "osm_type": "node",
            "lat": 48.1921786,
            "lon": 11.5702664,
            "addr:city": "München",
            "addr:country": "DE",
            "addr:housenumber": "139",
            "addr:postcode": "80937",
            "addr:street": "Knorrstraße",
            "amenity": "police",
            "check_date": "2024-05-28",
            "name": "Polizeiinspektion München 47 (Milbertshofen)",
            "ref": "PI 47"
          },
          "geometry": {
            "type": "Point",
            "coordinates": [
              11.5702664,
              48.1921786
            ]
          }
        },
        {
          "type": "Feature",
          "properties": {
            "id": "342989766",
            "osm_type": "node",
            "lat": 48.1043811,
            "lon": 11.582701,
            "addr:city": "München",
            "addr:country": "DE",
            "addr:housenumber": "2",
            "addr:postcode": "81549",
            "addr:street": "Chiemgaustraße",
            "amenity": "police",
            "fax": "+49 89 69345-278",
            "name": "Polizeiinspektion München 23 (Giesing)",
            "phone": "+49 89 69345-0",
            "ref": "PI 23",
            "website": "https://www.polizei.bayern.de/wir-ueber-uns/organisation/dienststellen/0900812030000.html",
            "wheelchair": "yes"
          },
          "geometry": {
            "type": "Point",
            "coordinates": [
              11.582701,
              48.1043811
            ]
          }
        },
        {
          "type": "Feature",
          "properties": {
            "id": "493928240",
            "osm_type": "node",
            "lat": 48.1040253,
            "lon": 11.6429028,
            "addr:city": "München",
            "addr:country": "DE",
            "addr:housenumber": "31",
            "addr:postcode": "81737",
            "addr:street": "Adenauerring",
            "amenity": "police",
            "name": "Polizeiinspektion München 24",
            "opening_hours": "24/7",
            "phone": "+49 89 630060",
            "ref": "PI 24",
            "website": "https://www.polizei.bayern.de/wir-ueber-uns/organisation/dienststellen/0900812040000.html",
            "wheelchair": "yes",
            "wheelchair:description": "Haupteingang ebenerdig, Toil. nicht bekannt"
          },
          "geometry": {
            "type": "Point",
            "coordinates": [
              11.6429028,
              48.1040253
            ]
          }
        },
        {
          "type": "Feature",
          "properties": {
            "id": "1673844108",
            "osm_type": "node",
            "lat": 48.1496066,
            "lon": 11.5372444,
            "addr:city": "München",
            "addr:country": "DE",
            "addr:housenumber": "38",
            "addr:postcode": "80637",
            "addr:street": "Landshuter Allee",
            "amenity": "police",
            "contact:fax": "+49 89 54265-128",
            "contact:phone": "+49 89 54265-0",
            "name": "Polizeiinspektion München 42 (Neuhausen)",
            "ref": "PI 42",
            "website": "https://www.polizei.bayern.de/wir-ueber-uns/organisation/dienststellen/0900814020000.html",
            "wheelchair": "limited"
          },
          "geometry": {
            "type": "Point",
            "coordinates": [
              11.5372444,
              48.1496066
            ]
          }
        },
        {
          "type": "Feature",
          "properties": {
            "id": "1686937429",
            "osm_type": "node",
            "lat": 48.1018236,
            "lon": 11.5834892,
            "addr:city": "München",
            "addr:country": "DE",
            "addr:housenumber": "210",
            "addr:postcode": "81549",
            "addr:street": "Tegernseer Landstraße",
            "amenity": "police",
            "name": "Kriminalpolizeiinspektion München-Ost",
            "wheelchair": "yes"
          },
          "geometry": {
            "type": "Point",
            "coordinates": [
              11.5834892,
              48.1018236
            ]
          }
        },
        {
          "type": "Feature",
          "properties": {
            "id": "1687035399",
            "osm_type": "node",
            "lat": 48.1238538,
            "lon": 11.5842211,
            "amenity": "police",
            "check_date": "2024-03-22",
            "name": "Polizeiinspektion München 21 (Au)",
            "ref": "PI 21",
            "website": "https://www.polizei.bayern.de/wir-ueber-uns/organisation/dienststellen/0900812010000.html",
            "wheelchair": "no"
          },
          "geometry": {
            "type": "Point",
            "coordinates": [
              11.5842211,
              48.1238538
            ]
          }
        },
        {
          "type": "Feature",
          "properties": {
            "id": "1943404776",
            "osm_type": "node",
            "lat": 48.1920328,
            "lon": 11.5710172,
            "addr:city": "München",
            "addr:housenumber": "139",
            "addr:street": "Knorrstraße",
            "amenity": "police",
            "check_date": "2024-05-28",
            "name": "Bayerisches Landesamt für Verfassungsschutz",
            "name:en": "Bavarian Office for the Protection of the Constitution",
            "police": "offices",
            "short_name": "BayLfV"
          },
          "geometry": {
            "type": "Point",
            "coordinates": [
              11.5710172,
              48.1920328
            ]
          }
        },
        {
          "type": "Feature",
          "properties": {
            "id": "2117582025",
            "osm_type": "node",
            "lat": 48.3143204,
            "lon": 11.6549165,
            "addr:city": "Neufahrn b. Freising",
            "addr:country": "DE",
            "addr:housenumber": "2",
            "addr:postcode": "85375",
            "addr:street": "Sepp-Manger-Straße",
            "amenity": "police",
            "name": "Polizeiinspektion Neufahrn bei Freising",
            "opening_hours": "24/7",
            "operator": "Polizei Bayern",
            "operator:wikidata": "Q471333"
          },
          "geometry": {
            "type": "Point",
            "coordinates": [
              11.6549165,
              48.3143204
            ]
          }
        },
        {
          "type": "Feature",
          "properties": {
            "id": "2499133706",
            "osm_type": "node",
            "lat": 48.2952792,
            "lon": 11.8925449,
            "addr:city": "Erding",
            "addr:country": "DE",
            "addr:housenumber": "44",
            "addr:postcode": "85435",
            "addr:street": "Bajuwarenstraße",
            "amenity": "police",
            "name": "Polizeiinspektion Erding",
            "wheelchair": "yes"
          },
          "geometry": {
            "type": "Point",
            "coordinates": [
              11.8925449,
              48.2952792
            ]
          }
        },
        {
          "type": "Feature",
          "properties": {
            "id": "3101121791",
            "osm_type": "node",
            "lat": 48.1318466,
            "lon": 11.5473329,
            "amenity": "police",
            "end_date": "2025-10-10",
            "name": "Wiesn-Wache",
            "note": "Node bitte nicht löschen, wird jährlich während des Oktoberfests benötigt",
            "start_date": "2023-09-16"
          },
          "geometry": {
            "type": "Point",
            "coordinates": [
              11.5473329,
              48.1318466
            ]
          }
        },
        {
          "type": "Feature",
          "properties": {
            "id": "3445677913",
            "osm_type": "node",
            "lat": 48.1368185,
            "lon": 11.5801921,
            "addr:city": "München",
            "addr:country": "DE",
            "addr:housenumber": "7",
            "addr:postcode": "80331",
            "addr:street": "Hochbrückenstraße",
            "amenity": "police",
            "fax": "+49 89 29080128",
            "name": "Polizeiinspektion München 11 (Altstadt)",
            "opening_hours": "24/7",
            "phone": "+49 89 290800",
            "ref": "PI 11",
            "toilets:wheelchair": "no",
            "wheelchair": "yes",
            "wikidata": "Q41175636"
          },
          "geometry": {
            "type": "Point",
            "coordinates": [
              11.5801921,
              48.1368185
            ]
          }
        },
        {
          "type": "Feature",
          "properties": {
            "id": "4111957489",
            "osm_type": "node",
            "lat": 48.0698914,
            "lon": 11.6501141,
            "addr:city": "Ottobrunn",
            "addr:country": "DE",
            "addr:housenumber": "4",
            "addr:postcode": "85521",
            "addr:street": "Finsinger Feld",
            "amenity": "police",
            "name": "Bundespolizeidirektion München - Diensthundeausbildungsanlage Ottobrunn",
            "operator": "Bundespolizei Deutschland"
          },
          "geometry": {
            "type": "Point",
            "coordinates": [
              11.6501141,
              48.0698914
            ]
          }
        },
        {
          "type": "Feature",
          "properties": {
            "id": "4801415223",
            "osm_type": "node",
            "lat": 48.1280149,
            "lon": 11.6050869,
            "addr:city": "München",
            "addr:country": "DE",
            "addr:housenumber": "10",
            "addr:postcode": "81667",
            "addr:street": "Orleansplatz",
            "amenity": "police",
            "email": "bpolr.muenchen@polizei.bund.de",
            "fax": "+49 89 6661697-16",
            "name": "Bundespolizeirevier München-Ost",
            "name:en": "Federal Police Station Munich-East",
            "operator": "Bundespolizei",
            "operator:short": "BPOL",
            "operator:wikidata": "Q56026",
            "operator:wikimedia_commons": "Category:Federal Police of Germany",
            "operator:wikipedia": "de:Bundespolizei (Deutschland)",
            "phone": "+49 89 6661697-0",
            "short_name": "BPOLR München-Ost",
            "website": "https://www.bundespolizei.de/SharedDocs/Webs/Web/Organisationseinheiten/BPOLR/Muenchen-Ost.html"
          },
          "geometry": {
            "type": "Point",
            "coordinates": [
              11.6050869,
              48.1280149
            ]
          }
        },
        {
          "type": "Feature",
          "properties": {
            "id": "8195190280",
            "osm_type": "node",
            "lat": 48.3057669,
            "lon": 11.9142391,
            "amenity": "police",
            "description": "Kriminalpolizeiinspektion Erding für:Wirtschaftskriminalität, pol. Staatsschutz, Cybercrime",
            "police": "offices"
          },
          "geometry": {
            "type": "Point",
            "coordinates": [
              11.9142391,
              48.3057669
            ]
          }
        },
        {
          "type": "Feature",
          "properties": {
            "id": "12899110103",
            "osm_type": "node",
            "lat": 48.1442445,
            "lon": 11.5558335,
            "addr:city": "München",
            "addr:housenumber": "1",
            "addr:postcode": "80335",
            "addr:street": "Denisstraße",
            "amenity": "police",
            "name": "Bundespolizeiinspektion München",
            "opening_hours": "24/7",
            "operator": "Bundespolizei",
            "operator:short": "BPOL",
            "operator:wikidata": "Q56026"
          },
          "geometry": {
            "type": "Point",
            "coordinates": [
              11.5558335,
              48.1442445
            ]
          }
        }
      ],
      "children": []
    },
    {
      "bbox": {
        "south": 48.02541825,
        "west": 12.392062499999998,
        "north": 48.355971499999995,
        "east": 13.345766
      },
      "poiCount": 7,
      "leafCount": 7,
      "averagePosition": [
        13.023809285714284,
        48.229548771428576
      ],
      "data": [
        {
          "type": "Feature",
          "properties": {
            "id": "298682928",
            "osm_type": "node",
            "lat": 48.24665,
            "lon": 12.5226266,
            "amenity": "police",
            "name": "Polizeiinspektion Mühldorf am Inn",
            "wheelchair": "yes"
          },
          "geometry": {
            "type": "Point",
            "coordinates": [
              12.5226266,
              48.24665
            ]
          }
        },
        {
          "type": "Feature",
          "properties": {
            "id": "246625223",
            "osm_type": "node",
            "lat": 48.074961,
            "lon": 12.9894645,
            "addr:city": "Eggelsberg",
            "addr:country": "AT",
            "addr:postcode": "5142",
            "amenity": "police",
            "contact:email": "PI-O-Eggelsberg@polizei.gv.at",
            "contact:phone": "+43 59 133 4205-100",
            "name": "Polizeiinspektion Eggelsberg",
            "website": "https://www.polizei.gv.at/ooe/lpd/dst/dienststellen.aspx?org=4550494B6B39372F6763633D"
          },
          "geometry": {
            "type": "Point",
            "coordinates": [
              12.9894645,
              48.074961
            ]
          }
        },
        {
          "type": "Feature",
          "properties": {
            "id": "6896442339",
            "osm_type": "node",
            "lat": 48.1587349,
            "lon": 12.8400739,
            "addr:city": "Hochburg-Ach",
            "addr:housenumber": "4",
            "addr:postcode": "5122",
            "addr:street": "Athalerstraße",
            "amenity": "police",
            "email": "PI-O-Ach-Hochburg@polizei.gv.at",
            "fax": "+4359133  4201-109",
            "name": "Polizeiinspektion Ach-Hochburg",
            "phone": "+4359133  4201-100"
          },
          "geometry": {
            "type": "Point",
            "coordinates": [
              12.8400739,
              48.1587349
            ]
          }
        },
        {
          "type": "Feature",
          "properties": {
            "id": "843122704",
            "osm_type": "node",
            "lat": 48.1962546,
            "lon": 13.1298539,
            "addr:city": "Mauerkirchen",
            "addr:country": "AT",
            "addr:housenumber": "45",
            "addr:postcode": "5270",
            "addr:street": "Bahnhofstraße",
            "amenity": "police",
            "name": "Polizeiinspektion Mauerkirchen",
            "phone": "+43 59133 4208 100",
            "website": "https://www.polizei.gv.at"
          },
          "geometry": {
            "type": "Point",
            "coordinates": [
              13.1298539,
              48.1962546
            ]
          }
        },
        {
          "type": "Feature",
          "properties": {
            "id": "957077206",
            "osm_type": "node",
            "lat": 48.3215969,
            "lon": 13.3358855,
            "addr:city": "Obernberg am Inn",
            "addr:country": "AT",
            "addr:housenumber": "36",
            "addr:postcode": "4982",
            "addr:street": "Marktplatz",
            "amenity": "police",
            "at_bev:addr_date": "2017-04-07",
            "name": "Posten Obernberg",
            "wheelchair": "yes"
          },
          "geometry": {
            "type": "Point",
            "coordinates": [
              13.3358855,
              48.3215969
            ]
          }
        },
        {
          "type": "Feature",
          "properties": {
            "id": "1627957614",
            "osm_type": "node",
            "lat": 48.2578519,
            "lon": 13.0354139,
            "addr:city": "Braunau am Inn",
            "addr:country": "AT",
            "addr:housenumber": "38",
            "addr:postcode": "5280",
            "addr:street": "Stadtplatz",
            "amenity": "police",
            "name": "Stadtpolizei Braunau am Inn",
            "wheelchair": "no"
          },
          "geometry": {
            "type": "Point",
            "coordinates": [
              13.0354139,
              48.2578519
            ]
          }
        },
        {
          "type": "Feature",
          "properties": {
            "id": "9045313294",
            "osm_type": "node",
            "lat": 48.3507921,
            "lon": 13.3133467,
            "amenity": "police"
          },
          "geometry": {
            "type": "Point",
            "coordinates": [
              13.3133467,
              48.3507921
            ]
          }
        }
      ],
      "children": []
    }
  ]
}