{
  "bbox": {
    "south": 48.355971499999995,
    "west": 13.345766,
    "north": 49.017078,
    "east": 15.253173
  },
  "poiCount": 64,
  "leafCount": 0,
  "averagePosition": [
    14.364560709374999,
    48.725938415624995
  ],
  "data": [],
  "children": [
    {
      "bbox": {
        "south": 48.355971499999995,
        "west": 13.345766,
        "north": 48.68652475,
        "east": 14.2994695
      },
      "poiCount": 19,
      "leafCount": 19,
      "averagePosition": [
        13.817238642105263,
        48.51895664210526
      ],
      "data": [
        {
          "type": "Feature",
          "properties": {
            "id": "694052888",
            "osm_type": "node",
            "lat": 48.3708229,
            "lon": 13.5669163,
            "addr:city": "Andorf",
            "addr:country": "AT",
            "addr:housenumber": "22",
            "addr:postcode": "4770",
            "addr:street": "Bahnhofstraße",
            "amenity": "police",
            "email": "PI-O-Andorf@polizei.gv.at",
            "fax": "+43 59133 4271-109",
            "name": "Polizeiinspektion Andorf",
            "phone": "+43 59 133/4271-110"
          },
          "geometry": {
            "type": "Point",
            "coordinates": [
              13.5669163,
              48.3708229
            ]
          }
        },
        {
          "type": "Feature",
          "properties": {
            "id": "1756515723",
            "osm_type": "node",
            "lat": 48.3674153,
            "lon": 14.0253824,
            "amenity": "police",
            "at_bev:addr_date": "2017-04-07"
          },
          "geometry": {
            "type": "Point",
            "coordinates": [
              14.0253824,
              48.3674153
            ]
          }
        },
        {
          "type": "Feature",
          "properties": {
            "id": "494240031",
            "osm_type": "node",
            "lat": 48.4573978,
            "lon": 13.4306504,
            "amenity": "police"
          },
          "geometry": {
            "type": "Point",
            "coordinates": [
              13.4306504,
              48.4573978
            ]
          }
        },
        {
          "type": "Feature",
          "properties": {
            "id": "626111417",
            "osm_type": "node",
            "lat": 48.5737757,
            "lon": 13.4235457,
            "addr:city": "Passau",
            "addr:country": "DE",
            "addr:housenumber": "18",
            "addr:postcode": "94036",
            "addr:street": "Regensburger Straße",
            "amenity": "police",
            "name": "Verkehrspolizeiinspektion / Wasserschutzpolizei",
            "phone": "+49-851-9511-0"
          },
          "geometry": {
            "type": "Point",
            "coordinates": [
              13.4235457,
              48.5737757
            ]
          }
        },
        {
          "type": "Feature",
          "properties": {
            "id": "1769461959",
            "osm_type": "node",
            "lat": 48.5205428,
            "lon": 13.4968392,
            "addr:city": "Schardenberg",
            "addr:country": "AT",
            "addr:housenumber": "2",
            "addr:postcode": "4784",
            "addr:street": "Fronwaldstraße",
            "amenity": "police",
            "contact:email": "PI-O-Schardenberg@polizei.gv.at",
            "contact:fax": "+43 59133 4276-109",
            "contact:phone": "+43 59133 42 76-100",
            "name": "Polizeiinspektion Schardenberg",
            "wheelchair": "no"
          },
          "geometry": {
            "type": "Point",
            "coordinates": [
              13.4968392,
              48.5205428
            ]
          }
        },
        {
          "type": "Feature",
          "properties": {
            "id": "2341662191",
            "osm_type": "node",
            "lat": 48.4570959,
            "lon": 13.4333635,
            "addr:city": "Schärding",
            "addr:country": "AT",
            "addr:housenumber": "3",
            "addr:postcode": "4780",
            "addr:street": "Bahnhofstraße",
            "addr:suburb": "Schärding Vorstadt",
            "amenity": "police",
            "at_bev:addr_date": "2018-04-02"
          },
          "geometry": {
            "type": "Point",
            "coordinates": [
              13.4333635,
              48.4570959
            ]
          }
        },
        {
          "type": "Feature",
          "properties": {
            "id": "8863090029",
            "osm_type": "node",
            "lat": 48.4120582,
            "lon": 13.4305774,
            "addr:city": "Suben",
            "addr:housenumber": "1",
            "addr:postcode": "4975",
            "addr:street": "Suben",
            "amenity": "police",
            "email": "PI-O-Suben@polizei.gv.at",
            "name": "Polizeiinspektion Suben",
            "phone": "+43591334277100",
            "url": "https://www.polizei.gv.at/ooe/lpd/dst/dienststellen.aspx?org=4B4341354E514E777969733D"
          },
          "geometry": {
            "type": "Point",
            "coordinates": [
              13.4305774,
              48.4120582
            ]
          }
        },
        {
          "type": "Feature",
          "properties": {
            "id": "306506374",
            "osm_type": "node",
            "lat": 48.6467182,
            "lon": 13.9715834,
            "addr:city": "Aigen-Schlägl",
            "addr:country": "AT",
            "addr:housenumber": "17",
            "addr:postcode": "4160",
            "addr:street": "Marktplatz",
            "amenity": "police",
            "at_bev:addr_date": "2017-04-07"
          },
          "geometry": {
            "type": "Point",
            "coordinates": [
              13.9715834,
              48.6467182
            ]
          }
        },
        {
          "type": "Feature",
          "properties": {
            "id": "308340794",
            "osm_type": "node",
            "lat": 48.5744982,
            "lon": 13.9914395,
            "addr:city": "Rohrbach-Berg",
            "addr:country": "AT",
            "addr:housenumber": "1",
            "addr:postcode": "4150",
            "addr:street": "Am Teich",
            "amenity": "police",
            "at_bev:addr_date": "2017-04-07",
            "name": "Bezirkspolizeikommando",
            "wheelchair": "yes"
          },
          "geometry": {
            "type": "Point",
            "coordinates": [
              13.9914395,
              48.5744982
            ]
          }
        },
        {
          "type": "Feature",
          "properties": {
            "id": "1644188494",
            "osm_type": "node",
            "lat": 48.5022387,
            "lon": 13.7344212,
            "amenity": "police",
            "name": "Polizeiinspektion Engelhartszell"
          },
          "geometry": {
            "type": "Point",
            "coordinates": [
              13.7344212,
              48.5022387
            ]
          }
        },
        {
          "type": "Feature",
          "properties": {
            "id": "1992655168",
            "osm_type": "node",
            "lat": 48.4842474,
            "lon": 13.9992251,
            "addr:city": "Neufelden",
            "addr:country": "AT",
            "addr:housenumber": "40",
            "addr:place": "Markt",
            "addr:postcode": "4120",
            "amenity": "police",
            "at_bev:addr_date": "2017-04-07",
            "name": "Polizeiinspektion Neufelden"
          },
          "geometry": {
            "type": "Point",
            "coordinates": [
              13.9992251,
              48.4842474
            ]
          }
        },
        {
          "type": "Feature",
          "properties": {
            "id": "7560657491",
            "osm_type": "node",
            "lat": 48.4830793,
            "lon": 13.5604911,
            "addr:city": "Münzkirchen",
            "addr:country": "AT",
            "addr:housenumber": "8",
            "addr:postcode": "4792",
            "addr:street": "Molkereistraße",
            "amenity": "police",
            "at_bev:addr_date": "2018-04-02",
            "contact:email": "PI-O-Muenzkirchen@polizei.gv.at",
            "contact:fax": "+43 59133 4273-109",
            "contact:phone": "+43 59133 4273-100",
            "name": "Polizeiinspektion Münzkirchen"
          },
          "geometry": {
            "type": "Point",
            "coordinates": [
              13.5604911,
              48.4830793
            ]
          }
        },
        {
          "type": "Feature",
          "properties": {
            "id": "10763353314",
            "osm_type": "node",
            "lat": 48.6197385,
            "lon": 13.8918972,
            "addr:city": "Peilstein im Mühlkreis",
            "addr:housenumber": "3/1",
            "addr:postcode": "4153",
            "addr:street": "Richterweg",
            "amenity": "police",
            "name": "Polizeiinspektion Peilstein",
            "operator": "Polizei"
          },
          "geometry": {
            "type": "Point",
            "coordinates": [
              13.8918972,
              48.6197385
            ]
          }
        },
        {
          "type": "Feature",
          "properties": {
            "id": "11256857520",
            "osm_type": "node",
            "lat": 48.6372221,
            "lon": 13.6334861,
            "addr:city": "Hauzenberg",
            "addr:country": "DE",
            "addr:housenumber": "1",
            "addr:postcode": "94051",
            "addr:street": "Langfeld",
            "amenity": "police",
            "name": "Polizeiinspektion Hauzenberg"
          },
          "geometry": {
            "type": "Point",
            "coordinates": [
              13.6334861,
              48.6372221
            ]
          }
        },
        {
          "type": "Feature",
          "properties": {
            "id": "475763293",
            "osm_type": "node",
            "lat": 48.54454,
            "lon": 14.1435129,
            "amenity": "police",
            "name": "Polizei Helfenberg"
          },
          "geometry": {
            "type": "Point",
            "coordinates": [
              14.1435129,
              48.54454
            ]
          }
        },
        {
          "type": "Feature",
          "properties": {
            "id": "736887713",
            "osm_type": "node",
            "lat": 48.5194036,
            "lon": 14.295269,
            "addr:city": "Bad Leonfelden",
            "addr:country": "AT",
            "addr:housenumber": "26",
            "addr:postcode": "4190",
            "addr:street": "Linzer Straße",
            "amenity": "police",
            "name": "Polizeiposten Bad Leonfelden"
          },
          "geometry": {
            "type": "Point",
            "coordinates": [
              14.295269,
              48.5194036
            ]
          }
        },
        {
          "type": "Feature",
          "properties": {
            "id": "1147984853",
            "osm_type": "node",
            "lat": 48.4137193,
            "lon": 14.0402062,
            "addr:city": "St. Martin im Mühlkreis",
            "addr:country": "AT",
            "addr:housenumber": "9",
            "addr:postcode": "4113",
            "addr:street": "Landshaager Straße",
            "amenity": "police"
          },
          "geometry": {
            "type": "Point",
            "coordinates": [
              14.0402062,
              48.4137193
            ]
          }
        },
        {
          "type": "Feature",
          "properties": {
            "id": "2064591738",
            "osm_type": "node",
            "lat": 48.6359151,
            "lon": 14.2261415,
            "addr:city": "Lipno nad Vltavou",
            "addr:postcode": "38278",
            "amenity": "police"
          },
          "geometry": {
            "type": "Point",
            "coordinates": [
              14.2261415,
              48.6359151
            ]
          }
        },
        {
          "type": "Feature",
          "properties": {
            "id": "9929311603",
            "osm_type": "node",
            "lat": 48.6397472,
            "lon": 14.2325861,
            "addr:city": "Lipno nad Vltavou",
            "addr:housenumber": "75",
            "addr:postcode": "38278",
            "amenity": "police",
            "name": "Policie ČR - Obvodní oddělení Lipno nad Vltavou",
            "phone": "+420 974 811 111",
            "website": "https://www.policie.cz"
          },
          "geometry": {
            "type": "Point",
            "coordinates": [
              14.2325861,
              48.6397472
            ]
          }
        }
      ],
      "children": []
    },
    {
      "bbox": {
        "south": 48.355971499999995,
        "west": 14.2994695,
        "north": 48.68652475,
        "east": 15.253173
      },
      "poiCount": 9,
      "leafCount": 9,
      "averagePosition": [
        14.659509155555554,
        48.541193288888884
      ],
      "data": [
        {
          "type": "Feature",
          "properties": {
            "id": "305920193",
            "osm_type": "node",
            "lat": 48.5079576,
            "lon": 14.5023753,
            "addr:city": "Freistadt",
            "addr:housenumber": "9",
            "addr:postcode": "4240",
            "addr:street": "Linzer Straße",
            "amenity": "police",
            "check_date": "2025-04-15",
            "contact:email": "BPK-O-Freistadt@polizei.gv.at",
            "contact:fax": "+43 59133 4300-309",
            "contact:phone": "+43 59133 4300-305",
            "name": "Bezirkspolizeikommando Freistadt",
            "wheelchair": "yes"
          },
          "geometry": {
            "type": "Point",
            "coordinates": [
              14.5023753,
              48.5079576
            ]
          }
        },
        {
          "type": "Feature",
          "properties": {
            "id": "573651435",
            "osm_type": "node",
            "lat": 48.4318886,
            "lon": 14.2998576,
            "addr:city": "Hellmonsödt",
            "addr:housenumber": "1",
            "addr:postcode": "4202",
            "addr:street": "Marktplatz",
            "amenity": "police",
            "name": "Polizeiinspektion Hellmonsödt",
            "wheelchair": "yes"
          },
          "geometry": {
            "type": "Point",
            "coordinates": [
              14.2998576,
              48.4318886
            ]
          }
        },
        {
          "type": "Feature",
          "properties": {
            "id": "2408436119",
            "osm_type": "node",
            "lat": 48.6171187,
            "lon": 14.3132853,
            "addr:city": "Vyšší Brod",
            "addr:conscriptionnumber": "22",
            "addr:country": "CZ",
            "addr:housenumber": "22",
            "addr:postcode": "38273",
            "addr:street": "5. května",
            "amenity": "police",
            "ref:ruian:addr": "8752737",
            "source:addr": "cuzk:ruian"
          },
          "geometry": {
            "type": "Point",
            "coordinates": [
              14.3132853,
              48.6171187
            ]
          }
        },
        {
          "type": "Feature",
          "properties": {
            "id": "11215399344",
            "osm_type": "node",
            "lat": 48.6187138,
            "lon": 14.3094144,
            "amenity": "police"
          },
          "geometry": {
            "type": "Point",
            "coordinates": [
              14.3094144,
              48.6187138
            ]
          }
        },
        {
          "type": "Feature",
          "properties": {
            "id": "582476605",
            "osm_type": "node",
            "lat": 48.5739198,
            "lon": 14.9589832,
            "addr:city": "Groß Gerungs",
            "addr:country": "AT",
            "addr:housenumber": "37A",
            "addr:postcode": "3920",
            "addr:street": "Hauptplatz",
            "amenity": "police",
            "at_bev:addr_date": "2017-04-07",
            "contact:email": "pi-n-gross-gerungs@polizei.gv.at",
            "contact:fax": "+43 59133 3474-109",
            "contact:phone": "+43 59133 3474-100",
            "name": "Polizeiinspektion Groß-Gerungs",
            "operator": "Landespolizeidirektion Niederösterreich",
            "short_name": "PI Groß Gerungs",
            "website": "https://www.polizei.gv.at/noe/lpd/dst/dienststellen.aspx?org=4C2B4F56544849783833493D"
          },
          "geometry": {
            "type": "Point",
            "coordinates": [
              14.9589832,
              48.5739198
            ]
          }
        },
        {
          "type": "Feature",
          "properties": {
            "id": "1018126643",
            "osm_type": "node",
            "lat": 48.4757775,
            "lon": 14.7258677,
            "addr:city": "Weitersfelden",
            "addr:country": "AT",
            "addr:housenumber": "71",
            "addr:place": "Weitersfelden",
            "addr:postcode": "4272",
            "amenity": "police",
            "at_bev:addr_date": "2017-04-07",
            "contact:email": "PI-O-Weitersfelden@polizei.gv.at",
            "contact:fax": "+43 59133 4311-109",
            "contact:phone": "+43 59133 4311-100"
          },
          "geometry": {
            "type": "Point",
            "coordinates": [
              14.7258677,
              48.4757775
            ]
          }
        },
        {
          "type": "Feature",
          "properties": {
            "id": "2368501810",
            "osm_type": "node",
            "lat": 48.6297503,
            "lon": 14.8260245,
            "addr:city": "Bad Großpertholz",
            "addr:housenumber": "4",
            "addr:place": "Bad Großpertholz",
            "addr:postcode": "3972",
            "amenity": "police",
            "contact:email": "pi-n-bad-grosspertholz@polizei.gv.at",
            "contact:fax": "+43 59133 3401-109",
            "contact:phone": "+43 59133 3401-100",
            "name": "Polizeiinspektion Bad Großpertholz",
            "operator": "Landespolizeidirektion Niederösterreich",
            "short_name": "PI Bad Großpertholz",
            "website": "https://www.polizei.gv.at/noe/lpd/dst/dienststellen.aspx?org=4935633669617A596D32383D"
          },
          "geometry": {
            "type": "Point",
            "coordinates": [
              14.8260245,
              48.6297503
            ]
          }
        },
        {
          "type": "Feature",
          "properties": {
            "id": "3921887168",
            "osm_type": "node",
            "lat": 48.4068183,
            "lon": 14.8358905,
            "addr:city": "Königswiesen",
            "addr:country": "AT",
            "addr:housenumber": "1",
            "addr:postcode": "4280",
            "addr:street": "Florianiweg",
            "amenity": "police",
            "at_bev:addr_date": "2017-04-07"
          },
          "geometry": {
            "type": "Point",
            "coordinates": [
              14.8358905,
              48.4068183
            ]
          }
        },
        {
          "type": "Feature",
          "properties": {
            "id": "476701461",
            "osm_type": "node",
            "lat": 48.608795,
            "lon": 15.1638839,
            "addr:city": "Zwettl",
            "addr:country": "AT",
            "addr:housenumber": "17",
            "addr:postcode": "3910",
            "addr:street": "Weitraer Straße",
            "alt_name": "Polizei",
            "amenity": "police",
            "at_bev:addr_date": "2017-04-07",
            "check_date": "2024-03-09",
            "contact:email": "pi-n-zwettl@polizei.gv.at",
            "contact:fax": "+43 59133 3470-109",
            "contact:phone": "+43 59133 3470-100",
            "fixme": "exact position",
            "name": "Polizeiinspektion Zwettl",
            "operator": "Landespolizeidirektion Niederösterreich",
            "operator:wikidata": "Q131363945",
            "short_name": "PI Zwettl",
            "website": "https://www.polizei.gv.at/noe/lpd/dst/dienststellen.aspx?org=62354D716C4E492B482B383D"
          },
          "geometry": {
            "type": "Point",
            "coordinates": [
              15.1638839,
              48.608795
            ]
          }
        }
      ],
      "children": []
    },
    {
      "bbox": {
        "south": 48.68652475,
        "west": 13.345766,
        "north": 49.017078,
        "east": 14.2994695
      },
      "poiCount": 5,
      "leafCount": 5,
      "averagePosition": [
        13.9375406,
        48.84771576
      ],
      "data": [
        {
          "type": "Feature",
          "properties": {
            "id": "385250002",
            "osm_type": "node",
            "lat": 48.7309442,
            "lon": 13.6074418,
            "amenity": "police",
            "check_date": "2025-02-01",
            "name": "Polizeistation Waldkirchen"
          },
          "geometry": {
            "type": "Point",
            "coordinates": [
              13.6074418,
              48.7309442
            ]
          }
        },
        {
          "type": "Feature",
          "properties": {
            "id": "339922426",
            "osm_type": "node",
            "lat": 48.7647642,
            "lon": 14.0320209,
            "addr:city": "Horní Planá",
            "addr:conscriptionnumber": "178",
            "addr:housenumber": "178",
            "addr:place": "Horní Planá",
            "addr:postcode": "38226",
            "addr:street": "Jiráskova",
            "amenity": "police",
            "ref:ruian:addr": "12953491",
            "source": "cuzk:ruian"
          },
          "geometry": {
            "type": "Point",
            "coordinates": [
              14.0320209,
              48.7647642
            ]
          }
        },
        {
          "type": "Feature",
          "properties": {
            "id": "7110492162",
            "osm_type": "node",
            "lat": 48.7784541,
            "lon": 14.2946143,
            "amenity": "police",
            "name": "Obvodní oddělení policie ČR"
          },
          "geometry": {
            "type": "Point",
            "coordinates": [
              14.2946143,
              48.7784541
            ]
          }
        },
        {
          "type": "Feature",
          "properties": {
            "id": "506167277",
            "osm_type": "node",
            "lat": 48.9568202,
            "lon": 13.7584294,
            "amenity": "police"
          },
          "geometry": {
            "type": "Point",
            "coordinates": [
              13.7584294,
              48.9568202
            ]
          }
        },
        {
          "type": "Feature",
          "properties": {
            "id": "3373326675",
            "osm_type": "node",
            "lat": 49.0075961,
            "lon": 13.9951966,
            "amenity": "police"
          },
          "geometry": {
            "type": "Point",
            "coordinates": [
              13.9951966,
              49.0075961
            ]
          }
        }
      ],
      "children": []
    },
    {
      "bbox": {
        "south": 48.68652475,
        "west": 14.2994695,
        "north": 49.017078,
        "east": 15.253173
      },
      "poiCount": 31,
      "leafCount": 31,
      "averagePosition": [
        14.683260187096774,
        48.886792387096776
      ],
      "data": [
        {
          "type": "Feature",
          "properties": {
            "id": "2461031403",
            "osm_type": "node",
            "lat": 48.7358126,
            "lon": 14.4830425,
            "addr:city": "Kaplice",
            "addr:housenumber": "311",
            "addr:postcode": "38241",
            "addr:street": "Omlenická",
            "amenity": "police",
            "name": "Policie ČR - Obvodní oddělení Kaplice"
          },
          "geometry": {
            "type": "Point",
            "coordinates": [
              14.4830425,
              48.7358126
            ]
          }
        },
        {
          "type": "Feature",
          "properties": {
            "id": "2782502699",
            "osm_type": "node",
            "lat": 48.8293104,
            "lon": 14.4628801,
            "addr:city": "Velešín",
            "addr:housenumber": "160",
            "addr:postcode": "38232",
            "addr:street": "náměstí J. V. Kamarýta",
            "amenity": "police",
            "source": "survey"
          },
          "geometry": {
            "type": "Point",
            "coordinates": [
              14.4628801,
              48.8293104
            ]
          }
        },
        {
          "type": "Feature",
          "properties": {
            "id": "7968429172",
            "osm_type": "node",
            "lat": 48.7389638,
            "lon": 14.4942825,
            "amenity": "police",
            "check_date": "2025-08-22",
            "email": "mestska.policie@mestokaplice.cz",
            "name": "Městská policie Kaplice",
            "phone": "+420 380 303 139",
            "website": "https://www.mestokaplice.cz"
          },
          "geometry": {
            "type": "Point",
            "coordinates": [
              14.4942825,
              48.7389638
            ]
          }
        },
        {
          "type": "Feature",
          "properties": {
            "id": "9518194948",
            "osm_type": "node",
            "lat": 48.8120146,
            "lon": 14.3230016,
            "addr:city": "Český Krumlov",
            "addr:postcode": "381 01",
            "addr:street": "Nemocniční",
            "amenity": "police",
            "check_date": "2024-06-11",
            "email": "info@mpckrumlov.eu",
            "fax": "+420 380 766 810",
            "level": "0",
            "name": "Městská policie",
            "phone": "+420 380 766 308",
            "polling_station": "no",
            "website": "http://www.mpckrumlov.eu/",
            "wheelchair": "limited"
          },
          "geometry": {
            "type": "Point",
            "coordinates": [
              14.3230016,
              48.8120146
            ]
          }
        },
        {
          "type": "Feature",
          "properties": {
            "id": "12810148810",
            "osm_type": "node",
            "lat": 48.8295106,
            "lon": 14.45837,
            "amenity": "police",
            "name": "Oddělení Velešín"
          },
          "geometry": {
            "type": "Point",
            "coordinates": [
              14.45837,
              48.8295106
            ]
          }
        },
        {
          "type": "Feature",
          "properties": {
            "id": "465210564",
            "osm_type": "node",
            "lat": 48.7009196,
            "lon": 14.8957444,
            "addr:city": "Weitra",
            "addr:country": "AT",
            "addr:housenumber": "81",
            "addr:postcode": "3970",
            "addr:street": "Breite Gasse",
            "amenity": "police",
            "at_bev:addr_date": "2017-04-07",
            "check_date": "2025-09-06",
            "contact:fax": "+43 59133 3409-109",
            "contact:phone": "+43 59133 3409-100",
            "name": "Polizeiinspektion Weitra",
            "operator": "Landespolizeidirektion Niederösterreich",
            "short_name": "PI Weitra",
            "website": "https://www.polizei.gv.at/noe/lpd/dst/dienststellen.aspx?org=524D4C6A4E466B6D314F343D",
            "wheelchair": "no"
          },
          "geometry": {
            "type": "Point",
            "coordinates": [
              14.8957444,
              48.7009196
            ]
          }
        },
        {
          "type": "Feature",
          "properties": {
            "id": "2431421543",
            "osm_type": "node",
            "lat": 48.7683167,
            "lon": 14.9639051,
            "amenity": "police",
            "name": "Městská policie",
            "source": "survey"
          },
          "geometry": {
            "type": "Point",
            "coordinates": [
              14.9639051,
              48.7683167
            ]
          }
        },
        {
          "type": "Feature",
          "properties": {
            "id": "6726329740",
            "osm_type": "node",
            "lat": 48.7670222,
            "lon": 14.9777672,
            "addr:city": "Gmünd",
            "addr:country": "AT",
            "addr:housenumber": "52",
            "addr:postcode": "3950",
            "addr:street": "Weitraer Straße",
            "amenity": "police",
            "contact:email": "pi-n-gmuend@polizei.gv.at",
            "contact:fax": "+43 59133 3400-109",
            "contact:phone": "+43 59133 3400-100",
            "name": "Polizeiinspektion Gmünd",
            "operator": "Landespolizeidirektion Niederösterreich",
            "short_name": "PI Gmünd",
            "website": "https://www.polizei.gv.at/noe/lpd/dst/dienststellen.aspx?org=484F54357542747A4D4A633D"
          },
          "geometry": {
            "type": "Point",
            "coordinates": [
              14.9777672,
              48.7670222
            ]
          }
        },
        {
          "type": "Feature",
          "properties": {
            "id": "7820239082",
            "osm_type": "node",
            "lat": 48.8398371,
            "lon": 14.6373656,
            "amenity": "police",
            "name": "Policie ČR - Obvodní oddělení Trhové Sviny"
          },
          "geometry": {
            "type": "Point",
            "coordinates": [
              14.6373656,
              48.8398371
            ]
          }
        },
        {
          "type": "Feature",
          "properties": {
            "id": "10002106772",
            "osm_type": "node",
            "lat": 48.7747784,
            "lon": 14.9816007,
            "addr:city": "Gmünd",
            "addr:country": "AT",
            "addr:housenumber": "1",
            "addr:postcode": "3950",
            "addr:street": "Grenzgasse",
            "amenity": "police",
            "contact:email": "pi-n-gmuend-fgp@polizei.gv.at",
            "contact:phone": "+43 59133 3402-100",
            "name": "Polizeiinspektion Gmünd - FGP",
            "operator": "Landespolizeidirektion Niederösterreich",
            "short_name": "PI Gmünd FGP",
            "website": "https://www.polizei.gv.at/noe/lpd/dst/dienststellen.aspx?org=3334434B627A7948664F733D"
          },
          "geometry": {
            "type": "Point",
            "coordinates": [
              14.9816007,
              48.7747784
            ]
          }
        },
        {
          "type": "Feature",
          "properties": {
            "id": "12592563795",
            "osm_type": "node",
            "lat": 48.76952,
            "lon": 14.9585399,
            "amenity": "police"
          },
          "geometry": {
            "type": "Point",
            "coordinates": [
              14.9585399,
              48.76952
            ]
          }
        },
        {
          "type": "Feature",
          "properties": {
            "id": "1365534885",
            "osm_type": "node",
            "lat": 48.8657539,
            "lon": 15.1223648,
            "addr:city": "Heidenreichstein",
            "addr:country": "AT",
            "addr:housenumber": "1",
            "addr:postcode": "3860",
            "addr:street": "Stadtplatz",
            "alt_name": "Polizei",
            "amenity": "police",
            "at_bev:addr_date": "2017-04-07",
            "contact:email": "pi-n-heidenreichstein@polizei.gv.at",
            "contact:fax": "+43 59133 3404-109",
            "contact:phone": "+43 59133 3404-100",
            "name": "Polizeiinspektion Heidenreichstein",
            "operator": "Landespolizeidirektion Niederösterreich",
            "short_name": "PI Heidenreichstein",
            "website": "https://www.polizei.gv.at/noe/lpd/dst/dienststellen.aspx?org=564F7842704A32416F334D3D"
          },
          "geometry": {
            "type": "Point",
            "coordinates": [
              15.1223648,
              48.8657539
            ]
          }
        },
        {
          "type": "Feature",
          "properties": {
            "id": "1933419005",
            "osm_type": "node",
            "lat": 48.7590127,
            "lon": 15.1839928,
            "addr:city": "Vitis",
            "addr:country": "AT",
            "addr:housenumber": "16",
            "addr:postcode": "3902",
            "addr:street": "Hauptplatz",
            "amenity": "police",
            "at_bev:addr_date": "2017-04-07",
            "contact:email": "pi-n-vitis@polizei.gv.at",
            "contact:fax": "+43 59133 3466-109",
            "contact:phone": "+43 59133 3466-100",
            "name": "Polizeiinspektion Vitis",
            "short_name": "PI Vitis",
            "website": "https://www.polizei.gv.at/noe/lpd/dst/dienststellen.aspx?org=47636979366E7959494B6F3D",
            "wheelchair": "no"
          },
          "geometry": {
            "type": "Point",
            "coordinates": [
              15.1839928,
              48.7590127
            ]
          }
        },
        {
          "type": "Feature",
          "properties": {
            "id": "4126352362",
            "osm_type": "node",
            "lat": 48.7930057,
            "lon": 15.0720234,
            "addr:city": "Schrems",
            "addr:country": "AT",
            "addr:housenumber": "21",
            "addr:postcode": "3943",
            "addr:street": "Hauptplatz",
            "amenity": "police",
            "contact:email": "pi-n-schrems@polizei.gv.at",
            "contact:fax": "+43 59 133 3408-109",
            "contact:phone": "+43 59 133 3408-100",
            "name": "Polizeiinspektion Schrems",
            "operator": "Landespolizeidirektion Niederösterreich",
            "short_name": "PI Schrems",
            "website": "https://www.polizei.gv.at/noe/lpd/dst/dienststellen.aspx?org=704B453137715A384D6F453D",
            "wheelchair": "no"
          },
          "geometry": {
            "type": "Point",
            "coordinates": [
              15.0720234,
              48.7930057
            ]
          }
        },
        {
          "type": "Feature",
          "properties": {
            "id": "339916429",
            "osm_type": "node",
            "lat": 48.9227158,
            "lon": 14.442873,
            "amenity": "police",
            "check_date": "2025-09-16",
            "name": "Policie ČR - Obvodní oddělení Boršov nad Vltavou"
          },
          "geometry": {
            "type": "Point",
            "coordinates": [
              14.442873,
              48.9227158
            ]
          }
        },
        {
          "type": "Feature",
          "properties": {
            "id": "2485125536",
            "osm_type": "node",
            "lat": 48.9744253,
            "lon": 14.4854807,
            "amenity": "police",
            "check_date": "2024-12-16",
            "name": "Policie ČR",
            "source": "survey"
          },
          "geometry": {
            "type": "Point",
            "coordinates": [
              14.4854807,
              48.9744253
            ]
          }
        },
        {
          "type": "Feature",
          "properties": {
            "id": "2485127786",
            "osm_type": "node",
            "lat": 48.9743589,
            "lon": 14.4844502,
            "amenity": "police",
            "name": "Policie ČR",
            "source": "survey"
          },
          "geometry": {
            "type": "Point",
            "coordinates": [
              14.4844502,
              48.9743589
            ]
          }
        },
        {
          "type": "Feature",
          "properties": {
            "id": "3870431479",
            "osm_type": "node",
            "lat": 48.9796757,
            "lon": 14.4740673,
            "addr:city": "České Budějovice",
            "addr:country": "CZ",
            "addr:housenumber": "1594/1",
            "addr:postcode": "37001",
            "addr:street": "tř. 28. října",
            "amenity": "police",
            "check_date": "2024-08-26",
            "name": "Policie ČR - Obvodní oddělení České Budějovice - město"
          },
          "geometry": {
            "type": "Point",
            "coordinates": [
              14.4740673,
              48.9796757
            ]
          }
        },
        {
          "type": "Feature",
          "properties": {
            "id": "3886060690",
            "osm_type": "node",
            "lat": 48.9788617,
            "lon": 14.4714073,
            "amenity": "police",
            "name": "Městská policie České Budějovice"
          },
          "geometry": {
            "type": "Point",
            "coordinates": [
              14.4714073,
              48.9788617
            ]
          }
        },
        {
          "type": "Feature",
          "properties": {
            "id": "4402052498",
            "osm_type": "node",
            "lat": 48.9818566,
            "lon": 14.4712319,
            "amenity": "police"
          },
          "geometry": {
            "type": "Point",
            "coordinates": [
              14.4712319,
              48.9818566
            ]
          }
        },
        {
          "type": "Feature",
          "properties": {
            "id": "4783336654",
            "osm_type": "node",
            "lat": 48.9851713,
            "lon": 14.4319448,
            "amenity": "police",
            "name": "Policie ČR - Obvodní oddělení České Budějovice - Čtyři Dvory"
          },
          "geometry": {
            "type": "Point",
            "coordinates": [
              14.4319448,
              48.9851713
            ]
          }
        },
        {
          "type": "Feature",
          "properties": {
            "id": "7820239083",
            "osm_type": "node",
            "lat": 48.9735332,
            "lon": 14.4974642,
            "amenity": "police",
            "name": "Policie ČR - Obvodní oddělení České Budějovice - Suché Vrbné"
          },
          "geometry": {
            "type": "Point",
            "coordinates": [
              14.4974642,
              48.9735332
            ]
          }
        },
        {
          "type": "Feature",
          "properties": {
            "id": "7820239084",
            "osm_type": "node",
            "lat": 48.982938,
            "lon": 14.4639787,
            "amenity": "police",
            "name": "Policie ČR - Oddělení hlídkové služby České Budějovice"
          },
          "geometry": {
            "type": "Point",
            "coordinates": [
              14.4639787,
              48.982938
            ]
          }
        },
        {
          "type": "Feature",
          "properties": {
            "id": "12224963439",
            "osm_type": "node",
            "lat": 48.9746493,
            "lon": 14.4879136,
            "amenity": "police",
            "name": "Policie ČR – Oddělení hlídkové služby České Budějovice",
            "phone": "+420 974 226 420"
          },
          "geometry": {
            "type": "Point",
            "coordinates": [
              14.4879136,
              48.9746493
            ]
          }
        },
        {
          "type": "Feature",
          "properties": {
            "id": "13109216677",
            "osm_type": "node",
            "lat": 48.9059504,
            "lon": 14.3079996,
            "addr:city": "Křemže",
            "addr:postcode": "382 03",
            "addr:street": "Spojovací",
            "amenity": "police",
            "name": "Policie ČR - Obvodní oddělení Křemže",
            "operator": "Policie České republiky",
            "operator:wikidata": "Q1135262"
          },
          "geometry": {
            "type": "Point",
            "coordinates": [
              14.3079996,
              48.9059504
            ]
          }
        },
        {
          "type": "Feature",
          "properties": {
            "id": "942823983",
            "osm_type": "node",
            "lat": 49.015447,
            "lon": 14.6079553,
            "amenity": "police",
            "name": "Policie ČR - Obvodní oddělení Lišov"
          },
          "geometry": {
            "type": "Point",
            "coordinates": [
              14.6079553,
              49.015447
            ]
          }
        },
        {
          "type": "Feature",
          "properties": {
            "id": "1361074956",
            "osm_type": "node",
            "lat": 48.8900271,
            "lon": 14.8746451,
            "amenity": "police",
            "name": "obvodní oddělení Policie ČR"
          },
          "geometry": {
            "type": "Point",
            "coordinates": [
              14.8746451,
              48.8900271
            ]
          }
        },
        {
          "type": "Feature",
          "properties": {
            "id": "2404901720",
            "osm_type": "node",
            "lat": 49.0038207,
            "lon": 14.762677,
            "amenity": "police",
            "name": "Městská policie"
          },
          "geometry": {
            "type": "Point",
            "coordinates": [
              14.762677,
              49.0038207
            ]
          }
        },
        {
          "type": "Feature",
          "properties": {
            "id": "2404901739",
            "osm_type": "node",
            "lat": 49.0043282,
            "lon": 14.7615029,
            "amenity": "police",
            "check_date": "2025-07-09",
            "name": "Policie ČR"
          },
          "geometry": {
            "type": "Point",
            "coordinates": [
              14.7615029,
              49.0043282
            ]
          }
        },
        {
          "type": "Feature",
          "properties": {
            "id": "2454047758",
            "osm_type": "node",
            "lat": 49.0150094,
            "lon": 15.0949655,
            "amenity": "police",
            "check_date": "2025-08-30",
            "name": "Policie ČR",
            "source": "survey"
          },
          "geometry": {
            "type": "Point",
            "coordinates": [
              15.0949655,
              49.0150094
            ]
          }
        },
        {
          "type": "Feature",
          "properties": {
            "id": "5829336056",
            "osm_type": "node",
            "lat": 48.9440171,
            "lon": 15.0456281,
            "addr:city": "Litschau",
            "addr:housenumber": "25",
            "addr:postcode": "3874",
            "addr:street": "Stadtplatz",
            "amenity": "police",
            "contact:email": "pi-n-litschau@polizei.gv.at",
            "contact:fax": "+43 59133 3405-109",
            "contact:phone": "+43 59133 3405-100",
            "name": "Polizeiinspektion Litschau",
            "operator": "Landespolizeidirektion Niederösterreich",
            "short_name": "PI Litschau",
            "website": "https://www.polizei.gv.at/noe/lpd/dst/dienststellen.aspx?org=32677879626D66717975673D"
          },
          "geometry": {
            "type": "Point",
            "coordinates": [
              15.0456281,
              48.9440171
            ]
          }
        }
      ],
      "children": []
    }
  ]
}