{
  "bbox": {
    "south": 47.033758500000005,
    "west": 11.438358999999998,
    "north": 47.694865,
    "east": 13.345766
  },
  "poiCount": 52,
  "leafCount": 0,
  "averagePosition": [
    12.352776953846156,
    47.39499545
  ],
  "data": [],
  "children": [
    {
      "bbox": {
        "south": 47.033758500000005,
        "west": 11.438358999999998,
        "north": 47.36431175,
        "east": 12.392062499999998
      },
      "poiCount": 11,
      "leafCount": 11,
      "averagePosition": [
        11.673617363636366,
        47.24609483636364
      ],
      "data": [
        {
          "type": "Feature",
          "properties": {
            "id": "595732784",
            "osm_type": "node",
            "lat": 47.2736959,
            "lon": 11.4421448,
            "addr:city": "Innsbruck",
            "addr:country": "AT",
            "addr:housenumber": "54",
            "addr:postcode": "6020",
            "addr:street": "Schützenstraße",
            "addr:suburb": "Arzl",
            "amenity": "police",
            "contact:email": "PI-T-Innsbruck-Neu-Arzl@polizei.gv.at",
            "contact:fax": "+43 59133 7586-109",
            "contact:phone": "+43 59133 7586-100",
            "contact:website": "https://www.polizei.gv.at/tirol/lpd/dst/dienststellen.aspx?org=5465684A552B684F2F4D343D",
            "name": "Polizeiinspektion Neu-Arzl",
            "wheelchair": "yes"
          },
          "geometry": {
            "type": "Point",
            "coordinates": [
              11.4421448,
              47.2736959
            ]
          }
        },
        {
          "type": "Feature",
          "properties": {
            "id": "844654248",
            "osm_type": "node",
            "lat": 47.2826911,
            "lon": 11.5060079,
            "addr:city": "Hall in Tirol",
            "addr:country": "AT",
            "addr:housenumber": "9",
            "addr:postcode": "6060",
            "addr:street": "Krippgasse",
            "amenity": "police",
            "check_date": "2024-07-03",
            "name": "Stadtpolizei Hall",
            "wheelchair": "yes"
          },
          "geometry": {
            "type": "Point",
            "coordinates": [
              11.5060079,
              47.2826911
            ]
          }
        },
        {
          "type": "Feature",
          "properties": {
            "id": "4298916828",
            "osm_type": "node",
            "lat": 47.0839192,
            "lon": 11.472922,
            "addr:city": "Steinach am Brenner",
            "addr:country": "AT",
            "addr:housenumber": "15",
            "addr:postcode": "6150",
            "addr:street": "Harland",
            "amenity": "police",
            "email": "PI-T-Steinach-Brenner@polizei.gv.at",
            "fax": "+43 59133 7125-109",
            "name": "Polizeiinspektion Steinach-Wipptal",
            "phone": "+43 59133 7125-100",
            "website": "https://www.polizei.gv.at/tirol/lpd/dst/dienststellen.aspx?org=654B7866594F30727949733D",
            "wheelchair": "yes"
          },
          "geometry": {
            "type": "Point",
            "coordinates": [
              11.472922,
              47.0839192
            ]
          }
        },
        {
          "type": "Feature",
          "properties": {
            "id": "6665596681",
            "osm_type": "node",
            "lat": 47.280464,
            "lon": 11.5046275,
            "addr:city": "Hall in Tirol",
            "addr:country": "AT",
            "addr:housenumber": "20",
            "addr:postcode": "6060",
            "addr:street": "Unterer Stadtplatz",
            "amenity": "police",
            "contact:email": "PI-T-Hall-in-Tirol@polizei.gv.at",
            "contact:fax": "+43 59133 7110-109",
            "contact:phone": "+43 59133 7110-100",
            "name": "Polizeiinspektion Hall in Tirol",
            "website": "https://polizei.gv.at/tirol/lpd/dst/dienststellen.aspx?org=622F663945554D44794B6F3D",
            "wheelchair": "yes"
          },
          "geometry": {
            "type": "Point",
            "coordinates": [
              11.5046275,
              47.280464
            ]
          }
        },
        {
          "type": "Feature",
          "properties": {
            "id": "9697176060",
            "osm_type": "node",
            "lat": 47.0785514,
            "lon": 11.4701204,
            "addr:city": "Steinach am Brenner",
            "addr:housenumber": "20",
            "addr:postcode": "6150",
            "addr:street": "Nößlacherstraße",
            "amenity": "police",
            "fax": "+4359133 7133-209",
            "name": "Polizeiinspektion Plon",
            "phone": "+4359133 7133-100"
          },
          "geometry": {
            "type": "Point",
            "coordinates": [
              11.4701204,
              47.0785514
            ]
          }
        },
        {
          "type": "Feature",
          "properties": {
            "id": "564620374",
            "osm_type": "node",
            "lat": 47.2933849,
            "lon": 11.5891595,
            "addr:city": "Wattens",
            "addr:country": "AT",
            "addr:housenumber": "25",
            "addr:postcode": "6112",
            "addr:street": "Bahnhofstraße",
            "amenity": "police",
            "email": "PI-T-Wattens@polizei.gv.at",
            "fax": "+43 59133 7128-109",
            "name": "Polizeiinspektion Wattens",
            "phone": "+43 59133 7128-100",
            "website": "https://www.polizei.gv.at/tirol/lpd/dst/dienststellen.aspx?org=66306349714653557771453D"
          },
          "geometry": {
            "type": "Point",
            "coordinates": [
              11.5891595,
              47.2933849
            ]
          }
        },
        {
          "type": "Feature",
          "properties": {
            "id": "1369221512",
            "osm_type": "node",
            "lat": 47.1654558,
            "lon": 11.8619658,
            "addr:city": "Mayrhofen",
            "addr:country": "AT",
            "addr:housenumber": "450",
            "addr:postcode": "6290",
            "addr:street": "Hauptstraße",
            "alt_name": "PI Mayrhofen",
            "amenity": "police",
            "at_bev:addr_date": "2017-04-07",
            "name": "Polizeiinspektion Mayrhofen"
          },
          "geometry": {
            "type": "Point",
            "coordinates": [
              11.8619658,
              47.1654558
            ]
          }
        },
        {
          "type": "Feature",
          "properties": {
            "id": "2424086540",
            "osm_type": "node",
            "lat": 47.3012391,
            "lon": 11.8688581,
            "addr:city": "Ried im Zillertal",
            "addr:country": "AT",
            "addr:housenumber": "2",
            "addr:postcode": "6273",
            "addr:street": "Großriedstraße",
            "alt_name": "PI Ried/Zillertal",
            "amenity": "police",
            "name": "Polizeiinspektion Ried/Zillertal",
            "phone": "059133 7253-100"
          },
          "geometry": {
            "type": "Point",
            "coordinates": [
              11.8688581,
              47.3012391
            ]
          }
        },
        {
          "type": "Feature",
          "properties": {
            "id": "4596666870",
            "osm_type": "node",
            "lat": 47.3506671,
            "lon": 11.7059966,
            "addr:city": "Schwaz",
            "addr:country": "AT",
            "addr:housenumber": "26",
            "addr:postcode": "6130",
            "addr:street": "Münchner Straße",
            "amenity": "police",
            "contact:email": "PI-T-Schwaz@polizei.gv.at",
            "contact:phone": "+43 59 133 7250-100",
            "level": "0",
            "name": "Polizeiinspektion Schwaz",
            "website": "https://www.polizei.gv.at/tirol/lpd/dst/dienststellen.aspx?"
          },
          "geometry": {
            "type": "Point",
            "coordinates": [
              11.7059966,
              47.3506671
            ]
          }
        },
        {
          "type": "Feature",
          "properties": {
            "id": "6861822921",
            "osm_type": "node",
            "lat": 47.3449163,
            "lon": 11.7083384,
            "amenity": "police",
            "email": "polizei@schwaz.at",
            "level": "1",
            "name": "Stadtpolizei",
            "phone": "+43 5242 62111"
          },
          "geometry": {
            "type": "Point",
            "coordinates": [
              11.7083384,
              47.3449163
            ]
          }
        },
        {
          "type": "Feature",
          "properties": {
            "id": "1312685526",
            "osm_type": "node",
            "lat": 47.2520584,
            "lon": 12.27965,
            "addr:city": "Neukirchen am Großvenediger",
            "addr:housenumber": "441",
            "addr:postcode": "5741",
            "addr:street": "Wildkogelbahnstraße",
            "amenity": "police",
            "designation": "Polizei 5741 Neukirchen",
            "email": "PI-S-Neukirchen-am-Grossvenediger@polizei.gv.at",
            "fax": "+43-5-9133  5179-109",
            "name": "Polizei",
            "phone": "+43-5-9133  5179"
          },
          "geometry": {
            "type": "Point",
            "coordinates": [
              12.27965,
              47.2520584
            ]
          }
        }
      ],
      "children": []
    },
    {
      "bbox": {
        "south": 47.033758500000005,
        "west": 12.392062499999998,
        "north": 47.36431175,
        "east": 13.345766
      },
      "poiCount": 13,
      "leafCount": 13,
      "averagePosition": [
        12.91698616923077,
        47.265384623076926
      ],
      "data": [
        {
          "type": "Feature",
          "properties": {
            "id": "498180342",
            "osm_type": "node",
            "lat": 47.2805807,
            "lon": 12.4800338,
            "addr:city": "Mittersill",
            "addr:country": "AT",
            "addr:housenumber": "8a",
            "addr:postcode": "5730",
            "addr:street": "Gerlos Straße",
            "amenity": "police",
            "at_bev:addr_date": "2017-04-07",
            "contact:email": "PI-S-Mittersill@polizei.gv.at",
            "contact:phone": "+43 59133 5177",
            "name": "Polizeiinspektion Mittersill",
            "website": "https://www.polizei.gv.at/sbg/lpd/dst/dienststellen.aspx?org=55337466324F64346C7A4D3D"
          },
          "geometry": {
            "type": "Point",
            "coordinates": [
              12.4800338,
              47.2805807
            ]
          }
        },
        {
          "type": "Feature",
          "properties": {
            "id": "461714541",
            "osm_type": "node",
            "lat": 47.2715918,
            "lon": 12.7582143,
            "addr:city": "Kaprun",
            "addr:country": "AT",
            "addr:housenumber": "20b",
            "addr:postcode": "5710",
            "addr:street": "Wilhelm-Fazokas-Straße",
            "amenity": "police",
            "at_bev:addr_date": "2017-04-07",
            "email": "PI-S-Kaprun@polizei.gv.at",
            "name": "Gemeindeamt",
            "phone": "+43 59 133 5173"
          },
          "geometry": {
            "type": "Point",
            "coordinates": [
              12.7582143,
              47.2715918
            ]
          }
        },
        {
          "type": "Feature",
          "properties": {
            "id": "488157470",
            "osm_type": "node",
            "lat": 47.2937929,
            "lon": 12.9707519,
            "addr:city": "Taxenbach",
            "addr:country": "AT",
            "addr:housenumber": "14",
            "addr:postcode": "5660",
            "addr:street": "Bundesstraße",
            "amenity": "police",
            "at_bev:addr_date": "2017-04-07",
            "contact:email": "PI-S-Taxenbach@polizei.gv.at",
            "contact:fax": "+43 59133 5184-109",
            "contact:phone": "+43 59133 5184",
            "name": "Polizeiinspektion Taxenbach"
          },
          "geometry": {
            "type": "Point",
            "coordinates": [
              12.9707519,
              47.2937929
            ]
          }
        },
        {
          "type": "Feature",
          "properties": {
            "id": "661037284",
            "osm_type": "node",
            "lat": 47.3218775,
            "lon": 12.7964765,
            "addr:city": "Zell am See",
            "addr:country": "AT",
            "addr:housenumber": "3",
            "addr:postcode": "5700",
            "addr:street": "Brucker Bundesstraße",
            "amenity": "police",
            "check_date": "2025-09-05",
            "contact:email": "BPK-S-Zell-am-See@polizei.gv.at",
            "contact:phone": "+43 59 133 5170-305",
            "name": "Bezirkspolizeikommando Zell am See",
            "source": "https://www.bmi.gv.at/cms/bmi/_news/_or_orga.aspx?base=SALZBURG&id=11681",
            "wheelchair": "limited"
          },
          "geometry": {
            "type": "Point",
            "coordinates": [
              12.7964765,
              47.3218775
            ]
          }
        },
        {
          "type": "Feature",
          "properties": {
            "id": "919476914",
            "osm_type": "node",
            "lat": 47.228619,
            "lon": 12.9946981,
            "amenity": "police",
            "name": "Polizeiposten"
          },
          "geometry": {
            "type": "Point",
            "coordinates": [
              12.9946981,
              47.228619
            ]
          }
        },
        {
          "type": "Feature",
          "properties": {
            "id": "1377967624",
            "osm_type": "node",
            "lat": 47.2866017,
            "lon": 12.8244616,
            "addr:city": "Bruck an der Großglocknerstraße",
            "addr:country": "AT",
            "addr:housenumber": "2",
            "addr:postcode": "5671",
            "addr:street": "Raiffeisenstraße",
            "amenity": "police",
            "at_bev:addr_date": "2017-04-07",
            "contact:email": "PI-S-Bruck-an-der-Glocknerstrasse@polizei.gv.at",
            "contact:phone": "+43 59133 5172",
            "name": "Polizeiinspektion Bruck/Glocknerstraße",
            "website": "https://www.polizei.gv.at/sbg/lpd/dst/dienststellen.aspx?org=55337466324F64346C7A4D3D"
          },
          "geometry": {
            "type": "Point",
            "coordinates": [
              12.8244616,
              47.2866017
            ]
          }
        },
        {
          "type": "Feature",
          "properties": {
            "id": "4920059923",
            "osm_type": "node",
            "lat": 47.3218215,
            "lon": 12.7964577,
            "addr:city": "Zell am See",
            "addr:country": "AT",
            "addr:housenumber": "3",
            "addr:postcode": "5700",
            "addr:street": "Brucker Bundesstraße",
            "amenity": "police",
            "contact:email": "PI-S-Zell-am-See@polizei.gv.at",
            "contact:phone": "+43 59 133 5170",
            "name": "Polizeiinspektion Zell am See",
            "website": "https://www.polizei.gv.at/sbg/lpd/dst/dienststellen.aspx?org=396E747874487174656D553D",
            "wheelchair": "yes"
          },
          "geometry": {
            "type": "Point",
            "coordinates": [
              12.7964577,
              47.3218215
            ]
          }
        },
        {
          "type": "Feature",
          "properties": {
            "id": "5122630219",
            "osm_type": "node",
            "lat": 47.0374549,
            "lon": 12.84609,
            "addr:city": "Heiligenblut am Großglockner",
            "addr:country": "AT",
            "addr:housenumber": "14",
            "addr:place": "Hof",
            "addr:postcode": "9844",
            "amenity": "police",
            "at_bev:addr_date": "2017-04-07",
            "email": "PI-K-Heiligenblut@polizei.gv.at",
            "fax": "+43 59133 2225109",
            "name": "Polizeiinspektion Heiligenblut",
            "phone": "+43 59133 2225100"
          },
          "geometry": {
            "type": "Point",
            "coordinates": [
              12.84609,
              47.0374549
            ]
          }
        },
        {
          "type": "Feature",
          "properties": {
            "id": "5870656200",
            "osm_type": "node",
            "lat": 47.3260311,
            "lon": 12.7956015,
            "addr:city": "Zell am See",
            "addr:country": "AT",
            "addr:housenumber": "3",
            "addr:postcode": "5700",
            "addr:street": "Steinergasse",
            "amenity": "police",
            "name": "Stadtpolizei Zell am See",
            "opening_hours": "24/7",
            "operator": "Stadtgemeinde Zell am See"
          },
          "geometry": {
            "type": "Point",
            "coordinates": [
              12.7956015,
              47.3260311
            ]
          }
        },
        {
          "type": "Feature",
          "properties": {
            "id": "330030652",
            "osm_type": "node",
            "lat": 47.2413133,
            "lon": 13.1956507,
            "addr:city": "Großarl",
            "addr:country": "AT",
            "addr:housenumber": "73",
            "addr:postcode": "5611",
            "addr:street": "Unterbergstraße",
            "amenity": "police",
            "at_bev:addr_date": "2017-10-01",
            "wheelchair": "yes"
          },
          "geometry": {
            "type": "Point",
            "coordinates": [
              13.1956507,
              47.2413133
            ]
          }
        },
        {
          "type": "Feature",
          "properties": {
            "id": "914439772",
            "osm_type": "node",
            "lat": 47.3496994,
            "lon": 13.2018135,
            "addr:city": "Sankt Johann im Pongau",
            "addr:country": "AT",
            "addr:housenumber": "10",
            "addr:postcode": "5600",
            "addr:street": "Ing.-Ludwig-Pech-Straße",
            "amenity": "police",
            "contact:email": "PI-S-St-Johann@polizei.gv.at",
            "contact:phone": "+43 59 133 5140",
            "name": "Polizeiinspektion St. Johann im Pongau",
            "website": "https://www.polizei.gv.at/sbg/lpd/dst/dienststellen.aspx?org=797471446B7A6A65644A453D",
            "wheelchair": "no"
          },
          "geometry": {
            "type": "Point",
            "coordinates": [
              13.2018135,
              47.3496994
            ]
          }
        },
        {
          "type": "Feature",
          "properties": {
            "id": "3866977658",
            "osm_type": "node",
            "lat": 47.1703194,
            "lon": 13.1092157,
            "addr:city": "Bad Hofgastein",
            "addr:housenumber": "4",
            "addr:postcode": "5630",
            "addr:street": "Gerichtsstraße",
            "amenity": "police",
            "email": "PI-S-Bad-Hofgastein@polizei.gv.at",
            "fax": "+43-5-9133  5142-109",
            "phone": "+43-5-9133 5142"
          },
          "geometry": {
            "type": "Point",
            "coordinates": [
              13.1092157,
              47.1703194
            ]
          }
        },
        {
          "type": "Feature",
          "properties": {
            "id": "11962803882",
            "osm_type": "node",
            "lat": 47.3202969,
            "lon": 13.1513549,
            "addr:city": "Schwarzach im Pongau",
            "addr:country": "AT",
            "addr:housenumber": "1",
            "addr:postcode": "5620",
            "addr:street": "Löwenstraße",
            "amenity": "police",
            "contact:email": "PI-S-Schwarzach@polizei.gv.at",
            "contact:phone": "+43 59133 5152",
            "name": "Polizeiinspektion Schwarzach im Pongau",
            "wheelchair": "yes"
          },
          "geometry": {
            "type": "Point",
            "coordinates": [
              13.1513549,
              47.3202969
            ]
          }
        }
      ],
      "children": []
    },
    {
      "bbox": {
        "south": 47.36431175,
        "west": 11.438358999999998,
        "north": 47.694865,
        "east": 12.392062499999998
      },
      "poiCount": 16,
      "leafCount": 16,
      "averagePosition": [
        12.032476525,
        47.499791118750004
      ],
      "data": [
        {
          "type": "Feature",
          "properties": {
            "id": "419027949",
            "osm_type": "node",
            "lat": 47.3920851,
            "lon": 11.7712282,
            "addr:city": "Jenbach",
            "addr:country": "AT",
            "addr:housenumber": "11",
            "addr:postcode": "6200",
            "addr:street": "Tratzbergstraße",
            "amenity": "police",
            "email": "PI-T-Jenbach@polizei.gv.at",
            "fax": "+43 59 133 7252 109",
            "name": "Polizeiinspektion Jenbach",
            "phone": "+43 59 133 7252 100"
          },
          "geometry": {
            "type": "Point",
            "coordinates": [
              11.7712282,
              47.3920851
            ]
          }
        },
        {
          "type": "Feature",
          "properties": {
            "id": "1772604311",
            "osm_type": "node",
            "lat": 47.4575636,
            "lon": 11.9202597,
            "addr:city": "Radfeld",
            "addr:country": "AT",
            "addr:full": "A 12, Km 28,3, Fahrtrichtung Kufstein",
            "amenity": "police",
            "name": "Autobahnpolizeiinspektion Radfeld"
          },
          "geometry": {
            "type": "Point",
            "coordinates": [
              11.9202597,
              47.4575636
            ]
          }
        },
        {
          "type": "Feature",
          "properties": {
            "id": "3269247509",
            "osm_type": "node",
            "lat": 47.4688175,
            "lon": 11.9851717,
            "addr:city": "Kundl",
            "addr:country": "AT",
            "addr:housenumber": "3",
            "addr:postcode": "6250",
            "addr:street": "Dr. Franz-Stumpf-Straße",
            "alt_name": "PI Kundl",
            "amenity": "police",
            "email": "PI-T-Kundl@polizei.gv.at",
            "fax": "+43 59133 7215-109",
            "name": "Polizeiinspektion Kundl",
            "phone": "+43 59133 7215-100"
          },
          "geometry": {
            "type": "Point",
            "coordinates": [
              11.9851717,
              47.4688175
            ]
          }
        },
        {
          "type": "Feature",
          "properties": {
            "id": "4472627715",
            "osm_type": "node",
            "lat": 47.4732467,
            "lon": 11.9686241,
            "addr:full": "A 12, Km 24,3, Fahrtrichtung Innsbruck",
            "amenity": "police",
            "name": "Polizeiinspektion Kontrollstelle Kundl",
            "phone": "+43 59133 7222-200"
          },
          "geometry": {
            "type": "Point",
            "coordinates": [
              11.9686241,
              47.4732467
            ]
          }
        },
        {
          "type": "Feature",
          "properties": {
            "id": "4472702764",
            "osm_type": "node",
            "lat": 47.3955776,
            "lon": 11.818922,
            "addr:city": "Strass im Zillertal",
            "addr:country": "AT",
            "addr:housenumber": "7",
            "addr:place": "Oberdorf",
            "addr:postcode": "6261",
            "alt_name": "PI Strass/Zillertal",
            "amenity": "police",
            "email": "PI-T-Strass-Zillertal@polizei.gv.at",
            "fax": "+43 59133 7255-109",
            "name": "Polizeiinspektion Strass im Zillertal",
            "phone": "+43 59133 7255-100"
          },
          "geometry": {
            "type": "Point",
            "coordinates": [
              11.818922,
              47.3955776
            ]
          }
        },
        {
          "type": "Feature",
          "properties": {
            "id": "7919207563",
            "osm_type": "node",
            "lat": 47.5305897,
            "lon": 11.706254,
            "amenity": "police"
          },
          "geometry": {
            "type": "Point",
            "coordinates": [
              11.706254,
              47.5305897
            ]
          }
        },
        {
          "type": "Feature",
          "properties": {
            "id": "10162819657",
            "osm_type": "node",
            "lat": 47.6599387,
            "lon": 11.8792873,
            "addr:city": "Schliersee",
            "addr:housenumber": "10",
            "addr:postcode": "83727",
            "addr:street": "Lyraweg",
            "amenity": "police",
            "name": "Stolzenberghaus - Bayerische Bereitschaftspolizei",
            "phone": "+49 8026 71263"
          },
          "geometry": {
            "type": "Point",
            "coordinates": [
              11.8792873,
              47.6599387
            ]
          }
        },
        {
          "type": "Feature",
          "properties": {
            "id": "316585299",
            "osm_type": "node",
            "lat": 47.504086,
            "lon": 12.1969403,
            "addr:city": "Söll am Wilden Kaiser",
            "addr:country": "AT",
            "addr:housenumber": "11",
            "addr:place": "Gänsleit",
            "addr:postcode": "6306",
            "alt_name": "PI Söll",
            "amenity": "police",
            "contact:email": "PI-T-Soell@polizei.gv.at",
            "contact:fax": "+43 59133 7218-109",
            "contact:phone": "+43 59133 7218-100",
            "name": "Polizeiinspektion Söll",
            "phone": "+43 59133 7218-100"
          },
          "geometry": {
            "type": "Point",
            "coordinates": [
              12.1969403,
              47.504086
            ]
          }
        },
        {
          "type": "Feature",
          "properties": {
            "id": "472674931",
            "osm_type": "node",
            "lat": 47.4431828,
            "lon": 12.0494772,
            "addr:city": "Wildschönau",
            "addr:country": "AT",
            "addr:housenumber": "205",
            "addr:postcode": "6311",
            "addr:street": "Kirchen",
            "addr:suburb": "Oberau",
            "amenity": "police",
            "at_bev:addr_date": "2017-04-07"
          },
          "geometry": {
            "type": "Point",
            "coordinates": [
              12.0494772,
              47.4431828
            ]
          }
        },
        {
          "type": "Feature",
          "properties": {
            "id": "487109173",
            "osm_type": "node",
            "lat": 47.4877014,
            "lon": 12.0688589,
            "addr:city": "Wörgl",
            "addr:country": "AT",
            "addr:postcode": "6300",
            "addr:street": "Salzburger Straße",
            "alt_name": "PI Wörgl",
            "amenity": "police",
            "check_date": "2023-10-18",
            "name": "Polizeiinspektion Wörgl",
            "phone": "+43 59133 7221-100"
          },
          "geometry": {
            "type": "Point",
            "coordinates": [
              12.0688589,
              47.4877014
            ]
          }
        },
        {
          "type": "Feature",
          "properties": {
            "id": "1361981483",
            "osm_type": "node",
            "lat": 47.4482524,
            "lon": 12.3154681,
            "addr:city": "Kirchberg in Tirol",
            "addr:country": "AT",
            "addr:housenumber": "8",
            "addr:postcode": "6365",
            "addr:street": "Hauptstraße",
            "alt_name": "PI Kirchberg",
            "amenity": "police",
            "name": "Polizeiinspektion Kirchberg in Tirol"
          },
          "geometry": {
            "type": "Point",
            "coordinates": [
              12.3154681,
              47.4482524
            ]
          }
        },
        {
          "type": "Feature",
          "properties": {
            "id": "2127129434",
            "osm_type": "node",
            "lat": 47.5844266,
            "lon": 12.1705877,
            "alt_name": "BPK Kufstein",
            "amenity": "police",
            "contact:email": "BPK-T-Kufstein@polizei.gv.at",
            "contact:fax": "+43 59 1337210-309",
            "contact:phone": "+43 59 1337210-305",
            "name": "Bezirkspolizeikommando Kufstein",
            "source": "knowledge"
          },
          "geometry": {
            "type": "Point",
            "coordinates": [
              12.1705877,
              47.5844266
            ]
          }
        },
        {
          "type": "Feature",
          "properties": {
            "id": "4226565652",
            "osm_type": "node",
            "lat": 47.6468581,
            "lon": 12.2134526,
            "addr:city": "Niederndorf",
            "addr:country": "AT",
            "addr:housenumber": "13",
            "addr:postcode": "6342",
            "addr:street": "Jennbachweg",
            "alt_name": "PI Niederndorf",
            "amenity": "police",
            "at_bev:addr_date": "2017-04-07",
            "contact:email": "PI-T-Niederndorf@polizei.gv.at",
            "contact:fax": "+43 59133 7216-109",
            "contact:phone": "+43 59133 7216-100",
            "name": "Polizeiinspektion Niederndorf",
            "phone": "+43 59133 7216-100"
          },
          "geometry": {
            "type": "Point",
            "coordinates": [
              12.2134526,
              47.6468581
            ]
          }
        },
        {
          "type": "Feature",
          "properties": {
            "id": "4875014438",
            "osm_type": "node",
            "lat": 47.4858497,
            "lon": 12.063847,
            "addr:city": "Wörgl",
            "addr:country": "AT",
            "addr:door": "2",
            "addr:housenumber": "4",
            "addr:postcode": "6300",
            "addr:street": "Bahnhofstraße",
            "amenity": "police",
            "contact:email": "stadtpolizei@stadt.woergl.at",
            "contact:mobile": "+43 664 88745 003",
            "contact:phone": "+43 50 6300 1330",
            "contact:website": "https://www.woergl.at/stadtamt/verwaltung/abteilungen/stadtpolizei_recht_und_sicherheit",
            "email": "stadtpolizei@stadt.woergl.at",
            "name": "Stadtpolizei",
            "opening_hours": "Mo-Fr 07:00-19:00",
            "operator": "Stadtgemeinde Wörgl",
            "phone": "+43 50 6300 1330",
            "website": "https://www.woergl.at/stadtamt/verwaltung/abteilungen/stadtpolizei_recht_und_sicherheit"
          },
          "geometry": {
            "type": "Point",
            "coordinates": [
              12.063847,
              47.4858497
            ]
          }
        },
        {
          "type": "Feature",
          "properties": {
            "id": "5656956574",
            "osm_type": "node",
            "lat": 47.5844278,
            "lon": 12.1704657,
            "alt_name": "PI Kufstein",
            "amenity": "police",
            "contact:email": "PI-T-Kufstein@polizei.gv.at",
            "contact:fax": "+43 59133 7210-109",
            "contact:phone": "+43 59133 7210-100",
            "name": "Polizeiinspektion Kufstein"
          },
          "geometry": {
            "type": "Point",
            "coordinates": [
              12.1704657,
              47.5844278
            ]
          }
        },
        {
          "type": "Feature",
          "properties": {
            "id": "7749819728",
            "osm_type": "node",
            "lat": 47.4340542,
            "lon": 12.2207799,
            "addr:city": "Westendorf",
            "addr:country": "AT",
            "addr:housenumber": "46",
            "addr:postcode": "6363",
            "addr:street": "Bichlinger Straße",
            "alt_name": "PI Westendorf",
            "amenity": "police",
            "name": "Polizeiinspektion Westendorf"
          },
          "geometry": {
            "type": "Point",
            "coordinates": [
              12.2207799,
              47.4340542
            ]
          }
        }
      ],
      "children": []
    },
    {
      "bbox": {
        "south": 47.36431175,
        "west": 12.392062499999998,
        "north": 47.694865,
        "east": 13.345766
      },
      "poiCount": 12,
      "leafCount": 12,
      "averagePosition": [
        12.791180500000001,
        47.53217185
      ],
      "data": [
        {
          "type": "Feature",
          "properties": {
            "id": "1336045976",
            "osm_type": "node",
            "lat": 47.5250595,
            "lon": 12.4236171,
            "alt_name": "PI St Johann",
            "amenity": "police",
            "name": "Polizei St Johann/Tirol"
          },
          "geometry": {
            "type": "Point",
            "coordinates": [
              12.4236171,
              47.5250595
            ]
          }
        },
        {
          "type": "Feature",
          "properties": {
            "id": "2151529929",
            "osm_type": "node",
            "lat": 47.4480011,
            "lon": 12.3937143,
            "addr:city": "Kitzbühel",
            "addr:country": "AT",
            "addr:housenumber": "9a",
            "addr:postcode": "6370",
            "addr:street": "Im Gries",
            "alt_name": "Polizei",
            "alt_name:en": "PI Kitzbühel",
            "amenity": "police",
            "contact:email": "PI-T-Kitzbuehel@polizei.gv.at",
            "contact:phone": "+43 59133 7200-100",
            "name": "Polizeiinspektion Kitzbühel",
            "website": "https://www.polizei.gv.at/tirol/lpd/dst/dienststellen.aspx?org=7A55527167465859372F453D"
          },
          "geometry": {
            "type": "Point",
            "coordinates": [
              12.3937143,
              47.4480011
            ]
          }
        },
        {
          "type": "Feature",
          "properties": {
            "id": "4329296989",
            "osm_type": "node",
            "lat": 47.5774928,
            "lon": 12.4795303,
            "addr:city": "Kirchdorf in Tirol",
            "addr:country": "AT",
            "addr:hamlet": "Erpfendorf",
            "addr:housenumber": "42",
            "addr:postcode": "6383",
            "addr:street": "Salzburger Straße",
            "alt_name": "PI Erpfendorf",
            "amenity": "police",
            "at_bev:addr_date": "2017-04-07",
            "name": "Polizeiinspektion Erpfendorf",
            "phone": "+43591337201",
            "website": "http://www.polizei.at"
          },
          "geometry": {
            "type": "Point",
            "coordinates": [
              12.4795303,
              47.5774928
            ]
          }
        },
        {
          "type": "Feature",
          "properties": {
            "id": "11387836214",
            "osm_type": "node",
            "lat": 47.6748706,
            "lon": 12.400301,
            "alt_name": "PI Kössen",
            "amenity": "police",
            "name": "Polizeiinspektion Kössen"
          },
          "geometry": {
            "type": "Point",
            "coordinates": [
              12.400301,
              47.6748706
            ]
          }
        },
        {
          "type": "Feature",
          "properties": {
            "id": "667415088",
            "osm_type": "node",
            "lat": 47.4284454,
            "lon": 12.8470375,
            "addr:city": "Saalfelden am Steinernen Meer",
            "addr:country": "AT",
            "addr:housenumber": "50a",
            "addr:postcode": "5760",
            "addr:street": "Lofererstraße",
            "amenity": "police",
            "at_bev:addr_date": "2017-04-07",
            "check_date": "2024-09-25",
            "email": "PI-S-Saalfelden@polizei.gv.at",
            "name": "Polizeiinspektion Saalfelden/Steinernen Meer",
            "phone": "+43 59133 5183"
          },
          "geometry": {
            "type": "Point",
            "coordinates": [
              12.8470375,
              47.4284454
            ]
          }
        },
        {
          "type": "Feature",
          "properties": {
            "id": "1426350501",
            "osm_type": "node",
            "lat": 47.3896702,
            "lon": 12.6373521,
            "addr:city": "Saalbach-Hinterglemm",
            "addr:country": "AT",
            "addr:housenumber": "310",
            "addr:postcode": "5753",
            "addr:street": "Glemmtaler Landesstraße",
            "amenity": "police",
            "at_bev:addr_date": "2017-04-07",
            "name": "Polizeiinspektion Saalbach"
          },
          "geometry": {
            "type": "Point",
            "coordinates": [
              12.6373521,
              47.3896702
            ]
          }
        },
        {
          "type": "Feature",
          "properties": {
            "id": "3206146906",
            "osm_type": "node",
            "lat": 47.4771283,
            "lon": 12.5429069,
            "addr:city": "Fieberbrunn",
            "addr:country": "AT",
            "addr:housenumber": "12",
            "addr:postcode": "6391",
            "addr:street": "Dorfstraße",
            "alt_name": "PI Fieberbrunn",
            "amenity": "police",
            "name": "Polizeiinspektion Fieberbrunn"
          },
          "geometry": {
            "type": "Point",
            "coordinates": [
              12.5429069,
              47.4771283
            ]
          }
        },
        {
          "type": "Feature",
          "properties": {
            "id": "290552518",
            "osm_type": "node",
            "lat": 47.6844021,
            "lon": 13.0980501,
            "addr:city": "Hallein",
            "addr:country": "AT",
            "addr:housenumber": "1",
            "addr:postcode": "5400",
            "addr:street": "Doktor-Adolf-Schärf-Platz",
            "amenity": "police",
            "at_bev:addr_date": "2017-04-07",
            "contact:email": "PI-S-Hallein@polizei.gv.at",
            "contact:fax": "+43 59133 5100109",
            "contact:phone": "+43 59133 5100",
            "contact:website": "https://www.polizei.gv.at/sbg/lpd/dst/dienststellen.aspx?org=616C7A6375744A464676343D",
            "name": "Polizeiinspektion Hallein"
          },
          "geometry": {
            "type": "Point",
            "coordinates": [
              13.0980501,
              47.6844021
            ]
          }
        },
        {
          "type": "Feature",
          "properties": {
            "id": "1390246721",
            "osm_type": "node",
            "lat": 47.4775976,
            "lon": 13.1885204,
            "addr:city": "Werfen",
            "addr:country": "AT",
            "addr:housenumber": "19",
            "addr:place": "Markt",
            "addr:postcode": "5450",
            "addr:street": "Markt",
            "amenity": "police",
            "at_bev:addr_date": "2017-04-07",
            "check_date": "2024-09-07",
            "name": "Polizeiinspektion Werfen"
          },
          "geometry": {
            "type": "Point",
            "coordinates": [
              13.1885204,
              47.4775976
            ]
          }
        },
        {
          "type": "Feature",
          "properties": {
            "id": "3077366066",
            "osm_type": "node",
            "lat": 47.4191662,
            "lon": 13.2168468,
            "addr:city": "Bischofshofen",
            "addr:country": "AT",
            "addr:housenumber": "4",
            "addr:postcode": "5500",
            "addr:street": "Ellmauthalerstraße",
            "amenity": "police",
            "email": "PI-S-Bischofshofen@polizei.gv.at",
            "fax": "+43 59133 5144-109",
            "name": "Polizeiinspektion Bischofshofen",
            "phone": "+43 59133 5144"
          },
          "geometry": {
            "type": "Point",
            "coordinates": [
              13.2168468,
              47.4191662
            ]
          }
        },
        {
          "type": "Feature",
          "properties": {
            "id": "6718722500",
            "osm_type": "node",
            "lat": 47.5998434,
            "lon": 13.1682797,
            "addr:city": "Golling an der Salzach",
            "addr:country": "AT",
            "addr:housenumber": "27",
            "addr:postcode": "5440",
            "addr:street": "Markt",
            "amenity": "police",
            "email": "PI-S-Golling@polizei.gv.at",
            "fax": "059133  5104-109",
            "name": "Polizeiinspektion Golling an der Salzach",
            "phone": "059133  5104"
          },
          "geometry": {
            "type": "Point",
            "coordinates": [
              13.1682797,
              47.5998434
            ]
          }
        },
        {
          "type": "Feature",
          "properties": {
            "id": "7777478220",
            "osm_type": "node",
            "lat": 47.684385,
            "lon": 13.0980098,
            "addr:city": "Hallein",
            "addr:country": "AT",
            "addr:housenumber": "1",
            "addr:postcode": "5400",
            "addr:street": "Doktor-Adolf-Schärf-Platz",
            "amenity": "police",
            "at_bev:addr_date": "2017-04-07",
            "contact:email": "BPK-S-Hallein@polizei.gv.at",
            "contact:fax": "+43 59133 5100309",
            "contact:phone": "+43 59133 5100305",
            "contact:website": "https://www.polizei.gv.at/sbg/lpd/dst/dienststellen.aspx?org=70724744423734663537383D",
            "name": "Bezirkspolizeikommando Hallein"
          },
          "geometry": {
            "type": "Point",
            "coordinates": [
              13.0980098,
              47.684385
            ]
          }
        }
      ],
      "children": []
    }
  ]
}