{
  "bbox": {
    "south": 46.372652,
    "west": 13.345766,
    "north": 47.033758500000005,
    "east": 15.253173
  },
  "poiCount": 88,
  "leafCount": 0,
  "averagePosition": [
    14.217674134090908,
    46.701859255681825
  ],
  "data": [],
  "children": [
    {
      "bbox": {
        "south": 46.372652,
        "west": 13.345766,
        "north": 46.70320525,
        "east": 14.2994695
      },
      "poiCount": 29,
      "leafCount": 29,
      "averagePosition": [
        13.87808280689655,
        46.599108093103446
      ],
      "data": [
        {
          "type": "Feature",
          "properties": {
            "id": "1363093512",
            "osm_type": "node",
            "lat": 46.6258526,
            "lon": 13.372501,
            "addr:city": "Hermagor-Pressegger See",
            "addr:country": "AT",
            "addr:housenumber": "7",
            "addr:postcode": "9620",
            "addr:street": "Gösseringlände",
            "amenity": "police",
            "at_bev:addr_date": "2017-04-07",
            "email": "BPK-K-Hermagor@polizei.gv.at",
            "fax": "+43 59133 2210309",
            "name": "Bezirkspolizeikommando Hermagor",
            "phone": "+43 59133 2210305"
          },
          "geometry": {
            "type": "Point",
            "coordinates": [
              13.372501,
              46.6258526
            ]
          }
        },
        {
          "type": "Feature",
          "properties": {
            "id": "5120464657",
            "osm_type": "node",
            "lat": 46.6258306,
            "lon": 13.3724997,
            "amenity": "police",
            "email": "PI-K-Hermagor@polizei.gv.at",
            "fax": "+43 59133 2210109",
            "name": "Polizeiinspektion Hermagor",
            "phone": "+43 59133 2210100"
          },
          "geometry": {
            "type": "Point",
            "coordinates": [
              13.3724997,
              46.6258306
            ]
          }
        },
        {
          "type": "Feature",
          "properties": {
            "id": "5122535827",
            "osm_type": "node",
            "lat": 46.6197898,
            "lon": 13.5204631,
            "addr:city": "St. Stefan im Gailtal",
            "addr:country": "AT",
            "addr:housenumber": "26",
            "addr:place": "Bach",
            "addr:postcode": "9623",
            "amenity": "police",
            "at_bev:addr_date": "2017-04-07",
            "email": "PI-K-St-Stefan-an-der-Gail@polizei.gv.at",
            "fax": "+43 59133 2215109",
            "name": "Polizeiinspektion St. Stefan an der Gail",
            "phone": "+43 59133 2215100"
          },
          "geometry": {
            "type": "Point",
            "coordinates": [
              13.5204631,
              46.6197898
            ]
          }
        },
        {
          "type": "Feature",
          "properties": {
            "id": "336014340",
            "osm_type": "node",
            "lat": 46.6299508,
            "lon": 13.8806261,
            "addr:city": "Villach",
            "addr:country": "AT",
            "addr:housenumber": "2",
            "addr:postcode": "9523",
            "addr:street": "Landskroner Siedlerstraße",
            "amenity": "police",
            "at_bev:addr_date": "2017-04-07",
            "email": "PI-K-Villach-Landskron@polizei.gv.at",
            "fax": "+43 59133 2293109",
            "name": "Polizeiinspektion Landskron",
            "phone": "+43 59133 2293100"
          },
          "geometry": {
            "type": "Point",
            "coordinates": [
              13.8806261,
              46.6299508
            ]
          }
        },
        {
          "type": "Feature",
          "properties": {
            "id": "337214285",
            "osm_type": "node",
            "lat": 46.6139403,
            "lon": 13.8478939,
            "addr:city": "Villach",
            "addr:country": "AT",
            "addr:housenumber": "3",
            "addr:postcode": "9500",
            "addr:street": "Ankershofengasse",
            "amenity": "police",
            "at_bev:addr_date": "2017-04-07",
            "email": "PI-K-Villach-Hauptplatz@polizei.gv.at",
            "fax": "+43 59133 2292109",
            "name": "Polizeiinspektion Hauptplatz",
            "phone": "+43 59133 2292100"
          },
          "geometry": {
            "type": "Point",
            "coordinates": [
              13.8478939,
              46.6139403
            ]
          }
        },
        {
          "type": "Feature",
          "properties": {
            "id": "348034228",
            "osm_type": "node",
            "lat": 46.5963338,
            "lon": 13.8375876,
            "addr:city": "Villach",
            "addr:country": "AT",
            "addr:housenumber": "34",
            "addr:postcode": "9500",
            "addr:street": "Kärntner Straße",
            "amenity": "police",
            "at_bev:addr_date": "2017-04-07",
            "email": "PI-K-Villach-Auen@polizei.gv.at",
            "fax": "+43 59133 2291109",
            "name": "Polizeiinspektion Auen",
            "phone": "+43 59133 2291100"
          },
          "geometry": {
            "type": "Point",
            "coordinates": [
              13.8375876,
              46.5963338
            ]
          }
        },
        {
          "type": "Feature",
          "properties": {
            "id": "491427748",
            "osm_type": "node",
            "lat": 46.6995977,
            "lon": 13.6660551,
            "addr:city": "Feistritz/Drau",
            "addr:country": "AT",
            "addr:housenumber": "250",
            "addr:postcode": "9710",
            "addr:street": "Villacher Straße(Feistritz/Dr)",
            "amenity": "police",
            "at_bev:addr_date": "2017-04-07",
            "contact:email": "PI-K-Feistritz-an-der-Drau@polizei.gv.at",
            "contact:fax": "+43 59133 2255109",
            "contact:phone": "+43 59133 2255100",
            "name": "Polizeiinspektion Feistritz an der Drau"
          },
          "geometry": {
            "type": "Point",
            "coordinates": [
              13.6660551,
              46.6995977
            ]
          }
        },
        {
          "type": "Feature",
          "properties": {
            "id": "1960281841",
            "osm_type": "node",
            "lat": 46.5050423,
            "lon": 13.5776628,
            "addr:city": "Tarvisio",
            "addr:country": "IT",
            "addr:housenumber": "3",
            "addr:postcode": "33018",
            "addr:street": "Via Roma",
            "amenity": "police",
            "name": "Polizia Locale",
            "operator": "Polizia Locale",
            "operator:wikidata": "Q61634147",
            "operator:wikipedia": "it:Polizia locale (Italia)"
          },
          "geometry": {
            "type": "Point",
            "coordinates": [
              13.5776628,
              46.5050423
            ]
          }
        },
        {
          "type": "Feature",
          "properties": {
            "id": "2026826728",
            "osm_type": "node",
            "lat": 46.6644999,
            "lon": 13.9199382,
            "addr:city": "Treffen am Ossiacher See",
            "addr:country": "AT",
            "addr:housenumber": "35",
            "addr:postcode": "9520",
            "addr:street": "Dorfstraße",
            "amenity": "police",
            "at_bev:addr_date": "2017-04-07",
            "email": "PI-K-Sattendorf@polizei.gv.at",
            "fax": "+43 59133 2262-109",
            "name": "Polizeiinspektion Sattendorf",
            "phone": "+43 59133 2262-100"
          },
          "geometry": {
            "type": "Point",
            "coordinates": [
              13.9199382,
              46.6644999
            ]
          }
        },
        {
          "type": "Feature",
          "properties": {
            "id": "2318313680",
            "osm_type": "node",
            "lat": 46.5659548,
            "lon": 13.9080334,
            "addr:city": "Faak am See",
            "addr:country": "AT",
            "addr:housenumber": "2",
            "addr:postcode": "9583",
            "addr:street": "Dietrichsteinerstraße",
            "amenity": "police",
            "at_bev:addr_date": "2017-04-07",
            "check_date": "2025-02-06",
            "email": "PI-K-Faak-am-See@polizei.gv.at",
            "fax": "+43 59133 2254-109",
            "name": "Polizeiinspektion Faak am See",
            "phone": "+43 59133 2254-100"
          },
          "geometry": {
            "type": "Point",
            "coordinates": [
              13.9080334,
              46.5659548
            ]
          }
        },
        {
          "type": "Feature",
          "properties": {
            "id": "3660216163",
            "osm_type": "node",
            "lat": 46.6853866,
            "lon": 13.9742273,
            "addr:city": "Bodensdorf",
            "addr:housenumber": "2",
            "addr:postcode": "9551",
            "addr:street": "10.-Oktober-Straße",
            "amenity": "police",
            "email": "PI-K-Bodensdorf@polizei.gv.at",
            "fax": "+43 59133 2201109",
            "name": "Polizeiinspektion Bodensdorf",
            "phone": "+43 59133 2201100",
            "source": "http://www.polizei.gv.at/ktn/lpd/dst/dienststellen.aspx?org=667336627775424A7859733D"
          },
          "geometry": {
            "type": "Point",
            "coordinates": [
              13.9742273,
              46.6853866
            ]
          }
        },
        {
          "type": "Feature",
          "properties": {
            "id": "4456352808",
            "osm_type": "node",
            "lat": 46.6270059,
            "lon": 13.6609635,
            "addr:city": "Bad Bleiberg",
            "addr:country": "AT",
            "addr:housenumber": "69",
            "addr:postcode": "9530",
            "addr:street": "Bleiberger Straße",
            "amenity": "police",
            "check_date": "2025-08-10",
            "email": "PI-K-Bad-Bleiberg@polizei.gv.at",
            "name": "Polizeiinspektion Bad Bleiberg",
            "phone": "+43 59133 2253-100",
            "website": "http://www.polizei.gv.at/ktn/lpd/dst/dienststellen.aspx?"
          },
          "geometry": {
            "type": "Point",
            "coordinates": [
              13.6609635,
              46.6270059
            ]
          }
        },
        {
          "type": "Feature",
          "properties": {
            "id": "5115974493",
            "osm_type": "node",
            "lat": 46.6105638,
            "lon": 13.854998,
            "addr:city": "Villach",
            "addr:country": "AT",
            "addr:housenumber": "34",
            "addr:postcode": "9500",
            "addr:street": "Trattengasse",
            "amenity": "police",
            "at_bev:addr_date": "2017-04-07",
            "email": "PI-K-Villach-Trattengasse@polizei.gv.at",
            "fax": "+43 59133 2296-109",
            "name": "Polizeiinspektion Trattengasse",
            "phone": "+43 59133 2296-100"
          },
          "geometry": {
            "type": "Point",
            "coordinates": [
              13.854998,
              46.6105638
            ]
          }
        },
        {
          "type": "Feature",
          "properties": {
            "id": "5115992471",
            "osm_type": "node",
            "lat": 46.6308771,
            "lon": 13.8291948,
            "addr:city": "Villach",
            "addr:country": "AT",
            "addr:housenumber": "1",
            "addr:postcode": "9500",
            "addr:street": "Energiestraße",
            "amenity": "police",
            "at_bev:addr_date": "2017-04-07",
            "email": "PI-K-Villach-Neufellach@polizei.gv.at",
            "fax": "+43 59133 2294-109",
            "name": "Polizeiinspektion Neufellach",
            "phone": "+43 59133 2294-100"
          },
          "geometry": {
            "type": "Point",
            "coordinates": [
              13.8291948,
              46.6308771
            ]
          }
        },
        {
          "type": "Feature",
          "properties": {
            "id": "5120358360",
            "osm_type": "node",
            "lat": 46.5426676,
            "lon": 13.6499347,
            "addr:city": "Arnoldstein",
            "addr:country": "AT",
            "addr:housenumber": "43",
            "addr:place": "Unterthörl",
            "addr:postcode": "9602",
            "amenity": "police",
            "at_bev:addr_date": "2017-04-07",
            "email": "PI-K-Thoerl-Maglern-AGM@polizei.gv.at",
            "fax": "+43 59133 2264209",
            "name": "Polizeiinspektion Thörl-Maglern - AGM",
            "phone": "+43 59133 2264200"
          },
          "geometry": {
            "type": "Point",
            "coordinates": [
              13.6499347,
              46.5426676
            ]
          }
        },
        {
          "type": "Feature",
          "properties": {
            "id": "5120399485",
            "osm_type": "node",
            "lat": 46.6243252,
            "lon": 13.8999871,
            "addr:city": "Villach",
            "addr:country": "AT",
            "addr:housenumber": "2b",
            "addr:postcode": "9523",
            "addr:street": "Steinbruchstraße",
            "amenity": "police",
            "at_bev:addr_date": "2017-04-07",
            "email": "API-K-Villach@polizei.gv.at",
            "entrance": "yes",
            "fax": "+43 59133 2266209",
            "name": "Autobahnpolizeiinspektion Villach",
            "phone": "+43 59133 2266200"
          },
          "geometry": {
            "type": "Point",
            "coordinates": [
              13.8999871,
              46.6243252
            ]
          }
        },
        {
          "type": "Feature",
          "properties": {
            "id": "5120413371",
            "osm_type": "node",
            "lat": 46.5356954,
            "lon": 13.6397141,
            "addr:city": "Arnoldstein",
            "addr:country": "AT",
            "addr:housenumber": "44",
            "addr:place": "Unterthörl",
            "addr:postcode": "9602",
            "amenity": "police",
            "at_bev:addr_date": "2017-04-07",
            "email": "PKZ-K-Thoerl-Maglern@polizei.gv.at",
            "fax": "+43 59133 2272209",
            "name": "Polizeikooperationszentrum Thörl-Maglern",
            "phone": "+43 59133 22 72200"
          },
          "geometry": {
            "type": "Point",
            "coordinates": [
              13.6397141,
              46.5356954
            ]
          }
        },
        {
          "type": "Feature",
          "properties": {
            "id": "9620332838",
            "osm_type": "node",
            "lat": 46.5063383,
            "lon": 13.6075993,
            "amenity": "police",
            "name": "Polizia Ferroviaria",
            "operator": "Polizia di Stato",
            "operator:wikidata": "Q897817",
            "operator:wikipedia": "it:Polizia di Stato"
          },
          "geometry": {
            "type": "Point",
            "coordinates": [
              13.6075993,
              46.5063383
            ]
          }
        },
        {
          "type": "Feature",
          "properties": {
            "id": "10169756570",
            "osm_type": "node",
            "lat": 46.6105801,
            "lon": 13.8555371,
            "addr:city": "Villach",
            "addr:housenumber": "34",
            "addr:postcode": "9500",
            "addr:street": "Trattengasse",
            "amenity": "police",
            "name": "Unfallkommando Villach",
            "phone": "+4359133264444"
          },
          "geometry": {
            "type": "Point",
            "coordinates": [
              13.8555371,
              46.6105801
            ]
          }
        },
        {
          "type": "Feature",
          "properties": {
            "id": "471786718",
            "osm_type": "node",
            "lat": 46.4362685,
            "lon": 14.0580838,
            "amenity": "police",
            "name": "Policijska postaja Jesenice"
          },
          "geometry": {
            "type": "Point",
            "coordinates": [
              14.0580838,
              46.4362685
            ]
          }
        },
        {
          "type": "Feature",
          "properties": {
            "id": "486609634",
            "osm_type": "node",
            "lat": 46.6200933,
            "lon": 14.2834106,
            "addr:city": "Klagenfurt am Wörthersee",
            "addr:country": "AT",
            "addr:housenumber": "137",
            "addr:postcode": "9020",
            "addr:street": "Villacher Straße",
            "amenity": "police",
            "email": "PI-K-Klagenfurt-Villacher-Strasse@polizei.gv.at",
            "fax": "+43 59133 2587-109",
            "name": "Polizeiinspektion Villacher Straße",
            "phone": "+43 59133 2587-100",
            "wheelchair": "no"
          },
          "geometry": {
            "type": "Point",
            "coordinates": [
              14.2834106,
              46.6200933
            ]
          }
        },
        {
          "type": "Feature",
          "properties": {
            "id": "539449954",
            "osm_type": "node",
            "lat": 46.6031356,
            "lon": 14.1733376,
            "addr:city": "Maria Wörth",
            "addr:country": "AT",
            "addr:housenumber": "55",
            "addr:postcode": "9081",
            "addr:street": "Seenstraße",
            "amenity": "police",
            "at_bev:addr_date": "2017-04-07",
            "check_date": "2025-08-17",
            "email": "PI-K-Reifnitz-am-Woerthersee@polizei.gv.at",
            "fax": "+43 59133 2115109",
            "name": "Polizeiinspektion Reifnitz am Wörthersee",
            "phone": "+43 59133 2115100"
          },
          "geometry": {
            "type": "Point",
            "coordinates": [
              14.1733376,
              46.6031356
            ]
          }
        },
        {
          "type": "Feature",
          "properties": {
            "id": "893892070",
            "osm_type": "node",
            "lat": 46.5923249,
            "lon": 14.2716276,
            "addr:city": "Klagenfurt am Wörthersee",
            "addr:country": "AT",
            "addr:housenumber": "124",
            "addr:postcode": "9073",
            "addr:street": "Keutschacher Straße",
            "amenity": "police",
            "at_bev:addr_date": "2017-04-07",
            "check_date": "2024-06-17",
            "email": "PI-K-Klagenfurt-Viktring@polizei.gv.at",
            "fax": "+43 59133 2586109",
            "name": "Polizeiinspektion Viktring",
            "phone": "+43 59133 2586100",
            "wheelchair": "yes"
          },
          "geometry": {
            "type": "Point",
            "coordinates": [
              14.2716276,
              46.5923249
            ]
          }
        },
        {
          "type": "Feature",
          "properties": {
            "id": "1490535575",
            "osm_type": "node",
            "lat": 46.6582217,
            "lon": 14.1743052,
            "addr:city": "Moosburg",
            "addr:country": "AT",
            "addr:housenumber": "5",
            "addr:postcode": "9062",
            "addr:street": "Klagenfurter Straße",
            "amenity": "police",
            "at_bev:addr_date": "2017-04-07",
            "email": "PI-K-Moosburg@polizei.gv.at",
            "fax": "+43 59133 2112-109",
            "name": "Polizeiinspektion Moosburg",
            "phone": "+43 59133 2112-100",
            "wheelchair": "yes"
          },
          "geometry": {
            "type": "Point",
            "coordinates": [
              14.1743052,
              46.6582217
            ]
          }
        },
        {
          "type": "Feature",
          "properties": {
            "id": "2419685511",
            "osm_type": "node",
            "lat": 46.6348369,
            "lon": 14.1467243,
            "addr:city": "Pörtschach am Wörther See",
            "addr:country": "AT",
            "addr:housenumber": "2",
            "addr:postcode": "9210",
            "addr:street": "Postgasse",
            "amenity": "police",
            "at_bev:addr_date": "2017-04-07",
            "check_date": "2024-04-17",
            "fax": "+43 59133 2114-109",
            "name": "Polizeiinspektion Pörtschach am Wörtersee",
            "phone": "+43 59133 2114-100"
          },
          "geometry": {
            "type": "Point",
            "coordinates": [
              14.1467243,
              46.6348369
            ]
          }
        },
        {
          "type": "Feature",
          "properties": {
            "id": "2420235052",
            "osm_type": "node",
            "lat": 46.6263115,
            "lon": 14.2145087,
            "addr:city": "Krumpendorf am Wörthersee",
            "addr:country": "AT",
            "addr:housenumber": "143",
            "addr:postcode": "9201",
            "addr:street": "Hauptstraße",
            "amenity": "police",
            "at_bev:addr_date": "2017-04-07",
            "name": "Polizeiinspektion Krumpendorf"
          },
          "geometry": {
            "type": "Point",
            "coordinates": [
              14.2145087,
              46.6263115
            ]
          }
        },
        {
          "type": "Feature",
          "properties": {
            "id": "4908976961",
            "osm_type": "node",
            "lat": 46.5226764,
            "lon": 14.168833,
            "addr:city": "Feistritz im Rosental",
            "addr:housenumber": "126",
            "addr:postcode": "9181",
            "addr:street": "Hauptplatz",
            "amenity": "police",
            "email": "PI-K-Feistritz-im-Rosental@polizei.gv.at",
            "fax": "+43 59133 2104-109",
            "name": "Polizeiinspektion Feistritz im Rosental",
            "phone": "+43 59133 2104-100"
          },
          "geometry": {
            "type": "Point",
            "coordinates": [
              14.168833,
              46.5226764
            ]
          }
        },
        {
          "type": "Feature",
          "properties": {
            "id": "5118018225",
            "osm_type": "node",
            "lat": 46.5468456,
            "lon": 14.0603891,
            "addr:city": "St. Jakob im Rosental",
            "addr:country": "AT",
            "addr:housenumber": "97",
            "addr:postcode": "9184",
            "addr:street": "Rosental Straße",
            "amenity": "police",
            "at_bev:addr_date": "2023-04-15",
            "email": "PI-K-St-Jakob-im-Rosental@polizei.gv.at",
            "fax": "+43 59133 2263-109",
            "name": "Polizeiinspektion St. Jakob im Rosental",
            "phone": "+43 59133 2263-100"
          },
          "geometry": {
            "type": "Point",
            "coordinates": [
              14.0603891,
              46.5468456
            ]
          }
        },
        {
          "type": "Feature",
          "properties": {
            "id": "5118023481",
            "osm_type": "node",
            "lat": 46.6131877,
            "lon": 14.0377647,
            "addr:city": "Velden am Wörther See",
            "addr:housenumber": "3",
            "addr:postcode": "9220",
            "addr:street": "10.-Oktober-Straße",
            "amenity": "police",
            "check_date": "2024-05-21",
            "email": "PI-K-Velden-am-Woerthersee@polizei.gv.at",
            "fax": "+43 59133 2259-109",
            "name": "Polizeiinspektion Velden",
            "phone": "+43 59133 2259-100",
            "source": "geoimage.at"
          },
          "geometry": {
            "type": "Point",
            "coordinates": [
              14.0377647,
              46.6131877
            ]
          }
        }
      ],
      "children": []
    },
    {
      "bbox": {
        "south": 46.372652,
        "west": 14.2994695,
        "north": 46.70320525,
        "east": 15.253173
      },
      "poiCount": 23,
      "leafCount": 23,
      "averagePosition": [
        14.5237964,
        46.61857654347826
      ],
      "data": [
        {
          "type": "Feature",
          "properties": {
            "id": "278208509",
            "osm_type": "node",
            "lat": 46.6154809,
            "lon": 14.5750915,
            "addr:city": "St. Kanzian am Klopeiner See",
            "addr:country": "AT",
            "addr:housenumber": "1a",
            "addr:postcode": "9122",
            "addr:street": "Klopeiner Straße",
            "amenity": "police",
            "at_bev:addr_date": "2017-04-07",
            "email": "PI-K-St-Kanzian-am-Klopeinersee@polizei.gv.at",
            "fax": "+43 59133 2154109",
            "name": "Polizeiinspektion St. Kanzian am Klopeiner See",
            "phone": "+43 59133 2154100",
            "website": "https://www.polizei.gv.at/ktn/lpd/dst/dienststellen.aspx"
          },
          "geometry": {
            "type": "Point",
            "coordinates": [
              14.5750915,
              46.6154809
            ]
          }
        },
        {
          "type": "Feature",
          "properties": {
            "id": "2484755744",
            "osm_type": "node",
            "lat": 46.5902188,
            "lon": 14.7970325,
            "addr:city": "Bleiburg",
            "addr:country": "AT",
            "addr:housenumber": "38",
            "addr:postcode": "9150",
            "addr:street": "10. Oktober Platz",
            "amenity": "police",
            "at_bev:addr_date": "2017-04-07",
            "check_date": "2025-08-30",
            "email": "PI-K-Bleiburg@polizei.gv.at",
            "fax": "+43 59133 2142109",
            "name": "Polizeiinspektion Bleiburg",
            "phone": "+43 59133 2142100"
          },
          "geometry": {
            "type": "Point",
            "coordinates": [
              14.7970325,
              46.5902188
            ]
          }
        },
        {
          "type": "Feature",
          "properties": {
            "id": "3900811093",
            "osm_type": "node",
            "lat": 46.6441524,
            "lon": 14.9409103,
            "addr:city": "Lavamünd",
            "addr:country": "AT",
            "addr:housenumber": "100",
            "addr:place": "Lavamünd",
            "addr:postcode": "9473",
            "amenity": "police",
            "at_bev:addr_date": "2017-04-07",
            "email": "PI-K-Lavamuend@polizei.gv.at",
            "fax": "+43 59133 2162109",
            "name": "Polizeiinspektion Lavamünd",
            "phone": "+43 59133 2162100"
          },
          "geometry": {
            "type": "Point",
            "coordinates": [
              14.9409103,
              46.6441524
            ]
          }
        },
        {
          "type": "Feature",
          "properties": {
            "id": "5131711475",
            "osm_type": "node",
            "lat": 46.6606661,
            "lon": 14.6233772,
            "amenity": "police",
            "email": "PI-K-Voelkermarkt@polizei.gv.at",
            "fax": "+43 59133 2140109",
            "name": "Polizeiinspektion Völkermarkt",
            "phone": "+43 59133 2140100"
          },
          "geometry": {
            "type": "Point",
            "coordinates": [
              14.6233772,
              46.6606661
            ]
          }
        },
        {
          "type": "Feature",
          "properties": {
            "id": "5131711476",
            "osm_type": "node",
            "lat": 46.6607356,
            "lon": 14.6233637,
            "addr:city": "Völkermarkt",
            "addr:country": "AT",
            "addr:housenumber": "3",
            "addr:postcode": "9100",
            "addr:street": "Ritzingstraße",
            "amenity": "police",
            "at_bev:addr_date": "2017-04-07",
            "email": "BPK-K-Voelkermarkt@polizei.gv.at",
            "fax": "+43 59133 2140309",
            "name": "Bezirkspolizeikommando Völkermarkt",
            "phone": "+43 59133 2140305"
          },
          "geometry": {
            "type": "Point",
            "coordinates": [
              14.6233637,
              46.6607356
            ]
          }
        },
        {
          "type": "Feature",
          "properties": {
            "id": "5133278806",
            "osm_type": "node",
            "lat": 46.5675814,
            "lon": 14.8372346,
            "addr:city": "Grablach",
            "addr:country": "AT",
            "addr:housenumber": "20",
            "addr:place": "Grablach",
            "addr:postcode": "9150",
            "amenity": "police",
            "at_bev:addr_date": "2017-04-07",
            "email": "GPI-K-Grablach@polizei.gv.at",
            "fax": "+43 59133 2148209",
            "name": "Polizeiinspektion Grablach AGM",
            "phone": "+43 59133 2148200"
          },
          "geometry": {
            "type": "Point",
            "coordinates": [
              14.8372346,
              46.5675814
            ]
          }
        },
        {
          "type": "Feature",
          "properties": {
            "id": "5133315237",
            "osm_type": "node",
            "lat": 46.4841098,
            "lon": 14.5927241,
            "addr:city": "Eisenkappel-Vellach",
            "addr:country": "AT",
            "addr:housenumber": "186",
            "addr:place": "Bad Eisenkappel",
            "addr:postcode": "9135",
            "amenity": "police",
            "at_bev:addr_date": "2017-04-07",
            "email": "PI-K-Bad-Eisenkappel@polizei.gv.at",
            "fax": "+43 59133 2145209",
            "name": "Polizeiinspektion Bad Eisenkappel",
            "phone": "+43 59133 2145200"
          },
          "geometry": {
            "type": "Point",
            "coordinates": [
              14.5927241,
              46.4841098
            ]
          }
        },
        {
          "type": "Feature",
          "properties": {
            "id": "5133325108",
            "osm_type": "node",
            "lat": 46.6841948,
            "lon": 14.6602839,
            "amenity": "police",
            "fax": "+43 59133 2155209",
            "name": "Verkehrskontrollpunkt Haimburg A2",
            "phone": "+43 59133 2155"
          },
          "geometry": {
            "type": "Point",
            "coordinates": [
              14.6602839,
              46.6841948
            ]
          }
        },
        {
          "type": "Feature",
          "properties": {
            "id": "5135779186",
            "osm_type": "node",
            "lat": 46.7001552,
            "lon": 14.8702432,
            "addr:city": "St. Paul im Lavanttal",
            "addr:country": "AT",
            "addr:housenumber": "19",
            "addr:postcode": "9470",
            "addr:street": "Hauptstraße",
            "amenity": "police",
            "at_bev:addr_date": "2017-04-07",
            "email": "PI-K-St-Paul-im-Lavanttal@polizei.gv.at",
            "fax": "+43 59133 2168109",
            "name": "Polizeiinspektion St. Paul im Lavanttal",
            "phone": "+43 59133 2168100"
          },
          "geometry": {
            "type": "Point",
            "coordinates": [
              14.8702432,
              46.7001552
            ]
          }
        },
        {
          "type": "Feature",
          "properties": {
            "id": "972020093",
            "osm_type": "node",
            "lat": 46.6139315,
            "lon": 15.2273089,
            "amenity": "police",
            "name": "Policijska postaja Radlje ob Dravi"
          },
          "geometry": {
            "type": "Point",
            "coordinates": [
              15.2273089,
              46.6139315
            ]
          }
        },
        {
          "type": "Feature",
          "properties": {
            "id": "262414836",
            "osm_type": "node",
            "lat": 46.6199112,
            "lon": 14.3072876,
            "amenity": "police",
            "check_date": "2024-07-30",
            "contact:fax": "+43 59133 2585 109",
            "contact:phone": "+43 59133 2585 100",
            "contact:website": "http://www.polizei.gv.at/ktn/",
            "email": "PI-K-Klagenfurt-St-Ruprechterstrasse@polizei.gv.at",
            "name": "Polizeiinspektion St. Ruprechter Straße"
          },
          "geometry": {
            "type": "Point",
            "coordinates": [
              14.3072876,
              46.6199112
            ]
          }
        },
        {
          "type": "Feature",
          "properties": {
            "id": "759303392",
            "osm_type": "node",
            "lat": 46.5235936,
            "lon": 14.3003651,
            "addr:city": "Ferlach",
            "addr:country": "AT",
            "addr:housenumber": "6",
            "addr:postcode": "9170",
            "addr:street": "Loiblstraße",
            "amenity": "police",
            "at_bev:addr_date": "2017-04-07",
            "contact:email": "PI-K-Ferlach@polizei.gv.at",
            "contact:fax": "+43 59133 2100-109",
            "contact:phone": "+43 59133 2100-100",
            "name": "Polizeiinspektion Ferlach",
            "source": "geoimage.at",
            "website": "https://www.polizei.gv.at/ktn/lpd/dst/dienststellen.aspx?org=2F355874596A564D756B513D"
          },
          "geometry": {
            "type": "Point",
            "coordinates": [
              14.3003651,
              46.5235936
            ]
          }
        },
        {
          "type": "Feature",
          "properties": {
            "id": "973809648",
            "osm_type": "node",
            "lat": 46.6254007,
            "lon": 14.3238793,
            "addr:city": "Klagenfurt am Wörthersee",
            "addr:country": "AT",
            "addr:housenumber": "2",
            "addr:postcode": "9020",
            "addr:street": "Alois-Schader-Straße",
            "amenity": "police",
            "at_bev:addr_date": "2016-10-02",
            "email": "PI-K-Klagenfurt-St-Peter@polizei.gv.at",
            "fax": "+43 59133 2584109",
            "name": "Polizeiinspektion St. Peter",
            "phone": "+43 059133 2584100"
          },
          "geometry": {
            "type": "Point",
            "coordinates": [
              14.3238793,
              46.6254007
            ]
          }
        },
        {
          "type": "Feature",
          "properties": {
            "id": "3252221279",
            "osm_type": "node",
            "lat": 46.6811665,
            "lon": 14.3475566,
            "addr:city": "Maria Saal",
            "addr:country": "AT",
            "addr:housenumber": "9",
            "addr:postcode": "9063",
            "addr:street": "Hauptplatz",
            "amenity": "police",
            "at_bev:addr_date": "2017-04-07",
            "email": "PI-K-Maria-Saal@polizei.gv.at",
            "fax": "+43 59133 2111109",
            "name": "Polizeiinspektion Maria Saal",
            "phone": "+43 59133 2111100"
          },
          "geometry": {
            "type": "Point",
            "coordinates": [
              14.3475566,
              46.6811665
            ]
          }
        },
        {
          "type": "Feature",
          "properties": {
            "id": "4733548938",
            "osm_type": "node",
            "lat": 46.6172382,
            "lon": 14.465506,
            "addr:city": "Grafenstein",
            "addr:country": "AT",
            "addr:housenumber": "1",
            "addr:postcode": "9131",
            "addr:street": "ÖR-Valentin-Deutschmann-Platz",
            "amenity": "police",
            "at_bev:addr_date": "2017-04-07",
            "email": "PI-K-Grafenstein@polizei.gv.at",
            "fax": "+43 59133 2106-109",
            "name": "Polizeiinspektion Grafenstein",
            "phone": "+43 59133 2106-100",
            "wheelchair": "no"
          },
          "geometry": {
            "type": "Point",
            "coordinates": [
              14.465506,
              46.6172382
            ]
          }
        },
        {
          "type": "Feature",
          "properties": {
            "id": "4897215320",
            "osm_type": "node",
            "lat": 46.6200847,
            "lon": 14.3073915,
            "alt_name": "LPD Kärnten",
            "amenity": "police",
            "email": "LPD-K@polizei.gv.at",
            "name": "Landespolizeidirektion Kärnten",
            "phone": "+43 59133 20",
            "short_name": "LPD K"
          },
          "geometry": {
            "type": "Point",
            "coordinates": [
              14.3073915,
              46.6200847
            ]
          }
        },
        {
          "type": "Feature",
          "properties": {
            "id": "4897566123",
            "osm_type": "node",
            "lat": 46.632159,
            "lon": 14.3140912,
            "amenity": "police",
            "fax": "+43 59133 2588-109",
            "name": "Verkehrsinspektion Klagenfurt am Wörthersee",
            "phone": "+43 059133 2588-100"
          },
          "geometry": {
            "type": "Point",
            "coordinates": [
              14.3140912,
              46.632159
            ]
          }
        },
        {
          "type": "Feature",
          "properties": {
            "id": "4897572096",
            "osm_type": "node",
            "lat": 46.6509386,
            "lon": 14.3236372,
            "addr:city": "Klagenfurt am Wörthersee",
            "addr:country": "AT",
            "addr:housenumber": "49",
            "addr:postcode": "9020",
            "addr:street": "Flughafenstraße",
            "amenity": "police",
            "contact:fax": "+43 59133  2581-109",
            "contact:phone": "+43 59133  2581-100",
            "name": "Polizeiinspektion Annabichl-Flughafen"
          },
          "geometry": {
            "type": "Point",
            "coordinates": [
              14.3236372,
              46.6509386
            ]
          }
        },
        {
          "type": "Feature",
          "properties": {
            "id": "4908941937",
            "osm_type": "node",
            "lat": 46.5235154,
            "lon": 14.300314,
            "addr:city": "Ferlach",
            "addr:country": "AT",
            "addr:housenumber": "6",
            "addr:postcode": "9170",
            "addr:street": "Loiblstraße",
            "amenity": "police",
            "at_bev:addr_date": "2017-04-07",
            "contact:email": "BPK-K-Klagenfurt@polizei.gv.at",
            "contact:fax": "+43 59133 2100-309",
            "contact:phone": "+43 59133 2100-305",
            "name": "Bezirkspolizeikommando Klagenfurt",
            "source": "geoimage.at",
            "website": "https://www.polizei.gv.at/ktn/lpd/dst/dienststellen.aspx?org=2F355874596A564D756B513D"
          },
          "geometry": {
            "type": "Point",
            "coordinates": [
              14.300314,
              46.5235154
            ]
          }
        },
        {
          "type": "Feature",
          "properties": {
            "id": "4908960011",
            "osm_type": "node",
            "lat": 46.6115276,
            "lon": 14.3595117,
            "addr:city": "Ebenthal in Kärnten",
            "addr:country": "AT",
            "addr:housenumber": "2",
            "addr:postcode": "9065",
            "addr:street": "Medizinweg",
            "amenity": "police",
            "at_bev:addr_date": "2017-04-07",
            "email": "PI-K-Ebenthal@polizei.gv.at",
            "fax": "+43 59133 2103-109",
            "name": "Polizeiinspektion Ebenthal in Kärnten",
            "phone": "+43 59133 2103-100"
          },
          "geometry": {
            "type": "Point",
            "coordinates": [
              14.3595117,
              46.6115276
            ]
          }
        },
        {
          "type": "Feature",
          "properties": {
            "id": "5131589812",
            "osm_type": "node",
            "lat": 46.6508824,
            "lon": 14.3236332,
            "addr:city": "Klagenfurt am Wörthersee",
            "addr:country": "AT",
            "addr:housenumber": "49",
            "addr:postcode": "9020",
            "addr:street": "Flughafenstraße",
            "amenity": "police",
            "at_bev:addr_date": "2017-04-07",
            "contact:email": "LPD-K-LVA-API-Klagenfurt-am-Woerthersee@polizei.gv.at",
            "contact:fax": "+43 59133  2594-209",
            "contact:phone": "+43 59133  2594-200",
            "name": "Autobahnpolizeiinspektion Klagenfurt am Wörthersee"
          },
          "geometry": {
            "type": "Point",
            "coordinates": [
              14.3236332,
              46.6508824
            ]
          }
        },
        {
          "type": "Feature",
          "properties": {
            "id": "5245529329",
            "osm_type": "node",
            "lat": 46.6250489,
            "lon": 14.3223246,
            "amenity": "police"
          },
          "geometry": {
            "type": "Point",
            "coordinates": [
              14.3223246,
              46.6250489
            ]
          }
        },
        {
          "type": "Feature",
          "properties": {
            "id": "11178508958",
            "osm_type": "node",
            "lat": 46.6245672,
            "lon": 14.3042493,
            "addr:housenumber": "4",
            "addr:street": "Heiligengeistplatz",
            "amenity": "police",
            "check_date": "2023-09-09",
            "email": "PI-K-Klagenfurt-Heiligengeistplatz@polizei.gv.at",
            "fax": "+43 59133 2583-109",
            "level": "0",
            "name": "Polizeiinspektion aW-Heiligengeistplatz",
            "phone": "+43 591332583100",
            "website": "https://www.polizei.gv.at/ktn/lpd/dst/dienststellen.aspx?org=79546A777A4738673358343D"
          },
          "geometry": {
            "type": "Point",
            "coordinates": [
              14.3042493,
              46.6245672
            ]
          }
        }
      ],
      "children": []
    },
    {
      "bbox": {
        "south": 46.70320525,
        "west": 13.345766,
        "north": 47.033758500000005,
        "east": 14.2994695
      },
      "poiCount": 16,
      "leafCount": 16,
      "averagePosition": [
        13.70171368125,
        46.8106667125
      ],
      "data": [
        {
          "type": "Feature",
          "properties": {
            "id": "1303311239",
            "osm_type": "node",
            "lat": 46.9050675,
            "lon": 13.5306977,
            "addr:city": "Gmünd in Kärnten",
            "addr:country": "AT",
            "addr:housenumber": "31",
            "addr:place": "Untere Vorstadt",
            "addr:postcode": "9853",
            "amenity": "police",
            "at_bev:addr_date": "2017-04-07",
            "check_date": "2024-08-09",
            "email": "PI-K-Gmuend-in-Kaernten@polizei.gv.at",
            "fax": "+43 59133 2223109",
            "name": "Polizeiinspektion Gmünd in Kärnten",
            "phone": "+43 59133 2223100"
          },
          "geometry": {
            "type": "Point",
            "coordinates": [
              13.5306977,
              46.9050675
            ]
          }
        },
        {
          "type": "Feature",
          "properties": {
            "id": "472642525",
            "osm_type": "node",
            "lat": 47.0173114,
            "lon": 13.6126645,
            "addr:city": "Rennweg am Katschberg",
            "addr:country": "AT",
            "addr:housenumber": "6",
            "addr:place": "Rennweg",
            "addr:postcode": "9863",
            "amenity": "police",
            "at_bev:addr_date": "2017-04-07",
            "email": "PI-K-Rennweg-am-Katschberg@polizei.gv.at",
            "fax": "+43 59133 2234109",
            "name": "Polizeiinspektion Rennweg am Katschberg",
            "phone": "+43 59133 2234100"
          },
          "geometry": {
            "type": "Point",
            "coordinates": [
              13.6126645,
              47.0173114
            ]
          }
        },
        {
          "type": "Feature",
          "properties": {
            "id": "599711750",
            "osm_type": "node",
            "lat": 46.8372019,
            "lon": 13.368984,
            "addr:city": "Lurnfeld",
            "addr:country": "AT",
            "addr:housenumber": "2",
            "addr:postcode": "9813",
            "addr:street": "Hauptstraße",
            "amenity": "police",
            "at_bev:addr_date": "2017-04-07",
            "check_date": "2024-11-01",
            "designation": "pi-k-moellbruecke",
            "email": "PI-K-Moellbruecke@polizei.gv.at",
            "fax": "+43 59133 2229-109",
            "name": "Polizeiinspektion Möllbrücke",
            "phone": "+43 59133 2229-100"
          },
          "geometry": {
            "type": "Point",
            "coordinates": [
              13.368984,
              46.8372019
            ]
          }
        },
        {
          "type": "Feature",
          "properties": {
            "id": "1430152555",
            "osm_type": "node",
            "lat": 46.8189056,
            "lon": 13.5183247,
            "addr:city": "Seeboden am Millstätter See",
            "addr:country": "AT",
            "addr:housenumber": "9",
            "addr:postcode": "9871",
            "addr:street": "Hauptplatz",
            "amenity": "police",
            "at_bev:addr_date": "2017-04-07",
            "check_date": "2024-09-02",
            "contact:email": "PI-K-Seeboden@polizei.gv.at",
            "contact:fax": "+43 59133 2235-109",
            "contact:phone": "+43 59133 2235-100",
            "name": "Polizeiinspektion Seeboden am Millstättersee"
          },
          "geometry": {
            "type": "Point",
            "coordinates": [
              13.5183247,
              46.8189056
            ]
          }
        },
        {
          "type": "Feature",
          "properties": {
            "id": "5122573160",
            "osm_type": "node",
            "lat": 46.7969857,
            "lon": 13.4950894,
            "addr:city": "Spittal an der Drau",
            "addr:country": "AT",
            "addr:housenumber": "2",
            "addr:postcode": "9800",
            "addr:street": "Dr.-Arthur-Lemisch-Platz",
            "amenity": "police",
            "at_bev:addr_date": "2017-04-07",
            "email": "PI-K-Spittal-an-der-Drau@polizei.gv.at",
            "fax": "+43 59133 2220109",
            "name": "Polizeiinspektion Spittal an der Drau",
            "phone": "+43 59133 2220100"
          },
          "geometry": {
            "type": "Point",
            "coordinates": [
              13.4950894,
              46.7969857
            ]
          }
        },
        {
          "type": "Feature",
          "properties": {
            "id": "5122573161",
            "osm_type": "node",
            "lat": 46.7970555,
            "lon": 13.4951457,
            "addr:city": "Spittal an der Drau",
            "addr:country": "AT",
            "addr:housenumber": "2",
            "addr:postcode": "9800",
            "addr:street": "Dr.-Arthur-Lemisch-Platz",
            "amenity": "police",
            "at_bev:addr_date": "2017-04-07",
            "email": "BPK-K-Spittal-an-der-Drau@polizei.gv.at",
            "fax": "+43 59133 2220309",
            "name": "Bezirkspolizeikommando Spittal an der Drau",
            "phone": "+43 59133 2220305"
          },
          "geometry": {
            "type": "Point",
            "coordinates": [
              13.4951457,
              46.7970555
            ]
          }
        },
        {
          "type": "Feature",
          "properties": {
            "id": "5131580696",
            "osm_type": "node",
            "lat": 46.8303713,
            "lon": 13.4651801,
            "addr:city": "Lendorf",
            "addr:country": "AT",
            "addr:housenumber": "17",
            "addr:place": "Feichtendorf",
            "addr:postcode": "9811",
            "amenity": "police",
            "at_bev:addr_date": "2017-04-07",
            "email": "API-K-Spittal-an-der-Drau@polizei.gv.at",
            "fax": "+43 59133 2236209",
            "name": "Autobahnpolizeiinspektion Spittal an der Drau",
            "phone": "+43 59133 2236200"
          },
          "geometry": {
            "type": "Point",
            "coordinates": [
              13.4651801,
              46.8303713
            ]
          }
        },
        {
          "type": "Feature",
          "properties": {
            "id": "3142050105",
            "osm_type": "node",
            "lat": 46.8031381,
            "lon": 13.5701554,
            "addr:city": "Millstatt am See",
            "addr:country": "AT",
            "addr:housenumber": "179",
            "addr:postcode": "9872",
            "addr:street": "Kaiser-Franz-Josef-Straße",
            "amenity": "police",
            "at_bev:addr_date": "2017-04-07",
            "email": "PI-K-Millstatt@polizei.gv.at",
            "fax": "+43 59133 2228109",
            "name": "Polizeiinspektion Millstatt",
            "phone": "+43 59133 2228100"
          },
          "geometry": {
            "type": "Point",
            "coordinates": [
              13.5701554,
              46.8031381
            ]
          }
        },
        {
          "type": "Feature",
          "properties": {
            "id": "3609171309",
            "osm_type": "node",
            "lat": 46.8129626,
            "lon": 13.7934401,
            "addr:city": "Bad Kleinkirchheim",
            "addr:country": "AT",
            "addr:housenumber": "58",
            "addr:postcode": "9546",
            "addr:street": "Dorfstraße",
            "amenity": "police",
            "at_bev:addr_date": "2017-04-07",
            "email": "PI-K-Bad-Kleinkirchheim@polizei.gv.at",
            "fax": "+43 59133 2221109",
            "name": "Polizeiinspektion Bad Kleinkirchheim",
            "phone": "+43 59133 2221100"
          },
          "geometry": {
            "type": "Point",
            "coordinates": [
              13.7934401,
              46.8129626
            ]
          }
        },
        {
          "type": "Feature",
          "properties": {
            "id": "4280851533",
            "osm_type": "node",
            "lat": 46.8179673,
            "lon": 13.8645577,
            "addr:city": "Reichenau",
            "addr:country": "AT",
            "addr:housenumber": "55",
            "addr:place": "Patergassen",
            "addr:postcode": "9564",
            "amenity": "police",
            "at_bev:addr_date": "2017-04-07",
            "email": "PI-K-Patergassen@polizei.gv.at",
            "fax": "+43 59133 2205-109",
            "name": "Polizeiinspektion Patergassen",
            "phone": "+43 59133 2205-100"
          },
          "geometry": {
            "type": "Point",
            "coordinates": [
              13.8645577,
              46.8179673
            ]
          }
        },
        {
          "type": "Feature",
          "properties": {
            "id": "5015912993",
            "osm_type": "node",
            "lat": 46.7138484,
            "lon": 13.6346768,
            "addr:city": "Paternion",
            "addr:housenumber": "78",
            "addr:street": "Hauptstraße",
            "amenity": "police",
            "email": "PI-K-Paternion@polizei.gv.at",
            "fax": "+43 59133 2258109",
            "name": "Polizeiinspektion Paternion",
            "phone": "+43 59133 2258100"
          },
          "geometry": {
            "type": "Point",
            "coordinates": [
              13.6346768,
              46.7138484
            ]
          }
        },
        {
          "type": "Feature",
          "properties": {
            "id": "5116059979",
            "osm_type": "node",
            "lat": 46.7267944,
            "lon": 13.7870814,
            "addr:city": "Afritz am See",
            "addr:country": "AT",
            "addr:housenumber": "81",
            "addr:postcode": "9542",
            "addr:street": "Millstätter Straße",
            "amenity": "police",
            "at_bev:addr_date": "2017-04-07",
            "email": "PI-K-Afritz-am-See@polizei.gv.at",
            "fax": "+43 59133 2251-109",
            "name": "Polizeiinspektion Afritz am See",
            "phone": "+43 59133 2251-100"
          },
          "geometry": {
            "type": "Point",
            "coordinates": [
              13.7870814,
              46.7267944
            ]
          }
        },
        {
          "type": "Feature",
          "properties": {
            "id": "5122757456",
            "osm_type": "node",
            "lat": 46.7998024,
            "lon": 13.7021157,
            "addr:city": "Radenthein",
            "addr:country": "AT",
            "addr:housenumber": "27",
            "addr:place": "Neue Heimat",
            "addr:postcode": "9545",
            "amenity": "police",
            "at_bev:addr_date": "2017-04-07",
            "email": "PI-K-Radenthein@polizei.gv.at",
            "fax": "+43 59133 2233109",
            "name": "Polizeiinspektion Radenthein",
            "phone": "+43 59133 2233100"
          },
          "geometry": {
            "type": "Point",
            "coordinates": [
              13.7021157,
              46.7998024
            ]
          }
        },
        {
          "type": "Feature",
          "properties": {
            "id": "1203025993",
            "osm_type": "node",
            "lat": 46.7224243,
            "lon": 14.0980227,
            "addr:city": "Feldkirchen in Kärnten",
            "addr:country": "AT",
            "addr:housenumber": "27",
            "addr:postcode": "9560",
            "addr:street": "10.-Oktober-Straße",
            "amenity": "police",
            "at_bev:addr_date": "2017-04-07",
            "email": "BPK-K-Feldkirchen@polizei.gv.at",
            "fax": "+43 59133 2200309",
            "name": "Bezirkspolizeikommando Feldkirchen",
            "phone": "+43 59133 2200305"
          },
          "geometry": {
            "type": "Point",
            "coordinates": [
              14.0980227,
              46.7224243
            ]
          }
        },
        {
          "type": "Feature",
          "properties": {
            "id": "5120450629",
            "osm_type": "node",
            "lat": 46.7223259,
            "lon": 14.0981634,
            "addr:city": "Feldkirchen in Kärnten",
            "addr:country": "AT",
            "addr:housenumber": "27",
            "addr:postcode": "9560",
            "addr:street": "10.-Oktober-Straße",
            "amenity": "police",
            "at_bev:addr_date": "2017-04-07",
            "check_date": "2025-04-12",
            "email": "PI-K-Feldkirchen@polizei.gv.at",
            "fax": "+43 59133 2200109",
            "name": "Polizeiinspektion Feldkirchen",
            "phone": "+43 59133 2200100"
          },
          "geometry": {
            "type": "Point",
            "coordinates": [
              14.0981634,
              46.7223259
            ]
          }
        },
        {
          "type": "Feature",
          "properties": {
            "id": "5131695558",
            "osm_type": "node",
            "lat": 46.8485051,
            "lon": 14.1931196,
            "addr:city": "Weitensfeld im Gurktal",
            "addr:country": "AT",
            "addr:housenumber": "7",
            "addr:postcode": "9344",
            "addr:street": "Marktstraße",
            "amenity": "police",
            "at_bev:addr_date": "2017-04-07",
            "email": "PI-K-Weitensfeld@polizei.gv.at",
            "fax": "+43 59133 2131109",
            "fixme": "Ist der Standort der Polizeiinspektion korrekt? (Homepage LPD sagt etwas Anderes)",
            "name": "Polizeiinspektion Weitensfeld",
            "phone": "+43 59133 2131100"
          },
          "geometry": {
            "type": "Point",
            "coordinates": [
              14.1931196,
              46.8485051
            ]
          }
        }
      ],
      "children": []
    },
    {
      "bbox": {
        "south": 46.70320525,
        "west": 14.2994695,
        "north": 47.033758500000005,
        "east": 15.253173
      },
      "poiCount": 20,
      "leafCount": 20,
      "averagePosition": [
        14.770809315,
        46.859577595000005
      ],
      "data": [
        {
          "type": "Feature",
          "properties": {
            "id": "1704228758",
            "osm_type": "node",
            "lat": 46.8337869,
            "lon": 14.8444531,
            "addr:city": "Wolfsberg",
            "addr:country": "AT",
            "addr:housenumber": "11",
            "addr:postcode": "9400",
            "addr:street": "Lindhofstraße",
            "amenity": "police",
            "at_bev:addr_date": "2017-04-07",
            "email": "BPK-K-Wolfsberg@polizei.gv.at",
            "fax": "+43 59133 2160-309",
            "name": "Bezirkspolizeikommando Wolfsberg",
            "phone": "+43 59133 2160-305"
          },
          "geometry": {
            "type": "Point",
            "coordinates": [
              14.8444531,
              46.8337869
            ]
          }
        },
        {
          "type": "Feature",
          "properties": {
            "id": "1770239341",
            "osm_type": "node",
            "lat": 46.8358294,
            "lon": 14.5406842,
            "addr:city": "Klein St. Paul",
            "addr:country": "AT",
            "addr:housenumber": "17",
            "addr:postcode": "9373",
            "addr:street": "Marktstraße",
            "amenity": "police",
            "at_bev:addr_date": "2017-04-07",
            "check_date": "2024-07-07",
            "email": "PI-K-Klein-St-Paul@polizei.gv.at",
            "fax": "+43 59133 2124-109",
            "name": "Polizeiinspektion Klein St. Paul",
            "phone": "+43 59133 2124-100"
          },
          "geometry": {
            "type": "Point",
            "coordinates": [
              14.5406842,
              46.8358294
            ]
          }
        },
        {
          "type": "Feature",
          "properties": {
            "id": "4680033290",
            "osm_type": "node",
            "lat": 46.7033264,
            "lon": 14.7287701,
            "addr:city": "Griffen",
            "addr:country": "AT",
            "addr:housenumber": "24",
            "addr:postcode": "9112",
            "addr:street": "Hauptplatz",
            "amenity": "police",
            "at_bev:addr_date": "2017-04-07",
            "contact:email": "PI-K-Griffen@polizei.gv.at",
            "contact:fax": "+43 59133 2149 109",
            "contact:phone": "+43 59133 2149 100",
            "name": "Polizeiinspektion Griffen"
          },
          "geometry": {
            "type": "Point",
            "coordinates": [
              14.7287701,
              46.7033264
            ]
          }
        },
        {
          "type": "Feature",
          "properties": {
            "id": "5133344123",
            "osm_type": "node",
            "lat": 46.8337629,
            "lon": 14.8443552,
            "addr:city": "Wolfsberg",
            "addr:country": "AT",
            "addr:housenumber": "7",
            "addr:postcode": "9400",
            "addr:street": "Lindhofstraße",
            "amenity": "police",
            "at_bev:addr_date": "2017-04-07",
            "fax": "+43 59133 2160109",
            "name": "Polizeiinspektion Wolfsberg",
            "phone": "+43 59133 2160100"
          },
          "geometry": {
            "type": "Point",
            "coordinates": [
              14.8443552,
              46.8337629
            ]
          }
        },
        {
          "type": "Feature",
          "properties": {
            "id": "5133395875",
            "osm_type": "node",
            "lat": 46.7602336,
            "lon": 14.8219608,
            "addr:city": "St. Andrä",
            "addr:country": "AT",
            "addr:housenumber": "61",
            "addr:place": "Burgstall-St. Andrä",
            "addr:postcode": "9433",
            "amenity": "police",
            "at_bev:addr_date": "2017-04-07",
            "check_date": "2025-09-03",
            "email": "PI-K-St-Andrae-im-Lavanttal@polizei.gv.at",
            "fax": "+43 59133 2166109",
            "name": "Polizeiinspektion St. Andrä im Lavanttal",
            "phone": "+43 59133 2166100"
          },
          "geometry": {
            "type": "Point",
            "coordinates": [
              14.8219608,
              46.7602336
            ]
          }
        },
        {
          "type": "Feature",
          "properties": {
            "id": "5135746064",
            "osm_type": "node",
            "lat": 46.8682144,
            "lon": 14.8759013,
            "addr:city": "Frantschach-St. Gertraud",
            "addr:country": "AT",
            "addr:housenumber": "1",
            "addr:place": "St. Gertraud",
            "addr:postcode": "9413",
            "amenity": "police",
            "at_bev:addr_date": "2017-04-07",
            "email": "PI-K-St-Gertraud-im-Lavanttal@polizei.gv.at",
            "fax": "+43 59133 2167109",
            "name": "Polizeiinspektion St. Gertraud",
            "phone": "+43 59133 2167100"
          },
          "geometry": {
            "type": "Point",
            "coordinates": [
              14.8759013,
              46.8682144
            ]
          }
        },
        {
          "type": "Feature",
          "properties": {
            "id": "5135822296",
            "osm_type": "node",
            "lat": 46.8370826,
            "lon": 14.8196125,
            "addr:city": "St. Michael",
            "addr:country": "AT",
            "addr:housenumber": "7",
            "addr:postcode": "9400",
            "addr:street": "Autobahnweg",
            "amenity": "police",
            "at_bev:addr_date": "2022-04-03",
            "email": "API-K-Wolfsberg@polizei.gv.at",
            "fax": "+43 59133 2171209",
            "name": "Autobahnpolizeiinspektion Wolfsberg",
            "phone": "+43 59133 2171200"
          },
          "geometry": {
            "type": "Point",
            "coordinates": [
              14.8196125,
              46.8370826
            ]
          }
        },
        {
          "type": "Feature",
          "properties": {
            "id": "1363105823",
            "osm_type": "node",
            "lat": 46.7570713,
            "lon": 15.2003178,
            "addr:city": "Schwanberg",
            "addr:country": "AT",
            "addr:housenumber": "17",
            "addr:postcode": "8541",
            "addr:street": "Hauptplatz",
            "amenity": "police",
            "at_bev:addr_date": "2017-04-07",
            "contact:email": "PI-ST-Schwanberg@polizei.gv.at",
            "contact:phone": "059 133 6109 100",
            "designation": "Police Station Schwanberg",
            "name": "Polizeiinspektion Schwanberg",
            "source": "Lukas Andracher",
            "website": "https://www.polizei.gv.at/stmk/lpd/dst/dienststellen.aspx?org=7A6A3259635161485338303D"
          },
          "geometry": {
            "type": "Point",
            "coordinates": [
              15.2003178,
              46.7570713
            ]
          }
        },
        {
          "type": "Feature",
          "properties": {
            "id": "7350605220",
            "osm_type": "node",
            "lat": 46.8178202,
            "lon": 15.2164079,
            "addr:city": "Deutschlandsberg",
            "addr:housenumber": "6",
            "addr:postcode": "8530",
            "addr:street": "Bahnhofstraße",
            "amenity": "police",
            "email": "PI-ST-Deutschlandsberg@polizei.gv.at",
            "name": "Polizeiinspektion Deutschlandsberg",
            "phone": "+4359133 6100-100"
          },
          "geometry": {
            "type": "Point",
            "coordinates": [
              15.2164079,
              46.8178202
            ]
          }
        },
        {
          "type": "Feature",
          "properties": {
            "id": "2098132533",
            "osm_type": "node",
            "lat": 46.9497596,
            "lon": 14.4061582,
            "addr:city": "Friesach",
            "addr:country": "AT",
            "addr:housenumber": "8",
            "addr:postcode": "9360",
            "addr:street": "Herrengasse",
            "amenity": "police",
            "at_bev:addr_date": "2017-04-07",
            "designation": "Police Station Friesach",
            "email": "PI-K-Friesach@polizei.gv.at",
            "fax": "+43 59133 2122-109",
            "name": "Polizeiinspektion Friesach",
            "phone": "+43 59133 2122-100"
          },
          "geometry": {
            "type": "Point",
            "coordinates": [
              14.4061582,
              46.9497596
            ]
          }
        },
        {
          "type": "Feature",
          "properties": {
            "id": "5131676379",
            "osm_type": "node",
            "lat": 46.8950687,
            "lon": 14.3345967,
            "addr:city": "Straßburg",
            "addr:country": "AT",
            "addr:housenumber": "3",
            "addr:postcode": "9341",
            "addr:street": "Hauptstraße",
            "amenity": "police",
            "at_bev:addr_date": "2017-04-07",
            "email": "PI-K-Strassburg@polizei.gv.at",
            "fax": "+43 59133 2128109",
            "name": "Polizeiinspektion Straßburg",
            "phone": "+43 59133 2128100"
          },
          "geometry": {
            "type": "Point",
            "coordinates": [
              14.3345967,
              46.8950687
            ]
          }
        },
        {
          "type": "Feature",
          "properties": {
            "id": "1837497734",
            "osm_type": "node",
            "lat": 46.9632384,
            "lon": 14.7926385,
            "addr:city": "Bad St. Leonhard im Lavanttal",
            "addr:housenumber": "18",
            "addr:postcode": "9462",
            "addr:street": "Hauptplatz",
            "amenity": "police",
            "email": "PI-K-Bad-St-Leonhard-im-Lavanttal@polizei.gv.at",
            "fax": "+43 59133 2161109",
            "name": "Polizeiinspektion Bad St. Leonhard im Lavanttal",
            "phone": "+43 59133 2161100"
          },
          "geometry": {
            "type": "Point",
            "coordinates": [
              14.7926385,
              46.9632384
            ]
          }
        },
        {
          "type": "Feature",
          "properties": {
            "id": "4365466271",
            "osm_type": "node",
            "lat": 46.9386734,
            "lon": 14.9247898,
            "addr:city": "Preitenegg",
            "addr:country": "AT",
            "addr:housenumber": "5",
            "addr:place": "Preitenegg",
            "addr:postcode": "9451",
            "amenity": "police",
            "at_bev:addr_date": "2017-04-07",
            "email": "PI-K-Preitenegg@polizei.gv.at",
            "fax": "+43 59133 2164109",
            "name": "Polizeiinspektion Preitenegg",
            "phone": "+43 59133 2164100"
          },
          "geometry": {
            "type": "Point",
            "coordinates": [
              14.9247898,
              46.9386734
            ]
          }
        },
        {
          "type": "Feature",
          "properties": {
            "id": "451849272",
            "osm_type": "node",
            "lat": 47.0092509,
            "lon": 15.215472,
            "addr:city": "Krottendorf-Gaisfeld",
            "addr:country": "AT",
            "addr:housenumber": "161a",
            "addr:place": "Krottendorf",
            "addr:postcode": "8564",
            "amenity": "police",
            "at_bev:addr_date": "2017-04-07",
            "name": "Polizeiinspektion Krottendorf-Gaisfeld"
          },
          "geometry": {
            "type": "Point",
            "coordinates": [
              15.215472,
              47.0092509
            ]
          }
        },
        {
          "type": "Feature",
          "properties": {
            "id": "672946882",
            "osm_type": "node",
            "lat": 46.990856,
            "lon": 15.1518235,
            "addr:city": "Ligist",
            "addr:housenumber": "151",
            "addr:postcode": "8563",
            "addr:street": "Unterwald",
            "amenity": "police",
            "name": "Autobahnpolizeiinspektion Unterwald"
          },
          "geometry": {
            "type": "Point",
            "coordinates": [
              15.1518235,
              46.990856
            ]
          }
        },
        {
          "type": "Feature",
          "properties": {
            "id": "4030390368",
            "osm_type": "node",
            "lat": 47.0234939,
            "lon": 15.0520499,
            "addr:city": "Edelschrott",
            "addr:country": "AT",
            "addr:housenumber": "46",
            "addr:postcode": "8583",
            "addr:street": "Packer Straße",
            "amenity": "police",
            "at_bev:addr_date": "2017-04-07",
            "contact:email": "PI-ST-Edelschrott@polizei.gv.at",
            "contact:fax": "+43 59 133 6192-109",
            "contact:phone": "+43 59 133 6192-100",
            "name": "Polizeiinspektion Edelschrott",
            "website": "https://www.polizei.gv.at/stmk/l"
          },
          "geometry": {
            "type": "Point",
            "coordinates": [
              15.0520499,
              47.0234939
            ]
          }
        },
        {
          "type": "Feature",
          "properties": {
            "id": "807093603",
            "osm_type": "node",
            "lat": 46.8719943,
            "lon": 14.4692227,
            "addr:city": "Althofen",
            "addr:country": "AT",
            "addr:housenumber": "4",
            "addr:postcode": "9330",
            "addr:street": "Hauptplatz",
            "amenity": "police",
            "at_bev:addr_date": "2017-04-07",
            "email": "PI-K-Althofen@polizei.gv.at",
            "fax": "+43 59133 2129109",
            "name": "Polizeiinspektion Althofen",
            "phone": "+43 59133 2129100"
          },
          "geometry": {
            "type": "Point",
            "coordinates": [
              14.4692227,
              46.8719943
            ]
          }
        },
        {
          "type": "Feature",
          "properties": {
            "id": "2131154553",
            "osm_type": "node",
            "lat": 46.7669628,
            "lon": 14.3606008,
            "addr:city": "Sankt Veit an der Glan",
            "addr:country": "AT",
            "addr:housenumber": "1",
            "addr:postcode": "9300",
            "addr:street": "Platz am Graben",
            "amenity": "police",
            "at_bev:addr_date": "2017-04-07",
            "check_date": "2025-04-12",
            "email": "BPK-K-St-Veit-an-der-Glan@polizei.gv.at",
            "fax": "+43 59133 2120-309",
            "name": "Bezirkspolizeikommando St. Veit an der Glan",
            "phone": "+43 59133 2120-305",
            "wheelchair": "yes"
          },
          "geometry": {
            "type": "Point",
            "coordinates": [
              14.3606008,
              46.7669628
            ]
          }
        },
        {
          "type": "Feature",
          "properties": {
            "id": "5131601621",
            "osm_type": "node",
            "lat": 46.7669191,
            "lon": 14.3605211,
            "addr:city": "Sankt Veit an der Glan",
            "addr:country": "AT",
            "addr:housenumber": "1",
            "addr:postcode": "9300",
            "addr:street": "Platz am Graben",
            "amenity": "police",
            "at_bev:addr_date": "2017-04-07",
            "check_date": "2025-04-12",
            "email": "PI-K-St-Veit-an-der-Glan@polizei.gv.at",
            "fax": "+43 59133 2120109",
            "name": "Polizeiinspektion St. Veit an der Glan",
            "phone": "+43 59133 2120100",
            "wheelchair": "yes"
          },
          "geometry": {
            "type": "Point",
            "coordinates": [
              14.3605211,
              46.7669191
            ]
          }
        },
        {
          "type": "Feature",
          "properties": {
            "id": "5131655471",
            "osm_type": "node",
            "lat": 46.7682071,
            "lon": 14.4558502,
            "addr:city": "St. Georgen am Längsee",
            "addr:country": "AT",
            "addr:housenumber": "12",
            "addr:postcode": "9314",
            "addr:street": "Hauptstraße",
            "amenity": "police",
            "at_bev:addr_date": "2017-04-07",
            "email": "PI-K-Launsdorf@polizei.gv.at",
            "fax": "+43 59133 2125109",
            "name": "Polizeiinspektion Launsdorf",
            "phone": "+43 59133 2125100"
          },
          "geometry": {
            "type": "Point",
            "coordinates": [
              14.4558502,
              46.7682071
            ]
          }
        }
      ],
      "children": []
    }
  ]
}