{
  "bbox": {
    "south": 47.033758500000005,
    "west": 15.253173,
    "north": 47.694865,
    "east": 17.16058
  },
  "poiCount": 81,
  "leafCount": 0,
  "averagePosition": [
    15.968543370370371,
    47.30045256296297
  ],
  "data": [],
  "children": [
    {
      "bbox": {
        "south": 47.033758500000005,
        "west": 15.253173,
        "north": 47.36431175,
        "east": 16.2068765
      },
      "poiCount": 36,
      "leafCount": 36,
      "averagePosition": [
        15.629102880555555,
        47.13536969444445
      ],
      "data": [
        {
          "type": "Feature",
          "properties": {
            "id": "26899638",
            "osm_type": "node",
            "lat": 47.0660715,
            "lon": 15.463454,
            "addr:city": "Graz",
            "addr:country": "AT",
            "addr:housenumber": "37-39",
            "addr:postcode": "8010",
            "addr:street": "Plüddemanngasse",
            "alt_name": "Polizei",
            "amenity": "police",
            "name": "Polizeiinspektion Plüddemanngasse",
            "phone": "+43 59133 6591 100",
            "wheelchair": "yes"
          },
          "geometry": {
            "type": "Point",
            "coordinates": [
              15.463454,
              47.0660715
            ]
          }
        },
        {
          "type": "Feature",
          "properties": {
            "id": "26899640",
            "osm_type": "node",
            "lat": 47.0686148,
            "lon": 15.4393231,
            "addr:city": "Graz",
            "addr:country": "AT",
            "addr:housenumber": "26",
            "addr:postcode": "8010",
            "addr:street": "Schmiedgasse",
            "amenity": "police",
            "check_date": "2024-03-21",
            "name": "Polizeiinspektion Schmiedgasse",
            "phone": "+43 59133 6593 100",
            "wheelchair": "yes"
          },
          "geometry": {
            "type": "Point",
            "coordinates": [
              15.4393231,
              47.0686148
            ]
          }
        },
        {
          "type": "Feature",
          "properties": {
            "id": "269062537",
            "osm_type": "node",
            "lat": 47.0666299,
            "lon": 15.4131094,
            "addr:city": "Graz",
            "addr:country": "AT",
            "addr:housenumber": "161a",
            "addr:postcode": "8020",
            "addr:street": "Alte Poststraße",
            "amenity": "police",
            "name": "Polizeiinspektion Eggenberg",
            "phone": "+43 59133 6582 100"
          },
          "geometry": {
            "type": "Point",
            "coordinates": [
              15.4131094,
              47.0666299
            ]
          }
        },
        {
          "type": "Feature",
          "properties": {
            "id": "287095794",
            "osm_type": "node",
            "lat": 47.0896853,
            "lon": 15.4099289,
            "addr:city": "Graz",
            "addr:country": "AT",
            "addr:housenumber": "202",
            "addr:postcode": "8051",
            "addr:street": "Wiener Straße",
            "amenity": "police",
            "check_date": "2025-01-01",
            "name": "Polizeiinspektion Wiener Straße",
            "phone": "+43 59133 6594 100"
          },
          "geometry": {
            "type": "Point",
            "coordinates": [
              15.4099289,
              47.0896853
            ]
          }
        },
        {
          "type": "Feature",
          "properties": {
            "id": "287095804",
            "osm_type": "node",
            "lat": 47.1033299,
            "lon": 15.4230474,
            "addr:city": "Graz",
            "addr:country": "AT",
            "addr:housenumber": "38",
            "addr:postcode": "8045",
            "addr:street": "Andritzer Reichsstraße",
            "amenity": "police",
            "check_date": "2024-03-27",
            "name": "Polizeiinspektion Andritz",
            "phone": "+43 59133 6581 100",
            "wheelchair": "yes"
          },
          "geometry": {
            "type": "Point",
            "coordinates": [
              15.4230474,
              47.1033299
            ]
          }
        },
        {
          "type": "Feature",
          "properties": {
            "id": "287095807",
            "osm_type": "node",
            "lat": 47.0757287,
            "lon": 15.4411944,
            "addr:city": "Graz",
            "addr:country": "AT",
            "addr:housenumber": "8",
            "addr:postcode": "8011",
            "addr:street": "Paulustorgasse",
            "amenity": "police",
            "name": "Stadtpolizeikommando Graz",
            "phone": "+43 59133 65 1010"
          },
          "geometry": {
            "type": "Point",
            "coordinates": [
              15.4411944,
              47.0757287
            ]
          }
        },
        {
          "type": "Feature",
          "properties": {
            "id": "332036545",
            "osm_type": "node",
            "lat": 47.0792112,
            "lon": 15.4665236,
            "addr:city": "Graz",
            "addr:country": "AT",
            "addr:housenumber": "13",
            "addr:postcode": "8036",
            "addr:street": "Riesstraße",
            "amenity": "police",
            "name": "Polizeiinspektion Riesplatz",
            "phone": "+43 59133 6592 100",
            "wheelchair": "yes"
          },
          "geometry": {
            "type": "Point",
            "coordinates": [
              15.4665236,
              47.0792112
            ]
          }
        },
        {
          "type": "Feature",
          "properties": {
            "id": "339824075",
            "osm_type": "node",
            "lat": 47.0733673,
            "lon": 15.4167295,
            "addr:city": "Graz",
            "addr:country": "AT",
            "addr:housenumber": "7",
            "addr:postcode": "8020",
            "addr:street": "Europaplatz",
            "amenity": "police",
            "check_date": "2024-05-29",
            "name": "Polizeiinspektion Hauptbahnhof",
            "phone": "+43 59133 6584 100",
            "wheelchair": "yes"
          },
          "geometry": {
            "type": "Point",
            "coordinates": [
              15.4167295,
              47.0733673
            ]
          }
        },
        {
          "type": "Feature",
          "properties": {
            "id": "2102929633",
            "osm_type": "node",
            "lat": 47.0552921,
            "lon": 15.4473589,
            "addr:city": "Graz",
            "addr:country": "AT",
            "addr:housenumber": "94",
            "addr:postcode": "8010",
            "addr:street": "Conrad-von-Hötzendorf-Straße",
            "amenity": "police",
            "check_date": "2024-05-14",
            "contact:email": "pi-st-graz-jakomini@polizei.gv.at",
            "contact:fax": "+43 59133 6583-109",
            "contact:phone": "+43 59133 6583-100",
            "name": "Polizeiinspektion Jakomini",
            "source": "http://www.graz.at/cms/beitrag/10205025/4915218/",
            "start_date": "2013-01-17, 06:00"
          },
          "geometry": {
            "type": "Point",
            "coordinates": [
              15.4473589,
              47.0552921
            ]
          }
        },
        {
          "type": "Feature",
          "properties": {
            "id": "2416283248",
            "osm_type": "node",
            "lat": 47.2720382,
            "lon": 15.3220923,
            "addr:housenumber": "2",
            "addr:postcode": "8130",
            "addr:street": "Dr. Ammann-Straße",
            "amenity": "police",
            "name": "Polizeiinspektion Frohnleiten"
          },
          "geometry": {
            "type": "Point",
            "coordinates": [
              15.3220923,
              47.2720382
            ]
          }
        },
        {
          "type": "Feature",
          "properties": {
            "id": "4159425112",
            "osm_type": "node",
            "lat": 47.2817686,
            "lon": 15.5154116,
            "addr:city": "Passail",
            "addr:country": "AT",
            "addr:housenumber": "4",
            "addr:postcode": "8162",
            "addr:street": "Markt",
            "amenity": "police",
            "contact:email": "PI-ST-Passail@polizei.gv.at",
            "contact:phone": "+4359133 6266 100",
            "name": "Polizeiinspektion Passail"
          },
          "geometry": {
            "type": "Point",
            "coordinates": [
              15.5154116,
              47.2817686
            ]
          }
        },
        {
          "type": "Feature",
          "properties": {
            "id": "6450145111",
            "osm_type": "node",
            "lat": 47.071783,
            "lon": 15.4286316,
            "addr:city": "Graz",
            "addr:country": "AT",
            "addr:housenumber": "3",
            "addr:postcode": "8020",
            "addr:street": "Volksgartenstraße",
            "alt_name": "Polizeiinspektion Graz - Lend",
            "amenity": "police",
            "check_date": "2025-04-30",
            "contact:email": "PI-ST-Graz-Lendplatz@polizei.gv.at",
            "contact:fax": "+43 59133 6587 109",
            "contact:phone": "+43 59133 6587 100",
            "name": "Polizeiinspektion Lendplatz",
            "wheelchair": "limited"
          },
          "geometry": {
            "type": "Point",
            "coordinates": [
              15.4286316,
              47.071783
            ]
          }
        },
        {
          "type": "Feature",
          "properties": {
            "id": "6746312015",
            "osm_type": "node",
            "lat": 47.128559,
            "lon": 15.321992,
            "addr:city": "Gratwein",
            "addr:country": "AT",
            "addr:housenumber": "3",
            "addr:postcode": "8112",
            "addr:street": "Bahnhofsplatz",
            "amenity": "police",
            "contact:email": "PI-ST-Gratwein@polizei.gv.at",
            "contact:fax": "+43 59133 6137-109",
            "contact:phone": "+43 59133 6137-100",
            "name": "Polizeiinspektion Gratwein"
          },
          "geometry": {
            "type": "Point",
            "coordinates": [
              15.321992,
              47.128559
            ]
          }
        },
        {
          "type": "Feature",
          "properties": {
            "id": "9392281327",
            "osm_type": "node",
            "lat": 47.0759158,
            "lon": 15.4409187,
            "amenity": "police",
            "name": "Graz Paulustor FGP"
          },
          "geometry": {
            "type": "Point",
            "coordinates": [
              15.4409187,
              47.0759158
            ]
          }
        },
        {
          "type": "Feature",
          "properties": {
            "id": "9392281328",
            "osm_type": "node",
            "lat": 47.0628851,
            "lon": 15.4301157,
            "amenity": "police",
            "name": "Verkehrsinspektion 1, Unfallkommando"
          },
          "geometry": {
            "type": "Point",
            "coordinates": [
              15.4301157,
              47.0628851
            ]
          }
        },
        {
          "type": "Feature",
          "properties": {
            "id": "9392281329",
            "osm_type": "node",
            "lat": 47.0627797,
            "lon": 15.4301407,
            "amenity": "police",
            "name": "Verkehrsinspektion 2"
          },
          "geometry": {
            "type": "Point",
            "coordinates": [
              15.4301407,
              47.0627797
            ]
          }
        },
        {
          "type": "Feature",
          "properties": {
            "id": "9392281330",
            "osm_type": "node",
            "lat": 47.0624939,
            "lon": 15.430169,
            "amenity": "police",
            "name": "Verkehrsinspektion 3"
          },
          "geometry": {
            "type": "Point",
            "coordinates": [
              15.430169,
              47.0624939
            ]
          }
        },
        {
          "type": "Feature",
          "properties": {
            "id": "9392281331",
            "osm_type": "node",
            "lat": 47.0625528,
            "lon": 15.4305253,
            "amenity": "police",
            "name": "Polizeiinspektion Karlauerstraße"
          },
          "geometry": {
            "type": "Point",
            "coordinates": [
              15.4305253,
              47.0625528
            ]
          }
        },
        {
          "type": "Feature",
          "properties": {
            "id": "11099722922",
            "osm_type": "node",
            "lat": 47.0686046,
            "lon": 15.4393133,
            "amenity": "police",
            "name": "Polizei",
            "wheelchair": "yes"
          },
          "geometry": {
            "type": "Point",
            "coordinates": [
              15.4393133,
              47.0686046
            ]
          }
        },
        {
          "type": "Feature",
          "properties": {
            "id": "335626740",
            "osm_type": "node",
            "lat": 47.1607679,
            "lon": 15.5330501,
            "addr:city": "Kumberg",
            "addr:country": "AT",
            "addr:housenumber": "7",
            "addr:postcode": "8062",
            "addr:street": "Meierhöfenstraße",
            "amenity": "police",
            "contact:email": "PI-ST-Kumberg@polizei.gv.at",
            "contact:fax": "+43 59133 6143-109",
            "contact:phone": "+43 59133 6143-100",
            "level": "1",
            "name": "Polizeiinspektion Kumberg"
          },
          "geometry": {
            "type": "Point",
            "coordinates": [
              15.5330501,
              47.1607679
            ]
          }
        },
        {
          "type": "Feature",
          "properties": {
            "id": "471577914",
            "osm_type": "node",
            "lat": 47.1698171,
            "lon": 16.0073509,
            "addr:city": "Bad Waltersdorf",
            "addr:country": "AT",
            "addr:housenumber": "4",
            "addr:place": "Bad Waltersdorf",
            "addr:postcode": "8271",
            "amenity": "police",
            "at_bev:addr_date": "2018-05-07",
            "contact:email": "PI-ST-Bad-Waltersdorf@polizei.gv.at",
            "contact:fax": "+43 59133 6231-109",
            "contact:phone": "+43 59133 6231-100",
            "name": "Polizeiinspektion Bad Waltersdorf"
          },
          "geometry": {
            "type": "Point",
            "coordinates": [
              16.0073509,
              47.1698171
            ]
          }
        },
        {
          "type": "Feature",
          "properties": {
            "id": "669268394",
            "osm_type": "node",
            "lat": 47.1522431,
            "lon": 15.6632058,
            "addr:city": "St. Ruprecht an der Raab",
            "addr:country": "AT",
            "addr:housenumber": "20",
            "addr:postcode": "8181",
            "addr:street": "Untere Hauptstraße",
            "amenity": "police",
            "contact:email": "PI-ST-St-Ruprecht-an-der-Raab@polizei.gv.at",
            "contact:phone": "+43 59133  6273-100",
            "name": "Polizeiinspektion St. Ruprecht",
            "website": "https://www.polizei.gv.at/stmk/lpd/dst/dienststellen.aspx?org=466B327859626674467A6B3D"
          },
          "geometry": {
            "type": "Point",
            "coordinates": [
              15.6632058,
              47.1522431
            ]
          }
        },
        {
          "type": "Feature",
          "properties": {
            "id": "1544247753",
            "osm_type": "node",
            "lat": 47.2823307,
            "lon": 15.9742449,
            "addr:city": "Hartberg",
            "addr:housenumber": "29",
            "addr:postcode": "8230",
            "addr:street": "Ressavarstraße",
            "amenity": "police",
            "check_date": "2025-08-05",
            "contact:email": "PI-ST-Hartberg@polizei.gv.at",
            "contact:fax": "+43 59 133 6230-109",
            "contact:phone": "+43 59 133 6230-100",
            "name": "Polizeiinspektion Hartberg"
          },
          "geometry": {
            "type": "Point",
            "coordinates": [
              15.9742449,
              47.2823307
            ]
          }
        },
        {
          "type": "Feature",
          "properties": {
            "id": "1625262043",
            "osm_type": "node",
            "lat": 47.3021352,
            "lon": 15.8394632,
            "addr:city": "Pöllau",
            "addr:country": "AT",
            "addr:housenumber": "622",
            "addr:postcode": "8225",
            "addr:street": "Schloffereckstraße",
            "amenity": "police",
            "at_bev:addr_date": "2017-04-07",
            "name": "Polizeiinspektion Pöllau"
          },
          "geometry": {
            "type": "Point",
            "coordinates": [
              15.8394632,
              47.3021352
            ]
          }
        },
        {
          "type": "Feature",
          "properties": {
            "id": "3402601402",
            "osm_type": "node",
            "lat": 47.0541383,
            "lon": 15.8419062,
            "amenity": "police",
            "name": "Polizei Markt Hartmannsdorf"
          },
          "geometry": {
            "type": "Point",
            "coordinates": [
              15.8419062,
              47.0541383
            ]
          }
        },
        {
          "type": "Feature",
          "properties": {
            "id": "4476607472",
            "osm_type": "node",
            "lat": 47.0757077,
            "lon": 15.5866002,
            "addr:city": "Laßnitzhöhe",
            "addr:country": "AT",
            "addr:housenumber": "52",
            "addr:postcode": "8301",
            "addr:street": "Hauptstraße",
            "amenity": "police",
            "contact:email": "PI-ST-Lassnitzhoehe@polizei.gv.at",
            "contact:fax": "+43 59133 6144-109",
            "contact:phone": "+43 59133 6144-100",
            "name": "Polizeiinspektion Laßnitzhöhe",
            "website": "https://www.polizei.gv.at/stmk/lpd/dst/dienststellen.aspx"
          },
          "geometry": {
            "type": "Point",
            "coordinates": [
              15.5866002,
              47.0757077
            ]
          }
        },
        {
          "type": "Feature",
          "properties": {
            "id": "5038740219",
            "osm_type": "node",
            "lat": 47.272683,
            "lon": 15.6912643,
            "addr:city": "Anger",
            "addr:housenumber": "19",
            "addr:postcode": "8184",
            "addr:street": "Weizer Straße",
            "amenity": "police",
            "contact:email": "PI-ST-Anger@polizei.gv.at",
            "contact:phone": "+43 59133 6261-100",
            "name": "Polizeiinspektion Anger",
            "website": "https://www.polizei.gv.at/stmk/lpd/dst/dienststellen.aspx?org=466B327859626674467A6B3D"
          },
          "geometry": {
            "type": "Point",
            "coordinates": [
              15.6912643,
              47.272683
            ]
          }
        },
        {
          "type": "Feature",
          "properties": {
            "id": "6027794013",
            "osm_type": "node",
            "lat": 47.2158726,
            "lon": 15.6323406,
            "addr:city": "Weiz",
            "addr:country": "AT",
            "addr:housenumber": "5",
            "addr:postcode": "8160",
            "addr:street": "Straußgasse",
            "amenity": "police",
            "contact:email": "PI-ST-Weiz@polizei.gv.at",
            "contact:phone": "+43 59133 6260",
            "name": "Polizeiinspektion Weiz",
            "toilets:wheelchair": "yes",
            "website": "https://www.polizei.gv.at/stmk/lpd/dst/dienststellen.aspx",
            "wheelchair": "yes"
          },
          "geometry": {
            "type": "Point",
            "coordinates": [
              15.6323406,
              47.2158726
            ]
          }
        },
        {
          "type": "Feature",
          "properties": {
            "id": "6076269318",
            "osm_type": "node",
            "lat": 47.3545951,
            "lon": 15.694464,
            "addr:city": "Birkfeld",
            "addr:country": "AT",
            "addr:housenumber": "6",
            "addr:postcode": "8190",
            "addr:street": "Hauptplatz",
            "amenity": "police",
            "contact:email": "PI-ST-Birkfeld@polizei.gv.at",
            "contact:fax": "+43 59133 6262-109",
            "contact:phone": "+43 59133 6262-100",
            "name": "Polizeiinspektion Birkfeld"
          },
          "geometry": {
            "type": "Point",
            "coordinates": [
              15.694464,
              47.3545951
            ]
          }
        },
        {
          "type": "Feature",
          "properties": {
            "id": "6090525518",
            "osm_type": "node",
            "lat": 47.1719857,
            "lon": 15.8056824,
            "addr:city": "Pischelsdorf in der Steiermark",
            "addr:country": "AT",
            "addr:housenumber": "511",
            "addr:place": "Pischelsdorf",
            "addr:postcode": "8212",
            "alt_name": "Polizeiinspektion Pischelsdorf",
            "amenity": "police",
            "contact:email": "PI-ST-Pischelsdorf@polizei.gv.at",
            "contact:fax": "+43 59 133 6267 109",
            "contact:phone": "+43 59 133 6267 100",
            "name": "Polizeiinspektion Pischelsdorf in der Steiermark"
          },
          "geometry": {
            "type": "Point",
            "coordinates": [
              15.8056824,
              47.1719857
            ]
          }
        },
        {
          "type": "Feature",
          "properties": {
            "id": "8576854385",
            "osm_type": "node",
            "lat": 47.1078794,
            "lon": 15.7084146,
            "addr:city": "Gleisdorf",
            "addr:country": "AT",
            "addr:housenumber": "14",
            "addr:postcode": "8200",
            "addr:street": "Weizer Straße",
            "amenity": "police",
            "check_date": "2024-06-23",
            "contact:email": "pi-st-gleisdorf@polizei.gv.at",
            "name": "Polizeiinspektion Gleisdorf"
          },
          "geometry": {
            "type": "Point",
            "coordinates": [
              15.7084146,
              47.1078794
            ]
          }
        },
        {
          "type": "Feature",
          "properties": {
            "id": "10576078238",
            "osm_type": "node",
            "lat": 47.2213041,
            "lon": 15.9107657,
            "addr:city": "Kaindorf",
            "addr:country": "AT",
            "addr:housenumber": "400",
            "addr:place": "Kaindorf",
            "addr:postcode": "8224",
            "amenity": "police",
            "name": "Polizeiinspektion Kaindorf"
          },
          "geometry": {
            "type": "Point",
            "coordinates": [
              15.9107657,
              47.2213041
            ]
          }
        },
        {
          "type": "Feature",
          "properties": {
            "id": "1688507733",
            "osm_type": "node",
            "lat": 47.0739718,
            "lon": 16.2058256,
            "addr:city": "Kukmirn",
            "addr:country": "AT",
            "addr:housenumber": "2",
            "addr:postcode": "7543",
            "addr:street": "Dorfplatz",
            "amenity": "police",
            "at_bev:addr_date": "2017-04-07"
          },
          "geometry": {
            "type": "Point",
            "coordinates": [
              16.2058256,
              47.0739718
            ]
          }
        },
        {
          "type": "Feature",
          "properties": {
            "id": "1853198180",
            "osm_type": "node",
            "lat": 47.1589998,
            "lon": 16.1618208,
            "addr:city": "Stegersbach",
            "addr:country": "AT",
            "addr:housenumber": "19",
            "addr:postcode": "7551",
            "addr:street": "Grazer Straße",
            "amenity": "police",
            "at_bev:addr_date": "2017-04-07",
            "contact:email": "PI-B-Stegersbach@polizei.gv.at",
            "contact:fax": "059 133 1206 109",
            "contact:phone": "059 133 1206 100",
            "name": "Polizeiinspektion Stegersbach",
            "website": "https://www.polizei.gv.at/bgld/lpd/dst/dienststellen.aspx"
          },
          "geometry": {
            "type": "Point",
            "coordinates": [
              16.1618208,
              47.1589998
            ]
          }
        },
        {
          "type": "Feature",
          "properties": {
            "id": "5609054567",
            "osm_type": "node",
            "lat": 47.2084996,
            "lon": 16.1639132,
            "addr:country": "AT",
            "addr:housenumber": "1",
            "addr:postcode": "7532",
            "addr:street": "Marktplatz",
            "amenity": "police",
            "contact:email": "PI-B-Litzelsdorf@polizei.gv.at",
            "contact:fax": "+43 59133 1246-109",
            "contact:phone": "+43 59133 1246-100",
            "name": "Polizeiinspektion Litzelsdorf"
          },
          "geometry": {
            "type": "Point",
            "coordinates": [
              16.1639132,
              47.2084996
            ]
          }
        },
        {
          "type": "Feature",
          "properties": {
            "id": "12989870538",
            "osm_type": "node",
            "lat": 47.0630665,
            "lon": 16.1174118,
            "addr:city": "Rudersdorf",
            "addr:country": "AT",
            "addr:housenumber": "5",
            "addr:postcode": "7571",
            "addr:street": "Gewerbepark-Süd",
            "amenity": "police",
            "contact:email": "lpd-b-lva-api-rudersdorf@polizei.gv.at",
            "contact:fax": "+43 59 1331 215209",
            "contact:phone": "+43 59 1331 215200",
            "fixme": "genaue Lage und Gebäude",
            "name": "Autobahnpolizeiinspektion Rudersdorf",
            "operator": "Landespolizeidirektion Burgenland",
            "short_name": "API Rudersdorf"
          },
          "geometry": {
            "type": "Point",
            "coordinates": [
              16.1174118,
              47.0630665
            ]
          }
        }
      ],
      "children": []
    },
    {
      "bbox": {
        "south": 47.033758500000005,
        "west": 16.2068765,
        "north": 47.36431175,
        "east": 17.16058
      },
      "poiCount": 12,
      "leafCount": 12,
      "averagePosition": [
        16.575591033333335,
        47.205556075000004
      ],
      "data": [
        {
          "type": "Feature",
          "properties": {
            "id": "334775596",
            "osm_type": "node",
            "lat": 47.2898247,
            "lon": 16.2126734,
            "addr:city": "Oberwart",
            "addr:country": "AT",
            "addr:housenumber": "4",
            "addr:postcode": "7400",
            "addr:street": "Bahnhofstraße",
            "amenity": "police",
            "at_bev:addr_date": "2017-04-07",
            "contact:email": "PI-B-Oberwart@polizei.gv.at",
            "contact:phone": "+43 59133 1240-100",
            "name": "Polizeiinspektion Oberwart",
            "website": "https://www.polizei.gv.at/bgld/lpd/dst/dienststellen.aspx?"
          },
          "geometry": {
            "type": "Point",
            "coordinates": [
              16.2126734,
              47.2898247
            ]
          }
        },
        {
          "type": "Feature",
          "properties": {
            "id": "1704460725",
            "osm_type": "node",
            "lat": 47.1748959,
            "lon": 16.3577861,
            "addr:city": "Kohfidisch",
            "addr:country": "AT",
            "addr:housenumber": "16",
            "addr:postcode": "7512",
            "addr:street": "Untere Hauptstraße",
            "amenity": "police",
            "at_bev:addr_date": "2017-04-07",
            "name": "Polizei"
          },
          "geometry": {
            "type": "Point",
            "coordinates": [
              16.3577861,
              47.1748959
            ]
          }
        },
        {
          "type": "Feature",
          "properties": {
            "id": "1746825564",
            "osm_type": "node",
            "lat": 47.126381,
            "lon": 16.2722498,
            "addr:city": "Sankt Michael im Burgenland",
            "addr:country": "AT",
            "addr:housenumber": "195",
            "addr:postcode": "7535",
            "addr:street": "Schulstraße",
            "amenity": "police",
            "at_bev:addr_date": "2017-04-07",
            "name": "Polizeiposten Sankt Michael"
          },
          "geometry": {
            "type": "Point",
            "coordinates": [
              16.2722498,
              47.126381
            ]
          }
        },
        {
          "type": "Feature",
          "properties": {
            "id": "1897812268",
            "osm_type": "node",
            "lat": 47.0580183,
            "lon": 16.3202567,
            "addr:city": "Güssing",
            "addr:country": "AT",
            "addr:housenumber": "14",
            "addr:postcode": "7540",
            "addr:street": "Hauptstraße",
            "amenity": "police",
            "check_date": "2025-04-06",
            "contact:email": "BPK-B-Guessing@polizei.gv.at",
            "contact:phone": "+43 59133 1200-305",
            "name": "Polizeiinspektion Güssing",
            "wheelchair": "yes"
          },
          "geometry": {
            "type": "Point",
            "coordinates": [
              16.3202567,
              47.0580183
            ]
          }
        },
        {
          "type": "Feature",
          "properties": {
            "id": "2206592380",
            "osm_type": "node",
            "lat": 47.045845,
            "lon": 16.4121301,
            "addr:city": "Strem",
            "addr:country": "AT",
            "addr:housenumber": "3",
            "addr:postcode": "7522",
            "addr:street": "Lindenstraße",
            "amenity": "police",
            "at_bev:addr_date": "2017-04-07"
          },
          "geometry": {
            "type": "Point",
            "coordinates": [
              16.4121301,
              47.045845
            ]
          }
        },
        {
          "type": "Feature",
          "properties": {
            "id": "2328009027",
            "osm_type": "node",
            "lat": 47.3322405,
            "lon": 16.2300543,
            "addr:city": "Bad Tatzmannsdorf",
            "addr:country": "AT",
            "addr:housenumber": "3",
            "addr:postcode": "7431",
            "addr:street": "Joseph Haydn-Platz",
            "amenity": "police",
            "at_bev:addr_date": "2017-04-07",
            "name": "Polizeiinspektion Bad Tatzmannsdorf",
            "phone": "+43 59 133 1241 100"
          },
          "geometry": {
            "type": "Point",
            "coordinates": [
              16.2300543,
              47.3322405
            ]
          }
        },
        {
          "type": "Feature",
          "properties": {
            "id": "2466797062",
            "osm_type": "node",
            "lat": 47.2545525,
            "lon": 16.936253,
            "addr:city": "Sárvár",
            "addr:housenumber": "3",
            "addr:postcode": "9600",
            "addr:street": "Ady Endre utca",
            "amenity": "police"
          },
          "geometry": {
            "type": "Point",
            "coordinates": [
              16.936253,
              47.2545525
            ]
          }
        },
        {
          "type": "Feature",
          "properties": {
            "id": "2510920566",
            "osm_type": "node",
            "lat": 47.2065099,
            "lon": 16.8942341,
            "amenity": "police",
            "fixme": "please check position!",
            "name": "KMB Iroda"
          },
          "geometry": {
            "type": "Point",
            "coordinates": [
              16.8942341,
              47.2065099
            ]
          }
        },
        {
          "type": "Feature",
          "properties": {
            "id": "3471869141",
            "osm_type": "node",
            "lat": 47.254282,
            "lon": 16.630593,
            "amenity": "police",
            "name": "BM terület",
            "source": "turistautak.hu",
            "source:date": "2015-03-03",
            "url": "http://turistautak.hu/poi.php?id=158414"
          },
          "geometry": {
            "type": "Point",
            "coordinates": [
              16.630593,
              47.254282
            ]
          }
        },
        {
          "type": "Feature",
          "properties": {
            "id": "8133947598",
            "osm_type": "node",
            "lat": 47.2320291,
            "lon": 16.621837,
            "amenity": "police",
            "name": "Belvárosi Rendőrőrs"
          },
          "geometry": {
            "type": "Point",
            "coordinates": [
              16.621837,
              47.2320291
            ]
          }
        },
        {
          "type": "Feature",
          "properties": {
            "id": "8322182572",
            "osm_type": "node",
            "lat": 47.2349957,
            "lon": 16.8683807,
            "amenity": "police",
            "name": "Rendőrség"
          },
          "geometry": {
            "type": "Point",
            "coordinates": [
              16.8683807,
              47.2349957
            ]
          }
        },
        {
          "type": "Feature",
          "properties": {
            "id": "293138273",
            "osm_type": "node",
            "lat": 47.2570983,
            "lon": 17.1506442,
            "amenity": "police"
          },
          "geometry": {
            "type": "Point",
            "coordinates": [
              17.1506442,
              47.2570983
            ]
          }
        }
      ],
      "children": []
    },
    {
      "bbox": {
        "south": 47.36431175,
        "west": 15.253173,
        "north": 47.694865,
        "east": 16.2068765
      },
      "poiCount": 17,
      "leafCount": 17,
      "averagePosition": [
        15.662505670588235,
        47.51149515882353
      ],
      "data": [
        {
          "type": "Feature",
          "properties": {
            "id": "270610127",
            "osm_type": "node",
            "lat": 47.4399805,
            "lon": 15.289299,
            "amenity": "police",
            "name": "Stadtpolizei Kapfenberg",
            "wheelchair": "no"
          },
          "geometry": {
            "type": "Point",
            "coordinates": [
              15.289299,
              47.4399805
            ]
          }
        },
        {
          "type": "Feature",
          "properties": {
            "id": "395226222",
            "osm_type": "node",
            "lat": 47.4487287,
            "lon": 15.30543,
            "addr:city": "Kapfenberg",
            "addr:country": "AT",
            "addr:housenumber": "101",
            "addr:postcode": "8605",
            "addr:street": "Wiener Straße",
            "amenity": "police",
            "at_bev:addr_date": "2017-04-07",
            "name": "Polizeiinspektion Kapfenberg"
          },
          "geometry": {
            "type": "Point",
            "coordinates": [
              15.30543,
              47.4487287
            ]
          }
        },
        {
          "type": "Feature",
          "properties": {
            "id": "1368559860",
            "osm_type": "node",
            "lat": 47.4103695,
            "lon": 15.268806,
            "addr:city": "Bruck an der Mur",
            "addr:country": "AT",
            "addr:housenumber": "1",
            "addr:postcode": "8600",
            "addr:street": "Koloman-Wallisch-Platz",
            "amenity": "police",
            "at_bev:addr_date": "2017-04-07"
          },
          "geometry": {
            "type": "Point",
            "coordinates": [
              15.268806,
              47.4103695
            ]
          }
        },
        {
          "type": "Feature",
          "properties": {
            "id": "1368559886",
            "osm_type": "node",
            "lat": 47.4112975,
            "lon": 15.2706032,
            "addr:city": "Bruck an der Mur",
            "addr:country": "AT",
            "addr:housenumber": "9",
            "addr:postcode": "8600",
            "addr:street": "Herzog-Ernst-Gasse",
            "amenity": "police",
            "at_bev:addr_date": "2017-04-07"
          },
          "geometry": {
            "type": "Point",
            "coordinates": [
              15.2706032,
              47.4112975
            ]
          }
        },
        {
          "type": "Feature",
          "properties": {
            "id": "1891136972",
            "osm_type": "node",
            "lat": 47.4730121,
            "lon": 15.3646234,
            "amenity": "police"
          },
          "geometry": {
            "type": "Point",
            "coordinates": [
              15.3646234,
              47.4730121
            ]
          }
        },
        {
          "type": "Feature",
          "properties": {
            "id": "4682812159",
            "osm_type": "node",
            "lat": 47.580247,
            "lon": 15.4923535,
            "addr:city": "Dorf Veitsch",
            "addr:housenumber": "8",
            "addr:postcode": "8663",
            "addr:street": "Obere Hauptstraße",
            "amenity": "police"
          },
          "geometry": {
            "type": "Point",
            "coordinates": [
              15.4923535,
              47.580247
            ]
          }
        },
        {
          "type": "Feature",
          "properties": {
            "id": "364978101",
            "osm_type": "node",
            "lat": 47.568233,
            "lon": 15.6198123,
            "addr:city": "Langenwang",
            "addr:country": "AT",
            "addr:housenumber": "16",
            "addr:postcode": "8665",
            "addr:street": "Grazer Straße",
            "amenity": "police",
            "contact:email": "PI-ST-Langenwang@polizei.gv.at",
            "contact:phone": "+43 59133 6253 100",
            "name": "Polizeiinspektion Langenwang",
            "website": "http://www.polizei.gv.at/stmk/lpd/dst/dienststellen.aspx?"
          },
          "geometry": {
            "type": "Point",
            "coordinates": [
              15.6198123,
              47.568233
            ]
          }
        },
        {
          "type": "Feature",
          "properties": {
            "id": "874488891",
            "osm_type": "node",
            "lat": 47.6071512,
            "lon": 15.6791765,
            "addr:city": "Mürzzuschlag",
            "addr:housenumber": "3b",
            "addr:postcode": "8680",
            "addr:street": "Alleegasse",
            "amenity": "police",
            "name": "Polizeiinspektion Mürzzuschlag",
            "operator": "Landespolizeidirektion Steiermark",
            "website": "https://www.polizei.gv.at/stmk/lpd/dst/dienststellen.aspx",
            "wheelchair": "yes"
          },
          "geometry": {
            "type": "Point",
            "coordinates": [
              15.6791765,
              47.6071512
            ]
          }
        },
        {
          "type": "Feature",
          "properties": {
            "id": "1030598453",
            "osm_type": "node",
            "lat": 47.6087834,
            "lon": 15.9939723,
            "addr:city": "Kirchberg am Wechsel",
            "addr:country": "AT",
            "addr:housenumber": "235",
            "addr:place": "Markt",
            "addr:postcode": "2880",
            "amenity": "police",
            "email": "PI-N-Kirchberg-am-Wechsel@polizei.gv.at",
            "fax": "+43 59 1333 354109",
            "name": "Polizeiinspektion Kirchberg am Wechsel",
            "phone": "+43 59 1333 354100"
          },
          "geometry": {
            "type": "Point",
            "coordinates": [
              15.9939723,
              47.6087834
            ]
          }
        },
        {
          "type": "Feature",
          "properties": {
            "id": "1058865819",
            "osm_type": "node",
            "lat": 47.4839976,
            "lon": 15.7219816,
            "addr:postcode": "8673",
            "amenity": "police",
            "name": "Polizeiinspektion Ratten",
            "phone": "+43 59133 6269100",
            "website": "https://www.polizei.gv.at/stmk/lpd/dst/dienststellen.aspx?org=527A734633744D655768413D"
          },
          "geometry": {
            "type": "Point",
            "coordinates": [
              15.7219816,
              47.4839976
            ]
          }
        },
        {
          "type": "Feature",
          "properties": {
            "id": "1614939426",
            "osm_type": "node",
            "lat": 47.405875,
            "lon": 15.8886511,
            "addr:city": "Vorau",
            "addr:country": "AT",
            "addr:housenumber": "78",
            "addr:postcode": "8250",
            "addr:street": "Berggasse",
            "amenity": "police",
            "at_bev:addr_date": "2017-04-07"
          },
          "geometry": {
            "type": "Point",
            "coordinates": [
              15.8886511,
              47.405875
            ]
          }
        },
        {
          "type": "Feature",
          "properties": {
            "id": "5314123848",
            "osm_type": "node",
            "lat": 47.6752633,
            "lon": 15.9394843,
            "addr:city": "Gloggnitz",
            "addr:country": "AT",
            "addr:housenumber": "2",
            "addr:postcode": "2640",
            "addr:street": "Wiener Straße",
            "amenity": "police",
            "email": "PI-N-Gloggnitz@polizei.gv.at",
            "fax": "+43 59133 3352-109",
            "name": "Polizeiinspektion Gloggnitz",
            "phone": "+43 59133 3352-100"
          },
          "geometry": {
            "type": "Point",
            "coordinates": [
              15.9394843,
              47.6752633
            ]
          }
        },
        {
          "type": "Feature",
          "properties": {
            "id": "5771348307",
            "osm_type": "node",
            "lat": 47.5447189,
            "lon": 15.5602965,
            "addr:city": "Krieglach",
            "addr:country": "AT",
            "addr:housenumber": "9",
            "addr:place": "Hauptplatz",
            "addr:postcode": "8670",
            "amenity": "police",
            "contact:email": "PI-ST-Krieglach@polizei.gv.at",
            "contact:fax": "+43 59133 6252-109",
            "contact:phone": "+43 59133 6252-100",
            "name": "Polizeiinspektion Krieglach",
            "wheelchair": "no"
          },
          "geometry": {
            "type": "Point",
            "coordinates": [
              15.5602965,
              47.5447189
            ]
          }
        },
        {
          "type": "Feature",
          "properties": {
            "id": "6163642823",
            "osm_type": "node",
            "lat": 47.6348965,
            "lon": 15.8297104,
            "addr:city": "Semmering",
            "addr:country": "AT",
            "addr:housenumber": "18",
            "addr:postcode": "2680",
            "addr:street": "Hochstraße",
            "amenity": "police",
            "contact:email": "PI-N-Semmering@polizei.gv.at",
            "contact:phone": "+43 59 133 3359 100",
            "name": "Polizeiinspektion Semmering",
            "website": "https://www.polizei.gv.at/noe/lpd/dst/dienststellen.aspx?org=477241702B5953747453733D"
          },
          "geometry": {
            "type": "Point",
            "coordinates": [
              15.8297104,
              47.6348965
            ]
          }
        },
        {
          "type": "Feature",
          "properties": {
            "id": "6171684776",
            "osm_type": "node",
            "lat": 47.4074183,
            "lon": 15.8892247,
            "addr:city": "Vorau",
            "addr:country": "AT",
            "addr:housenumber": "43",
            "addr:place": "Rathausplatz",
            "addr:postcode": "8250",
            "amenity": "police",
            "contact:email": "PI-ST-Vorau@polizei.gv.at",
            "contact:fax": "+43 59133  6239-109",
            "contact:phone": "+43 59133  6239-100",
            "name": "Polizeiinspektion Vorau"
          },
          "geometry": {
            "type": "Point",
            "coordinates": [
              15.8892247,
              47.4074183
            ]
          }
        },
        {
          "type": "Feature",
          "properties": {
            "id": "1963364896",
            "osm_type": "node",
            "lat": 47.4413324,
            "lon": 16.0586527,
            "addr:city": "Friedberg",
            "addr:country": "AT",
            "addr:housenumber": "4",
            "addr:postcode": "8240",
            "addr:street": "Wiener Straße",
            "amenity": "police",
            "at_bev:addr_date": "2017-04-07"
          },
          "geometry": {
            "type": "Point",
            "coordinates": [
              16.0586527,
              47.4413324
            ]
          }
        },
        {
          "type": "Feature",
          "properties": {
            "id": "2796753253",
            "osm_type": "node",
            "lat": 47.5541128,
            "lon": 16.0905189,
            "addr:city": "Aspang-Markt",
            "addr:country": "AT",
            "addr:housenumber": "5",
            "addr:postcode": "2870",
            "addr:street": "Hauptplatz",
            "amenity": "police",
            "at_bev:addr_date": "2017-04-07",
            "name": "Polizeiinspektion Aspang",
            "phone": "+43 59 133 3351 100",
            "wheelchair": "no"
          },
          "geometry": {
            "type": "Point",
            "coordinates": [
              16.0905189,
              47.5541128
            ]
          }
        }
      ],
      "children": []
    },
    {
      "bbox": {
        "south": 47.36431175,
        "west": 16.2068765,
        "north": 47.694865,
        "east": 17.16058
      },
      "poiCount": 16,
      "leafCount": 16,
      "averagePosition": [
        16.60216378125,
        47.518828625
      ],
      "data": [
        {
          "type": "Feature",
          "properties": {
            "id": "456920757",
            "osm_type": "node",
            "lat": 47.5895856,
            "lon": 16.4640354,
            "addr:city": "Lackenbach",
            "addr:country": "AT",
            "addr:housenumber": "6",
            "addr:postcode": "7322",
            "addr:street": "Postgasse",
            "amenity": "police",
            "at_bev:addr_date": "2017-04-07"
          },
          "geometry": {
            "type": "Point",
            "coordinates": [
              16.4640354,
              47.5895856
            ]
          }
        },
        {
          "type": "Feature",
          "properties": {
            "id": "482763751",
            "osm_type": "node",
            "lat": 47.5020902,
            "lon": 16.2966913,
            "addr:city": "Kirchschlag in der Buckligen Welt",
            "addr:country": "AT",
            "addr:housenumber": "1",
            "addr:postcode": "2860",
            "addr:street": "Günser Straße",
            "amenity": "police",
            "at_bev:addr_date": "2017-04-07",
            "name": "Polizeiinspektion Kirchschlag in der Buckligen Welt"
          },
          "geometry": {
            "type": "Point",
            "coordinates": [
              16.2966913,
              47.5020902
            ]
          }
        },
        {
          "type": "Feature",
          "properties": {
            "id": "1603677316",
            "osm_type": "node",
            "lat": 47.5017057,
            "lon": 16.5051371,
            "addr:city": "Oberpullendorf",
            "addr:country": "AT",
            "addr:housenumber": "7",
            "addr:postcode": "7350",
            "addr:street": "Hauptstraße",
            "amenity": "police",
            "at_bev:addr_date": "2017-04-07",
            "check_date": "2025-08-07",
            "contact:phone": "+43 59 133 1220",
            "name": "Polizeiinspektion Oberpullendorf",
            "website": "http://www.polizei.gv.at/bgld/lpd/dst/dienststellen.aspx?",
            "wheelchair": "no"
          },
          "geometry": {
            "type": "Point",
            "coordinates": [
              16.5051371,
              47.5017057
            ]
          }
        },
        {
          "type": "Feature",
          "properties": {
            "id": "1933474382",
            "osm_type": "node",
            "lat": 47.4064126,
            "lon": 16.4177091,
            "addr:city": "Lockenhaus",
            "addr:country": "AT",
            "addr:housenumber": "10",
            "addr:postcode": "7442",
            "addr:street": "Hauptplatz",
            "amenity": "police",
            "at_bev:addr_date": "2017-04-07"
          },
          "geometry": {
            "type": "Point",
            "coordinates": [
              16.4177091,
              47.4064126
            ]
          }
        },
        {
          "type": "Feature",
          "properties": {
            "id": "2472249886",
            "osm_type": "node",
            "lat": 47.6590456,
            "lon": 16.4895082,
            "amenity": "police",
            "name": "Körzeti megbízott"
          },
          "geometry": {
            "type": "Point",
            "coordinates": [
              16.4895082,
              47.6590456
            ]
          }
        },
        {
          "type": "Feature",
          "properties": {
            "id": "4095649187",
            "osm_type": "node",
            "lat": 47.6166018,
            "lon": 16.2878017,
            "addr:city": "Wiesmath",
            "addr:housenumber": "12",
            "addr:postcode": "2811",
            "addr:street": "Hauptstraße",
            "amenity": "police",
            "name": "Polizeiinspektion Wiesmath"
          },
          "geometry": {
            "type": "Point",
            "coordinates": [
              16.2878017,
              47.6166018
            ]
          }
        },
        {
          "type": "Feature",
          "properties": {
            "id": "5103675389",
            "osm_type": "node",
            "lat": 47.4084332,
            "lon": 16.2630789,
            "addr:city": "Bernstein",
            "addr:housenumber": "79",
            "addr:postcode": "7434",
            "addr:street": "Hauptstraße",
            "amenity": "police",
            "name": "Polizeiinspektion Bernstein"
          },
          "geometry": {
            "type": "Point",
            "coordinates": [
              16.2630789,
              47.4084332
            ]
          }
        },
        {
          "type": "Feature",
          "properties": {
            "id": "1863451192",
            "osm_type": "node",
            "lat": 47.6016667,
            "lon": 16.6244576,
            "addr:city": "Deutschkreutz",
            "addr:country": "AT",
            "addr:housenumber": "24-28",
            "addr:postcode": "7301",
            "addr:street": "Hauptstraße",
            "addr:unit": "1",
            "amenity": "police",
            "at_bev:addr_date": "2017-04-07",
            "contact:email": "PI-B-Deutschkreutz@polizei.gv.at",
            "contact:fax": "+43591331221109",
            "contact:phone": "+43591331221100",
            "name": "Polizeiinspektion Deutschkreutz"
          },
          "geometry": {
            "type": "Point",
            "coordinates": [
              16.6244576,
              47.6016667
            ]
          }
        },
        {
          "type": "Feature",
          "properties": {
            "id": "2313052440",
            "osm_type": "node",
            "lat": 47.6196846,
            "lon": 16.8888448,
            "amenity": "police",
            "name": "Fertődi Rendőrkapitányság"
          },
          "geometry": {
            "type": "Point",
            "coordinates": [
              16.8888448,
              47.6196846
            ]
          }
        },
        {
          "type": "Feature",
          "properties": {
            "id": "2510884535",
            "osm_type": "node",
            "lat": 47.5048616,
            "lon": 16.7799466,
            "addr:city": "Lövő",
            "addr:housenumber": "7",
            "addr:postcode": "9461",
            "addr:street": "Kossuth Lajos utca",
            "amenity": "police"
          },
          "geometry": {
            "type": "Point",
            "coordinates": [
              16.7799466,
              47.5048616
            ]
          }
        },
        {
          "type": "Feature",
          "properties": {
            "id": "4777807815",
            "osm_type": "node",
            "lat": 47.4648096,
            "lon": 16.648044,
            "addr:city": "Lutzmannsburg",
            "addr:country": "AT",
            "addr:housenumber": "32",
            "addr:postcode": "7361",
            "addr:street": "Thermenstraße",
            "alt_name": "Polizeiinspektion Lutzmannsburg - AGM",
            "amenity": "police",
            "at_bev:addr_date": "2017-04-07",
            "contact:email": "PI-B-Lutzmannsburg@polizei.gv.at",
            "contact:fax": "+43 59133 1231-109",
            "contact:phone": "+43 59133 1231-100",
            "name": "Polizeiinspektion Lutzmannsburg"
          },
          "geometry": {
            "type": "Point",
            "coordinates": [
              16.648044,
              47.4648096
            ]
          }
        },
        {
          "type": "Feature",
          "properties": {
            "id": "5852267685",
            "osm_type": "node",
            "lat": 47.3836859,
            "lon": 16.7515766,
            "addr:city": "Bük",
            "addr:housenumber": "4",
            "addr:postcode": "9737",
            "addr:street": "Eötvös utca",
            "amenity": "police",
            "name": "Rendőrség",
            "name:de": "Polizei",
            "name:en": "Police",
            "phone": "+36 94 358 020",
            "website": "https://www.police.hu/ugyintezes/szerv/orszagos-rendor-fokapitanysag/vas-megyei-rendor-fokapitanysag/koszeg-0"
          },
          "geometry": {
            "type": "Point",
            "coordinates": [
              16.7515766,
              47.3836859
            ]
          }
        },
        {
          "type": "Feature",
          "properties": {
            "id": "5986810422",
            "osm_type": "node",
            "lat": 47.589607,
            "lon": 16.5470834,
            "addr:city": "Horitschon",
            "addr:country": "AT",
            "addr:housenumber": "51",
            "addr:postcode": "7312",
            "addr:street": "Hauptstraße",
            "amenity": "police",
            "contact:email": "PI-B-Horitschon@polizei.gv.at",
            "contact:fax": "+43 59133  1225-109",
            "contact:phone": "+43 59133  1225-100",
            "name": "Polizeiinspektion Horitschon",
            "website": "https://www.polizei.gv.at/bgld/lpd/dst/dienststellen.aspx?org=2F2F4C4961703151665A453Dx?org=2F2F4C4961703151665A453D"
          },
          "geometry": {
            "type": "Point",
            "coordinates": [
              16.5470834,
              47.589607
            ]
          }
        },
        {
          "type": "Feature",
          "properties": {
            "id": "10103672911",
            "osm_type": "node",
            "lat": 47.3962948,
            "lon": 16.5425903,
            "amenity": "police"
          },
          "geometry": {
            "type": "Point",
            "coordinates": [
              16.5425903,
              47.3962948
            ]
          }
        },
        {
          "type": "Feature",
          "properties": {
            "id": "2814840067",
            "osm_type": "node",
            "lat": 47.4662065,
            "lon": 17.0942618,
            "amenity": "police"
          },
          "geometry": {
            "type": "Point",
            "coordinates": [
              17.0942618,
              47.4662065
            ]
          }
        },
        {
          "type": "Feature",
          "properties": {
            "id": "2821504618",
            "osm_type": "node",
            "lat": 47.5905666,
            "lon": 17.0338537,
            "amenity": "police"
          },
          "geometry": {
            "type": "Point",
            "coordinates": [
              17.0338537,
              47.5905666
            ]
          }
        }
      ],
      "children": []
    }
  ]
}