{
  "bbox": {
    "south": 46.372652,
    "west": 9.530952,
    "north": 47.033758500000005,
    "east": 11.438358999999998
  },
  "poiCount": 16,
  "leafCount": 16,
  "averagePosition": [
    10.5981644,
    46.5816176375
  ],
  "data": [
    {
      "type": "Feature",
      "properties": {
        "id": "3297088011",
        "osm_type": "node",
        "lat": 46.4593965,
        "lon": 9.7968666,
        "addr:city": "Silvaplana",
        "addr:housenumber": "8",
        "addr:postcode": "7513",
        "addr:street": "Via Munterots",
        "amenity": "clinic",
        "healthcare": "clinic",
        "name": "Xsunheitszentrum Silvaplana"
      },
      "geometry": {
        "type": "Point",
        "coordinates": [
          9.7968666,
          46.4593965
        ]
      }
    },
    {
      "type": "Feature",
      "properties": {
        "id": "5442377582",
        "osm_type": "node",
        "lat": 46.483036,
        "lon": 9.8356676,
        "addr:city": "St. Moritz",
        "addr:housenumber": "2",
        "addr:postcode": "7500",
        "addr:street": "Plazza Paracelsus",
        "amenity": "clinic",
        "healthcare": "clinic",
        "name": "Allgemeinpsychiatrische Tagesklinik St. Moritz, Psychiatrische Dienste Graubünden",
        "opening_hours": "Mo-Fr 08:30-16:00",
        "operator": "Psychiatrische Dienste Graubünden",
        "website": "https://www.pdgr.ch/ATK-St-Moritz.775.0.html"
      },
      "geometry": {
        "type": "Point",
        "coordinates": [
          9.8356676,
          46.483036
        ]
      }
    },
    {
      "type": "Feature",
      "properties": {
        "id": "7317240072",
        "osm_type": "node",
        "lat": 46.8517665,
        "lon": 9.5346512,
        "addr:city": "Chur",
        "addr:housenumber": "2",
        "addr:postcode": "7000",
        "addr:street": "Masanserstrasse",
        "amenity": "clinic",
        "healthcare": "clinic",
        "website": "http://www.zetup.ch/"
      },
      "geometry": {
        "type": "Point",
        "coordinates": [
          9.5346512,
          46.8517665
        ]
      }
    },
    {
      "type": "Feature",
      "properties": {
        "id": "12666343307",
        "osm_type": "node",
        "lat": 46.5773497,
        "lon": 9.9283443,
        "amenity": "clinic",
        "check_date": "2025-03-15",
        "healthcare": "clinic",
        "level": "1",
        "name": "Polyclinic",
        "website": "https://www.polyclinic.ch/la-punt/"
      },
      "geometry": {
        "type": "Point",
        "coordinates": [
          9.9283443,
          46.5773497
        ]
      }
    },
    {
      "type": "Feature",
      "properties": {
        "id": "13047715138",
        "osm_type": "node",
        "lat": 46.7877385,
        "lon": 9.8142594,
        "addr:city": "Davos",
        "addr:housenumber": "4",
        "addr:postcode": "7270",
        "addr:street": "Promenade",
        "amenity": "clinic",
        "healthcare": "clinic",
        "healthcare:speciality": "general",
        "name": "Praxiszentrum Davos",
        "operator": "Spital Davos AG",
        "website": "https://www.praxiszentrumdavos.ch/de"
      },
      "geometry": {
        "type": "Point",
        "coordinates": [
          9.8142594,
          46.7877385
        ]
      }
    },
    {
      "type": "Feature",
      "properties": {
        "id": "3801637227",
        "osm_type": "node",
        "lat": 46.5290091,
        "lon": 10.1270507,
        "amenity": "clinic",
        "healthcare": "clinic",
        "name": "Trauma clinic",
        "opening_hours": "Mo-Su 09:00-19:00"
      },
      "geometry": {
        "type": "Point",
        "coordinates": [
          10.1270507,
          46.5290091
        ]
      }
    },
    {
      "type": "Feature",
      "properties": {
        "id": "12598744124",
        "osm_type": "node",
        "lat": 46.4634829,
        "lon": 10.3739235,
        "amenity": "clinic",
        "contact:website": "https://www.bormiotraumacenter.com/en/",
        "name": "Trauma center Bormio"
      },
      "geometry": {
        "type": "Point",
        "coordinates": [
          10.3739235,
          46.4634829
        ]
      }
    },
    {
      "type": "Feature",
      "properties": {
        "id": "1870349693",
        "osm_type": "node",
        "lat": 46.6288234,
        "lon": 10.77364,
        "addr:city": "Schlanders",
        "addr:housenumber": "7d",
        "addr:postcode": "39028",
        "addr:street": "Dr.-Heinrich-Vögele-Straße",
        "amenity": "clinic",
        "healthcare": "clinic"
      },
      "geometry": {
        "type": "Point",
        "coordinates": [
          10.77364,
          46.6288234
        ]
      }
    },
    {
      "type": "Feature",
      "properties": {
        "id": "12869276788",
        "osm_type": "node",
        "lat": 46.6167205,
        "lon": 10.5922137,
        "amenity": "clinic",
        "contact:city": "Prad am Stilfser Joch - Prato allo Stelvio",
        "contact:city:de": "Prad am Stilfser Joch",
        "contact:city:it": "Prato allo Stelvio",
        "contact:email": "sprengel.mals@sabes.it",
        "contact:housenumber": "31",
        "contact:phone": "+39 0473 836030",
        "contact:postcode": "39026",
        "contact:street": "Silberstraße - Via Argentieri",
        "contact:street:de": "Silberstraße",
        "contact:street:it": "Via Argentieri",
        "healthcare": "centre",
        "name": "Sprengelstützpunkt Prad am Stilfser Joch - Ambulatorio a Prato allo Stelvio",
        "name:de": "Sprengelstützpunkt Prad am Stilfser Joch",
        "name:it": "Ambulatorio a Prato allo Stelvio"
      },
      "geometry": {
        "type": "Point",
        "coordinates": [
          10.5922137,
          46.6167205
        ]
      }
    },
    {
      "type": "Feature",
      "properties": {
        "id": "1026932691",
        "osm_type": "node",
        "lat": 46.6851818,
        "lon": 11.148008,
        "addr:city": "Meran - Merano",
        "addr:housenumber": "70",
        "addr:postcode": "39012",
        "addr:street": "Laurinstraße - Via Laurin",
        "amenity": "clinic",
        "email": "info@martinsbrunn.it",
        "emergency": "no",
        "name": "Privatklinik Martinsbrunn",
        "operator": "Stinftung St. Elisabeth",
        "phone": "+39 0473 205600",
        "ref:vatin": "IT02651810216",
        "website": "https://www.martinsbrunn.it/",
        "wheelchair": "yes"
      },
      "geometry": {
        "type": "Point",
        "coordinates": [
          11.148008,
          46.6851818
        ]
      }
    },
    {
      "type": "Feature",
      "properties": {
        "id": "5870928450",
        "osm_type": "node",
        "lat": 46.671219,
        "lon": 11.1609406,
        "addr:city": "Meran - Merano",
        "addr:city:de": "Meran",
        "addr:city:it": "Merano",
        "addr:housenumber": "32",
        "addr:postcode": "39012",
        "addr:street": "Mühlgraben - Via Fossato Molini",
        "addr:street:de": "Mühlgraben",
        "addr:street:it": "Via Fossato Molini",
        "amenity": "clinic",
        "email": "info@medicalcentermerano.it",
        "emergency": "defibrillator",
        "facebook": "https://it-it.facebook.com/MedicalCenterMerano/",
        "fax": "+39 0473 427537",
        "healthcare": "clinic",
        "healthcare:speciality": "general;orthopaedics;dermatology;acupuncture;clinic;physiotherapy;gynaecology;podologist;psychology;first_aid_training;internal;nutritionist;health;weight_loss",
        "name": "Medical Center Meran - Merano",
        "name:de": "Medical Center Meran",
        "phone": "+39 0473 233689",
        "website": "https://www.medicalcentermerano.it/"
      },
      "geometry": {
        "type": "Point",
        "coordinates": [
          11.1609406,
          46.671219
        ]
      }
    },
    {
      "type": "Feature",
      "properties": {
        "id": "6781116601",
        "osm_type": "node",
        "lat": 46.5090503,
        "lon": 11.3422278,
        "amenity": "clinic",
        "healthcare": "rehabilitation",
        "name": "REHA Zentrum - Centro riabilitazione",
        "name:de": "REHA Zentrum",
        "name:it": "Centro riabilitazione",
        "operator": "Azienda Sanitaria dell'Alto Adige - Südtiroler Sanitätsbetrieb"
      },
      "geometry": {
        "type": "Point",
        "coordinates": [
          11.3422278,
          46.5090503
        ]
      }
    },
    {
      "type": "Feature",
      "properties": {
        "id": "6987237963",
        "osm_type": "node",
        "lat": 46.4756526,
        "lon": 11.325927,
        "amenity": "clinic",
        "email": "info@iperbaricobolzano.it",
        "emergency": "no",
        "fax": "+39 0471 200025",
        "healthcare": "clinic",
        "healthcare:speciality": "hyperbaric",
        "internet_access": "yes",
        "name": "Centro Iperbarico Bolzano - Zentrum für hyperbare Sauerstofftherapie",
        "name:de": "Zentrum für hyperbare Sauerstofftherapie (HBO)",
        "name:it": "Centro Iperbarico Bolzano",
        "operator": "Iperbarico Bolzano gmbH",
        "phone": "+39 0471 932525",
        "website": "http://www.iperbaricobolzano.it/",
        "wheelchair": "yes"
      },
      "geometry": {
        "type": "Point",
        "coordinates": [
          11.325927,
          46.4756526
        ]
      }
    },
    {
      "type": "Feature",
      "properties": {
        "id": "9503054872",
        "osm_type": "node",
        "lat": 46.4695185,
        "lon": 11.3187879,
        "addr:city": "Bolzano - Bozen",
        "addr:city:de": "Bozen",
        "addr:city:it": "Bolzano",
        "addr:housenumber": "3g",
        "addr:postcode": "39100",
        "addr:street": "Waltraud-Gebert-Deeg-Straße",
        "amenity": "clinic",
        "email": "info@cityclinic.it",
        "name": "cityclinic",
        "opening_hours": "Mo-Su 09:00-17:00",
        "opening_hours:url": "https://www.cityclinic.it/de/privatklinik",
        "phone": "+39 471 1551010",
        "website": "https://www.cityclinic.it/de",
        "wheelchair": "yes"
      },
      "geometry": {
        "type": "Point",
        "coordinates": [
          11.3187879,
          46.4695185
        ]
      }
    },
    {
      "type": "Feature",
      "properties": {
        "id": "12245999805",
        "osm_type": "node",
        "lat": 46.4860128,
        "lon": 11.3350864,
        "amenity": "clinic",
        "name": "Dolomites Medical Center",
        "website": "https://www.dolomitesmed.it/"
      },
      "geometry": {
        "type": "Point",
        "coordinates": [
          11.3350864,
          46.4860128
        ]
      }
    },
    {
      "type": "Feature",
      "properties": {
        "id": "12708426933",
        "osm_type": "node",
        "lat": 46.6119241,
        "lon": 11.1630357,
        "amenity": "clinic",
        "healthcare": "dialysis",
        "healthcare:speciality": "nephrology",
        "name": "WBR",
        "opening_hours": "Mo,We,Fr 06:00-18:00; Tu,Th,Sa 06:00-14:00"
      },
      "geometry": {
        "type": "Point",
        "coordinates": [
          11.1630357,
          46.6119241
        ]
      }
    }
  ],
  "children": []
}