{
  "bbox": {
    "south": 47.694865,
    "west": 11.438358999999998,
    "north": 48.355971499999995,
    "east": 13.345766
  },
  "poiCount": 88,
  "leafCount": 0,
  "averagePosition": [
    11.842540351136364,
    48.06304247954545
  ],
  "data": [],
  "children": [
    {
      "bbox": {
        "south": 47.694865,
        "west": 11.438358999999998,
        "north": 48.02541825,
        "east": 12.392062499999998
      },
      "poiCount": 8,
      "leafCount": 8,
      "averagePosition": [
        11.7929833875,
        47.764080325
      ],
      "data": [
        {
          "type": "Feature",
          "properties": {
            "id": "1824746698",
            "osm_type": "node",
            "lat": 47.7168263,
            "lon": 11.7213704,
            "addr:city": "Bad Wiessee",
            "addr:country": "DE",
            "addr:housenumber": "7",
            "addr:postcode": "83707",
            "addr:street": "Wallbergstraße",
            "amenity": "clinic",
            "emergency": "no",
            "fax": "+49 8022 848-1404",
            "name": "Fachklinik für Orthopädie am Kirschbaumhügel",
            "phone": "+49 8022 848-1000",
            "website": "https://kirschbaumfach.medicalpark.de/"
          },
          "geometry": {
            "type": "Point",
            "coordinates": [
              11.7213704,
              47.7168263
            ]
          }
        },
        {
          "type": "Feature",
          "properties": {
            "id": "2740348212",
            "osm_type": "node",
            "lat": 47.7565036,
            "lon": 11.5445812,
            "addr:city": "Bad Tölz",
            "addr:country": "DE",
            "addr:housenumber": "3",
            "addr:postcode": "83646",
            "addr:street": "Kogelweg",
            "amenity": "clinic",
            "check_date": "2025-09-14",
            "name": "Dialyse Bad Tölz"
          },
          "geometry": {
            "type": "Point",
            "coordinates": [
              11.5445812,
              47.7565036
            ]
          }
        },
        {
          "type": "Feature",
          "properties": {
            "id": "4685944276",
            "osm_type": "node",
            "lat": 47.69914,
            "lon": 11.7323377,
            "addr:city": "Bad Wiessee",
            "addr:country": "DE",
            "addr:housenumber": "2-6",
            "addr:postcode": "83707",
            "addr:street": "Defreggerweg",
            "amenity": "clinic",
            "contact:email": "info@klinik-alpenpark.de",
            "contact:fax": "+49 8022 846207",
            "contact:phone": "+49 8022 8460",
            "contact:website": "https://www.kirinus.de/alpenpark-klinik",
            "healthcare": "clinic",
            "name": "Klinik im Alpenpark"
          },
          "geometry": {
            "type": "Point",
            "coordinates": [
              11.7323377,
              47.69914
            ]
          }
        },
        {
          "type": "Feature",
          "properties": {
            "id": "4685947739",
            "osm_type": "node",
            "lat": 47.701434,
            "lon": 11.7609906,
            "addr:city": "Tegernsee",
            "addr:country": "DE",
            "addr:housenumber": "80",
            "addr:postcode": "83684",
            "addr:street": "Seestraße",
            "amenity": "clinic",
            "contact:fax": "+498022185300",
            "contact:phone": "+4980221850",
            "contact:website": "https://www.ok-tegernsee.de/",
            "name": "Orthopädische Klinik Tegernsee",
            "operator": "Deutsche Rentenversicherung"
          },
          "geometry": {
            "type": "Point",
            "coordinates": [
              11.7609906,
              47.701434
            ]
          }
        },
        {
          "type": "Feature",
          "properties": {
            "id": "4685986795",
            "osm_type": "node",
            "lat": 47.705798,
            "lon": 11.7373936,
            "addr:city": "Bad Wiessee",
            "addr:country": "DE",
            "addr:housenumber": "29",
            "addr:postcode": "83707",
            "addr:street": "Sonnenfeldweg",
            "amenity": "clinic",
            "check_date": "2024-01-28",
            "contact:email": "st.hubertus@medicalpark.de",
            "contact:fax": "+49 8022 83708",
            "contact:phone": "+49 8022 8430",
            "contact:website": "https://sthubertus.medicalpark.de/",
            "healthcare": "clinic",
            "name": "Klinik St. Hubertus",
            "operator": "Medical Park Bad Wiessee GmbH & Co. KG",
            "wheelchair": "yes"
          },
          "geometry": {
            "type": "Point",
            "coordinates": [
              11.7373936,
              47.705798
            ]
          }
        },
        {
          "type": "Feature",
          "properties": {
            "id": "9610693450",
            "osm_type": "node",
            "lat": 47.7582553,
            "lon": 11.5423698,
            "amenity": "clinic",
            "healthcare": "clinic",
            "name": "Deutsches Zentrum für Zelltherapie"
          },
          "geometry": {
            "type": "Point",
            "coordinates": [
              11.5423698,
              47.7582553
            ]
          }
        },
        {
          "type": "Feature",
          "properties": {
            "id": "11171577628",
            "osm_type": "node",
            "lat": 47.8652411,
            "lon": 12.0060458,
            "addr:city": "Bad Aibling",
            "addr:country": "DE",
            "addr:housenumber": "17",
            "addr:postcode": "83043",
            "addr:street": "Münchner Straße",
            "amenity": "clinic",
            "email": "info@medcenter-aibling.de",
            "fax": "+49 8061 37925",
            "healthcare": "clinic",
            "healthcare:speciality": "orthopaedics;diabetology;nephrology;stomatology",
            "name": "med.center",
            "phone": "+49 8061 30072",
            "start_date": "2015-01",
            "website": "https://www.medcenter-aibling.de/"
          },
          "geometry": {
            "type": "Point",
            "coordinates": [
              12.0060458,
              47.8652411
            ]
          }
        },
        {
          "type": "Feature",
          "properties": {
            "id": "7244412611",
            "osm_type": "node",
            "lat": 47.9094443,
            "lon": 12.298778,
            "addr:city": "Bad Endorf",
            "addr:country": "DE",
            "addr:housenumber": "9",
            "addr:postcode": "83093",
            "addr:street": "Traunsteiner Straße",
            "amenity": "clinic",
            "description": "Termine nach Vereinbarung, auch ambulant",
            "healthcare": "clinic",
            "healthcare:speciality": "ophthalmology",
            "name": "Chiemsee Augen Tagesklinik",
            "opening_hours": "Th 08:00-14:00; Mo-We,Fr 08:00-12:30,14:00-17:00",
            "phone": "+49 8053 798870",
            "website": "https://www.chiemseeaugentagesklinik.de/augenarztpraxis-bad-endorf/",
            "wheelchair": "yes"
          },
          "geometry": {
            "type": "Point",
            "coordinates": [
              12.298778,
              47.9094443
            ]
          }
        }
      ],
      "children": []
    },
    {
      "bbox": {
        "south": 47.694865,
        "west": 12.392062499999998,
        "north": 48.02541825,
        "east": 13.345766
      },
      "poiCount": 13,
      "leafCount": 13,
      "averagePosition": [
        12.959477246153845,
        47.832418753846156
      ],
      "data": [
        {
          "type": "Feature",
          "properties": {
            "id": "12125220143",
            "osm_type": "node",
            "lat": 47.7796818,
            "lon": 12.4718634,
            "amenity": "clinic",
            "health_facility:type": "health_centre",
            "healthcare": "clinic",
            "healthcare:speciality": "general;orthopaedics;psychology;physiotherapy;immunology;dermatology",
            "medical_system:western": "yes",
            "name": "Ärztehaus AD INTEGRUM"
          },
          "geometry": {
            "type": "Point",
            "coordinates": [
              12.4718634,
              47.7796818
            ]
          }
        },
        {
          "type": "Feature",
          "properties": {
            "id": "3958075296",
            "osm_type": "node",
            "lat": 47.7189685,
            "lon": 12.8982228,
            "addr:city": "Bayerisch Gmain",
            "addr:housenumber": "2",
            "addr:postcode": "83457",
            "addr:street": "Herkommerstraße",
            "amenity": "clinic",
            "check_date": "2023-08-23",
            "healthcare": "clinic",
            "name": "Klinik Hochstaufen",
            "note": "Deutsche Rentenversicherung, Reha Zentrum, Vermietungsbetrieb",
            "phone": "+49 8651 771361"
          },
          "geometry": {
            "type": "Point",
            "coordinates": [
              12.8982228,
              47.7189685
            ]
          }
        },
        {
          "type": "Feature",
          "properties": {
            "id": "5376758398",
            "osm_type": "node",
            "lat": 47.804441,
            "lon": 13.0196618,
            "addr:city": "Salzburg",
            "addr:housenumber": "35",
            "addr:postcode": "5020",
            "addr:street": "Innsbrucker Bundesstraße",
            "amenity": "clinic",
            "email": "office@kinderwunsch-salzburg.at",
            "fax": "+43 662 9010 5009",
            "healthcare": "clinic",
            "healthcare:speciality": "fertility",
            "name": "IVF Zentren Prof. Zech",
            "opening_hours": "Mo, We-Fr 08:00-16:00; Tu 08:00-20:00",
            "phone": "+43 662 9010 5000",
            "website": "https://www.kinderwunsch-salzburg.at/"
          },
          "geometry": {
            "type": "Point",
            "coordinates": [
              13.0196618,
              47.804441
            ]
          }
        },
        {
          "type": "Feature",
          "properties": {
            "id": "9651882433",
            "osm_type": "node",
            "lat": 47.8691683,
            "lon": 12.6400064,
            "addr:city": "Traunstein",
            "addr:country": "DE",
            "addr:housenumber": "27",
            "addr:postcode": "83278",
            "addr:street": "Bahnhofstraße",
            "amenity": "clinic",
            "check_date": "2024-10-11",
            "healthcare": "clinic",
            "healthcare:speciality": "allergology;dermatology",
            "name": "MVZ Traunstein",
            "opening_hours": "Mo-Fr 08:00-17:00",
            "source": "Webseite. Dort ist eine Leaflef-Karte."
          },
          "geometry": {
            "type": "Point",
            "coordinates": [
              12.6400064,
              47.8691683
            ]
          }
        },
        {
          "type": "Feature",
          "properties": {
            "id": "10001319215",
            "osm_type": "node",
            "lat": 47.8693158,
            "lon": 12.6496106,
            "addr:city": "Traunstein",
            "addr:country": "DE",
            "addr:housenumber": "31",
            "addr:postcode": "83278",
            "addr:street": "Stadtplatz",
            "amenity": "clinic",
            "health_facility:type": "office",
            "healthcare": "clinic",
            "healthcare:speciality": "orthopaedics",
            "name": "Orthopädie und Unfallchirurgie Chiemgau",
            "opening_hours": "Mo-Fr 08:00-17:00",
            "operator": "Dr. Schlögl",
            "phone": "+498613534",
            "website": "https://www.oucc.de/"
          },
          "geometry": {
            "type": "Point",
            "coordinates": [
              12.6496106,
              47.8693158
            ]
          }
        },
        {
          "type": "Feature",
          "properties": {
            "id": "916174392",
            "osm_type": "node",
            "lat": 47.8388198,
            "lon": 13.2551415,
            "addr:city": "Thalgau",
            "addr:country": "AT",
            "addr:housenumber": "20",
            "addr:postcode": "5303",
            "addr:street": "Hans Schmidinger-Straße",
            "amenity": "clinic",
            "healthcare": "centre",
            "name": "Dr. Schilchegger",
            "opening_hours": "Mo 07:30-11:30,17:00-19:00; Tu 07:30-11:30; We,Fr 08:00-12:00; Th 17:00-19:00",
            "phone": "+43 6235 7388",
            "wheelchair": "yes"
          },
          "geometry": {
            "type": "Point",
            "coordinates": [
              13.2551415,
              47.8388198
            ]
          }
        },
        {
          "type": "Feature",
          "properties": {
            "id": "916174551",
            "osm_type": "node",
            "lat": 47.8419598,
            "lon": 13.2537926,
            "amenity": "clinic",
            "healthcare": "physiotherapist",
            "name": "Physiotherapie Fröhlich"
          },
          "geometry": {
            "type": "Point",
            "coordinates": [
              13.2537926,
              47.8419598
            ]
          }
        },
        {
          "type": "Feature",
          "properties": {
            "id": "5391090717",
            "osm_type": "node",
            "lat": 47.7974115,
            "lon": 13.0339978,
            "addr:city": "Salzburg",
            "addr:housenumber": "21",
            "addr:postcode": "5020",
            "addr:street": "Neutorstraße",
            "amenity": "clinic",
            "email": "office@konfliktschwangerschaft.at",
            "healthcare": "clinic",
            "healthcare:counselling": "antenatal",
            "healthcare:speciality": "abortion",
            "name": "Konfliktschwangerschaft",
            "opening_hours": "Mo-Fr \"nach Vereinbarung\"",
            "phone": "+43 676 9134934",
            "website": "https://www.konfliktschwangerschaft.at/"
          },
          "geometry": {
            "type": "Point",
            "coordinates": [
              13.0339978,
              47.7974115
            ]
          }
        },
        {
          "type": "Feature",
          "properties": {
            "id": "11352588718",
            "osm_type": "node",
            "lat": 47.8082672,
            "lon": 13.0391348,
            "amenity": "clinic",
            "check_date:opening_hours": "2023-11-15",
            "healthcare": "clinic",
            "healthcare:speciality": "child_psychiatry;child_neurology;autism",
            "name": "Ambulatorium für Entwicklungsdiagnostik und Therapie",
            "opening_hours:signed": "no",
            "operator": "Lebenshilfe Salzburg",
            "operator:type": "private"
          },
          "geometry": {
            "type": "Point",
            "coordinates": [
              13.0391348,
              47.8082672
            ]
          }
        },
        {
          "type": "Feature",
          "properties": {
            "id": "12799631973",
            "osm_type": "node",
            "lat": 47.7926025,
            "lon": 13.074008,
            "amenity": "clinic",
            "healthcare": "clinic",
            "name": "Ambulatorium für Entwicklungsdiagnostik und Therapie",
            "operator": "Lebenshilfe Salzburg",
            "website": "https://ambulatorium-salzburg.at"
          },
          "geometry": {
            "type": "Point",
            "coordinates": [
              13.074008,
              47.7926025
            ]
          }
        },
        {
          "type": "Feature",
          "properties": {
            "id": "12897031185",
            "osm_type": "node",
            "lat": 47.8198764,
            "lon": 13.2078635,
            "addr:city": "Hof bei Salzburg",
            "addr:housenumber": "18",
            "addr:postcode": "5322",
            "addr:street": "Wolfgangseestraße",
            "amenity": "clinic",
            "healthcare": "clinic",
            "healthcare:speciality": "general;internal;otolaryngology;gynaecology;orthopaedics",
            "name": "Haus der Gesundheit",
            "operator": "Dr. Hoyer, Dr. Frauscher, Dr. Windischbauer, Dr. Bachofner, Dr. Dückelmann"
          },
          "geometry": {
            "type": "Point",
            "coordinates": [
              13.2078635,
              47.8198764
            ]
          }
        },
        {
          "type": "Feature",
          "properties": {
            "id": "4159583305",
            "osm_type": "node",
            "lat": 47.9361625,
            "lon": 12.9900557,
            "amenity": "clinic",
            "description": "Reit- und Therapiezentrum",
            "name": "Mensch und Pferd",
            "operator": "Nicole Haderer",
            "website": "https://www.menschundpferd.at/"
          },
          "geometry": {
            "type": "Point",
            "coordinates": [
              12.9900557,
              47.9361625
            ]
          }
        },
        {
          "type": "Feature",
          "properties": {
            "id": "7657833620",
            "osm_type": "node",
            "lat": 47.9447687,
            "lon": 12.9398453,
            "amenity": "clinic",
            "description": "Praxis für ganzheitlich-energetische Behandlung und Physiotherapie",
            "email": "office@gsundhaus.at",
            "healthcare": "clinic",
            "healthcare:speciality": "orthopaedics;physiotherapy",
            "name": "G'sundhaus Oberndorf",
            "phone": "+43 6272 20379",
            "website": "https://gsundhaus.at/"
          },
          "geometry": {
            "type": "Point",
            "coordinates": [
              12.9398453,
              47.9447687
            ]
          }
        }
      ],
      "children": []
    },
    {
      "bbox": {
        "south": 48.02541825,
        "west": 11.438358999999998,
        "north": 48.355971499999995,
        "east": 12.392062499999998
      },
      "poiCount": 64,
      "leafCount": 0,
      "averagePosition": [
        11.584741750000003,
        48.141964542187495
      ],
      "data": [],
      "children": [
        {
          "bbox": {
            "south": 48.02541825,
            "west": 11.438358999999998,
            "north": 48.190694875,
            "east": 11.915210749999998
          },
          "poiCount": 56,
          "leafCount": 0,
          "averagePosition": [
            11.562183060714288,
            48.13447450892857
          ],
          "data": [],
          "children": [
            {
              "bbox": {
                "south": 48.02541825,
                "west": 11.438358999999998,
                "north": 48.108056562499996,
                "east": 11.676784875
              },
              "poiCount": 9,
              "leafCount": 9,
              "averagePosition": [
                11.590061033333335,
                48.08922235555556
              ],
              "data": [
                {
                  "type": "Feature",
                  "properties": {
                    "id": "5005963835",
                    "osm_type": "node",
                    "lat": 48.0958175,
                    "lon": 11.5117216,
                    "addr:city": "München",
                    "addr:country": "DE",
                    "addr:housenumber": "5",
                    "addr:postcode": "81379",
                    "addr:street": "Perchtinger Straße",
                    "amenity": "clinic",
                    "contact:email": "tagesklinik@brk-muenchen.de",
                    "contact:fax": "+49 89 2373-581",
                    "contact:phone": "+49 89 2373-580",
                    "contact:website": "https://www.brk-muenchen.de/angebote/gesundheit/tagesklinik-sued/",
                    "healthcare": "clinic",
                    "healthcare:speciality": "psychiatry",
                    "level": "0",
                    "name": "Tagesklinik Süd für Psychiatrie und Psychotherapie",
                    "opening_hours": "Mo-Th 08:00-16:30; Fr 08:00-15:30; Sa 09:00-13:00",
                    "operator": "Bayerisches Rotes Kreuz",
                    "operator:type": "private"
                  },
                  "geometry": {
                    "type": "Point",
                    "coordinates": [
                      11.5117216,
                      48.0958175
                    ]
                  }
                },
                {
                  "type": "Feature",
                  "properties": {
                    "id": "8660058758",
                    "osm_type": "node",
                    "lat": 48.10614,
                    "lon": 11.477925,
                    "addr:city": "München",
                    "addr:country": "DE",
                    "addr:housenumber": "69",
                    "addr:postcode": "81377",
                    "addr:street": "Heiglhofstraße",
                    "air_conditioning": "yes",
                    "amenity": "clinic",
                    "check_date": "2025-07-30",
                    "contact:phone": "+49 89 71009-0",
                    "contact:website": "https://kbo-kinderzentrum-muenchen.de/",
                    "email": "info-kinderzentrum@kbo.de",
                    "fax": "+49 89 710091144",
                    "healthcare": "hospital",
                    "healthcare:speciality": "paediatrics",
                    "internet_access": "wlan",
                    "internet_access:fee": "no",
                    "name": "kbo-Kinderzentrum München",
                    "opening_hours": "24/7",
                    "operator": "Bezirk Oberbayern",
                    "operator:type": "county_government",
                    "ref:vatin": "DE262904720",
                    "wheelchair": "yes",
                    "wikidata": "Q15823532",
                    "wikipedia": "de:Kinderzentrum München"
                  },
                  "geometry": {
                    "type": "Point",
                    "coordinates": [
                      11.477925,
                      48.10614
                    ]
                  }
                },
                {
                  "type": "Feature",
                  "properties": {
                    "id": "9071426218",
                    "osm_type": "node",
                    "lat": 48.0962846,
                    "lon": 11.5142609,
                    "addr:city": "München",
                    "addr:country": "DE",
                    "addr:housenumber": "11",
                    "addr:postcode": "81379",
                    "addr:street": "Machtlfinger Straße",
                    "amenity": "clinic",
                    "check_date": "2024-02-02",
                    "email": "info@kpb-fachambulanz.de",
                    "fax": "+49 89 724494-44",
                    "healthcare": "psychotherapist",
                    "healthcare:counselling": "addiction",
                    "healthcare:speciality": "psychiatry",
                    "name": "kpb Fachambulanz für Suchterkrankungen",
                    "operator": "Bärbel Löhnert, Diplom-Biologin",
                    "phone": "+49 89 724494-0",
                    "website": "https://www.kpb-fachambulanz.de/",
                    "wheelchair": "yes"
                  },
                  "geometry": {
                    "type": "Point",
                    "coordinates": [
                      11.5142609,
                      48.0962846
                    ]
                  }
                },
                {
                  "type": "Feature",
                  "properties": {
                    "id": "312763899",
                    "osm_type": "node",
                    "lat": 48.054168,
                    "lon": 11.669309,
                    "addr:city": "Hohenbrunn",
                    "addr:country": "DE",
                    "addr:housenumber": "129a",
                    "addr:postcode": "85521",
                    "addr:street": "Rosenheimer Landstraße",
                    "amenity": "clinic",
                    "contact:email": "info@mvz-ottobrunn.de",
                    "contact:fax": "+49 89 60875252",
                    "contact:phone": "+49 89 6087520",
                    "contact:website": "https://www.mvz-ottobrunn.de/",
                    "emergency": "no",
                    "healthcare": "clinic",
                    "name": "Medizinisches Versorgungszentrum Ottobrunn",
                    "opening_hours": "Mo-Th 08:00-12:00,13:00-16:30; Fr 08:00-11:00",
                    "wheelchair": "yes",
                    "wheelchair:description": "Hebebühne neben der Zugangstreppe"
                  },
                  "geometry": {
                    "type": "Point",
                    "coordinates": [
                      11.669309,
                      48.054168
                    ]
                  }
                },
                {
                  "type": "Feature",
                  "properties": {
                    "id": "8500693269",
                    "osm_type": "node",
                    "lat": 48.0997804,
                    "lon": 11.6331462,
                    "addr:city": "München",
                    "addr:country": "DE",
                    "addr:housenumber": "9",
                    "addr:postcode": "81737",
                    "addr:street": "Putzbrunner Straße",
                    "amenity": "clinic",
                    "check_date": "2023-06-08",
                    "check_date:opening_hours": "2023-06-08",
                    "healthcare": "clinic",
                    "name": "ATOS Starmed Klinik München",
                    "opening_hours:signed": "no",
                    "wheelchair": "yes"
                  },
                  "geometry": {
                    "type": "Point",
                    "coordinates": [
                      11.6331462,
                      48.0997804
                    ]
                  }
                },
                {
                  "type": "Feature",
                  "properties": {
                    "id": "8500693276",
                    "osm_type": "node",
                    "lat": 48.0997989,
                    "lon": 11.6323131,
                    "addr:city": "München",
                    "addr:country": "DE",
                    "addr:housenumber": "7",
                    "addr:postcode": "81737",
                    "addr:street": "Putzbrunner Straße",
                    "amenity": "clinic",
                    "check_date": "2024-06-12",
                    "contact:website": "https://www.conradia.de/radiologie-muenchen-perlach/",
                    "healthcare": "clinic",
                    "healthcare:speciality": "radiology",
                    "level": "2",
                    "name": "Conradia",
                    "opening_hours": "Mo-Fr 07:00-17:00",
                    "wheelchair": "yes"
                  },
                  "geometry": {
                    "type": "Point",
                    "coordinates": [
                      11.6323131,
                      48.0997989
                    ]
                  }
                },
                {
                  "type": "Feature",
                  "properties": {
                    "id": "8500693277",
                    "osm_type": "node",
                    "lat": 48.0998068,
                    "lon": 11.6322604,
                    "addr:city": "München",
                    "addr:country": "DE",
                    "addr:housenumber": "7",
                    "addr:postcode": "81737",
                    "addr:street": "Putzbrunner Straße",
                    "amenity": "clinic",
                    "check_date": "2024-06-12",
                    "check_date:opening_hours": "2024-06-12",
                    "contact:website": "https://www.atos-orthopaedie.de",
                    "healthcare": "clinic",
                    "healthcare:speciality": "orthopaedics",
                    "level": "3",
                    "name": "Atos Orthopädie Dr. Schettle",
                    "opening_hours:signed": "no",
                    "wheelchair": "yes"
                  },
                  "geometry": {
                    "type": "Point",
                    "coordinates": [
                      11.6322604,
                      48.0998068
                    ]
                  }
                },
                {
                  "type": "Feature",
                  "properties": {
                    "id": "8626857749",
                    "osm_type": "node",
                    "lat": 48.0514298,
                    "lon": 11.6071419,
                    "addr:city": "Taufkirchen",
                    "addr:housenumber": "40",
                    "addr:postcode": "82024",
                    "addr:street": "Eschenstraße",
                    "amenity": "clinic",
                    "check_date:opening_hours": "2024-03-01",
                    "healthcare": "clinic",
                    "healthcare:speciality": "internal;general",
                    "name": "Groll & Rampp",
                    "opening_hours": "Mo 08:00-18:00; Tu-Fr 08:30-18:00; Sa,Su off",
                    "phone": "+49 89 44999140",
                    "website": "https://groll-rampp.de"
                  },
                  "geometry": {
                    "type": "Point",
                    "coordinates": [
                      11.6071419,
                      48.0514298
                    ]
                  }
                },
                {
                  "type": "Feature",
                  "properties": {
                    "id": "9300737300",
                    "osm_type": "node",
                    "lat": 48.0997752,
                    "lon": 11.6324712,
                    "addr:city": "München",
                    "addr:country": "DE",
                    "addr:housenumber": "7",
                    "addr:postcode": "81737",
                    "addr:street": "Putzbrunner Straße",
                    "amenity": "clinic",
                    "check_date:opening_hours": "2024-06-12",
                    "healthcare": "clinic",
                    "name": "Atos Neurologie Dr. Stichtmann",
                    "opening_hours:signed": "no",
                    "operator": "ATOS Kliniken",
                    "operator:short": "ATOS",
                    "operator:type": "private",
                    "operator:wikidata": "Q109568262",
                    "wheelchair": "yes"
                  },
                  "geometry": {
                    "type": "Point",
                    "coordinates": [
                      11.6324712,
                      48.0997752
                    ]
                  }
                }
              ],
              "children": []
            },
            {
              "bbox": {
                "south": 48.108056562499996,
                "west": 11.438358999999998,
                "north": 48.190694875,
                "east": 11.676784875
              },
              "poiCount": 46,
              "leafCount": 46,
              "averagePosition": [
                11.552783204347827,
                48.143706378260866
              ],
              "data": [
                {
                  "type": "Feature",
                  "properties": {
                    "id": "2877866788",
                    "osm_type": "node",
                    "lat": 48.1451968,
                    "lon": 11.4585954,
                    "addr:city": "München",
                    "addr:housenumber": "6",
                    "addr:postcode": "81241",
                    "addr:street": "Planegger Straße",
                    "amenity": "clinic",
                    "check_date": "2025-04-13",
                    "healthcare": "clinic",
                    "healthcare:speciality": "cardiology;general;dermatology;internal;gastroenterology",
                    "name": "Medizinisches Versorgungszentrum im Kloster",
                    "name:de": "Medizinisches Versorgungszentrum im Kloster",
                    "opening_hours": "Mo,Tu,Th 08:00-12:00,15:00-17:00; We,Fr 08:00-12:00",
                    "phone": "+49 89 832008",
                    "website": "https://www.tittus-wenk-ibarra.de"
                  },
                  "geometry": {
                    "type": "Point",
                    "coordinates": [
                      11.4585954,
                      48.1451968
                    ]
                  }
                },
                {
                  "type": "Feature",
                  "properties": {
                    "id": "4946765421",
                    "osm_type": "node",
                    "lat": 48.1496455,
                    "lon": 11.455612,
                    "addr:city": "München",
                    "addr:housenumber": "26",
                    "addr:postcode": "81241",
                    "addr:street": "Lortzingstraße",
                    "amenity": "clinic",
                    "contact:website": "https://ivf-muenchen.de/",
                    "email": "info@ivf-muenchen.de",
                    "emergency": "no",
                    "fax": "+49 89 24 41 44 41",
                    "healthcare": "clinic",
                    "healthcare:speciality": "fertility",
                    "name": "Kinderwunsch Centrum München (MVZ)",
                    "opening_hours": "Mo-Th 07:00-16:00; Fr 07:00-14:00; PH off",
                    "operator": "Kinderwunsch Centrum München GbR",
                    "operator:type": "business",
                    "phone": "+49 89 24 41 44 0",
                    "start_date": "1986",
                    "wheelchair": "yes"
                  },
                  "geometry": {
                    "type": "Point",
                    "coordinates": [
                      11.455612,
                      48.1496455
                    ]
                  }
                },
                {
                  "type": "Feature",
                  "properties": {
                    "id": "6761437975",
                    "osm_type": "node",
                    "lat": 48.1442104,
                    "lon": 11.4536353,
                    "amenity": "clinic",
                    "contact:phone": "+49 89 116 117",
                    "healthcare": "clinic",
                    "healthcare:speciality": "general",
                    "name": "Ärztlicher Bereitschaftsdienst - KVB-Bereitschaftspraxis Helios-Klinikum München West",
                    "opening_hours": "Mo,Tu,Th 18:00-21:00; We,Fr 16:00-21:00; Sa,Su,PH 09:00-21:00",
                    "operator": "KVB",
                    "website": "https://www.kvb.de/patienten/aerztlicher-bereitschaftsdienst"
                  },
                  "geometry": {
                    "type": "Point",
                    "coordinates": [
                      11.4536353,
                      48.1442104
                    ]
                  }
                },
                {
                  "type": "Feature",
                  "properties": {
                    "id": "9959285988",
                    "osm_type": "node",
                    "lat": 48.1566589,
                    "lon": 11.5112974,
                    "addr:city": "München",
                    "addr:housenumber": "10",
                    "addr:postcode": "80639",
                    "addr:street": "Notburgastraße",
                    "amenity": "clinic",
                    "healthcare": "clinic",
                    "healthcare:speciality": "nutrition",
                    "name": "ZEP – Zentrum für Ernährungsmedizin und Prävention",
                    "operator": "Krankenhaus Barmherzige Brüder",
                    "operator:type": "public"
                  },
                  "geometry": {
                    "type": "Point",
                    "coordinates": [
                      11.5112974,
                      48.1566589
                    ]
                  }
                },
                {
                  "type": "Feature",
                  "properties": {
                    "id": "10137516379",
                    "osm_type": "node",
                    "lat": 48.1506502,
                    "lon": 11.462609,
                    "addr:city": "München",
                    "addr:country": "DE",
                    "addr:housenumber": "20",
                    "addr:postcode": "81245",
                    "addr:street": "Gottfried-Keller-Straße",
                    "amenity": "clinic",
                    "contact:phone": "+49 89 8208140",
                    "fixme": "missing level",
                    "healthcare": "clinic",
                    "healthcare:speciality": "proctology",
                    "level": "yes",
                    "name": "Praxisklinik München-Pasing",
                    "opening_hours": "\"Termine nur nach Vereinbarung.\"",
                    "website": "https://praxisklinikmuenchen.de/"
                  },
                  "geometry": {
                    "type": "Point",
                    "coordinates": [
                      11.462609,
                      48.1506502
                    ]
                  }
                },
                {
                  "type": "Feature",
                  "properties": {
                    "id": "11020553590",
                    "osm_type": "node",
                    "lat": 48.1563925,
                    "lon": 11.526247,
                    "addr:city": "München",
                    "addr:country": "DE",
                    "addr:housenumber": "71",
                    "addr:postcode": "80639",
                    "addr:street": "Renatastraße",
                    "amenity": "clinic",
                    "contact:phone": "+49 89 1665 055",
                    "contact:website": "https://www.hno-nymphenburg.de",
                    "healthcare": "clinic",
                    "healthcare:speciality": "allergology;otolaryngology",
                    "name": "HNO-Gemeinschaftspraxis",
                    "opening_hours": "Mo-Th,Tu 08:30-13:00,15:00-18:00; We,Fr 08:30-13:00; \"Nach Vereinbarung\"; Sa-Su,PH off",
                    "operator": "Dr. med. Richard de la Chaux, Dr. med. Lukas Heusgen"
                  },
                  "geometry": {
                    "type": "Point",
                    "coordinates": [
                      11.526247,
                      48.1563925
                    ]
                  }
                },
                {
                  "type": "Feature",
                  "properties": {
                    "id": "12085302383",
                    "osm_type": "node",
                    "lat": 48.1469362,
                    "lon": 11.5027824,
                    "addr:city": "München",
                    "addr:housenumber": "1",
                    "addr:postcode": "80639",
                    "addr:street": "Rosa-Bavarese-Straße",
                    "amenity": "clinic",
                    "healthcare": "clinic",
                    "healthcare:speciality": "general;paediatrics;otolaryngology;dermatology;gynaecology;orthodontics;neurology;urology;stomatology",
                    "name": "Ärztehaus Nymphenburg Ambigon",
                    "website": "https://www.aerztehaus-nymphenburg.de/",
                    "wheelchair": "yes"
                  },
                  "geometry": {
                    "type": "Point",
                    "coordinates": [
                      11.5027824,
                      48.1469362
                    ]
                  }
                },
                {
                  "type": "Feature",
                  "properties": {
                    "id": "13051994132",
                    "osm_type": "node",
                    "lat": 48.1573089,
                    "lon": 11.5103151,
                    "amenity": "clinic",
                    "contact:facebook": "https://www.barmherzige-johanneshospiz.de/",
                    "healthcare": "clinic",
                    "healthcare:speciality": "palliative",
                    "name": "Johannes-Hospiz München",
                    "operator": "Barmherzige Brüder gemeinnützige Krankenhaus GmbH",
                    "operator:type": "religious"
                  },
                  "geometry": {
                    "type": "Point",
                    "coordinates": [
                      11.5103151,
                      48.1573089
                    ]
                  }
                },
                {
                  "type": "Feature",
                  "properties": {
                    "id": "13052179825",
                    "osm_type": "node",
                    "lat": 48.1447596,
                    "lon": 11.4541302,
                    "amenity": "clinic",
                    "healthcare": "clinic",
                    "name": "Strahlentherapie Pasing - Praxis für Strahlentherapie"
                  },
                  "geometry": {
                    "type": "Point",
                    "coordinates": [
                      11.4541302,
                      48.1447596
                    ]
                  }
                },
                {
                  "type": "Feature",
                  "properties": {
                    "id": "13052463699",
                    "osm_type": "node",
                    "lat": 48.1106428,
                    "lon": 11.5026728,
                    "addr:city": "München",
                    "addr:country": "DE",
                    "addr:housenumber": "267",
                    "addr:postcode": "81377",
                    "addr:street": "Fürstenrieder Straße",
                    "amenity": "clinic",
                    "healthcare": "clinic",
                    "healthcare:speciality": "child_psychiatry",
                    "name": "kbo-Institutsambulanz für Psychiatrie und Psychotherapie am kbo-Kinderzentrum München",
                    "website": "https://kbo-iak.de/standorte/kbo-tagesklinik-und-institutsambulanz-fuer-psychiatrie-und-psychotherapie-am-kbo-kinderzentrum"
                  },
                  "geometry": {
                    "type": "Point",
                    "coordinates": [
                      11.5026728,
                      48.1106428
                    ]
                  }
                },
                {
                  "type": "Feature",
                  "properties": {
                    "id": "60235532",
                    "osm_type": "node",
                    "lat": 48.1310014,
                    "lon": 11.5605247,
                    "addr:city": "München",
                    "addr:country": "DE",
                    "addr:housenumber": "2a",
                    "addr:postcode": "80337",
                    "addr:street": "Lindwurmstraße",
                    "amenity": "clinic",
                    "email": "info@klinikum.uni-muenchen.de",
                    "healthcare": "clinic",
                    "healthcare:speciality": "dental_oral_maxillo_facial_surgery",
                    "name": "Mund-, Kiefer-, Gesichtschirurgie",
                    "operator": "Ludwig-Maximilians-Universität",
                    "operator:short": "LMU",
                    "operator:type": "university",
                    "operator:wikidata": "Q55044",
                    "operator:wikipedia": "de:Ludwig-Maximilians-Universität München",
                    "phone": "+49 89 5160-0",
                    "website": "https://www.lmu-klinikum.de/",
                    "wheelchair": "limited"
                  },
                  "geometry": {
                    "type": "Point",
                    "coordinates": [
                      11.5605247,
                      48.1310014
                    ]
                  }
                },
                {
                  "type": "Feature",
                  "properties": {
                    "id": "60235905",
                    "osm_type": "node",
                    "lat": 48.1302821,
                    "lon": 11.5592053,
                    "addr:city": "München",
                    "addr:country": "DE",
                    "addr:housenumber": "4",
                    "addr:postcode": "80337",
                    "addr:street": "Lindwurmstraße",
                    "amenity": "clinic",
                    "email": "info@klinikum.uni-muenchen.de",
                    "emergency": "yes",
                    "healthcare": "clinic",
                    "healthcare:speciality": "paediatrics",
                    "name": "Dr. von Haunersches Kinderspital",
                    "operator": "Ludwig-Maximilians-Universität",
                    "operator:short": "LMU",
                    "operator:type": "university",
                    "operator:wikidata": "Q55044",
                    "operator:wikipedia": "de:Ludwig-Maximilians-Universität München",
                    "phone": "+49 89 4400 -52811",
                    "website": "https://www.lmu-klinikum.de/",
                    "wheelchair": "yes",
                    "wikidata": "Q1254126"
                  },
                  "geometry": {
                    "type": "Point",
                    "coordinates": [
                      11.5592053,
                      48.1302821
                    ]
                  }
                },
                {
                  "type": "Feature",
                  "properties": {
                    "id": "60237053",
                    "osm_type": "node",
                    "lat": 48.131676,
                    "lon": 11.5581961,
                    "addr:city": "München",
                    "addr:country": "DE",
                    "addr:housenumber": "70",
                    "addr:postcode": "80336",
                    "addr:street": "Goethestraße",
                    "amenity": "clinic",
                    "email": "info@klinikum.uni-muenchen.de",
                    "healthcare": "clinic",
                    "healthcare:speciality": "stomatology",
                    "name": "Poliklinik Zahnärztliche Prothetik",
                    "operator": "Ludwig-Maximilians-Universität",
                    "operator:short": "LMU",
                    "operator:wikidata": "Q55044",
                    "operator:wikipedia": "de:Ludwig-Maximilians-Universität München",
                    "phone": "+49 89 5160-0",
                    "website": "https://www.lmu-klinikum.de/",
                    "wheelchair": "yes"
                  },
                  "geometry": {
                    "type": "Point",
                    "coordinates": [
                      11.5581961,
                      48.131676
                    ]
                  }
                },
                {
                  "type": "Feature",
                  "properties": {
                    "id": "60237068",
                    "osm_type": "node",
                    "lat": 48.1313295,
                    "lon": 11.5581921,
                    "addr:city": "München",
                    "addr:country": "DE",
                    "addr:housenumber": "70",
                    "addr:postcode": "80336",
                    "addr:street": "Goethestraße",
                    "amenity": "clinic",
                    "email": "info@klinikum.uni-muenchen.de",
                    "healthcare": "clinic",
                    "healthcare:speciality": "stomatology",
                    "name": "Poliklinik Zahnerhaltung und Parodontologie",
                    "operator": "Ludwig-Maximilians-Universität",
                    "operator:short": "LMU",
                    "operator:wikidata": "Q55044",
                    "operator:wikipedia": "de:Ludwig-Maximilians-Universität München",
                    "phone": "+49 89 5160-0",
                    "website": "https://www.lmu-klinikum.de/",
                    "wheelchair": "yes"
                  },
                  "geometry": {
                    "type": "Point",
                    "coordinates": [
                      11.5581921,
                      48.1313295
                    ]
                  }
                },
                {
                  "type": "Feature",
                  "properties": {
                    "id": "60237323",
                    "osm_type": "node",
                    "lat": 48.1309824,
                    "lon": 11.5581778,
                    "addr:city": "München",
                    "addr:country": "DE",
                    "addr:housenumber": "70",
                    "addr:postcode": "80336",
                    "addr:street": "Goethestraße",
                    "amenity": "clinic",
                    "email": "info@klinikum.uni-muenchen.de",
                    "healthcare": "clinic",
                    "healthcare:speciality": "orthodontics",
                    "name": "Poliklinik Kieferorthopädie",
                    "operator": "Ludwig-Maximilians-Universität",
                    "operator:short": "LMU",
                    "operator:wikidata": "Q55044",
                    "operator:wikipedia": "de:Ludwig-Maximilians-Universität München",
                    "phone": "+49 89 5160-3233",
                    "website": "https://www.lmu-klinikum.de/",
                    "wheelchair": "yes"
                  },
                  "geometry": {
                    "type": "Point",
                    "coordinates": [
                      11.5581778,
                      48.1309824
                    ]
                  }
                },
                {
                  "type": "Feature",
                  "properties": {
                    "id": "316165112",
                    "osm_type": "node",
                    "lat": 48.1236815,
                    "lon": 11.54516,
                    "addr:city": "München",
                    "addr:country": "DE",
                    "addr:housenumber": "11",
                    "addr:postcode": "80336",
                    "addr:street": "Bavariastraße",
                    "amenity": "clinic",
                    "contact:phone": "+49 89 76 78-0",
                    "contact:website": "https://kbo-iak.de/standorte/kbo-klinik-fuer-psychiatrie-und-psychotherapie-haar-atriumhaus",
                    "description": "Psychiatrisches Krisen- und Behandlungszentrum",
                    "healthcare": "clinic",
                    "name": "kbo-Klinik für Psychiatrie und Psychotherapie Haar | Atriumhaus",
                    "operator": "kbo-Isar-Amper-Klinikum gemeinnützige GmbH",
                    "operator:type": "public",
                    "operator:wikidata": "Q101411516",
                    "operator:wikipedia": "de:Kbo-Isar-Amper-Klinikum",
                    "wheelchair": "limited"
                  },
                  "geometry": {
                    "type": "Point",
                    "coordinates": [
                      11.54516,
                      48.1236815
                    ]
                  }
                },
                {
                  "type": "Feature",
                  "properties": {
                    "id": "403757273",
                    "osm_type": "node",
                    "lat": 48.1586484,
                    "lon": 11.5897081,
                    "addr:city": "München",
                    "addr:country": "DE",
                    "addr:housenumber": "12",
                    "addr:postcode": "80802",
                    "addr:street": "Seestraße",
                    "amenity": "clinic",
                    "contact:phone": "+49 89 38 17 04-0",
                    "contact:website": "https://www.clinic-dr-decker.de",
                    "healthcare": "clinic",
                    "name": "Clinic Dr. Decker"
                  },
                  "geometry": {
                    "type": "Point",
                    "coordinates": [
                      11.5897081,
                      48.1586484
                    ]
                  }
                },
                {
                  "type": "Feature",
                  "properties": {
                    "id": "771759555",
                    "osm_type": "node",
                    "lat": 48.1218504,
                    "lon": 11.5397814,
                    "amenity": "clinic",
                    "healthcare": "clinic",
                    "name": "Mutabor",
                    "note": "Therapeutische Tagesstätte",
                    "website": "https://www.mutabor.org/",
                    "wheelchair": "yes"
                  },
                  "geometry": {
                    "type": "Point",
                    "coordinates": [
                      11.5397814,
                      48.1218504
                    ]
                  }
                },
                {
                  "type": "Feature",
                  "properties": {
                    "id": "1405526488",
                    "osm_type": "node",
                    "lat": 48.1540527,
                    "lon": 11.582353,
                    "addr:city": "München",
                    "addr:country": "DE",
                    "addr:housenumber": "5",
                    "addr:postcode": "80802",
                    "addr:street": "Leopoldstraße",
                    "amenity": "clinic",
                    "description": "Ambulanz und Labore des Institut für Infektions- und Tropenmedizin des LMU Klinikum München",
                    "healthcare": "clinic",
                    "healthcare:speciality": "tropical;vaccination",
                    "name": "Hochschulambulanz für Tropenmedizin, Infektiologie und Reisemedizin",
                    "name:en": "Institute of Infectious Diseases and Tropical Medicine, LMU University Hospital Munich",
                    "opening_hours": "Mo-Fr 08:00-13:00; Mo-Th 14:00-16:00; PH off",
                    "operator": "LMU Klinikum München",
                    "website:en": "https://www.lmu-klinikum.de/tropical-institute",
                    "wheelchair": "no",
                    "wheelchair:description": "Stufen zu beiden Zugängen"
                  },
                  "geometry": {
                    "type": "Point",
                    "coordinates": [
                      11.582353,
                      48.1540527
                    ]
                  }
                },
                {
                  "type": "Feature",
                  "properties": {
                    "id": "2177021580",
                    "osm_type": "node",
                    "lat": 48.1526528,
                    "lon": 11.6198673,
                    "addr:city": "München",
                    "addr:country": "DE",
                    "addr:housenumber": "5",
                    "addr:postcode": "81925",
                    "addr:street": "Rosenkavalierplatz",
                    "amenity": "clinic",
                    "healthcare": "clinic",
                    "name": "Nierenzentrum München-Bogenhausen Arabellapark",
                    "phone": "+49 89 4522380",
                    "wheelchair": "yes"
                  },
                  "geometry": {
                    "type": "Point",
                    "coordinates": [
                      11.6198673,
                      48.1526528
                    ]
                  }
                },
                {
                  "type": "Feature",
                  "properties": {
                    "id": "2467640181",
                    "osm_type": "node",
                    "lat": 48.1321736,
                    "lon": 11.547402,
                    "amenity": "clinic",
                    "end_date": "2025-10-10",
                    "healthcare": "clinic",
                    "healthcare:speciality": "emergency",
                    "name": "Erste Hilfe",
                    "name:en": "First Aid",
                    "note:2": "Nach Wies'nende bitte nicht löschen, sondern tags ändern",
                    "note:3": "tag ändern: name => temporary:name",
                    "operator": "Aicher Group",
                    "start_date": "2023-09-16"
                  },
                  "geometry": {
                    "type": "Point",
                    "coordinates": [
                      11.547402,
                      48.1321736
                    ]
                  }
                },
                {
                  "type": "Feature",
                  "properties": {
                    "id": "2656559634",
                    "osm_type": "node",
                    "lat": 48.1629191,
                    "lon": 11.543162,
                    "addr:city": "München",
                    "addr:country": "DE",
                    "addr:housenumber": "19",
                    "addr:postcode": "80637",
                    "addr:street": "Helene-Weber-Allee",
                    "amenity": "clinic",
                    "check_date:opening_hours": "2024-09-22",
                    "contact:email": "mvz@neuhann.de",
                    "contact:fax": "+49-89-15940555",
                    "contact:phone": "+49-89-1594040",
                    "contact:website": "https://www.neuhann.de",
                    "healthcare": "clinic",
                    "healthcare:speciality": "ophthalmology",
                    "name": "MVZ Prof. Neuhann",
                    "opening_hours:signed": "no"
                  },
                  "geometry": {
                    "type": "Point",
                    "coordinates": [
                      11.543162,
                      48.1629191
                    ]
                  }
                },
                {
                  "type": "Feature",
                  "properties": {
                    "id": "3733614291",
                    "osm_type": "node",
                    "lat": 48.1194224,
                    "lon": 11.5833704,
                    "addr:city": "München",
                    "addr:housenumber": "5",
                    "addr:postcode": "81541",
                    "addr:street": "Sankt-Bonifatius-Straße",
                    "amenity": "clinic",
                    "check_date": "2025-04-03",
                    "check_date:opening_hours": "2023-09-23",
                    "emergency": "yes",
                    "healthcare": "clinic",
                    "level": "2",
                    "name": "Deutsches Hyperhidrosezentrum DHHZ",
                    "opening_hours:signed": "no",
                    "operator": "PD Dr. Christoph Schick",
                    "phone": "+49 89 27272012",
                    "website": "https://www.dhhz.de/"
                  },
                  "geometry": {
                    "type": "Point",
                    "coordinates": [
                      11.5833704,
                      48.1194224
                    ]
                  }
                },
                {
                  "type": "Feature",
                  "properties": {
                    "id": "4217489891",
                    "osm_type": "node",
                    "lat": 48.140151,
                    "lon": 11.576384,
                    "addr:postcode": "80333",
                    "amenity": "clinic",
                    "healthcare": "clinic",
                    "name": "Ärztehaus Theatinerstr. 36",
                    "toilets:wheelchair": "yes",
                    "wheelchair": "yes"
                  },
                  "geometry": {
                    "type": "Point",
                    "coordinates": [
                      11.576384,
                      48.140151
                    ]
                  }
                },
                {
                  "type": "Feature",
                  "properties": {
                    "id": "4217582889",
                    "osm_type": "node",
                    "lat": 48.1395113,
                    "lon": 11.5761757,
                    "addr:city": "München",
                    "addr:housenumber": "46",
                    "addr:postcode": "80333",
                    "addr:street": "Theatinerstraße",
                    "amenity": "clinic",
                    "healthcare": "clinic",
                    "healthcare:speciality": "dermatology;otolaryngology",
                    "name": "Praxisgemeinschaft Theatiner46",
                    "phone": "+49 89 24 21 47 50",
                    "website": "https://www.theatiner46.de/",
                    "wheelchair": "yes"
                  },
                  "geometry": {
                    "type": "Point",
                    "coordinates": [
                      11.5761757,
                      48.1395113
                    ]
                  }
                },
                {
                  "type": "Feature",
                  "properties": {
                    "id": "4689458666",
                    "osm_type": "node",
                    "lat": 48.1525167,
                    "lon": 11.5337939,
                    "amenity": "clinic",
                    "healthcare": "clinic",
                    "name": "MVZ Neuhausen"
                  },
                  "geometry": {
                    "type": "Point",
                    "coordinates": [
                      11.5337939,
                      48.1525167
                    ]
                  }
                },
                {
                  "type": "Feature",
                  "properties": {
                    "id": "5922169877",
                    "osm_type": "node",
                    "lat": 48.1301588,
                    "lon": 11.5528143,
                    "amenity": "clinic",
                    "end_date": "2018-10-07",
                    "name": "Erste Hilfe"
                  },
                  "geometry": {
                    "type": "Point",
                    "coordinates": [
                      11.5528143,
                      48.1301588
                    ]
                  }
                },
                {
                  "type": "Feature",
                  "properties": {
                    "id": "9211878342",
                    "osm_type": "node",
                    "lat": 48.1357036,
                    "lon": 11.5754687,
                    "addr:city": "München",
                    "addr:housename": "Kustermannhaus",
                    "addr:housenumber": "8",
                    "addr:postcode": "80331",
                    "addr:street": "Viktualienmarkt",
                    "amenity": "clinic",
                    "brand": "Medicover",
                    "check_date": "2022-01-18",
                    "description:covid19": "Kommen Sie bitte pünktlich zu Ihrem Termin, damit Ihre Aufenthaltsdauer so kurz wie möglich ist! Kommen Sie bitte ohne Begleitperson! Bei uns gilt absolute Maskenpflicht (FFP2)!",
                    "email": "muenchen@medicover.de",
                    "fax": "+49-89-242912110",
                    "healthcare": "clinic",
                    "healthcare:speciality": "endocrinology;rheumatology;diabetology;internal",
                    "insurance:health": "public;private",
                    "level": "4",
                    "lgbtq": "welcome",
                    "lgbtq:trans": "welcome",
                    "name": "Medicover München MVZ",
                    "opening_hours": "Mo-Th 08:00-18:00; Fr 08:00-13:00; Sa,Su,PH off",
                    "operator": "MEDICOVER GmbH",
                    "operator:type": "private",
                    "phone": "+49-89-2429120",
                    "source:lgbtq": "https://www.qz-ts-muc.de/hormonbehandlung-erwachsene/medicover-münchen-viktualienmarkt/elisabeth-spilcke-liss/",
                    "start_date": "2016",
                    "survey:date": "2022-01-13",
                    "toilets": "yes",
                    "toilets:unisex": "no",
                    "website": "https://www.medicover.de/de/facilities/medicover-muenchen-mvz/about",
                    "wheelchair": "yes"
                  },
                  "geometry": {
                    "type": "Point",
                    "coordinates": [
                      11.5754687,
                      48.1357036
                    ]
                  }
                },
                {
                  "type": "Feature",
                  "properties": {
                    "id": "9425911138",
                    "osm_type": "node",
                    "lat": 48.1428754,
                    "lon": 11.5747583,
                    "addr:city": "München",
                    "addr:housenumber": "11",
                    "addr:postcode": "80333",
                    "addr:street": "Brienner Straße",
                    "amenity": "clinic",
                    "check_date": "2024-10-30",
                    "contact:email": "info@drfruehwein.de",
                    "contact:fax": "+49 89 228 36 45",
                    "contact:phone": "+49 89 223 523",
                    "contact:website": "https://www.drfruehwein.de",
                    "disease:long_covid": "yes",
                    "disease:lyme": "yes",
                    "disease:post_covid": "yes",
                    "healthcare": "clinic",
                    "healthcare:speciality": "general;vaccination;travel_clinic;lyme;long_covid;covid19",
                    "insurance:healthcare": "public;private",
                    "language:de": "main",
                    "language:en": "yes",
                    "language:es": "yes",
                    "language:it": "yes",
                    "level": "3",
                    "medical_system:western": "yes",
                    "name": "Dr. Frühwein + Partner",
                    "opening_hours": "Mo,Tu,Th 10:00-13:00,17:00-19:00 open \"Freie Sprechstunde\"; We,Fr 10:00-13:00 open \"Freie Sprechstunde\"; Mo,Tu,Th 08:00-10:00,13:00-17:00 open \"Terminsprechstunde\"; We,Fr 08:00-10:00,13:00-15:00 open \"Terminsprechstunde\"; Sa,Su,PH off",
                    "wheelchair": "yes"
                  },
                  "geometry": {
                    "type": "Point",
                    "coordinates": [
                      11.5747583,
                      48.1428754
                    ]
                  }
                },
                {
                  "type": "Feature",
                  "properties": {
                    "id": "9427763239",
                    "osm_type": "node",
                    "lat": 48.151024,
                    "lon": 11.5696993,
                    "addr:city": "München",
                    "addr:housenumber": "22",
                    "addr:postcode": "80799",
                    "addr:street": "Heßstraße",
                    "amenity": "clinic",
                    "description": "Verfahren der modernen Schmerztherapie – insbesondere fachärztliche und psychotherapeutische Kompetenzen. Für trans Patient*innen: Diagnostik, Alltagsbegleitung, Begutachtung, psychiatrische Mitbehandlung und Krisenintervention.",
                    "email": "mvz@algesiologikum.de",
                    "fax": "+49-89-452445411",
                    "healthcare": "clinic",
                    "healthcare:speciality": "psychiatry",
                    "insurance:health": "private;public",
                    "lgbtq": "welcome",
                    "lgbtq:trans": "welcome",
                    "medical_system:western": "yes",
                    "name": "Algesiologikum MVZ",
                    "phone": "+49-89-45244510",
                    "source": "https://www.qz-ts-muc.de/psychotherapeutische-und-psychiatrische-behandlung/psychiatrische-versorgung/dr-herbert-nickl/",
                    "website": "https://algesiologikum.de"
                  },
                  "geometry": {
                    "type": "Point",
                    "coordinates": [
                      11.5696993,
                      48.151024
                    ]
                  }
                },
                {
                  "type": "Feature",
                  "properties": {
                    "id": "9605882128",
                    "osm_type": "node",
                    "lat": 48.134869,
                    "lon": 11.5662357,
                    "addr:city": "München",
                    "addr:housenumber": "29",
                    "addr:postcode": "80331",
                    "addr:street": "Sonnenstraße",
                    "amenity": "clinic",
                    "healthcare": "clinic",
                    "name": "VivaQ MVZ Sonnenstraße",
                    "opening_hours": "Mo-Th 08:00-16:00, Fr 08:00-12:00",
                    "operator": "VivaQ MVZ Sonnenstraße GmbH"
                  },
                  "geometry": {
                    "type": "Point",
                    "coordinates": [
                      11.5662357,
                      48.134869
                    ]
                  }
                },
                {
                  "type": "Feature",
                  "properties": {
                    "id": "10004260084",
                    "osm_type": "node",
                    "lat": 48.1628588,
                    "lon": 11.5430933,
                    "addr:city": "München",
                    "addr:country": "DE",
                    "addr:housenumber": "19",
                    "addr:postcode": "80637",
                    "addr:street": "Helene-Weber-Allee",
                    "amenity": "clinic",
                    "contact:email": "info@mvz-im-helios.de",
                    "contact:phone": "+49 89 159277-0",
                    "contact:website": "https://www.mvz-im-helios.de",
                    "healthcare": "clinic",
                    "healthcare:speciality": "orthopaedics;neurosurgery;anesthesia",
                    "name": "MVZ im Helios",
                    "opening_hours": "Mo-Th 08:00-12:30,14:00-18:00; Fr 08:00-12:30"
                  },
                  "geometry": {
                    "type": "Point",
                    "coordinates": [
                      11.5430933,
                      48.1628588
                    ]
                  }
                },
                {
                  "type": "Feature",
                  "properties": {
                    "id": "11403945652",
                    "osm_type": "node",
                    "lat": 48.1448074,
                    "lon": 11.6010427,
                    "addr:city": "München",
                    "addr:housenumber": "28",
                    "addr:postcode": "81675",
                    "addr:street": "Möhlstraße",
                    "amenity": "clinic",
                    "emergency": "no",
                    "healthcare": "clinic",
                    "healthcare:speciality": "psychotherapie",
                    "name": "Oberberg Tagesklinik München Bogenhausen",
                    "operator": "Oberberg GmbH",
                    "operator:type": "private",
                    "website": "https://www.oberbergkliniken.de/fachkliniken/oberberg-tagesklinik-muenchen-bogenhausen"
                  },
                  "geometry": {
                    "type": "Point",
                    "coordinates": [
                      11.6010427,
                      48.1448074
                    ]
                  }
                },
                {
                  "type": "Feature",
                  "properties": {
                    "id": "11403965199",
                    "osm_type": "node",
                    "lat": 48.1360361,
                    "lon": 11.6134589,
                    "addr:city": "München",
                    "addr:housenumber": "130",
                    "addr:postcode": "81675",
                    "addr:street": "Einsteinstraße",
                    "amenity": "clinic",
                    "description": "Eingang Bothestraße.",
                    "emergency": "no",
                    "healthcare": "clinic",
                    "healthcare:speciality": "psychotherapie",
                    "level": "5",
                    "name": "Schön Klinik Tagesklinik",
                    "operator": "Schön Klinik",
                    "operator:wikidata": "Q2258661"
                  },
                  "geometry": {
                    "type": "Point",
                    "coordinates": [
                      11.6134589,
                      48.1360361
                    ]
                  }
                },
                {
                  "type": "Feature",
                  "properties": {
                    "id": "12406786830",
                    "osm_type": "node",
                    "lat": 48.1504004,
                    "lon": 11.6186831,
                    "addr:city": "München",
                    "addr:country": "DE",
                    "addr:housenumber": "9-11",
                    "addr:postcode": "81925",
                    "addr:street": "Arabellastraße",
                    "amenity": "clinic",
                    "healthcare": "clinic",
                    "level": "1",
                    "name": "Herzogpark Klinik",
                    "operator": "Anest-Gruppe",
                    "operator:type": "private"
                  },
                  "geometry": {
                    "type": "Point",
                    "coordinates": [
                      11.6186831,
                      48.1504004
                    ]
                  }
                },
                {
                  "type": "Feature",
                  "properties": {
                    "id": "12628157986",
                    "osm_type": "node",
                    "lat": 48.1397899,
                    "lon": 11.6062652,
                    "amenity": "clinic",
                    "healthcare": "clinic",
                    "name": "Die Radiologie - Mammazentrum München"
                  },
                  "geometry": {
                    "type": "Point",
                    "coordinates": [
                      11.6062652,
                      48.1397899
                    ]
                  }
                },
                {
                  "type": "Feature",
                  "properties": {
                    "id": "12709815536",
                    "osm_type": "node",
                    "lat": 48.129136,
                    "lon": 11.5579916,
                    "addr:city": "München",
                    "addr:country": "DE",
                    "addr:housenumber": "83",
                    "addr:postcode": "80337",
                    "addr:street": "Lindwurmstraße",
                    "amenity": "clinic",
                    "email": "info@ptgz.de",
                    "fax": "+49 89 9542883 90",
                    "healthcare": "clinic",
                    "healthcare:speciality": "psychotherapy",
                    "level": "3",
                    "name": "Psychotherapeutisches Gesundheitszentrum",
                    "opening_hours": "Mo-Th 09:00-13:00, 14:00-17:00; Fr 09:00-13:00, 14:00-16:00",
                    "operator": "vfkv – MVZ am Goetheplatz gGmbH",
                    "operator:type": "private",
                    "phone": "+49 89 9542883 0",
                    "short_name": "ptgz",
                    "start_date": "2018-02",
                    "website": "https://psychotherapeutisches-gesundheitszentrum.de/"
                  },
                  "geometry": {
                    "type": "Point",
                    "coordinates": [
                      11.5579916,
                      48.129136
                    ]
                  }
                },
                {
                  "type": "Feature",
                  "properties": {
                    "id": "12731795548",
                    "osm_type": "node",
                    "lat": 48.1343491,
                    "lon": 11.5644279,
                    "addr:city": "München",
                    "addr:housenumber": "4a",
                    "addr:postcode": "80336",
                    "addr:street": "Pettenkoferstraße",
                    "amenity": "clinic",
                    "healthcare": "clinic",
                    "healthcare:speciality": "otolaryngology",
                    "level": "1",
                    "name": "Hals-/Nasen-/Ohrenklinik",
                    "operator": "Ludwig-Maximilians-Universität",
                    "operator:short": "LMU",
                    "operator:type": "university",
                    "operator:wikidata": "Q55044",
                    "operator:wikipedia": "de:Ludwig-Maximilians-Universität München"
                  },
                  "geometry": {
                    "type": "Point",
                    "coordinates": [
                      11.5644279,
                      48.1343491
                    ]
                  }
                },
                {
                  "type": "Feature",
                  "properties": {
                    "id": "12840306426",
                    "osm_type": "node",
                    "lat": 48.1349324,
                    "lon": 11.5661141,
                    "amenity": "clinic",
                    "healthcare": "clinic",
                    "healthcare:speciality": "surgery",
                    "name": "isarAOP"
                  },
                  "geometry": {
                    "type": "Point",
                    "coordinates": [
                      11.5661141,
                      48.1349324
                    ]
                  }
                },
                {
                  "type": "Feature",
                  "properties": {
                    "id": "12849497197",
                    "osm_type": "node",
                    "lat": 48.129158,
                    "lon": 11.5580358,
                    "addr:city": "München",
                    "addr:country": "DE",
                    "addr:housenumber": "83",
                    "addr:postcode": "80337",
                    "addr:street": "Lindwurmstraße",
                    "amenity": "clinic",
                    "level": "2",
                    "name": "ispz Hauner (integriertes sozialpädiatrisches Zentrum)",
                    "operator": "LMU, LVKM"
                  },
                  "geometry": {
                    "type": "Point",
                    "coordinates": [
                      11.5580358,
                      48.129158
                    ]
                  }
                },
                {
                  "type": "Feature",
                  "properties": {
                    "id": "13052153195",
                    "osm_type": "node",
                    "lat": 48.1342565,
                    "lon": 11.564622,
                    "amenity": "clinic",
                    "healthcare": "clinic",
                    "name": "Tagesklinik Dr. med. Ute Sendler - Onkologie, Hämatologie, Kardiologie",
                    "opening_hours": "Mo,Tu,Th 08:00-17:00; We,Fr 08:00-13:00"
                  },
                  "geometry": {
                    "type": "Point",
                    "coordinates": [
                      11.564622,
                      48.1342565
                    ]
                  }
                },
                {
                  "type": "Feature",
                  "properties": {
                    "id": "13052420698",
                    "osm_type": "node",
                    "lat": 48.1705724,
                    "lon": 11.5755082,
                    "addr:city": "München",
                    "addr:country": "DE",
                    "addr:housenumber": "2",
                    "addr:postcode": "80804",
                    "addr:street": "James-Loeb-Straße",
                    "alt_name": "Ambulanz und Tagesklinik „Villa“",
                    "amenity": "clinic",
                    "healthcare:speciality": "psychiatry",
                    "name": "Klinik für Suchtmedizin und Psychotherapie",
                    "operator": "kbo-Isar-Amper-Klinikum gemeinnützige GmbH",
                    "operator:type": "public",
                    "short_name": "kboIAK Villa"
                  },
                  "geometry": {
                    "type": "Point",
                    "coordinates": [
                      11.5755082,
                      48.1705724
                    ]
                  }
                },
                {
                  "type": "Feature",
                  "properties": {
                    "id": "13052420699",
                    "osm_type": "node",
                    "lat": 48.1723971,
                    "lon": 11.5800517,
                    "addr:city": "München",
                    "addr:country": "DE",
                    "addr:housenumber": "1",
                    "addr:postcode": "80804",
                    "addr:street": "Kölner Platz",
                    "amenity": "clinic",
                    "check_date:opening_hours": "2025-08-14",
                    "healthcare:speciality": "psychiatry",
                    "name": "kbo-Klinik für Psychiatrie und Psychotherapie Nord",
                    "opening_hours:signed": "no",
                    "operator": "kbo-Isar-Amper-Klinikum gemeinnützige GmbH",
                    "operator:type": "public",
                    "website": "https://kbo-iak.de/standorte/kbo-klinik-fuer-psychiatrie-und-psychotherapie-nord-muenchen-schwabing"
                  },
                  "geometry": {
                    "type": "Point",
                    "coordinates": [
                      11.5800517,
                      48.1723971
                    ]
                  }
                },
                {
                  "type": "Feature",
                  "properties": {
                    "id": "13052460527",
                    "osm_type": "node",
                    "lat": 48.1754927,
                    "lon": 11.5849811,
                    "addr:city": "München",
                    "addr:country": "DE",
                    "addr:housenumber": "175",
                    "addr:postcode": "80804",
                    "addr:street": "Leopoldstraße",
                    "amenity": "clinic",
                    "healthcare:speciality": "psychiatry",
                    "name": "kbo-Tagesklinik und Institutsambulanz Nord",
                    "operator": "kbo-Isar-Amper-Klinikum gemeinnützige GmbH",
                    "operator:type": "public",
                    "website": "https://kbo-iak.de/standorte/kbo-tagesklinik-und-institutsambulanz-nord-muenchen-schwabing-leopoldstrasse-175"
                  },
                  "geometry": {
                    "type": "Point",
                    "coordinates": [
                      11.5849811,
                      48.1754927
                    ]
                  }
                },
                {
                  "type": "Feature",
                  "properties": {
                    "id": "13128246558",
                    "osm_type": "node",
                    "lat": 48.1633093,
                    "lon": 11.5928628,
                    "amenity": "clinic",
                    "healthcare": "clinic",
                    "name": "Allergie-Ambulanz"
                  },
                  "geometry": {
                    "type": "Point",
                    "coordinates": [
                      11.5928628,
                      48.1633093
                    ]
                  }
                },
                {
                  "type": "Feature",
                  "properties": {
                    "id": "13128246559",
                    "osm_type": "node",
                    "lat": 48.1631134,
                    "lon": 11.5925623,
                    "amenity": "clinic",
                    "healthcare": "clinic",
                    "name": "Lichtabteilung"
                  },
                  "geometry": {
                    "type": "Point",
                    "coordinates": [
                      11.5925623,
                      48.1631134
                    ]
                  }
                }
              ],
              "children": []
            },
            {
              "bbox": {
                "south": 48.108056562499996,
                "west": 11.676784875,
                "north": 48.190694875,
                "east": 11.915210749999998
              },
              "poiCount": 1,
              "leafCount": 1,
              "averagePosition": [
                11.7436747,
                48.1170779
              ],
              "data": [
                {
                  "type": "Feature",
                  "properties": {
                    "id": "3220226673",
                    "osm_type": "node",
                    "lat": 48.1170779,
                    "lon": 11.7436747,
                    "addr:city": "Haar",
                    "addr:country": "DE",
                    "addr:housenumber": "72",
                    "addr:postcode": "85540",
                    "addr:street": "Vockestraße",
                    "amenity": "clinic",
                    "check_date:opening_hours": "2024-06-13",
                    "contact:email": "kontakt@iak-kmo.de",
                    "contact:fax": "+49 89 4562-2960",
                    "contact:phone": "+49 89 45 62 0",
                    "contact:website": "https://kbo-iak.de/",
                    "healthcare": "clinic",
                    "name": "Zentrale Verwaltung",
                    "opening_hours:signed": "no",
                    "wheelchair": "yes"
                  },
                  "geometry": {
                    "type": "Point",
                    "coordinates": [
                      11.7436747,
                      48.1170779
                    ]
                  }
                }
              ],
              "children": []
            }
          ]
        },
        {
          "bbox": {
            "south": 48.02541825,
            "west": 11.915210749999998,
            "north": 48.190694875,
            "east": 12.392062499999998
          },
          "poiCount": 3,
          "leafCount": 3,
          "averagePosition": [
            11.9638175,
            48.07693713333333
          ],
          "data": [
            {
              "type": "Feature",
              "properties": {
                "id": "10091943052",
                "osm_type": "node",
                "lat": 48.0770108,
                "lon": 11.9698088,
                "addr:city": "Ebersberg",
                "addr:country": "DE",
                "addr:housenumber": "6",
                "addr:postcode": "85560",
                "addr:street": "Altstadtpassage",
                "amenity": "clinic",
                "email": "info@docs-ebersberg.de",
                "fax": "+49 8092 2301829",
                "healthcare": "clinic",
                "healthcare:speciality": "cardiology;pneumology",
                "name": "Herz-Lungen-Praxis Ebersberg",
                "opening_hours": "Mo-Th 08:00-13:00,13:30-18:00; Fr 08:00-13:00,13:30-17:00; PH off",
                "phone": "+49 8092 230180",
                "website": "www.herz-lungen-praxis-ebersberg.de"
              },
              "geometry": {
                "type": "Point",
                "coordinates": [
                  11.9698088,
                  48.0770108
                ]
              }
            },
            {
              "type": "Feature",
              "properties": {
                "id": "11209951450",
                "osm_type": "node",
                "lat": 48.0769898,
                "lon": 11.9599958,
                "addr:city": "Ebersberg",
                "addr:country": "DE",
                "addr:housenumber": "8",
                "addr:postcode": "85560",
                "addr:street": "Pfarrer-Guggetzer-Straße",
                "amenity": "clinic",
                "emergency": "no",
                "fax": "+49 8092 857 88 28",
                "healthcare": "hospital",
                "healthcare:speciality": "radiology",
                "name": "MVZro Strahlenzentrum Ebersberg",
                "operator": "Kliniken der Stadt und des Landkreises Rosenheim GmbH",
                "operator:type": "business",
                "phone": "+49 8092 857 88 0",
                "website": "https://www.romed-mvz.de/de/strahlentherapie/standort-ebersberg.htm"
              },
              "geometry": {
                "type": "Point",
                "coordinates": [
                  11.9599958,
                  48.0769898
                ]
              }
            },
            {
              "type": "Feature",
              "properties": {
                "id": "12965847158",
                "osm_type": "node",
                "lat": 48.0768108,
                "lon": 11.9616479,
                "addr:city": "Ebersberg",
                "addr:housenumber": "3",
                "addr:postcode": "85560",
                "addr:street": "Pfarrer-Guggetzer-Straße",
                "amenity": "clinic",
                "healthcare": "clinic",
                "healthcare:speciality": "general;surgery;vascular_surgery;neurosurgery;paediatrics;neonatology;anaesthetics",
                "name": "MVZ Klinikum Ebersberg München Ost",
                "old_name": "MVZ Kreisklinik Ebersberg",
                "operator": "MVZ Klinikum Ebersberg München Ost gGmbH",
                "phone": "+49 8092 232731‑0",
                "website": "https://www.mvz-klinik-ebe.de/"
              },
              "geometry": {
                "type": "Point",
                "coordinates": [
                  11.9616479,
                  48.0768108
                ]
              }
            }
          ],
          "children": []
        },
        {
          "bbox": {
            "south": 48.190694875,
            "west": 11.438358999999998,
            "north": 48.355971499999995,
            "east": 11.915210749999998
          },
          "poiCount": 5,
          "leafCount": 5,
          "averagePosition": [
            11.60995362,
            48.26486936
          ],
          "data": [
            {
              "type": "Feature",
              "properties": {
                "id": "10053175369",
                "osm_type": "node",
                "lat": 48.2499363,
                "lon": 11.4438325,
                "amenity": "clinic",
                "email": "kontakt@dachau-med.de",
                "fax": "+49 8131 6119-199",
                "healthcare": "clinic",
                "name": "Sicher&Gesund GbR",
                "opening_hours": "Mo-Fr 08:00-18:00",
                "phone": "+49 8131 6119-0",
                "website": "https://www.dachau-med.de"
              },
              "geometry": {
                "type": "Point",
                "coordinates": [
                  11.4438325,
                  48.2499363
                ]
              }
            },
            {
              "type": "Feature",
              "properties": {
                "id": "1598964032",
                "osm_type": "node",
                "lat": 48.2024588,
                "lon": 11.5864739,
                "amenity": "clinic",
                "emergency": "no",
                "healthcare": "clinic",
                "name": "Tagesklinik München-Nord",
                "website": "http://www.tages-klinik.de/"
              },
              "geometry": {
                "type": "Point",
                "coordinates": [
                  11.5864739,
                  48.2024588
                ]
              }
            },
            {
              "type": "Feature",
              "properties": {
                "id": "2485588863",
                "osm_type": "node",
                "lat": 48.3065524,
                "lon": 11.9095633,
                "addr:city": "Erding",
                "addr:housenumber": "9",
                "addr:postcode": "85435",
                "addr:street": "Landshuter Straße",
                "amenity": "clinic",
                "email": "info@die-zahnaerzte-erding.de",
                "fax": "+49 8122 2277911",
                "health_facility:type": "office",
                "healthcare": "clinic",
                "healthcare:speciality": "dentist;pedodontics;orthodontist;3D-X-Ray",
                "medical_system:western": "yes",
                "name": "MVZ Zahnärzte am Schönen Turm",
                "office": "physician",
                "opening_hours": "Mo-Fr 08:00-20:00; Sa 08:00-14:00",
                "phone": "+49 8122 9096110",
                "website": "https://www.die-zahnaerzte-erding.de/"
              },
              "geometry": {
                "type": "Point",
                "coordinates": [
                  11.9095633,
                  48.3065524
                ]
              }
            },
            {
              "type": "Feature",
              "properties": {
                "id": "12872018501",
                "osm_type": "node",
                "lat": 48.2508112,
                "lon": 11.5581402,
                "addr:city": "Oberschleißheim",
                "addr:housenumber": "1b",
                "addr:postcode": "85764",
                "addr:street": "Freisinger Straße",
                "amenity": "clinic",
                "brand": "KfH",
                "brand:wikidata": "Q1740377",
                "healthcare": "dialysis",
                "healthcare:speciality": "nephrology",
                "name": "KfH-Nierenzentrum"
              },
              "geometry": {
                "type": "Point",
                "coordinates": [
                  11.5581402,
                  48.2508112
                ]
              }
            },
            {
              "type": "Feature",
              "properties": {
                "id": "12959754368",
                "osm_type": "node",
                "lat": 48.3145881,
                "lon": 11.5517582,
                "amenity": "clinic",
                "healthcare": "clinic",
                "name": "AVZ Haimhausen"
              },
              "geometry": {
                "type": "Point",
                "coordinates": [
                  11.5517582,
                  48.3145881
                ]
              }
            }
          ],
          "children": []
        }
      ]
    },
    {
      "bbox": {
        "south": 48.02541825,
        "west": 12.392062499999998,
        "north": 48.355971499999995,
        "east": 13.345766
      },
      "poiCount": 3,
      "leafCount": 3,
      "averagePosition": [
        12.634335866666667,
        48.17597369999999
      ],
      "data": [
        {
          "type": "Feature",
          "properties": {
            "id": "1263133505",
            "osm_type": "node",
            "lat": 48.2439293,
            "lon": 12.52199,
            "addr:city": "Mühldorf a. Inn",
            "addr:country": "DE",
            "addr:housenumber": "4",
            "addr:postcode": "84453",
            "addr:street": "Bahnhoffußweg",
            "amenity": "clinic",
            "emergency": "no",
            "healthcare": "clinic",
            "healthcare:speciality": "gynaecology",
            "name": "Gyn-Zentrum",
            "operator": "Frauenärztliche Gemeinschaftspraxis Dr. Eisler & Partner PartGmbB",
            "operator:type": "private",
            "website": "https://gynzentrum-muehldorf.de/",
            "wheelchair": "no"
          },
          "geometry": {
            "type": "Point",
            "coordinates": [
              12.52199,
              48.2439293
            ]
          }
        },
        {
          "type": "Feature",
          "properties": {
            "id": "1356019471",
            "osm_type": "node",
            "lat": 48.1678017,
            "lon": 12.8400721,
            "amenity": "clinic",
            "name": "Medias Klinikum",
            "wheelchair": "yes"
          },
          "geometry": {
            "type": "Point",
            "coordinates": [
              12.8400721,
              48.1678017
            ]
          }
        },
        {
          "type": "Feature",
          "properties": {
            "id": "3036816303",
            "osm_type": "node",
            "lat": 48.1161901,
            "lon": 12.5409455,
            "addr:city": "Engelsberg",
            "addr:country": "DE",
            "addr:housenumber": "5",
            "addr:postcode": "84549",
            "addr:street": "Raiffeisenplatz",
            "amenity": "clinic",
            "healthcare": "clinic",
            "name": "MVZ-Engelsberg",
            "phone": "+49 8634 210"
          },
          "geometry": {
            "type": "Point",
            "coordinates": [
              12.5409455,
              48.1161901
            ]
          }
        }
      ],
      "children": []
    }
  ]
}