{
  "bbox": {
    "south": 48.355971499999995,
    "west": 13.345766,
    "north": 49.017078,
    "east": 15.253173
  },
  "poiCount": 16,
  "leafCount": 16,
  "averagePosition": [
    14.4476351,
    48.797185525
  ],
  "data": [
    {
      "type": "Feature",
      "properties": {
        "id": "3988230857",
        "osm_type": "node",
        "lat": 48.5714256,
        "lon": 13.9813026,
        "amenity": "clinic",
        "healthcare": "clinic",
        "name": "Dialyse"
      },
      "geometry": {
        "type": "Point",
        "coordinates": [
          13.9813026,
          48.5714256
        ]
      }
    },
    {
      "type": "Feature",
      "properties": {
        "id": "4431662690",
        "osm_type": "node",
        "lat": 48.8048367,
        "lon": 13.5454518,
        "addr:city": "Freyung",
        "addr:housenumber": "13",
        "addr:postcode": "94078",
        "addr:street": "Geyersberger Straße",
        "amenity": "clinic",
        "healthcare": "clinic",
        "name": "KfH Nierenzentrum",
        "operator": "KfH Kuratorium für Dialyse und Nierentransplantation e.V"
      },
      "geometry": {
        "type": "Point",
        "coordinates": [
          13.5454518,
          48.8048367
        ]
      }
    },
    {
      "type": "Feature",
      "properties": {
        "id": "9954785544",
        "osm_type": "node",
        "lat": 48.6562732,
        "lon": 13.6306588,
        "addr:city": "Hauzenberg",
        "addr:country": "DE",
        "addr:housenumber": "6",
        "addr:postcode": "94051",
        "addr:street": "Florianstraße",
        "amenity": "clinic",
        "healthcare": "clinic",
        "healthcare:speciality": "gynaecology;dermatology;psychiatry",
        "name": "Facharztzentrum Hauzenberg",
        "website": "https://www.faz-hauzenberg.de/"
      },
      "geometry": {
        "type": "Point",
        "coordinates": [
          13.6306588,
          48.6562732
        ]
      }
    },
    {
      "type": "Feature",
      "properties": {
        "id": "2435707626",
        "osm_type": "node",
        "lat": 48.469972,
        "lon": 14.1618807,
        "amenity": "clinic"
      },
      "geometry": {
        "type": "Point",
        "coordinates": [
          14.1618807,
          48.469972
        ]
      }
    },
    {
      "type": "Feature",
      "properties": {
        "id": "4311771502",
        "osm_type": "node",
        "lat": 48.6184175,
        "lon": 14.309571,
        "amenity": "clinic",
        "healthcare": "clinic"
      },
      "geometry": {
        "type": "Point",
        "coordinates": [
          14.309571,
          48.6184175
        ]
      }
    },
    {
      "type": "Feature",
      "properties": {
        "id": "6961319374",
        "osm_type": "node",
        "lat": 48.5746334,
        "lon": 14.0409777,
        "addr:city": "Haslach an der Mühl",
        "addr:country": "AT",
        "addr:housenumber": "3",
        "addr:postcode": "4170",
        "addr:street": "Kirchenplatz",
        "amenity": "clinic",
        "healthcare": "centre",
        "healthcare:speciality": "social_work",
        "name": "Hausarztmedizin Plus - Primärversorgungszentrum Haslach",
        "opening_hours": "Mo-Fr 07:00-12:30; Mo 16:00-19:00; We 16:00-19:00; Th 15:00-18:00",
        "operator": "Gesundheitszentrum Haslach",
        "phone": "+43 7289 21044",
        "social_facility": "healthcare",
        "website": "https://www.hausarztmedizinplus.at"
      },
      "geometry": {
        "type": "Point",
        "coordinates": [
          14.0409777,
          48.5746334
        ]
      }
    },
    {
      "type": "Feature",
      "properties": {
        "id": "3840758228",
        "osm_type": "node",
        "lat": 48.7620538,
        "lon": 14.7314883,
        "amenity": "clinic",
        "name": "Zdravotní středisko Horní Stropnice"
      },
      "geometry": {
        "type": "Point",
        "coordinates": [
          14.7314883,
          48.7620538
        ]
      }
    },
    {
      "type": "Feature",
      "properties": {
        "id": "4369162775",
        "osm_type": "node",
        "lat": 48.7732231,
        "lon": 14.9873943,
        "addr:city": "Gmünd",
        "addr:housenumber": "52",
        "addr:postcode": "3950",
        "addr:street": "Stadtplatz",
        "amenity": "clinic",
        "healthcare": "clinic",
        "name": "Gesundheitszentrum Gmünd",
        "wheelchair": "yes"
      },
      "geometry": {
        "type": "Point",
        "coordinates": [
          14.9873943,
          48.7732231
        ]
      }
    },
    {
      "type": "Feature",
      "properties": {
        "id": "3547946785",
        "osm_type": "node",
        "lat": 48.6032589,
        "lon": 15.1592303,
        "amenity": "clinic",
        "healthcare": "clinic",
        "name": "Ärztezentrum"
      },
      "geometry": {
        "type": "Point",
        "coordinates": [
          15.1592303,
          48.6032589
        ]
      }
    },
    {
      "type": "Feature",
      "properties": {
        "id": "411614971",
        "osm_type": "node",
        "lat": 48.9725871,
        "lon": 14.4888263,
        "amenity": "clinic",
        "brand": "Agel",
        "brand:wikidata": "Q41365932",
        "healthcare": "clinic",
        "healthcare:speciality": "general",
        "name": "Praktický lékař pro dospělé",
        "operator": "Poliklinika Agel Plzeň",
        "website": "https://poliklinika.agel.cz/plzen/ambulance/prakticti-lekari/ceske-budejovice.html"
      },
      "geometry": {
        "type": "Point",
        "coordinates": [
          14.4888263,
          48.9725871
        ]
      }
    },
    {
      "type": "Feature",
      "properties": {
        "id": "2410887699",
        "osm_type": "node",
        "lat": 48.9925924,
        "lon": 14.4621823,
        "addr:city": "České Budějovice",
        "addr:conscriptionnumber": "2217",
        "addr:country": "CZ",
        "addr:housenumber": "2217/46",
        "addr:postcode": "37004",
        "addr:street": "Plzeňská",
        "addr:streetnumber": "46",
        "amenity": "clinic",
        "healthcare": "clinic",
        "name": "Zdravotní středisko",
        "source:addr": "cuzk:ruian"
      },
      "geometry": {
        "type": "Point",
        "coordinates": [
          14.4621823,
          48.9925924
        ]
      }
    },
    {
      "type": "Feature",
      "properties": {
        "id": "4366442892",
        "osm_type": "node",
        "lat": 48.982666,
        "lon": 14.4458101,
        "addr:city": "České Budějovice",
        "addr:housenumber": "887/64",
        "addr:postcode": "37005",
        "addr:street": "K. Šafáře",
        "amenity": "clinic",
        "healthcare": "clinic",
        "name": "Zdravotnické zařízení Šumava"
      },
      "geometry": {
        "type": "Point",
        "coordinates": [
          14.4458101,
          48.982666
        ]
      }
    },
    {
      "type": "Feature",
      "properties": {
        "id": "2404901771",
        "osm_type": "node",
        "lat": 49.0039111,
        "lon": 14.7619939,
        "amenity": "clinic",
        "healthcare": "clinic",
        "name": "Služba první pomoci",
        "opening_hours": "Mo-Fr 18:00-21:00; Sa,Su 09:00-17:00"
      },
      "geometry": {
        "type": "Point",
        "coordinates": [
          14.7619939,
          49.0039111
        ]
      }
    },
    {
      "type": "Feature",
      "properties": {
        "id": "2404901801",
        "osm_type": "node",
        "lat": 49.0050666,
        "lon": 14.7610246,
        "amenity": "clinic",
        "check_date:opening_hours": "2025-07-09",
        "healthcare": "clinic",
        "name": "Nestátní zdravotnické zařízení",
        "opening_hours:signed": "no"
      },
      "geometry": {
        "type": "Point",
        "coordinates": [
          14.7610246,
          49.0050666
        ]
      }
    },
    {
      "type": "Feature",
      "properties": {
        "id": "2404901826",
        "osm_type": "node",
        "lat": 49.0061169,
        "lon": 14.7625378,
        "amenity": "clinic",
        "healthcare": "clinic"
      },
      "geometry": {
        "type": "Point",
        "coordinates": [
          14.7625378,
          49.0061169
        ]
      }
    },
    {
      "type": "Feature",
      "properties": {
        "id": "9963377825",
        "osm_type": "node",
        "lat": 48.9579341,
        "lon": 14.9318311,
        "amenity": "clinic",
        "healthcare": "clinic"
      },
      "geometry": {
        "type": "Point",
        "coordinates": [
          14.9318311,
          48.9579341
        ]
      }
    }
  ],
  "children": []
}