{
  "bbox": {
    "south": 48.355971499999995,
    "west": 9.530952,
    "north": 49.017078,
    "east": 11.438358999999998
  },
  "poiCount": 40,
  "leafCount": 40,
  "averagePosition": [
    10.6720782175,
    48.521033665
  ],
  "data": [
    {
      "type": "Feature",
      "properties": {
        "id": "5300605277",
        "osm_type": "node",
        "lat": 48.3618421,
        "lon": 10.8730841,
        "addr:city": "Augsburg",
        "addr:housenumber": "9a",
        "addr:postcode": "86157",
        "addr:street": "Franz-Kobinger-Straße",
        "amenity": "clinic",
        "healthcare": "clinic",
        "name": "NephroCare",
        "opening_hours": "Mo,We,Fr 07:30-12:00,15:00-18:00; Tu 07:30-14:00; Th 07:30-12:00"
      },
      "geometry": {
        "type": "Point",
        "coordinates": [
          10.8730841,
          48.3618421
        ]
      }
    },
    {
      "type": "Feature",
      "properties": {
        "id": "6203976325",
        "osm_type": "node",
        "lat": 48.3654965,
        "lon": 10.9050088,
        "addr:city": "Augsburg",
        "addr:housenumber": "3",
        "addr:postcode": "86153",
        "addr:street": "Willy-Brandt-Platz",
        "amenity": "clinic",
        "healthcare": "clinic",
        "healthcare:speciality": "plastic_surgery",
        "level": "0",
        "name": "Klinik am Forsterpark",
        "opening_hours": "Mo-Fr 08:00-12:00, 14:00-18:00",
        "operator": "Klinik am Forsterpark GmbH & Co. KG",
        "phone": "+49 821 45349619",
        "website": "https://www.klinik-forsterpark.de"
      },
      "geometry": {
        "type": "Point",
        "coordinates": [
          10.9050088,
          48.3654965
        ]
      }
    },
    {
      "type": "Feature",
      "properties": {
        "id": "7041699460",
        "osm_type": "node",
        "lat": 48.3561588,
        "lon": 10.8537058,
        "addr:city": "Augsburg",
        "addr:housenumber": "3",
        "addr:postcode": "86157",
        "addr:street": "Max-Josef-Metzger-Straße",
        "amenity": "clinic",
        "healthcare": "clinic",
        "healthcare:speciality": "orthopaedics",
        "name": "Arthroklinik",
        "office": "medical",
        "phone": "+49 821 502820",
        "website": "https://arthro-klinik.de/"
      },
      "geometry": {
        "type": "Point",
        "coordinates": [
          10.8537058,
          48.3561588
        ]
      }
    },
    {
      "type": "Feature",
      "properties": {
        "id": "9806971615",
        "osm_type": "node",
        "lat": 48.3653055,
        "lon": 10.9052556,
        "addr:city": "Augsburg",
        "addr:housenumber": "3A",
        "addr:postcode": "86153",
        "addr:street": "Willy-Brandt-Platz",
        "amenity": "clinic",
        "healthcare": "clinic",
        "healthcare:speciality": "dermatology;dermatovenereology",
        "level": "0",
        "name": "Hautzentrum am Fosterpark",
        "opening_hours": "Mo,We,Fr 08:00-17:00; Tu,Th 08:00-19:00",
        "website": "https://www.hautzentrum-forsterpark.de/"
      },
      "geometry": {
        "type": "Point",
        "coordinates": [
          10.9052556,
          48.3653055
        ]
      }
    },
    {
      "type": "Feature",
      "properties": {
        "id": "10123072919",
        "osm_type": "node",
        "lat": 48.3654587,
        "lon": 10.9048546,
        "addr:city": "Augsburg",
        "addr:housenumber": "3",
        "addr:postcode": "86153",
        "addr:street": "Willy-Brandt-Platz",
        "amenity": "clinic",
        "brand": "Südblick Augenzentren",
        "email": "augenklinik-augsburg@suedblick.de",
        "fax": "+49 821 80902020",
        "healthcare": "clinic",
        "healthcare:speciality": "ophthalmology",
        "level": "4;5",
        "name": "Augenklinik Augsburg Forsterpark",
        "opening_hours": "Mo-Th 08:00-12:00, 14:00-18:00; Fr 08:00-12:00, 14:00-17:00; Sa, Su, PH off",
        "operator": "Südblick Augenzentren",
        "phone": "+49 821 80902010",
        "website": "https://suedblick.de/standorte/augenklinik-augsburg-forsterpark/"
      },
      "geometry": {
        "type": "Point",
        "coordinates": [
          10.9048546,
          48.3654587
        ]
      }
    },
    {
      "type": "Feature",
      "properties": {
        "id": "11885940059",
        "osm_type": "node",
        "lat": 48.3627559,
        "lon": 10.9179459,
        "addr:city": "Augsburg",
        "addr:housenumber": "52",
        "addr:postcode": "86153",
        "addr:street": "Provinostraße",
        "air_conditioning": "yes",
        "amenity": "clinic",
        "email": "info@a15-martinipark.de",
        "fax": "+49 821 35264",
        "healthcare": "clinic",
        "healthcare:speciality": "Chirurgie; Orthopädie; Phlebologie",
        "internet_access": "wlan",
        "level": "0",
        "name": "Privatpraxis A15 im Martinipark",
        "opening_hours": "Mo-Fr 07:00-13:00; Mo-Fr 14:00-18:00",
        "operator": "Dr. Breitschaft; Dr. Bühring; Dr. Haug; Dr. Kotter; Dr. Lorz; Dr. Maurer; Dr. Rose; Dr. Schmidt; Dr. Wieberneit",
        "operator:type": "private",
        "phone": "+49 821 99970770",
        "website": "https://www.a15-martinipark.de",
        "wheelchair": "yes"
      },
      "geometry": {
        "type": "Point",
        "coordinates": [
          10.9179459,
          48.3627559
        ]
      }
    },
    {
      "type": "Feature",
      "properties": {
        "id": "506146203",
        "osm_type": "node",
        "lat": 48.399216,
        "lon": 9.9973835,
        "addr:city": "Ulm",
        "addr:housenumber": "11",
        "addr:postcode": "89073",
        "addr:street": "Steingasse",
        "amenity": "clinic",
        "check_date": "2024-01-31",
        "healthcare": "clinic",
        "healthcare:speciality": "psychiatry",
        "name": "Klinik Dr. Schwarz, Fachklinik für Psychiatrie und Psychotherapie",
        "type": "Psychiatrie;Psychotherapie"
      },
      "geometry": {
        "type": "Point",
        "coordinates": [
          9.9973835,
          48.399216
        ]
      }
    },
    {
      "type": "Feature",
      "properties": {
        "id": "1295370417",
        "osm_type": "node",
        "lat": 48.394679,
        "lon": 9.9645057,
        "amenity": "clinic",
        "emergency": "no",
        "healthcare": "clinic",
        "name": "Tagesklinik Söflingen",
        "opening_hours": "Mo,We-Fr 07:00-16:00; Tu 07:00-19:00",
        "website": "https://tagesklinik.de",
        "wheelchair": "yes"
      },
      "geometry": {
        "type": "Point",
        "coordinates": [
          9.9645057,
          48.394679
        ]
      }
    },
    {
      "type": "Feature",
      "properties": {
        "id": "3725945983",
        "osm_type": "node",
        "lat": 48.3910451,
        "lon": 9.9978136,
        "addr:city": "Neu-Ulm",
        "addr:country": "DE",
        "addr:housenumber": "36",
        "addr:postcode": "89231",
        "addr:street": "Gartenstraße",
        "amenity": "clinic",
        "healthcare": "clinic",
        "level": "1",
        "name": "Arthros Klinik"
      },
      "geometry": {
        "type": "Point",
        "coordinates": [
          9.9978136,
          48.3910451
        ]
      }
    },
    {
      "type": "Feature",
      "properties": {
        "id": "3728320773",
        "osm_type": "node",
        "lat": 48.3918353,
        "lon": 9.9643699,
        "amenity": "clinic",
        "healthcare": "clinic",
        "name": "Augenlaserzentrum Accuratis",
        "website": "https://www.accuratis-ulm.de"
      },
      "geometry": {
        "type": "Point",
        "coordinates": [
          9.9643699,
          48.3918353
        ]
      }
    },
    {
      "type": "Feature",
      "properties": {
        "id": "4403294789",
        "osm_type": "node",
        "lat": 48.420751,
        "lon": 9.9535621,
        "amenity": "clinic",
        "healthcare": "clinic",
        "name": "Universitätsklinik für Psychosomatische Medizin und Psychotherapie",
        "wheelchair": "yes"
      },
      "geometry": {
        "type": "Point",
        "coordinates": [
          9.9535621,
          48.420751
        ]
      }
    },
    {
      "type": "Feature",
      "properties": {
        "id": "4609375321",
        "osm_type": "node",
        "lat": 48.6980316,
        "lon": 9.7086258,
        "addr:city": "Eislingen/Fils",
        "addr:housenumber": "20",
        "addr:postcode": "73054",
        "addr:street": "Salacher Straße",
        "amenity": "clinic",
        "name": "Alisa Ambulanter Pflegedienst GmbH"
      },
      "geometry": {
        "type": "Point",
        "coordinates": [
          9.7086258,
          48.6980316
        ]
      }
    },
    {
      "type": "Feature",
      "properties": {
        "id": "8561986361",
        "osm_type": "node",
        "lat": 48.4099198,
        "lon": 9.9942713,
        "amenity": "clinic",
        "healthcare": "clinic",
        "name": "Kreißsaal",
        "opening_hours": "PH,Mo-Su 00:00-24:00"
      },
      "geometry": {
        "type": "Point",
        "coordinates": [
          9.9942713,
          48.4099198
        ]
      }
    },
    {
      "type": "Feature",
      "properties": {
        "id": "11362469148",
        "osm_type": "node",
        "lat": 48.7950211,
        "lon": 9.5989223,
        "amenity": "clinic",
        "healthcare": "clinic",
        "name": "Onkologische Hausarztpraxis Brettschneider, Wöhr, Müller, Bürkle"
      },
      "geometry": {
        "type": "Point",
        "coordinates": [
          9.5989223,
          48.7950211
        ]
      }
    },
    {
      "type": "Feature",
      "properties": {
        "id": "11916563426",
        "osm_type": "node",
        "lat": 48.4107084,
        "lon": 9.9932774,
        "addr:city": "Ulm",
        "addr:housenumber": "43",
        "addr:postcode": "89075",
        "addr:street": "Prittwitzstraße",
        "amenity": "clinic",
        "healthcare": "clinic",
        "healthcare:speciality": "fertility",
        "name": "Kinderwunschzentrum UniFee"
      },
      "geometry": {
        "type": "Point",
        "coordinates": [
          9.9932774,
          48.4107084
        ]
      }
    },
    {
      "type": "Feature",
      "properties": {
        "id": "12800153583",
        "osm_type": "node",
        "lat": 48.3989262,
        "lon": 9.990434,
        "addr:housenumber": "6",
        "addr:street": "Münsterplatz",
        "amenity": "clinic",
        "check_date": "2025-05-05",
        "description": "Medicover Ulm am Münsterplatz ist eine Praxis für Innere Medizin, Endokrinologie, Diabetologie, Andrologie, Infektiologie und Allgemeinmedizin.",
        "email": "ulm@medicover.de",
        "health_facility:type": "office",
        "healthcare": "clinic",
        "healthcare:speciality": "general;endocrinology;diabetology;infectious_diseases;internal",
        "level": "2",
        "name": "Medicover Ulm MVZ",
        "opening_hours": "Mo-Fr 08:00-12:00; Mo, Tu 14:00-18:00; Th 15:00-18:00",
        "operator": "MEDICOVER GmbH",
        "operator:type": "private",
        "phone": "+49 731 14063-0",
        "source": "survey",
        "website": "https://www.medicover.de/de/facilities/medicover-ulm-mvz/about"
      },
      "geometry": {
        "type": "Point",
        "coordinates": [
          9.990434,
          48.3989262
        ]
      }
    },
    {
      "type": "Feature",
      "properties": {
        "id": "5109573279",
        "osm_type": "node",
        "lat": 48.8364839,
        "lon": 10.0920912,
        "addr:city": "Aalen",
        "addr:housenumber": "26",
        "addr:street": "Marktplatz",
        "amenity": "clinic",
        "healthcare": "clinic",
        "level": "1",
        "name": "Hausarztpraxis Aalen",
        "opening_hours": "Mo 08:00-11:00,16:00-18:00; Tu,Th 08:00-11:00,16:00-19:00; We,Fr 08:00-12:00"
      },
      "geometry": {
        "type": "Point",
        "coordinates": [
          10.0920912,
          48.8364839
        ]
      }
    },
    {
      "type": "Feature",
      "properties": {
        "id": "7449160387",
        "osm_type": "node",
        "lat": 48.5777187,
        "lon": 10.4959636,
        "addr:city": "Dillingen a.d.Donau",
        "addr:housenumber": "24",
        "addr:postcode": "89407",
        "addr:street": "Königstraße",
        "amenity": "clinic",
        "healthcare": "clinic",
        "healthcare:speciality": "oncology;haematology",
        "name": "Onkologiezentrum Dillingen",
        "operator": "Prof. (SHB) Dr. med. Dirk Hempel"
      },
      "geometry": {
        "type": "Point",
        "coordinates": [
          10.4959636,
          48.5777187
        ]
      }
    },
    {
      "type": "Feature",
      "properties": {
        "id": "12173759875",
        "osm_type": "node",
        "lat": 48.84259,
        "lon": 10.0947809,
        "amenity": "clinic",
        "email": "info@praxisklinik-kochel.de",
        "fax": "+49 7361 96 00 77",
        "healthcare": "clinic",
        "name": "Praxisklinik Kochel",
        "operator": "Dr. Dr. Michael Kochel",
        "phone": "+49 7361 960066",
        "website": "https://www.praxisklinik-kochel.de/"
      },
      "geometry": {
        "type": "Point",
        "coordinates": [
          10.0947809,
          48.84259
        ]
      }
    },
    {
      "type": "Feature",
      "properties": {
        "id": "12583041591",
        "osm_type": "node",
        "lat": 48.6721831,
        "lon": 10.1431247,
        "amenity": "clinic",
        "healthcare": "dialysis",
        "healthcare:speciality": "nephrology",
        "start_date": "2024-07"
      },
      "geometry": {
        "type": "Point",
        "coordinates": [
          10.1431247,
          48.6721831
        ]
      }
    },
    {
      "type": "Feature",
      "properties": {
        "id": "3879025248",
        "osm_type": "node",
        "lat": 48.3852336,
        "lon": 10.8381138,
        "amenity": "clinic",
        "emergency_telephone_code": "116 117",
        "entrance": "yes",
        "healthcare": "clinic",
        "level": "0",
        "name": "KVB-Notfallpraxis",
        "opening_hours": "Mo-Tu 18:00-22:00; We 13:00-22:00; Th 18:00-22:00; Fr 13:00-22:00; Sa-Su 08:00-22:00; PH 08:00-22:00",
        "operator": "Kassenärztliche Vereinigung Bayerns",
        "phone": "+49 821 400 2475",
        "website": "https://www.uk-augsburg.de/fileadmin/Daten/Kliniken/Notaufnahme/Dateien/flyer-noa_kvb.pdf",
        "wheelchair": "yes"
      },
      "geometry": {
        "type": "Point",
        "coordinates": [
          10.8381138,
          48.3852336
        ]
      }
    },
    {
      "type": "Feature",
      "properties": {
        "id": "8481055653",
        "osm_type": "node",
        "lat": 48.3824938,
        "lon": 10.8472988,
        "addr:city": "Augsburg",
        "addr:housenumber": "2-4",
        "addr:postcode": "86156",
        "addr:street": "Alfred-Nobel-Straße",
        "amenity": "clinic",
        "healthcare": "clinic",
        "healthcare:speciality": "cardiology",
        "name": "Zentrum für Kardiologie",
        "operator": "MVZ Dr. Potolidis GmbH",
        "website": "https://www.potolidis.de"
      },
      "geometry": {
        "type": "Point",
        "coordinates": [
          10.8472988,
          48.3824938
        ]
      }
    },
    {
      "type": "Feature",
      "properties": {
        "id": "9897011909",
        "osm_type": "node",
        "lat": 48.6903382,
        "lon": 10.9163113,
        "addr:city": "Rain",
        "addr:country": "DE",
        "addr:housenumber": "46a",
        "addr:postcode": "86641",
        "addr:street": "Hauptstraße",
        "amenity": "clinic",
        "healthcare": "clinic",
        "name": "Ärztegemeinschaft Rain",
        "website": "https://aerzterain.de/"
      },
      "geometry": {
        "type": "Point",
        "coordinates": [
          10.9163113,
          48.6903382
        ]
      }
    },
    {
      "type": "Feature",
      "properties": {
        "id": "12450615854",
        "osm_type": "node",
        "lat": 48.449234,
        "lon": 10.6622405,
        "addr:city": "Welden",
        "addr:housenumber": "21",
        "addr:postcode": "86465",
        "addr:street": "Obere Bahnhofstraße",
        "amenity": "clinic",
        "contact:instagram": "https://www.instagram.com/aerztezentrum.welden/",
        "email": "info@aerztezentrum-welden.de",
        "healthcare": "clinic",
        "name": "Haus- & Facharztzentrum Welden",
        "opening_hours": "Mo-Th 08:00-18:00; Fr 08:00-16:00",
        "phone": "+49 8293 7014910",
        "website": "https://aerztezentrum-welden.de"
      },
      "geometry": {
        "type": "Point",
        "coordinates": [
          10.6622405,
          48.449234
        ]
      }
    },
    {
      "type": "Feature",
      "properties": {
        "id": "12522879460",
        "osm_type": "node",
        "lat": 48.3853884,
        "lon": 10.8761582,
        "amenity": "clinic",
        "name": "Ambulanz für Autismus und Entwicklungsstörungen KJPP",
        "operator": "Josefinum",
        "website": "https://www.josefinum.de/fachbereiche-experten/kinder-jugendpsychiatrie-psychotherapie/autismus-spektrum-stoerungen/"
      },
      "geometry": {
        "type": "Point",
        "coordinates": [
          10.8761582,
          48.3853884
        ]
      }
    },
    {
      "type": "Feature",
      "properties": {
        "id": "12522879461",
        "osm_type": "node",
        "lat": 48.385135,
        "lon": 10.8753364,
        "amenity": "clinic",
        "name": "Geburtshilfe / Perinatalzentrum",
        "operator": "Josefinum",
        "website": "https://www.josefinum.de/fachbereiche-experten/frauenklinik/geburtshilfe-perinatalzentrum/"
      },
      "geometry": {
        "type": "Point",
        "coordinates": [
          10.8753364,
          48.385135
        ]
      }
    },
    {
      "type": "Feature",
      "properties": {
        "id": "12522879463",
        "osm_type": "node",
        "lat": 48.3864451,
        "lon": 10.8738434,
        "amenity": "clinic",
        "name": "Interdisziplinäres Sozialpädiatrisches Zentrum (SPZ)",
        "operator": "Josefinum",
        "website": "https://www.josefinum.de/fachbereiche-experten/kinder-jugendmedizin/sozialpaediatrie/"
      },
      "geometry": {
        "type": "Point",
        "coordinates": [
          10.8738434,
          48.3864451
        ]
      }
    },
    {
      "type": "Feature",
      "properties": {
        "id": "12522879466",
        "osm_type": "node",
        "lat": 48.3852028,
        "lon": 10.8729885,
        "amenity": "clinic",
        "name": "KJPP Tagesklinik",
        "operator": "Josefinum"
      },
      "geometry": {
        "type": "Point",
        "coordinates": [
          10.8729885,
          48.3852028
        ]
      }
    },
    {
      "type": "Feature",
      "properties": {
        "id": "12522879468",
        "osm_type": "node",
        "lat": 48.3849252,
        "lon": 10.8741061,
        "amenity": "clinic",
        "name": "Ambulanzzentrum KJPP",
        "operator": "Josefinum"
      },
      "geometry": {
        "type": "Point",
        "coordinates": [
          10.8741061,
          48.3849252
        ]
      }
    },
    {
      "type": "Feature",
      "properties": {
        "id": "12522879469",
        "osm_type": "node",
        "lat": 48.3850907,
        "lon": 10.873837,
        "amenity": "clinic",
        "name": "KJPP Tagesklinik",
        "operator": "Josefinum"
      },
      "geometry": {
        "type": "Point",
        "coordinates": [
          10.873837,
          48.3850907
        ]
      }
    },
    {
      "type": "Feature",
      "properties": {
        "id": "12522879472",
        "osm_type": "node",
        "lat": 48.3852942,
        "lon": 10.8737722,
        "amenity": "clinic",
        "name": "Ambulanzzentrum und Fachtherapie KJPP",
        "operator": "Josefinum"
      },
      "geometry": {
        "type": "Point",
        "coordinates": [
          10.8737722,
          48.3852942
        ]
      }
    },
    {
      "type": "Feature",
      "properties": {
        "id": "2289549654",
        "osm_type": "node",
        "lat": 48.7686964,
        "lon": 11.3787076,
        "addr:city": "Ingolstadt",
        "addr:country": "DE",
        "addr:housenumber": "21",
        "addr:postcode": "85049",
        "addr:street": "Krumenauerstraße",
        "amenity": "clinic",
        "healthcare": "rehabilitation",
        "healthcare:speciality": "geriatrics",
        "name": "Geriatrie-und Rehazentrum Ingolstadt",
        "website": "https://www.klinikum-ingolstadt.de/zentren/geriatriezentrum/"
      },
      "geometry": {
        "type": "Point",
        "coordinates": [
          11.3787076,
          48.7686964
        ]
      }
    },
    {
      "type": "Feature",
      "properties": {
        "id": "3530552406",
        "osm_type": "node",
        "lat": 48.7900959,
        "lon": 11.4212676,
        "amenity": "clinic",
        "healthcare": "clinic",
        "name": "Gesundheitszentrum Nord N50",
        "operator": "AUDI AG",
        "phone": "+49 841 44231"
      },
      "geometry": {
        "type": "Point",
        "coordinates": [
          11.4212676,
          48.7900959
        ]
      }
    },
    {
      "type": "Feature",
      "properties": {
        "id": "3530552407",
        "osm_type": "node",
        "lat": 48.7843037,
        "lon": 11.4129993,
        "amenity": "clinic",
        "healthcare": "clinic",
        "name": "Gesundheitszentrum Süd",
        "operator": "AUDI AG",
        "phone": "+49 841 32466"
      },
      "geometry": {
        "type": "Point",
        "coordinates": [
          11.4129993,
          48.7843037
        ]
      }
    },
    {
      "type": "Feature",
      "properties": {
        "id": "3530552409",
        "osm_type": "node",
        "lat": 48.7817999,
        "lon": 11.4183322,
        "amenity": "clinic",
        "healthcare": "clinic",
        "healthcare:speciality": "general",
        "name": "Audi AG - Sanitätsstelle Süd-Ost",
        "operator": "AUDI AG",
        "operator:type": "private",
        "phone": "+49 841 91813"
      },
      "geometry": {
        "type": "Point",
        "coordinates": [
          11.4183322,
          48.7817999
        ]
      }
    },
    {
      "type": "Feature",
      "properties": {
        "id": "3530552410",
        "osm_type": "node",
        "lat": 48.7932776,
        "lon": 11.4092591,
        "access": "private",
        "amenity": "clinic",
        "healthcare": "clinic",
        "name": "Sanitätsstelle TE",
        "operator": "AUDI AG",
        "phone": "+49 841 33485"
      },
      "geometry": {
        "type": "Point",
        "coordinates": [
          11.4092591,
          48.7932776
        ]
      }
    },
    {
      "type": "Feature",
      "properties": {
        "id": "3530552411",
        "osm_type": "node",
        "lat": 48.7867213,
        "lon": 11.4085835,
        "amenity": "clinic",
        "healthcare": "clinic",
        "name": "Sanitätszentrale A50",
        "operator": "AUDI AG",
        "phone": "+49 841 32213"
      },
      "geometry": {
        "type": "Point",
        "coordinates": [
          11.4085835,
          48.7867213
        ]
      }
    },
    {
      "type": "Feature",
      "properties": {
        "id": "3530552412",
        "osm_type": "node",
        "lat": 48.7899929,
        "lon": 11.4211556,
        "amenity": "clinic",
        "healthcare": "clinic",
        "name": "Sanitätsstelle Nord N50",
        "operator": "AUDI AG",
        "phone": "+49 841 33666"
      },
      "geometry": {
        "type": "Point",
        "coordinates": [
          11.4211556,
          48.7899929
        ]
      }
    },
    {
      "type": "Feature",
      "properties": {
        "id": "7117790772",
        "osm_type": "node",
        "lat": 48.4628687,
        "lon": 11.1399346,
        "amenity": "clinic",
        "check_date": "2023-12-22",
        "emergency": "no",
        "healthcare": "clinic",
        "healthcare:speciality": "psychiatry",
        "level": "0",
        "name": "Psychiatrische Ambulanz",
        "opening_hours": "Mo-Th 09:00-12:00",
        "operator": "Bezirkskliniken Schwaben",
        "phone": "+49 8251 8614 735",
        "website": "https://www.bezirkskliniken-schwaben.de/kliniken/psychiatrische-institutsambulanz-aichach"
      },
      "geometry": {
        "type": "Point",
        "coordinates": [
          11.1399346,
          48.4628687
        ]
      }
    },
    {
      "type": "Feature",
      "properties": {
        "id": "7117790774",
        "osm_type": "node",
        "lat": 48.4626825,
        "lon": 11.1399022,
        "amenity": "clinic",
        "check_date": "2023-12-22",
        "emergency_telephone_code": "116 117",
        "healthcare": "clinic",
        "level": "0",
        "name": "KVB Bereitschaftspraxis Aichach",
        "official_name": "Allgemeine Ärztliche KVB-Bereitschaftspraxis an der Klinik an der Paar",
        "opening_hours": "We,Fr 16:00-21:00; Sa,Su,PH 09:00-21:00",
        "operator": "Kassenärztliche Vereinigung Bayerns",
        "website": "https://www.kvb.de/patienten/aerztlicher-bereitschaftsdienst",
        "wheelchair": "yes"
      },
      "geometry": {
        "type": "Point",
        "coordinates": [
          11.1399022,
          48.4626825
        ]
      }
    }
  ],
  "children": []
}