{
  "bbox": {
    "south": 47.694865,
    "west": 13.345766,
    "north": 48.355971499999995,
    "east": 15.253173
  },
  "poiCount": 18,
  "leafCount": 18,
  "averagePosition": [
    14.216011005555556,
    48.17931325
  ],
  "data": [
    {
      "type": "Feature",
      "properties": {
        "id": "8644298621",
        "osm_type": "node",
        "lat": 48.2059574,
        "lon": 13.4835688,
        "addr:city": "Ried im Innkreis",
        "addr:housenumber": "1",
        "addr:postcode": "4910",
        "addr:street": "Braunauer Straße",
        "amenity": "clinic",
        "healthcare": "centre",
        "healthcare:speciality": "social_work",
        "name": "Gesundheitszentrum Ried-Neuhofen",
        "operator": "Gesundheitszentrum Ried-Neuhofen",
        "operator:type": "public",
        "phone": "+43775287003",
        "social_facility": "healthcare"
      },
      "geometry": {
        "type": "Point",
        "coordinates": [
          13.4835688,
          48.2059574
        ]
      }
    },
    {
      "type": "Feature",
      "properties": {
        "id": "11138369223",
        "osm_type": "node",
        "lat": 48.0024608,
        "lon": 13.4860725,
        "addr:city": "Vöcklamarkt",
        "addr:housenumber": "1",
        "addr:postcode": "4870",
        "addr:street": "Dr.-Scheiber-Straße",
        "amenity": "clinic",
        "healthcare": "clinic",
        "healthcare:speciality": "general;physiotherapy",
        "name": "PVZ Vöcklamarkt",
        "operator": "Hötzinger-Sagerer- Allgemeinmediziner GmbH",
        "phone": "+437682 22903",
        "website": "https://gesundheit-voecklamarkt.at/angebote/"
      },
      "geometry": {
        "type": "Point",
        "coordinates": [
          13.4860725,
          48.0024608
        ]
      }
    },
    {
      "type": "Feature",
      "properties": {
        "id": "1981975902",
        "osm_type": "node",
        "lat": 47.9822433,
        "lon": 13.8185954,
        "addr:city": "Laakirchen",
        "addr:country": "AT",
        "addr:housenumber": "4",
        "addr:postcode": "4663",
        "addr:street": "Lenaustraße",
        "amenity": "clinic",
        "healthcare": "clinic",
        "healthcare:speciality": "general;internal",
        "internet_access": "no",
        "name": "Dr. Schwarz",
        "phone": "+43 7613 80000",
        "website": "https://www.dr-schwarz-wagner.at/"
      },
      "geometry": {
        "type": "Point",
        "coordinates": [
          13.8185954,
          47.9822433
        ]
      }
    },
    {
      "type": "Feature",
      "properties": {
        "id": "333242727",
        "osm_type": "node",
        "lat": 47.9001336,
        "lon": 14.1245391,
        "addr:city": "Kirchdorf an der Krems",
        "addr:country": "AT",
        "addr:housenumber": "6",
        "addr:postcode": "4560",
        "addr:street": "Dr. Gaisbauer-Straße",
        "amenity": "clinic",
        "healthcare": "clinic",
        "name": "GESUNDHEITSZENTRUM KIRCHDORF",
        "note": "Facharzt für Frauenheilkunde; Hals Nasen Ohren; Lungenheilkunde; Radiologie.\nPraxis Logopädie.\nHörgeräte"
      },
      "geometry": {
        "type": "Point",
        "coordinates": [
          14.1245391,
          47.9001336
        ]
      }
    },
    {
      "type": "Feature",
      "properties": {
        "id": "679670514",
        "osm_type": "node",
        "lat": 48.2778553,
        "lon": 14.249939,
        "amenity": "clinic",
        "contact:phone": "+43 732 6751290",
        "healthcare": "clinic",
        "healthcare:speciality": "general",
        "name": "Dr. Erwin Kepplinger / Dr. Birgit Kepplinger",
        "note": "Allgemeinmedizin",
        "opening_hours": "Mo,Tu,Th 08:00-12:00; We 16:00-18:00; Fr 08:00-12:00,15:00-17:00",
        "wheelchair": "yes"
      },
      "geometry": {
        "type": "Point",
        "coordinates": [
          14.249939,
          48.2778553
        ]
      }
    },
    {
      "type": "Feature",
      "properties": {
        "id": "5684350457",
        "osm_type": "node",
        "lat": 48.2833044,
        "lon": 14.3652536,
        "addr:city": "Steyregg",
        "addr:housenumber": "16g",
        "addr:postcode": "4221",
        "addr:street": "Linzer Straße",
        "amenity": "clinic",
        "email": "kontakt@tzst.at",
        "healthcare": "clinic",
        "name": "Therapiezentrum Steyregg",
        "note": "Im 1.OG On the first floor",
        "phone": "+43 680 3235444",
        "website": "https://www.therapiezentrum-steyregg.at/"
      },
      "geometry": {
        "type": "Point",
        "coordinates": [
          14.3652536,
          48.2833044
        ]
      }
    },
    {
      "type": "Feature",
      "properties": {
        "id": "5865759480",
        "osm_type": "node",
        "lat": 48.1743847,
        "lon": 14.5117791,
        "addr:city": "St. Valentin",
        "addr:country": "AT",
        "addr:housenumber": "17",
        "addr:postcode": "4300",
        "addr:street": "Ennser Straße",
        "amenity": "clinic",
        "contact:email": "ordination@gruppenpraxis-st-valentin.at",
        "contact:phone": "+437435 523 69",
        "description": "Dr. Peter Engelberger, Dr. Angela Kaiser",
        "healthcare": "clinic",
        "healthcare:speciality": "general",
        "name": "Gruppenpraxis St. Valentin",
        "opening_hours": "Mo, We, Fr 07:00-11:00; Tu, Th 07:00-11:00, 16:00-18:00",
        "website": "https://www.gruppenpraxis-st-valentin.at/kontakt/",
        "wheelchair": "yes"
      },
      "geometry": {
        "type": "Point",
        "coordinates": [
          14.5117791,
          48.1743847
        ]
      }
    },
    {
      "type": "Feature",
      "properties": {
        "id": "8006723178",
        "osm_type": "node",
        "lat": 48.2208398,
        "lon": 14.4727175,
        "addr:city": "Enns",
        "addr:country": "AT",
        "addr:housenumber": "19",
        "addr:postcode": "4470",
        "addr:street": "Kathreinstraße",
        "amenity": "clinic",
        "healthcare": "centre",
        "healthcare:speciality": "social_work",
        "name": "Die Hausärzte - Primärversorgungszentrum Enns",
        "opening_hours": "Mo-Th 07:00-19:00; Fr 07:00-13:00",
        "operator": "Dres. Eichner, Hockl, Maschek, Rinnerberger, Pfaller, Sonne-Schneiderbauer und Winkler GmbH",
        "phone": "+43 7223 84840",
        "social_facility": "healthcare"
      },
      "geometry": {
        "type": "Point",
        "coordinates": [
          14.4727175,
          48.2208398
        ]
      }
    },
    {
      "type": "Feature",
      "properties": {
        "id": "8006769397",
        "osm_type": "node",
        "lat": 48.1946206,
        "lon": 14.1122422,
        "addr:city": "Marchtrenk",
        "addr:country": "AT",
        "addr:housenumber": "12",
        "addr:postcode": "4614",
        "addr:street": "Goethestraße",
        "amenity": "clinic",
        "healthcare": "centre",
        "healthcare:speciality": "social_work",
        "name": "Primärversorgungszentrum Marchtrenk",
        "opening_hours": "Mo 07:00-19:00; Tu-Th 08:00-19:00; Fr 07:00-12:00",
        "operator": "PVZ Ecker, Mayer, Trockenbacher Allgemeinmediziner GmbH",
        "social_facility": "healthcare"
      },
      "geometry": {
        "type": "Point",
        "coordinates": [
          14.1122422,
          48.1946206
        ]
      }
    },
    {
      "type": "Feature",
      "properties": {
        "id": "8006787040",
        "osm_type": "node",
        "lat": 48.0484617,
        "lon": 14.3356868,
        "addr:city": "Neuzeug",
        "addr:housenumber": "2",
        "addr:postcode": "4523",
        "addr:street": "Josef-Teufel-Platz",
        "amenity": "clinic",
        "healthcare": "centre",
        "healthcare:speciality": "social_work",
        "name": "Primärversorgungsnetzwerk NEUZEUG - SIERNING",
        "operator": "PVN Neuzeug-Sierning Binder, Freidhager, Heschl, Schindlauer Allgemeinmediziner GmbH",
        "phone": "+43 7259 39364201",
        "social_facility": "healthcare",
        "website": "https://www.pvn-neuzeug.at/"
      },
      "geometry": {
        "type": "Point",
        "coordinates": [
          14.3356868,
          48.0484617
        ]
      }
    },
    {
      "type": "Feature",
      "properties": {
        "id": "8145818190",
        "osm_type": "node",
        "lat": 48.2995467,
        "lon": 14.2872487,
        "addr:city": "Linz",
        "addr:housenumber": "3",
        "addr:postcode": "4020",
        "addr:street": "Stifterstraße",
        "amenity": "clinic",
        "healthcare": "centre",
        "healthcare:speciality": "social_work",
        "name": "Hausärzte am Domplatz - Primärversorgungszentrum Linz",
        "opening_hours": "Mo 07:00-14:00; Tu-Th 07:00-13:00,16:00-19:00; Fr 07:00-13:00",
        "operator": "Hausärzte am Domplatz - Dr. Einwagner, Dr. Forstner, Dr. Nenning, Dr. Schimmerl - Primärversorgungszentrum OG",
        "phone": "0732 270 271",
        "social_facility": "healthcare",
        "website": "https://www.hausaerzte-domplatz.at/"
      },
      "geometry": {
        "type": "Point",
        "coordinates": [
          14.2872487,
          48.2995467
        ]
      }
    },
    {
      "type": "Feature",
      "properties": {
        "id": "9430176715",
        "osm_type": "node",
        "lat": 48.2923864,
        "lon": 14.3027856,
        "addr:city": "Linz",
        "addr:housenumber": "27",
        "addr:postcode": "4020",
        "addr:street": "Hamerlingstraße",
        "amenity": "clinic",
        "healthcare": "clinic",
        "healthcare:speciality": "social_work",
        "name": "PVE Grüne Mitte",
        "official_name": "Grüne Mitte - Primärversorgungseinheit",
        "opening_hours": "Mo 07:00-12:00; Tu-We 07:00-13:00,15:00-19:00; Th 07:00-12:00,15:00-19:00; Fr 07:00-13:00",
        "phone": "+43 732 239393",
        "website": "https://www.pve-gruenemitte.at/"
      },
      "geometry": {
        "type": "Point",
        "coordinates": [
          14.3027856,
          48.2923864
        ]
      }
    },
    {
      "type": "Feature",
      "properties": {
        "id": "9560633710",
        "osm_type": "node",
        "lat": 48.2063031,
        "lon": 14.3814196,
        "addr:city": "St. Florian",
        "addr:country": "AT",
        "addr:housenumber": "2",
        "addr:postcode": "4490",
        "addr:street": "Wiener Straße",
        "amenity": "clinic",
        "contact:phone": "+43 7224 8909",
        "healthcare": "clinic",
        "healthcare:speciality": "general;palliative;geriatrics;emergency",
        "name": "Florianer Hausärzte",
        "opening_hours": "Mo-Fr 07:00-12:00, Tu,Th 16:00-19:00",
        "website": "https://www.florianer-hausaerzte.at/"
      },
      "geometry": {
        "type": "Point",
        "coordinates": [
          14.3814196,
          48.2063031
        ]
      }
    },
    {
      "type": "Feature",
      "properties": {
        "id": "9833804766",
        "osm_type": "node",
        "lat": 48.3067569,
        "lon": 14.2947027,
        "addr:city": "Linz",
        "addr:country": "AT",
        "addr:postcode": "4020",
        "amenity": "clinic",
        "contact:phone": "+43 732 77 25 05",
        "healthcare": "clinic",
        "name": "Ordination Lederergasse",
        "website": "https://www.ordination-lederergasse.at/impressum"
      },
      "geometry": {
        "type": "Point",
        "coordinates": [
          14.2947027,
          48.3067569
        ]
      }
    },
    {
      "type": "Feature",
      "properties": {
        "id": "10745056853",
        "osm_type": "node",
        "lat": 48.264083,
        "lon": 14.2571712,
        "addr:city": "Leonding",
        "addr:housenumber": "9",
        "addr:postcode": "4060",
        "addr:street": "Harterfeldstraße",
        "amenity": "clinic",
        "healthcare": "clinic",
        "level": "1",
        "name": "Primärversorgungszentrum Leonding",
        "operator": "Gruppenpraxis für Allgemeinmedizin GmbH Dr. Badhofer, Dr. Reiter, Dr. Zehentner, Dr. Zlabinger",
        "phone": "0732 - 28 71 00",
        "website": "https://www.pvzleonding.at"
      },
      "geometry": {
        "type": "Point",
        "coordinates": [
          14.2571712,
          48.264083
        ]
      }
    },
    {
      "type": "Feature",
      "properties": {
        "id": "10968917257",
        "osm_type": "node",
        "lat": 48.303219,
        "lon": 14.2853616,
        "amenity": "clinic",
        "healthcare": "clinic",
        "healthcare:speciality": "fertility",
        "name": "Dr. Loimer"
      },
      "geometry": {
        "type": "Point",
        "coordinates": [
          14.2853616,
          48.303219
        ]
      }
    },
    {
      "type": "Feature",
      "properties": {
        "id": "12251455450",
        "osm_type": "node",
        "lat": 48.1384271,
        "lon": 14.2332816,
        "addr:city": "Neuhofen an der Krems",
        "addr:housenumber": "19",
        "addr:postcode": "4501",
        "addr:street": "Steyrer Straße",
        "amenity": "clinic",
        "healthcare": "clinic",
        "healthcare:speciality": "general",
        "name": "Ärztehaus Neuhofen"
      },
      "geometry": {
        "type": "Point",
        "coordinates": [
          14.2332816,
          48.1384271
        ]
      }
    },
    {
      "type": "Feature",
      "properties": {
        "id": "4235255789",
        "osm_type": "node",
        "lat": 48.1266547,
        "lon": 14.8858331,
        "addr:city": "Amstetten",
        "addr:country": "AT",
        "addr:housenumber": "13",
        "addr:postcode": "3300",
        "addr:street": "Agathastraße",
        "amenity": "clinic",
        "contact:phone": "+43 7472 644 91",
        "healthcare": "clinic",
        "healthcare:speciality": "radiology",
        "name": "Radiologie Amstetten",
        "website": "https://www.dzam.at/kontakt-anfahrt/"
      },
      "geometry": {
        "type": "Point",
        "coordinates": [
          14.8858331,
          48.1266547
        ]
      }
    }
  ],
  "children": []
}