{
  "bbox": {
    "south": 46.372652,
    "west": 11.438358999999998,
    "north": 47.033758500000005,
    "east": 13.345766
  },
  "poiCount": 10,
  "leafCount": 10,
  "averagePosition": [
    12.068310499999999,
    46.579193599999996
  ],
  "data": [
    {
      "type": "Feature",
      "properties": {
        "id": "2630474885",
        "osm_type": "node",
        "lat": 46.772282,
        "lon": 11.9408218,
        "amenity": "clinic",
        "check_date": "2024-03-08",
        "contact:email": "info@traumacenter-kronplatz.it",
        "contact:housenumber": "14a",
        "contact:postcode": "39031",
        "contact:street": "Seilbahnstraße - Via Funivia",
        "contact:website": "https://www.traumacenter-kronplatz.it/",
        "healthcare": "clinic",
        "level": "0",
        "name": "Traumacenter Kronplatz - Traumacenter Plan de Corones",
        "name:de": "Traumacenter Kronplatz",
        "name:it": "Traumacenter Plan de Corones",
        "payment:cash": "yes",
        "payment:mastercard": "yes",
        "payment:visa": "yes",
        "phone": "+39 0474 548217",
        "wheelchair": "yes"
      },
      "geometry": {
        "type": "Point",
        "coordinates": [
          11.9408218,
          46.772282
        ]
      }
    },
    {
      "type": "Feature",
      "properties": {
        "id": "2756043150",
        "osm_type": "node",
        "lat": 46.5751682,
        "lon": 11.6674503,
        "addr:city": "Urtijëi - St.Ulrich - Ortisei",
        "addr:city:de": "St.Ulrich",
        "addr:city:it": "Ortisei",
        "addr:city:lld": "Urtijëi",
        "addr:housenumber": "14",
        "addr:postcode": "39046",
        "addr:street": "Streda J. B. Purger",
        "addr:street:de": "J. B. Purger-Straße",
        "addr:street:it": "Via J. B. Purger",
        "addr:street:lld": "Streda J. B. Purger",
        "amenity": "clinic",
        "healthcare": "clinic",
        "name": "Servij soziel Gherdëina - Distretto Sociale Val Gardena",
        "name:de": "Sozialsprengel Gröden",
        "name:it": "Distretto Sociale Val Gardena"
      },
      "geometry": {
        "type": "Point",
        "coordinates": [
          11.6674503,
          46.5751682
        ]
      }
    },
    {
      "type": "Feature",
      "properties": {
        "id": "4130416589",
        "osm_type": "node",
        "lat": 46.5745463,
        "lon": 11.6578569,
        "addr:street": "Streda Purger",
        "amenity": "clinic",
        "name": "Sportclinic Dolomiti"
      },
      "geometry": {
        "type": "Point",
        "coordinates": [
          11.6578569,
          46.5745463
        ]
      }
    },
    {
      "type": "Feature",
      "properties": {
        "id": "5896790408",
        "osm_type": "node",
        "lat": 46.5866064,
        "lon": 11.9048159,
        "addr:city": "Badia - Abtei",
        "addr:housenumber": "13b",
        "addr:postcode": "39030",
        "addr:street": "Boscdaplan",
        "amenity": "clinic",
        "email": "info@traumamedicalclinic.com",
        "fax": "+39 0462 601607",
        "healthcare": "clinic",
        "name": "Trauma Medical Clinic Alta Badia",
        "opening_hours": "Mo-Su 09:00-19:00",
        "operator": "Ärztlicher Direktor Dr. Davide Ruffinella",
        "phone": "+39 0462 601476",
        "website": "https://www.traumamedicalclinic.com/"
      },
      "geometry": {
        "type": "Point",
        "coordinates": [
          11.9048159,
          46.5866064
        ]
      }
    },
    {
      "type": "Feature",
      "properties": {
        "id": "6241737270",
        "osm_type": "node",
        "lat": 46.420159,
        "lon": 11.6703452,
        "addr:city": "Vigo di Fassa",
        "addr:housenumber": "7",
        "addr:postcode": "38039",
        "addr:street": "Piaz Jan Batista Massar",
        "amenity": "clinic",
        "contact:email": "vdsvigo@critrentino.it",
        "contact:website": "http://www.crifassa.com",
        "healthcare": "clinic",
        "name": "Croce Rossa Italiana Val di Fassa",
        "name:en": "Italian Red Cross",
        "phone": "+39 0462 764266"
      },
      "geometry": {
        "type": "Point",
        "coordinates": [
          11.6703452,
          46.420159
        ]
      }
    },
    {
      "type": "Feature",
      "properties": {
        "id": "9117445243",
        "osm_type": "node",
        "lat": 46.6983896,
        "lon": 11.647358,
        "amenity": "clinic",
        "email": "info@brixsana.it",
        "emergency": "no",
        "fax": "+39 0472 824804",
        "healthcare": "clinic",
        "healthcare:speciality": "blood_check",
        "name": "Brixsana private clinic",
        "phone": "+39 0472 824800",
        "website": "https://brixsana.it/"
      },
      "geometry": {
        "type": "Point",
        "coordinates": [
          11.647358,
          46.6983896
        ]
      }
    },
    {
      "type": "Feature",
      "properties": {
        "id": "12598743374",
        "osm_type": "node",
        "lat": 46.6095128,
        "lon": 11.8947065,
        "amenity": "clinic"
      },
      "geometry": {
        "type": "Point",
        "coordinates": [
          11.8947065,
          46.6095128
        ]
      }
    },
    {
      "type": "Feature",
      "properties": {
        "id": "11871761039",
        "osm_type": "node",
        "lat": 46.4734798,
        "lon": 12.4335934,
        "addr:city": "Lozzo di Cadore",
        "addr:housenumber": "1a",
        "addr:postcode": "32040",
        "addr:street": "Via Roma",
        "amenity": "clinic",
        "name": "SìMedicina"
      },
      "geometry": {
        "type": "Point",
        "coordinates": [
          12.4335934,
          46.4734798
        ]
      }
    },
    {
      "type": "Feature",
      "properties": {
        "id": "7279256486",
        "osm_type": "node",
        "lat": 46.5523096,
        "lon": 12.8526087,
        "addr:street": "Piazza medaglia d'oro Anselmo Durigon",
        "amenity": "clinic",
        "name": "POSTAZIONE 118 REGIONE SOCCORSO FVG",
        "name:en": "EMERGENCY AMBULANCE",
        "opening_hours": "Mo-Su 08:00-20:00"
      },
      "geometry": {
        "type": "Point",
        "coordinates": [
          12.8526087,
          46.5523096
        ]
      }
    },
    {
      "type": "Feature",
      "properties": {
        "id": "7279256585",
        "osm_type": "node",
        "lat": 46.5294823,
        "lon": 13.0135483,
        "addr:street": "Via Nazionale",
        "amenity": "clinic",
        "name": "POSTAZIONE 118 FVG REGIONE SOCCORSO",
        "name:en": "EMERGENCY AMBULANCE",
        "opening_hours": "Mo-Su 08:00-20:00"
      },
      "geometry": {
        "type": "Point",
        "coordinates": [
          13.0135483,
          46.5294823
        ]
      }
    }
  ],
  "children": []
}