{
  "bbox": {
    "south": 48.355971499999995,
    "west": 15.253173,
    "north": 49.017078,
    "east": 17.16058
  },
  "poiCount": 11,
  "leafCount": 11,
  "averagePosition": [
    15.929473936363637,
    48.56165630909091
  ],
  "data": [
    {
      "type": "Feature",
      "properties": {
        "id": "4986509721",
        "osm_type": "node",
        "lat": 48.5507969,
        "lon": 15.2782096,
        "addr:city": "Waldhausen",
        "addr:country": "AT",
        "addr:housenumber": "49",
        "addr:place": "Niedernondorf",
        "addr:postcode": "3531",
        "amenity": "clinic",
        "healthcare": "clinic",
        "healthcare:speciality": "general",
        "name": "Gruppenpraxis Dr. Steinkellner & Dr. Grubmüller",
        "opening_hours": "Tu-We 07:00-12:00; Mo, Fr 08:00-12:00, 17:00-20:00; Sa-Su",
        "phone": "+43 2826 430"
      },
      "geometry": {
        "type": "Point",
        "coordinates": [
          15.2782096,
          48.5507969
        ]
      }
    },
    {
      "type": "Feature",
      "properties": {
        "id": "587730901",
        "osm_type": "node",
        "lat": 48.4713918,
        "lon": 15.6871431,
        "addr:city": "Langenlois",
        "addr:country": "AT",
        "addr:housenumber": "2",
        "addr:postcode": "3550",
        "addr:street": "Hollerweg",
        "amenity": "clinic",
        "healthcare": "clinic",
        "healthcare:speciality": "general",
        "name": "Dr. Larissa und Dr. Christoph Trybus",
        "opening_hours": "Mo,We,Th,Fr 08:00-12:30; Mo 17:00-19:00",
        "phone": "+43 2734 2543",
        "website": "http://www.ordination-trybus.at/"
      },
      "geometry": {
        "type": "Point",
        "coordinates": [
          15.6871431,
          48.4713918
        ]
      }
    },
    {
      "type": "Feature",
      "properties": {
        "id": "4592844782",
        "osm_type": "node",
        "lat": 48.3736837,
        "lon": 15.613595,
        "addr:city": "Furth bei Göttweig",
        "addr:country": "AT",
        "addr:housenumber": "227",
        "addr:postcode": "3511",
        "addr:street": "Obere Landstraße",
        "amenity": "clinic",
        "contact:email": "office@inszentrum.com",
        "contact:phone": "+43 2732 85300",
        "healthcare": "clinic",
        "healthcare:speciality": "general;trauma;gynaecology;urology;cardiology;rheumatology",
        "name": "im zentrum",
        "website": "https://www.inszentrum.com/kontakt/"
      },
      "geometry": {
        "type": "Point",
        "coordinates": [
          15.613595,
          48.3736837
        ]
      }
    },
    {
      "type": "Feature",
      "properties": {
        "id": "5333800061",
        "osm_type": "node",
        "lat": 48.4086527,
        "lon": 15.5980999,
        "addr:city": "Krems an der Donau",
        "addr:country": "AT",
        "addr:housenumber": "5",
        "addr:postcode": "3500",
        "addr:street": "Fischergasse",
        "addr:unit": "7",
        "amenity": "clinic",
        "description": "Physiotherapie, Osteopathie",
        "health_facility:type": "office",
        "health_specialty:osteopathy": "yes",
        "health_specialty:physiotherapy": "yes",
        "healthcare": "physiotherapist",
        "name": "PhysiOsteo Krems - Stefan Hanko und Lisa Bind",
        "office": "therapist",
        "phone": "+43 699 10775060 (Stefan Hanko)",
        "website": "http://www.physio-hanko.at/"
      },
      "geometry": {
        "type": "Point",
        "coordinates": [
          15.5980999,
          48.4086527
        ]
      }
    },
    {
      "type": "Feature",
      "properties": {
        "id": "5496015262",
        "osm_type": "node",
        "lat": 48.3775378,
        "lon": 15.6822345,
        "addr:city": "Hollenburg",
        "addr:country": "AT",
        "addr:housenumber": "25",
        "addr:postcode": "3506",
        "addr:street": "Krustettener Straße",
        "amenity": "clinic",
        "description": "Psychiatrische Rehabilitationsklinik",
        "email": "office.hollenburg@sanlas.at",
        "healthcare": "clinic",
        "name": "Privatklinik Hollenburg GmbH",
        "operator": "Sanlas",
        "phone": "+43 2739 771 10",
        "website": "http://sanlas.at/PrivatklinikHollenburg"
      },
      "geometry": {
        "type": "Point",
        "coordinates": [
          15.6822345,
          48.3775378
        ]
      }
    },
    {
      "type": "Feature",
      "properties": {
        "id": "11486374569",
        "osm_type": "node",
        "lat": 48.8545633,
        "lon": 15.7694845,
        "addr:housenumber": "136",
        "amenity": "clinic",
        "healthcare": "clinic",
        "healthcare:speciality": "general",
        "name": "Gruppenpraxis Margeta-Heger",
        "website": "https://margeta-heger.at/"
      },
      "geometry": {
        "type": "Point",
        "coordinates": [
          15.7694845,
          48.8545633
        ]
      }
    },
    {
      "type": "Feature",
      "properties": {
        "id": "11697867842",
        "osm_type": "node",
        "lat": 48.698099,
        "lon": 15.9676177,
        "addr:city": "Zellerndorf",
        "addr:country": "AT",
        "addr:housenumber": "358",
        "addr:place": "Zellerndorf",
        "addr:postcode": "2051",
        "amenity": "clinic",
        "healthcare": "clinic",
        "healthcare:speciality": "general;gynaecology;internal;orthopaedics",
        "name": "Ärztezentrum Weinviertel",
        "phone": "+43 2942 30 601",
        "website": "https://aerztezentrum-weinviertel.at"
      },
      "geometry": {
        "type": "Point",
        "coordinates": [
          15.9676177,
          48.698099
        ]
      }
    },
    {
      "type": "Feature",
      "properties": {
        "id": "11698541215",
        "osm_type": "node",
        "lat": 48.5272528,
        "lon": 15.929501,
        "addr:city": "Ziersdorf",
        "addr:housenumber": "5",
        "addr:postcode": "3710",
        "addr:street": "Wiener Straße",
        "amenity": "clinic",
        "healthcare": "clinic",
        "healthcare:speciality": "general;internal;rheumatology;orthopaedics",
        "name": "Ärztezentrum Ziersdorf",
        "phone": "+43 2956 2404",
        "website": "https://www.aerztezentrum-ziersdorf.at/",
        "wheelchair": "yes"
      },
      "geometry": {
        "type": "Point",
        "coordinates": [
          15.929501,
          48.5272528
        ]
      }
    },
    {
      "type": "Feature",
      "properties": {
        "id": "8865430204",
        "osm_type": "node",
        "lat": 48.3835292,
        "lon": 16.5176617,
        "addr:city": "Wolkersdorf im Weinviertel",
        "addr:country": "AT",
        "addr:housenumber": "31",
        "addr:postcode": "2120",
        "addr:street": "Hauptstraße",
        "amenity": "clinic",
        "fax": "+43 2245 83701",
        "healthcare": "clinic",
        "healthcare:speciality": "general;trauma",
        "name": "Dr. Haber",
        "phone": "+43 2245 83700",
        "website": "http://www.doc-haber.at"
      },
      "geometry": {
        "type": "Point",
        "coordinates": [
          16.5176617,
          48.3835292
        ]
      }
    },
    {
      "type": "Feature",
      "properties": {
        "id": "11698633555",
        "osm_type": "node",
        "lat": 48.5677603,
        "lon": 16.5713774,
        "amenity": "clinic",
        "healthcare": "clinic",
        "healthcare:speciality": "general",
        "level": "1",
        "name": "Dr. Özkan Özdemir und Dr. Ahmad Salem",
        "phone": "+43 2572 4225 0",
        "website": "https://www.gruppenpraxismistelbach.at/"
      },
      "geometry": {
        "type": "Point",
        "coordinates": [
          16.5713774,
          48.5677603
        ]
      }
    },
    {
      "type": "Feature",
      "properties": {
        "id": "2806401225",
        "osm_type": "node",
        "lat": 48.9649519,
        "lon": 16.6092889,
        "addr:city": "Vranovice",
        "addr:conscriptionnumber": "36",
        "addr:housenumber": "36",
        "addr:place": "Vranovice",
        "addr:postcode": "69125",
        "addr:street": "U Floriánka",
        "amenity": "clinic",
        "healthcare": "clinic",
        "name": "Zdravotní středisko Vranovice"
      },
      "geometry": {
        "type": "Point",
        "coordinates": [
          16.6092889,
          48.9649519
        ]
      }
    }
  ],
  "children": []
}