{
  "bbox": {
    "south": 48.355971499999995,
    "west": 11.438358999999998,
    "north": 49.017078,
    "east": 13.345766
  },
  "poiCount": 21,
  "leafCount": 21,
  "averagePosition": [
    12.26572840952381,
    48.75135194285714
  ],
  "data": [
    {
      "type": "Feature",
      "properties": {
        "id": "3767486004",
        "osm_type": "node",
        "lat": 48.5337023,
        "lon": 11.5078938,
        "amenity": "clinic",
        "brand": "KfH",
        "brand:wikidata": "Q1740377",
        "healthcare": "dialysis",
        "healthcare:speciality": "nephrology",
        "name": "KfH-Nierenzentrum",
        "opening_hours": "Mo-Th 08:00-12:30,14:30-17:30, Fr 08:00-12:30",
        "phone": "+49 8441 5000",
        "website": "https://www.kfh.de/nierenzentrum/pfaffenhofen/"
      },
      "geometry": {
        "type": "Point",
        "coordinates": [
          11.5078938,
          48.5337023
        ]
      }
    },
    {
      "type": "Feature",
      "properties": {
        "id": "571616947",
        "osm_type": "node",
        "lat": 48.3887202,
        "lon": 11.758245,
        "addr:city": "Freising",
        "addr:country": "DE",
        "addr:postcode": "85356",
        "amenity": "clinic",
        "healthcare": "clinic",
        "name": "Dr. Peller - Dr. Bardenheuer",
        "wheelchair": "limited"
      },
      "geometry": {
        "type": "Point",
        "coordinates": [
          11.758245,
          48.3887202
        ]
      }
    },
    {
      "type": "Feature",
      "properties": {
        "id": "8461308093",
        "osm_type": "node",
        "lat": 48.3890779,
        "lon": 11.7585025,
        "addr:city": "Freising",
        "addr:country": "DE",
        "addr:housenumber": "13",
        "addr:postcode": "85356",
        "addr:street": "Gute Änger",
        "amenity": "clinic",
        "brand": "kbo-Isar-Amper-Klinikum",
        "email": "tagesklinik-freising.iak-tfk@kbo.de",
        "fax": "+49-8161-8625850",
        "healthcare": "clinic",
        "healthcare:speciality": "psychiatry",
        "name": "Tagesklinik und Institutsambulanz Freising",
        "operator": "kbo-Isar-Amper-Klinikum",
        "operator:type": "private",
        "phone": "+49-8161-8625840",
        "start_date": "2011",
        "strapline": "Wohnortnahe Versorgung in Freising",
        "website": "https://kbo-iak.de/standorte/kbo-freising"
      },
      "geometry": {
        "type": "Point",
        "coordinates": [
          11.7585025,
          48.3890779
        ]
      }
    },
    {
      "type": "Feature",
      "properties": {
        "id": "8849814617",
        "osm_type": "node",
        "lat": 48.4043871,
        "lon": 11.7451771,
        "addr:city": "Freising",
        "addr:country": "DE",
        "addr:housenumber": "16",
        "addr:postcode": "85354",
        "addr:street": "Alois-Steinecker-Straße",
        "amenity": "clinic",
        "brand": "KfH",
        "brand:wikidata": "Q1740377",
        "check_date": "2021-06-20",
        "email": "freising@kfh-dialyse.de",
        "healthcare": "dialysis",
        "healthcare:speciality": "nephrology",
        "name": "KfH-Nierenzentrum am Klinikum Freising",
        "phone": "+49 8161 97030",
        "website": "https://www.kfh.de/nierenzentrum/freising/startseite/"
      },
      "geometry": {
        "type": "Point",
        "coordinates": [
          11.7451771,
          48.4043871
        ]
      }
    },
    {
      "type": "Feature",
      "properties": {
        "id": "9396889872",
        "osm_type": "node",
        "lat": 48.3985941,
        "lon": 11.7397214,
        "addr:city": "Freising",
        "addr:country": "DE",
        "addr:housenumber": "61",
        "addr:postcode": "85354",
        "addr:street": "Obere Hauptstraße",
        "amenity": "clinic",
        "check_date": "2024-09-15",
        "description": "Neurologie, Radiologie und Schmerztherapie",
        "email": "praxis@mz-freising.de",
        "fax": "+49-8161-43437",
        "healthcare": "clinic",
        "healthcare:speciality": "neurology;radiology;pain_control",
        "insurance:health": "public;private",
        "mapillary": "357052316277645",
        "name": "Medizinisches Zentrum Freising",
        "opening_hours": "Mo-Th 08:00-12:00,13:00-17:00; Fr 08:00-12:00,13:00-16:00; Sa,Su,PH off",
        "operator": "Dr. Rothmeier;Dr. Görig;Dr. Kroiss;Chr. Masinter",
        "operator:type": "private",
        "phone": "+49-8161-401090",
        "website": "https://mz-freising.de"
      },
      "geometry": {
        "type": "Point",
        "coordinates": [
          11.7397214,
          48.3985941
        ]
      }
    },
    {
      "type": "Feature",
      "properties": {
        "id": "9404923217",
        "osm_type": "node",
        "lat": 48.3993328,
        "lon": 11.740572,
        "addr:city": "Freising",
        "addr:country": "DE",
        "addr:housenumber": "40",
        "addr:postcode": "85354",
        "addr:street": "Obere Hauptstraße",
        "amenity": "clinic",
        "check_date": "2024-09-15",
        "description": "- Bluterkrankungen (Hämatologie) - Tumorerkrankungen (Onkologie) - Gerinnungsstörungen: Thrombosen, Blutungsneigungen",
        "email": "freising@onko-medeor.de",
        "healthcare": "clinic",
        "healthcare:speciality": "hematology;oncology",
        "level": "2",
        "name": "Onkomedeor MVZ",
        "opening_hours": "Mo-Fr 09:00-16:00; Sa,Su,PH off",
        "phone": "+49-8161-7892510",
        "website": "https://www.onkologie-freising.de/"
      },
      "geometry": {
        "type": "Point",
        "coordinates": [
          11.740572,
          48.3993328
        ]
      }
    },
    {
      "type": "Feature",
      "properties": {
        "id": "12420849683",
        "osm_type": "node",
        "lat": 48.8193697,
        "lon": 11.7916963,
        "amenity": "clinic",
        "name": "Passauer Wolf Fachklinik"
      },
      "geometry": {
        "type": "Point",
        "coordinates": [
          11.7916963,
          48.8193697
        ]
      }
    },
    {
      "type": "Feature",
      "properties": {
        "id": "2703528952",
        "osm_type": "node",
        "lat": 48.8455959,
        "lon": 12.9568262,
        "amenity": "clinic",
        "healthcare": "clinic",
        "name": "Klinik Angermühle",
        "website": "https://www.klinik-angermuehle.de/"
      },
      "geometry": {
        "type": "Point",
        "coordinates": [
          12.9568262,
          48.8455959
        ]
      }
    },
    {
      "type": "Feature",
      "properties": {
        "id": "3807683085",
        "osm_type": "node",
        "lat": 48.8266271,
        "lon": 12.5520859,
        "amenity": "clinic",
        "name:en": "Medical"
      },
      "geometry": {
        "type": "Point",
        "coordinates": [
          12.5520859,
          48.8266271
        ]
      }
    },
    {
      "type": "Feature",
      "properties": {
        "id": "3917082561",
        "osm_type": "node",
        "lat": 48.4060883,
        "lon": 12.7509253,
        "addr:city": "Eggenfelden",
        "addr:housenumber": "43",
        "addr:postcode": "84307",
        "addr:street": "Karl-Rolle-Straße",
        "amenity": "clinic",
        "healthcare": "clinic",
        "healthcare:speciality": "urology",
        "name": "Fachzentrum für Urologie Eggenfelden",
        "website": "https://www.urologie-eggenfelden.de/"
      },
      "geometry": {
        "type": "Point",
        "coordinates": [
          12.7509253,
          48.4060883
        ]
      }
    },
    {
      "type": "Feature",
      "properties": {
        "id": "4430503489",
        "osm_type": "node",
        "lat": 48.8398277,
        "lon": 12.9726857,
        "addr:city": "Deggendorf",
        "addr:country": "DE",
        "addr:housenumber": "45",
        "addr:postcode": "94469",
        "addr:street": "Perlasberger Straße",
        "amenity": "clinic",
        "brand": "KfH",
        "brand:wikidata": "Q1740377",
        "contact:email": "deggendorf@kfh-dialyse.de",
        "contact:fax": "+49991 3704646",
        "contact:phone": "+49991 370460",
        "contact:website": "https://www.kfh.de/nierenzentrum/deggendorf/startseite/",
        "healthcare": "dialysis",
        "healthcare:speciality": "nephrology",
        "name": "KfH",
        "opening_hours:url": "https://www.kfh.de/nierenzentrum/deggendorf/dialyse-und-sprechzeiten/"
      },
      "geometry": {
        "type": "Point",
        "coordinates": [
          12.9726857,
          48.8398277
        ]
      }
    },
    {
      "type": "Feature",
      "properties": {
        "id": "9035784771",
        "osm_type": "node",
        "lat": 48.8386863,
        "lon": 12.9705547,
        "addr:city": "Deggendorf",
        "addr:country": "DE",
        "addr:housenumber": "41",
        "addr:postcode": "94469",
        "addr:street": "Perlasberger Straße",
        "amenity": "clinic",
        "contact:email": "info@mvz-klinikum-deggendorf.de",
        "contact:phone": "+49991380 38 55",
        "healthcare": "clinic",
        "healthcare:speciality": "oncology;anaesthetics;gynaecology;vascular_surgery;gastroenterology;cardiology;pulmonology;dental_oral_maxillo_facial_surgery;neurosurgery;nuclear;trauma;urology",
        "name": "MVZ Klinikum Deggendorf",
        "opening_hours": "Mo-Th 08:00-17:00; Fr 08:00-15:00"
      },
      "geometry": {
        "type": "Point",
        "coordinates": [
          12.9705547,
          48.8386863
        ]
      }
    },
    {
      "type": "Feature",
      "properties": {
        "id": "9288101465",
        "osm_type": "node",
        "lat": 48.8319693,
        "lon": 12.9599463,
        "addr:city": "Deggendorf",
        "addr:housenumber": "38",
        "addr:postcode": "94469",
        "addr:street": "Westlicher Stadtgraben",
        "amenity": "clinic",
        "contact:email": "deggendorf@mvz-sporthomed.de",
        "contact:phone": "+499962 209860;+49991 3446610",
        "contact:website": "https://mvz-sporthomed.de/",
        "healthcare": "clinic",
        "level": "1",
        "name": "MVZ SpOrthoMed GmbH",
        "opening_hours": "Mo-Th 07:30-12:30, 13:30-17:30; Fr 07:30-13:00, 13:30-15:30",
        "wheelchair": "yes"
      },
      "geometry": {
        "type": "Point",
        "coordinates": [
          12.9599463,
          48.8319693
        ]
      }
    },
    {
      "type": "Feature",
      "properties": {
        "id": "11970119087",
        "osm_type": "node",
        "lat": 48.8427396,
        "lon": 12.9545819,
        "addr:housenumber": "52",
        "addr:street": "Stadtfeldstraße",
        "amenity": "clinic",
        "contact:phone": "991-99890692",
        "healthcare": "clinic",
        "name": "MVZ Dr. Boniakowski & Kollegen"
      },
      "geometry": {
        "type": "Point",
        "coordinates": [
          12.9545819,
          48.8427396
        ]
      }
    },
    {
      "type": "Feature",
      "properties": {
        "id": "1729331917",
        "osm_type": "node",
        "lat": 49.0066077,
        "lon": 12.1005128,
        "addr:postcode": "93053",
        "amenity": "clinic",
        "fax": "+49 941 920620",
        "healthcare": "clinic",
        "name": "Praxiszentrum Alte Mälzerei",
        "opening_hours": "Mo-Tu, Th 08:30-12:00, 15:00-17:00; We, Fr 08:30-12:00",
        "phone": "+49 941 920600",
        "toilets:wheelchair": "no",
        "website": "https://www.praxiszentrum-regensburg.de",
        "wheelchair": "yes"
      },
      "geometry": {
        "type": "Point",
        "coordinates": [
          12.1005128,
          49.0066077
        ]
      }
    },
    {
      "type": "Feature",
      "properties": {
        "id": "4729080663",
        "osm_type": "node",
        "lat": 49.009765,
        "lon": 12.0897306,
        "addr:city": "Regensburg",
        "addr:country": "DE",
        "addr:housenumber": "2 a",
        "addr:postcode": "93051",
        "addr:street": "Bischof-von-Henle-Straße",
        "amenity": "clinic",
        "email": "regensburg@z-tagesklinik.de",
        "fax": "+49 941 280758 29",
        "healthcare": "dentist",
        "name": "Zahnärztliche Tagesklinik",
        "opening_hours": "Mo-Fr 07:00-21:00; Sa 08:00-18:00; Su 09:00-12:00",
        "operator": "Zahnärztliche Tagesklinik Dr. Eichenseer MVZ II GmbH",
        "phone": "+49 941 280758 0",
        "website": "https://www.z-tagesklinik.de/standorte/zahnaerzte-in-regensburg/"
      },
      "geometry": {
        "type": "Point",
        "coordinates": [
          12.0897306,
          49.009765
        ]
      }
    },
    {
      "type": "Feature",
      "properties": {
        "id": "6672818768",
        "osm_type": "node",
        "lat": 48.9994694,
        "lon": 12.0904618,
        "addr:city": "Regensburg",
        "addr:country": "DE",
        "addr:housenumber": "84",
        "addr:postcode": "93053",
        "addr:street": "Universitätsstraße",
        "amenity": "clinic",
        "healthcare": "clinic",
        "healthcare:speciality": "neurology",
        "name": "Zentrum für Neurologische Rehabilitation",
        "operator": "medbo KU",
        "website": "https://www.medbo.de/kliniken-einrichtungen/neurologie/klinik-fuer-neurologie-der-universitaet-regensburg/neurologische-rehabilitation",
        "wheelchair": "yes"
      },
      "geometry": {
        "type": "Point",
        "coordinates": [
          12.0904618,
          48.9994694
        ]
      }
    },
    {
      "type": "Feature",
      "properties": {
        "id": "10728355657",
        "osm_type": "node",
        "lat": 48.9880055,
        "lon": 12.0905034,
        "addr:housenumber": "11",
        "addr:street": "Franz-Josef-Strauß-Allee",
        "amenity": "clinic",
        "description": "Haupteingang des Universitätsklinikums Regensburg",
        "healthcare": "clinic",
        "name": "Klinikum der Universität Regensburg, Haupteingang",
        "opening_hours": "Mo-Th 07:15-16:00; Fr 07:15-12:00",
        "phone": "+49 941 944-0",
        "website": "https://www.ukr.de/"
      },
      "geometry": {
        "type": "Point",
        "coordinates": [
          12.0905034,
          48.9880055
        ]
      }
    },
    {
      "type": "Feature",
      "properties": {
        "id": "10830867607",
        "osm_type": "node",
        "lat": 49.0134832,
        "lon": 12.1022814,
        "addr:city": "Regensburg",
        "addr:housenumber": "1",
        "addr:postcode": "93047",
        "addr:street": "Hemauerstraße",
        "amenity": "clinic",
        "email": "info@kitz-regensburg.de",
        "fax": "+49 941 992577 23",
        "healthcare": "clinic",
        "healthcare:speciality": "fertility",
        "name": "KITZ KinderwunschTherapie im Zentrum",
        "opening_hours": "Mo-Th 08:00-16:00; Fr 08:00-15:00",
        "operator": "MVZ KITZ Regensburg GmbH",
        "phone": "+49 941 992577 0",
        "website": "https://www.kitz-regensburg.de/"
      },
      "geometry": {
        "type": "Point",
        "coordinates": [
          12.1022814,
          49.0134832
        ]
      }
    },
    {
      "type": "Feature",
      "properties": {
        "id": "11704809386",
        "osm_type": "node",
        "lat": 48.9973757,
        "lon": 12.127632,
        "addr:city": "Regensburg",
        "addr:country": "DE",
        "addr:housenumber": "5",
        "addr:postcode": "93053",
        "addr:street": "Benzstraße",
        "amenity": "clinic",
        "healthcare": "clinic",
        "healthcare:speciality": "physiatry",
        "name": "Therapiecenter Cinisi",
        "website": "https://www.cinisi.de/"
      },
      "geometry": {
        "type": "Point",
        "coordinates": [
          12.127632,
          48.9973757
        ]
      }
    },
    {
      "type": "Feature",
      "properties": {
        "id": "4430434792",
        "osm_type": "node",
        "lat": 48.998966,
        "lon": 12.8197605,
        "addr:housenumber": "9",
        "addr:postcode": "94379",
        "addr:street": "Bayerweg",
        "amenity": "clinic",
        "name": "KfH St. Englmar"
      },
      "geometry": {
        "type": "Point",
        "coordinates": [
          12.8197605,
          48.998966
        ]
      }
    }
  ],
  "children": []
}