{
  "bbox": {
    "south": 47.033758500000005,
    "west": 9.530952,
    "north": 47.694865,
    "east": 11.438358999999998
  },
  "poiCount": 11,
  "leafCount": 11,
  "averagePosition": [
    10.560197809090909,
    47.34578343636363
  ],
  "data": [
    {
      "type": "Feature",
      "properties": {
        "id": "7251665821",
        "osm_type": "node",
        "lat": 47.0804712,
        "lon": 9.9178429,
        "addr:city": "Schruns",
        "addr:country": "AT",
        "addr:housenumber": "34",
        "addr:postcode": "6780",
        "addr:street": "Bahnhofstraße",
        "amenity": "clinic",
        "contact:email": "office@praxis-alpina.at",
        "contact:phone": "+43 5556 749 31",
        "description": "Ärzte- und Therapeutengemeinschaft",
        "healthcare": "clinic",
        "healthcare:speciality": "general;physiotherapy;physiatry;massage_therapy",
        "name": "Praxis Alpina",
        "website": "https://www.praxis-alpina.at/de/"
      },
      "geometry": {
        "type": "Point",
        "coordinates": [
          9.9178429,
          47.0804712
        ]
      }
    },
    {
      "type": "Feature",
      "properties": {
        "id": "12640825235",
        "osm_type": "node",
        "lat": 47.174347,
        "lon": 9.7993267,
        "amenity": "clinic",
        "contact:email": "info@praxisamsonnenberg.at",
        "contact:phone": "+43 5552 66080",
        "healthcare": "clinic",
        "name": "Praxis am Sonnenberg",
        "website": "https://robin-toucan-nbfy.squarespace.com/impressum"
      },
      "geometry": {
        "type": "Point",
        "coordinates": [
          9.7993267,
          47.174347
        ]
      }
    },
    {
      "type": "Feature",
      "properties": {
        "id": "10978810896",
        "osm_type": "node",
        "lat": 47.125804,
        "lon": 10.2511444,
        "addr:city": "St Anton/Arlberg",
        "addr:country": "AT",
        "addr:housenumber": "5",
        "addr:street": "Sollederweg",
        "amenity": "clinic",
        "healthcare": "clinic",
        "name": "Sportklinik Arlberg"
      },
      "geometry": {
        "type": "Point",
        "coordinates": [
          10.2511444,
          47.125804
        ]
      }
    },
    {
      "type": "Feature",
      "properties": {
        "id": "588884445",
        "osm_type": "node",
        "lat": 47.258139,
        "lon": 11.3933354,
        "addr:city": "Innsbruck",
        "addr:country": "AT",
        "addr:housenumber": "13",
        "addr:postcode": "6020",
        "addr:street": "Franz-Fischer-Straße",
        "addr:suburb": "Wilten",
        "amenity": "clinic",
        "fax": "+43 512 57855215",
        "healthcare": "dialysis",
        "healthcare:speciality": "nephrology",
        "name": "Dialysezentrum",
        "operator": "Dialyse Trainings-Zentren GmbH",
        "phone": "+43 512 578552",
        "website": "https://www.dtz-gmbh.de/de/standorte/insbruck.html"
      },
      "geometry": {
        "type": "Point",
        "coordinates": [
          11.3933354,
          47.258139
        ]
      }
    },
    {
      "type": "Feature",
      "properties": {
        "id": "4450714194",
        "osm_type": "node",
        "lat": 47.2734023,
        "lon": 11.3977214,
        "amenity": "clinic",
        "check_date": "2025-07-09",
        "healthcare": "clinic",
        "name": "womed"
      },
      "geometry": {
        "type": "Point",
        "coordinates": [
          11.3977214,
          47.2734023
        ]
      }
    },
    {
      "type": "Feature",
      "properties": {
        "id": "7823970375",
        "osm_type": "node",
        "lat": 47.2239158,
        "lon": 11.3729707,
        "addr:city": "Mutters",
        "addr:housenumber": "23",
        "addr:postcode": "6162",
        "addr:street": "Nockhofweg",
        "amenity": "clinic",
        "healthcare": "clinic",
        "name": "Therapie- und Gesundheitszentrum Mutters",
        "phone": "+43 5 050449013",
        "website": "https://psychiatrie.tirol-kliniken.at/"
      },
      "geometry": {
        "type": "Point",
        "coordinates": [
          11.3729707,
          47.2239158
        ]
      }
    },
    {
      "type": "Feature",
      "properties": {
        "id": "5144722691",
        "osm_type": "node",
        "lat": 47.5466278,
        "lon": 9.6882683,
        "addr:city": "Lindau (Bodensee)",
        "addr:country": "DE",
        "addr:housenumber": "14",
        "addr:postcode": "88131",
        "addr:street": "Fischergasse",
        "amenity": "clinic",
        "healthcare": "clinic",
        "healthcare:speciality": "psychiatry",
        "name": "Psychiatrische Tagesklinik Lindau",
        "operator": "Bezirk Schwaben"
      },
      "geometry": {
        "type": "Point",
        "coordinates": [
          9.6882683,
          47.5466278
        ]
      }
    },
    {
      "type": "Feature",
      "properties": {
        "id": "4879166156",
        "osm_type": "node",
        "lat": 47.4030015,
        "lon": 10.2819536,
        "addr:city": "Oberstdorf",
        "addr:country": "DE",
        "addr:housenumber": "20",
        "addr:postcode": "87561",
        "addr:street": "Kratzerstraße",
        "amenity": "clinic",
        "emergency": "no",
        "healthcare": "clinic",
        "name": "Hohes Licht",
        "operator": "FrauenWerk Stein e.V.",
        "website": "https://www.klinik-hoheslicht-oberstdorf.de"
      },
      "geometry": {
        "type": "Point",
        "coordinates": [
          10.2819536,
          47.4030015
        ]
      }
    },
    {
      "type": "Feature",
      "properties": {
        "id": "4945253447",
        "osm_type": "node",
        "lat": 47.5438573,
        "lon": 10.2577936,
        "addr:city": "Blaichach",
        "addr:housenumber": "2",
        "addr:postcode": "87544",
        "addr:street": "Ettensberger Straße",
        "amenity": "clinic",
        "healthcare": "clinic",
        "healthcare:speciality": "internal;general",
        "name": "Hausärztezentrum Blaichach",
        "opening_hours": "Mo-Tu 07:30-12:00,15:00-18:00; We-Fr 07:30-12:00; Th 15:00-19:00",
        "operator": "Dr. Blothner, Dr. Gramlich, Ott und Kollegen"
      },
      "geometry": {
        "type": "Point",
        "coordinates": [
          10.2577936,
          47.5438573
        ]
      }
    },
    {
      "type": "Feature",
      "properties": {
        "id": "11932724101",
        "osm_type": "node",
        "lat": 47.5816621,
        "lon": 10.7320401,
        "amenity": "clinic"
      },
      "geometry": {
        "type": "Point",
        "coordinates": [
          10.7320401,
          47.5816621
        ]
      }
    },
    {
      "type": "Feature",
      "properties": {
        "id": "7341644636",
        "osm_type": "node",
        "lat": 47.5923898,
        "lon": 11.0697788,
        "amenity": "clinic",
        "name": "Klinik am Kofel",
        "toilets:wheelchair": "yes",
        "website": "https://www.klinik-am-kofel.com/",
        "wheelchair": "yes"
      },
      "geometry": {
        "type": "Point",
        "coordinates": [
          11.0697788,
          47.5923898
        ]
      }
    }
  ],
  "children": []
}