{
  "bbox": {
    "south": 46.372652,
    "west": 13.345766,
    "north": 47.033758500000005,
    "east": 15.253173
  },
  "poiCount": 8,
  "leafCount": 8,
  "averagePosition": [
    14.326293075,
    46.649889425
  ],
  "data": [
    {
      "type": "Feature",
      "properties": {
        "id": "8758585281",
        "osm_type": "node",
        "lat": 46.6136434,
        "lon": 15.2307353,
        "addr:city": "Radlje ob Dravi",
        "addr:housenumber": "37",
        "addr:postcode": "2360",
        "addr:street": "Mariborska cesta",
        "amenity": "clinic",
        "healthcare": "clinic",
        "name": "Zdravstveni Dom Radlje ob Dravi"
      },
      "geometry": {
        "type": "Point",
        "coordinates": [
          15.2307353,
          46.6136434
        ]
      }
    },
    {
      "type": "Feature",
      "properties": {
        "id": "3351561682",
        "osm_type": "node",
        "lat": 46.873357,
        "lon": 14.4933675,
        "addr:city": "Treibach-Althofen",
        "addr:country": "AT",
        "addr:housenumber": "30",
        "addr:postcode": "9330",
        "addr:street": "Moorweg",
        "addr:suburb": "Althofen",
        "amenity": "clinic",
        "contact:phone": "+43 4262 20710;+43 4633 16190",
        "healthcare": "clinic",
        "name": "Kurzentrum Althofen",
        "operator": "Humanomed",
        "website": "https://www.humanomed.at/humanomed-zentrum-althofen/"
      },
      "geometry": {
        "type": "Point",
        "coordinates": [
          14.4933675,
          46.873357
        ]
      }
    },
    {
      "type": "Feature",
      "properties": {
        "id": "1238982317",
        "osm_type": "node",
        "lat": 46.5878827,
        "lon": 13.8304746,
        "addr:city": "Warmbad-Villach",
        "addr:country": "AT",
        "addr:housenumber": "93",
        "addr:postcode": "9504",
        "addr:street": "Kumpfallee",
        "alt_name": "Kur- und Rehabzentrum Thermenhof",
        "amenity": "clinic",
        "email": "thermenhof@warmbad.at",
        "emergency": "no",
        "fax": "+43 4242-34060-4888",
        "health_facility:type": "rehabilitation",
        "healthcare": "rehabilitation",
        "name": "SKA Rehabilitation Thermenhof",
        "phone": "+43 4242 3001 4099",
        "website": "http://www.med-warmbad.at/Thermenhof/Home.html",
        "wheelchair": "yes"
      },
      "geometry": {
        "type": "Point",
        "coordinates": [
          13.8304746,
          46.5878827
        ]
      }
    },
    {
      "type": "Feature",
      "properties": {
        "id": "10782525726",
        "osm_type": "node",
        "lat": 46.6119049,
        "lon": 13.8445541,
        "addr:city": "Villach",
        "addr:housenumber": "4/5",
        "addr:postcode": "9500",
        "addr:street": "Postgasse",
        "amenity": "clinic",
        "email": "ordination@medpunkt.at",
        "fax": "+43 4242 527 61 - 22",
        "healthcare": "clinic",
        "name": "Medpunkt",
        "phone": "+43 4242 527 61",
        "website": "https://www.medpunkt.at/"
      },
      "geometry": {
        "type": "Point",
        "coordinates": [
          13.8445541,
          46.6119049
        ]
      }
    },
    {
      "type": "Feature",
      "properties": {
        "id": "266537026",
        "osm_type": "node",
        "lat": 46.6358949,
        "lon": 14.2961,
        "addr:city": "Klagenfurt am Wörthersee",
        "addr:country": "AT",
        "addr:housenumber": "84",
        "addr:postcode": "9020",
        "addr:street": "Feldkirchner Straße",
        "amenity": "clinic",
        "emergency": "no",
        "healthcare": "rehabilitation",
        "name": "Reha-Klinik für Seelische Gesundheit",
        "website": "https://www.seelischereha.com/",
        "wheelchair": "yes"
      },
      "geometry": {
        "type": "Point",
        "coordinates": [
          14.2961,
          46.6358949
        ]
      }
    },
    {
      "type": "Feature",
      "properties": {
        "id": "1417204323",
        "osm_type": "node",
        "lat": 46.6204795,
        "lon": 14.2961433,
        "addr:city": "Klagenfurt am Wörthersee",
        "addr:country": "AT",
        "addr:housenumber": "64",
        "addr:street": "August-Jaksch-Straße",
        "amenity": "clinic",
        "healthcare": "clinic",
        "name": "Grasgrün Med.Zentrum",
        "website": "https://www.hausgrasgruen.at/",
        "wheelchair": "yes"
      },
      "geometry": {
        "type": "Point",
        "coordinates": [
          14.2961433,
          46.6204795
        ]
      }
    },
    {
      "type": "Feature",
      "properties": {
        "id": "1483257511",
        "osm_type": "node",
        "lat": 46.6186882,
        "lon": 14.3105738,
        "addr:city": "Klagenfurt am Wörthersee",
        "addr:country": "AT",
        "addr:postcode": "9020",
        "amenity": "clinic",
        "contact:phone": "+43 5 0766-161000",
        "healthcare": "clinic",
        "name": "ÖGK Kundenservice Klagenfurt - Gesundheitsdienst",
        "office": "health-insurance",
        "old_name": "Kärntner Gebietskrankenkasse",
        "operator": "Österreichische Gesundheitskasse (ÖGK)",
        "short_name": "ÖGK",
        "website": "https://www.gesundheitskasse.at/cdscontent/?contentid=10007.824177&portal=oegkkportal"
      },
      "geometry": {
        "type": "Point",
        "coordinates": [
          14.3105738,
          46.6186882
        ]
      }
    },
    {
      "type": "Feature",
      "properties": {
        "id": "11343700462",
        "osm_type": "node",
        "lat": 46.6372648,
        "lon": 14.308396,
        "addr:housenumber": "30",
        "addr:street": "Feschnigstraße",
        "amenity": "clinic",
        "check_date": "2023-11-12",
        "healthcare": "clinic",
        "name": "Praxisgemeinschaft Feschnigstraße 30"
      },
      "geometry": {
        "type": "Point",
        "coordinates": [
          14.308396,
          46.6372648
        ]
      }
    }
  ],
  "children": []
}