{
  "bbox": {
    "south": 46.372652,
    "west": 15.253173,
    "north": 47.033758500000005,
    "east": 17.16058
  },
  "poiCount": 12,
  "leafCount": 12,
  "averagePosition": [
    16.187090216666665,
    46.692867299999996
  ],
  "data": [
    {
      "type": "Feature",
      "properties": {
        "id": "1707410423",
        "osm_type": "node",
        "lat": 46.5675733,
        "lon": 16.0141299,
        "amenity": "clinic",
        "healthcare": "clinic",
        "name": "Zdravstveni dom Sveti Jurij ob Ščavnici",
        "opening_hours": "Mo,Tu 07:15-14:15; We 12:15-19:15; Th,Fr 07:15-14:15"
      },
      "geometry": {
        "type": "Point",
        "coordinates": [
          16.0141299,
          46.5675733
        ]
      }
    },
    {
      "type": "Feature",
      "properties": {
        "id": "5292117915",
        "osm_type": "node",
        "lat": 46.5638582,
        "lon": 15.6476372,
        "addr:housenumber": "5",
        "addr:street": "Pri Parku",
        "amenity": "clinic",
        "email": "info@zd-mb.si",
        "name": "Dispanzerska zobozdravstvena služba za otroke in mladino",
        "operator": "Zdravstveni dom dr. Adolfa Drolca Maribor",
        "website": "https://www.zd-mb.si/"
      },
      "geometry": {
        "type": "Point",
        "coordinates": [
          15.6476372,
          46.5638582
        ]
      }
    },
    {
      "type": "Feature",
      "properties": {
        "id": "5315435219",
        "osm_type": "node",
        "lat": 46.5511653,
        "lon": 15.6413837,
        "addr:city": "Maribor",
        "addr:housenumber": "2",
        "addr:postcode": "2000",
        "addr:street": "Jezdarska ulica",
        "amenity": "clinic",
        "email": "info@ciim.si",
        "name": "Medicinski center CiiM plus",
        "opening_hours": "Mo,We 12:00-20:00; Tu 8:00-16:00; Th 8:00-17:00; Fr 8:00-15:00",
        "operator": "Center za interno in interventno medicino d.o.o.",
        "phone": "+386 5 903 4355",
        "website": "https://ciim.si/"
      },
      "geometry": {
        "type": "Point",
        "coordinates": [
          15.6413837,
          46.5511653
        ]
      }
    },
    {
      "type": "Feature",
      "properties": {
        "id": "5699202682",
        "osm_type": "node",
        "lat": 46.5611223,
        "lon": 15.6542516,
        "addr:city": "Maribor",
        "addr:housenumber": "6d",
        "addr:postcode": "2000",
        "addr:street": "Cankarjeva ulica",
        "amenity": "clinic",
        "healthcare": "clinic",
        "healthcare:speciality": "gynaecology",
        "name": "Ginekomed Forum",
        "opening_hours": "Mo 14:00-20:30; Tu,Th 06:00-13:30; We 13:00-18:00; Fr 06:00-12:30",
        "phone": "+386 41 722 878"
      },
      "geometry": {
        "type": "Point",
        "coordinates": [
          15.6542516,
          46.5611223
        ]
      }
    },
    {
      "type": "Feature",
      "properties": {
        "id": "7167604240",
        "osm_type": "node",
        "lat": 46.5579492,
        "lon": 15.6504482,
        "addr:city": "Maribor",
        "addr:housenumber": "6",
        "addr:postcode": "2000",
        "addr:street": "Ulica heroja Bračiča",
        "amenity": "clinic",
        "fax": "+386 2 235 2159",
        "healthcare": "clinic",
        "level": "1",
        "name": "Diagnostični center Sanabilis",
        "office": "company",
        "phone": "+386 2 235 2150",
        "website": "https://www.sanabilis.si/index.php"
      },
      "geometry": {
        "type": "Point",
        "coordinates": [
          15.6504482,
          46.5579492
        ]
      }
    },
    {
      "type": "Feature",
      "properties": {
        "id": "6634247736",
        "osm_type": "node",
        "lat": 46.3872913,
        "lon": 16.4477543,
        "addr:city": "Čakovec",
        "addr:housenumber": "13",
        "addr:postcode": "40000",
        "addr:street": "Ulica France Prešerna",
        "alt_name": "Medikol",
        "amenity": "clinic",
        "healthcare": "clinic",
        "name": "Poliklinika Medikol",
        "website": "https://medikol.hr/"
      },
      "geometry": {
        "type": "Point",
        "coordinates": [
          16.4477543,
          46.3872913
        ]
      }
    },
    {
      "type": "Feature",
      "properties": {
        "id": "6680164600",
        "osm_type": "node",
        "lat": 46.3929569,
        "lon": 16.4331866,
        "addr:city": "Čakovec",
        "addr:housenumber": "1E",
        "addr:postcode": "40000",
        "addr:street": "Ulica Ivana Gorana Kovačića",
        "amenity": "clinic",
        "healthcare": "clinic",
        "name": "Dom zdravlja Čakovec",
        "website": "https://www.dzck.hr/"
      },
      "geometry": {
        "type": "Point",
        "coordinates": [
          16.4331866,
          46.3929569
        ]
      }
    },
    {
      "type": "Feature",
      "properties": {
        "id": "9429647781",
        "osm_type": "node",
        "lat": 46.8380181,
        "lon": 16.844002,
        "addr:city": "Zalaegerszeg",
        "addr:housenumber": "56",
        "addr:postcode": "8900",
        "addr:street": "Ady Endre utca",
        "amenity": "clinic",
        "healthcare": "yes",
        "name": "Léda Medical Center magánklinika",
        "opening_hours": "Mo,We 12:00-18:00; Tu,Fr 07:00-13:00; Th 08:00-14:00"
      },
      "geometry": {
        "type": "Point",
        "coordinates": [
          16.844002,
          46.8380181
        ]
      }
    },
    {
      "type": "Feature",
      "properties": {
        "id": "8006799876",
        "osm_type": "node",
        "lat": 46.8819613,
        "lon": 16.0732549,
        "addr:city": "Minihof-Liebau",
        "addr:housenumber": "10",
        "addr:place": "Minihof-Liebau",
        "addr:postcode": "8384",
        "amenity": "clinic",
        "healthcare": "centre",
        "healthcare:speciality": "social_work",
        "name": "Gesundheitsnetzwerk Raabtal - Primärversorgungsnetzwerk",
        "social_facility": "healthcare"
      },
      "geometry": {
        "type": "Point",
        "coordinates": [
          16.0732549,
          46.8819613
        ]
      }
    },
    {
      "type": "Feature",
      "properties": {
        "id": "7935674808",
        "osm_type": "node",
        "lat": 46.9914876,
        "lon": 16.6552037,
        "amenity": "clinic",
        "healthcare": "clinic"
      },
      "geometry": {
        "type": "Point",
        "coordinates": [
          16.6552037,
          46.9914876
        ]
      }
    },
    {
      "type": "Feature",
      "properties": {
        "id": "8179668510",
        "osm_type": "node",
        "lat": 47.0100993,
        "lon": 16.5922135,
        "amenity": "clinic",
        "healthcare": "clinic",
        "name": "Tüdőgondozó"
      },
      "geometry": {
        "type": "Point",
        "coordinates": [
          16.5922135,
          47.0100993
        ]
      }
    },
    {
      "type": "Feature",
      "properties": {
        "id": "8179697519",
        "osm_type": "node",
        "lat": 47.0109248,
        "lon": 16.591617,
        "amenity": "clinic",
        "healthcare": "clinic",
        "name": "Gyógytorna"
      },
      "geometry": {
        "type": "Point",
        "coordinates": [
          16.591617,
          47.0109248
        ]
      }
    }
  ],
  "children": []
}