{
  "bbox": {
    "south": 47.033758500000005,
    "west": 11.438358999999998,
    "north": 47.694865,
    "east": 13.345766
  },
  "poiCount": 9,
  "leafCount": 9,
  "averagePosition": [
    12.14021061111111,
    47.378212355555554
  ],
  "data": [
    {
      "type": "Feature",
      "properties": {
        "id": "5931646910",
        "osm_type": "node",
        "lat": 47.2824939,
        "lon": 11.5106027,
        "amenity": "clinic",
        "email": "office@frauengesundheitscenter.at",
        "fax": "+43 5223 5499920",
        "healthcare": "clinic",
        "name": "FrauenGesundheitscenter",
        "phone": "+43 5223 549990",
        "website": "https://www.frauengesundheitscenter.at/"
      },
      "geometry": {
        "type": "Point",
        "coordinates": [
          11.5106027,
          47.2824939
        ]
      }
    },
    {
      "type": "Feature",
      "properties": {
        "id": "681316383",
        "osm_type": "node",
        "lat": 47.292874,
        "lon": 11.883055,
        "amenity": "clinic",
        "healthcare": "clinic",
        "name": "Gesundheitszentrum",
        "phone": "+4352832266"
      },
      "geometry": {
        "type": "Point",
        "coordinates": [
          11.883055,
          47.292874
        ]
      }
    },
    {
      "type": "Feature",
      "properties": {
        "id": "3265369176",
        "osm_type": "node",
        "lat": 47.3447884,
        "lon": 11.7074255,
        "amenity": "clinic",
        "healthcare": "clinic",
        "name": "Ärztehaus Schwaz"
      },
      "geometry": {
        "type": "Point",
        "coordinates": [
          11.7074255,
          47.3447884
        ]
      }
    },
    {
      "type": "Feature",
      "properties": {
        "id": "7710864681",
        "osm_type": "node",
        "lat": 47.3443783,
        "lon": 11.7080963,
        "addr:city": "Schwaz",
        "addr:housenumber": "7",
        "addr:postcode": "6130",
        "addr:street": "Innsbrucker Straße",
        "amenity": "clinic",
        "email": "termin@drkastlunger.at",
        "healthcare": "clinic",
        "healthcare:speciality": "radiology;nuclear;diagnostic_radiology",
        "name": "Kompetenzzentrum DOK Kastlunger",
        "opening_hours": "Mo,Tu,Th 07:30-17:00; We,Fr 07:30-13:00",
        "operator": "Kompetenzzentrum DOK GmbH",
        "phone": "+43 599299",
        "website": "https://www.mein-dok.at"
      },
      "geometry": {
        "type": "Point",
        "coordinates": [
          11.7080963,
          47.3443783
        ]
      }
    },
    {
      "type": "Feature",
      "properties": {
        "id": "1079489781",
        "osm_type": "node",
        "lat": 47.1547311,
        "lon": 13.1101561,
        "amenity": "clinic",
        "healthcare": "physiotherapist",
        "name": "Physiogastein",
        "phone": "06432 21321",
        "website": "http://www.physiogastein.at"
      },
      "geometry": {
        "type": "Point",
        "coordinates": [
          13.1101561,
          47.1547311
        ]
      }
    },
    {
      "type": "Feature",
      "properties": {
        "id": "8095860753",
        "osm_type": "node",
        "lat": 47.429,
        "lon": 11.8767558,
        "amenity": "clinic",
        "healthcare": "clinic",
        "name": "Ärztehaus"
      },
      "geometry": {
        "type": "Point",
        "coordinates": [
          11.8767558,
          47.429
        ]
      }
    },
    {
      "type": "Feature",
      "properties": {
        "id": "9914550143",
        "osm_type": "node",
        "lat": 47.4886368,
        "lon": 12.0617129,
        "amenity": "clinic",
        "healthcare": "clinic",
        "name": "Kursana Privatklinik"
      },
      "geometry": {
        "type": "Point",
        "coordinates": [
          12.0617129,
          47.4886368
        ]
      }
    },
    {
      "type": "Feature",
      "properties": {
        "id": "12309066766",
        "osm_type": "node",
        "lat": 47.4371634,
        "lon": 12.4036655,
        "amenity": "clinic",
        "check_date": "2024-11-03",
        "healthcare": "clinic",
        "name": "Regional Median Tirol"
      },
      "geometry": {
        "type": "Point",
        "coordinates": [
          12.4036655,
          47.4371634
        ]
      }
    },
    {
      "type": "Feature",
      "properties": {
        "id": "9996113119",
        "osm_type": "node",
        "lat": 47.6298453,
        "lon": 13.0004257,
        "addr:city": "Berchtesgaden",
        "addr:housenumber": "4",
        "addr:postcode": "83471",
        "addr:street": "Franziskanerplatz",
        "amenity": "clinic",
        "contact:email": "rebecca.altmann07@gmail.com",
        "contact:mobile": "+49 171 6264547",
        "contact:website": "https://www.osteopathiealtmann.com",
        "ele": "640",
        "emergency": "no",
        "healthcare": "yes",
        "healthcare:speciality": "osteopathy;physiotherapy",
        "internet_access": "yes",
        "name": "Handwerk",
        "official_name": "Handwerk - Praxis für Osteopathie & Physiotherapie",
        "operator": "Rebecca Altmann",
        "operator:type": "business"
      },
      "geometry": {
        "type": "Point",
        "coordinates": [
          13.0004257,
          47.6298453
        ]
      }
    }
  ],
  "children": []
}