{
  "bbox": {
    "south": 47.694865,
    "west": 15.253173,
    "north": 48.355971499999995,
    "east": 17.16058
  },
  "poiCount": 21,
  "leafCount": 21,
  "averagePosition": [
    16.419332433333334,
    48.15759544761905
  ],
  "data": [
    {
      "type": "Feature",
      "properties": {
        "id": "1521365872",
        "osm_type": "node",
        "lat": 47.7134778,
        "lon": 16.1849567,
        "amenity": "place_of_worship",
        "building": "church",
        "denomination": "catholic",
        "name": "Pfarrhofkirche",
        "on_the_list:wikipedia": "de:Liste der denkmalgeschützten Objekte in Pitten#Kath. Pfarrkirche (Bergkirche) hl. Georg, Felsenkapelle und Wehrmauern, Pitten",
        "religion": "christian"
      },
      "geometry": {
        "type": "Point",
        "coordinates": [
          16.1849567,
          47.7134778
        ]
      }
    },
    {
      "type": "Feature",
      "properties": {
        "id": "2089625586",
        "osm_type": "node",
        "lat": 48.2006812,
        "lon": 15.6330506,
        "amenity": "place_of_worship",
        "building": "church",
        "name": "Landhauskapelle",
        "religion": "christian",
        "wheelchair": "yes"
      },
      "geometry": {
        "type": "Point",
        "coordinates": [
          15.6330506,
          48.2006812
        ]
      }
    },
    {
      "type": "Feature",
      "properties": {
        "id": "89436848",
        "osm_type": "node",
        "lat": 47.9145334,
        "lon": 16.5161187,
        "addr:city": "Loretto",
        "addr:country": "AT",
        "addr:housenumber": "22",
        "addr:postcode": "2443",
        "addr:street": "Hauptplatz",
        "alt_name": "Zur Unbefleckten Empfängnis",
        "amenity": "place_of_worship",
        "basilica": "minor",
        "building": "church",
        "building:architecture": "barocco",
        "building:architecture:typology": "baroque",
        "by:religious_title": "Johannes Paul II.",
        "date:religious_title": "1997",
        "deanery": "Dekanat Eisenstadt-Rust",
        "denomination": "roman_catholic",
        "description": "Wallfahrtskirche",
        "diocese": "Diözese Eisenstadt",
        "heritage": "2",
        "heritage:operator": "bda",
        "name": "Basilika Loretto",
        "ref:at:bda": "25799",
        "religion": "christian",
        "religious_title": "Basilica minor",
        "start_date": "1651",
        "wikidata": "Q810093",
        "wikipedia": "de:Basilika Maria Loretto im Burgenland"
      },
      "geometry": {
        "type": "Point",
        "coordinates": [
          16.5161187,
          47.9145334
        ]
      }
    },
    {
      "type": "Feature",
      "properties": {
        "id": "249402038",
        "osm_type": "node",
        "lat": 48.2071754,
        "lon": 16.324318,
        "building": "church"
      },
      "geometry": {
        "type": "Point",
        "coordinates": [
          16.324318,
          48.2071754
        ]
      }
    },
    {
      "type": "Feature",
      "properties": {
        "id": "255298621",
        "osm_type": "node",
        "lat": 48.1975565,
        "lon": 16.4056826,
        "addr:city": "Wien",
        "addr:country": "AT",
        "addr:housenumber": "33",
        "addr:postcode": "1030",
        "addr:street": "Hagenmüllergasse",
        "amenity": "place_of_worship",
        "building": "church",
        "check_date": "2024-03-13",
        "denomination": "catholic",
        "name": "Pfarrkirche Don Bosco",
        "religion": "christian",
        "website": "https://www.pfarre-neuerdberg.at/",
        "wheelchair": "no"
      },
      "geometry": {
        "type": "Point",
        "coordinates": [
          16.4056826,
          48.1975565
        ]
      }
    },
    {
      "type": "Feature",
      "properties": {
        "id": "269209046",
        "osm_type": "node",
        "lat": 48.2075963,
        "lon": 16.3733991,
        "addr:city": "Wien",
        "addr:country": "AT",
        "addr:housenumber": "7",
        "addr:postcode": "1020",
        "addr:street": "Am Tabor",
        "amenity": "place_of_worship",
        "building": "church",
        "denomination": "roman_catholic",
        "heritage": "2",
        "heritage:operator": "bda",
        "name": "Deutschordenskirche St. Elisabeth",
        "name:etymology": "Elisabeth von Thüringen",
        "name:etymology:wikidata": "Q159862",
        "name:hu": "Krisztus Feltámadása",
        "ref:at:bda": "20088",
        "religion": "christian",
        "start_date": "1375",
        "url:miserend": "http://miserend.hu/?templom=2687",
        "wikidata": "Q701619"
      },
      "geometry": {
        "type": "Point",
        "coordinates": [
          16.3733991,
          48.2075963
        ]
      }
    },
    {
      "type": "Feature",
      "properties": {
        "id": "285807487",
        "osm_type": "node",
        "lat": 48.18708,
        "lon": 16.3488215,
        "addr:city": "Wien",
        "addr:country": "AT",
        "addr:housenumber": "141",
        "addr:postcode": "1050",
        "addr:street": "Margaretenstraße",
        "amenity": "place_of_worship",
        "building": "church",
        "check_date": "2024-09-29",
        "denomination": "catholic",
        "description": "Nur Erdgeschossbalkon Barrierefrei",
        "name": "Kellerkirche St. Johannes",
        "old_name": "Wohnhauskirche",
        "religion": "christian",
        "toilets:wheelchair": "no",
        "wheelchair": "limited"
      },
      "geometry": {
        "type": "Point",
        "coordinates": [
          16.3488215,
          48.18708
        ]
      }
    },
    {
      "type": "Feature",
      "properties": {
        "id": "310990208",
        "osm_type": "node",
        "lat": 48.2015659,
        "lon": 16.3163495,
        "addr:city": "Wien",
        "addr:country": "AT",
        "addr:housenumber": "5",
        "addr:postcode": "1150",
        "addr:street": "Toldgasse",
        "amenity": "place_of_worship",
        "building": "church",
        "denomination": "seventh_day_adventist",
        "name": "Vienna English Seventh Day Adventist Church",
        "religion": "christian"
      },
      "geometry": {
        "type": "Point",
        "coordinates": [
          16.3163495,
          48.2015659
        ]
      }
    },
    {
      "type": "Feature",
      "properties": {
        "id": "310990210",
        "osm_type": "node",
        "lat": 48.2017552,
        "lon": 16.3164006,
        "addr:city": "Wien",
        "addr:country": "AT",
        "addr:housenumber": "7",
        "addr:postcode": "1150",
        "addr:street": "Toldgasse",
        "amenity": "place_of_worship",
        "building": "church",
        "name": "Ibn Taymiya Moschee",
        "religion": "muslim"
      },
      "geometry": {
        "type": "Point",
        "coordinates": [
          16.3164006,
          48.2017552
        ]
      }
    },
    {
      "type": "Feature",
      "properties": {
        "id": "330374215",
        "osm_type": "node",
        "lat": 48.2103604,
        "lon": 16.3893847,
        "addr:city": "Wien",
        "addr:country": "AT",
        "addr:housenumber": "11",
        "addr:postcode": "1030",
        "addr:street": "Kolonitzgasse",
        "amenity": "place_of_worship",
        "building": "church",
        "check_date": "2024-05-18",
        "denomination": "armenian_apostolic",
        "name": "Armenische Kirche",
        "religion": "christian",
        "wikidata": "Q684221"
      },
      "geometry": {
        "type": "Point",
        "coordinates": [
          16.3893847,
          48.2103604
        ]
      }
    },
    {
      "type": "Feature",
      "properties": {
        "id": "344927626",
        "osm_type": "node",
        "lat": 48.2052753,
        "lon": 16.3867181,
        "amenity": "place_of_worship",
        "building": "church",
        "check_date": "2023-09-10",
        "heritage": "2",
        "historic": "heritage",
        "name": "Elisabethinen-Kirche",
        "religion": "christian",
        "wikidata": "Q1330552"
      },
      "geometry": {
        "type": "Point",
        "coordinates": [
          16.3867181,
          48.2052753
        ]
      }
    },
    {
      "type": "Feature",
      "properties": {
        "id": "368266585",
        "osm_type": "node",
        "lat": 48.2189684,
        "lon": 16.339037,
        "addr:city": "Wien",
        "addr:housenumber": "1",
        "addr:postcode": "1170",
        "addr:street": "Beheimgasse",
        "amenity": "place_of_worship",
        "building": "church",
        "check_date": "2024-12-14",
        "denomination": "baptist",
        "name": "Baptistengemeinde",
        "religion": "christian"
      },
      "geometry": {
        "type": "Point",
        "coordinates": [
          16.339037,
          48.2189684
        ]
      }
    },
    {
      "type": "Feature",
      "properties": {
        "id": "425448596",
        "osm_type": "node",
        "lat": 48.2032877,
        "lon": 16.3632214,
        "addr:city": "Wien",
        "addr:country": "AT",
        "addr:housenumber": "26",
        "addr:postcode": "1010",
        "addr:street": "Elisabethstraße",
        "amenity": "place_of_worship",
        "building": "church",
        "denomination": "catholic",
        "fixme": "Dieses Gebäude ist definitiv keine Kirche.",
        "name": "Center St. Elisabeth",
        "phone": "+43 (1) 5869411",
        "religion": "christian"
      },
      "geometry": {
        "type": "Point",
        "coordinates": [
          16.3632214,
          48.2032877
        ]
      }
    },
    {
      "type": "Feature",
      "properties": {
        "id": "797725372",
        "osm_type": "node",
        "lat": 48.1774162,
        "lon": 16.358431,
        "addr:city": "Wien",
        "addr:country": "AT",
        "addr:housenumber": "156",
        "addr:postcode": "1100",
        "addr:street": "Quellenstraße",
        "amenity": "place_of_worship",
        "building": "church",
        "building:levels": "3",
        "name": "Evangeliumsgemeinde",
        "religion": "christian",
        "website": "http://www.evangeliumsgemeinde.at"
      },
      "geometry": {
        "type": "Point",
        "coordinates": [
          16.358431,
          48.1774162
        ]
      }
    },
    {
      "type": "Feature",
      "properties": {
        "id": "2673946255",
        "osm_type": "node",
        "lat": 48.1675275,
        "lon": 16.3073492,
        "addr:city": "Wien",
        "addr:country": "AT",
        "addr:housenumber": "98",
        "addr:postcode": "1120",
        "addr:street": "Hetzendorfer Straße",
        "amenity": "place_of_worship",
        "building": "church",
        "check_date": "2024-11-12",
        "name": "Mennonitische Freikirche Wien",
        "religion": "christian"
      },
      "geometry": {
        "type": "Point",
        "coordinates": [
          16.3073492,
          48.1675275
        ]
      }
    },
    {
      "type": "Feature",
      "properties": {
        "id": "3045924080",
        "osm_type": "node",
        "lat": 48.2094543,
        "lon": 16.3624918,
        "addr:city": "Wien",
        "addr:country": "AT",
        "addr:housenumber": "8/2",
        "addr:postcode": "1010",
        "addr:street": "Löwelstraße",
        "amenity": "place_of_worship",
        "building": "church",
        "check_date": "2024-11-19",
        "dedication": "Auferstehung Christi",
        "denomination": "romanian_orthodox",
        "email": "pr.dura@rumkirche.at",
        "name": "Rumänisch-orthodoxe Kirche",
        "name:ro": "Capela Ortodoxă Română \"La Sf. Înviere\" și \"Sf. Mare Mucenic Ioan cel Nou de la Suceava\" Viena",
        "opening_hours": "Su 10:00-12:00",
        "phone": "+43 699 1737 8774",
        "religion": "christian",
        "website": "http://www.rumkirche.at/j/ro/"
      },
      "geometry": {
        "type": "Point",
        "coordinates": [
          16.3624918,
          48.2094543
        ]
      }
    },
    {
      "type": "Feature",
      "properties": {
        "id": "4461302290",
        "osm_type": "node",
        "lat": 48.239082,
        "lon": 16.3499787,
        "building": "church",
        "disused:shop": "yes"
      },
      "geometry": {
        "type": "Point",
        "coordinates": [
          16.3499787,
          48.239082
        ]
      }
    },
    {
      "type": "Feature",
      "properties": {
        "id": "9922069925",
        "osm_type": "node",
        "lat": 48.173307,
        "lon": 16.2771678,
        "amenity": "place_of_worship",
        "building": "church",
        "denomination": "catholic",
        "name": "Pfarrkirche Maria, Heil der Kranken",
        "religion": "christian"
      },
      "geometry": {
        "type": "Point",
        "coordinates": [
          16.2771678,
          48.173307
        ]
      }
    },
    {
      "type": "Feature",
      "properties": {
        "id": "3648080834",
        "osm_type": "node",
        "lat": 48.1786033,
        "lon": 17.0457245,
        "addr:city": "Bratislava",
        "addr:housenumber": "2A",
        "addr:postcode": "841 01",
        "addr:street": "M. Schneidra Trnavského",
        "addr:streetnumber": "2A",
        "amenity": "place_of_worship",
        "building": "church",
        "denomination": "lutheran",
        "name": "Evanjelický zborový dom",
        "religion": "christian",
        "wikidata": "Q5415656",
        "wikimedia_commons": "Category:Lutheran church in Bratislava-Dúbravka",
        "wikipedia": "sk:Evanjelický kostol (Dúbravka)"
      },
      "geometry": {
        "type": "Point",
        "coordinates": [
          17.0457245,
          48.1786033
        ]
      }
    },
    {
      "type": "Feature",
      "properties": {
        "id": "8219731358",
        "osm_type": "node",
        "lat": 48.147152,
        "lon": 17.1042001,
        "amenity": "place_of_worship",
        "building": "church",
        "denomination": "czechoslovak_hussite",
        "name": "Cirkev československá husitská - zborový dom",
        "operator": "Cirkev československá husitská - Bratislavská diecéza",
        "religion": "christian",
        "service_times": "Su 09:00",
        "source": "survey",
        "website": "https://cirkev-ceskoslovenska-husitska6.webnode.sk/kontakt/"
      },
      "geometry": {
        "type": "Point",
        "coordinates": [
          17.1042001,
          48.147152
        ]
      }
    },
    {
      "type": "Feature",
      "properties": {
        "id": "8219731370",
        "osm_type": "node",
        "lat": 48.1476486,
        "lon": 17.1031795,
        "amenity": "place_of_worship",
        "building": "church",
        "denomination": "methodist",
        "name": "Evanjelická cirkev metodistická - modlitebňa",
        "operator": "Farský úrad Evanjelickej cirkvi metodistickej Bratislava – Staré Mesto",
        "religion": "christian",
        "service_times": "Su 10:00",
        "source": "survey",
        "website": "http://bratislava.umc.sk/category/bohosluzby/"
      },
      "geometry": {
        "type": "Point",
        "coordinates": [
          17.1031795,
          48.1476486
        ]
      }
    }
  ],
  "children": []
}