{
  "bbox": {
    "south": 48.355971499999995,
    "west": 11.438358999999998,
    "north": 49.017078,
    "east": 13.345766
  },
  "poiCount": 148,
  "leafCount": 0,
  "averagePosition": [
    12.472081366891892,
    48.71913779391892
  ],
  "data": [],
  "children": [
    {
      "bbox": {
        "south": 48.355971499999995,
        "west": 11.438358999999998,
        "north": 48.68652475,
        "east": 12.392062499999998
      },
      "poiCount": 40,
      "leafCount": 40,
      "averagePosition": [
        11.938197970000001,
        48.50417532
      ],
      "data": [
        {
          "type": "Feature",
          "properties": {
            "id": "9759226470",
            "osm_type": "node",
            "lat": 48.3702247,
            "lon": 11.929956,
            "name": "Gästehaus Angemaier",
            "tourism": "guest_house",
            "website": "https://www.gaestehaus-angermaier.de/"
          },
          "geometry": {
            "type": "Point",
            "coordinates": [
              11.929956,
              48.3702247
            ]
          }
        },
        {
          "type": "Feature",
          "properties": {
            "id": "12997690168",
            "osm_type": "node",
            "lat": 48.3580863,
            "lon": 11.9493509,
            "addr:city": "Fraunberg",
            "addr:housenumber": "8c",
            "addr:place": "Lohkirchen",
            "addr:postcode": "85447",
            "email": "info@pensionbrunner.de",
            "fax": "+49 (0)8762 73 77 062",
            "mobile": "+49 (0)176 419 57 275",
            "name": "Pension Brunner",
            "operator": "Anton Brunner",
            "phone": "+49 (0)8762 73 77 061",
            "tourism": "guest_house",
            "website": "https://pensionbrunner.de/"
          },
          "geometry": {
            "type": "Point",
            "coordinates": [
              11.9493509,
              48.3580863
            ]
          }
        },
        {
          "type": "Feature",
          "properties": {
            "id": "4574117075",
            "osm_type": "node",
            "lat": 48.3661484,
            "lon": 12.2533917,
            "name": "Fremdenzimmer Dirrigl",
            "tourism": "guest_house"
          },
          "geometry": {
            "type": "Point",
            "coordinates": [
              12.2533917,
              48.3661484
            ]
          }
        },
        {
          "type": "Feature",
          "properties": {
            "id": "563834699",
            "osm_type": "node",
            "lat": 48.5385856,
            "lon": 11.4978145,
            "addr:city": "Pfaffenhofen a.d. Ilm",
            "addr:country": "DE",
            "addr:housenumber": "88",
            "addr:postcode": "85276",
            "addr:street": "Ziegelstraße",
            "amenity": "pub",
            "capacity": "8",
            "indoor_seating": "yes",
            "name": "Naturfreundehaus Ilmblick",
            "opening_hours": "\"im Herbst und Winter nur auf Anfrage geöffnet\"",
            "operator": "NaturFreunde Deutschland",
            "outdoor_seating": "yes",
            "ref": "N 098",
            "source": "Datenspende der NaturFreunde Deutschland",
            "tourism": "hostel",
            "website": "https://www.naturfreunde-pfaffenhofen.de",
            "wheelchair": "yes"
          },
          "geometry": {
            "type": "Point",
            "coordinates": [
              11.4978145,
              48.5385856
            ]
          }
        },
        {
          "type": "Feature",
          "properties": {
            "id": "6948324592",
            "osm_type": "node",
            "lat": 48.6404289,
            "lon": 11.5129278,
            "name": "Pension Heidi",
            "tourism": "guest_house"
          },
          "geometry": {
            "type": "Point",
            "coordinates": [
              11.5129278,
              48.6404289
            ]
          }
        },
        {
          "type": "Feature",
          "properties": {
            "id": "6948352740",
            "osm_type": "node",
            "lat": 48.6370448,
            "lon": 11.5095971,
            "name": "Pension Assmann",
            "phone": "+49 8453 4366123",
            "tourism": "guest_house"
          },
          "geometry": {
            "type": "Point",
            "coordinates": [
              11.5095971,
              48.6370448
            ]
          }
        },
        {
          "type": "Feature",
          "properties": {
            "id": "7912378012",
            "osm_type": "node",
            "lat": 48.5363218,
            "lon": 11.5078948,
            "addr:housenumber": "69",
            "addr:street": "Ingolstädter Straße",
            "guest_house": "hostel",
            "internet_access": "wlan",
            "internet_access:fee": "no",
            "name": "Zählwerk Apartments",
            "operator": "IGP Immobilien GmbH",
            "rooms": "79",
            "tourism": "guest_house",
            "wheelchair": "no",
            "wikidata": "Q111117379"
          },
          "geometry": {
            "type": "Point",
            "coordinates": [
              11.5078948,
              48.5363218
            ]
          }
        },
        {
          "type": "Feature",
          "properties": {
            "id": "687782780",
            "osm_type": "node",
            "lat": 48.4661976,
            "lon": 11.9345111,
            "addr:city": "Moosburg a.d. Isar",
            "addr:country": "DE",
            "addr:housenumber": "5",
            "addr:postcode": "85368",
            "addr:street": "Münchener Straße",
            "check_date": "2025-07-26",
            "name": "Pension Irene",
            "phone": "+49 8761-61126",
            "tourism": "guest_house",
            "website": "https://pensionirene.jimdofree.com/",
            "wheelchair": "no"
          },
          "geometry": {
            "type": "Point",
            "coordinates": [
              11.9345111,
              48.4661976
            ]
          }
        },
        {
          "type": "Feature",
          "properties": {
            "id": "689549580",
            "osm_type": "node",
            "lat": 48.4394044,
            "lon": 11.936882,
            "name": "Pension Thalmeier",
            "tourism": "guest_house"
          },
          "geometry": {
            "type": "Point",
            "coordinates": [
              11.936882,
              48.4394044
            ]
          }
        },
        {
          "type": "Feature",
          "properties": {
            "id": "821741410",
            "osm_type": "node",
            "lat": 48.4287183,
            "lon": 11.6672398,
            "alt_name": "Schloss Thalhausen",
            "group_only": "yes",
            "historic": "castle",
            "name": "Jugendhaus St. Anna",
            "tourism": "hostel",
            "website": "https://www.jugendhaus-thalhausen.de/",
            "wikidata": "Q19964532",
            "wikimedia_commons": "Category:Schloss Thalhausen, Kranzberg",
            "wikipedia": "de:Schloss Thalhausen"
          },
          "geometry": {
            "type": "Point",
            "coordinates": [
              11.6672398,
              48.4287183
            ]
          }
        },
        {
          "type": "Feature",
          "properties": {
            "id": "1336982994",
            "osm_type": "node",
            "lat": 48.5570767,
            "lon": 11.8115265,
            "addr:city": "Nandlstadt",
            "addr:country": "DE",
            "addr:housenumber": "16",
            "addr:postcode": "85405",
            "addr:street": "Hausmehringer Straße",
            "email": "huber-hausmehring@web.de",
            "name": "Gasthaus Johann Huber",
            "operator": "Johann Huber",
            "phone": "+49 8756 1281",
            "tourism": "guest_house",
            "wheelchair": "no"
          },
          "geometry": {
            "type": "Point",
            "coordinates": [
              11.8115265,
              48.5570767
            ]
          }
        },
        {
          "type": "Feature",
          "properties": {
            "id": "1783768249",
            "osm_type": "node",
            "lat": 48.5249207,
            "lon": 11.9945838,
            "name": "Fremdenzimmer & Ferienwohnung Strasser",
            "tourism": "guest_house"
          },
          "geometry": {
            "type": "Point",
            "coordinates": [
              11.9945838,
              48.5249207
            ]
          }
        },
        {
          "type": "Feature",
          "properties": {
            "id": "2041865157",
            "osm_type": "node",
            "lat": 48.6821613,
            "lon": 11.6093722,
            "addr:postcode": "85290",
            "email": "pension-maier@t-online.de",
            "name": "Pension Maier",
            "phone": "08452 666",
            "tourism": "guest_house"
          },
          "geometry": {
            "type": "Point",
            "coordinates": [
              11.6093722,
              48.6821613
            ]
          }
        },
        {
          "type": "Feature",
          "properties": {
            "id": "2263123751",
            "osm_type": "node",
            "lat": 48.4246321,
            "lon": 11.9705035,
            "name": "Schmankerlhof Oberwirt",
            "tourism": "guest_house"
          },
          "geometry": {
            "type": "Point",
            "coordinates": [
              11.9705035,
              48.4246321
            ]
          }
        },
        {
          "type": "Feature",
          "properties": {
            "id": "3724691442",
            "osm_type": "node",
            "lat": 48.5303821,
            "lon": 11.5349802,
            "addr:city": "Pfaffenhofen a.d. Ilm",
            "addr:housenumber": "9",
            "addr:postcode": "85276",
            "addr:street": "Schweitenkirchener Straße",
            "guest_house": "guest_house",
            "internet_access": "yes",
            "internet_access:fee": "no",
            "name": "Pension Leopold",
            "operator": "Martin Leopold",
            "phone": "+49 8441 3210",
            "tourism": "guest_house",
            "website": "https://pension-leopold.de/"
          },
          "geometry": {
            "type": "Point",
            "coordinates": [
              11.5349802,
              48.5303821
            ]
          }
        },
        {
          "type": "Feature",
          "properties": {
            "id": "3857261041",
            "osm_type": "node",
            "lat": 48.4407472,
            "lon": 11.8596455,
            "addr:city": "Langenbach",
            "addr:country": "DE",
            "addr:housenumber": "1a",
            "addr:postcode": "85416",
            "addr:street": "Moosburger Straße",
            "check_date": "2024-06-14",
            "email": "gaestehaus@rastberg.de",
            "fax": "+49 8761 722004-44",
            "name": "Gästehaus am Rastberg",
            "operator": "Nödl GbR",
            "phone": "+49 8761 722004–0",
            "tourism": "guest_house",
            "website": "https://www.gaestehaus-rastberg.de/"
          },
          "geometry": {
            "type": "Point",
            "coordinates": [
              11.8596455,
              48.4407472
            ]
          }
        },
        {
          "type": "Feature",
          "properties": {
            "id": "7247984810",
            "osm_type": "node",
            "lat": 48.5164176,
            "lon": 11.8973328,
            "addr:city": "Mauern",
            "addr:country": "DE",
            "addr:housenumber": "13",
            "addr:postcode": "85419",
            "addr:street": "Hauptstraße",
            "check_date": "2025-06-26",
            "email": "info@alterwirt-mauern.de",
            "fax": "+49 8764 949736",
            "internet_access": "wlan",
            "internet_access:fee": "no",
            "name": "Zum Alten Wirt",
            "phone": "+49 8764 318",
            "rooms": "18",
            "stars": "3",
            "toilets:wheelchair": "no",
            "tourism": "guest_house",
            "website": "https://www.alterwirt-mauern.de/",
            "wheelchair": "no"
          },
          "geometry": {
            "type": "Point",
            "coordinates": [
              11.8973328,
              48.5164176
            ]
          }
        },
        {
          "type": "Feature",
          "properties": {
            "id": "7750133449",
            "osm_type": "node",
            "lat": 48.6407826,
            "lon": 11.7801924,
            "addr:city": "Mainburg",
            "addr:country": "DE",
            "addr:housenumber": "1",
            "addr:postcode": "84048",
            "addr:street": "Freisinger Straße",
            "email": "info@mainburg-pension.de",
            "fax": "+49 (0)8751 876402",
            "guest_house": "bed_and_breakfast",
            "name": "Pension im Bahnhof Hotel Garmi",
            "operator": "Fam. Schönhuber",
            "phone": "+49 (0)8751 8459320",
            "tourism": "guest_house",
            "website": "https://www.mainburg-pension.de"
          },
          "geometry": {
            "type": "Point",
            "coordinates": [
              11.7801924,
              48.6407826
            ]
          }
        },
        {
          "type": "Feature",
          "properties": {
            "id": "7813714754",
            "osm_type": "node",
            "lat": 48.4637547,
            "lon": 11.9314214,
            "addr:city": "Moosburg a.d. Isar",
            "addr:country": "DE",
            "addr:housenumber": "25",
            "addr:postcode": "85368",
            "addr:street": "Münchener Straße",
            "check_date": "2025-07-26",
            "email": "info@staudinger-keller.de",
            "fridge": "yes",
            "guest_house": "pension",
            "internet_access": "wlan",
            "internet_access:fee": "customers",
            "level": "1",
            "mobile": "+49 171 7346882",
            "name": "Pension Staudinger Keller",
            "operator": "Martin Hagl",
            "phone": "+49 8761 330649",
            "tourism": "guest_house",
            "website": "https://www.pension-staudinger-keller.com/",
            "wheelchair": "yes"
          },
          "geometry": {
            "type": "Point",
            "coordinates": [
              11.9314214,
              48.4637547
            ]
          }
        },
        {
          "type": "Feature",
          "properties": {
            "id": "7967395351",
            "osm_type": "node",
            "lat": 48.5322023,
            "lon": 11.757173,
            "addr:city": "Au in der Hallertau",
            "addr:country": "DE",
            "addr:housenumber": "21",
            "addr:place": "Dobl",
            "addr:postcode": "84072",
            "addr:suburb": "Reichertshausen",
            "email": "rosa@doblmair.de",
            "fax": "+49 8752 810251",
            "fixme": "richtiges Gebäude?",
            "name": "Gästehaus zum Doblmair",
            "operator": "Familie Westermair",
            "phone": "+49 8752 810250",
            "tourism": "guest_house",
            "website": "https://www.doblmair.de/"
          },
          "geometry": {
            "type": "Point",
            "coordinates": [
              11.757173,
              48.5322023
            ]
          }
        },
        {
          "type": "Feature",
          "properties": {
            "id": "7967454286",
            "osm_type": "node",
            "lat": 48.408065,
            "lon": 11.8693681,
            "addr:city": "Eitting",
            "addr:country": "DE",
            "addr:housenumber": "10",
            "addr:postcode": "85462",
            "addr:street": "Eittinger Straße",
            "addr:suburb": "Gaden",
            "check_date": "2025-01-18",
            "description": "Singel room from 55 €, Double room from 85 € (Feb. 2020)",
            "email": "info@alterwirt-gaden.de",
            "fax": "+49 8761 330692",
            "name": "Alter Wirt",
            "phone": "+49 8761 330546",
            "tourism": "guest_house",
            "website": "http://www.alterwirt-gaden.de/"
          },
          "geometry": {
            "type": "Point",
            "coordinates": [
              11.8693681,
              48.408065
            ]
          }
        },
        {
          "type": "Feature",
          "properties": {
            "id": "9338521414",
            "osm_type": "node",
            "lat": 48.4147254,
            "lon": 11.9424337,
            "addr:city": "Langenpreising",
            "addr:country": "DE",
            "addr:housenumber": "14",
            "addr:postcode": "85465",
            "addr:street": "St.-Stefansplatz",
            "addr:suburb": "Zustorf",
            "beds": "59",
            "check_date": "2025-01-05",
            "contact:email": "info@landgasthof-lintsche.de",
            "contact:fax": "+49 8762 510 6",
            "contact:mobile": "+49 171 1975177",
            "contact:phone": "+49 8762 721 703",
            "contact:website": "https://www.landgasthof-lintsche.de/",
            "guest_house": "bed_and_breakfast",
            "internet_access": "wlan",
            "internet_access:fee": "no",
            "name": "Landgasthof Lintsche",
            "operator": "Monika Lintsche",
            "rooms": "35",
            "tourism": "guest_house"
          },
          "geometry": {
            "type": "Point",
            "coordinates": [
              11.9424337,
              48.4147254
            ]
          }
        },
        {
          "type": "Feature",
          "properties": {
            "id": "10794914902",
            "osm_type": "node",
            "lat": 48.3881631,
            "lon": 11.9457257,
            "addr:city": "Wartenberg",
            "addr:country": "DE",
            "addr:housenumber": "24",
            "addr:postcode": "85456",
            "addr:street": "Manhartsdorf",
            "contact:website": "https://privatzimmer-wimmer.hpage.com",
            "name": "Privatzimmer Wimmer",
            "tourism": "guest_house"
          },
          "geometry": {
            "type": "Point",
            "coordinates": [
              11.9457257,
              48.3881631
            ]
          }
        },
        {
          "type": "Feature",
          "properties": {
            "id": "11901094114",
            "osm_type": "node",
            "lat": 48.6023917,
            "lon": 11.6276188,
            "beds": "14",
            "email": "info@gasthausberger.de",
            "name": "Gasthaus Berger",
            "phone": "+49 8442 3410",
            "rooms": "8",
            "tourism": "guest_house",
            "website": "http://www.gasthausberger.de",
            "wheelchair": "no"
          },
          "geometry": {
            "type": "Point",
            "coordinates": [
              11.6276188,
              48.6023917
            ]
          }
        },
        {
          "type": "Feature",
          "properties": {
            "id": "11901094116",
            "osm_type": "node",
            "lat": 48.6028972,
            "lon": 11.627643,
            "beds": "19",
            "name": "Gasthof zur Post",
            "rooms": "8",
            "tourism": "guest_house",
            "website": "https://www.zur-post-wolnzach.de/gaestezimmer/index.html"
          },
          "geometry": {
            "type": "Point",
            "coordinates": [
              11.627643,
              48.6028972
            ]
          }
        },
        {
          "type": "Feature",
          "properties": {
            "id": "286644648",
            "osm_type": "node",
            "lat": 48.5473867,
            "lon": 12.0933421,
            "addr:city": "Altdorf",
            "addr:country": "DE",
            "addr:housenumber": "40",
            "addr:postcode": "84032",
            "addr:street": "Bernsteinstraße",
            "name": "Gästehaus Elisabeth",
            "phone": "+49 871 932500",
            "tourism": "guest_house"
          },
          "geometry": {
            "type": "Point",
            "coordinates": [
              12.0933421,
              48.5473867
            ]
          }
        },
        {
          "type": "Feature",
          "properties": {
            "id": "490198882",
            "osm_type": "node",
            "lat": 48.4798682,
            "lon": 12.2433052,
            "name": "Gästehaus Hundhammer",
            "tourism": "guest_house"
          },
          "geometry": {
            "type": "Point",
            "coordinates": [
              12.2433052,
              48.4798682
            ]
          }
        },
        {
          "type": "Feature",
          "properties": {
            "id": "1935498879",
            "osm_type": "node",
            "lat": 48.562363,
            "lon": 12.0992593,
            "email": "info@privatzimmer-aich.de",
            "image": "https://commons.wikimedia.org/wiki/File:AltdorfAich2.jpg",
            "name": "Privatzimmer Aich",
            "phone": "+49 871 935215",
            "tourism": "guest_house",
            "website": "https://www.privatzimmer-aich.de/"
          },
          "geometry": {
            "type": "Point",
            "coordinates": [
              12.0992593,
              48.562363
            ]
          }
        },
        {
          "type": "Feature",
          "properties": {
            "id": "2802165164",
            "osm_type": "node",
            "lat": 48.5779132,
            "lon": 12.1735923,
            "addr:city": "Ergolding",
            "addr:country": "DE",
            "addr:housenumber": "18",
            "addr:postcode": "84030",
            "addr:street": "Lindenstraße",
            "check_date": "2024-04-06",
            "name": "Pension Paula - Garni",
            "tourism": "guest_house",
            "wheelchair": "yes"
          },
          "geometry": {
            "type": "Point",
            "coordinates": [
              12.1735923,
              48.5779132
            ]
          }
        },
        {
          "type": "Feature",
          "properties": {
            "id": "3019672033",
            "osm_type": "node",
            "lat": 48.5502934,
            "lon": 12.1341629,
            "addr:city": "Landshut",
            "addr:country": "DE",
            "addr:housenumber": "10",
            "addr:street": "Sankt-Wolfgang-Platz",
            "name": "Boardinghouse",
            "tourism": "guest_house"
          },
          "geometry": {
            "type": "Point",
            "coordinates": [
              12.1341629,
              48.5502934
            ]
          }
        },
        {
          "type": "Feature",
          "properties": {
            "id": "3723791980",
            "osm_type": "node",
            "lat": 48.4703219,
            "lon": 12.2646153,
            "addr:city": "Geisenhausen",
            "addr:country": "DE",
            "addr:housenumber": "10",
            "addr:postcode": "84144",
            "addr:street": "St.-Theobald-Straße",
            "beds": "2",
            "internet_access": "no",
            "name": "Pension Gangkofner",
            "operator": "Familie Gangkofner",
            "phone": "+49 87 43 27 54",
            "rooms": "1",
            "smoking": "separated",
            "tourism": "guest_house",
            "wheelchair": "no"
          },
          "geometry": {
            "type": "Point",
            "coordinates": [
              12.2646153,
              48.4703219
            ]
          }
        },
        {
          "type": "Feature",
          "properties": {
            "id": "4036198126",
            "osm_type": "node",
            "lat": 48.5571267,
            "lon": 12.1101909,
            "name": "Gästezimmer Schmittnerhof",
            "phone": "+49 871 32231",
            "tourism": "guest_house",
            "website": "https://schmittnerhof-altdorf.de/"
          },
          "geometry": {
            "type": "Point",
            "coordinates": [
              12.1101909,
              48.5571267
            ]
          }
        },
        {
          "type": "Feature",
          "properties": {
            "id": "4802168825",
            "osm_type": "node",
            "lat": 48.4822249,
            "lon": 12.3398949,
            "addr:country": "DE",
            "addr:housenumber": "1",
            "addr:postcode": "84137",
            "addr:street": "Klosterweg",
            "email": "Gasthaus.Breitenacher@gmx.de",
            "name": "Gasthaus Breitenacher",
            "name:de": "Gasthaus Breitenacher",
            "name:en": "Guest house Breitenacher",
            "phone": "+49 (0) 8741 6162",
            "tourism": "guest_house"
          },
          "geometry": {
            "type": "Point",
            "coordinates": [
              12.3398949,
              48.4822249
            ]
          }
        },
        {
          "type": "Feature",
          "properties": {
            "id": "5146083421",
            "osm_type": "node",
            "lat": 48.487302,
            "lon": 12.1858948,
            "name": "Asylunterkunft",
            "tourism": "guest_house"
          },
          "geometry": {
            "type": "Point",
            "coordinates": [
              12.1858948,
              48.487302
            ]
          }
        },
        {
          "type": "Feature",
          "properties": {
            "id": "7817893123",
            "osm_type": "node",
            "lat": 48.3807475,
            "lon": 12.3088762,
            "addr:country": "DE",
            "addr:housenumber": "11",
            "addr:street": "Ahornstraße",
            "name": "Kainzer Sölde",
            "phone": "+49 8742 96 51 321",
            "tourism": "guest_house",
            "website": "https://www.kainzer-soelde.de/"
          },
          "geometry": {
            "type": "Point",
            "coordinates": [
              12.3088762,
              48.3807475
            ]
          }
        },
        {
          "type": "Feature",
          "properties": {
            "id": "8476333726",
            "osm_type": "node",
            "lat": 48.4490676,
            "lon": 12.106888,
            "addr:city": "Vilsheim",
            "addr:country": "DE",
            "addr:housenumber": "9",
            "addr:postcode": "84186",
            "addr:street": "Landshuter Straße",
            "check_date": "2023-11-04",
            "description": "Single room from 35 €, double room from 55 €",
            "email": "info@stadlervilsheim.de",
            "fax": "+49 8706 1097",
            "name": "Stadler",
            "phone": "+49 8706 281",
            "tourism": "guest_house",
            "website": "https://www.stadlervilsheim.de/"
          },
          "geometry": {
            "type": "Point",
            "coordinates": [
              12.106888,
              48.4490676
            ]
          }
        },
        {
          "type": "Feature",
          "properties": {
            "id": "9762490181",
            "osm_type": "node",
            "lat": 48.6285001,
            "lon": 12.3368658,
            "name": "Green Guest House",
            "tourism": "guest_house",
            "website": "https://green-guest-house.de/"
          },
          "geometry": {
            "type": "Point",
            "coordinates": [
              12.3368658,
              48.6285001
            ]
          }
        },
        {
          "type": "Feature",
          "properties": {
            "id": "10794975487",
            "osm_type": "node",
            "lat": 48.404246,
            "lon": 12.0374976,
            "addr:city": "Kirchberg",
            "addr:country": "DE",
            "addr:housenumber": "6",
            "addr:postcode": "84434",
            "addr:street": "Kirchberg",
            "contact:website": "https://www.gaestehaus-picker.de",
            "name": "Gästehaus Picker",
            "tourism": "guest_house"
          },
          "geometry": {
            "type": "Point",
            "coordinates": [
              12.0374976,
              48.404246
            ]
          }
        },
        {
          "type": "Feature",
          "properties": {
            "id": "10963198003",
            "osm_type": "node",
            "lat": 48.5476664,
            "lon": 12.1111517,
            "addr:city": "Altdorf",
            "addr:country": "DE",
            "addr:housenumber": "7",
            "addr:postcode": "84032",
            "addr:street": "Äußere Parkstraße",
            "check_date": "2024-06-09",
            "guest_house": "apartment",
            "name": "Apartimo",
            "phone": "+49 871 97493116",
            "tourism": "guest_house",
            "website": "https://www.apartimo.de/apartimo-apartments-altdorf"
          },
          "geometry": {
            "type": "Point",
            "coordinates": [
              12.1111517,
              48.5476664
            ]
          }
        },
        {
          "type": "Feature",
          "properties": {
            "id": "12958910301",
            "osm_type": "node",
            "lat": 48.5315047,
            "lon": 12.1232955,
            "addr:housenumber": "140",
            "addr:street": "Klötzlmüllerstraße",
            "name": "Flüchtlingsheim der Stadt Landshut",
            "tourism": "hostel"
          },
          "geometry": {
            "type": "Point",
            "coordinates": [
              12.1232955,
              48.5315047
            ]
          }
        }
      ],
      "children": []
    },
    {
      "bbox": {
        "south": 48.355971499999995,
        "west": 12.392062499999998,
        "north": 48.68652475,
        "east": 13.345766
      },
      "poiCount": 28,
      "leafCount": 28,
      "averagePosition": [
        12.879343307142857,
        48.53944408571429
      ],
      "data": [
        {
          "type": "Feature",
          "properties": {
            "id": "370894944",
            "osm_type": "node",
            "lat": 48.5943703,
            "lon": 12.4747507,
            "check_date": "2024-09-24",
            "name": "Gasthaus Schermau",
            "tourism": "guest_house"
          },
          "geometry": {
            "type": "Point",
            "coordinates": [
              12.4747507,
              48.5943703
            ]
          }
        },
        {
          "type": "Feature",
          "properties": {
            "id": "370894990",
            "osm_type": "node",
            "lat": 48.5955347,
            "lon": 12.4825506,
            "name": "Gasthaus Wasserburger Frauenbiburg",
            "tourism": "guest_house"
          },
          "geometry": {
            "type": "Point",
            "coordinates": [
              12.4825506,
              48.5955347
            ]
          }
        },
        {
          "type": "Feature",
          "properties": {
            "id": "650401275",
            "osm_type": "node",
            "lat": 48.6257722,
            "lon": 12.489342,
            "name": "Hägele Stadtpension Gästehäuser",
            "tourism": "guest_house"
          },
          "geometry": {
            "type": "Point",
            "coordinates": [
              12.489342,
              48.6257722
            ]
          }
        },
        {
          "type": "Feature",
          "properties": {
            "id": "650425037",
            "osm_type": "node",
            "lat": 48.6259593,
            "lon": 12.4897378,
            "addr:city": "Dingolfing",
            "addr:country": "DE",
            "addr:housenumber": "33",
            "addr:postcode": "84130",
            "addr:street": "Krautaustraße",
            "name": "Pension Kupferkanne",
            "tourism": "guest_house",
            "website": "https://www.pension-kupferkanne.de/pension-dingolfing.html"
          },
          "geometry": {
            "type": "Point",
            "coordinates": [
              12.4897378,
              48.6259593
            ]
          }
        },
        {
          "type": "Feature",
          "properties": {
            "id": "2704427739",
            "osm_type": "node",
            "lat": 48.6278933,
            "lon": 12.5009134,
            "name": "Gasthaus \"Zum Lamm\"",
            "tourism": "guest_house"
          },
          "geometry": {
            "type": "Point",
            "coordinates": [
              12.5009134,
              48.6278933
            ]
          }
        },
        {
          "type": "Feature",
          "properties": {
            "id": "7939837394",
            "osm_type": "node",
            "lat": 48.5078537,
            "lon": 12.4307558,
            "addr:city": "Gerzen",
            "addr:country": "DE",
            "addr:housenumber": "41",
            "addr:postcode": "84175",
            "addr:street": "Frontenhausener Straße",
            "breakfast": "yes",
            "description": "Room from 28 €, double room from 70 € per night",
            "email": "gasthof-metzgerei-koeck@t-online.de",
            "guest_house": "bed_and_breakfast",
            "internet_access": "wlan",
            "name": "Köck",
            "phone": "+49 8744 96100",
            "tourism": "guest_house",
            "website": "http://www.gasthof-koeck.de/uebernachtung.html"
          },
          "geometry": {
            "type": "Point",
            "coordinates": [
              12.4307558,
              48.5078537
            ]
          }
        },
        {
          "type": "Feature",
          "properties": {
            "id": "12469002594",
            "osm_type": "node",
            "lat": 48.4493701,
            "lon": 12.397509,
            "contact:website": "https://www.landgasthof-maier.bayern/",
            "name": "Landgasthof Maier",
            "tourism": "guest_house"
          },
          "geometry": {
            "type": "Point",
            "coordinates": [
              12.397509,
              48.4493701
            ]
          }
        },
        {
          "type": "Feature",
          "properties": {
            "id": "687754922",
            "osm_type": "node",
            "lat": 48.6499921,
            "lon": 12.535641,
            "name": "Pension Roßmeier",
            "tourism": "guest_house"
          },
          "geometry": {
            "type": "Point",
            "coordinates": [
              12.535641,
              48.6499921
            ]
          }
        },
        {
          "type": "Feature",
          "properties": {
            "id": "1854251985",
            "osm_type": "node",
            "lat": 48.3933239,
            "lon": 12.7671538,
            "addr:city": "Eggenfelden",
            "addr:country": "DE",
            "addr:housenumber": "3",
            "addr:postcode": "84307",
            "addr:street": "Tiefstadt",
            "name": "Pension Alram-Hof",
            "tourism": "guest_house",
            "website": "https://www.alram.de/"
          },
          "geometry": {
            "type": "Point",
            "coordinates": [
              12.7671538,
              48.3933239
            ]
          }
        },
        {
          "type": "Feature",
          "properties": {
            "id": "2529234277",
            "osm_type": "node",
            "lat": 48.4585717,
            "lon": 12.8258071,
            "name": "Ferienhaus Sonnenschein",
            "tourism": "guest_house"
          },
          "geometry": {
            "type": "Point",
            "coordinates": [
              12.8258071,
              48.4585717
            ]
          }
        },
        {
          "type": "Feature",
          "properties": {
            "id": "4869876410",
            "osm_type": "node",
            "lat": 48.6118777,
            "lon": 13.007882,
            "contact:email": "info@gaestehaus-hoetzl.de",
            "contact:housenumber": "10",
            "contact:phone": "+49 8547 9158325",
            "contact:street": "Amsheimerstraße",
            "contact:website": "https://www.gaestehaus-hoetzl.de/index.html",
            "guest_house": "bed_and_breakfast",
            "internet_access": "wlan",
            "name": "Gästehaus Hötzl",
            "operator": "Hötzl Bettina",
            "tourism": "guest_house"
          },
          "geometry": {
            "type": "Point",
            "coordinates": [
              13.007882,
              48.6118777
            ]
          }
        },
        {
          "type": "Feature",
          "properties": {
            "id": "4911434645",
            "osm_type": "node",
            "lat": 48.4060322,
            "lon": 12.8834028,
            "addr:city": "Postmünster",
            "addr:housenumber": "1",
            "addr:place": "Hieb",
            "addr:postcode": "84389",
            "name": "Landgasthof Hasenberger",
            "tourism": "guest_house"
          },
          "geometry": {
            "type": "Point",
            "coordinates": [
              12.8834028,
              48.4060322
            ]
          }
        },
        {
          "type": "Feature",
          "properties": {
            "id": "4922235106",
            "osm_type": "node",
            "lat": 48.5692382,
            "lon": 12.7371656,
            "addr:city": "Simbach",
            "addr:housenumber": "11",
            "addr:postcode": "94436",
            "addr:street": "Arnstorfer Straße",
            "name": "Pension Ertl",
            "tourism": "guest_house"
          },
          "geometry": {
            "type": "Point",
            "coordinates": [
              12.7371656,
              48.5692382
            ]
          }
        },
        {
          "type": "Feature",
          "properties": {
            "id": "7829481985",
            "osm_type": "node",
            "lat": 48.5955179,
            "lon": 13.0024813,
            "addr:city": "Aldersbach",
            "addr:country": "DE",
            "addr:housenumber": "32",
            "addr:postcode": "94501",
            "addr:street": "Hauptstraße",
            "addr:suburb": "Pörndorf",
            "contact:facebook": "https://www.facebook.com/Poerndorf/",
            "name": "Gasthaus Zur Post",
            "operator": "Eduard Hötzl",
            "phone": "+49 8547 216",
            "tourism": "guest_house"
          },
          "geometry": {
            "type": "Point",
            "coordinates": [
              13.0024813,
              48.5955179
            ]
          }
        },
        {
          "type": "Feature",
          "properties": {
            "id": "9467647982",
            "osm_type": "node",
            "lat": 48.4802366,
            "lon": 12.5349058,
            "addr:city": "Gangkofen",
            "addr:country": "DE",
            "addr:housenumber": "1",
            "addr:place": "Wiesbach",
            "addr:postcode": "84140",
            "name": "Ferienhof Wiesbach",
            "tourism": "guest_house",
            "website": "https://www.ferienhof-wiesbach.de/"
          },
          "geometry": {
            "type": "Point",
            "coordinates": [
              12.5349058,
              48.4802366
            ]
          }
        },
        {
          "type": "Feature",
          "properties": {
            "id": "516794502",
            "osm_type": "node",
            "lat": 48.6317877,
            "lon": 13.1888777,
            "addr:city": "Vilshofen an der Donau",
            "addr:country": "DE",
            "addr:housenumber": "4",
            "addr:postcode": "94474",
            "addr:street": "Alte Fischergasse",
            "bettundbike": "yes",
            "email": "peter-sagerer@t-online.de",
            "internet_access": "wlan",
            "name": "Frühstücks- und Radler-Pension Sagerer",
            "phone": "+4985417779",
            "tourism": "guest_house",
            "website": "http://www.pension-sagerer.de/",
            "wheelchair": "no"
          },
          "geometry": {
            "type": "Point",
            "coordinates": [
              13.1888777,
              48.6317877
            ]
          }
        },
        {
          "type": "Feature",
          "properties": {
            "id": "2404075418",
            "osm_type": "node",
            "lat": 48.4668822,
            "lon": 13.2434624,
            "name": "Alte Mühle",
            "tourism": "guest_house"
          },
          "geometry": {
            "type": "Point",
            "coordinates": [
              13.2434624,
              48.4668822
            ]
          }
        },
        {
          "type": "Feature",
          "properties": {
            "id": "6572419177",
            "osm_type": "node",
            "lat": 48.6337278,
            "lon": 13.1864436,
            "name": "Gasthof Wolferstetter",
            "tourism": "guest_house"
          },
          "geometry": {
            "type": "Point",
            "coordinates": [
              13.1864436,
              48.6337278
            ]
          }
        },
        {
          "type": "Feature",
          "properties": {
            "id": "9176304411",
            "osm_type": "node",
            "lat": 48.5132384,
            "lon": 13.3024289,
            "addr:city": "Fürstenzell",
            "addr:country": "DE",
            "addr:housenumber": "3",
            "addr:postcode": "94081",
            "addr:street": "Pilzweg",
            "check_date": "2025-03-09",
            "internet_access": "wlan",
            "name": "DasFürstenzell",
            "tourism": "guest_house",
            "wheelchair": "no"
          },
          "geometry": {
            "type": "Point",
            "coordinates": [
              13.3024289,
              48.5132384
            ]
          }
        },
        {
          "type": "Feature",
          "properties": {
            "id": "11200140612",
            "osm_type": "node",
            "lat": 48.3945023,
            "lon": 13.3139967,
            "addr:city": "Pocking",
            "addr:country": "DE",
            "addr:housenumber": "5",
            "addr:postcode": "94060",
            "addr:street": "Haidzinger Straße",
            "name": "Hilde Menzel",
            "phone": "+49 8531 8185",
            "tourism": "guest_house"
          },
          "geometry": {
            "type": "Point",
            "coordinates": [
              13.3139967,
              48.3945023
            ]
          }
        },
        {
          "type": "Feature",
          "properties": {
            "id": "12201049993",
            "osm_type": "node",
            "lat": 48.4422617,
            "lon": 13.0864547,
            "name": "Pension an der Linde",
            "tourism": "guest_house"
          },
          "geometry": {
            "type": "Point",
            "coordinates": [
              13.0864547,
              48.4422617
            ]
          }
        },
        {
          "type": "Feature",
          "properties": {
            "id": "12201919659",
            "osm_type": "node",
            "lat": 48.4446748,
            "lon": 13.0909665,
            "name": "Landhaus Cornelia",
            "tourism": "guest_house"
          },
          "geometry": {
            "type": "Point",
            "coordinates": [
              13.0909665,
              48.4446748
            ]
          }
        },
        {
          "type": "Feature",
          "properties": {
            "id": "12202106579",
            "osm_type": "node",
            "lat": 48.4414322,
            "lon": 13.0788262,
            "name": "App. Viktoria",
            "tourism": "guest_house"
          },
          "geometry": {
            "type": "Point",
            "coordinates": [
              13.0788262,
              48.4414322
            ]
          }
        },
        {
          "type": "Feature",
          "properties": {
            "id": "12208512277",
            "osm_type": "node",
            "lat": 48.4422427,
            "lon": 13.0874062,
            "name": "Haus Antonia",
            "tourism": "guest_house"
          },
          "geometry": {
            "type": "Point",
            "coordinates": [
              13.0874062,
              48.4422427
            ]
          }
        },
        {
          "type": "Feature",
          "properties": {
            "id": "12250823752",
            "osm_type": "node",
            "lat": 48.6295709,
            "lon": 13.1758431,
            "email": "gaestehaus@schweiklberg.de",
            "name": "Gästehaus Schweiklberg",
            "phone": "+49 1512 9658924",
            "tourism": "guest_house",
            "website": "https://gaestehaus-schweiklberg.de"
          },
          "geometry": {
            "type": "Point",
            "coordinates": [
              13.1758431,
              48.6295709
            ]
          }
        },
        {
          "type": "Feature",
          "properties": {
            "id": "12604002905",
            "osm_type": "node",
            "lat": 48.6759876,
            "lon": 13.1626959,
            "name": "Pension Stanek",
            "tourism": "guest_house",
            "website": "http://www.pension-stanek.de/"
          },
          "geometry": {
            "type": "Point",
            "coordinates": [
              13.1626959,
              48.6759876
            ]
          }
        },
        {
          "type": "Feature",
          "properties": {
            "id": "12831814614",
            "osm_type": "node",
            "lat": 48.5682641,
            "lon": 13.0867513,
            "tourism": "guest_house"
          },
          "geometry": {
            "type": "Point",
            "coordinates": [
              13.0867513,
              48.5682641
            ]
          }
        },
        {
          "type": "Feature",
          "properties": {
            "id": "12841368748",
            "osm_type": "node",
            "lat": 48.6283181,
            "lon": 13.0574607,
            "addr:housenumber": "75a",
            "addr:street": "Untere Römerstraße",
            "breakfast": "yes",
            "contact:mobile": "+49 1705835700;+4915111549236",
            "contact:phone": "+49 8547 637",
            "contact:website": "https://miedlbaile.de/pension/",
            "name": "Pension Zur Miadl Baile",
            "tourism": "guest_house"
          },
          "geometry": {
            "type": "Point",
            "coordinates": [
              13.0574607,
              48.6283181
            ]
          }
        }
      ],
      "children": []
    },
    {
      "bbox": {
        "south": 48.68652475,
        "west": 11.438358999999998,
        "north": 49.017078,
        "east": 12.392062499999998
      },
      "poiCount": 29,
      "leafCount": 29,
      "averagePosition": [
        11.835470255172414,
        48.90219961724137
      ],
      "data": [
        {
          "type": "Feature",
          "properties": {
            "id": "294282133",
            "osm_type": "node",
            "lat": 48.7611591,
            "lon": 11.5223992,
            "addr:city": "Großmehring",
            "addr:country": "DE",
            "addr:housenumber": "51",
            "addr:postcode": "85098",
            "addr:street": "Nibelungenstraße",
            "name": "Gasthaus Delagera",
            "phone": "+49 8407 373",
            "tourism": "guest_house"
          },
          "geometry": {
            "type": "Point",
            "coordinates": [
              11.5223992,
              48.7611591
            ]
          }
        },
        {
          "type": "Feature",
          "properties": {
            "id": "5041399246",
            "osm_type": "node",
            "lat": 48.8506496,
            "lon": 11.4565072,
            "addr:city": "Stammham",
            "addr:country": "DE",
            "addr:housenumber": "2b",
            "addr:postcode": "85134",
            "addr:street": "Stadtweg",
            "internet_access": "wlan",
            "name": "Hotel/Pension Alex",
            "phone": "+49 8405 269 069",
            "tourism": "guest_house"
          },
          "geometry": {
            "type": "Point",
            "coordinates": [
              11.4565072,
              48.8506496
            ]
          }
        },
        {
          "type": "Feature",
          "properties": {
            "id": "13039929068",
            "osm_type": "node",
            "lat": 48.7722213,
            "lon": 11.4465237,
            "addr:city": "Ingolstadt",
            "addr:country": "DE",
            "addr:housenumber": "6",
            "addr:postcode": "85055",
            "addr:street": "Geibelstraße",
            "check_date": "2024-04-15",
            "contact:email": "info@gaestehaus-zurlinde.de",
            "internet_access": "wlan",
            "internet_access:fee": "yes",
            "name": "Gästehaus zur Linde",
            "payment:cash": "yes",
            "payment:credit_cards": "yes",
            "payment:debit_cards": "yes",
            "smoking": "no",
            "source": "survey",
            "tourism": "guest_house",
            "website": "http://www.zur-linde-ingolstadt.de/",
            "wheelchair": "no"
          },
          "geometry": {
            "type": "Point",
            "coordinates": [
              11.4465237,
              48.7722213
            ]
          }
        },
        {
          "type": "Feature",
          "properties": {
            "id": "469322963",
            "osm_type": "node",
            "lat": 48.8084299,
            "lon": 11.7634288,
            "addr:city": "Neustadt a.d.Donau",
            "addr:housenumber": "9",
            "addr:postcode": "93333",
            "addr:street": "Herzog-Ludwig-Straße",
            "name": "Gasthof Amtmann",
            "tourism": "guest_house",
            "website": "https://www.gasthof-amtmann.de/",
            "wheelchair": "no"
          },
          "geometry": {
            "type": "Point",
            "coordinates": [
              11.7634288,
              48.8084299
            ]
          }
        },
        {
          "type": "Feature",
          "properties": {
            "id": "1427645939",
            "osm_type": "node",
            "lat": 48.826433,
            "lon": 11.7798396,
            "name": "Pension Schneider",
            "tourism": "guest_house",
            "wheelchair": "no"
          },
          "geometry": {
            "type": "Point",
            "coordinates": [
              11.7798396,
              48.826433
            ]
          }
        },
        {
          "type": "Feature",
          "properties": {
            "id": "2255475405",
            "osm_type": "node",
            "lat": 48.8241746,
            "lon": 11.7829621,
            "addr:city": "Neustadt an der Donau",
            "addr:country": "DE",
            "addr:housenumber": "10",
            "addr:postcode": "93333",
            "addr:street": "Am Gries",
            "addr:suburb": "Bad Gögging",
            "email": "mail@atelier-kronauer.de",
            "internet_access": "wlan",
            "name": "Park-Pension Kronauer",
            "phone": "+49 (0) 9445 21414",
            "stars": "4",
            "tourism": "guest_house",
            "website": "https://www.atelier-kronauer.de/"
          },
          "geometry": {
            "type": "Point",
            "coordinates": [
              11.7829621,
              48.8241746
            ]
          }
        },
        {
          "type": "Feature",
          "properties": {
            "id": "3785773244",
            "osm_type": "node",
            "lat": 48.8089883,
            "lon": 11.6858878,
            "name": "Nine",
            "tourism": "guest_house"
          },
          "geometry": {
            "type": "Point",
            "coordinates": [
              11.6858878,
              48.8089883
            ]
          }
        },
        {
          "type": "Feature",
          "properties": {
            "id": "6203564140",
            "osm_type": "node",
            "lat": 48.8199833,
            "lon": 11.7850149,
            "addr:city": "Neustadt an der Donau",
            "addr:country": "DE",
            "addr:housenumber": "15",
            "addr:postcode": "93333",
            "addr:street": "Heiligenstädter Straße",
            "addr:suburb": "Bad Gögging",
            "internet_access": "wlan",
            "internet_access:fee": "no",
            "name": "Pension Haus Brigitte",
            "rooms": "10",
            "smoking": "outside",
            "tourism": "guest_house",
            "website": "https://www.fewo-haus-brigitte.de/"
          },
          "geometry": {
            "type": "Point",
            "coordinates": [
              11.7850149,
              48.8199833
            ]
          }
        },
        {
          "type": "Feature",
          "properties": {
            "id": "7248313569",
            "osm_type": "node",
            "lat": 48.8195418,
            "lon": 11.7861628,
            "internet_access": "yes",
            "internet_access:fee": "yes",
            "name": "Pension Marcus",
            "payment:cash": "yes",
            "payment:girocard": "yes",
            "phone": "+49 9445 956 10",
            "tourism": "guest_house",
            "website": "https://www.pension-marcus.de/"
          },
          "geometry": {
            "type": "Point",
            "coordinates": [
              11.7861628,
              48.8195418
            ]
          }
        },
        {
          "type": "Feature",
          "properties": {
            "id": "4460422953",
            "osm_type": "node",
            "lat": 48.7001893,
            "lon": 12.3604179,
            "amenity": "animal_boarding",
            "animal_boarding": "horse",
            "name": "Widum",
            "tourism": "guest_house",
            "website": "http://widum.net/"
          },
          "geometry": {
            "type": "Point",
            "coordinates": [
              12.3604179,
              48.7001893
            ]
          }
        },
        {
          "type": "Feature",
          "properties": {
            "id": "2516450384",
            "osm_type": "node",
            "lat": 48.9409413,
            "lon": 11.4728696,
            "addr:city": "Denkendorf",
            "addr:country": "DE",
            "addr:housenumber": "9",
            "addr:postcode": "85095",
            "addr:street": "Riedenburger Straße",
            "name": "Pension Jura-Cafe",
            "tourism": "guest_house",
            "website": "https://www.pension-juracafe.de/"
          },
          "geometry": {
            "type": "Point",
            "coordinates": [
              11.4728696,
              48.9409413
            ]
          }
        },
        {
          "type": "Feature",
          "properties": {
            "id": "8269982074",
            "osm_type": "node",
            "lat": 49.015952,
            "lon": 11.5189242,
            "addr:housenumber": "2",
            "addr:street": "Im Hub",
            "email": "info@pensionhackbarth.de",
            "fax": "+49 8461 705 150",
            "name": "Hackbarth",
            "phone": "+49 8461 1436",
            "tourism": "guest_house",
            "website": "http://joomla.pensionhackbarth.de/"
          },
          "geometry": {
            "type": "Point",
            "coordinates": [
              11.5189242,
              49.015952
            ]
          }
        },
        {
          "type": "Feature",
          "properties": {
            "id": "448169131",
            "osm_type": "node",
            "lat": 48.916877,
            "lon": 11.8641101,
            "addr:city": "Kelheim",
            "addr:country": "DE",
            "addr:housenumber": "30",
            "addr:postcode": "93309",
            "addr:street": "Fischergasse",
            "contact:email": "info@gasthaus-zum-schwan.com",
            "contact:fax": "+49 9441 29298; +49 9441 176163",
            "contact:phone": "+49 9441 29298",
            "contact:website": "http://www.gasthaus-zum-schwan.com/",
            "name": "Gasthaus zum Schwan",
            "operator": "Notburga Aumer",
            "rooms": "11",
            "source": "http://www.gasthaus-zum-schwan.com/",
            "source:date": "2016-06-13",
            "tourism": "guest_house",
            "wikidata": "Q41310192"
          },
          "geometry": {
            "type": "Point",
            "coordinates": [
              11.8641101,
              48.916877
            ]
          }
        },
        {
          "type": "Feature",
          "properties": {
            "id": "563834703",
            "osm_type": "node",
            "lat": 49.0109411,
            "lon": 11.9640915,
            "addr:city": "Nittendorf",
            "addr:country": "DE",
            "addr:housenumber": "18",
            "addr:postcode": "93152",
            "addr:street": "Alpinenstraße",
            "addr:suburb": "Schönhofen",
            "name": "Naturfreundehaus Alpiner Steig",
            "operator": "NaturFreunde Deutschland",
            "ref": "N 045",
            "source": "Datenspende der NaturFreunde Deutschland",
            "tourism": "hostel",
            "website": "https://www.naturfreunde-regensburg.de/unsere-häuser/alpiner-steig/"
          },
          "geometry": {
            "type": "Point",
            "coordinates": [
              11.9640915,
              49.0109411
            ]
          }
        },
        {
          "type": "Feature",
          "properties": {
            "id": "1764445980",
            "osm_type": "node",
            "lat": 48.9385519,
            "lon": 11.7849874,
            "addr:city": "Essing",
            "addr:housenumber": "7",
            "addr:postcode": "93343",
            "addr:street": "Eisenbrünnerl",
            "email": "info@essing-gaestehaus-regenbogen.de",
            "fax": "+49 9447 991760",
            "name": "Gästehaus Regenbogen",
            "operator": "Werner Nowy",
            "phone": "+49 9447 9911105",
            "source:date": "2016-06-13",
            "tourism": "guest_house"
          },
          "geometry": {
            "type": "Point",
            "coordinates": [
              11.7849874,
              48.9385519
            ]
          }
        },
        {
          "type": "Feature",
          "properties": {
            "id": "3674398791",
            "osm_type": "node",
            "lat": 48.9416272,
            "lon": 11.7694785,
            "addr:city": "Essing",
            "addr:housenumber": "1",
            "addr:postcode": "93343",
            "addr:street": "Felsenhäusl",
            "beds": "29",
            "contact:fax": "+49 9447 991678",
            "contact:phone": "+49 9447 565",
            "name": "Pension Felsenhäusl",
            "operator": "Hermann Schäffer",
            "tourism": "guest_house"
          },
          "geometry": {
            "type": "Point",
            "coordinates": [
              11.7694785,
              48.9416272
            ]
          }
        },
        {
          "type": "Feature",
          "properties": {
            "id": "4218013765",
            "osm_type": "node",
            "lat": 48.961874,
            "lon": 11.6820115,
            "tourism": "guest_house"
          },
          "geometry": {
            "type": "Point",
            "coordinates": [
              11.6820115,
              48.961874
            ]
          }
        },
        {
          "type": "Feature",
          "properties": {
            "id": "4394713769",
            "osm_type": "node",
            "lat": 48.8914971,
            "lon": 11.8295653,
            "addr:city": "Kelheim",
            "addr:country": "DE",
            "addr:housenumber": "10",
            "addr:postcode": "93309",
            "addr:street": "Auf der Weiss",
            "name": "Probst",
            "tourism": "guest_house"
          },
          "geometry": {
            "type": "Point",
            "coordinates": [
              11.8295653,
              48.8914971
            ]
          }
        },
        {
          "type": "Feature",
          "properties": {
            "id": "4907459806",
            "osm_type": "node",
            "lat": 48.9186705,
            "lon": 11.8734778,
            "addr:city": "Kelheim",
            "addr:housenumber": "2",
            "addr:street": "Benifiziatengasse",
            "name": "Anita's Altstadt Pension",
            "smoking": "no",
            "tourism": "guest_house",
            "wheelchair": "no"
          },
          "geometry": {
            "type": "Point",
            "coordinates": [
              11.8734778,
              48.9186705
            ]
          }
        },
        {
          "type": "Feature",
          "properties": {
            "id": "5115382822",
            "osm_type": "node",
            "lat": 48.9498913,
            "lon": 12.0131401,
            "name": "Gästehaus Lodermeier",
            "tourism": "guest_house",
            "website": "https://www.gaestehaus-lodermeier.de/"
          },
          "geometry": {
            "type": "Point",
            "coordinates": [
              12.0131401,
              48.9498913
            ]
          }
        },
        {
          "type": "Feature",
          "properties": {
            "id": "5115382823",
            "osm_type": "node",
            "lat": 48.9483153,
            "lon": 12.0166682,
            "beds": "8",
            "check_date": "2024-12-11",
            "fax": "+49 9405 957356",
            "internet_access": "wlan",
            "internet_access:fee": "no",
            "name": "Pension Schröppel",
            "operator": "Fanny & Lois Schröppel",
            "phone": "+49 9408 957808",
            "rooms": "4",
            "source": "http://www.pensionschroeppel.de/",
            "source:date": "2016-06-17",
            "tourism": "guest_house",
            "website": "http://www.pensionschroeppel.de/"
          },
          "geometry": {
            "type": "Point",
            "coordinates": [
              12.0166682,
              48.9483153
            ]
          }
        },
        {
          "type": "Feature",
          "properties": {
            "id": "6702774020",
            "osm_type": "node",
            "lat": 48.93506,
            "lon": 11.7894329,
            "addr:city": "Essing",
            "addr:country": "DE",
            "addr:housenumber": "19",
            "addr:postcode": "93343",
            "addr:street": "Unterer Markt",
            "check_date": "2024-09-08",
            "contact:email": "gasthof-felsenwastlwirt@gmx.de",
            "contact:fax": "+49 9447 920966",
            "contact:phone": "+49 9447 362",
            "contact:website": "http://www.gasthof-felsenwastlwirt.de",
            "last_check": "2019-08-12",
            "name": "Felsenwastlwirt",
            "note": "Übernachtung mit Frühstück, Zuschlag auf Halbpension, Vollpension auf Anfrage.",
            "operator": "Monika Weismann",
            "smoking": "outside",
            "tourism": "guest_house"
          },
          "geometry": {
            "type": "Point",
            "coordinates": [
              11.7894329,
              48.93506
            ]
          }
        },
        {
          "type": "Feature",
          "properties": {
            "id": "6860849985",
            "osm_type": "node",
            "lat": 48.9619508,
            "lon": 11.6824275,
            "addr:city": "Riedenburg",
            "addr:country": "DE",
            "addr:housenumber": "6",
            "addr:postcode": "93339",
            "addr:street": "Hans-Wolf-Gasse",
            "email": "kontakt@ferien-ferstl.de",
            "internet_access": "wlan",
            "name": "Pension Ferstl",
            "opening_hours": "24/7",
            "phone": "+491608064381",
            "tourism": "hostel",
            "website": "http://ferien-ferstl.de"
          },
          "geometry": {
            "type": "Point",
            "coordinates": [
              11.6824275,
              48.9619508
            ]
          }
        },
        {
          "type": "Feature",
          "properties": {
            "id": "12060243933",
            "osm_type": "node",
            "lat": 48.91805,
            "lon": 11.8733869,
            "addr:city": "Kelheim",
            "addr:country": "DE",
            "addr:housenumber": "11",
            "addr:postcode": "93309",
            "addr:street": "Ludwigsplatz",
            "balcony": "no",
            "breakfast": "yes",
            "email": "info@altstadtpension-dietz.de",
            "internet_access": "yes",
            "internet_access:fee": "customers",
            "name": "Altstadtpension Dietz",
            "operator": "Walter und Gertrud Denk",
            "phone": "+49 94 412444",
            "rooms": "10",
            "tourism": "guest_house",
            "website": "https://www.altstadtpension-dietz.de"
          },
          "geometry": {
            "type": "Point",
            "coordinates": [
              11.8733869,
              48.91805
            ]
          }
        },
        {
          "type": "Feature",
          "properties": {
            "id": "542560609",
            "osm_type": "node",
            "lat": 49.0156657,
            "lon": 12.0978558,
            "addr:city": "Regensburg",
            "addr:housenumber": "12",
            "addr:street": "Fröhliche-Türken-Straße",
            "check_date": "2025-05-26",
            "fax": "+49 941 54542",
            "internet_access": "wlan",
            "internet_access:fee": "no",
            "name": "Hotel am Peterstor",
            "opening_hours:reception": "Mo-Fr 07:00-22:00; Sa, Su, PH 07:00-21:00",
            "phone": "+49 941 54545",
            "stars": "3",
            "tourism": "guest_house",
            "website": "https://www.hotel-am-peterstor.de/",
            "wheelchair": "no"
          },
          "geometry": {
            "type": "Point",
            "coordinates": [
              12.0978558,
              49.0156657
            ]
          }
        },
        {
          "type": "Feature",
          "properties": {
            "id": "944216149",
            "osm_type": "node",
            "lat": 48.931432,
            "lon": 12.0340576,
            "addr:city": "Bad Abbach",
            "addr:country": "DE",
            "addr:housenumber": "54",
            "addr:postcode": "93077",
            "addr:street": "Kaiser-Karl-V.-Allee",
            "contact:phone": "+49 9405 2423",
            "name": "Pension Hermann",
            "tourism": "guest_house"
          },
          "geometry": {
            "type": "Point",
            "coordinates": [
              12.0340576,
              48.931432
            ]
          }
        },
        {
          "type": "Feature",
          "properties": {
            "id": "1022740174",
            "osm_type": "node",
            "lat": 48.962387,
            "lon": 12.1513238,
            "name": "Pension Stadler",
            "tourism": "guest_house"
          },
          "geometry": {
            "type": "Point",
            "coordinates": [
              12.1513238,
              48.962387
            ]
          }
        },
        {
          "type": "Feature",
          "properties": {
            "id": "9100208917",
            "osm_type": "node",
            "lat": 49.0066987,
            "lon": 12.1253133,
            "tourism": "hostel"
          },
          "geometry": {
            "type": "Point",
            "coordinates": [
              12.1253133,
              49.0066987
            ]
          }
        },
        {
          "type": "Feature",
          "properties": {
            "id": "12090185886",
            "osm_type": "node",
            "lat": 49.0056358,
            "lon": 12.3163714,
            "addr:city": "Barbing",
            "addr:housenumber": "9",
            "addr:postcode": "93092",
            "addr:street": "Burgstraße",
            "guest_house": "guest_house",
            "name": "Gästehaus \"Zum Burgstall\"",
            "tourism": "guest_house",
            "website": "https://zumburgstall.jimdofree.com/"
          },
          "geometry": {
            "type": "Point",
            "coordinates": [
              12.3163714,
              49.0056358
            ]
          }
        }
      ],
      "children": []
    },
    {
      "bbox": {
        "south": 48.68652475,
        "west": 12.392062499999998,
        "north": 49.017078,
        "east": 13.345766
      },
      "poiCount": 51,
      "leafCount": 0,
      "averagePosition": [
        13.029213205882353,
        48.882297203921574
      ],
      "data": [],
      "children": [
        {
          "bbox": {
            "south": 48.68652475,
            "west": 12.392062499999998,
            "north": 48.851801374999994,
            "east": 12.86891425
          },
          "poiCount": 2,
          "leafCount": 2,
          "averagePosition": [
            12.73214545,
            48.739284049999995
          ],
          "data": [
            {
              "type": "Feature",
              "properties": {
                "id": "1731261086",
                "osm_type": "node",
                "lat": 48.6999247,
                "lon": 12.6007833,
                "tourism": "guest_house"
              },
              "geometry": {
                "type": "Point",
                "coordinates": [
                  12.6007833,
                  48.6999247
                ]
              }
            },
            {
              "type": "Feature",
              "properties": {
                "id": "13008361703",
                "osm_type": "node",
                "lat": 48.7786434,
                "lon": 12.8635076,
                "addr:city": "Plattling",
                "addr:housenumber": "13",
                "addr:postcode": "94447",
                "addr:street": "Bahnhofplatz",
                "contact:email": "info@vila-belaggio.de",
                "contact:phone": "+49 9931 66 37",
                "contact:website": "https://www.vila-belaggio.de/",
                "name": "villa belaggio",
                "operator": "Angelika Stangl",
                "tourism": "guest_house"
              },
              "geometry": {
                "type": "Point",
                "coordinates": [
                  12.8635076,
                  48.7786434
                ]
              }
            }
          ],
          "children": []
        },
        {
          "bbox": {
            "south": 48.68652475,
            "west": 12.86891425,
            "north": 48.851801374999994,
            "east": 13.345766
          },
          "poiCount": 19,
          "leafCount": 19,
          "averagePosition": [
            13.122331642105264,
            48.80016912105263
          ],
          "data": [
            {
              "type": "Feature",
              "properties": {
                "id": "5457395112",
                "osm_type": "node",
                "lat": 48.7659344,
                "lon": 13.0228136,
                "addr:city": "Niederalteich",
                "addr:country": "DE",
                "addr:housenumber": "8",
                "addr:postcode": "94557",
                "addr:street": "Damianstraße",
                "name": "Ferienwohnung Denk",
                "phone": "+49 151 22557989",
                "source": "http://www.niederalteich.de/",
                "tourism": "guest_house",
                "website": "https://www.traum-ferien-bayern.de/"
              },
              "geometry": {
                "type": "Point",
                "coordinates": [
                  13.0228136,
                  48.7659344
                ]
              }
            },
            {
              "type": "Feature",
              "properties": {
                "id": "5457406234",
                "osm_type": "node",
                "lat": 48.7620288,
                "lon": 13.0283281,
                "addr:city": "Niederalteich",
                "addr:country": "DE",
                "addr:housenumber": "30",
                "addr:postcode": "94557",
                "addr:street": "Gundelauer Straße",
                "name": "Pension Holzer",
                "operator": "Sieglinde Holzer",
                "phone": "+49 9901 200551",
                "source": "http://www.niederalteich.de/",
                "tourism": "guest_house"
              },
              "geometry": {
                "type": "Point",
                "coordinates": [
                  13.0283281,
                  48.7620288
                ]
              }
            },
            {
              "type": "Feature",
              "properties": {
                "id": "5457409931",
                "osm_type": "node",
                "lat": 48.7643931,
                "lon": 13.0229838,
                "addr:city": "Niederalteich",
                "addr:country": "DE",
                "addr:housenumber": "7",
                "addr:postcode": "94557",
                "addr:street": "Donaustraße",
                "email": "KainzReinhard@aol.com",
                "name": "Pension Kainz",
                "phone": "+49 170 9074027",
                "source": "http://www.niederalteich.de/",
                "tourism": "guest_house"
              },
              "geometry": {
                "type": "Point",
                "coordinates": [
                  13.0229838,
                  48.7643931
                ]
              }
            },
            {
              "type": "Feature",
              "properties": {
                "id": "5457411770",
                "osm_type": "node",
                "lat": 48.7617605,
                "lon": 13.0274745,
                "addr:city": "Niederalteich",
                "addr:country": "DE",
                "addr:housenumber": "5",
                "addr:postcode": "94557",
                "addr:street": "Odilostraße",
                "email": "MaritaMayrhofer@yahoo.de",
                "name": "Pension Mayrhofer",
                "operator": "Marita Mayrhofer",
                "phone": "+49 9901 1265",
                "source": "http://www.niederalteich.de/",
                "tourism": "guest_house",
                "website": "https://www.maritamayrhofer.com/"
              },
              "geometry": {
                "type": "Point",
                "coordinates": [
                  13.0274745,
                  48.7617605
                ]
              }
            },
            {
              "type": "Feature",
              "properties": {
                "id": "5457435337",
                "osm_type": "node",
                "lat": 48.76441,
                "lon": 13.0218141,
                "addr:city": "Niederalteich",
                "addr:country": "DE",
                "addr:housenumber": "14a",
                "addr:postcode": "94557",
                "addr:street": "Donaustraße",
                "email": "info@pension-zum-glueck.de",
                "name": "Pension \"Zum Glück\"",
                "operator": "Köhler",
                "phone": "+49 151 43246307",
                "source": "http://www.niederalteich.de/",
                "tourism": "guest_house",
                "website": "http://www.pension-zum-glueck.de/"
              },
              "geometry": {
                "type": "Point",
                "coordinates": [
                  13.0218141,
                  48.76441
                ]
              }
            },
            {
              "type": "Feature",
              "properties": {
                "id": "5457437195",
                "osm_type": "node",
                "lat": 48.7652135,
                "lon": 13.0245892,
                "addr:city": "Niederalteich",
                "addr:country": "DE",
                "addr:housenumber": "1",
                "addr:postcode": "94557",
                "addr:street": "Gundelauer Straße",
                "email": "pension@stattenberger.de",
                "fax": "+49 9901 6083",
                "name": "Pension Stattenberger",
                "operator": "Marlene Stattenberger",
                "phone": "+49 9901 5994",
                "tourism": "guest_house",
                "website": "https://www.stattenberger.de/"
              },
              "geometry": {
                "type": "Point",
                "coordinates": [
                  13.0245892,
                  48.7652135
                ]
              }
            },
            {
              "type": "Feature",
              "properties": {
                "id": "8281636950",
                "osm_type": "node",
                "lat": 48.8248408,
                "lon": 12.9648996,
                "addr:city": "Deggendorf",
                "addr:housenumber": "18",
                "addr:postcode": "94469",
                "addr:street": "Hafenstraße",
                "contact:email": "ppielmeier@hotmail.de",
                "contact:mobile": "+49 160 99113484",
                "contact:website": "http://www.pension-pielmeier.de/",
                "description": "Von dieser günstig gelegenen Pension aus erreichen Sie die Deggendorfer Innenstadt, die Deggendorfer Stadthallen und das Gelände der Fachhochschule Deggendorf innerhalb weniger Minuten zu Fuß.",
                "name": "Pension Pielmeier",
                "operator": "Petra Pielmeier",
                "tourism": "guest_house"
              },
              "geometry": {
                "type": "Point",
                "coordinates": [
                  12.9648996,
                  48.8248408
                ]
              }
            },
            {
              "type": "Feature",
              "properties": {
                "id": "8436013127",
                "osm_type": "node",
                "lat": 48.8341412,
                "lon": 13.0261912,
                "addr:city": "Schaufling",
                "addr:housenumber": "2b",
                "addr:place": "Schützing",
                "addr:postcode": "94571",
                "contact:email": "fewo.gawlik@mailbox.org",
                "contact:phone": "+49151235 00 248",
                "guest_house": "apartment",
                "name": "Ferienwohnung Gawlik",
                "operator": "Christoph Gawlik",
                "tourism": "guest_house",
                "website": "https://www.ferienwohnung-gawlik.de/"
              },
              "geometry": {
                "type": "Point",
                "coordinates": [
                  13.0261912,
                  48.8341412
                ]
              }
            },
            {
              "type": "Feature",
              "properties": {
                "id": "10202072198",
                "osm_type": "node",
                "lat": 48.8485161,
                "lon": 12.9569222,
                "addr:housenumber": "13",
                "addr:street": "Trat",
                "amenity": "social_facility",
                "beds": "86",
                "breakfast": "yes",
                "contact:email": "JWH-DEG@kjsw.de;yvonne.ebner@kjsw.de",
                "contact:phone": "+49991 25008 37",
                "contact:website": "https://www.kjsw-landshut.de/jugendwohnheim-deggendorf.php",
                "name": "Jugendwohnheim Deggendorf",
                "operator": "Katholisches Jugendsozialwerk München e.V.",
                "reservation": "yes",
                "social_facility": "group_home",
                "social_facility:for": "juvenile;pupils",
                "tourism": "hostel"
              },
              "geometry": {
                "type": "Point",
                "coordinates": [
                  12.9569222,
                  48.8485161
                ]
              }
            },
            {
              "type": "Feature",
              "properties": {
                "id": "11046054844",
                "osm_type": "node",
                "lat": 48.8240697,
                "lon": 12.9117608,
                "addr:housenumber": "6",
                "addr:street": "Burgweg",
                "contact:email": "traudl.bornschlegl@web.de;info@hotel-burgwirt.de",
                "contact:phone": "+4999198819331",
                "contact:website": "https://www.gaestehaus-am-burgweg.de/",
                "name": "Gästehaus am Burgweg",
                "operator": "Edeltraud Bornschlegl",
                "tourism": "guest_house"
              },
              "geometry": {
                "type": "Point",
                "coordinates": [
                  12.9117608,
                  48.8240697
                ]
              }
            },
            {
              "type": "Feature",
              "properties": {
                "id": "1328840122",
                "osm_type": "node",
                "lat": 48.838473,
                "lon": 13.3235303,
                "name": "Pension Hoisl",
                "tourism": "guest_house"
              },
              "geometry": {
                "type": "Point",
                "coordinates": [
                  13.3235303,
                  48.838473
                ]
              }
            },
            {
              "type": "Feature",
              "properties": {
                "id": "2529079473",
                "osm_type": "node",
                "lat": 48.7867229,
                "lon": 13.2183921,
                "leisure": "horse_riding",
                "name": "Reiterhof Habereder",
                "tourism": "guest_house",
                "website": "https://www.reiterhof-habereder.de/"
              },
              "geometry": {
                "type": "Point",
                "coordinates": [
                  13.2183921,
                  48.7867229
                ]
              }
            },
            {
              "type": "Feature",
              "properties": {
                "id": "5708464502",
                "osm_type": "node",
                "lat": 48.8450556,
                "lon": 13.3327753,
                "name": "Pension Schwammerl",
                "tourism": "guest_house"
              },
              "geometry": {
                "type": "Point",
                "coordinates": [
                  13.3327753,
                  48.8450556
                ]
              }
            },
            {
              "type": "Feature",
              "properties": {
                "id": "6679858666",
                "osm_type": "node",
                "lat": 48.8078314,
                "lon": 13.2173742,
                "addr:housenumber": "24",
                "addr:street": "Ölberg",
                "name": "Gästehaus Jodlbauer",
                "tourism": "guest_house"
              },
              "geometry": {
                "type": "Point",
                "coordinates": [
                  13.2173742,
                  48.8078314
                ]
              }
            },
            {
              "type": "Feature",
              "properties": {
                "id": "7252287904",
                "osm_type": "node",
                "lat": 48.8260217,
                "lon": 13.2022809,
                "addr:city": "Schöfweg",
                "addr:housenumber": "60",
                "addr:postcode": "94572",
                "addr:street": "Langfurth",
                "guest_house": "guest_house",
                "name": "Panorama-Landgasthof Ranzinger",
                "phone": "+49 9908 265",
                "sauna": "yes",
                "tourism": "guest_house",
                "website": "https://www.hotel-ranzinger.de/"
              },
              "geometry": {
                "type": "Point",
                "coordinates": [
                  13.2022809,
                  48.8260217
                ]
              }
            },
            {
              "type": "Feature",
              "properties": {
                "id": "7506881662",
                "osm_type": "node",
                "lat": 48.7193605,
                "lon": 13.3289359,
                "beds": "6",
                "name": "Gasthaus Kerber",
                "operator": "Simon Wagner",
                "rooms": "18",
                "tourism": "guest_house",
                "website": "http://www.pension-kerber.de/pension.html"
              },
              "geometry": {
                "type": "Point",
                "coordinates": [
                  13.3289359,
                  48.7193605
                ]
              }
            },
            {
              "type": "Feature",
              "properties": {
                "id": "9910066022",
                "osm_type": "node",
                "lat": 48.8401431,
                "lon": 13.2296138,
                "addr:city": "Schöfweg",
                "addr:housenumber": "3",
                "addr:postcode": "94572",
                "addr:street": "Sonnenwaldstraße",
                "contact:email": "info@zum-sonnenwald.de",
                "contact:phone": "+49 9908 275",
                "contact:website": "https://www.zum-sonnenwald.de/de/freizeit.html",
                "name": "Zum Sonnenwald",
                "opening_hours": "Mo-Tu,Th-Su 11:30-14:00,17:00-23:00",
                "tourism": "guest_house"
              },
              "geometry": {
                "type": "Point",
                "coordinates": [
                  13.2296138,
                  48.8401431
                ]
              }
            },
            {
              "type": "Feature",
              "properties": {
                "id": "9935516129",
                "osm_type": "node",
                "lat": 48.8116006,
                "lon": 13.2320786,
                "internet_access": "wlan",
                "internet_access:fee": "no",
                "name": "Ferienhaus Köster",
                "phone": "+49 9907 89096",
                "smoking": "no",
                "tourism": "guest_house",
                "website": "http://ferienhaus-koester.de/",
                "wheelchair": "no"
              },
              "geometry": {
                "type": "Point",
                "coordinates": [
                  13.2320786,
                  48.8116006
                ]
              }
            },
            {
              "type": "Feature",
              "properties": {
                "id": "9935516130",
                "osm_type": "node",
                "lat": 48.8126964,
                "lon": 13.231543,
                "email": "ehrnboeck@pension-hausamhang.de",
                "guest_house": "bed_and_breakfast",
                "name": "Pension Haus am Hang",
                "phone": "+49 9907 263",
                "tourism": "guest_house",
                "website": "https://www.pension-hausamhang.de"
              },
              "geometry": {
                "type": "Point",
                "coordinates": [
                  13.231543,
                  48.8126964
                ]
              }
            }
          ],
          "children": []
        },
        {
          "bbox": {
            "south": 48.851801374999994,
            "west": 12.392062499999998,
            "north": 49.017078,
            "east": 12.86891425
          },
          "poiCount": 10,
          "leafCount": 10,
          "averagePosition": [
            12.70499997,
            48.92106117
          ],
          "data": [
            {
              "type": "Feature",
              "properties": {
                "id": "535696450",
                "osm_type": "node",
                "lat": 48.914642,
                "lon": 12.742246,
                "name": "Gasthof Primbs",
                "tourism": "guest_house"
              },
              "geometry": {
                "type": "Point",
                "coordinates": [
                  12.742246,
                  48.914642
                ]
              }
            },
            {
              "type": "Feature",
              "properties": {
                "id": "535708767",
                "osm_type": "node",
                "lat": 48.9152551,
                "lon": 12.7615383,
                "name": "Gasthof Greindl",
                "note": "auf der Homepage keine Angaben zu Gästezimmern",
                "tourism": "guest_house",
                "website": "https://www.gasthaus-greindl.de"
              },
              "geometry": {
                "type": "Point",
                "coordinates": [
                  12.7615383,
                  48.9152551
                ]
              }
            },
            {
              "type": "Feature",
              "properties": {
                "id": "537007937",
                "osm_type": "node",
                "lat": 48.9603095,
                "lon": 12.8056858,
                "name": "Gasthof Steininger",
                "tourism": "guest_house"
              },
              "geometry": {
                "type": "Point",
                "coordinates": [
                  12.8056858,
                  48.9603095
                ]
              }
            },
            {
              "type": "Feature",
              "properties": {
                "id": "956810534",
                "osm_type": "node",
                "lat": 49.0128832,
                "lon": 12.6076902,
                "addr:city": "Falkenfels",
                "addr:country": "DE",
                "addr:housenumber": "7",
                "addr:postcode": "94350",
                "addr:street": "Riederszell",
                "designation": "Pension & Ferienwohnung Hilmer",
                "guest_house": "pension",
                "internet_access": "wlan",
                "name": "Pension & Ferienwohnung Hilmer",
                "smoking": "outside",
                "tourism": "guest_house"
              },
              "geometry": {
                "type": "Point",
                "coordinates": [
                  12.6076902,
                  49.0128832
                ]
              }
            },
            {
              "type": "Feature",
              "properties": {
                "id": "1452892809",
                "osm_type": "node",
                "lat": 48.8992161,
                "lon": 12.7253355,
                "name": "Pension Familie Eberth",
                "tourism": "guest_house",
                "url": "http://www.pension-eberth.de/"
              },
              "geometry": {
                "type": "Point",
                "coordinates": [
                  12.7253355,
                  48.8992161
                ]
              }
            },
            {
              "type": "Feature",
              "properties": {
                "id": "1853231943",
                "osm_type": "node",
                "lat": 48.8941162,
                "lon": 12.5601821,
                "addr:city": "Straubing",
                "addr:country": "DE",
                "addr:housenumber": "3",
                "addr:postcode": "94315",
                "addr:street": "Ringstraße",
                "email": "familie.pfluegl@gmx.de",
                "name": "Max Pflügl",
                "tourism": "guest_house",
                "website": "http://www.private-uebernachtung-straubing.de/"
              },
              "geometry": {
                "type": "Point",
                "coordinates": [
                  12.5601821,
                  48.8941162
                ]
              }
            },
            {
              "type": "Feature",
              "properties": {
                "id": "2566771661",
                "osm_type": "node",
                "lat": 48.9075525,
                "lon": 12.6932514,
                "addr:city": "Bogen",
                "addr:country": "DE",
                "addr:housenumber": "23",
                "addr:postcode": "94327",
                "addr:street": "Stadtplatz",
                "internet_access": "wlan",
                "name": "Pension Schreiber",
                "tourism": "guest_house",
                "website": "https://www.pension-schreiber.com/"
              },
              "geometry": {
                "type": "Point",
                "coordinates": [
                  12.6932514,
                  48.9075525
                ]
              }
            },
            {
              "type": "Feature",
              "properties": {
                "id": "3673897627",
                "osm_type": "node",
                "lat": 48.8816584,
                "lon": 12.7444775,
                "addr:housenumber": "23",
                "addr:place": "Pfelling",
                "bettundbike": "yes",
                "contact:email": "info@zumdonauufer.de",
                "contact:phone": "+49 9422 2306",
                "contact:website": "https://www.zumdonauufer.de/",
                "name": "Zum Donauufer",
                "operator": "Familie Fleischmann",
                "tourism": "guest_house"
              },
              "geometry": {
                "type": "Point",
                "coordinates": [
                  12.7444775,
                  48.8816584
                ]
              }
            },
            {
              "type": "Feature",
              "properties": {
                "id": "4982225824",
                "osm_type": "node",
                "lat": 48.9142338,
                "lon": 12.7228281,
                "addr:city": "Bogen",
                "addr:country": "DE",
                "addr:housenumber": "7",
                "addr:postcode": "94327",
                "addr:street": "Bärndorf",
                "contact:email": "office@landgasthof-wurm.de",
                "contact:facebook": "https://fb.com/LandgasthofWurm",
                "contact:fax": "+49 9422 807 005",
                "contact:phone": "+49 9422 2137",
                "contact:website": "https://landgasthof-wurm.de/",
                "guest_house": "pension",
                "internet_access": "yes",
                "name": "Pension Wurm",
                "operator": "Familie Wurm",
                "rooms": "15",
                "tourism": "guest_house"
              },
              "geometry": {
                "type": "Point",
                "coordinates": [
                  12.7228281,
                  48.9142338
                ]
              }
            },
            {
              "type": "Feature",
              "properties": {
                "id": "10860852168",
                "osm_type": "node",
                "lat": 48.9107449,
                "lon": 12.6867648,
                "beds": "12",
                "breakfast": "no",
                "contact:mobile": "+49 176 21818783",
                "contact:phone": "+49 9422 808855;+499422 805 282",
                "contact:website": "https://bahnwaggon-bogen.obsg.de/",
                "description": "Übernachtung im nostalgischen Bahnwaggon, maximale Schlafplatz Möglichkeit pro Waggon-Abteil ist auf 1,80m/1,40 m begrenzt ist! Contact läuft über Eiscafa Fontanella.",
                "name": "Radlerpension",
                "rooms": "6",
                "shower": "yes",
                "tourism": "guest_house"
              },
              "geometry": {
                "type": "Point",
                "coordinates": [
                  12.6867648,
                  48.9107449
                ]
              }
            }
          ],
          "children": []
        },
        {
          "bbox": {
            "south": 48.851801374999994,
            "west": 12.86891425,
            "north": 49.017078,
            "east": 13.345766
          },
          "poiCount": 20,
          "leafCount": 20,
          "averagePosition": [
            13.132564085000002,
            48.955238214999994
          ],
          "data": [
            {
              "type": "Feature",
              "properties": {
                "id": "10731042520",
                "osm_type": "node",
                "lat": 48.8566952,
                "lon": 13.0008504,
                "tourism": "guest_house"
              },
              "geometry": {
                "type": "Point",
                "coordinates": [
                  13.0008504,
                  48.8566952
                ]
              }
            },
            {
              "type": "Feature",
              "properties": {
                "id": "11049732948",
                "osm_type": "node",
                "lat": 48.8548665,
                "lon": 12.9164501,
                "addr:housenumber": "1",
                "addr:street": "Marktplatz",
                "bettundbike": "yes",
                "contact:email": "cafe-am-kloster-metten@gmx.de",
                "contact:phone": "+49 991 998 938 0",
                "contact:website": "https://www.cafeamkloster.eu/zimmer.html",
                "name": "Cafe am Kloster",
                "toilets:wheelchair": "yes",
                "tourism": "guest_house",
                "wheelchair": "yes"
              },
              "geometry": {
                "type": "Point",
                "coordinates": [
                  12.9164501,
                  48.8548665
                ]
              }
            },
            {
              "type": "Feature",
              "properties": {
                "id": "11725110694",
                "osm_type": "node",
                "lat": 48.871119,
                "lon": 13.0282777,
                "addr:housenumber": "52",
                "addr:place": "Greising",
                "contact:email": "info@berggasthof-geiss.de",
                "contact:phone": "+49 991 21218",
                "contact:website": "https://www.berggasthof-geiss.de/index.php/buchungsanfrage",
                "operator": "Werner Geiss",
                "tourism": "guest_house"
              },
              "geometry": {
                "type": "Point",
                "coordinates": [
                  13.0282777,
                  48.871119
                ]
              }
            },
            {
              "type": "Feature",
              "properties": {
                "id": "9694353061",
                "osm_type": "node",
                "lat": 48.8739476,
                "lon": 13.0274222,
                "addr:housenumber": "30",
                "addr:place": "Greising",
                "contact:email": "greisingerhof@gmx.de",
                "contact:phone": "+4999121764",
                "contact:website": "http://www.greisingerhof.de/zimmer.htm",
                "name": "Greisinger Hof",
                "operator": "Renate und Helmut Kiefl",
                "tourism": "guest_house"
              },
              "geometry": {
                "type": "Point",
                "coordinates": [
                  13.0274222,
                  48.8739476
                ]
              }
            },
            {
              "type": "Feature",
              "properties": {
                "id": "11896751235",
                "osm_type": "node",
                "lat": 48.9170899,
                "lon": 12.8826014,
                "addr:housenumber": "1",
                "addr:street": "Bogener Straße",
                "contact:email": "info@haus-schiller.de",
                "contact:phone": "+4999058205",
                "contact:website": "http://www.haus-schiller.de/",
                "name": "Frühstückspension Mayer-Schller",
                "tourism": "guest_house"
              },
              "geometry": {
                "type": "Point",
                "coordinates": [
                  12.8826014,
                  48.9170899
                ]
              }
            },
            {
              "type": "Feature",
              "properties": {
                "id": "23662293",
                "osm_type": "node",
                "lat": 49.0150442,
                "lon": 13.2424906,
                "name": "JGH Zwiesel",
                "tourism": "hostel",
                "wheelchair": "yes"
              },
              "geometry": {
                "type": "Point",
                "coordinates": [
                  13.2424906,
                  49.0150442
                ]
              }
            },
            {
              "type": "Feature",
              "properties": {
                "id": "650026499",
                "osm_type": "node",
                "lat": 48.9901951,
                "lon": 13.3099093,
                "name": "Haus Charlotte",
                "tourism": "guest_house"
              },
              "geometry": {
                "type": "Point",
                "coordinates": [
                  13.3099093,
                  48.9901951
                ]
              }
            },
            {
              "type": "Feature",
              "properties": {
                "id": "1695347494",
                "osm_type": "node",
                "lat": 48.9730638,
                "lon": 13.1254925,
                "addr:city": "Regen",
                "addr:country": "DE",
                "addr:housenumber": "24",
                "addr:postcode": "94209",
                "addr:street": "Bachgasse",
                "name": "Pension Sandra",
                "tourism": "guest_house"
              },
              "geometry": {
                "type": "Point",
                "coordinates": [
                  13.1254925,
                  48.9730638
                ]
              }
            },
            {
              "type": "Feature",
              "properties": {
                "id": "1695791267",
                "osm_type": "node",
                "lat": 48.9786371,
                "lon": 13.1240599,
                "addr:city": "Regen",
                "addr:country": "DE",
                "addr:housenumber": "51",
                "addr:postcode": "94209",
                "addr:street": "Kalvarienbergweg",
                "alt_name": "Landgasthof Kalvarienberg",
                "name": "Naturpension-Landgasthof Kalvarienberg",
                "tourism": "guest_house"
              },
              "geometry": {
                "type": "Point",
                "coordinates": [
                  13.1240599,
                  48.9786371
                ]
              }
            },
            {
              "type": "Feature",
              "properties": {
                "id": "3699780764",
                "osm_type": "node",
                "lat": 49.0109063,
                "lon": 13.2179368,
                "name": "Haus Hildegard",
                "tourism": "guest_house"
              },
              "geometry": {
                "type": "Point",
                "coordinates": [
                  13.2179368,
                  49.0109063
                ]
              }
            },
            {
              "type": "Feature",
              "properties": {
                "id": "3702692606",
                "osm_type": "node",
                "lat": 49.0139716,
                "lon": 13.2447622,
                "name": "Gästehaus Linzmeier",
                "tourism": "guest_house"
              },
              "geometry": {
                "type": "Point",
                "coordinates": [
                  13.2447622,
                  49.0139716
                ]
              }
            },
            {
              "type": "Feature",
              "properties": {
                "id": "3713368969",
                "osm_type": "node",
                "lat": 48.9424055,
                "lon": 13.039872,
                "name": "Schäfflerhof",
                "operator": "Familie Stanek",
                "phone": "+49 9920 1375",
                "tourism": "guest_house",
                "website": "http://schaefflerstubn.de/"
              },
              "geometry": {
                "type": "Point",
                "coordinates": [
                  13.039872,
                  48.9424055
                ]
              }
            },
            {
              "type": "Feature",
              "properties": {
                "id": "4359401789",
                "osm_type": "node",
                "lat": 48.9948149,
                "lon": 13.2024095,
                "addr:city": "Regen",
                "addr:country": "DE",
                "addr:housenumber": "145",
                "addr:postcode": "94209",
                "addr:street": "Tausendbach",
                "name": "Gut Tausendbachl",
                "tourism": "guest_house",
                "website": "https://www.gut-tausendbachl.com/"
              },
              "geometry": {
                "type": "Point",
                "coordinates": [
                  13.2024095,
                  48.9948149
                ]
              }
            },
            {
              "type": "Feature",
              "properties": {
                "id": "5450881753",
                "osm_type": "node",
                "lat": 48.8898698,
                "lon": 13.2984009,
                "name": "Pension Marlies",
                "tourism": "guest_house"
              },
              "geometry": {
                "type": "Point",
                "coordinates": [
                  13.2984009,
                  48.8898698
                ]
              }
            },
            {
              "type": "Feature",
              "properties": {
                "id": "6553300244",
                "osm_type": "node",
                "lat": 48.9180644,
                "lon": 13.0825043,
                "capacity": "30",
                "contact:email": "hirmonshof@bischofsmais.com",
                "contact:fax": "+49 9920 9403-36",
                "contact:phone": "+49 9920 9403-0",
                "contact:website": "http://hirmonshof.de",
                "image": "http://hirmonshof.de/assets/img/Hirmonshof.jpg",
                "internet_access": "yes",
                "name": "Landgasthof Hirmonshof",
                "operator": "Ingrid Zellner",
                "tourism": "guest_house"
              },
              "geometry": {
                "type": "Point",
                "coordinates": [
                  13.0825043,
                  48.9180644
                ]
              }
            },
            {
              "type": "Feature",
              "properties": {
                "id": "6708381639",
                "osm_type": "node",
                "lat": 49.0142178,
                "lon": 13.1516191,
                "name": "Haus Waldeck",
                "tourism": "guest_house"
              },
              "geometry": {
                "type": "Point",
                "coordinates": [
                  13.1516191,
                  49.0142178
                ]
              }
            },
            {
              "type": "Feature",
              "properties": {
                "id": "6738170043",
                "osm_type": "node",
                "lat": 49.0057854,
                "lon": 13.2184218,
                "check_date": "2024-07-28",
                "name": "Haus Isabella",
                "tourism": "guest_house"
              },
              "geometry": {
                "type": "Point",
                "coordinates": [
                  13.2184218,
                  49.0057854
                ]
              }
            },
            {
              "type": "Feature",
              "properties": {
                "id": "6738170850",
                "osm_type": "node",
                "lat": 49.0048927,
                "lon": 13.2177315,
                "addr:country": "DE",
                "addr:housenumber": "26",
                "addr:postcode": "94227",
                "addr:street": "Buschweg",
                "check_date": "2024-07-28",
                "name": "Haus Margarete",
                "tourism": "guest_house",
                "website": "https://www.schall-fewo.de/"
              },
              "geometry": {
                "type": "Point",
                "coordinates": [
                  13.2177315,
                  49.0048927
                ]
              }
            },
            {
              "type": "Feature",
              "properties": {
                "id": "11007159062",
                "osm_type": "node",
                "lat": 49.0020688,
                "lon": 13.2549553,
                "name": "ferienhof-bauer",
                "tourism": "guest_house",
                "website": "https://ferienhof-bauer.de/"
              },
              "geometry": {
                "type": "Point",
                "coordinates": [
                  13.2549553,
                  49.0020688
                ]
              }
            },
            {
              "type": "Feature",
              "properties": {
                "id": "12189503848",
                "osm_type": "node",
                "lat": 48.9771087,
                "lon": 13.0651142,
                "addr:city": "Regen",
                "addr:country": "DE",
                "addr:housenumber": "2",
                "addr:postcode": "94209",
                "addr:street": "Hofweg",
                "contact:email": "info@gaestehaus-brigitte-march.de",
                "contact:phone": "+499921 4258",
                "contact:website": "https://gaestehaus-brigitte-march.de/",
                "guest_house": "guest_house",
                "name": "Gästehaus Brigitte",
                "operator": "Reinhard Vogl",
                "tourism": "guest_house"
              },
              "geometry": {
                "type": "Point",
                "coordinates": [
                  13.0651142,
                  48.9771087
                ]
              }
            }
          ],
          "children": []
        }
      ]
    }
  ]
}