{
  "bbox": {
    "south": 47.694865,
    "west": 13.345766,
    "north": 48.355971499999995,
    "east": 15.253173
  },
  "poiCount": 116,
  "leafCount": 0,
  "averagePosition": [
    14.423908620689657,
    48.02873756206896
  ],
  "data": [],
  "children": [
    {
      "bbox": {
        "south": 47.694865,
        "west": 13.345766,
        "north": 48.02541825,
        "east": 14.2994695
      },
      "poiCount": 27,
      "leafCount": 27,
      "averagePosition": [
        13.680223074074073,
        47.854584644444444
      ],
      "data": [
        {
          "type": "Feature",
          "properties": {
            "id": "4342015491",
            "osm_type": "node",
            "lat": 47.730507,
            "lon": 13.4861974,
            "tourism": "hostel"
          },
          "geometry": {
            "type": "Point",
            "coordinates": [
              13.4861974,
              47.730507
            ]
          }
        },
        {
          "type": "Feature",
          "properties": {
            "id": "5849873199",
            "osm_type": "node",
            "lat": 47.7406116,
            "lon": 13.4343997,
            "addr:housenumber": "151",
            "addr:place": "Ried",
            "addr:postcode": "5360",
            "contact:phone": "+43 6138 2815",
            "name": "Haus Seeschwalbe",
            "tourism": "guest_house",
            "website": "http://www.seeschwalbe.at/"
          },
          "geometry": {
            "type": "Point",
            "coordinates": [
              13.4343997,
              47.7406116
            ]
          }
        },
        {
          "type": "Feature",
          "properties": {
            "id": "6001042685",
            "osm_type": "node",
            "lat": 47.8338286,
            "lon": 13.5137174,
            "addr:city": "Unterach am Attersee",
            "addr:housenumber": "36",
            "addr:postcode": "4866",
            "addr:street": "Egelseestraße",
            "contact:email": "elisabeth.hemetsberger@aon.at",
            "contact:mobile": "+43 664 5293210",
            "contact:phone": "+43 7665 8269",
            "name": "Ferienhof Grubinger",
            "tourism": "guest_house",
            "website": "https://www.oberoesterreich.at/oesterreich/unterkunft/102780/ferienhof-grubinger.html"
          },
          "geometry": {
            "type": "Point",
            "coordinates": [
              13.5137174,
              47.8338286
            ]
          }
        },
        {
          "type": "Feature",
          "properties": {
            "id": "6030403180",
            "osm_type": "node",
            "lat": 47.8303751,
            "lon": 13.5086493,
            "addr:city": "Unterach am Attersee",
            "addr:housenumber": "42",
            "addr:postcode": "4866",
            "addr:street": "Egelseestraße",
            "contact:email": "graf@margarethengut.at",
            "contact:fax": "+43 7665 80024",
            "contact:phone": "+43 7665 8002",
            "name": "Ferienhof Margarethengut",
            "tourism": "guest_house",
            "website": "https://www.margarethengut.at/"
          },
          "geometry": {
            "type": "Point",
            "coordinates": [
              13.5086493,
              47.8303751
            ]
          }
        },
        {
          "type": "Feature",
          "properties": {
            "id": "10554250755",
            "osm_type": "node",
            "lat": 47.7178682,
            "lon": 13.4450769,
            "name": "Pilznerhof",
            "tourism": "guest_house",
            "website": "https://pilznerhof.at"
          },
          "geometry": {
            "type": "Point",
            "coordinates": [
              13.4450769,
              47.7178682
            ]
          }
        },
        {
          "type": "Feature",
          "properties": {
            "id": "786261341",
            "osm_type": "node",
            "lat": 47.7112383,
            "lon": 13.6254545,
            "name": "Hotel Garni Sonnhof",
            "tourism": "guest_house"
          },
          "geometry": {
            "type": "Point",
            "coordinates": [
              13.6254545,
              47.7112383
            ]
          }
        },
        {
          "type": "Feature",
          "properties": {
            "id": "1358036539",
            "osm_type": "node",
            "lat": 47.7131457,
            "lon": 13.6177064,
            "addr:city": "Bad Ischl",
            "addr:country": "AT",
            "addr:housenumber": "9",
            "addr:postcode": "4820",
            "addr:street": "Eglmoosgasse",
            "name": "Stadt Prag",
            "tourism": "guest_house",
            "wheelchair": "limited"
          },
          "geometry": {
            "type": "Point",
            "coordinates": [
              13.6177064,
              47.7131457
            ]
          }
        },
        {
          "type": "Feature",
          "properties": {
            "id": "1597896324",
            "osm_type": "node",
            "lat": 47.8536546,
            "lon": 13.7065128,
            "disused:name": "Almgasthof Windlegern",
            "email": "gasthof@windlegern.at",
            "guest_house": "bed_and_breakfast",
            "name": "Windlegern",
            "phone": "+43 7617 2844",
            "tourism": "guest_house",
            "website": "https://www.windlegern.at/"
          },
          "geometry": {
            "type": "Point",
            "coordinates": [
              13.7065128,
              47.8536546
            ]
          }
        },
        {
          "type": "Feature",
          "properties": {
            "id": "1747488517",
            "osm_type": "node",
            "lat": 47.7948133,
            "lon": 13.7649306,
            "designation": "B&B",
            "name": "Rosenhof",
            "tourism": "guest_house"
          },
          "geometry": {
            "type": "Point",
            "coordinates": [
              13.7649306,
              47.7948133
            ]
          }
        },
        {
          "type": "Feature",
          "properties": {
            "id": "1896343281",
            "osm_type": "node",
            "lat": 47.8513681,
            "lon": 13.7696817,
            "name": "Pension s' Waldeck",
            "source": "http://www.landhaus-waldeck.at/",
            "tourism": "guest_house"
          },
          "geometry": {
            "type": "Point",
            "coordinates": [
              13.7696817,
              47.8513681
            ]
          }
        },
        {
          "type": "Feature",
          "properties": {
            "id": "5034622672",
            "osm_type": "node",
            "lat": 47.7171516,
            "lon": 13.5909454,
            "addr:city": "Bad Ischl",
            "addr:country": "AT",
            "addr:housename": "Zum Pfandl",
            "addr:housenumber": "1",
            "addr:postcode": "4820",
            "addr:street": "Steinbruch",
            "air_conditioning": "no",
            "name": "Zum Pfandl",
            "payment:credit_cards": "yes",
            "phone": "+43 6132 23875",
            "source": "bad-ischl.ooe.gv.at/Umpostung_von_PLZ_5351_Aigen-Voglhub_auf_PLZ_4820_Bad_Ischl_ab_26_Februar_2018",
            "tourism": "guest_house",
            "website": "www.gasthof-pfandl.at",
            "wheelchair": "no"
          },
          "geometry": {
            "type": "Point",
            "coordinates": [
              13.5909454,
              47.7171516
            ]
          }
        },
        {
          "type": "Feature",
          "properties": {
            "id": "9899717827",
            "osm_type": "node",
            "lat": 47.8089534,
            "lon": 13.7747374,
            "addr:city": "Ebensee",
            "addr:country": "AT",
            "addr:housenumber": "20",
            "addr:postcode": "4802",
            "addr:street": "Rindbachstraße",
            "contact:email": "pension.ahamer@sklona.at",
            "contact:fax": "06133 5202-33",
            "contact:phone": "06133 5202",
            "contact:website": "www.sklona.at",
            "entrance": "yes",
            "name": "Haus Ahamer",
            "operator": "Sklona GmbH & Co KG",
            "stars": "3",
            "tourism": "guest_house"
          },
          "geometry": {
            "type": "Point",
            "coordinates": [
              13.7747374,
              47.8089534
            ]
          }
        },
        {
          "type": "Feature",
          "properties": {
            "id": "9899898735",
            "osm_type": "node",
            "lat": 47.7913763,
            "lon": 13.7666143,
            "contact:email": "pension.sybille@gmx.at",
            "contact:fax": "06133 5071",
            "contact:phone": "06133 5389",
            "entrance": "yes",
            "internet_access": "no",
            "name": "Pension Sybille",
            "operator": "Sabine Bachler",
            "pets": "yes",
            "stars": "2",
            "tourism": "guest_house"
          },
          "geometry": {
            "type": "Point",
            "coordinates": [
              13.7666143,
              47.7913763
            ]
          }
        },
        {
          "type": "Feature",
          "properties": {
            "id": "10992073108",
            "osm_type": "node",
            "lat": 47.7114197,
            "lon": 13.5753069,
            "contact:email": "bauernhof@witzlsteiner.at",
            "contact:phone": "+43 6132 28950",
            "name": "Bauernhof Witzlsteiner",
            "tourism": "guest_house",
            "website": "https://www.witzlsteiner.at"
          },
          "geometry": {
            "type": "Point",
            "coordinates": [
              13.5753069,
              47.7114197
            ]
          }
        },
        {
          "type": "Feature",
          "properties": {
            "id": "1345548306",
            "osm_type": "node",
            "lat": 47.9091409,
            "lon": 13.4914074,
            "name": "Gasthof Steinberger",
            "tourism": "guest_house"
          },
          "geometry": {
            "type": "Point",
            "coordinates": [
              13.4914074,
              47.9091409
            ]
          }
        },
        {
          "type": "Feature",
          "properties": {
            "id": "1713275575",
            "osm_type": "node",
            "lat": 48.0010089,
            "lon": 13.6218893,
            "designation": "Zimmervermietung Eva Gruber",
            "name": "Zimmervermietung Eva Gruber",
            "source": "eva.gruber@gmx.at",
            "toilets:wheelchair": "no",
            "tourism": "guest_house",
            "wheelchair": "no"
          },
          "geometry": {
            "type": "Point",
            "coordinates": [
              13.6218893,
              48.0010089
            ]
          }
        },
        {
          "type": "Feature",
          "properties": {
            "id": "1875885231",
            "osm_type": "node",
            "lat": 48.007637,
            "lon": 13.6603755,
            "addr:city": "Vöcklabruck",
            "addr:country": "AT",
            "addr:housenumber": "7-9",
            "addr:postcode": "4840",
            "addr:street": "Industriestraße",
            "name": "Kolping Haus",
            "phone": "+43 7672/28710",
            "tourism": "guest_house",
            "wheelchair": "yes"
          },
          "geometry": {
            "type": "Point",
            "coordinates": [
              13.6603755,
              48.007637
            ]
          }
        },
        {
          "type": "Feature",
          "properties": {
            "id": "3666085774",
            "osm_type": "node",
            "lat": 47.9176773,
            "lon": 13.8212501,
            "addr:city": "Gmunden",
            "addr:housenumber": "45",
            "addr:postcode": "4810",
            "addr:street": "Lembergweg",
            "check_date": "2025-03-15",
            "email": "goetschhof@aon.at",
            "guest_house": "bed_and_breakfast",
            "name": "Familie Aigner",
            "phone": "+43 7612 66607",
            "tourism": "guest_house",
            "website": "https://www.urlaubambauernhof.at/de/hoefe/goetschhof"
          },
          "geometry": {
            "type": "Point",
            "coordinates": [
              13.8212501,
              47.9176773
            ]
          }
        },
        {
          "type": "Feature",
          "properties": {
            "id": "4429170742",
            "osm_type": "node",
            "lat": 47.9381485,
            "lon": 13.5474997,
            "addr:housenumber": "4",
            "addr:street": "Aicherfeld 4, 4863 Seewalchen",
            "name": "Pension Reiter-Moravec",
            "phone": "+43 676 3985044",
            "tourism": "guest_house"
          },
          "geometry": {
            "type": "Point",
            "coordinates": [
              13.5474997,
              47.9381485
            ]
          }
        },
        {
          "type": "Feature",
          "properties": {
            "id": "5641550024",
            "osm_type": "node",
            "lat": 48.0030951,
            "lon": 13.6079304,
            "addr:housenumber": "1",
            "addr:postcode": "4850",
            "addr:street": "Flößerweg",
            "email": "office@floessersteg.at",
            "name": "Gästehaus Flössersteg",
            "phone": "+43 7672 93400",
            "tourism": "guest_house",
            "website": "http://floessersteg.at"
          },
          "geometry": {
            "type": "Point",
            "coordinates": [
              13.6079304,
              48.0030951
            ]
          }
        },
        {
          "type": "Feature",
          "properties": {
            "id": "6357155685",
            "osm_type": "node",
            "lat": 47.91645,
            "lon": 13.5409772,
            "email": "pension_viehboeck@gmx.at",
            "name": "Pension Viehböck",
            "operator": "Andrea und Gerhard Viehböck",
            "phone": "+43 676 9585069",
            "tourism": "guest_house"
          },
          "geometry": {
            "type": "Point",
            "coordinates": [
              13.5409772,
              47.91645
            ]
          }
        },
        {
          "type": "Feature",
          "properties": {
            "id": "8342522761",
            "osm_type": "node",
            "lat": 47.9110091,
            "lon": 13.7488422,
            "addr:city": "Altmünster",
            "addr:country": "AT",
            "addr:housename": "Urzn",
            "addr:housenumber": "92",
            "addr:place": "Gmundnerberg",
            "addr:postcode": "4813",
            "check_date": "2024-03-23",
            "name": "Pension Urz'n",
            "tourism": "guest_house"
          },
          "geometry": {
            "type": "Point",
            "coordinates": [
              13.7488422,
              47.9110091
            ]
          }
        },
        {
          "type": "Feature",
          "properties": {
            "id": "8794810416",
            "osm_type": "node",
            "lat": 47.9375175,
            "lon": 13.5599793,
            "addr:housenumber": "44",
            "addr:street": "Litzlberger Straße",
            "name": "Pension Ebner",
            "tourism": "guest_house"
          },
          "geometry": {
            "type": "Point",
            "coordinates": [
              13.5599793,
              47.9375175
            ]
          }
        },
        {
          "type": "Feature",
          "properties": {
            "id": "11783584356",
            "osm_type": "node",
            "lat": 47.9134554,
            "lon": 13.7101955,
            "addr:city": "Altmünster",
            "addr:housenumber": "53",
            "addr:postcode": "4814",
            "addr:street": "Finsterau",
            "email": "hayo@inthewoods.at",
            "guest_house": "seminar_space",
            "internet_access": "wlan",
            "internet_access:fee": "no",
            "name": "in the woods",
            "operator": "Hayo Stam",
            "phone": "+43 650 992 7698",
            "rooms": "4",
            "tourism": "guest_house",
            "website": "https://www.inthewoods.at/"
          },
          "geometry": {
            "type": "Point",
            "coordinates": [
              13.7101955,
              47.9134554
            ]
          }
        },
        {
          "type": "Feature",
          "properties": {
            "id": "2131109090",
            "osm_type": "node",
            "lat": 47.9966988,
            "lon": 14.2607613,
            "tourism": "guest_house"
          },
          "geometry": {
            "type": "Point",
            "coordinates": [
              14.2607613,
              47.9966988
            ]
          }
        },
        {
          "type": "Feature",
          "properties": {
            "id": "10273558363",
            "osm_type": "node",
            "lat": 47.9274964,
            "lon": 14.0728979,
            "addr:city": "Inzersdorf im Kremstal",
            "addr:country": "AT",
            "addr:housenumber": "17",
            "addr:postcode": "4565",
            "addr:street": "Am Inslingbach",
            "email": "info@derbaum.net",
            "name": "Seminarzentrum der baum",
            "phone": "+43 7582 81331",
            "tourism": "guest_house",
            "website": "https://derbaum.net/"
          },
          "geometry": {
            "type": "Point",
            "coordinates": [
              14.0728979,
              47.9274964
            ]
          }
        },
        {
          "type": "Feature",
          "properties": {
            "id": "12837643774",
            "osm_type": "node",
            "lat": 47.888139,
            "lon": 14.1420865,
            "name": "Reitergut Weissenhof",
            "stars": "3",
            "tourism": "guest_house"
          },
          "geometry": {
            "type": "Point",
            "coordinates": [
              14.1420865,
              47.888139
            ]
          }
        }
      ],
      "children": []
    },
    {
      "bbox": {
        "south": 47.694865,
        "west": 14.2994695,
        "north": 48.02541825,
        "east": 15.253173
      },
      "poiCount": 35,
      "leafCount": 35,
      "averagePosition": [
        14.79232202285714,
        47.90462782
      ],
      "data": [
        {
          "type": "Feature",
          "properties": {
            "id": "4565242121",
            "osm_type": "node",
            "lat": 47.7125219,
            "lon": 14.3697703,
            "addr:city": "Windischgarsten",
            "addr:housenumber": "44",
            "addr:postcode": "4580",
            "addr:street": "Edlbach",
            "name": "Knirschenhof",
            "phone": "+43 7566 217",
            "tourism": "guest_house",
            "website": "https://www.knirschenhof.at/"
          },
          "geometry": {
            "type": "Point",
            "coordinates": [
              14.3697703,
              47.7125219
            ]
          }
        },
        {
          "type": "Feature",
          "properties": {
            "id": "8928207811",
            "osm_type": "node",
            "lat": 47.7006694,
            "lon": 14.3420492,
            "guest_house": "bed_and_breakfast",
            "internet_access": "wlan",
            "internet_access:fee": "no",
            "name": "Gasthof Kaspar",
            "tourism": "guest_house",
            "wheelchair": "no"
          },
          "geometry": {
            "type": "Point",
            "coordinates": [
              14.3420492,
              47.7006694
            ]
          }
        },
        {
          "type": "Feature",
          "properties": {
            "id": "292362517",
            "osm_type": "node",
            "lat": 47.8382515,
            "lon": 14.9232009,
            "addr:city": "Sankt Georgen am Reith",
            "addr:housename": "Gästehaus Pöschko",
            "addr:housenumber": "11",
            "addr:postcode": "3344",
            "addr:street": "Kogelsbach",
            "name": "Gästehaus Pöschko",
            "tourism": "hostel"
          },
          "geometry": {
            "type": "Point",
            "coordinates": [
              14.9232009,
              47.8382515
            ]
          }
        },
        {
          "type": "Feature",
          "properties": {
            "id": "308525319",
            "osm_type": "node",
            "lat": 47.7104821,
            "lon": 14.6089378,
            "email": "office@peterbauer.at",
            "name": "Peterbauer",
            "phone": "+43 3632 439",
            "tourism": "hostel",
            "website": "https://www.peterbauer.at/"
          },
          "geometry": {
            "type": "Point",
            "coordinates": [
              14.6089378,
              47.7104821
            ]
          }
        },
        {
          "type": "Feature",
          "properties": {
            "id": "1746971242",
            "osm_type": "node",
            "lat": 47.7137037,
            "lon": 14.8306585,
            "name": "Landhaus Kaisergemse",
            "tourism": "guest_house"
          },
          "geometry": {
            "type": "Point",
            "coordinates": [
              14.8306585,
              47.7137037
            ]
          }
        },
        {
          "type": "Feature",
          "properties": {
            "id": "8676903024",
            "osm_type": "node",
            "lat": 47.8091502,
            "lon": 14.9304119,
            "addr:city": "Göstling an der Ybbs",
            "addr:country": "AT",
            "addr:housenumber": "129",
            "addr:place": "Markt",
            "addr:postcode": "3345",
            "email": "ensmann.erich@sattech.at",
            "name": "Familie Ensmann",
            "phone": "+43 (0)7484 2278",
            "tourism": "guest_house"
          },
          "geometry": {
            "type": "Point",
            "coordinates": [
              14.9304119,
              47.8091502
            ]
          }
        },
        {
          "type": "Feature",
          "properties": {
            "id": "8676903025",
            "osm_type": "node",
            "lat": 47.8097086,
            "lon": 14.9309,
            "addr:city": "Göstling an der Ybbs",
            "addr:country": "AT",
            "addr:housenumber": "132",
            "addr:place": "Markt",
            "addr:postcode": "3345",
            "email": "kfz-aflenzer@sattech.at",
            "name": "Familie Aflenzer",
            "phone": "+43 (0)7484 2084",
            "tourism": "guest_house"
          },
          "geometry": {
            "type": "Point",
            "coordinates": [
              14.9309,
              47.8097086
            ]
          }
        },
        {
          "type": "Feature",
          "properties": {
            "id": "9556494970",
            "osm_type": "node",
            "lat": 47.7113088,
            "lon": 14.8081402,
            "alt_name": "Taverne an der Rinn'",
            "cash_withdrawal": "yes",
            "email": "fewo@rinntaverne.at",
            "guest_house": "agritourism",
            "internet_access": "wlan",
            "internet_access:fee": "no",
            "name": "Rinntaverne \"Auszeithof\"",
            "phone": "+43 6642190082",
            "start_date": "1272",
            "tourism": "guest_house",
            "website": "https://www.rinntaverne.at/",
            "wheelchair": "no"
          },
          "geometry": {
            "type": "Point",
            "coordinates": [
              14.8081402,
              47.7113088
            ]
          }
        },
        {
          "type": "Feature",
          "properties": {
            "id": "13038527535",
            "osm_type": "node",
            "lat": 47.8445429,
            "lon": 15.0144743,
            "name": "Helmhof",
            "tourism": "guest_house"
          },
          "geometry": {
            "type": "Point",
            "coordinates": [
              15.0144743,
              47.8445429
            ]
          }
        },
        {
          "type": "Feature",
          "properties": {
            "id": "12215090107",
            "osm_type": "node",
            "lat": 47.7105385,
            "lon": 15.21956,
            "tourism": "guest_house"
          },
          "geometry": {
            "type": "Point",
            "coordinates": [
              15.21956,
              47.7105385
            ]
          }
        },
        {
          "type": "Feature",
          "properties": {
            "id": "3132181405",
            "osm_type": "node",
            "lat": 47.941251,
            "lon": 14.4874264,
            "name": "Biohof Brückler",
            "tourism": "guest_house",
            "website": "http://www.bioferienhof.at/"
          },
          "geometry": {
            "type": "Point",
            "coordinates": [
              14.4874264,
              47.941251
            ]
          }
        },
        {
          "type": "Feature",
          "properties": {
            "id": "11317198431",
            "osm_type": "node",
            "lat": 47.9246148,
            "lon": 14.4371094,
            "contact:phone": "+43 664 5219 876",
            "guest_house": "guest_house",
            "name": "Alpenverein Jugendherberge",
            "tourism": "hostel",
            "website": "https://www.alpenverein.at/losensteinjugendherberge/"
          },
          "geometry": {
            "type": "Point",
            "coordinates": [
              14.4371094,
              47.9246148
            ]
          }
        },
        {
          "type": "Feature",
          "properties": {
            "id": "12469676966",
            "osm_type": "node",
            "lat": 47.9853331,
            "lon": 14.3231823,
            "guest_house": "agritourism",
            "name": "Hochhubergut",
            "tourism": "guest_house",
            "website": "https://www.hochhubergut.at/"
          },
          "geometry": {
            "type": "Point",
            "coordinates": [
              14.3231823,
              47.9853331
            ]
          }
        },
        {
          "type": "Feature",
          "properties": {
            "id": "414591175",
            "osm_type": "node",
            "lat": 47.9341621,
            "lon": 14.5910614,
            "addr:city": "Maria Neustift",
            "addr:housenumber": "13",
            "addr:postcode": "4443",
            "addr:street": "Buchschachen",
            "alt_name": "Unterbuchschachner",
            "name": "Ferienhof Pfaffenlehen",
            "operator": "Familie Unterbuchschachner",
            "tourism": "guest_house",
            "website": "https://www.urlaubambauernhof.at/hoefe/pfaffenlehen"
          },
          "geometry": {
            "type": "Point",
            "coordinates": [
              14.5910614,
              47.9341621
            ]
          }
        },
        {
          "type": "Feature",
          "properties": {
            "id": "1297347688",
            "osm_type": "node",
            "lat": 47.9482322,
            "lon": 14.8915367,
            "addr:city": "Ybbsitz",
            "addr:country": "AT",
            "addr:postcode": "3341",
            "contact:phone": "+43 7443 853 80",
            "guest_house": "bed_and_breakfast",
            "name": "Obermüller",
            "operator": "Theresia Obermüller",
            "tourism": "guest_house"
          },
          "geometry": {
            "type": "Point",
            "coordinates": [
              14.8915367,
              47.9482322
            ]
          }
        },
        {
          "type": "Feature",
          "properties": {
            "id": "1540205359",
            "osm_type": "node",
            "lat": 47.9606294,
            "lon": 14.7757275,
            "addr:city": "Waidhofen an der Ybbs",
            "addr:country": "AT",
            "addr:housenumber": "3",
            "addr:postcode": "3340",
            "addr:street": "Ybbstorgasse",
            "contact:mobile": "+43 664 3538 407",
            "cuisine": "regional",
            "name": "Pension Schwarzer Bär",
            "opening_hours": "Fr-Tu 07:00-22:00",
            "outdoor_seating": "yes",
            "tourism": "guest_house",
            "website": "https://www.pension-waidhofen.at/"
          },
          "geometry": {
            "type": "Point",
            "coordinates": [
              14.7757275,
              47.9606294
            ]
          }
        },
        {
          "type": "Feature",
          "properties": {
            "id": "1832271696",
            "osm_type": "node",
            "lat": 47.9475589,
            "lon": 15.0301778,
            "name": "Durlmühle",
            "tourism": "guest_house"
          },
          "geometry": {
            "type": "Point",
            "coordinates": [
              15.0301778,
              47.9475589
            ]
          }
        },
        {
          "type": "Feature",
          "properties": {
            "id": "2721076726",
            "osm_type": "node",
            "lat": 47.9087603,
            "lon": 14.5531139,
            "name": "Naglerhof",
            "source": "geoimage.at",
            "tourism": "guest_house"
          },
          "geometry": {
            "type": "Point",
            "coordinates": [
              14.5531139,
              47.9087603
            ]
          }
        },
        {
          "type": "Feature",
          "properties": {
            "id": "3819469351",
            "osm_type": "node",
            "lat": 48.0237222,
            "lon": 14.800388,
            "contact:phone": "+43 7448 5282",
            "name": "Fremdenzimmer Hora",
            "tourism": "guest_house",
            "website": "https://www.privatzugast.at/hoefe/hora"
          },
          "geometry": {
            "type": "Point",
            "coordinates": [
              14.800388,
              48.0237222
            ]
          }
        },
        {
          "type": "Feature",
          "properties": {
            "id": "3819469352",
            "osm_type": "node",
            "lat": 48.0157786,
            "lon": 14.8018996,
            "addr:city": "Allhartsberg",
            "addr:country": "AT",
            "addr:postcode": "3365",
            "contact:phone": "+43 664 2217313",
            "name": "Landhaus Aigner",
            "tourism": "guest_house",
            "website": "https://www.urlaubambauernhof.at/de/hoefe/landhaus-aigner"
          },
          "geometry": {
            "type": "Point",
            "coordinates": [
              14.8018996,
              48.0157786
            ]
          }
        },
        {
          "type": "Feature",
          "properties": {
            "id": "3980787884",
            "osm_type": "node",
            "lat": 47.9834836,
            "lon": 15.0259265,
            "addr:city": "Gresten",
            "addr:country": "AT",
            "addr:housenumber": "13",
            "addr:postcode": "3264",
            "addr:street": "Unterer Markt",
            "contact:email": "office@hubegger.net",
            "contact:fax": "+43 7487400017",
            "contact:phone": "+43 74874000",
            "internet_access": "wlan",
            "name": "Gasthof \"Zur Post\"",
            "tourism": "guest_house",
            "wheelchair": "no"
          },
          "geometry": {
            "type": "Point",
            "coordinates": [
              15.0259265,
              47.9834836
            ]
          }
        },
        {
          "type": "Feature",
          "properties": {
            "id": "6061853491",
            "osm_type": "node",
            "lat": 47.9596305,
            "lon": 14.7741336,
            "addr:city": "Waidhofen an der Ybbs",
            "addr:country": "AT",
            "addr:housenumber": "18",
            "addr:postcode": "3340",
            "addr:street": "Hoher Markt",
            "contact:phone": "+43 7442 52112",
            "contact:website": "http://www.haushohermarkt.at/de/",
            "name": "Haus Hoher Markt",
            "tourism": "guest_house"
          },
          "geometry": {
            "type": "Point",
            "coordinates": [
              14.7741336,
              47.9596305
            ]
          }
        },
        {
          "type": "Feature",
          "properties": {
            "id": "6070660317",
            "osm_type": "node",
            "lat": 47.9581557,
            "lon": 14.7780181,
            "addr:city": "Waidhofen an der Ybbs",
            "addr:country": "AT",
            "addr:housenumber": "28",
            "addr:postcode": "3340",
            "addr:street": "Ybbsitzerstraße",
            "at_bev:addr_date": "2017-10-01",
            "contact:phone": "+43 7442 555 85",
            "name": "Kolpinghaus",
            "tourism": "hostel",
            "website": "https://kolping-waidhofen.at/kontakt"
          },
          "geometry": {
            "type": "Point",
            "coordinates": [
              14.7780181,
              47.9581557
            ]
          }
        },
        {
          "type": "Feature",
          "properties": {
            "id": "6122440600",
            "osm_type": "node",
            "lat": 47.9598687,
            "lon": 14.7766798,
            "addr:city": "Waidhofen an der Ybbs",
            "addr:country": "AT",
            "addr:housenumber": "2a",
            "addr:postcode": "3340",
            "addr:street": "Ybbsitzerstraße",
            "contact:mobile": "+43 699 1928 9100",
            "guest_house": "apartment",
            "name": "Apartments Zum Ybbsturm",
            "tourism": "guest_house",
            "website": "https://www.apartments-ybbsturm.at/"
          },
          "geometry": {
            "type": "Point",
            "coordinates": [
              14.7766798,
              47.9598687
            ]
          }
        },
        {
          "type": "Feature",
          "properties": {
            "id": "7537731163",
            "osm_type": "node",
            "lat": 47.9600506,
            "lon": 14.7766736,
            "addr:city": "Waidhofen an der Ybbs",
            "addr:country": "AT",
            "addr:housenumber": "1",
            "addr:postcode": "3340",
            "addr:street": "Ybbsitzerstraße",
            "contact:phone": "+43 676 941 10 08",
            "guest_house": "apartment",
            "name": "Leopold an der Ybbs",
            "rooms": "4",
            "tourism": "guest_house",
            "website": "https://leopold-ybbs.at/kontakt"
          },
          "geometry": {
            "type": "Point",
            "coordinates": [
              14.7766736,
              47.9600506
            ]
          }
        },
        {
          "type": "Feature",
          "properties": {
            "id": "7757099536",
            "osm_type": "node",
            "lat": 47.9455809,
            "lon": 14.8963739,
            "addr:city": "Ybbsitz",
            "addr:country": "AT",
            "addr:housenumber": "1",
            "addr:postcode": "3341",
            "addr:street": "Hammerschmiedstraße",
            "contact:phone": "+43 650 760 95 46",
            "guest_house": "bed_and_breakfast",
            "name": "Schwarzes Haus",
            "tourism": "guest_house",
            "website": "https://www.schwarzes-haus.at/kontakt-und-anfahrt/"
          },
          "geometry": {
            "type": "Point",
            "coordinates": [
              14.8963739,
              47.9455809
            ]
          }
        },
        {
          "type": "Feature",
          "properties": {
            "id": "7835510186",
            "osm_type": "node",
            "lat": 48.0229995,
            "lon": 14.7591727,
            "addr:city": "Hilm",
            "addr:country": "AT",
            "addr:housenumber": "6",
            "addr:postcode": "3331",
            "addr:street": "Waidhofnerstraße",
            "at_bev:addr_date": "2023-04-15",
            "guest_house": "bed_and_breakfast",
            "name": "Gästezimmer Freudenschuß",
            "operator": "Freudenschuß",
            "tourism": "guest_house",
            "website": "https://www.schussi.at/"
          },
          "geometry": {
            "type": "Point",
            "coordinates": [
              14.7591727,
              48.0229995
            ]
          }
        },
        {
          "type": "Feature",
          "properties": {
            "id": "9395397262",
            "osm_type": "node",
            "lat": 47.960353,
            "lon": 14.7765119,
            "addr:city": "Waidhofen an der Ybbs",
            "addr:country": "AT",
            "addr:postcode": "3340",
            "contact:email": "info@kerschbaumer.apartments",
            "contact:mobile": "+43 664 8872 8080",
            "contact:phone": "+43 664 8872 8080",
            "name": "Kerschbaumer Apartments",
            "tourism": "guest_house",
            "website": "https://www.kerschbaumer.apartments/"
          },
          "geometry": {
            "type": "Point",
            "coordinates": [
              14.7765119,
              47.960353
            ]
          }
        },
        {
          "type": "Feature",
          "properties": {
            "id": "9975030294",
            "osm_type": "node",
            "lat": 47.9482954,
            "lon": 14.8935702,
            "addr:city": "Ybbsitz",
            "addr:country": "AT",
            "addr:postcode": "3341",
            "contact:phone": "+43 7443 864 18210",
            "guest_house": "bed_and_breakfast",
            "name": "Apartment Welser",
            "tourism": "guest_house",
            "website": "https://ferienwohnungen-ybbsitz.at/kontakt/"
          },
          "geometry": {
            "type": "Point",
            "coordinates": [
              14.8935702,
              47.9482954
            ]
          }
        },
        {
          "type": "Feature",
          "properties": {
            "id": "10539040271",
            "osm_type": "node",
            "lat": 47.9572246,
            "lon": 14.782036,
            "addr:city": "Waidhofen an der Ybbs",
            "addr:country": "AT",
            "addr:housenumber": "33",
            "addr:postcode": "3340",
            "addr:street": "Ybbsitzerstraße",
            "at_bev:addr_date": "2017-10-01",
            "contact:email": "info@ferienwohnung-waidhofen.at",
            "contact:phone": "+43 664 3388 732",
            "guest_house": "apartment",
            "name": "Ybbsperle",
            "tourism": "guest_house",
            "website": "https://ferienwohnung-waidhofen.at/"
          },
          "geometry": {
            "type": "Point",
            "coordinates": [
              14.782036,
              47.9572246
            ]
          }
        },
        {
          "type": "Feature",
          "properties": {
            "id": "10948617061",
            "osm_type": "node",
            "lat": 47.9758139,
            "lon": 14.7971306,
            "contact:phone": "+43 664 1853 749",
            "guest_house": "apartment",
            "name": "Ferienwohnung Almbauer",
            "tourism": "guest_house"
          },
          "geometry": {
            "type": "Point",
            "coordinates": [
              14.7971306,
              47.9758139
            ]
          }
        },
        {
          "type": "Feature",
          "properties": {
            "id": "11659523282",
            "osm_type": "node",
            "lat": 48.0066051,
            "lon": 14.8489187,
            "contact:mobile": "+43 677 6146 4584",
            "guest_house": "bed_and_breakfast",
            "name": "Kornihof",
            "operator": "Familie Korntheurer",
            "tourism": "guest_house",
            "website": "https://www.kornihof.at/"
          },
          "geometry": {
            "type": "Point",
            "coordinates": [
              14.8489187,
              48.0066051
            ]
          }
        },
        {
          "type": "Feature",
          "properties": {
            "id": "12319478145",
            "osm_type": "node",
            "lat": 47.9552652,
            "lon": 14.7747324,
            "name": "Baum Hotel Buchenberg",
            "tourism": "guest_house"
          },
          "geometry": {
            "type": "Point",
            "coordinates": [
              14.7747324,
              47.9552652
            ]
          }
        },
        {
          "type": "Feature",
          "properties": {
            "id": "3538938239",
            "osm_type": "node",
            "lat": 47.9199217,
            "lon": 15.2401013,
            "alt_name": "Erlebnisdorf Puchenstuben",
            "name": "Erlebnisdorf Sulzbichl",
            "operator": "Gemeinde Puchenstuben",
            "phone": "+43 2728 21 100",
            "tourism": "hostel",
            "website": "https://naturpark-oetscher.at/erlebnisdorf-sulzbichl"
          },
          "geometry": {
            "type": "Point",
            "coordinates": [
              15.2401013,
              47.9199217
            ]
          }
        },
        {
          "type": "Feature",
          "properties": {
            "id": "12956570840",
            "osm_type": "node",
            "lat": 47.9978051,
            "lon": 15.1615654,
            "addr:housenumber": "69",
            "addr:street": "Gaminger Straße",
            "check_date": "2025-06-27",
            "name": "Frühstückspension Fam. Butter",
            "tourism": "guest_house",
            "website": "https://gasthofbutter.wixsite.com/home/kontakt"
          },
          "geometry": {
            "type": "Point",
            "coordinates": [
              15.1615654,
              47.9978051
            ]
          }
        }
      ],
      "children": []
    },
    {
      "bbox": {
        "south": 48.02541825,
        "west": 13.345766,
        "north": 48.355971499999995,
        "east": 14.2994695
      },
      "poiCount": 15,
      "leafCount": 15,
      "averagePosition": [
        13.957127393333334,
        48.20296951333333
      ],
      "data": [
        {
          "type": "Feature",
          "properties": {
            "id": "2864538656",
            "osm_type": "node",
            "lat": 48.2975982,
            "lon": 13.4677896,
            "tourism": "guest_house"
          },
          "geometry": {
            "type": "Point",
            "coordinates": [
              13.4677896,
              48.2975982
            ]
          }
        },
        {
          "type": "Feature",
          "properties": {
            "id": "385083511",
            "osm_type": "node",
            "lat": 48.3086812,
            "lon": 14.0207543,
            "beds": "40",
            "email": "info@pension-kreuzmayr.at",
            "guest_house": "bed_and_breakfast",
            "name": "Pension Zum Goldenen Kreuz",
            "old_name": "Olympia; Gasthof zum Goldenen Kreuz; Gasthof Kreuzmayr",
            "operator": "Sebastian Lötsch",
            "outdoor_seating": "yes",
            "phone": "+43 664 210 16 47",
            "rooms": "20",
            "tourism": "guest_house",
            "website": "https://www.pension-kreuzmayr.at/",
            "wheelchair": "limited"
          },
          "geometry": {
            "type": "Point",
            "coordinates": [
              14.0207543,
              48.3086812
            ]
          }
        },
        {
          "type": "Feature",
          "properties": {
            "id": "1752409383",
            "osm_type": "node",
            "lat": 48.3015981,
            "lon": 13.6354331,
            "name": "Autzinger",
            "tourism": "guest_house"
          },
          "geometry": {
            "type": "Point",
            "coordinates": [
              13.6354331,
              48.3015981
            ]
          }
        },
        {
          "type": "Feature",
          "properties": {
            "id": "1815083826",
            "osm_type": "node",
            "lat": 48.1436933,
            "lon": 13.7367105,
            "name": "Gasthaus Wirlandler",
            "tourism": "guest_house"
          },
          "geometry": {
            "type": "Point",
            "coordinates": [
              13.7367105,
              48.1436933
            ]
          }
        },
        {
          "type": "Feature",
          "properties": {
            "id": "2042768292",
            "osm_type": "node",
            "lat": 48.2043224,
            "lon": 13.8911617,
            "addr:city": "Pichl bei Wels",
            "addr:country": "AT",
            "addr:housenumber": "3",
            "addr:place": "Silbersberg",
            "addr:postcode": "4632",
            "email": "office@appartements-kraxberger.at",
            "fax": "+43 7247 8264",
            "name": "Appartements & Gästehaus Kraxberger",
            "operator": "Familie Martha und Franz Kraxberger",
            "phone": "+43 7247 8264",
            "tourism": "guest_house",
            "website": "https://www.appartements-kraxberger.at/"
          },
          "geometry": {
            "type": "Point",
            "coordinates": [
              13.8911617,
              48.2043224
            ]
          }
        },
        {
          "type": "Feature",
          "properties": {
            "id": "2294087428",
            "osm_type": "node",
            "lat": 48.1588202,
            "lon": 14.0224319,
            "name": "Wels Inn City Appartements",
            "tourism": "guest_house"
          },
          "geometry": {
            "type": "Point",
            "coordinates": [
              14.0224319,
              48.1588202
            ]
          }
        },
        {
          "type": "Feature",
          "properties": {
            "id": "3340424575",
            "osm_type": "node",
            "lat": 48.1804958,
            "lon": 13.7960021,
            "contact:website": "http://www.gasthof-auzinger.at",
            "name": "Pension Auzinger",
            "tourism": "guest_house"
          },
          "geometry": {
            "type": "Point",
            "coordinates": [
              13.7960021,
              48.1804958
            ]
          }
        },
        {
          "type": "Feature",
          "properties": {
            "id": "5923748588",
            "osm_type": "node",
            "lat": 48.0566568,
            "lon": 13.7595207,
            "internet_access": "yes",
            "name": "Hütte Troadkasten",
            "tourism": "guest_house"
          },
          "geometry": {
            "type": "Point",
            "coordinates": [
              13.7595207,
              48.0566568
            ]
          }
        },
        {
          "type": "Feature",
          "properties": {
            "id": "10781647583",
            "osm_type": "node",
            "lat": 48.2295896,
            "lon": 13.6769546,
            "addr:city": "Rottenbach",
            "addr:country": "AT",
            "addr:housenumber": "12",
            "addr:place": "Holzhäuseln",
            "addr:postcode": "4681",
            "email": "office@seminarhof-schleglberg.at",
            "name": "Seminarhof Schleglberg",
            "operator": "Friedrich Flör",
            "phone": "+43 664 73474 955",
            "tourism": "guest_house",
            "website": "https://www.seminarhof-schleglberg.at/"
          },
          "geometry": {
            "type": "Point",
            "coordinates": [
              13.6769546,
              48.2295896
            ]
          }
        },
        {
          "type": "Feature",
          "properties": {
            "id": "245053420",
            "osm_type": "node",
            "lat": 48.2930621,
            "lon": 14.2739697,
            "addr:city": "Linz",
            "addr:housenumber": "3",
            "addr:postcode": "4020",
            "addr:street": "Stanglhofweg",
            "alt_name": "Jugendherberge Linz",
            "check_date": "2025-05-23",
            "contact:phone": "+43732664434",
            "email": "linz@myhostel.at",
            "guest_house": "youth_hostel",
            "internet_access": "wlan",
            "internet_access:fee": "customers",
            "name": "Jugendgästehaus Linz",
            "nat_name": "Hostelling International",
            "opening_hours": "MON-FRI: 8am-7pm | SAT, SUN 8-10am, 5-7pm",
            "operator": "Österreichischer Jugendherbergsversand",
            "payment:cash": "yes",
            "payment:jcb": "yes",
            "payment:maestro": "yes",
            "payment:v_pay": "yes",
            "payment:visa": "yes",
            "rooms": "280",
            "tourism": "hostel",
            "website": "https://www.oejhv.at/jugendherbergen/oberoesterreich/linz/"
          },
          "geometry": {
            "type": "Point",
            "coordinates": [
              14.2739697,
              48.2930621
            ]
          }
        },
        {
          "type": "Feature",
          "properties": {
            "id": "457560615",
            "osm_type": "node",
            "lat": 48.0325899,
            "lon": 14.2118861,
            "name": "Pension Goldenes Tor",
            "tourism": "guest_house"
          },
          "geometry": {
            "type": "Point",
            "coordinates": [
              14.2118861,
              48.0325899
            ]
          }
        },
        {
          "type": "Feature",
          "properties": {
            "id": "2628429617",
            "osm_type": "node",
            "lat": 48.149831,
            "lon": 14.1785981,
            "tourism": "guest_house"
          },
          "geometry": {
            "type": "Point",
            "coordinates": [
              14.1785981,
              48.149831
            ]
          }
        },
        {
          "type": "Feature",
          "properties": {
            "id": "4470467200",
            "osm_type": "node",
            "lat": 48.3333434,
            "lon": 14.262174,
            "designation": "Guest house",
            "name": "Apartment Comfort-Size LINZ",
            "source": "www.apartment-linz.at",
            "tourism": "guest_house"
          },
          "geometry": {
            "type": "Point",
            "coordinates": [
              14.262174,
              48.3333434
            ]
          }
        },
        {
          "type": "Feature",
          "properties": {
            "id": "4545530115",
            "osm_type": "node",
            "lat": 48.3008189,
            "lon": 14.2951602,
            "name": "Haus Waltraud",
            "tourism": "guest_house",
            "website": "http://www.haus-waltraud.com/"
          },
          "geometry": {
            "type": "Point",
            "coordinates": [
              14.2951602,
              48.3008189
            ]
          }
        },
        {
          "type": "Feature",
          "properties": {
            "id": "4844341302",
            "osm_type": "node",
            "lat": 48.0534418,
            "lon": 14.1283643,
            "name": "Gästehaus Schlair",
            "tourism": "guest_house"
          },
          "geometry": {
            "type": "Point",
            "coordinates": [
              14.1283643,
              48.0534418
            ]
          }
        }
      ],
      "children": []
    },
    {
      "bbox": {
        "south": 48.02541825,
        "west": 14.2994695,
        "north": 48.355971499999995,
        "east": 15.253173
      },
      "poiCount": 39,
      "leafCount": 39,
      "averagePosition": [
        14.787671674358975,
        48.19367321538462
      ],
      "data": [
        {
          "type": "Feature",
          "properties": {
            "id": "53210893",
            "osm_type": "node",
            "lat": 48.2154581,
            "lon": 14.4799984,
            "created_by": "JOSM",
            "name": "Karl Wall",
            "source": "survey",
            "tourism": "guest_house"
          },
          "geometry": {
            "type": "Point",
            "coordinates": [
              14.4799984,
              48.2154581
            ]
          }
        },
        {
          "type": "Feature",
          "properties": {
            "id": "4225989938",
            "osm_type": "node",
            "lat": 48.2734391,
            "lon": 14.3035219,
            "name": "Gästehaus Spallerhof",
            "tourism": "guest_house"
          },
          "geometry": {
            "type": "Point",
            "coordinates": [
              14.3035219,
              48.2734391
            ]
          }
        },
        {
          "type": "Feature",
          "properties": {
            "id": "4470491432",
            "osm_type": "node",
            "lat": 48.3166883,
            "lon": 14.3052813,
            "designation": "Apartments at Winterhafen",
            "email": "bookings@portus.at",
            "name": "Apartments at Winterhafen",
            "phone": "+43 732 268 268",
            "tourism": "guest_house",
            "website": "http://www.portus.at/"
          },
          "geometry": {
            "type": "Point",
            "coordinates": [
              14.3052813,
              48.3166883
            ]
          }
        },
        {
          "type": "Feature",
          "properties": {
            "id": "4540325838",
            "osm_type": "node",
            "lat": 48.2069576,
            "lon": 14.3801593,
            "name": "Zur Kanne",
            "operator": "Familie Koppler",
            "tourism": "guest_house",
            "wheelchair": "no"
          },
          "geometry": {
            "type": "Point",
            "coordinates": [
              14.3801593,
              48.2069576
            ]
          }
        },
        {
          "type": "Feature",
          "properties": {
            "id": "5261815231",
            "osm_type": "node",
            "lat": 48.3036805,
            "lon": 14.3134508,
            "email": "city@montagehotel.at",
            "name": "Montagehotel Business & City",
            "phone": "+43 732 77 32 01",
            "tourism": "guest_house",
            "website": "https://www.montagehotel.at/city-hotel"
          },
          "geometry": {
            "type": "Point",
            "coordinates": [
              14.3134508,
              48.3036805
            ]
          }
        },
        {
          "type": "Feature",
          "properties": {
            "id": "5261815232",
            "osm_type": "node",
            "lat": 48.2730547,
            "lon": 14.3233877,
            "email": "steel@montagehotel.at",
            "name": "Bed & Steel Montagehotel",
            "phone": "+43 732 60 60 44",
            "tourism": "guest_house",
            "website": "https://www.montagehotel.at/bedandsteel"
          },
          "geometry": {
            "type": "Point",
            "coordinates": [
              14.3233877,
              48.2730547
            ]
          }
        },
        {
          "type": "Feature",
          "properties": {
            "id": "10994549219",
            "osm_type": "node",
            "lat": 48.2119,
            "lon": 14.329408,
            "name": "Wolfsjägerhof",
            "tourism": "guest_house"
          },
          "geometry": {
            "type": "Point",
            "coordinates": [
              14.329408,
              48.2119
            ]
          }
        },
        {
          "type": "Feature",
          "properties": {
            "id": "12041291991",
            "osm_type": "node",
            "lat": 48.2192903,
            "lon": 14.4165198,
            "addr:city": "Asten",
            "addr:housenumber": "10",
            "addr:postcode": "4481",
            "addr:street": "Wiener Straße",
            "name": "24/7 Asten",
            "operator": "Inge Dorninger",
            "phone": "+43 664 6503181",
            "tourism": "guest_house",
            "website": "https://www.zimmer-asten.at"
          },
          "geometry": {
            "type": "Point",
            "coordinates": [
              14.4165198,
              48.2192903
            ]
          }
        },
        {
          "type": "Feature",
          "properties": {
            "id": "12772898825",
            "osm_type": "node",
            "lat": 48.0809352,
            "lon": 14.5215798,
            "guest_house": "agritourism",
            "name": "Familie Adelberger",
            "tourism": "guest_house",
            "website": "https://adelberger-gaestezimmer.sta.io/"
          },
          "geometry": {
            "type": "Point",
            "coordinates": [
              14.5215798,
              48.0809352
            ]
          }
        },
        {
          "type": "Feature",
          "properties": {
            "id": "12883832683",
            "osm_type": "node",
            "lat": 48.168756,
            "lon": 14.5060848,
            "contact:mobile": "+43 650 5245 101",
            "guest_house": "bed_and_breakfast",
            "name": "Gästehaus Zehetner",
            "tourism": "guest_house",
            "website": "https://www.haus-zehetner.at/kontakt.php"
          },
          "geometry": {
            "type": "Point",
            "coordinates": [
              14.5060848,
              48.168756
            ]
          }
        },
        {
          "type": "Feature",
          "properties": {
            "id": "826754110",
            "osm_type": "node",
            "lat": 48.2282379,
            "lon": 14.8561674,
            "check_date": "2025-04-21",
            "name": "Pension Martha",
            "tourism": "guest_house"
          },
          "geometry": {
            "type": "Point",
            "coordinates": [
              14.8561674,
              48.2282379
            ]
          }
        },
        {
          "type": "Feature",
          "properties": {
            "id": "1792449131",
            "osm_type": "node",
            "lat": 48.2302827,
            "lon": 14.8953491,
            "name": "Wörthbauer",
            "tourism": "guest_house"
          },
          "geometry": {
            "type": "Point",
            "coordinates": [
              14.8953491,
              48.2302827
            ]
          }
        },
        {
          "type": "Feature",
          "properties": {
            "id": "1883479561",
            "osm_type": "node",
            "lat": 48.1830543,
            "lon": 14.6494387,
            "name": "Machlandgasthaus Wahl",
            "tourism": "guest_house"
          },
          "geometry": {
            "type": "Point",
            "coordinates": [
              14.6494387,
              48.1830543
            ]
          }
        },
        {
          "type": "Feature",
          "properties": {
            "id": "2021292586",
            "osm_type": "node",
            "lat": 48.3060854,
            "lon": 14.7021362,
            "name": "Ferienhof Löschgruber Urlaub am Bauernhof",
            "tourism": "guest_house"
          },
          "geometry": {
            "type": "Point",
            "coordinates": [
              14.7021362,
              48.3060854
            ]
          }
        },
        {
          "type": "Feature",
          "properties": {
            "id": "2024803237",
            "osm_type": "node",
            "lat": 48.2668495,
            "lon": 14.8067278,
            "name": "Josef Schiefer",
            "toilets:wheelchair": "yes",
            "tourism": "guest_house",
            "wheelchair": "yes"
          },
          "geometry": {
            "type": "Point",
            "coordinates": [
              14.8067278,
              48.2668495
            ]
          }
        },
        {
          "type": "Feature",
          "properties": {
            "id": "2024831156",
            "osm_type": "node",
            "lat": 48.2663699,
            "lon": 14.8079423,
            "name": "Kirchenwirt",
            "tourism": "guest_house"
          },
          "geometry": {
            "type": "Point",
            "coordinates": [
              14.8079423,
              48.2663699
            ]
          }
        },
        {
          "type": "Feature",
          "properties": {
            "id": "3270616339",
            "osm_type": "node",
            "lat": 48.315117,
            "lon": 14.7301954,
            "name": "Ebenhofer",
            "tourism": "guest_house"
          },
          "geometry": {
            "type": "Point",
            "coordinates": [
              14.7301954,
              48.315117
            ]
          }
        },
        {
          "type": "Feature",
          "properties": {
            "id": "4393294892",
            "osm_type": "node",
            "lat": 48.1951086,
            "lon": 14.9792031,
            "addr:housenumber": "40",
            "addr:place": "Willersbach",
            "contact:phone": "+43 7412 52678",
            "contact:website": "http://www.gasthof-krenn.at/Willkommen.3.0.html?&no_cache=1",
            "name": "Gasthof Krenn",
            "name:de": "Gasthof Krenn",
            "name:en": "Guesthouse Krenn",
            "operator": "Willibald Krenn Junior",
            "tourism": "guest_house"
          },
          "geometry": {
            "type": "Point",
            "coordinates": [
              14.9792031,
              48.1951086
            ]
          }
        },
        {
          "type": "Feature",
          "properties": {
            "id": "5859136054",
            "osm_type": "node",
            "lat": 48.0423059,
            "lon": 14.6271899,
            "addr:city": "Seitenstetten",
            "addr:country": "AT",
            "addr:housenumber": "95",
            "addr:postcode": "3353",
            "addr:street": "Steyrer Straße",
            "contact:phone": "+43 7477 422 17",
            "name": "Essmeister Gertrude-Urltalerhof",
            "tourism": "guest_house",
            "website": "https://seitenstetten.gv.at/gaststaetten-cafes/company/urltalerhof-essmeister-gertrude"
          },
          "geometry": {
            "type": "Point",
            "coordinates": [
              14.6271899,
              48.0423059
            ]
          }
        },
        {
          "type": "Feature",
          "properties": {
            "id": "5932209247",
            "osm_type": "node",
            "lat": 48.0644613,
            "lon": 14.8398707,
            "addr:city": "Neuhofen an der Ybbs",
            "addr:country": "AT",
            "addr:housenumber": "1",
            "addr:place": "Pumperlberg",
            "addr:postcode": "3364",
            "contact:phone": "+43 7475 52770",
            "name": "Pumperlberghof",
            "tourism": "guest_house"
          },
          "geometry": {
            "type": "Point",
            "coordinates": [
              14.8398707,
              48.0644613
            ]
          }
        },
        {
          "type": "Feature",
          "properties": {
            "id": "7314828702",
            "osm_type": "node",
            "lat": 48.1851393,
            "lon": 14.7126923,
            "addr:city": "Mitterkirchen",
            "addr:housenumber": "26",
            "addr:postcode": "4343",
            "addr:street": "Mitterkirchen",
            "email": "office@kraglhof.at",
            "name": "Kraglhof",
            "phone": "+43 7269 8313",
            "tourism": "guest_house",
            "website": "https://www.kraglhof.at/"
          },
          "geometry": {
            "type": "Point",
            "coordinates": [
              14.7126923,
              48.1851393
            ]
          }
        },
        {
          "type": "Feature",
          "properties": {
            "id": "7835525810",
            "osm_type": "node",
            "lat": 48.1099736,
            "lon": 14.8461411,
            "addr:city": "Greinsfurth",
            "addr:housenumber": "1",
            "addr:postcode": "3300",
            "addr:street": "Ortsplatz",
            "guest_house": "bed_and_breakfast",
            "name": "Gasthof Berger",
            "operator": "Adolf Berger",
            "rooms": "14",
            "tourism": "guest_house",
            "website": "http://www.gasthof-berger.at"
          },
          "geometry": {
            "type": "Point",
            "coordinates": [
              14.8461411,
              48.1099736
            ]
          }
        },
        {
          "type": "Feature",
          "properties": {
            "id": "7835544079",
            "osm_type": "node",
            "lat": 48.027015,
            "lon": 14.7687424,
            "addr:city": "Kematen an der Ybbs",
            "addr:country": "AR",
            "addr:housenumber": "30",
            "addr:postcode": "3331",
            "addr:street": "1. Straße",
            "contact:email": "pension@lettner.at",
            "contact:phone": "+43 7448 20022",
            "guest_house": "bed_and_breakfast",
            "internet_access": "wlan",
            "name": "Pension Lettner",
            "tourism": "guest_house",
            "website": "www.lettner.at"
          },
          "geometry": {
            "type": "Point",
            "coordinates": [
              14.7687424,
              48.027015
            ]
          }
        },
        {
          "type": "Feature",
          "properties": {
            "id": "8431741891",
            "osm_type": "node",
            "lat": 48.1607121,
            "lon": 14.8448063,
            "addr:city": "Ardagger Stift",
            "addr:housenumber": "3",
            "addr:postcode": "3321",
            "addr:street": "Stift",
            "air_conditioning": "yes",
            "contact:phone": "+43 7479 7393",
            "email": "rezeption@landgasthof-winter.at",
            "name": "Landgasthof Winter",
            "phone": "+436649795409",
            "reservation": "yes",
            "tourism": "guest_house",
            "website": "https://landgasthof-winter.at"
          },
          "geometry": {
            "type": "Point",
            "coordinates": [
              14.8448063,
              48.1607121
            ]
          }
        },
        {
          "type": "Feature",
          "properties": {
            "id": "9798375137",
            "osm_type": "node",
            "lat": 48.2269859,
            "lon": 14.8908568,
            "tourism": "guest_house"
          },
          "geometry": {
            "type": "Point",
            "coordinates": [
              14.8908568,
              48.2269859
            ]
          }
        },
        {
          "type": "Feature",
          "properties": {
            "id": "9807794477",
            "osm_type": "node",
            "lat": 48.2204367,
            "lon": 14.8322178,
            "phone": "+43 7268 456",
            "tourism": "guest_house"
          },
          "geometry": {
            "type": "Point",
            "coordinates": [
              14.8322178,
              48.2204367
            ]
          }
        },
        {
          "type": "Feature",
          "properties": {
            "id": "11001303027",
            "osm_type": "node",
            "lat": 48.0719623,
            "lon": 14.7340256,
            "contact:phone": "+43 670 602 9204",
            "guest_house": "bed_and_breakfast",
            "name": "Kattner-Rosenberger",
            "tourism": "guest_house",
            "website": "https://www.oesterreich-monteurzimmer.at/monteurunterkunft-kattner-3361-mitterhausleiten.html"
          },
          "geometry": {
            "type": "Point",
            "coordinates": [
              14.7340256,
              48.0719623
            ]
          }
        },
        {
          "type": "Feature",
          "properties": {
            "id": "13088536913",
            "osm_type": "node",
            "lat": 48.1584507,
            "lon": 14.8428625,
            "addr:city": "Ardagger Stift",
            "addr:housenumber": "10",
            "addr:postcode": "3321",
            "addr:street": "Stift",
            "name": "Baumgartenhof",
            "phone": "+43 7479 7393",
            "tourism": "guest_house",
            "website": "https://baumgartenhof.at"
          },
          "geometry": {
            "type": "Point",
            "coordinates": [
              14.8428625,
              48.1584507
            ]
          }
        },
        {
          "type": "Feature",
          "properties": {
            "id": "488188669",
            "osm_type": "node",
            "lat": 48.059149,
            "lon": 15.1328223,
            "addr:city": "Purgstall an der Erlauf",
            "addr:housenumber": "21",
            "addr:postcode": "3251",
            "addr:street": "Pöchlarner Straße",
            "name": "Gästehaus Veronika",
            "tourism": "guest_house",
            "website": "https://www.gaestehaus-veronika.at/"
          },
          "geometry": {
            "type": "Point",
            "coordinates": [
              15.1328223,
              48.059149
            ]
          }
        },
        {
          "type": "Feature",
          "properties": {
            "id": "3793997312",
            "osm_type": "node",
            "lat": 48.1771765,
            "lon": 15.0809019,
            "fax": "+43 7412 52391",
            "name": "E. Moser KG",
            "phone": "+43 7412 52434",
            "tourism": "guest_house"
          },
          "geometry": {
            "type": "Point",
            "coordinates": [
              15.0809019,
              48.1771765
            ]
          }
        },
        {
          "type": "Feature",
          "properties": {
            "id": "4087771135",
            "osm_type": "node",
            "lat": 48.1868143,
            "lon": 15.0686906,
            "email": "zimmer@frischamtisch.com",
            "name": "Weinberger - Wohnen beim Bäcker",
            "phone": "+43 7412 54515",
            "tourism": "guest_house",
            "website": "https://www.frischamtisch.com/"
          },
          "geometry": {
            "type": "Point",
            "coordinates": [
              15.0686906,
              48.1868143
            ]
          }
        },
        {
          "type": "Feature",
          "properties": {
            "id": "5098459821",
            "osm_type": "node",
            "lat": 48.2886441,
            "lon": 15.0604626,
            "name": "Pension \"Zur blauen Traube\"",
            "tourism": "guest_house"
          },
          "geometry": {
            "type": "Point",
            "coordinates": [
              15.0604626,
              48.2886441
            ]
          }
        },
        {
          "type": "Feature",
          "properties": {
            "id": "6784601860",
            "osm_type": "node",
            "lat": 48.0790099,
            "lon": 15.1367247,
            "name": "Gesundheits- u. Erholungspension Schager",
            "tourism": "guest_house"
          },
          "geometry": {
            "type": "Point",
            "coordinates": [
              15.1367247,
              48.0790099
            ]
          }
        },
        {
          "type": "Feature",
          "properties": {
            "id": "7868961092",
            "osm_type": "node",
            "lat": 48.2258949,
            "lon": 15.1600324,
            "addr:city": "Maria Taferl",
            "addr:country": "AT",
            "addr:housenumber": "42",
            "addr:place": "Maria Taferl",
            "addr:postcode": "3672",
            "name": "Frühstückspension Haus Regina",
            "operator": "Familie Gruber",
            "phone": "+43 7413 266",
            "tourism": "guest_house",
            "website": "https://www.hausregina.at/"
          },
          "geometry": {
            "type": "Point",
            "coordinates": [
              15.1600324,
              48.2258949
            ]
          }
        },
        {
          "type": "Feature",
          "properties": {
            "id": "8248293679",
            "osm_type": "node",
            "lat": 48.2124755,
            "lon": 15.2125199,
            "addr:city": "Pöchlarn",
            "addr:country": "AT",
            "addr:housenumber": "4",
            "addr:postcode": "3380",
            "addr:street": "Wiener Straße",
            "internet_access": "wlan",
            "name": "Haus Barbara",
            "phone": "+43 2757 2321",
            "smoking": "no",
            "stars": "3",
            "tourism": "guest_house",
            "website": "http://www.pensionbarbara.net/"
          },
          "geometry": {
            "type": "Point",
            "coordinates": [
              15.2125199,
              48.2124755
            ]
          }
        },
        {
          "type": "Feature",
          "properties": {
            "id": "9794130921",
            "osm_type": "node",
            "lat": 48.1887952,
            "lon": 15.1100308,
            "tourism": "guest_house"
          },
          "geometry": {
            "type": "Point",
            "coordinates": [
              15.1100308,
              48.1887952
            ]
          }
        },
        {
          "type": "Feature",
          "properties": {
            "id": "11712119454",
            "osm_type": "node",
            "lat": 48.2128192,
            "lon": 15.2153924,
            "addr:city": "Pöchlarn",
            "addr:country": "AT",
            "addr:housenumber": "13-15",
            "addr:postcode": "3380",
            "addr:street": "Wiener Straße",
            "name": "Gasthof zum Niebelungenbauer",
            "tourism": "guest_house"
          },
          "geometry": {
            "type": "Point",
            "coordinates": [
              15.2153924,
              48.2128192
            ]
          }
        },
        {
          "type": "Feature",
          "properties": {
            "id": "11712119455",
            "osm_type": "node",
            "lat": 48.2127515,
            "lon": 15.2178156,
            "addr:city": "Pöchlarn",
            "addr:country": "AT",
            "addr:housenumber": "4",
            "addr:postcode": "3380",
            "addr:street": "Wiener Straße",
            "internet_access": "wlan",
            "name": "Privatzimmer Familie Wagner",
            "tourism": "guest_house"
          },
          "geometry": {
            "type": "Point",
            "coordinates": [
              15.2178156,
              48.2127515
            ]
          }
        },
        {
          "type": "Feature",
          "properties": {
            "id": "12598737307",
            "osm_type": "node",
            "lat": 48.1810174,
            "lon": 15.0778449,
            "email": "lindenhofybbs@gmail.com",
            "guest_house": "bed_and_breakfast",
            "internet_access": "wlan",
            "internet_access:fee": "customers",
            "name": "Lindenhof",
            "operator": "Wolfgang Göbl",
            "tourism": "guest_house"
          },
          "geometry": {
            "type": "Point",
            "coordinates": [
              15.0778449,
              48.1810174
            ]
          }
        }
      ],
      "children": []
    }
  ]
}