{
  "bbox": {
    "south": 46.372652,
    "west": 15.253173,
    "north": 47.033758500000005,
    "east": 17.16058
  },
  "poiCount": 231,
  "leafCount": 0,
  "averagePosition": [
    16.26721575151515,
    46.732509945021654
  ],
  "data": [],
  "children": [
    {
      "bbox": {
        "south": 46.372652,
        "west": 15.253173,
        "north": 46.70320525,
        "east": 16.2068765
      },
      "poiCount": 45,
      "leafCount": 45,
      "averagePosition": [
        15.705622973333334,
        46.5511057
      ],
      "data": [
        {
          "type": "Feature",
          "properties": {
            "id": "403272462",
            "osm_type": "node",
            "lat": 46.5954598,
            "lon": 15.3074336,
            "addr:city": "Podvelka",
            "addr:housenumber": "14",
            "addr:postcode": "2363",
            "addr:street": "Janževski vrh",
            "name": "Mandlovo",
            "phone": "+386 41 281309",
            "stars": "2",
            "tourism": "guest_house"
          },
          "geometry": {
            "type": "Point",
            "coordinates": [
              15.3074336,
              46.5954598
            ]
          }
        },
        {
          "type": "Feature",
          "properties": {
            "id": "706352840",
            "osm_type": "node",
            "lat": 46.5030628,
            "lon": 15.4471276,
            "addr:city": "Ruše",
            "addr:housenumber": "38",
            "addr:postcode": "2342",
            "addr:street": "Smolnik",
            "name": "Mladinski dom Smolnik",
            "phone": "+386 2 6611971",
            "tourism": "hostel"
          },
          "geometry": {
            "type": "Point",
            "coordinates": [
              15.4471276,
              46.5030628
            ]
          }
        },
        {
          "type": "Feature",
          "properties": {
            "id": "1939607604",
            "osm_type": "node",
            "lat": 46.6147194,
            "lon": 15.5152653,
            "addr:city": "Sveti Duh na Ostrem Vrhu",
            "addr:country": "SI",
            "addr:housenumber": "31A",
            "addr:postcode": "2353",
            "addr:street": "Veliki Boč",
            "email": "skorpijon@csod.si",
            "name": "Škorpijon",
            "operator": "Center šolskih in obšolskih dejavnosi",
            "phone": "+386 31 607581",
            "tourism": "hostel"
          },
          "geometry": {
            "type": "Point",
            "coordinates": [
              15.5152653,
              46.6147194
            ]
          }
        },
        {
          "type": "Feature",
          "properties": {
            "id": "2109534320",
            "osm_type": "node",
            "lat": 46.5409875,
            "lon": 15.519065,
            "name": "Hostel Veternica",
            "tourism": "hostel"
          },
          "geometry": {
            "type": "Point",
            "coordinates": [
              15.519065,
              46.5409875
            ]
          }
        },
        {
          "type": "Feature",
          "properties": {
            "id": "2255984996",
            "osm_type": "node",
            "lat": 46.6761016,
            "lon": 15.3982659,
            "addr:city": "Arnfels",
            "addr:country": "AT",
            "addr:housenumber": "244",
            "addr:postcode": "8454",
            "addr:street": "Franz Eckrieder-Straße",
            "contact:email": "lang.renate@redzac.at",
            "contact:mobile": "+43 664 3458044",
            "name": "Erika Lang",
            "official_name": "Zimmervermietung Erika Lang",
            "tourism": "guest_house",
            "weinmobil:note": "Bitte weinmobil:ref nicht entfernen, dient zum automatischen Update.",
            "weinmobil:ref": "425"
          },
          "geometry": {
            "type": "Point",
            "coordinates": [
              15.3982659,
              46.6761016
            ]
          }
        },
        {
          "type": "Feature",
          "properties": {
            "id": "2255985042",
            "osm_type": "node",
            "lat": 46.6761935,
            "lon": 15.4032086,
            "addr:city": "Arnfels",
            "addr:country": "AT",
            "addr:housenumber": "39",
            "addr:postcode": "8454",
            "addr:street": "Leutschacher Straße",
            "contact:email": "ursula.poltnigg@aon.at",
            "contact:mobile": "+43 650 6829850",
            "name": "Poltnigg",
            "official_name": "Ferienwohnung Poltnigg Ursula",
            "tourism": "guest_house",
            "website": "https://ferienwohnungen-poltnigg.at",
            "weinmobil:note": "Bitte weinmobil:ref nicht entfernen, dient zum automatischen Update.",
            "weinmobil:ref": "273"
          },
          "geometry": {
            "type": "Point",
            "coordinates": [
              15.4032086,
              46.6761935
            ]
          }
        },
        {
          "type": "Feature",
          "properties": {
            "id": "2261296680",
            "osm_type": "node",
            "lat": 46.6485207,
            "lon": 15.5270078,
            "addr:city": "Glanz an der Weinstraße",
            "addr:country": "AT",
            "addr:housenumber": "155",
            "addr:place": "Pößnitz",
            "addr:postcode": "8463",
            "contact:email": "m.schupanez@gmx.at",
            "contact:mobile": "+43 676 5960184",
            "contact:phone": "+43 3454 6308",
            "name": "Schupanez Martha",
            "source": "TVB Südsteiermark",
            "tourism": "guest_house",
            "weinmobil:note": "Bitte weinmobil:ref nicht entfernen, dient zum automatischen Update.",
            "weinmobil:ref": "335"
          },
          "geometry": {
            "type": "Point",
            "coordinates": [
              15.5270078,
              46.6485207
            ]
          }
        },
        {
          "type": "Feature",
          "properties": {
            "id": "7802015294",
            "osm_type": "node",
            "lat": 46.4533112,
            "lon": 15.3555487,
            "tourism": "guest_house"
          },
          "geometry": {
            "type": "Point",
            "coordinates": [
              15.3555487,
              46.4533112
            ]
          }
        },
        {
          "type": "Feature",
          "properties": {
            "id": "396106047",
            "osm_type": "node",
            "lat": 46.5025394,
            "lon": 15.5555446,
            "ele": "1110",
            "name": "Andrejev dom \"Pajk\"",
            "tourism": "guest_house"
          },
          "geometry": {
            "type": "Point",
            "coordinates": [
              15.5555446,
              46.5025394
            ]
          }
        },
        {
          "type": "Feature",
          "properties": {
            "id": "442707504",
            "osm_type": "node",
            "lat": 46.5038112,
            "lon": 15.5586895,
            "name": "Ruševec",
            "tourism": "guest_house"
          },
          "geometry": {
            "type": "Point",
            "coordinates": [
              15.5586895,
              46.5038112
            ]
          }
        },
        {
          "type": "Feature",
          "properties": {
            "id": "443883959",
            "osm_type": "node",
            "lat": 46.5020887,
            "lon": 15.5474203,
            "name": "Kagerjev dom",
            "tourism": "guest_house"
          },
          "geometry": {
            "type": "Point",
            "coordinates": [
              15.5474203,
              46.5020887
            ]
          }
        },
        {
          "type": "Feature",
          "properties": {
            "id": "1144600046",
            "osm_type": "node",
            "lat": 46.4699553,
            "lon": 15.5831389,
            "name": "Penzion Planica",
            "tourism": "guest_house"
          },
          "geometry": {
            "type": "Point",
            "coordinates": [
              15.5831389,
              46.4699553
            ]
          }
        },
        {
          "type": "Feature",
          "properties": {
            "id": "1845074349",
            "osm_type": "node",
            "lat": 46.6065373,
            "lon": 15.8901789,
            "addr:city": "Benedikt",
            "addr:housenumber": "1",
            "addr:postcode": "2234",
            "addr:street": "Čolnikov trg",
            "contact:email": "info@penzionpetelin.si",
            "contact:website": "http://www.penzionpetelin.si",
            "description": "Petelinova klet je za vas odprla vrata 17. Januarja 1997. Nahaja se v prelepi Slovenje goriški občini Benedikt, ki je pa še posebej zanimiva v jeseni, ko pa njenih gričih zapojo svojo pesem klopotci.",
            "email": "andreja@penzionpetelin.si",
            "fax": "+386 2 7031503",
            "name": "Penzion Petelin",
            "note": "Prespi se lahko za noč , 2 ali 3. Ne pa za 1 mesec. Ni primerno za delavce",
            "opening_hours": "Mo-Th 07:00-23:00; Fr,Sa 07:00-14:00; Su 07:00-12:00",
            "phone": "+386 2 7031427",
            "residential": "apartment",
            "tourism": "guest_house"
          },
          "geometry": {
            "type": "Point",
            "coordinates": [
              15.8901789,
              46.6065373
            ]
          }
        },
        {
          "type": "Feature",
          "properties": {
            "id": "1889591710",
            "osm_type": "node",
            "lat": 46.5389104,
            "lon": 15.6044681,
            "addr:street": "Ob ribniku",
            "email": "info@pohorska-kavarna.com",
            "internet_access": "wlan",
            "name": "Pohorska kavarna",
            "phone": "+386 2 6141500",
            "stars": "3",
            "tourism": "guest_house",
            "website": "http://www.potocnik.si/eng/home/",
            "wheelchair": "no"
          },
          "geometry": {
            "type": "Point",
            "coordinates": [
              15.6044681,
              46.5389104
            ]
          }
        },
        {
          "type": "Feature",
          "properties": {
            "id": "1991181635",
            "osm_type": "node",
            "lat": 46.6819499,
            "lon": 15.6490389,
            "name": "Gostilna Belna",
            "tourism": "guest_house"
          },
          "geometry": {
            "type": "Point",
            "coordinates": [
              15.6490389,
              46.6819499
            ]
          }
        },
        {
          "type": "Feature",
          "properties": {
            "id": "1991181636",
            "osm_type": "node",
            "lat": 46.6756682,
            "lon": 15.6427579,
            "name": "Dolina pod Brlogo",
            "tourism": "guest_house"
          },
          "geometry": {
            "type": "Point",
            "coordinates": [
              15.6427579,
              46.6756682
            ]
          }
        },
        {
          "type": "Feature",
          "properties": {
            "id": "2330781938",
            "osm_type": "node",
            "lat": 46.5517238,
            "lon": 15.6442363,
            "addr:city": "Maribor",
            "addr:housenumber": "16",
            "addr:postcode": "2000",
            "addr:street": "Ob železnici",
            "check_date": "2024-06-03",
            "email": "hostelpekarna@mkc.si",
            "name": "Hostel Pekarna",
            "phone": "+386 5 918 0880",
            "tourism": "hostel",
            "website": "http://www.hostelpekarna.eu/",
            "wheelchair": "yes",
            "wikidata": "Q111121335"
          },
          "geometry": {
            "type": "Point",
            "coordinates": [
              15.6442363,
              46.5517238
            ]
          }
        },
        {
          "type": "Feature",
          "properties": {
            "id": "2836468529",
            "osm_type": "node",
            "lat": 46.4206547,
            "lon": 15.8748185,
            "name": "Kurent",
            "tourism": "hostel",
            "wheelchair": "yes"
          },
          "geometry": {
            "type": "Point",
            "coordinates": [
              15.8748185,
              46.4206547
            ]
          }
        },
        {
          "type": "Feature",
          "properties": {
            "id": "2994554190",
            "osm_type": "node",
            "lat": 46.558084,
            "lon": 15.6479774,
            "addr:city": "Maribor",
            "addr:housenumber": "8",
            "addr:postcode": "2000",
            "addr:street": "Vetrinjska ulica",
            "name": "Hostel Vetrinjska Maribor",
            "tourism": "hostel"
          },
          "geometry": {
            "type": "Point",
            "coordinates": [
              15.6479774,
              46.558084
            ]
          }
        },
        {
          "type": "Feature",
          "properties": {
            "id": "3464736586",
            "osm_type": "node",
            "lat": 46.5028416,
            "lon": 15.8465503,
            "name": "Turistična kmetija Lovrec",
            "source": "www.bedandbreakfast.eu",
            "tourism": "guest_house"
          },
          "geometry": {
            "type": "Point",
            "coordinates": [
              15.8465503,
              46.5028416
            ]
          }
        },
        {
          "type": "Feature",
          "properties": {
            "id": "3813608996",
            "osm_type": "node",
            "lat": 46.4189187,
            "lon": 15.8674083,
            "addr:city": "Ptuj",
            "addr:housenumber": "13",
            "addr:postcode": "2250",
            "addr:street": "Dravska ulica",
            "contact:email": "info@rooms-silak.com",
            "contact:fax": "+386 2 787 74 48",
            "contact:mobile": "+386 31 597 361",
            "contact:phone": "+386 2 787 74 47",
            "contact:website": "http://www.rooms-silak.com/",
            "description": "You are kindly invited to make us your residence during your stay in Ptuj.",
            "guest_house": "bed_and_breakfast",
            "internet_access": "wlan",
            "name": "Rooms and Apartments Šilak",
            "name:sl": "Zasebne sobe in apartmaji Šilak",
            "operator": "Vladimir Šilak s.p.",
            "tourism": "guest_house",
            "website": "https://www.rooms-silak.com/"
          },
          "geometry": {
            "type": "Point",
            "coordinates": [
              15.8674083,
              46.4189187
            ]
          }
        },
        {
          "type": "Feature",
          "properties": {
            "id": "4187582615",
            "osm_type": "node",
            "lat": 46.5581158,
            "lon": 15.6476008,
            "addr:city": "Maribor",
            "addr:housenumber": "5",
            "addr:postcode": "2000",
            "addr:street": "Vetrinjska ulica",
            "name": "Tapas Hostel",
            "tourism": "hostel"
          },
          "geometry": {
            "type": "Point",
            "coordinates": [
              15.6476008,
              46.5581158
            ]
          }
        },
        {
          "type": "Feature",
          "properties": {
            "id": "4260028691",
            "osm_type": "node",
            "lat": 46.5367457,
            "lon": 15.5983419,
            "addr:housenumber": "34",
            "addr:street": "Grizoldova ulica",
            "name": "Bed and Breakfast Beros",
            "tourism": "guest_house"
          },
          "geometry": {
            "type": "Point",
            "coordinates": [
              15.5983419,
              46.5367457
            ]
          }
        },
        {
          "type": "Feature",
          "properties": {
            "id": "4630000516",
            "osm_type": "node",
            "lat": 46.4668407,
            "lon": 15.7654258,
            "addr:city": "Starše",
            "addr:housenumber": "90a",
            "addr:postcode": "2205",
            "addr:street": "Starše",
            "air_conditioning": "yes",
            "guest_house": "guest_house",
            "internet_access": "wlan",
            "internet_access:fee": "no",
            "name": "Beno",
            "operator": "Miha Premzl s.p.",
            "ref:gurs:hs_mid": "16005070",
            "reservation": "yes",
            "rooms": "10",
            "source:addr": "GURS",
            "tourism": "guest_house",
            "website": "https://www.gostilna-beno.si/sobe/"
          },
          "geometry": {
            "type": "Point",
            "coordinates": [
              15.7654258,
              46.4668407
            ]
          }
        },
        {
          "type": "Feature",
          "properties": {
            "id": "4643636998",
            "osm_type": "node",
            "lat": 46.5429129,
            "lon": 15.6065829,
            "addr:housenumber": "55",
            "addr:postcode": "2000",
            "addr:street": "Na griču",
            "name": "Doma",
            "name:en": "Home",
            "tourism": "guest_house"
          },
          "geometry": {
            "type": "Point",
            "coordinates": [
              15.6065829,
              46.5429129
            ]
          }
        },
        {
          "type": "Feature",
          "properties": {
            "id": "4643985990",
            "osm_type": "node",
            "lat": 46.5646549,
            "lon": 15.653154,
            "addr:housenumber": "30",
            "addr:postcode": "2000",
            "addr:street": "Cankarjeva ulica",
            "name": "Rebekica",
            "tourism": "guest_house"
          },
          "geometry": {
            "type": "Point",
            "coordinates": [
              15.653154,
              46.5646549
            ]
          }
        },
        {
          "type": "Feature",
          "properties": {
            "id": "4708238190",
            "osm_type": "node",
            "lat": 46.5574321,
            "lon": 15.6176427,
            "addr:city": "Maribor",
            "addr:housenumber": "66A",
            "addr:postcode": "2000",
            "addr:street": "Limbuška cesta",
            "internet_access": "wlan",
            "tourism": "guest_house"
          },
          "geometry": {
            "type": "Point",
            "coordinates": [
              15.6176427,
              46.5574321
            ]
          }
        },
        {
          "type": "Feature",
          "properties": {
            "id": "5907045125",
            "osm_type": "node",
            "lat": 46.6961758,
            "lon": 15.6131474,
            "addr:city": "Straß in Steiermark",
            "addr:country": "AT",
            "addr:housenumber": "36",
            "addr:place": "Graßnitzberg",
            "addr:postcode": "8471",
            "addr:suburb": "Graßnitzberg",
            "contact:email": "urlaub@südsteiermark-ferienhaus.at",
            "contact:mobile": "+43 664 4257030",
            "name": "Winzerhaus",
            "operator": "Irene Strohmeier",
            "source": "GeoImage.at High-Res;TVB Südsteiermark",
            "tourism": "guest_house",
            "website": "http://www.ferienhaus-steiermark.at/"
          },
          "geometry": {
            "type": "Point",
            "coordinates": [
              15.6131474,
              46.6961758
            ]
          }
        },
        {
          "type": "Feature",
          "properties": {
            "id": "5907045126",
            "osm_type": "node",
            "lat": 46.696117,
            "lon": 15.6131675,
            "addr:city": "Straß in Steiermark",
            "addr:country": "AT",
            "addr:housenumber": "36a",
            "addr:place": "Graßnitzberg",
            "addr:postcode": "8471",
            "addr:suburb": "Graßnitzberg",
            "contact:email": "urlaub@südsteiermark-ferienhaus.at",
            "contact:mobile": "+43 664 4257030",
            "name": "Weinberghaus",
            "operator": "Irene Strohmeier",
            "source": "GeoImage.at High-Res;TVB Südsteiermark",
            "tourism": "guest_house",
            "website": "http://www.ferienhaus-steiermark.at/"
          },
          "geometry": {
            "type": "Point",
            "coordinates": [
              15.6131675,
              46.696117
            ]
          }
        },
        {
          "type": "Feature",
          "properties": {
            "id": "6847763431",
            "osm_type": "node",
            "lat": 46.5365572,
            "lon": 15.5983281,
            "addr:housenumber": "31",
            "addr:street": "Grizoldova",
            "description": "Sobe - Zimmer - Rooms",
            "name": "Sobe Mekina",
            "tourism": "guest_house",
            "website": "www.mekina.si"
          },
          "geometry": {
            "type": "Point",
            "coordinates": [
              15.5983281,
              46.5365572
            ]
          }
        },
        {
          "type": "Feature",
          "properties": {
            "id": "6866259315",
            "osm_type": "node",
            "lat": 46.6781802,
            "lon": 15.8250432,
            "tourism": "guest_house"
          },
          "geometry": {
            "type": "Point",
            "coordinates": [
              15.8250432,
              46.6781802
            ]
          }
        },
        {
          "type": "Feature",
          "properties": {
            "id": "7242496598",
            "osm_type": "node",
            "lat": 46.422148,
            "lon": 15.8731249,
            "addr:city": "Ptuj",
            "addr:housenumber": "1",
            "addr:postcode": "2250",
            "addr:street": "Panonska ulica",
            "email": "info@hisadivino.com",
            "internet_access": "wlan",
            "internet_access:fee": "customers",
            "name": "Hiša Divino",
            "operator": "GOSTINSTVO BOJAN ŠOŠTARIĆ S.P.",
            "phone": "+386 2 748 16 83",
            "rooms": "7",
            "tourism": "guest_house",
            "website": "http://hisadivino.com/"
          },
          "geometry": {
            "type": "Point",
            "coordinates": [
              15.8731249,
              46.422148
            ]
          }
        },
        {
          "type": "Feature",
          "properties": {
            "id": "7242496604",
            "osm_type": "node",
            "lat": 46.4205406,
            "lon": 15.8706967,
            "addr:city": "Ptuj",
            "addr:country": "SI",
            "addr:housenumber": "10",
            "addr:postcode": "2250",
            "addr:street": "Slovenski Trg",
            "email": "ptujprostija@gmail.com",
            "internet_access": "wlan",
            "internet_access:fee": "customers",
            "name": "Sobe Proštija",
            "phone": "+386 31 331 055",
            "rooms": "4",
            "tourism": "guest_house",
            "website": "https://www.sobeprostija.com/"
          },
          "geometry": {
            "type": "Point",
            "coordinates": [
              15.8706967,
              46.4205406
            ]
          }
        },
        {
          "type": "Feature",
          "properties": {
            "id": "8042827415",
            "osm_type": "node",
            "lat": 46.6936121,
            "lon": 15.9893101,
            "addr:city": "Bad Radkersburg",
            "addr:housenumber": "2",
            "addr:postcode": "8490",
            "addr:street": "Wurzingerweg",
            "air_conditioning": "no",
            "email": "astrid.gaestehaus@aon.at",
            "guest_house": "guest_house",
            "internet_access": "yes",
            "internet_access:fee": "no",
            "name": "Gästehaus Astrid",
            "phone": "+43 3476 41093",
            "tourism": "guest_house",
            "website": "https://www.astrid-gaestehaus.com"
          },
          "geometry": {
            "type": "Point",
            "coordinates": [
              15.9893101,
              46.6936121
            ]
          }
        },
        {
          "type": "Feature",
          "properties": {
            "id": "8146905748",
            "osm_type": "node",
            "lat": 46.5568362,
            "lon": 15.6415321,
            "check_date": "2025-09-05",
            "name": "Fani&Rozi",
            "tourism": "guest_house"
          },
          "geometry": {
            "type": "Point",
            "coordinates": [
              15.6415321,
              46.5568362
            ]
          }
        },
        {
          "type": "Feature",
          "properties": {
            "id": "10816824259",
            "osm_type": "node",
            "lat": 46.4139574,
            "lon": 15.8643405,
            "addr:city": "Ptuj",
            "addr:housenumber": "10",
            "addr:postcode": "2250",
            "addr:street": "Zagrebška cesta",
            "email": "hostel.sonce@gmail.com",
            "guest_house": "bed_and_breakfast",
            "internet_access": "wlan",
            "internet_access:fee": "no",
            "name": "HOSTEL SONCE",
            "phone": "+386 31 361 982",
            "ref:gurs:hs_mid": "14269606",
            "rooms": "11",
            "tourism": "hostel",
            "website": "https://hostel-sonce.com/"
          },
          "geometry": {
            "type": "Point",
            "coordinates": [
              15.8643405,
              46.4139574
            ]
          }
        },
        {
          "type": "Feature",
          "properties": {
            "id": "11654259087",
            "osm_type": "node",
            "lat": 46.4541236,
            "lon": 15.8510642,
            "addr:city": "Ptuj",
            "addr:country": "SI",
            "addr:hamlet": "Mestn Vrh",
            "addr:housenumber": "90",
            "addr:postcode": "2250",
            "addr:street": "Mestni Vrh",
            "contact:email": "natasha@herberstein.house",
            "contact:phone": "+386 70 405 607",
            "contact:website": "www.herberstein.house",
            "guest_house": "bed_and_breakfast",
            "name": "Hiska Herberstein",
            "name:en": "Herberstein House",
            "operator": "STORITVE GOLOB d.o.o.",
            "ref:gurs:hs_mid": "14221417",
            "tourism": "guest_house"
          },
          "geometry": {
            "type": "Point",
            "coordinates": [
              15.8510642,
              46.4541236
            ]
          }
        },
        {
          "type": "Feature",
          "properties": {
            "id": "11665767023",
            "osm_type": "node",
            "lat": 46.4192456,
            "lon": 15.8699791,
            "addr:city": "Ptuj",
            "addr:country": "SI",
            "addr:housenumber": "1",
            "addr:postcode": "2250",
            "addr:street": "Vrazov trg",
            "contact:email": "info@muzikafe.si",
            "contact:mobile": "+386 41 654 401",
            "contact:phone": "+386 2 787 88 60",
            "contact:website": "http://www.muzikafe.si",
            "description": "We have created our own home, Home of CULTure, a multicultural building which includes the coffee bar muziKafe.",
            "guest_house": "bed_and_breakfast",
            "name": "MuziKafe - B&B",
            "opening_hours": "24/7",
            "operator": "MuziKafe - domKULTure",
            "outdoor_seating": "yes",
            "rooms": "6",
            "tourism": "guest_house",
            "tourism_1": "bed_and_breakfast",
            "wheelchair": "limited"
          },
          "geometry": {
            "type": "Point",
            "coordinates": [
              15.8699791,
              46.4192456
            ]
          }
        },
        {
          "type": "Feature",
          "properties": {
            "id": "12732611801",
            "osm_type": "node",
            "lat": 46.5599254,
            "lon": 15.6471005,
            "addr:housenumber": "4",
            "addr:postcode": "2000",
            "addr:street": "Volkmerjev prehod",
            "name": "B&B HOTEL Maribor UNI Hostel",
            "phone": "+39 02 4875 1745",
            "tourism": "hostel"
          },
          "geometry": {
            "type": "Point",
            "coordinates": [
              15.6471005,
              46.5599254
            ]
          }
        },
        {
          "type": "Feature",
          "properties": {
            "id": "12924198263",
            "osm_type": "node",
            "lat": 46.5167287,
            "lon": 15.590639,
            "note": "2 sobi na razpolago za prenočišče po potrebi",
            "tourism": "guest_house",
            "website:booking": "https://admin.booking.com/hotel/hoteladmin/extranet_ng/manage/home.html?ses=be5bbd231ec82859c8a7db353835274d&f_gc_header=0&hotel_id=13814593"
          },
          "geometry": {
            "type": "Point",
            "coordinates": [
              15.590639,
              46.5167287
            ]
          }
        },
        {
          "type": "Feature",
          "properties": {
            "id": "4432393011",
            "osm_type": "node",
            "lat": 46.5622617,
            "lon": 16.1413086,
            "name": "Eko Hostel",
            "tourism": "hostel"
          },
          "geometry": {
            "type": "Point",
            "coordinates": [
              16.1413086,
              46.5622617
            ]
          }
        },
        {
          "type": "Feature",
          "properties": {
            "id": "5810064424",
            "osm_type": "node",
            "lat": 46.5034613,
            "lon": 16.1415582,
            "contact:phone": "+386 40 419 286",
            "tourism": "guest_house"
          },
          "geometry": {
            "type": "Point",
            "coordinates": [
              16.1415582,
              46.5034613
            ]
          }
        },
        {
          "type": "Feature",
          "properties": {
            "id": "6196397099",
            "osm_type": "node",
            "lat": 46.4694307,
            "lon": 16.1721973,
            "addr:city": "Ivanjkovci",
            "addr:housenumber": "21",
            "addr:postcode": "2259",
            "addr:street": "Svetinje",
            "internet_access": "wlan",
            "internet_access:fee": "no",
            "name": "Taverna Kupljen",
            "ref:gurs:hs_mid": "14021060",
            "rooms": "6",
            "smoking": "outside",
            "tourism": "guest_house"
          },
          "geometry": {
            "type": "Point",
            "coordinates": [
              16.1721973,
              46.4694307
            ]
          }
        },
        {
          "type": "Feature",
          "properties": {
            "id": "6661283014",
            "osm_type": "node",
            "lat": 46.6808768,
            "lon": 16.0329853,
            "addr:city": "Bad Radkersburg",
            "addr:housenumber": "62",
            "addr:postcode": "8490",
            "addr:street": "Sicheldorf",
            "beds": "10",
            "email": "info@gaestehaus-sabina.at",
            "guest_house": "pension",
            "internet_access": "wlan",
            "internet_access:fee": "no",
            "name": "Gästehaus Sabina",
            "operator": "Ines Starruß",
            "phone": "+436643919847",
            "rooms": "5",
            "smoking": "outside",
            "stars": "3",
            "tourism": "guest_house",
            "website": "https://www.gaestehaus-sabina.at",
            "wheelchair": "no"
          },
          "geometry": {
            "type": "Point",
            "coordinates": [
              16.0329853,
              46.6808768
            ]
          }
        },
        {
          "type": "Feature",
          "properties": {
            "id": "9787649209",
            "osm_type": "node",
            "lat": 46.6508364,
            "lon": 16.1436126,
            "tourism": "guest_house"
          },
          "geometry": {
            "type": "Point",
            "coordinates": [
              16.1436126,
              46.6508364
            ]
          }
        }
      ],
      "children": []
    },
    {
      "bbox": {
        "south": 46.372652,
        "west": 16.2068765,
        "north": 46.70320525,
        "east": 17.16058
      },
      "poiCount": 42,
      "leafCount": 42,
      "averagePosition": [
        16.674703545238096,
        46.53940718809524
      ],
      "data": [
        {
          "type": "Feature",
          "properties": {
            "id": "1568932161",
            "osm_type": "node",
            "lat": 46.3920624,
            "lon": 16.4322088,
            "addr:city": "Čakovec",
            "addr:housenumber": "1",
            "addr:postcode": "40000",
            "addr:street": "Ulica Franje Punčeca",
            "name": "Rooms Aurora",
            "stars": "3",
            "tourism": "guest_house"
          },
          "geometry": {
            "type": "Point",
            "coordinates": [
              16.4322088,
              46.3920624
            ]
          }
        },
        {
          "type": "Feature",
          "properties": {
            "id": "3446415868",
            "osm_type": "node",
            "lat": 46.5585609,
            "lon": 16.4516841,
            "name": "Apartmaji",
            "tourism": "guest_house"
          },
          "geometry": {
            "type": "Point",
            "coordinates": [
              16.4516841,
              46.5585609
            ]
          }
        },
        {
          "type": "Feature",
          "properties": {
            "id": "3468078777",
            "osm_type": "node",
            "lat": 46.58637,
            "lon": 16.53081,
            "name": "Apartman",
            "source": "turistautak.hu",
            "source:date": "2011-09-19",
            "tourism": "guest_house",
            "url": "http://turistautak.hu/poi.php?id=18365"
          },
          "geometry": {
            "type": "Point",
            "coordinates": [
              16.53081,
              46.58637
            ]
          }
        },
        {
          "type": "Feature",
          "properties": {
            "id": "3468078782",
            "osm_type": "node",
            "lat": 46.63627,
            "lon": 16.4433,
            "description": "Cím: 8969 Zalaszombatfa, Kossuth utca 12.",
            "email": "info@csicsergo.hu",
            "name": "Csicsergő turistaszálló",
            "phone": "+36 92 577 021",
            "source": "turistautak.hu",
            "source:date": "2012-03-19",
            "tourism": "guest_house",
            "url": "http://turistautak.hu/poi.php?id=135858",
            "website": "https://csicsergo.hu/"
          },
          "geometry": {
            "type": "Point",
            "coordinates": [
              16.4433,
              46.63627
            ]
          }
        },
        {
          "type": "Feature",
          "properties": {
            "id": "4265903398",
            "osm_type": "node",
            "lat": 46.6856852,
            "lon": 16.2186882,
            "name": "Prenočišča",
            "tourism": "hostel"
          },
          "geometry": {
            "type": "Point",
            "coordinates": [
              16.2186882,
              46.6856852
            ]
          }
        },
        {
          "type": "Feature",
          "properties": {
            "id": "4265957319",
            "osm_type": "node",
            "lat": 46.6857094,
            "lon": 16.2156056,
            "addr:city": "Moravske Toplice",
            "addr:housenumber": "27",
            "addr:postcode": "9226",
            "addr:street": "Levstikova ulica",
            "name": "Sobe-Apartmaji Panker",
            "operator": "Cecilija Panker s.p.",
            "ref:gurs:hs_mid": "19466469",
            "tourism": "guest_house"
          },
          "geometry": {
            "type": "Point",
            "coordinates": [
              16.2156056,
              46.6857094
            ]
          }
        },
        {
          "type": "Feature",
          "properties": {
            "id": "4347910089",
            "osm_type": "node",
            "lat": 46.3811501,
            "lon": 16.3899377,
            "addr:postcode": "40305",
            "addr:street": "Josipa Marčeca",
            "internet_access": "wlan",
            "name": "Hotel Aton",
            "phone": "+38540821990",
            "tourism": "hostel",
            "website": "https://www.sgc-aton.hr/"
          },
          "geometry": {
            "type": "Point",
            "coordinates": [
              16.3899377,
              46.3811501
            ]
          }
        },
        {
          "type": "Feature",
          "properties": {
            "id": "4610517988",
            "osm_type": "node",
            "lat": 46.6077498,
            "lon": 16.2370876,
            "name": "Prenočišča",
            "tourism": "guest_house"
          },
          "geometry": {
            "type": "Point",
            "coordinates": [
              16.2370876,
              46.6077498
            ]
          }
        },
        {
          "type": "Feature",
          "properties": {
            "id": "5684586308",
            "osm_type": "node",
            "lat": 46.5254778,
            "lon": 16.363069,
            "addr:city": "Sveti Martin na Muri",
            "addr:housenumber": "8",
            "addr:postcode": "40313",
            "addr:street": "Trg svetog Martina",
            "internet_access": "yes",
            "name": "Apartman Polanec",
            "rooms": "2",
            "tourism": "guest_house"
          },
          "geometry": {
            "type": "Point",
            "coordinates": [
              16.363069,
              46.5254778
            ]
          }
        },
        {
          "type": "Feature",
          "properties": {
            "id": "6272261473",
            "osm_type": "node",
            "lat": 46.5148713,
            "lon": 16.4359268,
            "addr:city": "Mursko Središće",
            "addr:housenumber": "17",
            "addr:postcode": "40315",
            "addr:street": "Ulica Matije Gupca",
            "internet_access": "wlan",
            "name": "Pansion Ilonka",
            "rooms": "15",
            "stars": "3",
            "tourism": "guest_house",
            "website": "https://www.ilonka.hr/"
          },
          "geometry": {
            "type": "Point",
            "coordinates": [
              16.4359268,
              46.5148713
            ]
          }
        },
        {
          "type": "Feature",
          "properties": {
            "id": "6489430328",
            "osm_type": "node",
            "lat": 46.3901681,
            "lon": 16.4370545,
            "addr:city": "Čakovec",
            "addr:housenumber": "7",
            "addr:postcode": "40000",
            "addr:street": "Ulica kralja Tomislava",
            "email": "mozignic@gmail.com",
            "guest_house": "apartment",
            "internet_access": "wlan",
            "name": "Center Apartment Čakovec",
            "operator": "Monika Žignić",
            "phone": "+385 98 552 992",
            "rooms": "1",
            "tourism": "guest_house"
          },
          "geometry": {
            "type": "Point",
            "coordinates": [
              16.4370545,
              46.3901681
            ]
          }
        },
        {
          "type": "Feature",
          "properties": {
            "id": "9198132013",
            "osm_type": "node",
            "lat": 46.6667981,
            "lon": 16.2299408,
            "building": "house",
            "tourism": "guest_house"
          },
          "geometry": {
            "type": "Point",
            "coordinates": [
              16.2299408,
              46.6667981
            ]
          }
        },
        {
          "type": "Feature",
          "properties": {
            "id": "9198132014",
            "osm_type": "node",
            "lat": 46.6667823,
            "lon": 16.2301219,
            "building": "house",
            "tourism": "guest_house"
          },
          "geometry": {
            "type": "Point",
            "coordinates": [
              16.2301219,
              46.6667823
            ]
          }
        },
        {
          "type": "Feature",
          "properties": {
            "id": "12376787776",
            "osm_type": "node",
            "lat": 46.5086943,
            "lon": 16.3044454,
            "addr:city": "Štrigova",
            "addr:housenumber": "13",
            "addr:postcode": "40312",
            "addr:street": "Banfi",
            "guest_house": "guest_house",
            "name": "Vincekov muzej",
            "phone": "+386 51 239 697",
            "rooms": "1",
            "tourism": "guest_house"
          },
          "geometry": {
            "type": "Point",
            "coordinates": [
              16.3044454,
              46.5086943
            ]
          }
        },
        {
          "type": "Feature",
          "properties": {
            "id": "12511954989",
            "osm_type": "node",
            "lat": 46.3857358,
            "lon": 16.4079806,
            "contact:website": "https://medjimurjepress.net/vijesti/novi-hostel-industrial-u-cakovcu/",
            "tourism": "hostel"
          },
          "geometry": {
            "type": "Point",
            "coordinates": [
              16.4079806,
              46.3857358
            ]
          }
        },
        {
          "type": "Feature",
          "properties": {
            "id": "2862998405",
            "osm_type": "node",
            "lat": 46.6182927,
            "lon": 16.5334737,
            "tourism": "guest_house"
          },
          "geometry": {
            "type": "Point",
            "coordinates": [
              16.5334737,
              46.6182927
            ]
          }
        },
        {
          "type": "Feature",
          "properties": {
            "id": "3386310683",
            "osm_type": "node",
            "lat": 46.65435,
            "lon": 16.772028,
            "name": "Turistaház",
            "source": "turistautak.hu",
            "tourism": "guest_house",
            "url": "http://turistautak.hu/poi.php?id=26547"
          },
          "geometry": {
            "type": "Point",
            "coordinates": [
              16.772028,
              46.65435
            ]
          }
        },
        {
          "type": "Feature",
          "properties": {
            "id": "3386310684",
            "osm_type": "node",
            "lat": 46.6756457,
            "lon": 16.7566149,
            "name": "Tóthék háza",
            "source": "turistautak.hu",
            "tourism": "guest_house",
            "url": "http://turistautak.hu/poi.php?id=124826"
          },
          "geometry": {
            "type": "Point",
            "coordinates": [
              16.7566149,
              46.6756457
            ]
          }
        },
        {
          "type": "Feature",
          "properties": {
            "id": "3388304888",
            "osm_type": "node",
            "lat": 46.640306,
            "lon": 16.804002,
            "name": "Angyalok kertje",
            "phone": "+36 20 918 2839",
            "source": "turistautak.hu",
            "tourism": "guest_house",
            "url": "http://turistautak.hu/poi.php?id=113139",
            "website": "http://www.angyalokkertje.hu/"
          },
          "geometry": {
            "type": "Point",
            "coordinates": [
              16.804002,
              46.640306
            ]
          }
        },
        {
          "type": "Feature",
          "properties": {
            "id": "3390023566",
            "osm_type": "node",
            "lat": 46.540565,
            "lon": 16.694388,
            "name": "Turistaszálló",
            "source": "turistautak.hu",
            "tourism": "guest_house",
            "url": "http://turistautak.hu/poi.php?id=32373"
          },
          "geometry": {
            "type": "Point",
            "coordinates": [
              16.694388,
              46.540565
            ]
          }
        },
        {
          "type": "Feature",
          "properties": {
            "id": "3392846953",
            "osm_type": "node",
            "lat": 46.518457,
            "lon": 16.727697,
            "name": "Azálea vendégház",
            "source": "turistautak.hu",
            "tourism": "guest_house",
            "url": "http://turistautak.hu/poi.php?id=18316"
          },
          "geometry": {
            "type": "Point",
            "coordinates": [
              16.727697,
              46.518457
            ]
          }
        },
        {
          "type": "Feature",
          "properties": {
            "id": "3392846967",
            "osm_type": "node",
            "lat": 46.528305,
            "lon": 16.727945,
            "name": "Rózsa Apartman",
            "source": "turistautak.hu",
            "tourism": "guest_house",
            "url": "http://turistautak.hu/poi.php?id=33042",
            "website": "http://www.rozsa_apartman.extra.hu/"
          },
          "geometry": {
            "type": "Point",
            "coordinates": [
              16.727945,
              46.528305
            ]
          }
        },
        {
          "type": "Feature",
          "properties": {
            "id": "3397429798",
            "osm_type": "node",
            "lat": 46.486577,
            "lon": 16.750019,
            "name": "Búzavirág vendégház",
            "source": "turistautak.hu",
            "tourism": "guest_house",
            "url": "http://turistautak.hu/poi.php?id=85011"
          },
          "geometry": {
            "type": "Point",
            "coordinates": [
              16.750019,
              46.486577
            ]
          }
        },
        {
          "type": "Feature",
          "properties": {
            "id": "3456437184",
            "osm_type": "node",
            "lat": 46.448979,
            "lon": 17.010125,
            "description": "TV van a szobában, viszont a WC és a tus közös a szinten. Ár: 2500 + 350 IFA",
            "name": "Sportszálló",
            "source": "turistautak.hu",
            "source:date": "2013-03-22",
            "tourism": "guest_house",
            "url": "http://turistautak.hu/poi.php?id=100126"
          },
          "geometry": {
            "type": "Point",
            "coordinates": [
              17.010125,
              46.448979
            ]
          }
        },
        {
          "type": "Feature",
          "properties": {
            "id": "3465219364",
            "osm_type": "node",
            "lat": 46.436513,
            "lon": 16.740882,
            "name": "Fapuma",
            "source": "turistautak.hu",
            "source:date": "2012-04-28",
            "tourism": "guest_house",
            "url": "http://turistautak.hu/poi.php?id=32380"
          },
          "geometry": {
            "type": "Point",
            "coordinates": [
              16.740882,
              46.436513
            ]
          }
        },
        {
          "type": "Feature",
          "properties": {
            "id": "3465219615",
            "osm_type": "node",
            "lat": 46.528757,
            "lon": 16.829854,
            "name": "Turistaszálló",
            "phone": "+36 93 346 151",
            "source": "turistautak.hu",
            "source:date": "2010-05-10",
            "tourism": "guest_house",
            "url": "http://turistautak.hu/poi.php?id=47757",
            "website": "http://www.oltarc.hu"
          },
          "geometry": {
            "type": "Point",
            "coordinates": [
              16.829854,
              46.528757
            ]
          }
        },
        {
          "type": "Feature",
          "properties": {
            "id": "3468083315",
            "osm_type": "node",
            "lat": 46.5157191,
            "lon": 16.5568373,
            "name": "Korona panzió",
            "source": "turistautak.hu",
            "source:date": "2011-09-19",
            "tourism": "guest_house",
            "url": "http://turistautak.hu/poi.php?id=18245"
          },
          "geometry": {
            "type": "Point",
            "coordinates": [
              16.5568373,
              46.5157191
            ]
          }
        },
        {
          "type": "Feature",
          "properties": {
            "id": "3468083359",
            "osm_type": "node",
            "lat": 46.5549919,
            "lon": 16.5531085,
            "name": "Turistaszálló",
            "source": "turistautak.hu",
            "source:date": "2011-09-19",
            "tourism": "guest_house",
            "url": "http://turistautak.hu/poi.php?id=32403"
          },
          "geometry": {
            "type": "Point",
            "coordinates": [
              16.5531085,
              46.5549919
            ]
          }
        },
        {
          "type": "Feature",
          "properties": {
            "id": "5762124711",
            "osm_type": "node",
            "lat": 46.5272446,
            "lon": 16.7248714,
            "addr:city": "Bázakerettye",
            "addr:housenumber": "7",
            "addr:postcode": "8887",
            "addr:street": "Petőfi Sándor utca",
            "internet_access": "yes",
            "internet_access:fee": "no",
            "name": "Kemping Kantin",
            "tourism": "hostel"
          },
          "geometry": {
            "type": "Point",
            "coordinates": [
              16.7248714,
              46.5272446
            ]
          }
        },
        {
          "type": "Feature",
          "properties": {
            "id": "5782874991",
            "osm_type": "node",
            "lat": 46.5342567,
            "lon": 16.5882095,
            "mapillary": "168029575205566",
            "name": "Artemisz vendégház",
            "tourism": "guest_house"
          },
          "geometry": {
            "type": "Point",
            "coordinates": [
              16.5882095,
              46.5342567
            ]
          }
        },
        {
          "type": "Feature",
          "properties": {
            "id": "6083664223",
            "osm_type": "node",
            "lat": 46.6001097,
            "lon": 16.9894597,
            "building": "yes",
            "name": "Hét vezér turistaszálló",
            "tourism": "hostel",
            "website": "http://www.gelse.hu/szallashelyek.php?id=118_"
          },
          "geometry": {
            "type": "Point",
            "coordinates": [
              16.9894597,
              46.6001097
            ]
          }
        },
        {
          "type": "Feature",
          "properties": {
            "id": "6083664225",
            "osm_type": "node",
            "lat": 46.5974809,
            "lon": 16.9892523,
            "building": "yes",
            "contact:phone": "+36 70 377 1535",
            "name": "Termálvölgy vendégház",
            "tourism": "guest_house"
          },
          "geometry": {
            "type": "Point",
            "coordinates": [
              16.9892523,
              46.5974809
            ]
          }
        },
        {
          "type": "Feature",
          "properties": {
            "id": "6090867431",
            "osm_type": "node",
            "lat": 46.3851182,
            "lon": 16.8325728,
            "name": "Kis Joy'S",
            "source": "route4u",
            "tourism": "guest_house"
          },
          "geometry": {
            "type": "Point",
            "coordinates": [
              16.8325728,
              46.3851182
            ]
          }
        },
        {
          "type": "Feature",
          "properties": {
            "id": "8558930965",
            "osm_type": "node",
            "lat": 46.4404948,
            "lon": 16.9661571,
            "addr:city": "Nagykanizsa",
            "addr:housenumber": "5",
            "addr:postcode": "8800",
            "addr:street": "Cserfa utca",
            "name": "Cserfa Panzió",
            "tourism": "guest_house"
          },
          "geometry": {
            "type": "Point",
            "coordinates": [
              16.9661571,
              46.4404948
            ]
          }
        },
        {
          "type": "Feature",
          "properties": {
            "id": "9242920544",
            "osm_type": "node",
            "lat": 46.5199794,
            "lon": 17.0067179,
            "building": "yes",
            "name": "II. Förhénc vendégház",
            "tourism": "guest_house"
          },
          "geometry": {
            "type": "Point",
            "coordinates": [
              17.0067179,
              46.5199794
            ]
          }
        },
        {
          "type": "Feature",
          "properties": {
            "id": "9242920545",
            "osm_type": "node",
            "lat": 46.5188517,
            "lon": 17.006498,
            "building": "yes",
            "name": "III. Förhénc vendégház",
            "tourism": "guest_house"
          },
          "geometry": {
            "type": "Point",
            "coordinates": [
              17.006498,
              46.5188517
            ]
          }
        },
        {
          "type": "Feature",
          "properties": {
            "id": "11709205292",
            "osm_type": "node",
            "lat": 46.488939,
            "lon": 16.9903513,
            "addr:city": "Nagykanizsa",
            "addr:housenumber": "83",
            "addr:postcode": "8808",
            "addr:street": "Felsőerdő utca",
            "contact:email": "info@hotelmini.hu",
            "contact:phone": "+36 30 997 5321",
            "contact:website": "https://hotelmini.hu/",
            "name": "Mini Hotel",
            "tourism": "guest_house"
          },
          "geometry": {
            "type": "Point",
            "coordinates": [
              16.9903513,
              46.488939
            ]
          }
        },
        {
          "type": "Feature",
          "properties": {
            "id": "11709205293",
            "osm_type": "node",
            "lat": 46.4884943,
            "lon": 16.9896993,
            "addr:city": "Nagykanizsa",
            "addr:housenumber": "90",
            "addr:postcode": "8808",
            "addr:street": "Herkules utca",
            "contact:email": "info@herkulespanzio.hu",
            "contact:facebook": "https://www.facebook.com/pages/Herkules-Panzio/184359785065952",
            "contact:fax": "+36 93 321 299",
            "contact:phone": "+36 30 257 5440",
            "contact:website": "https://herkulespanzio.hu/",
            "name": "Herkules Panzió",
            "tourism": "guest_house"
          },
          "geometry": {
            "type": "Point",
            "coordinates": [
              16.9896993,
              46.4884943
            ]
          }
        },
        {
          "type": "Feature",
          "properties": {
            "id": "3372363408",
            "osm_type": "node",
            "lat": 46.550433,
            "lon": 17.1133,
            "name": "Balla Apartmanház",
            "phone": "+36 93 540 067",
            "source": "turistautak.hu",
            "tourism": "guest_house",
            "url": "http://turistautak.hu/poi.php?id=1694",
            "website": "http://www.zalakaros.info.hu/balla/magyar.html"
          },
          "geometry": {
            "type": "Point",
            "coordinates": [
              17.1133,
              46.550433
            ]
          }
        },
        {
          "type": "Feature",
          "properties": {
            "id": "3423391961",
            "osm_type": "node",
            "lat": 46.553162,
            "lon": 17.1228861,
            "name": "Laci Apartman",
            "source": "turistautak.hu",
            "tourism": "guest_house",
            "url": "http://turistautak.hu/poi.php?id=174675"
          },
          "geometry": {
            "type": "Point",
            "coordinates": [
              17.1228861,
              46.553162
            ]
          }
        },
        {
          "type": "Feature",
          "properties": {
            "id": "4265982089",
            "osm_type": "node",
            "lat": 46.5534423,
            "lon": 17.1137844,
            "addr:city": "Zalakaros",
            "addr:housenumber": "34",
            "addr:postcode": "8749",
            "addr:street": "Park utca",
            "internet_access": "wlan",
            "name": "Lenke Apartman Zalakaros",
            "tourism": "hostel"
          },
          "geometry": {
            "type": "Point",
            "coordinates": [
              17.1137844,
              46.5534423
            ]
          }
        },
        {
          "type": "Feature",
          "properties": {
            "id": "4483974093",
            "osm_type": "node",
            "lat": 46.5575514,
            "lon": 17.1189537,
            "addr:city": "Zalakaros",
            "addr:housenumber": "14",
            "addr:postcode": "8749",
            "addr:street": "Liget utca",
            "email": "alena20075@mail.ru",
            "internet_access": "wlan",
            "name": "Yellow House",
            "operator": "Elena",
            "phone": "+36 70 241 3871",
            "tourism": "guest_house"
          },
          "geometry": {
            "type": "Point",
            "coordinates": [
              17.1189537,
              46.5575514
            ]
          }
        }
      ],
      "children": []
    },
    {
      "bbox": {
        "south": 46.70320525,
        "west": 15.253173,
        "north": 47.033758500000005,
        "east": 16.2068765
      },
      "poiCount": 53,
      "leafCount": 0,
      "averagePosition": [
        15.797070541509433,
        46.844713522641506
      ],
      "data": [],
      "children": [
        {
          "bbox": {
            "south": 46.70320525,
            "west": 15.253173,
            "north": 46.868481875,
            "east": 15.73002475
          },
          "poiCount": 17,
          "leafCount": 17,
          "averagePosition": [
            15.502873011764708,
            46.73589041176471
          ],
          "data": [
            {
              "type": "Feature",
              "properties": {
                "id": "505417784",
                "osm_type": "node",
                "lat": 46.723573,
                "lon": 15.5133047,
                "addr:city": "Gamlitz",
                "addr:country": "AT",
                "addr:housenumber": "70",
                "addr:place": "Labitschberg",
                "addr:postcode": "8462",
                "at_bev:addr_date": "2019-10-01",
                "name": "Weingut Birnstingl",
                "tourism": "guest_house",
                "website": "https://www.weingut-birnstingl.at/"
              },
              "geometry": {
                "type": "Point",
                "coordinates": [
                  15.5133047,
                  46.723573
                ]
              }
            },
            {
              "type": "Feature",
              "properties": {
                "id": "505418017",
                "osm_type": "node",
                "lat": 46.7260309,
                "lon": 15.5096158,
                "contact:website": "http://www.pongratz.cc",
                "name": "Weingut Pongratz Markus & Sabine",
                "tourism": "guest_house"
              },
              "geometry": {
                "type": "Point",
                "coordinates": [
                  15.5096158,
                  46.7260309
                ]
              }
            },
            {
              "type": "Feature",
              "properties": {
                "id": "506068178",
                "osm_type": "node",
                "lat": 46.7248178,
                "lon": 15.522352,
                "addr:city": "Gamlitz",
                "addr:country": "AT",
                "addr:housenumber": "27",
                "addr:place": "Labitschberg",
                "addr:postcode": "8462",
                "at_bev:addr_date": "2019-10-01",
                "name": "Weinbau Liener",
                "tourism": "guest_house",
                "website": "https://www.weinbau-liener.at/"
              },
              "geometry": {
                "type": "Point",
                "coordinates": [
                  15.522352,
                  46.7248178
                ]
              }
            },
            {
              "type": "Feature",
              "properties": {
                "id": "829834730",
                "osm_type": "node",
                "lat": 46.7933484,
                "lon": 15.42394,
                "addr:city": "Sankt Andrä-Höch",
                "addr:country": "AT",
                "addr:housenumber": "2",
                "addr:place": "Höch",
                "addr:postcode": "8442",
                "at_bev:addr_date": "2018-10-01",
                "name": "Frühstückspension Herzlieb-Papst",
                "tourism": "guest_house",
                "website": "https://www.herzlieb-papst.at/"
              },
              "geometry": {
                "type": "Point",
                "coordinates": [
                  15.42394,
                  46.7933484
                ]
              }
            },
            {
              "type": "Feature",
              "properties": {
                "id": "886821218",
                "osm_type": "node",
                "lat": 46.7895549,
                "lon": 15.4618463,
                "addr:city": "Kitzeck im Sausal",
                "addr:country": "AT",
                "addr:housenumber": "11",
                "addr:place": "Gauitsch",
                "addr:postcode": "8442",
                "at_bev:addr_date": "2018-10-01",
                "email": "info@kristallhaus.at",
                "name": "Kristallhaus",
                "tourism": "guest_house",
                "website": "www.kristallhaus.at"
              },
              "geometry": {
                "type": "Point",
                "coordinates": [
                  15.4618463,
                  46.7895549
                ]
              }
            },
            {
              "type": "Feature",
              "properties": {
                "id": "1872593152",
                "osm_type": "node",
                "lat": 46.7303059,
                "lon": 15.4048503,
                "addr:city": "Großklein",
                "addr:country": "AT",
                "addr:housenumber": "49",
                "addr:place": "Goldes",
                "addr:postcode": "8452",
                "at_bev:addr_date": "2018-10-01",
                "name": "Weiberhof",
                "phone": "+43660 1222 396",
                "tourism": "guest_house",
                "website": "https://www.weiberhof.at/cms/index.php"
              },
              "geometry": {
                "type": "Point",
                "coordinates": [
                  15.4048503,
                  46.7303059
                ]
              }
            },
            {
              "type": "Feature",
              "properties": {
                "id": "4233651683",
                "osm_type": "node",
                "lat": 46.7118228,
                "lon": 15.4122653,
                "breakfast": "yes",
                "operator": "Fam. Strohmeier - Kini",
                "rooms": "4",
                "smoking": "outside",
                "tourism": "guest_house",
                "website": "https://strohmeier-kini.at/"
              },
              "geometry": {
                "type": "Point",
                "coordinates": [
                  15.4122653,
                  46.7118228
                ]
              }
            },
            {
              "type": "Feature",
              "properties": {
                "id": "4760531723",
                "osm_type": "node",
                "lat": 46.7752339,
                "lon": 15.4469115,
                "addr:city": "Kitzeck im Sausal",
                "addr:country": "AT",
                "addr:housenumber": "85",
                "addr:place": "Steinriegel",
                "addr:postcode": "8442",
                "at_bev:addr_date": "2017-10-01",
                "name": "Gästehaus Grasch",
                "name:en": "Guest House Grasch",
                "tourism": "guest_house"
              },
              "geometry": {
                "type": "Point",
                "coordinates": [
                  15.4469115,
                  46.7752339
                ]
              }
            },
            {
              "type": "Feature",
              "properties": {
                "id": "6095316052",
                "osm_type": "node",
                "lat": 46.7188401,
                "lon": 15.5163233,
                "addr:city": "Gamlitz",
                "addr:country": "AT",
                "addr:housenumber": "12",
                "addr:place": "Kranach",
                "addr:postcode": "8462",
                "at_bev:addr_date": "2018-10-01",
                "name": "Weingut - Ferienhaus Sonja Rohrbacher",
                "tourism": "guest_house"
              },
              "geometry": {
                "type": "Point",
                "coordinates": [
                  15.5163233,
                  46.7188401
                ]
              }
            },
            {
              "type": "Feature",
              "properties": {
                "id": "13145026425",
                "osm_type": "node",
                "lat": 46.7699628,
                "lon": 15.4294308,
                "addr:housenumber": "50",
                "addr:street": "Brudersegg",
                "name": "Obstbau und Gästezimmer Stani",
                "tourism": "guest_house"
              },
              "geometry": {
                "type": "Point",
                "coordinates": [
                  15.4294308,
                  46.7699628
                ]
              }
            },
            {
              "type": "Feature",
              "properties": {
                "id": "779010737",
                "osm_type": "node",
                "lat": 46.7227322,
                "lon": 15.5673155,
                "contact:phone": "+43 3453 6244",
                "name": "Gästehaus Kicker",
                "operator": "Familie Kicker",
                "tourism": "guest_house",
                "website": "https://gaestehaus-kicker.lima-city.de/"
              },
              "geometry": {
                "type": "Point",
                "coordinates": [
                  15.5673155,
                  46.7227322
                ]
              }
            },
            {
              "type": "Feature",
              "properties": {
                "id": "1550412139",
                "osm_type": "node",
                "lat": 46.7102286,
                "lon": 15.5496578,
                "name": "Weinbau Dietrich",
                "tourism": "guest_house",
                "website": "www.weinbaudietrich.at"
              },
              "geometry": {
                "type": "Point",
                "coordinates": [
                  15.5496578,
                  46.7102286
                ]
              }
            },
            {
              "type": "Feature",
              "properties": {
                "id": "2228269840",
                "osm_type": "node",
                "lat": 46.7251636,
                "lon": 15.5856422,
                "addr:city": "Ehrenhausen",
                "addr:country": "AT",
                "addr:housenumber": "51",
                "addr:postcode": "8461",
                "addr:street": "Hauptstraße",
                "contact:email": "hochstraßer@steirischeweine.at",
                "contact:phone": "+43 3453 20502",
                "name": "Appartements Hochstraßer",
                "operator": "Hochstraßer",
                "source": "TVB Südsteiermark",
                "tourism": "guest_house",
                "weinmobil:note": "Bitte weinmobil:ref nicht entfernen, dient zum automatischen Update.",
                "weinmobil:ref": "4"
              },
              "geometry": {
                "type": "Point",
                "coordinates": [
                  15.5856422,
                  46.7251636
                ]
              }
            },
            {
              "type": "Feature",
              "properties": {
                "id": "2405063317",
                "osm_type": "node",
                "lat": 46.7165458,
                "lon": 15.5475724,
                "email": "info@keber.eu",
                "name": "Gästezimmer Michaela Keber",
                "phone": "+43(0)3453/4644; +43(0)664/6561709",
                "source": "knowledge",
                "tourism": "guest_house",
                "website": "www.keber.eu"
              },
              "geometry": {
                "type": "Point",
                "coordinates": [
                  15.5475724,
                  46.7165458
                ]
              }
            },
            {
              "type": "Feature",
              "properties": {
                "id": "2851394104",
                "osm_type": "node",
                "lat": 46.7157249,
                "lon": 15.5562739,
                "name": "Bauernhof Steiner",
                "source": "survey",
                "tourism": "guest_house"
              },
              "geometry": {
                "type": "Point",
                "coordinates": [
                  15.5562739,
                  46.7157249
                ]
              }
            },
            {
              "type": "Feature",
              "properties": {
                "id": "7260477025",
                "osm_type": "node",
                "lat": 46.7194557,
                "lon": 15.5471384,
                "description": "Gästezimmer",
                "name": "Rennhof Probst",
                "tourism": "guest_house"
              },
              "geometry": {
                "type": "Point",
                "coordinates": [
                  15.5471384,
                  46.7194557
                ]
              }
            },
            {
              "type": "Feature",
              "properties": {
                "id": "10127779566",
                "osm_type": "node",
                "lat": 46.7367957,
                "lon": 15.554401,
                "addr:city": "Ehrenhausen an der Weinstraße",
                "addr:housenumber": "38",
                "addr:place": "Unterlupitscheni",
                "addr:postcode": "8461",
                "email": "genuss@weingut-perner.at",
                "guest_house": "agritourism",
                "name": "Weingut Perner",
                "operator": "Isabella Perner",
                "phone": "+43 650 2601732",
                "tourism": "guest_house",
                "website": "https://www.weingut-perner.at/"
              },
              "geometry": {
                "type": "Point",
                "coordinates": [
                  15.554401,
                  46.7367957
                ]
              }
            }
          ],
          "children": []
        },
        {
          "bbox": {
            "south": 46.70320525,
            "west": 15.73002475,
            "north": 46.868481875,
            "east": 16.2068765
          },
          "poiCount": 11,
          "leafCount": 11,
          "averagePosition": [
            15.946313199999999,
            46.791638963636366
          ],
          "data": [
            {
              "type": "Feature",
              "properties": {
                "id": "2292333183",
                "osm_type": "node",
                "lat": 46.7823383,
                "lon": 15.9422639,
                "check_date": "2025-08-28",
                "name": "Gästehaus zur Post",
                "tourism": "guest_house"
              },
              "geometry": {
                "type": "Point",
                "coordinates": [
                  15.9422639,
                  46.7823383
                ]
              }
            },
            {
              "type": "Feature",
              "properties": {
                "id": "2422739505",
                "osm_type": "node",
                "lat": 46.7876601,
                "lon": 15.8941719,
                "name": "Pension Pock",
                "phone": "03473 8260",
                "tourism": "guest_house"
              },
              "geometry": {
                "type": "Point",
                "coordinates": [
                  15.8941719,
                  46.7876601
                ]
              }
            },
            {
              "type": "Feature",
              "properties": {
                "id": "2449489192",
                "osm_type": "node",
                "lat": 46.8075845,
                "lon": 15.8693843,
                "addr:city": "Straden",
                "addr:housenumber": "23",
                "addr:place": "Straden",
                "addr:postcode": "8345",
                "name": "Stradnerhof",
                "operator": "Scharfy GesmbH",
                "tourism": "guest_house"
              },
              "geometry": {
                "type": "Point",
                "coordinates": [
                  15.8693843,
                  46.8075845
                ]
              }
            },
            {
              "type": "Feature",
              "properties": {
                "id": "3691037666",
                "osm_type": "node",
                "lat": 46.8272901,
                "lon": 15.9704723,
                "addr:city": "Sankt Anna am Aigen",
                "addr:housenumber": "44",
                "addr:place": "Annaberg",
                "addr:postcode": "8354",
                "contact:email": "info@pfeifer.wine",
                "contact:facebook": "https://www.facebook.com/weingutpfeifer",
                "contact:mobile": "+43 664 2343383",
                "contact:phone": "+43 3158 2313",
                "name": "Gästezimmer Pfeifer",
                "tourism": "guest_house",
                "website": "https://www.weingut-pfeifer.at/gaestezimmer/"
              },
              "geometry": {
                "type": "Point",
                "coordinates": [
                  15.9704723,
                  46.8272901
                ]
              }
            },
            {
              "type": "Feature",
              "properties": {
                "id": "4144973364",
                "osm_type": "node",
                "lat": 46.8402853,
                "lon": 15.9631281,
                "addr:city": "Sankt Anna am Aigen",
                "addr:housenumber": "45",
                "addr:place": "Plesch",
                "addr:postcode": "8354",
                "email": "zimmer@winzerzimmer-scharl.at",
                "name": "Scharl Winzerzimmer",
                "phone": "+43 664 8111208",
                "tourism": "guest_house",
                "website": "https://winzerzimmer-scharl.at/"
              },
              "geometry": {
                "type": "Point",
                "coordinates": [
                  15.9631281,
                  46.8402853
                ]
              }
            },
            {
              "type": "Feature",
              "properties": {
                "id": "4296876320",
                "osm_type": "node",
                "lat": 46.7188622,
                "lon": 16.0204186,
                "name": "Apartmaji",
                "tourism": "hostel"
              },
              "geometry": {
                "type": "Point",
                "coordinates": [
                  16.0204186,
                  46.7188622
                ]
              }
            },
            {
              "type": "Feature",
              "properties": {
                "id": "5084512413",
                "osm_type": "node",
                "lat": 46.8323083,
                "lon": 15.9562956,
                "addr:city": "Sankt Anna am Aigen",
                "addr:housenumber": "27",
                "addr:place": "Plesch",
                "addr:postcode": "8354",
                "name": "Gästehaus Hirtl",
                "phone": "+43 664 5483263",
                "tourism": "guest_house",
                "website": "https://gaestezimmer-josef-hirtl.business.site/"
              },
              "geometry": {
                "type": "Point",
                "coordinates": [
                  15.9562956,
                  46.8323083
                ]
              }
            },
            {
              "type": "Feature",
              "properties": {
                "id": "5584364022",
                "osm_type": "node",
                "lat": 46.7834599,
                "lon": 15.8648019,
                "addr:city": "Straden",
                "addr:country": "AT",
                "addr:housenumber": "16",
                "addr:place": "Wieden-Klausen",
                "addr:postcode": "8345",
                "beds": "2",
                "guest_house": "agritourism",
                "name": "Landhaus Bender",
                "operator": "Familie Bender",
                "rooms": "2",
                "tourism": "guest_house"
              },
              "geometry": {
                "type": "Point",
                "coordinates": [
                  15.8648019,
                  46.7834599
                ]
              }
            },
            {
              "type": "Feature",
              "properties": {
                "id": "11215835005",
                "osm_type": "node",
                "lat": 46.7772888,
                "lon": 16.0049059,
                "tourism": "guest_house"
              },
              "geometry": {
                "type": "Point",
                "coordinates": [
                  16.0049059,
                  46.7772888
                ]
              }
            },
            {
              "type": "Feature",
              "properties": {
                "id": "12206155174",
                "osm_type": "node",
                "lat": 46.7507787,
                "lon": 15.8270885,
                "addr:housenumber": "42",
                "addr:street": "Hauptstraße",
                "air_conditioning": "no",
                "diet:dairy_free": "yes",
                "diet:gluten_free": "yes",
                "diet:lactose_free": "yes",
                "diet:raw": "yes",
                "diet:vegan": "yes",
                "diet:vegetarian": "yes",
                "guest_house": "bed_and_breakfast",
                "internet_access": "wlan",
                "internet_access:fee": "no",
                "name": "Stockers Dorfhotel",
                "operator": "Peter Stocker",
                "payment:cash": "yes",
                "payment:credit_cards": "yes",
                "payment:debit_cards": "yes",
                "payment:maestro": "yes",
                "smoking": "outside",
                "swimming_pool": "yes",
                "tourism": "guest_house",
                "website": "https://www.stockers-dorfhotel.at/",
                "wheelchair": "yes"
              },
              "geometry": {
                "type": "Point",
                "coordinates": [
                  15.8270885,
                  46.7507787
                ]
              }
            },
            {
              "type": "Feature",
              "properties": {
                "id": "9754174718",
                "osm_type": "node",
                "lat": 46.8001724,
                "lon": 16.0965142,
                "internet_access": "wlan",
                "level": "2",
                "name": "Grad Goričko",
                "rooms": "4",
                "survey:date": "2022-05-19",
                "tourism": "guest_house",
                "wheelchair": "no"
              },
              "geometry": {
                "type": "Point",
                "coordinates": [
                  16.0965142,
                  46.8001724
                ]
              }
            }
          ],
          "children": []
        },
        {
          "bbox": {
            "south": 46.868481875,
            "west": 15.253173,
            "north": 47.033758500000005,
            "east": 15.73002475
          },
          "poiCount": 3,
          "leafCount": 3,
          "averagePosition": [
            15.446208733333334,
            46.946980266666664
          ],
          "data": [
            {
              "type": "Feature",
              "properties": {
                "id": "4238231613",
                "osm_type": "node",
                "lat": 46.9747288,
                "lon": 15.3342617,
                "addr:city": "Lieboch",
                "addr:country": "AT",
                "addr:housenumber": "122",
                "addr:postcode": "8501",
                "addr:street": "Packer Straße",
                "cuisine": "regional",
                "email": "office@lieboch-living.at",
                "guest_house": "bed_and_breakfast",
                "internet_access": "wlan",
                "name": "Lieboch Living",
                "phone": "+43 677 6370 8726",
                "tourism": "guest_house",
                "website": "https://lieboch-living.at/"
              },
              "geometry": {
                "type": "Point",
                "coordinates": [
                  15.3342617,
                  46.9747288
                ]
              }
            },
            {
              "type": "Feature",
              "properties": {
                "id": "10175482630",
                "osm_type": "node",
                "lat": 46.887286,
                "lon": 15.5134593,
                "name": "Zimmer \"Wilder Mann\"",
                "tourism": "hostel"
              },
              "geometry": {
                "type": "Point",
                "coordinates": [
                  15.5134593,
                  46.887286
                ]
              }
            },
            {
              "type": "Feature",
              "properties": {
                "id": "12723412034",
                "osm_type": "node",
                "lat": 46.978926,
                "lon": 15.4909052,
                "addr:housenumber": "67",
                "addr:postcode": "0872",
                "addr:street": "Mühlstraße",
                "check_date": "2025-04-02",
                "name": "Pension Kurzmann",
                "tourism": "guest_house",
                "website": "https://www.pension-kurzmann.at"
              },
              "geometry": {
                "type": "Point",
                "coordinates": [
                  15.4909052,
                  46.978926
                ]
              }
            }
          ],
          "children": []
        },
        {
          "bbox": {
            "south": 46.868481875,
            "west": 15.73002475,
            "north": 47.033758500000005,
            "east": 16.2068765
          },
          "poiCount": 22,
          "leafCount": 22,
          "averagePosition": [
            15.997628459090908,
            46.941395922727274
          ],
          "data": [
            {
              "type": "Feature",
              "properties": {
                "id": "854499785",
                "osm_type": "node",
                "lat": 46.8760709,
                "lon": 15.9100982,
                "addr:city": "Bad Gleichenberg",
                "addr:country": "AT",
                "addr:housenumber": "4",
                "addr:postcode": "8344",
                "addr:street": "Obere Brunnenstraße",
                "facebook": "https://www.facebook.com/barcafepensioncolumbia/",
                "name": "Pension Columbia",
                "opening_hours": "Mo-Su 07:00-23:00",
                "phone": "+43 3159 2506",
                "tourism": "guest_house"
              },
              "geometry": {
                "type": "Point",
                "coordinates": [
                  15.9100982,
                  46.8760709
                ]
              }
            },
            {
              "type": "Feature",
              "properties": {
                "id": "890442639",
                "osm_type": "node",
                "lat": 46.8823549,
                "lon": 15.9462644,
                "addr:city": "Kapfenstein",
                "addr:country": "AT",
                "addr:housenumber": "38",
                "addr:place": "Kölldorf",
                "addr:postcode": "8353",
                "name": "Lamplberg Ferienhaus",
                "phone": "+43 3157 2485",
                "tourism": "guest_house",
                "website": "http://www.am-lampl-berg.at/"
              },
              "geometry": {
                "type": "Point",
                "coordinates": [
                  15.9462644,
                  46.8823549
                ]
              }
            },
            {
              "type": "Feature",
              "properties": {
                "id": "2129997172",
                "osm_type": "node",
                "lat": 46.8820409,
                "lon": 15.9068967,
                "name": "Frühstückspension Thalhof",
                "tourism": "guest_house"
              },
              "geometry": {
                "type": "Point",
                "coordinates": [
                  15.9068967,
                  46.8820409
                ]
              }
            },
            {
              "type": "Feature",
              "properties": {
                "id": "4014780385",
                "osm_type": "node",
                "lat": 46.8961501,
                "lon": 15.9344551,
                "addr:city": "Kapfenstein",
                "addr:housenumber": "11",
                "addr:place": "Pichla",
                "addr:postcode": "8344",
                "name": "Haus Gertraud",
                "tourism": "guest_house",
                "website": "http://www.hausgertraud.at/"
              },
              "geometry": {
                "type": "Point",
                "coordinates": [
                  15.9344551,
                  46.8961501
                ]
              }
            },
            {
              "type": "Feature",
              "properties": {
                "id": "4032776053",
                "osm_type": "node",
                "lat": 46.8784378,
                "lon": 15.9935829,
                "addr:city": "Kapfenstein",
                "addr:housenumber": "144",
                "addr:place": "Pretal",
                "addr:postcode": "8353",
                "name": "Gästehaus Klein-Holland",
                "operator": "Margriet & Herbert Wildtham",
                "tourism": "guest_house",
                "website": "https://www.klein-holland.at/"
              },
              "geometry": {
                "type": "Point",
                "coordinates": [
                  15.9935829,
                  46.8784378
                ]
              }
            },
            {
              "type": "Feature",
              "properties": {
                "id": "4033349791",
                "osm_type": "node",
                "lat": 47.0192424,
                "lon": 15.9084661,
                "addr:city": "Riegersburg",
                "addr:housenumber": "70",
                "addr:place": "Krennach",
                "addr:postcode": "8333",
                "name": "Lindenhof am Steinberg",
                "tourism": "guest_house",
                "website": "https://www.sitzwohl.at/"
              },
              "geometry": {
                "type": "Point",
                "coordinates": [
                  15.9084661,
                  47.0192424
                ]
              }
            },
            {
              "type": "Feature",
              "properties": {
                "id": "4035069017",
                "osm_type": "node",
                "lat": 46.8914153,
                "lon": 15.9283372,
                "addr:city": "Bad Gleichenberg",
                "addr:housenumber": "15",
                "addr:postcode": "8344",
                "addr:street": "Absetzstraße",
                "name": "Dreiländerblick",
                "operator": "Familie Hasenauer",
                "tourism": "guest_house",
                "website": "http://www.3laenderblick.at/"
              },
              "geometry": {
                "type": "Point",
                "coordinates": [
                  15.9283372,
                  46.8914153
                ]
              }
            },
            {
              "type": "Feature",
              "properties": {
                "id": "4036005626",
                "osm_type": "node",
                "lat": 46.9055302,
                "lon": 16.0009754,
                "addr:city": "Fehring",
                "addr:housenumber": "15",
                "addr:place": "Burgfeld",
                "addr:postcode": "8353",
                "name": "Urlaub am Grabenbauerhof",
                "tourism": "guest_house",
                "website": "http://members.aon.at/grabenbauerhof/index_en.html"
              },
              "geometry": {
                "type": "Point",
                "coordinates": [
                  16.0009754,
                  46.9055302
                ]
              }
            },
            {
              "type": "Feature",
              "properties": {
                "id": "4044606434",
                "osm_type": "node",
                "lat": 46.9250957,
                "lon": 16.0087708,
                "addr:city": "Fehring",
                "addr:housenumber": "19",
                "addr:postcode": "8350",
                "addr:street": "Sinzingergasse",
                "internet_access": "yes",
                "name": "Landhaus FühlDichWohl",
                "operator": "Familie Ronner-Ermertz",
                "rooms": "9",
                "smoking": "isolated",
                "tourism": "guest_house",
                "website": "http://fuehldichwohl.at/"
              },
              "geometry": {
                "type": "Point",
                "coordinates": [
                  16.0087708,
                  46.9250957
                ]
              }
            },
            {
              "type": "Feature",
              "properties": {
                "id": "4705530630",
                "osm_type": "node",
                "lat": 46.9103719,
                "lon": 15.9196054,
                "addr:city": "Feldbach",
                "addr:housenumber": "122",
                "addr:place": "Gossendorf",
                "addr:postcode": "8330",
                "name": "Haus Maria",
                "phone": "+43 664 5222126",
                "tourism": "guest_house"
              },
              "geometry": {
                "type": "Point",
                "coordinates": [
                  15.9196054,
                  46.9103719
                ]
              }
            },
            {
              "type": "Feature",
              "properties": {
                "id": "4771264149",
                "osm_type": "node",
                "lat": 46.8856764,
                "lon": 16.0261747,
                "addr:city": "Neuhaus am Klausenbach",
                "addr:housenumber": "4",
                "addr:postcode": "8385",
                "addr:street": "Taborstraße",
                "contact:email": "office@huegellandhof.at",
                "contact:mobile": "+43 664 1170748",
                "contact:phone": "+43 3329 2973",
                "guest_house": "bed_and_breakfast",
                "name": "Hügellandhof Familie Uitz",
                "tourism": "guest_house",
                "website": "http://huegellandhof.at"
              },
              "geometry": {
                "type": "Point",
                "coordinates": [
                  16.0261747,
                  46.8856764
                ]
              }
            },
            {
              "type": "Feature",
              "properties": {
                "id": "5767992557",
                "osm_type": "node",
                "lat": 46.987349,
                "lon": 15.7633445,
                "addr:city": "Kirchberg an der Raab",
                "addr:country": "AT",
                "addr:housenumber": "53",
                "addr:place": "Kirchberg an der Raab",
                "addr:postcode": "8324",
                "at_bev:addr_date": "2017-10-01",
                "contact:email": "lehr.gmbh@gmail.com",
                "contact:phone": "+436509705216",
                "name": "Pension Lehr",
                "operator": "Lehr GmbH",
                "smoking": "outside",
                "tourism": "guest_house"
              },
              "geometry": {
                "type": "Point",
                "coordinates": [
                  15.7633445,
                  46.987349
                ]
              }
            },
            {
              "type": "Feature",
              "properties": {
                "id": "5835968982",
                "osm_type": "node",
                "lat": 46.8937923,
                "lon": 15.8615822,
                "addr:city": "Ludersdorf",
                "addr:housenumber": "24",
                "addr:place": "Ludersdorf",
                "addr:postcode": "8342",
                "internet_access": "wlan",
                "name": "Zimmer Steger",
                "payment:cash": "yes",
                "rooms": "4",
                "smoking": "no",
                "tourism": "guest_house",
                "website": "http://www.zimmer-steger.at/"
              },
              "geometry": {
                "type": "Point",
                "coordinates": [
                  15.8615822,
                  46.8937923
                ]
              }
            },
            {
              "type": "Feature",
              "properties": {
                "id": "316693670",
                "osm_type": "node",
                "lat": 46.9845857,
                "lon": 16.1243755,
                "name": "Pension Hirczy",
                "tourism": "guest_house"
              },
              "geometry": {
                "type": "Point",
                "coordinates": [
                  16.1243755,
                  46.9845857
                ]
              }
            },
            {
              "type": "Feature",
              "properties": {
                "id": "5052223821",
                "osm_type": "node",
                "lat": 46.9749365,
                "lon": 16.0509859,
                "name": "Gästehaus Langer",
                "name:de": "Gästehaus Langer",
                "tourism": "guest_house"
              },
              "geometry": {
                "type": "Point",
                "coordinates": [
                  16.0509859,
                  46.9749365
                ]
              }
            },
            {
              "type": "Feature",
              "properties": {
                "id": "7025255603",
                "osm_type": "node",
                "lat": 46.9938123,
                "lon": 16.1114448,
                "addr:city": "Loipersdorf",
                "addr:country": "AT",
                "addr:housenumber": "260",
                "addr:postcode": "8282",
                "addr:street": "Sonnleitenweg",
                "name": "Pension Ritz",
                "tourism": "guest_house",
                "website": "http://www.ritz.co.at"
              },
              "geometry": {
                "type": "Point",
                "coordinates": [
                  16.1114448,
                  46.9938123
                ]
              }
            },
            {
              "type": "Feature",
              "properties": {
                "id": "7088100262",
                "osm_type": "node",
                "lat": 47.0203893,
                "lon": 16.1014648,
                "addr:city": "Bad Loipersdorf",
                "addr:housenumber": "24",
                "addr:postcode": "8282",
                "addr:street": "Schlößlberg",
                "guest_house": "bed_and_breakfast",
                "name": "Gästehaus Felgitsch",
                "phone": "+43 3382 8244",
                "source": "local knowledge",
                "tourism": "guest_house"
              },
              "geometry": {
                "type": "Point",
                "coordinates": [
                  16.1014648,
                  47.0203893
                ]
              }
            },
            {
              "type": "Feature",
              "properties": {
                "id": "9642514738",
                "osm_type": "node",
                "lat": 46.9847283,
                "lon": 16.1318246,
                "addr:city": "Jennersdorf",
                "addr:housenumber": "44",
                "addr:postcode": "8380",
                "addr:street": "Ober-Henndorf",
                "email": "info@pensionweber.at",
                "guest_house": "guest_house",
                "internet_access": "wlan",
                "internet_access:fee": "no",
                "name": "Pension Weber",
                "operator": "Fam. Weber",
                "phone": "+43 3329 48447",
                "tourism": "guest_house",
                "website": "http://www.pensionweber.at/"
              },
              "geometry": {
                "type": "Point",
                "coordinates": [
                  16.1318246,
                  46.9847283
                ]
              }
            },
            {
              "type": "Feature",
              "properties": {
                "id": "9833159993",
                "osm_type": "node",
                "lat": 46.9788014,
                "lon": 16.0777293,
                "name": "Pension Lammerhof",
                "tourism": "guest_house"
              },
              "geometry": {
                "type": "Point",
                "coordinates": [
                  16.0777293,
                  46.9788014
                ]
              }
            },
            {
              "type": "Feature",
              "properties": {
                "id": "10028170733",
                "osm_type": "node",
                "lat": 46.9955087,
                "lon": 16.0872208,
                "email": "info@haus-helga.info",
                "mobile": "+43 (0) 664 870 09 20",
                "name": "Gästehaus Helga",
                "operator": "Helga Jandl",
                "phone": "+43 (0) 3382/86 68",
                "tourism": "guest_house",
                "website": "https://www.haus-helga.info/"
              },
              "geometry": {
                "type": "Point",
                "coordinates": [
                  16.0872208,
                  46.9955087
                ]
              }
            },
            {
              "type": "Feature",
              "properties": {
                "id": "10028201847",
                "osm_type": "node",
                "lat": 46.9751645,
                "lon": 16.0443801,
                "email": "urlaubspension.weitblick@gmail.com",
                "mobile": "+43 (0) 664 86 74 507",
                "name": "Urlaubspension Weitblick beim Rucksackpeter",
                "phone": "+43 (0) 3155 8233",
                "tourism": "guest_house",
                "website": "https://rucksackpeter.at/"
              },
              "geometry": {
                "type": "Point",
                "coordinates": [
                  16.0443801,
                  46.9751645
                ]
              }
            },
            {
              "type": "Feature",
              "properties": {
                "id": "10907360668",
                "osm_type": "node",
                "lat": 46.9692558,
                "lon": 16.1098467,
                "addr:city": "Jennersdorf",
                "addr:housenumber": "13",
                "addr:postcode": "8380",
                "addr:street": "Edelsgraben",
                "email": "office@gaestehaus-strini.at",
                "guest_house": "bed_and_breakfast",
                "internet_access": "wlan",
                "internet_access:fee": "no",
                "name": "Gästehaus Strini",
                "phone": "+43 3329 48482",
                "phone:mobile": "+43 664 270 23 48",
                "tourism": "guest_house",
                "website": "https://gaestehaus-strini.at/"
              },
              "geometry": {
                "type": "Point",
                "coordinates": [
                  16.1098467,
                  46.9692558
                ]
              }
            }
          ],
          "children": []
        }
      ]
    },
    {
      "bbox": {
        "south": 46.70320525,
        "west": 16.2068765,
        "north": 47.033758500000005,
        "east": 17.16058
      },
      "poiCount": 91,
      "leafCount": 0,
      "averagePosition": [
        16.63067601318681,
        46.84599035384616
      ],
      "data": [],
      "children": [
        {
          "bbox": {
            "south": 46.70320525,
            "west": 16.2068765,
            "north": 46.868481875,
            "east": 16.68372825
          },
          "poiCount": 40,
          "leafCount": 40,
          "averagePosition": [
            16.477279590000002,
            46.8059866875
          ],
          "data": [
            {
              "type": "Feature",
              "properties": {
                "id": "3009519456",
                "osm_type": "node",
                "lat": 46.7540032,
                "lon": 16.3279535,
                "name": "Őrségi Álombéli Házikók",
                "tourism": "guest_house"
              },
              "geometry": {
                "type": "Point",
                "coordinates": [
                  16.3279535,
                  46.7540032
                ]
              }
            },
            {
              "type": "Feature",
              "properties": {
                "id": "3459857679",
                "osm_type": "node",
                "lat": 46.838358,
                "lon": 16.430833,
                "name": "Bogár vendégház",
                "source": "turistautak.hu",
                "source:date": "2012-02-11",
                "tourism": "guest_house",
                "url": "http://turistautak.hu/poi.php?id=29806"
              },
              "geometry": {
                "type": "Point",
                "coordinates": [
                  16.430833,
                  46.838358
                ]
              }
            },
            {
              "type": "Feature",
              "properties": {
                "id": "3459857683",
                "osm_type": "node",
                "lat": 46.7422509,
                "lon": 16.3580356,
                "contact:website": "https://cserepmadar.hu/",
                "fixme": "exact position",
                "name": "Cserépmadár szállás",
                "source": "turistautak.hu",
                "tourism": "guest_house",
                "url": "http://turistautak.hu/poi.php?id=11936"
              },
              "geometry": {
                "type": "Point",
                "coordinates": [
                  16.3580356,
                  46.7422509
                ]
              }
            },
            {
              "type": "Feature",
              "properties": {
                "id": "3459862374",
                "osm_type": "node",
                "lat": 46.864444,
                "lon": 16.526944,
                "description": "http://napsugar.kx.hu/",
                "name": "Napsugár tábor",
                "source": "turistautak.hu",
                "source:date": "2012-07-24",
                "tourism": "guest_house",
                "url": "http://turistautak.hu/poi.php?id=141826"
              },
              "geometry": {
                "type": "Point",
                "coordinates": [
                  16.526944,
                  46.864444
                ]
              }
            },
            {
              "type": "Feature",
              "properties": {
                "id": "3459862910",
                "osm_type": "node",
                "lat": 46.8457382,
                "lon": 16.4201603,
                "contact:email": "miklos.gergocs@vipmail.hu",
                "name": "Gergócs Miklós vendégháza",
                "source": "turistautak.hu",
                "source:date": "2009-08-25",
                "tourism": "guest_house",
                "url": "http://turistautak.hu/poi.php?id=77000"
              },
              "geometry": {
                "type": "Point",
                "coordinates": [
                  16.4201603,
                  46.8457382
                ]
              }
            },
            {
              "type": "Feature",
              "properties": {
                "id": "3459862914",
                "osm_type": "node",
                "lat": 46.850567,
                "lon": 16.409917,
                "contact:email": "orseginp@onp.kvvm.hu",
                "contact:fax": "+36 94 428 791",
                "contact:phone": "+36 94 548 034",
                "name": "Harmatfű Természetvédelmi Oktatóközpont",
                "source": "turistautak.hu",
                "source:date": "2008-03-10",
                "tourism": "guest_house",
                "url": "http://turistautak.hu/poi.php?id=12832"
              },
              "geometry": {
                "type": "Point",
                "coordinates": [
                  16.409917,
                  46.850567
                ]
              }
            },
            {
              "type": "Feature",
              "properties": {
                "id": "3459862936",
                "osm_type": "node",
                "lat": 46.791967,
                "lon": 16.36375,
                "description": "Két kétágyas szobás vendégház, az egyik szoba pótágyazható. Zuhanyozós fürdőszoba és egy felszerelt konyha is van. Ha csak az egyik szobát kéred 8000.- ha a teljes házat 11000.- egy éjszakára.",
                "fixme": "resurvey (source was old)",
                "name": "Kerca vendégház",
                "phone": "+36 30 602 5491",
                "source": "turistautak.hu",
                "source:date": "2008-12-11",
                "tourism": "guest_house",
                "url": "http://turistautak.hu/poi.php?id=34429",
                "website": "http://kerca-vendeghaz.extra.hu/"
              },
              "geometry": {
                "type": "Point",
                "coordinates": [
                  16.36375,
                  46.791967
                ]
              }
            },
            {
              "type": "Feature",
              "properties": {
                "id": "3459862940",
                "osm_type": "node",
                "lat": 46.837283,
                "lon": 16.42215,
                "name": "Kiadó szoba",
                "phone": "+36 30 430 1511;+36 94 429 126",
                "source": "turistautak.hu",
                "source:date": "2012-12-10",
                "tourism": "guest_house",
                "url": "http://turistautak.hu/poi.php?id=4585"
              },
              "geometry": {
                "type": "Point",
                "coordinates": [
                  16.42215,
                  46.837283
                ]
              }
            },
            {
              "type": "Feature",
              "properties": {
                "id": "3459862957",
                "osm_type": "node",
                "lat": 46.804617,
                "lon": 16.384783,
                "name": "Madár vendégház",
                "phone": "+36 94 444 109",
                "source": "turistautak.hu",
                "source:date": "2012-12-10",
                "tourism": "guest_house",
                "url": "http://turistautak.hu/poi.php?id=81954"
              },
              "geometry": {
                "type": "Point",
                "coordinates": [
                  16.384783,
                  46.804617
                ]
              }
            },
            {
              "type": "Feature",
              "properties": {
                "id": "3459862963",
                "osm_type": "node",
                "lat": 46.839317,
                "lon": 16.500183,
                "fixme": "resurvey (source was old)",
                "name": "Manyi néni panziója",
                "phone": "+36 94 428 584",
                "source": "turistautak.hu",
                "source:date": "2008-03-10",
                "tourism": "guest_house",
                "url": "http://turistautak.hu/poi.php?id=686"
              },
              "geometry": {
                "type": "Point",
                "coordinates": [
                  16.500183,
                  46.839317
                ]
              }
            },
            {
              "type": "Feature",
              "properties": {
                "id": "3459863038",
                "osm_type": "node",
                "lat": 46.862983,
                "lon": 16.354683,
                "name": "Zsuzsi néni vendégmarasztaló portája",
                "source": "turistautak.hu",
                "source:date": "2012-12-10",
                "tourism": "guest_house",
                "url": "http://turistautak.hu/poi.php?id=9567"
              },
              "geometry": {
                "type": "Point",
                "coordinates": [
                  16.354683,
                  46.862983
                ]
              }
            },
            {
              "type": "Feature",
              "properties": {
                "id": "3468083294",
                "osm_type": "node",
                "lat": 46.728842,
                "lon": 16.397255,
                "name": "Gó-Na vendégház",
                "source": "turistautak.hu",
                "source:date": "2013-06-30",
                "tourism": "guest_house",
                "url": "http://turistautak.hu/poi.php?id=11937"
              },
              "geometry": {
                "type": "Point",
                "coordinates": [
                  16.397255,
                  46.728842
                ]
              }
            },
            {
              "type": "Feature",
              "properties": {
                "id": "3468083301",
                "osm_type": "node",
                "lat": 46.7573818,
                "lon": 16.5051122,
                "addr:city": "Kerkakutas",
                "addr:housenumber": "26",
                "addr:postcode": "8973",
                "addr:street": "Petőfi utca",
                "fixme": "resurvey (source was old)",
                "name": "Hétkutas vendégház",
                "source": "turistautak.hu",
                "source:date": "2009-05-14",
                "tourism": "guest_house",
                "url": "http://turistautak.hu/poi.php?id=71721"
              },
              "geometry": {
                "type": "Point",
                "coordinates": [
                  16.5051122,
                  46.7573818
                ]
              }
            },
            {
              "type": "Feature",
              "properties": {
                "id": "3468083370",
                "osm_type": "node",
                "lat": 46.76974,
                "lon": 16.49078,
                "addr:city": "Kerkafalva",
                "addr:housenumber": "24",
                "addr:postcode": "8973",
                "addr:street": "Rákóczi út",
                "contact:phone": "+36 30 471 6993",
                "name": "Kerka Vendégház",
                "operator": "Hajdú József",
                "source": "turistautak.hu",
                "source:date": "2012-12-10",
                "tourism": "guest_house",
                "url": "http://turistautak.hu/poi.php?id=95995",
                "website": "http://www.kerkavendeghaz.hu"
              },
              "geometry": {
                "type": "Point",
                "coordinates": [
                  16.49078,
                  46.76974
                ]
              }
            },
            {
              "type": "Feature",
              "properties": {
                "id": "4414967395",
                "osm_type": "node",
                "lat": 46.8244174,
                "lon": 16.4627656,
                "addr:city": "Nagyrákos",
                "addr:housenumber": "35",
                "addr:postcode": "9938",
                "addr:street": "Belsőszer",
                "name": "Gorza Vendégház",
                "tourism": "guest_house"
              },
              "geometry": {
                "type": "Point",
                "coordinates": [
                  16.4627656,
                  46.8244174
                ]
              }
            },
            {
              "type": "Feature",
              "properties": {
                "id": "4569312063",
                "osm_type": "node",
                "lat": 46.8372664,
                "lon": 16.4991416,
                "addr:city": "Pankasz",
                "addr:housenumber": "53",
                "addr:postcode": "9937",
                "addr:street": "Fő út",
                "contact:email": "haranglabvendeghaz2014@gmail.com",
                "contact:phone": "+36 20 330 2933",
                "name": "Harangláb Vendégház",
                "tourism": "guest_house"
              },
              "geometry": {
                "type": "Point",
                "coordinates": [
                  16.4991416,
                  46.8372664
                ]
              }
            },
            {
              "type": "Feature",
              "properties": {
                "id": "4569312065",
                "osm_type": "node",
                "lat": 46.8641224,
                "lon": 16.5280169,
                "addr:city": "Szaknyér",
                "addr:housenumber": "9",
                "addr:postcode": "9934",
                "addr:street": "Petőfi utca",
                "name": "Hétmérföldes Vendégház",
                "tourism": "guest_house"
              },
              "geometry": {
                "type": "Point",
                "coordinates": [
                  16.5280169,
                  46.8641224
                ]
              }
            },
            {
              "type": "Feature",
              "properties": {
                "id": "4569324728",
                "osm_type": "node",
                "lat": 46.8307532,
                "lon": 16.4654262,
                "name": "Boncz porta",
                "tourism": "guest_house"
              },
              "geometry": {
                "type": "Point",
                "coordinates": [
                  16.4654262,
                  46.8307532
                ]
              }
            },
            {
              "type": "Feature",
              "properties": {
                "id": "5009764432",
                "osm_type": "node",
                "lat": 46.8384102,
                "lon": 16.42113,
                "contact:facebook": "centrum.etterempanzio",
                "contact:website": "https://www.centrumetterempanzio.hu/",
                "name": "Centrum Panzió",
                "tourism": "guest_house"
              },
              "geometry": {
                "type": "Point",
                "coordinates": [
                  16.42113,
                  46.8384102
                ]
              }
            },
            {
              "type": "Feature",
              "properties": {
                "id": "6087473562",
                "osm_type": "node",
                "lat": 46.8009235,
                "lon": 16.3832893,
                "building": "yes",
                "name": "Malom panzió",
                "tourism": "guest_house"
              },
              "geometry": {
                "type": "Point",
                "coordinates": [
                  16.3832893,
                  46.8009235
                ]
              }
            },
            {
              "type": "Feature",
              "properties": {
                "id": "6087473563",
                "osm_type": "node",
                "lat": 46.7324923,
                "lon": 16.512666,
                "addr:city": "Csesztreg",
                "addr:housenumber": "12",
                "addr:postcode": "8973",
                "addr:street": "Fő út",
                "building": "yes",
                "email": "hajdu.jozsef0207@gmail.com",
                "image": "https://kerkavendeghaz.hu/tartalom/slider/20230920357.jpg",
                "internet_access": "wlan",
                "name": "Kerka Vendégház",
                "operator": "Hajdú József",
                "phone": "+36 70 361 75 76",
                "reservation": "required",
                "rooms": "2",
                "tourism": "guest_house",
                "website": "http://www.kerkavendeghaz.hu/"
              },
              "geometry": {
                "type": "Point",
                "coordinates": [
                  16.512666,
                  46.7324923
                ]
              }
            },
            {
              "type": "Feature",
              "properties": {
                "id": "9077390501",
                "osm_type": "node",
                "lat": 46.7248401,
                "lon": 16.4070653,
                "image": "https://drive.google.com/drive/folders/1inN85fTF0JT79INIAIXIxDvVyQFEstYR?usp=sharing",
                "name": "Molnár Porta Apartman",
                "tourism": "guest_house"
              },
              "geometry": {
                "type": "Point",
                "coordinates": [
                  16.4070653,
                  46.7248401
                ]
              }
            },
            {
              "type": "Feature",
              "properties": {
                "id": "9907184949",
                "osm_type": "node",
                "lat": 46.8392289,
                "lon": 16.4201599,
                "name": "Patika vendégház",
                "tourism": "guest_house"
              },
              "geometry": {
                "type": "Point",
                "coordinates": [
                  16.4201599,
                  46.8392289
                ]
              }
            },
            {
              "type": "Feature",
              "properties": {
                "id": "11428268069",
                "osm_type": "node",
                "lat": 46.7698359,
                "lon": 16.4860544,
                "addr:city": "Kerkafalva",
                "addr:housenumber": "6",
                "addr:postcode": "8973",
                "addr:street": "Petőfi út",
                "name": "Juhász porta",
                "tourism": "guest_house",
                "website": "https://juhaszporta.hu/"
              },
              "geometry": {
                "type": "Point",
                "coordinates": [
                  16.4860544,
                  46.7698359
                ]
              }
            },
            {
              "type": "Feature",
              "properties": {
                "id": "12136353177",
                "osm_type": "node",
                "lat": 46.7044205,
                "lon": 16.46301,
                "name": "Garamszegi Vendégházak",
                "tourism": "guest_house"
              },
              "geometry": {
                "type": "Point",
                "coordinates": [
                  16.46301,
                  46.7044205
                ]
              }
            },
            {
              "type": "Feature",
              "properties": {
                "id": "12137416499",
                "osm_type": "node",
                "lat": 46.7238213,
                "lon": 16.413935,
                "addr:city": "Szentgyörgyvölgy",
                "addr:housenumber": "34",
                "addr:postcode": "8975",
                "addr:street": "Kossuth Lajos utca",
                "contact:email": "infoszvendeghaz@gmail.com",
                "contact:phone": "+36 30 997 8923",
                "contact:website": "https://szvendeghaz.hu/",
                "name": "Szentgyörgyvölgy Vendégház",
                "tourism": "guest_house"
              },
              "geometry": {
                "type": "Point",
                "coordinates": [
                  16.413935,
                  46.7238213
                ]
              }
            },
            {
              "type": "Feature",
              "properties": {
                "id": "12137488806",
                "osm_type": "node",
                "lat": 46.7233432,
                "lon": 16.4165501,
                "name": "Napocska Szálláshely",
                "start_date": "2020",
                "tourism": "guest_house"
              },
              "geometry": {
                "type": "Point",
                "coordinates": [
                  16.4165501,
                  46.7233432
                ]
              }
            },
            {
              "type": "Feature",
              "properties": {
                "id": "12137488829",
                "osm_type": "node",
                "lat": 46.7236797,
                "lon": 16.4206673,
                "addr:city": "Szentgyörgyvölgy",
                "addr:housenumber": "76",
                "addr:postcode": "8975",
                "addr:street": "Kossuth Lajos utca",
                "beds": "15",
                "contact:facebook": "meztellabas",
                "contact:phone": "+36 30 227 9395; +36 30 226 0000",
                "contact:website": "https://meztellabas.hu/",
                "name": "MeztéLLábas Vendégasztal & Szállás",
                "rooms": "4",
                "tourism": "guest_house"
              },
              "geometry": {
                "type": "Point",
                "coordinates": [
                  16.4206673,
                  46.7236797
                ]
              }
            },
            {
              "type": "Feature",
              "properties": {
                "id": "12538567105",
                "osm_type": "node",
                "lat": 46.8142397,
                "lon": 16.3693895,
                "contact:mobile": "+36 30 628 1499",
                "contact:phone": "+36 94 350 049",
                "contact:website": "http://www.hatarcsardapanzio.hu/",
                "name": "Határcsárda",
                "tourism": "guest_house"
              },
              "geometry": {
                "type": "Point",
                "coordinates": [
                  16.3693895,
                  46.8142397
                ]
              }
            },
            {
              "type": "Feature",
              "properties": {
                "id": "3029585406",
                "osm_type": "node",
                "lat": 46.8550352,
                "lon": 16.643727,
                "addr:city": "Zalacséb",
                "building": "yes",
                "name": "Malom-Tanya panzió",
                "tourism": "guest_house",
                "website": "http://malomtanya.hu/"
              },
              "geometry": {
                "type": "Point",
                "coordinates": [
                  16.643727,
                  46.8550352
                ]
              }
            },
            {
              "type": "Feature",
              "properties": {
                "id": "3375483594",
                "osm_type": "node",
                "lat": 46.833869,
                "lon": 16.5913148,
                "email": "info@dedesivendeghaz.hu",
                "name": "Dedesi vendégház",
                "phone": "+36 30 378 7412",
                "source": "turistautak.hu",
                "tourism": "guest_house",
                "url": "http://turistautak.hu/poi.php?id=135226",
                "website": "http://www.dedesivendeghaz.hu"
              },
              "geometry": {
                "type": "Point",
                "coordinates": [
                  16.5913148,
                  46.833869
                ]
              }
            },
            {
              "type": "Feature",
              "properties": {
                "id": "3446767102",
                "osm_type": "node",
                "lat": 46.847128,
                "lon": 16.573003,
                "fixme": "resurvey (source was old)",
                "name": "Gólyafészek vendégház",
                "source": "turistautak.hu",
                "source:date": "2008-12-11",
                "tourism": "guest_house",
                "url": "http://turistautak.hu/poi.php?id=28363"
              },
              "geometry": {
                "type": "Point",
                "coordinates": [
                  16.573003,
                  46.847128
                ]
              }
            },
            {
              "type": "Feature",
              "properties": {
                "id": "3446767173",
                "osm_type": "node",
                "lat": 46.817055,
                "lon": 16.532023,
                "addr:city": "Csöde",
                "addr:housenumber": "9",
                "addr:postcode": "8999",
                "addr:street": "Erdész út",
                "description": "3 épületben 11 panziószóba, egy 24 férőhelyes diákszállás, étterem, szauna, úszómedence, lovarda tartozik a komplexumhoz",
                "fixme": "resurvey (source was old)",
                "name": "Sárkány Panzió",
                "source": "turistautak.hu",
                "source:date": "2008-03-10",
                "tourism": "guest_house",
                "url": "http://turistautak.hu/poi.php?id=746"
              },
              "geometry": {
                "type": "Point",
                "coordinates": [
                  16.532023,
                  46.817055
                ]
              }
            },
            {
              "type": "Feature",
              "properties": {
                "id": "3446767777",
                "osm_type": "node",
                "lat": 46.81655,
                "lon": 16.53218,
                "addr:city": "Csöde",
                "addr:housenumber": "12",
                "addr:postcode": "8999",
                "addr:street": "Erdész út",
                "internet_access": "wired",
                "internet_access:fee": "no",
                "name": "Ciklámen Vendégház",
                "rooms": "4",
                "source": "turistautak.hu",
                "source:date": "2012-12-10",
                "tourism": "guest_house",
                "url": "http://turistautak.hu/poi.php?id=96952"
              },
              "geometry": {
                "type": "Point",
                "coordinates": [
                  16.53218,
                  46.81655
                ]
              }
            },
            {
              "type": "Feature",
              "properties": {
                "id": "3459863030",
                "osm_type": "node",
                "lat": 46.868072,
                "lon": 16.544777,
                "name": "Nádkunyhó Vendégház",
                "phone": "+36 70 210 5602",
                "source": "turistautak.hu",
                "source:date": "2012-12-10",
                "tourism": "guest_house",
                "url": "http://turistautak.hu/poi.php?id=28379"
              },
              "geometry": {
                "type": "Point",
                "coordinates": [
                  16.544777,
                  46.868072
                ]
              }
            },
            {
              "type": "Feature",
              "properties": {
                "id": "5034301154",
                "osm_type": "node",
                "lat": 46.8538595,
                "lon": 16.5710816,
                "addr:city": "Zalalövő",
                "addr:housenumber": "18",
                "addr:postcode": "8999",
                "addr:street": "Borostyán utca",
                "email": "iskola@zalalovo.hu",
                "name": "Salla DSE Ifjúsági Tábor",
                "operator": "Salla DSE",
                "phone": "+36 30 750 9432",
                "tourism": "hostel",
                "website": "https://www.zalalovo.hu/turizmus/szallashelyek/ifjusagi-tabor",
                "wheelchair": "limited"
              },
              "geometry": {
                "type": "Point",
                "coordinates": [
                  16.5710816,
                  46.8538595
                ]
              }
            },
            {
              "type": "Feature",
              "properties": {
                "id": "5774795827",
                "osm_type": "node",
                "lat": 46.8652292,
                "lon": 16.543842,
                "addr:city": "Hegyhátszentjakab",
                "addr:housenumber": "3",
                "addr:postcode": "9934",
                "addr:street": "Jókai utca",
                "contact:facebook": "https://facebook.com/tuplica",
                "internet_access": "wlan",
                "internet_access:fee": "customers",
                "name": "Tuplica Vendégház",
                "rooms": "2",
                "tourism": "guest_house",
                "website": "http://www.tuplica.hu"
              },
              "geometry": {
                "type": "Point",
                "coordinates": [
                  16.543842,
                  46.8652292
                ]
              }
            },
            {
              "type": "Feature",
              "properties": {
                "id": "8289237317",
                "osm_type": "node",
                "lat": 46.7894637,
                "lon": 16.6820122,
                "name:ru": "дом",
                "tourism": "hostel"
              },
              "geometry": {
                "type": "Point",
                "coordinates": [
                  16.6820122,
                  46.7894637
                ]
              }
            },
            {
              "type": "Feature",
              "properties": {
                "id": "8364774777",
                "osm_type": "node",
                "lat": 46.8037442,
                "lon": 16.6548378,
                "contact:mobile": "+36 30 216 8769;+36 30 310 1381",
                "contact:website": "http://erdeifalu.uw.hu/bevezet.htm",
                "name": "Erdei Pihenőcentrum",
                "operator": "VI-KO 2000 BT. Zalacséb, Béke út 1.",
                "tourism": "guest_house"
              },
              "geometry": {
                "type": "Point",
                "coordinates": [
                  16.6548378,
                  46.8037442
                ]
              }
            },
            {
              "type": "Feature",
              "properties": {
                "id": "13063428347",
                "osm_type": "node",
                "lat": 46.8501749,
                "lon": 16.6605785,
                "addr:city": "Salomvár",
                "addr:housenumber": "4",
                "addr:postcode": "8995",
                "addr:street": "Dózsa György utca",
                "name": "Göcseji Turista Ház Salomvár",
                "tourism": "hostel"
              },
              "geometry": {
                "type": "Point",
                "coordinates": [
                  16.6605785,
                  46.8501749
                ]
              }
            }
          ],
          "children": []
        },
        {
          "bbox": {
            "south": 46.70320525,
            "west": 16.68372825,
            "north": 46.868481875,
            "east": 17.16058
          },
          "poiCount": 25,
          "leafCount": 25,
          "averagePosition": [
            16.980944872,
            46.820752492000004
          ],
          "data": [
            {
              "type": "Feature",
              "properties": {
                "id": "3386310677",
                "osm_type": "node",
                "lat": 46.725867,
                "lon": 16.732383,
                "name": "Patóhegyi Borházfalu",
                "source": "turistautak.hu",
                "tourism": "guest_house",
                "url": "http://turistautak.hu/poi.php?id=107061"
              },
              "geometry": {
                "type": "Point",
                "coordinates": [
                  16.732383,
                  46.725867
                ]
              }
            },
            {
              "type": "Feature",
              "properties": {
                "id": "3446755183",
                "osm_type": "node",
                "lat": 46.72361,
                "lon": 16.946,
                "name": "Cirákiné",
                "phone": "+36 30 337 7900",
                "source": "turistautak.hu",
                "source:date": "2011-12-09",
                "tourism": "guest_house",
                "url": "http://turistautak.hu/poi.php?id=126672"
              },
              "geometry": {
                "type": "Point",
                "coordinates": [
                  16.946,
                  46.72361
                ]
              }
            },
            {
              "type": "Feature",
              "properties": {
                "id": "3446767155",
                "osm_type": "node",
                "lat": 46.720529,
                "lon": 16.945583,
                "addr:city": "Zalaszentmihály",
                "addr:housenumber": "4",
                "addr:postcode": "8936",
                "addr:street": "Dr. Fülöp Valter utca",
                "contact:facebook": "https://www.facebook.com/potykatanya",
                "contact:phone": "+36 30 4035337",
                "contact:website": "http://potykatanya.hu",
                "name": "Potykatanya fogadó",
                "source": "turistautak.hu",
                "source:date": "2011-09-19",
                "tourism": "guest_house",
                "url": "http://turistautak.hu/poi.php?id=99343"
              },
              "geometry": {
                "type": "Point",
                "coordinates": [
                  16.945583,
                  46.720529
                ]
              }
            },
            {
              "type": "Feature",
              "properties": {
                "id": "3479941509",
                "osm_type": "node",
                "lat": 46.846863,
                "lon": 16.8354,
                "contact:phone": "+36 92 313 454",
                "name": "Kántor vendégház",
                "source": "turistautak.hu",
                "source:date": "2012-01-20",
                "tourism": "guest_house",
                "url": "http://turistautak.hu/poi.php?id=101574"
              },
              "geometry": {
                "type": "Point",
                "coordinates": [
                  16.8354,
                  46.846863
                ]
              }
            },
            {
              "type": "Feature",
              "properties": {
                "id": "3479941511",
                "osm_type": "node",
                "lat": 46.8473912,
                "lon": 16.8044413,
                "description": "A Leánykollégium szobáit kiadják.",
                "name": "Leánykollégium",
                "source": "turistautak.hu",
                "source:date": "2012-01-20",
                "tourism": "guest_house",
                "url": "http://turistautak.hu/poi.php?id=74159"
              },
              "geometry": {
                "type": "Point",
                "coordinates": [
                  16.8044413,
                  46.8473912
                ]
              }
            },
            {
              "type": "Feature",
              "properties": {
                "id": "3479941532",
                "osm_type": "node",
                "lat": 46.834768,
                "lon": 16.808923,
                "addr:street": "Egerszeghegyi út",
                "name": "Vándor Vigadó",
                "source": "turistautak.hu",
                "source:date": "2012-01-20",
                "tourism": "guest_house",
                "url": "http://turistautak.hu/poi.php?id=24120"
              },
              "geometry": {
                "type": "Point",
                "coordinates": [
                  16.808923,
                  46.834768
                ]
              }
            },
            {
              "type": "Feature",
              "properties": {
                "id": "4266849789",
                "osm_type": "node",
                "lat": 46.839814,
                "lon": 16.8888921,
                "fixme": "verify",
                "tourism": "guest_house"
              },
              "geometry": {
                "type": "Point",
                "coordinates": [
                  16.8888921,
                  46.839814
                ]
              }
            },
            {
              "type": "Feature",
              "properties": {
                "id": "5838014985",
                "osm_type": "node",
                "lat": 46.7223589,
                "lon": 17.00953,
                "tourism": "guest_house"
              },
              "geometry": {
                "type": "Point",
                "coordinates": [
                  17.00953,
                  46.7223589
                ]
              }
            },
            {
              "type": "Feature",
              "properties": {
                "id": "6101119586",
                "osm_type": "node",
                "lat": 46.8570922,
                "lon": 16.8283932,
                "building": "yes",
                "name": "Viktória vendégház",
                "tourism": "guest_house"
              },
              "geometry": {
                "type": "Point",
                "coordinates": [
                  16.8283932,
                  46.8570922
                ]
              }
            },
            {
              "type": "Feature",
              "properties": {
                "id": "6101119587",
                "osm_type": "node",
                "lat": 46.8573552,
                "lon": 16.8269143,
                "building": "yes",
                "name": "Fáraó vendégház",
                "tourism": "guest_house"
              },
              "geometry": {
                "type": "Point",
                "coordinates": [
                  16.8269143,
                  46.8573552
                ]
              }
            },
            {
              "type": "Feature",
              "properties": {
                "id": "6101119589",
                "osm_type": "node",
                "lat": 46.8628959,
                "lon": 16.8001615,
                "addr:city": "Zalaegerszeg",
                "addr:housenumber": "16",
                "addr:postcode": "8904",
                "addr:street": "Körmendi út",
                "addr:suburb": "Andráshida",
                "building": "yes",
                "name": "Claudia vendégház",
                "tourism": "guest_house"
              },
              "geometry": {
                "type": "Point",
                "coordinates": [
                  16.8001615,
                  46.8628959
                ]
              }
            },
            {
              "type": "Feature",
              "properties": {
                "id": "12112763026",
                "osm_type": "node",
                "lat": 46.827242,
                "lon": 16.8394104,
                "name": "Jánkahegyi Gyuri Csárda",
                "tourism": "guest_house"
              },
              "geometry": {
                "type": "Point",
                "coordinates": [
                  16.8394104,
                  46.827242
                ]
              }
            },
            {
              "type": "Feature",
              "properties": {
                "id": "3446755173",
                "osm_type": "node",
                "lat": 46.8418555,
                "lon": 17.048065,
                "addr:city": "Almásháza",
                "addr:housenumber": "9",
                "addr:postcode": "8935",
                "addr:street": "Béke utca",
                "contact:mobile": "+36 30 579 5369",
                "contact:phone": "+36 83 336 810",
                "description": "Bezárt (2019)",
                "ele": "200",
                "name": "Almáskert Vendégház",
                "source": "turistautak.hu",
                "source:date": "2013-09-04",
                "tourism": "guest_house",
                "url:tuhu": "http://turistautak.hu/poi.php?id=35605"
              },
              "geometry": {
                "type": "Point",
                "coordinates": [
                  17.048065,
                  46.8418555
                ]
              }
            },
            {
              "type": "Feature",
              "properties": {
                "id": "3454649100",
                "osm_type": "node",
                "lat": 46.804995,
                "lon": 17.10098,
                "name": "Gulyás Panzió",
                "source": "turistautak.hu",
                "source:date": "2011-09-19",
                "tourism": "guest_house",
                "url": "http://turistautak.hu/poi.php?id=107548"
              },
              "geometry": {
                "type": "Point",
                "coordinates": [
                  17.10098,
                  46.804995
                ]
              }
            },
            {
              "type": "Feature",
              "properties": {
                "id": "3470021560",
                "osm_type": "node",
                "lat": 46.8324292,
                "lon": 17.0999534,
                "check_date": "2025-05-09",
                "description": "http://www.kehidakustany.net/files/gabriella/index.html",
                "name": "Márta Apartman",
                "source": "turistautak.hu",
                "source:date": "2011-04-16",
                "tourism": "guest_house",
                "url": "http://turistautak.hu/poi.php?id=109619",
                "wheelchair": "no"
              },
              "geometry": {
                "type": "Point",
                "coordinates": [
                  17.0999534,
                  46.8324292
                ]
              }
            },
            {
              "type": "Feature",
              "properties": {
                "id": "3470021585",
                "osm_type": "node",
                "lat": 46.8387337,
                "lon": 17.0904285,
                "addr:city": "Kehidakustány",
                "addr:housenumber": "20",
                "addr:postcode": "8784",
                "addr:street": "Ady Endre utca",
                "check_date": "2025-05-09",
                "contact:phone": "+36 30 332 6575",
                "name": "Mézes vendégház",
                "source": "turistautak.hu",
                "source:date": "2011-09-19",
                "tourism": "guest_house",
                "url": "http://turistautak.hu/poi.php?id=74212",
                "wheelchair": "no"
              },
              "geometry": {
                "type": "Point",
                "coordinates": [
                  17.0904285,
                  46.8387337
                ]
              }
            },
            {
              "type": "Feature",
              "properties": {
                "id": "5466599797",
                "osm_type": "node",
                "lat": 46.8149438,
                "lon": 17.1584361,
                "addr:city": "Nemesbük",
                "addr:housenumber": "183",
                "addr:postcode": "8371",
                "addr:street": "Szőlőhegyi utca",
                "internet_access": "yes",
                "internet_access:fee": "no",
                "name": "Gästehaus Stein",
                "operator": "Familie Stein",
                "rooms": "4",
                "smoking": "outside",
                "tourism": "guest_house"
              },
              "geometry": {
                "type": "Point",
                "coordinates": [
                  17.1584361,
                  46.8149438
                ]
              }
            },
            {
              "type": "Feature",
              "properties": {
                "id": "8922727600",
                "osm_type": "node",
                "lat": 46.8422003,
                "lon": 17.0992074,
                "addr:city": "Kehidakustány",
                "addr:housenumber": "21",
                "addr:postcode": "8784",
                "addr:street": "Kossuth Lajos utca",
                "check_date": "2025-05-09",
                "contact:phone": "+36 70 368 2106",
                "guest_house": "apartment",
                "internet_access": "yes",
                "internet_access:fee": "no",
                "name": "Barátságos faházak",
                "tourism": "guest_house"
              },
              "geometry": {
                "type": "Point",
                "coordinates": [
                  17.0992074,
                  46.8422003
                ]
              }
            },
            {
              "type": "Feature",
              "properties": {
                "id": "12822894381",
                "osm_type": "node",
                "lat": 46.8359921,
                "lon": 17.0889649,
                "check_date": "2025-05-09",
                "name": "Diófa Vendégház",
                "tourism": "guest_house",
                "wheelchair": "limited"
              },
              "geometry": {
                "type": "Point",
                "coordinates": [
                  17.0889649,
                  46.8359921
                ]
              }
            },
            {
              "type": "Feature",
              "properties": {
                "id": "12823179129",
                "osm_type": "node",
                "lat": 46.8370765,
                "lon": 17.086755,
                "addr:city": "Kehidakustány",
                "addr:housenumber": "22",
                "addr:postcode": "8784",
                "addr:street": "Kerékdomb utca",
                "check_date": "2025-05-09",
                "contact:phone": "+36 70 626 2976",
                "name": "Erdőszélén Házikó",
                "operator": "Vályi Tibor",
                "tourism": "guest_house"
              },
              "geometry": {
                "type": "Point",
                "coordinates": [
                  17.086755,
                  46.8370765
                ]
              }
            },
            {
              "type": "Feature",
              "properties": {
                "id": "12823179141",
                "osm_type": "node",
                "lat": 46.8429231,
                "lon": 17.093078,
                "addr:city": "Kehidakustány",
                "addr:housenumber": "8",
                "addr:postcode": "8784",
                "addr:street": "Deák Ferenc utca",
                "check_date": "2025-05-09",
                "contact:phone": "+36 70 562 2798",
                "name": "Renáta Vendégház",
                "tourism": "guest_house",
                "wheelchair": "no"
              },
              "geometry": {
                "type": "Point",
                "coordinates": [
                  17.093078,
                  46.8429231
                ]
              }
            },
            {
              "type": "Feature",
              "properties": {
                "id": "12823301366",
                "osm_type": "node",
                "lat": 46.8406052,
                "lon": 17.0988344,
                "addr:city": "Kehidakustány",
                "addr:housenumber": "26",
                "addr:postcode": "8784",
                "addr:street": "Kossuth Lajos utca",
                "check_date": "2025-05-09",
                "contact:phone": "+36 30 287 4680",
                "name": "Marika Vendégház",
                "tourism": "guest_house"
              },
              "geometry": {
                "type": "Point",
                "coordinates": [
                  17.0988344,
                  46.8406052
                ]
              }
            },
            {
              "type": "Feature",
              "properties": {
                "id": "12823301368",
                "osm_type": "node",
                "lat": 46.8416303,
                "lon": 17.0988562,
                "addr:city": "Kehidakustány",
                "addr:housenumber": "18",
                "addr:postcode": "8784",
                "addr:street": "Kossuth Lajos utca",
                "check_date": "2025-05-09",
                "contact:phone": "+36 30 410 9963",
                "name": "Tuboly Vendégház",
                "tourism": "guest_house"
              },
              "geometry": {
                "type": "Point",
                "coordinates": [
                  17.0988562,
                  46.8416303
                ]
              }
            },
            {
              "type": "Feature",
              "properties": {
                "id": "12823323317",
                "osm_type": "node",
                "lat": 46.839854,
                "lon": 17.099692,
                "check_date": "2025-05-09",
                "contact:phone": "+36 20 262 8555",
                "name": "Wanda Vendégház",
                "tourism": "guest_house",
                "wheelchair": "limited"
              },
              "geometry": {
                "type": "Point",
                "coordinates": [
                  17.099692,
                  46.839854
                ]
              }
            },
            {
              "type": "Feature",
              "properties": {
                "id": "12823821897",
                "osm_type": "node",
                "lat": 46.8397872,
                "lon": 17.0943391,
                "check_date": "2025-05-09",
                "name": "Viola Vendégház",
                "tourism": "guest_house"
              },
              "geometry": {
                "type": "Point",
                "coordinates": [
                  17.0943391,
                  46.8397872
                ]
              }
            }
          ],
          "children": []
        },
        {
          "bbox": {
            "south": 46.868481875,
            "west": 16.2068765,
            "north": 47.033758500000005,
            "east": 16.68372825
          },
          "poiCount": 20,
          "leafCount": 20,
          "averagePosition": [
            16.418518405,
            46.926640795000004
          ],
          "data": [
            {
              "type": "Feature",
              "properties": {
                "id": "2908817273",
                "osm_type": "node",
                "lat": 46.933168,
                "lon": 16.5197276,
                "tourism": "guest_house"
              },
              "geometry": {
                "type": "Point",
                "coordinates": [
                  16.5197276,
                  46.933168
                ]
              }
            },
            {
              "type": "Feature",
              "properties": {
                "id": "3465188388",
                "osm_type": "node",
                "lat": 46.954733,
                "lon": 16.267533,
                "name": "III. Béla Kollégium",
                "source": "turistautak.hu",
                "source:date": "2010-06-30",
                "tourism": "guest_house",
                "url": "http://turistautak.hu/poi.php?id=94063"
              },
              "geometry": {
                "type": "Point",
                "coordinates": [
                  16.267533,
                  46.954733
                ]
              }
            },
            {
              "type": "Feature",
              "properties": {
                "id": "3465190237",
                "osm_type": "node",
                "lat": 46.938744,
                "lon": 16.286419,
                "name": "Thermál Panzió",
                "source": "turistautak.hu",
                "source:date": "2012-12-10",
                "tourism": "guest_house",
                "url": "http://turistautak.hu/poi.php?id=100852"
              },
              "geometry": {
                "type": "Point",
                "coordinates": [
                  16.286419,
                  46.938744
                ]
              }
            },
            {
              "type": "Feature",
              "properties": {
                "id": "3465190238",
                "osm_type": "node",
                "lat": 46.904883,
                "lon": 16.317517,
                "name": "Trainex vendégház",
                "source": "turistautak.hu",
                "source:date": "2010-03-30",
                "tourism": "guest_house",
                "url": "http://turistautak.hu/poi.php?id=11853"
              },
              "geometry": {
                "type": "Point",
                "coordinates": [
                  16.317517,
                  46.904883
                ]
              }
            },
            {
              "type": "Feature",
              "properties": {
                "id": "3465190306",
                "osm_type": "node",
                "lat": 46.884917,
                "lon": 16.220283,
                "name": "Vendvidéki vendégház",
                "phone": "+36 94 436 223",
                "source": "turistautak.hu",
                "source:date": "2012-12-10",
                "toilets:wheelchair": "no",
                "tourism": "guest_house",
                "url": "http://turistautak.hu/poi.php?id=11913",
                "website": "http://www.vendvidekivendeghaz.fw.hu/",
                "wheelchair": "no"
              },
              "geometry": {
                "type": "Point",
                "coordinates": [
                  16.220283,
                  46.884917
                ]
              }
            },
            {
              "type": "Feature",
              "properties": {
                "id": "3465190568",
                "osm_type": "node",
                "lat": 46.886583,
                "lon": 16.215467,
                "addr:city": "Kétvölgy",
                "addr:housenumber": "33",
                "addr:postcode": "9982",
                "addr:street": "Fő utca",
                "email": "info@tucsoktanya.hu",
                "name": "Tücsöktanya Vendégház",
                "phone": "+36 20 596 1718",
                "tourism": "guest_house",
                "website": "https://tucsoktanya.hu/"
              },
              "geometry": {
                "type": "Point",
                "coordinates": [
                  16.215467,
                  46.886583
                ]
              }
            },
            {
              "type": "Feature",
              "properties": {
                "id": "4248784015",
                "osm_type": "node",
                "lat": 46.9422519,
                "lon": 16.3170258,
                "name": "Taviház",
                "tourism": "guest_house",
                "website": "http://www.tavihaz.hu"
              },
              "geometry": {
                "type": "Point",
                "coordinates": [
                  16.3170258,
                  46.9422519
                ]
              }
            },
            {
              "type": "Feature",
              "properties": {
                "id": "4370089449",
                "osm_type": "node",
                "lat": 46.8777234,
                "lon": 16.4988506,
                "addr:city": "Viszák",
                "addr:housenumber": "9",
                "addr:postcode": "9932",
                "addr:street": "Fő út",
                "email": "orsegilaktanya@gmail.com",
                "facebook": "https://www.facebook.com/orsegilaktanya?fref=ts",
                "name": "Őrségi Lak-Tanya",
                "phone": "+36 30 799 7909",
                "tourism": "guest_house",
                "website": "https://www.orsegi-lak-tanya.hu/"
              },
              "geometry": {
                "type": "Point",
                "coordinates": [
                  16.4988506,
                  46.8777234
                ]
              }
            },
            {
              "type": "Feature",
              "properties": {
                "id": "9592614278",
                "osm_type": "node",
                "lat": 47.0247083,
                "lon": 16.3216617,
                "name": "Privatzimmer Familie Barth",
                "phone": "+436606258591",
                "tourism": "guest_house"
              },
              "geometry": {
                "type": "Point",
                "coordinates": [
                  16.3216617,
                  47.0247083
                ]
              }
            },
            {
              "type": "Feature",
              "properties": {
                "id": "9904372174",
                "osm_type": "node",
                "lat": 46.9773531,
                "lon": 16.3561151,
                "addr:city": "Rönök",
                "addr:housenumber": "95/b",
                "addr:postcode": "9954",
                "addr:street": "Alkotmány utca",
                "internet_access": "wlan",
                "internet_access:fee": "no",
                "name": "Arthaus Panzió",
                "rooms": "5",
                "smoking": "outside",
                "stars": "3",
                "tourism": "guest_house",
                "website": "http://artpanzio.hu/",
                "wheelchair": "limited"
              },
              "geometry": {
                "type": "Point",
                "coordinates": [
                  16.3561151,
                  46.9773531
                ]
              }
            },
            {
              "type": "Feature",
              "properties": {
                "id": "9908009591",
                "osm_type": "node",
                "lat": 46.8813914,
                "lon": 16.2635123,
                "addr:city": "Orfalu",
                "addr:housenumber": "44",
                "addr:postcode": "9982",
                "addr:street": "Fő út",
                "internet_access": "wlan",
                "name": "Vadvirág méhes- és gyógyítókert apartman",
                "tourism": "guest_house"
              },
              "geometry": {
                "type": "Point",
                "coordinates": [
                  16.2635123,
                  46.8813914
                ]
              }
            },
            {
              "type": "Feature",
              "properties": {
                "id": "10822384347",
                "osm_type": "node",
                "lat": 46.9970096,
                "lon": 16.2333169,
                "addr:city": "Poppendorf im Burgenland",
                "addr:housenumber": "6",
                "addr:postcode": "7561",
                "addr:street": "Untere Kirchengasse",
                "guest_house": "bed_and_breakfast",
                "name": "Reiterhof Rössler",
                "phone": "+43 6641506535",
                "tourism": "guest_house",
                "website": "https://www.reiterhof-roessler.at/"
              },
              "geometry": {
                "type": "Point",
                "coordinates": [
                  16.2333169,
                  46.9970096
                ]
              }
            },
            {
              "type": "Feature",
              "properties": {
                "id": "2506207717",
                "osm_type": "node",
                "lat": 46.8775328,
                "lon": 16.5494499,
                "name": "Vadása Motel és Étterem",
                "tourism": "guest_house"
              },
              "geometry": {
                "type": "Point",
                "coordinates": [
                  16.5494499,
                  46.8775328
                ]
              }
            },
            {
              "type": "Feature",
              "properties": {
                "id": "3159402365",
                "osm_type": "node",
                "lat": 47.0092698,
                "lon": 16.5860435,
                "addr:city": "Körmend",
                "name": "Berki Panzió",
                "tourism": "guest_house"
              },
              "geometry": {
                "type": "Point",
                "coordinates": [
                  16.5860435,
                  47.0092698
                ]
              }
            },
            {
              "type": "Feature",
              "properties": {
                "id": "3377136700",
                "osm_type": "node",
                "lat": 46.89227,
                "lon": 16.656149,
                "name": "Turistaház",
                "source": "turistautak.hu",
                "tourism": "guest_house",
                "url": "http://turistautak.hu/poi.php?id=78445"
              },
              "geometry": {
                "type": "Point",
                "coordinates": [
                  16.656149,
                  46.89227
                ]
              }
            },
            {
              "type": "Feature",
              "properties": {
                "id": "3437351904",
                "osm_type": "node",
                "lat": 47.0127998,
                "lon": 16.6004239,
                "addr:city": "Körmend",
                "addr:housenumber": "8",
                "addr:postcode": "9900",
                "addr:street": "Arany János utca",
                "name": "Monet Panzió és söröző",
                "phone": "+36 94 414 282;+36 30 266 8716;+36 30 505 9301;+36 30 293 0360",
                "source": "turistautak.hu",
                "tourism": "guest_house",
                "url": "http://turistautak.hu/poi.php?id=7705",
                "website": "https://www.kormend.hu/TURIZMUS/Szallashelyek/Monet_Panzio.html"
              },
              "geometry": {
                "type": "Point",
                "coordinates": [
                  16.6004239,
                  47.0127998
                ]
              }
            },
            {
              "type": "Feature",
              "properties": {
                "id": "3459862373",
                "osm_type": "node",
                "lat": 46.885697,
                "lon": 16.5331766,
                "description": "http://www.napfeny.kx.hu/",
                "email": "napfenyszallas@t-online.hu",
                "name": "Napfény Ifjúsági és Sporttábor",
                "phone": "+36 94 426 184",
                "source": "turistautak.hu",
                "source:date": "2012-07-14",
                "tourism": "hostel",
                "url": "http://turistautak.hu/poi.php?id=141443"
              },
              "geometry": {
                "type": "Point",
                "coordinates": [
                  16.5331766,
                  46.885697
                ]
              }
            },
            {
              "type": "Feature",
              "properties": {
                "id": "3459862912",
                "osm_type": "node",
                "lat": 46.87645,
                "lon": 16.5524,
                "name": "György Nyaraló",
                "source": "turistautak.hu",
                "source:date": "2013-06-30",
                "tourism": "guest_house",
                "url": "http://turistautak.hu/poi.php?id=140857"
              },
              "geometry": {
                "type": "Point",
                "coordinates": [
                  16.5524,
                  46.87645
                ]
              }
            },
            {
              "type": "Feature",
              "properties": {
                "id": "4569312064",
                "osm_type": "node",
                "lat": 46.8874446,
                "lon": 16.5370532,
                "addr:city": "Őrimagyarósd",
                "addr:housenumber": "35",
                "addr:postcode": "9933",
                "addr:street": "Dózsa György utca",
                "name": "Őrség Vendégház és Étterem",
                "tourism": "guest_house"
              },
              "geometry": {
                "type": "Point",
                "coordinates": [
                  16.5370532,
                  46.8874446
                ]
              }
            },
            {
              "type": "Feature",
              "properties": {
                "id": "7734899343",
                "osm_type": "node",
                "lat": 46.8878862,
                "lon": 16.538243,
                "name": "Őrségi 5érzék Házak",
                "phone": "+36304734317",
                "tourism": "hostel",
                "website": "https://orsegi5erzek.hu/"
              },
              "geometry": {
                "type": "Point",
                "coordinates": [
                  16.538243,
                  46.8878862
                ]
              }
            }
          ],
          "children": []
        },
        {
          "bbox": {
            "south": 46.868481875,
            "west": 16.68372825,
            "north": 47.033758500000005,
            "east": 17.16058
          },
          "poiCount": 6,
          "leafCount": 6,
          "averagePosition": [
            16.901057283333333,
            46.94900441666667
          ],
          "data": [
            {
              "type": "Feature",
              "properties": {
                "id": "3446755181",
                "osm_type": "node",
                "lat": 46.938752,
                "lon": 16.843402,
                "name": "Béres vendégház",
                "phone": "+36 20 354 6310",
                "source": "turistautak.hu",
                "source:date": "2012-01-20",
                "tourism": "guest_house",
                "url": "http://turistautak.hu/poi.php?id=9393"
              },
              "geometry": {
                "type": "Point",
                "coordinates": [
                  16.843402,
                  46.938752
                ]
              }
            },
            {
              "type": "Feature",
              "properties": {
                "id": "3446767170",
                "osm_type": "node",
                "lat": 46.918478,
                "lon": 16.975086,
                "name": "Szálláshely",
                "source": "turistautak.hu",
                "source:date": "2011-09-19",
                "tourism": "guest_house",
                "url": "http://turistautak.hu/poi.php?id=75077"
              },
              "geometry": {
                "type": "Point",
                "coordinates": [
                  16.975086,
                  46.918478
                ]
              }
            },
            {
              "type": "Feature",
              "properties": {
                "id": "3459863240",
                "osm_type": "node",
                "lat": 47.007717,
                "lon": 16.701417,
                "name": "Öreghegy vendégház",
                "source": "turistautak.hu",
                "source:date": "2011-09-19",
                "tourism": "guest_house",
                "url": "http://turistautak.hu/poi.php?id=67096"
              },
              "geometry": {
                "type": "Point",
                "coordinates": [
                  16.701417,
                  47.007717
                ]
              }
            },
            {
              "type": "Feature",
              "properties": {
                "id": "6093961740",
                "osm_type": "node",
                "lat": 46.9682905,
                "lon": 16.7449987,
                "building": "yes",
                "name": "Karát-lak vendégház",
                "tourism": "guest_house",
                "website": "http://www.karatlak.extra.hu/"
              },
              "geometry": {
                "type": "Point",
                "coordinates": [
                  16.7449987,
                  46.9682905
                ]
              }
            },
            {
              "type": "Feature",
              "properties": {
                "id": "3470021543",
                "osm_type": "node",
                "lat": 46.886317,
                "lon": 17.109617,
                "name": "Aranypatak Panzió és vendéglő",
                "source": "turistautak.hu",
                "source:date": "2011-05-26",
                "tourism": "guest_house",
                "url": "http://turistautak.hu/poi.php?id=99450"
              },
              "geometry": {
                "type": "Point",
                "coordinates": [
                  17.109617,
                  46.886317
                ]
              }
            },
            {
              "type": "Feature",
              "properties": {
                "id": "3470021793",
                "osm_type": "node",
                "lat": 46.974472,
                "lon": 17.031823,
                "addr:city": "Zalabér",
                "addr:housenumber": "6",
                "addr:postcode": "8798",
                "addr:street": "Hunyadi János utca",
                "name": "Szent Antal fogadó",
                "toilets:wheelchair": "yes",
                "tourism": "guest_house",
                "wheelchair": "limited",
                "wheelchair:description": "Az étterem kerthelyisége telejesen akadálymentes. Maga az étterem nem,de segítséggel megközelíthető. Mozgássérült mosdó csak az udvaron van kialakítva, tehát télen nem igazán használható."
              },
              "geometry": {
                "type": "Point",
                "coordinates": [
                  17.031823,
                  46.974472
                ]
              }
            }
          ],
          "children": []
        }
      ]
    }
  ]
}