{
  "bbox": {
    "south": 47.033758500000005,
    "west": 15.253173,
    "north": 47.694865,
    "east": 17.16058
  },
  "poiCount": 241,
  "leafCount": 0,
  "averagePosition": [
    16.173173582572613,
    47.404384367219926
  ],
  "data": [],
  "children": [
    {
      "bbox": {
        "south": 47.033758500000005,
        "west": 15.253173,
        "north": 47.36431175,
        "east": 16.2068765
      },
      "poiCount": 75,
      "leafCount": 0,
      "averagePosition": [
        15.785087961333332,
        47.21222295733334
      ],
      "data": [],
      "children": [
        {
          "bbox": {
            "south": 47.033758500000005,
            "west": 15.253173,
            "north": 47.199035125,
            "east": 15.73002475
          },
          "poiCount": 16,
          "leafCount": 16,
          "averagePosition": [
            15.49488300625,
            47.09737754375
          ],
          "data": [
            {
              "type": "Feature",
              "properties": {
                "id": "279160392",
                "osm_type": "node",
                "lat": 47.0666854,
                "lon": 15.38599,
                "addr:city": "Graz",
                "addr:country": "AT",
                "addr:housenumber": "7",
                "addr:postcode": "8020",
                "addr:street": "Gaisbergweg",
                "name": "Pension Steinbichler",
                "tourism": "guest_house",
                "website": "www.pension-steinbichler.at"
              },
              "geometry": {
                "type": "Point",
                "coordinates": [
                  15.38599,
                  47.0666854
                ]
              }
            },
            {
              "type": "Feature",
              "properties": {
                "id": "905125812",
                "osm_type": "node",
                "lat": 47.0640321,
                "lon": 15.4205238,
                "addr:city": "Graz",
                "addr:country": "AT",
                "addr:housenumber": "47b",
                "addr:postcode": "8020",
                "addr:street": "Steinfeldgasse",
                "name": "Blümel Appertmenthaus",
                "phone": "+43316714218",
                "tourism": "guest_house",
                "website": "https://www.appartement-graz.at/"
              },
              "geometry": {
                "type": "Point",
                "coordinates": [
                  15.4205238,
                  47.0640321
                ]
              }
            },
            {
              "type": "Feature",
              "properties": {
                "id": "2462758658",
                "osm_type": "node",
                "lat": 47.0650245,
                "lon": 15.4410413,
                "addr:city": "Graz",
                "addr:country": "AT",
                "addr:housenumber": "18",
                "addr:postcode": "8010",
                "addr:street": "Schönaugasse",
                "contact:phone": "+43 699 17077 559",
                "name": "Appartement Froschkönig",
                "source": "Lokalzeitung Woche",
                "tourism": "guest_house",
                "website": "http://www.appartement-zzz.com/impressum/"
              },
              "geometry": {
                "type": "Point",
                "coordinates": [
                  15.4410413,
                  47.0650245
                ]
              }
            },
            {
              "type": "Feature",
              "properties": {
                "id": "3661135533",
                "osm_type": "node",
                "lat": 47.1327842,
                "lon": 15.5304604,
                "addr:city": "Weinitzen",
                "addr:country": "AT",
                "addr:housenumber": "24",
                "addr:postcode": "8044",
                "addr:street": "Fasslstraße",
                "name": "Altes Fassl",
                "opening_hours": "We off",
                "phone": "+43(0)31 32-24 38",
                "tourism": "guest_house",
                "website": "http://www.altes-fassl.at/"
              },
              "geometry": {
                "type": "Point",
                "coordinates": [
                  15.5304604,
                  47.1327842
                ]
              }
            },
            {
              "type": "Feature",
              "properties": {
                "id": "4664893823",
                "osm_type": "node",
                "lat": 47.1408727,
                "lon": 15.4896545,
                "guest_house": "bed_and_breakfast",
                "name": "Urlaub am Bauernhof",
                "operator": "Familie Wartbichler",
                "tourism": "hostel",
                "website": "https://www.wartbichler.com/"
              },
              "geometry": {
                "type": "Point",
                "coordinates": [
                  15.4896545,
                  47.1408727
                ]
              }
            },
            {
              "type": "Feature",
              "properties": {
                "id": "4664893824",
                "osm_type": "node",
                "lat": 47.1475688,
                "lon": 15.4648561,
                "addr:city": "Weinitzen",
                "addr:country": "AT",
                "addr:housenumber": "34a",
                "addr:postcode": "8045",
                "addr:street": "Gregerbauerweg",
                "at_bev:addr_date": "2019-10-01",
                "name": "Urlaub am Bauernhof",
                "operator": "Familie Mautner",
                "tourism": "hostel",
                "website": "https://www.gregerbauer.at/"
              },
              "geometry": {
                "type": "Point",
                "coordinates": [
                  15.4648561,
                  47.1475688
                ]
              }
            },
            {
              "type": "Feature",
              "properties": {
                "id": "6335219586",
                "osm_type": "node",
                "lat": 47.1186146,
                "lon": 15.4356786,
                "accommodation": "yes",
                "addr:city": "Graz",
                "addr:country": "AT",
                "addr:housenumber": "144",
                "addr:postcode": "8045",
                "addr:street": "Radegunder Straße",
                "contact:phone": "+43 316 691960",
                "name": "Pension Günther",
                "source": "Lokalzeitung „Woche”",
                "stars": "3",
                "tourism": "guest_house",
                "wheelchair": "no"
              },
              "geometry": {
                "type": "Point",
                "coordinates": [
                  15.4356786,
                  47.1186146
                ]
              }
            },
            {
              "type": "Feature",
              "properties": {
                "id": "8787291105",
                "osm_type": "node",
                "lat": 47.046566,
                "lon": 15.4523701,
                "addr:city": "Graz",
                "addr:country": "AT",
                "addr:housenumber": "113",
                "addr:postcode": "8041",
                "addr:street": "Raiffeisenstraße",
                "contact:phone": "+43 664 3021907",
                "guest_house": "apartment",
                "name": "Arena Apartments",
                "tourism": "guest_house"
              },
              "geometry": {
                "type": "Point",
                "coordinates": [
                  15.4523701,
                  47.046566
                ]
              }
            },
            {
              "type": "Feature",
              "properties": {
                "id": "9897471465",
                "osm_type": "node",
                "lat": 47.0751715,
                "lon": 15.4477351,
                "addr:city": "Graz",
                "addr:country": "AT",
                "addr:postcode": "8010",
                "contact:phone": "+43 316 3191 95",
                "guest_house": "bed_and_breakfast",
                "name": "Gästehaus Mosshammer",
                "tourism": "guest_house",
                "website": "https://www.mosshammer.at/gaestehaus/"
              },
              "geometry": {
                "type": "Point",
                "coordinates": [
                  15.4477351,
                  47.0751715
                ]
              }
            },
            {
              "type": "Feature",
              "properties": {
                "id": "10978984237",
                "osm_type": "node",
                "lat": 47.0571871,
                "lon": 15.4179484,
                "addr:city": "Graz",
                "addr:country": "AT",
                "addr:housenumber": "4",
                "addr:postcode": "8020",
                "addr:street": "Franz-Riepl-Gasse",
                "guest_house": "apartment",
                "name": "City Apartment Graz",
                "phone": "+43 699 19 37 27 86",
                "tourism": "guest_house"
              },
              "geometry": {
                "type": "Point",
                "coordinates": [
                  15.4179484,
                  47.0571871
                ]
              }
            },
            {
              "type": "Feature",
              "properties": {
                "id": "12824677902",
                "osm_type": "node",
                "lat": 47.086257,
                "lon": 15.4254655,
                "addr:city": "Graz",
                "addr:country": "AT",
                "addr:housenumber": "108",
                "addr:postcode": "8010",
                "addr:street": "Schwimmschulkai",
                "guest_house": "apartment",
                "name": "Appartement in Graz-Geidorf",
                "phone": "+43 676 31 69 799",
                "tourism": "guest_house",
                "website": "https://graz-geidorf.com.es/"
              },
              "geometry": {
                "type": "Point",
                "coordinates": [
                  15.4254655,
                  47.086257
                ]
              }
            },
            {
              "type": "Feature",
              "properties": {
                "id": "13098534801",
                "osm_type": "node",
                "lat": 47.0695105,
                "lon": 15.4423765,
                "addr:housenumber": "8",
                "addr:postcode": "8010",
                "addr:street": "Hans-Sachs-Gasse",
                "contact:facebook": "sishaus",
                "contact:instagram": "sishaushostel",
                "email": "info@sishaus.at",
                "name": "Sishaus Hostel",
                "opening_hours": "24/7",
                "phone": "+48676 7440210",
                "tourism": "guest_house",
                "website": "http://sishaus.at"
              },
              "geometry": {
                "type": "Point",
                "coordinates": [
                  15.4423765,
                  47.0695105
                ]
              }
            },
            {
              "type": "Feature",
              "properties": {
                "id": "1509295787",
                "osm_type": "node",
                "lat": 47.1584567,
                "lon": 15.5363195,
                "addr:housenumber": "32",
                "addr:postcode": "8062",
                "addr:street": "Hauptstraße",
                "guest_house": "pension",
                "name": "Gästezimmer Johann Hierhold",
                "phone": "+43 664 440 98 53",
                "tourism": "guest_house",
                "website": "https://www.camping-kumberg.at/"
              },
              "geometry": {
                "type": "Point",
                "coordinates": [
                  15.5363195,
                  47.1584567
                ]
              }
            },
            {
              "type": "Feature",
              "properties": {
                "id": "3050077490",
                "osm_type": "node",
                "lat": 47.110613,
                "lon": 15.7146534,
                "addr:city": "Gleisdorf",
                "addr:country": "AT",
                "addr:housenumber": "21a",
                "addr:postcode": "8200",
                "addr:street": "Erzherzog-Johann-Gasse",
                "contact:email": "gertrud.rechling@yahoo.at",
                "name": "Gästezimmer Rechling",
                "tourism": "guest_house"
              },
              "geometry": {
                "type": "Point",
                "coordinates": [
                  15.7146534,
                  47.110613
                ]
              }
            },
            {
              "type": "Feature",
              "properties": {
                "id": "5748342727",
                "osm_type": "node",
                "lat": 47.1119953,
                "lon": 15.6487665,
                "name": "Steirisch Ursprung Wirthaus",
                "source": "survey",
                "tourism": "guest_house",
                "website": "https://www.steirischursprung.at/"
              },
              "geometry": {
                "type": "Point",
                "coordinates": [
                  15.6487665,
                  47.1119953
                ]
              }
            },
            {
              "type": "Feature",
              "properties": {
                "id": "5748342728",
                "osm_type": "node",
                "lat": 47.1067013,
                "lon": 15.6642884,
                "check_date": "2025-06-17",
                "name": "Landgasthaus Baumgartner",
                "source": "survey",
                "tourism": "guest_house"
              },
              "geometry": {
                "type": "Point",
                "coordinates": [
                  15.6642884,
                  47.1067013
                ]
              }
            }
          ],
          "children": []
        },
        {
          "bbox": {
            "south": 47.033758500000005,
            "west": 15.73002475,
            "north": 47.199035125,
            "east": 16.2068765
          },
          "poiCount": 15,
          "leafCount": 15,
          "averagePosition": [
            16.006232886666666,
            47.1261221
          ],
          "data": [
            {
              "type": "Feature",
              "properties": {
                "id": "1781428522",
                "osm_type": "node",
                "lat": 47.1499086,
                "lon": 15.7691121,
                "addr:city": "Ilztal",
                "addr:country": "AT",
                "addr:housenumber": "41",
                "addr:place": "Großpesendorf",
                "addr:postcode": "8211",
                "name": "Ilztalerhof",
                "phone": "+433113 227230",
                "source": "owner",
                "tourism": "guest_house"
              },
              "geometry": {
                "type": "Point",
                "coordinates": [
                  15.7691121,
                  47.1499086
                ]
              }
            },
            {
              "type": "Feature",
              "properties": {
                "id": "3402648608",
                "osm_type": "node",
                "lat": 47.0553906,
                "lon": 15.837543,
                "addr:city": "Markt Hartmannsdorf",
                "addr:postcode": "8311",
                "name": "Gästehaus Gruber",
                "tourism": "guest_house"
              },
              "geometry": {
                "type": "Point",
                "coordinates": [
                  15.837543,
                  47.0553906
                ]
              }
            },
            {
              "type": "Feature",
              "properties": {
                "id": "6049348042",
                "osm_type": "node",
                "lat": 47.1007412,
                "lon": 15.7482724,
                "addr:city": "Gleisdorf",
                "addr:country": "AT",
                "addr:housenumber": "59",
                "addr:place": "Nitscha",
                "addr:postcode": "8200",
                "at_bev:addr_date": "2018-10-01",
                "guest_house": "bed_and_breakfast",
                "name": "Lechner Frühstückspension",
                "tourism": "guest_house",
                "website": "https://pension-lechner.hpage.de/"
              },
              "geometry": {
                "type": "Point",
                "coordinates": [
                  15.7482724,
                  47.1007412
                ]
              }
            },
            {
              "type": "Feature",
              "properties": {
                "id": "7397328429",
                "osm_type": "node",
                "lat": 47.1727815,
                "lon": 16.0163081,
                "tourism": "guest_house"
              },
              "geometry": {
                "type": "Point",
                "coordinates": [
                  16.0163081,
                  47.1727815
                ]
              }
            },
            {
              "type": "Feature",
              "properties": {
                "id": "8081053555",
                "osm_type": "node",
                "lat": 47.1667964,
                "lon": 16.0179873,
                "addr:city": "Bad Waltersdorf",
                "addr:country": "AT",
                "addr:housenumber": "273",
                "addr:postcode": "8271",
                "addr:street": "Am Siegesbrunn",
                "at_bev:addr_date": "2020-10-01",
                "guest_house": "bed_and_breakfast",
                "name": "B&B Haus Siegesbrunn",
                "operator": "Glatz Herta & Franz",
                "phone": "+43 3333 2806",
                "smoking": "outside",
                "tourism": "guest_house"
              },
              "geometry": {
                "type": "Point",
                "coordinates": [
                  16.0179873,
                  47.1667964
                ]
              }
            },
            {
              "type": "Feature",
              "properties": {
                "id": "9379228989",
                "osm_type": "node",
                "lat": 47.1697362,
                "lon": 16.008022,
                "name": "Pension Pichler",
                "tourism": "guest_house"
              },
              "geometry": {
                "type": "Point",
                "coordinates": [
                  16.008022,
                  47.1697362
                ]
              }
            },
            {
              "type": "Feature",
              "properties": {
                "id": "9385675556",
                "osm_type": "node",
                "lat": 47.1707197,
                "lon": 16.0234206,
                "name": "Ferienhaus Uitz",
                "tourism": "guest_house"
              },
              "geometry": {
                "type": "Point",
                "coordinates": [
                  16.0234206,
                  47.1707197
                ]
              }
            },
            {
              "type": "Feature",
              "properties": {
                "id": "1821236507",
                "osm_type": "node",
                "lat": 47.1012226,
                "lon": 16.1153148,
                "addr:city": "Deutsch Kaltenbrunn",
                "addr:housenumber": "8",
                "addr:postcode": "7572",
                "addr:street": "Am Oberberg",
                "name": "Maxhof",
                "tourism": "guest_house",
                "website": "http://www.maxhof.at/"
              },
              "geometry": {
                "type": "Point",
                "coordinates": [
                  16.1153148,
                  47.1012226
                ]
              }
            },
            {
              "type": "Feature",
              "properties": {
                "id": "3638308503",
                "osm_type": "node",
                "lat": 47.0516917,
                "lon": 16.0727563,
                "addr:housenumber": "3",
                "addr:street": "Grazer Platz",
                "name": "Gasthof Fasch & Gölles OG",
                "phone": "+43 3382 52438",
                "tourism": "guest_house",
                "website": "https://www.gasthof-fasch.at/"
              },
              "geometry": {
                "type": "Point",
                "coordinates": [
                  16.0727563,
                  47.0516917
                ]
              }
            },
            {
              "type": "Feature",
              "properties": {
                "id": "4038629886",
                "osm_type": "node",
                "lat": 47.1214336,
                "lon": 16.1001304,
                "addr:city": "Burgau",
                "addr:country": "AT",
                "addr:housenumber": "171",
                "addr:postcode": "8291",
                "addr:street": "Weinseißmühle",
                "at_bev:addr_date": "2020-10-01",
                "name": "Frühstückspension Kleinschuster",
                "tourism": "guest_house",
                "website": "http://www.kleinschuster.com/fruehstueckspension/"
              },
              "geometry": {
                "type": "Point",
                "coordinates": [
                  16.1001304,
                  47.1214336
                ]
              }
            },
            {
              "type": "Feature",
              "properties": {
                "id": "4478035052",
                "osm_type": "node",
                "lat": 47.1848955,
                "lon": 16.1640767,
                "addr:city": "Ollersdorf im Burgenland",
                "addr:housenumber": "37",
                "addr:postcode": "7533",
                "addr:street": "Hauptstraße",
                "name": "Privatzimmer Strobl",
                "phone": "+43 (0)664 38 95 434",
                "tourism": "guest_house"
              },
              "geometry": {
                "type": "Point",
                "coordinates": [
                  16.1640767,
                  47.1848955
                ]
              }
            },
            {
              "type": "Feature",
              "properties": {
                "id": "7192941723",
                "osm_type": "node",
                "lat": 47.1154401,
                "lon": 16.0525232,
                "addr:city": "Bad Blumau",
                "addr:housenumber": "113",
                "addr:postcode": "8283",
                "addr:street": "Hauptstraße",
                "beds": "6",
                "email": "pension@zurpost-blumau.at",
                "guest_house": "bed_and_breakfast",
                "internet_access": "wlan",
                "internet_access:fee": "no",
                "name": "Pension zur Post",
                "operator": "Helga Maria Rauer",
                "payment:cash": "yes",
                "payment:credit_cards": "no",
                "payment:cryptocurrencies": "no",
                "payment:debit_cards": "no",
                "payment:electronic_purses": "no",
                "phone": "+43 664 5235707",
                "rooms": "3",
                "smoking": "outside",
                "tourism": "guest_house",
                "website": "https://www.zurpost-blumau.at",
                "wheelchair": "no"
              },
              "geometry": {
                "type": "Point",
                "coordinates": [
                  16.0525232,
                  47.1154401
                ]
              }
            },
            {
              "type": "Feature",
              "properties": {
                "id": "8040664053",
                "osm_type": "node",
                "lat": 47.0427752,
                "lon": 16.0828396,
                "addr:city": "Fürstenfeld",
                "addr:housenumber": "12",
                "addr:postcode": "8280",
                "addr:street": "Bahnhofstraße",
                "air_conditioning": "no",
                "email": "info@b3-hitzl.at",
                "guest_house": "bed_and_breakfast",
                "internet_access": "no",
                "name": "Barbara‘s Bed & Breakfast",
                "operator": "Waltraud Hitzl",
                "phone": "+43 3382 52144",
                "tourism": "guest_house",
                "website": "https://www.b3-hitzl.at/",
                "wheelchair": "no"
              },
              "geometry": {
                "type": "Point",
                "coordinates": [
                  16.0828396,
                  47.0427752
                ]
              }
            },
            {
              "type": "Feature",
              "properties": {
                "id": "9381347733",
                "osm_type": "node",
                "lat": 47.1696954,
                "lon": 16.0351748,
                "name": "Feriewohnungen Christandl",
                "tourism": "guest_house"
              },
              "geometry": {
                "type": "Point",
                "coordinates": [
                  16.0351748,
                  47.1696954
                ]
              }
            },
            {
              "type": "Feature",
              "properties": {
                "id": "11818451523",
                "osm_type": "node",
                "lat": 47.1186032,
                "lon": 16.050012,
                "email": "teichhof.samwald@aon.at",
                "name": "Teichhof",
                "phone": "+4333832009",
                "tourism": "guest_house",
                "website": "http://www.teichhof.at/"
              },
              "geometry": {
                "type": "Point",
                "coordinates": [
                  16.050012,
                  47.1186032
                ]
              }
            }
          ],
          "children": []
        },
        {
          "bbox": {
            "south": 47.199035125,
            "west": 15.253173,
            "north": 47.36431175,
            "east": 15.73002475
          },
          "poiCount": 6,
          "leafCount": 6,
          "averagePosition": [
            15.5470257,
            47.288598216666664
          ],
          "data": [
            {
              "type": "Feature",
              "properties": {
                "id": "1428568121",
                "osm_type": "node",
                "lat": 47.278661,
                "lon": 15.508705,
                "name": "Frühstückspension Pösinger",
                "tourism": "guest_house"
              },
              "geometry": {
                "type": "Point",
                "coordinates": [
                  15.508705,
                  47.278661
                ]
              }
            },
            {
              "type": "Feature",
              "properties": {
                "id": "3047170015",
                "osm_type": "node",
                "lat": 47.2787549,
                "lon": 15.506642,
                "addr:city": "Passail",
                "addr:country": "AT",
                "addr:housenumber": "29",
                "addr:postcode": "8162",
                "addr:street": "Fladnitzer Straße",
                "contact:email": "apartment@almenland.at",
                "contact:phone": "+43 664 53 63 132",
                "contact:website": "https://www.almenland-apartment.at",
                "guest_house": "bed_and_breakfast",
                "name": "Almenland Apartment Passail",
                "tourism": "guest_house"
              },
              "geometry": {
                "type": "Point",
                "coordinates": [
                  15.506642,
                  47.2787549
                ]
              }
            },
            {
              "type": "Feature",
              "properties": {
                "id": "5153242052",
                "osm_type": "node",
                "lat": 47.3449103,
                "lon": 15.3531433,
                "check_date": "2025-06-13",
                "email": "zimmer.cresnik@hotmail.com",
                "guest_house": "bed_and_breakfast",
                "internet_access": "wlan",
                "internet_access:fee": "no",
                "name": "Privatzimmer Cresnik",
                "phone": "+43 3867 8763",
                "phone:mobile": "+43 660 658 13 16",
                "tourism": "guest_house",
                "website": "https://zimmercresnik.wixsite.com/zimmercresnik"
              },
              "geometry": {
                "type": "Point",
                "coordinates": [
                  15.3531433,
                  47.3449103
                ]
              }
            },
            {
              "type": "Feature",
              "properties": {
                "id": "899294540",
                "osm_type": "node",
                "lat": 47.2181516,
                "lon": 15.6219572,
                "addr:city": "Weiz",
                "addr:country": "AT",
                "addr:housenumber": "5-7",
                "addr:postcode": "8160",
                "addr:street": "Klammstraße",
                "check_date": "2025-04-20",
                "name": "Christina Pension",
                "phone": "+43317224860",
                "tourism": "guest_house",
                "website": "https://www.schwindhackl.at/"
              },
              "geometry": {
                "type": "Point",
                "coordinates": [
                  15.6219572,
                  47.2181516
                ]
              }
            },
            {
              "type": "Feature",
              "properties": {
                "id": "2928064841",
                "osm_type": "node",
                "lat": 47.3363796,
                "lon": 15.6009537,
                "addr:postcode": "8172",
                "cafe": "yes",
                "name": "Pension Kornreitherhaus",
                "operator": "Anna Schmid",
                "phone": "+433179 8615",
                "tourism": "guest_house",
                "website": "https://www.kornreitherhaus.at/"
              },
              "geometry": {
                "type": "Point",
                "coordinates": [
                  15.6009537,
                  47.3363796
                ]
              }
            },
            {
              "type": "Feature",
              "properties": {
                "id": "4917262341",
                "osm_type": "node",
                "lat": 47.2747319,
                "lon": 15.690753,
                "addr:city": "Anger",
                "addr:country": "AT",
                "addr:housenumber": "7",
                "addr:postcode": "8184",
                "addr:street": "Gartengasse",
                "at_bev:addr_date": "2017-04-07",
                "guest_house": "bed_and_breakfast",
                "name": "Haus Stoppacher",
                "phone": "+43 3175 23 36",
                "tourism": "guest_house"
              },
              "geometry": {
                "type": "Point",
                "coordinates": [
                  15.690753,
                  47.2747319
                ]
              }
            }
          ],
          "children": []
        },
        {
          "bbox": {
            "south": 47.199035125,
            "west": 15.73002475,
            "north": 47.36431175,
            "east": 16.2068765
          },
          "poiCount": 38,
          "leafCount": 38,
          "averagePosition": [
            15.85757425,
            47.28250685
          ],
          "data": [
            {
              "type": "Feature",
              "properties": {
                "id": "2148088594",
                "osm_type": "node",
                "lat": 47.2835157,
                "lon": 15.9615197,
                "name": "Claddagh Ring",
                "phone": "+43(0)676/6808422",
                "tourism": "guest_house",
                "website": "http://www.claddaghring.at"
              },
              "geometry": {
                "type": "Point",
                "coordinates": [
                  15.9615197,
                  47.2835157
                ]
              }
            },
            {
              "type": "Feature",
              "properties": {
                "id": "2148088598",
                "osm_type": "node",
                "lat": 47.290441,
                "lon": 16.0189293,
                "name": "Privatzimmer Lind",
                "phone": "+43(0)3332/64824",
                "tourism": "guest_house"
              },
              "geometry": {
                "type": "Point",
                "coordinates": [
                  16.0189293,
                  47.290441
                ]
              }
            },
            {
              "type": "Feature",
              "properties": {
                "id": "2148088599",
                "osm_type": "node",
                "lat": 47.2892707,
                "lon": 15.9651255,
                "name": "Privatzimmer Oswald",
                "phone": "+43(0)3332/63772",
                "tourism": "guest_house"
              },
              "geometry": {
                "type": "Point",
                "coordinates": [
                  15.9651255,
                  47.2892707
                ]
              }
            },
            {
              "type": "Feature",
              "properties": {
                "id": "2148088600",
                "osm_type": "node",
                "lat": 47.293869,
                "lon": 15.9706481,
                "name": "Privatzimmer Steiner",
                "phone": "+43(0)3332/65451",
                "tourism": "guest_house"
              },
              "geometry": {
                "type": "Point",
                "coordinates": [
                  15.9706481,
                  47.293869
                ]
              }
            },
            {
              "type": "Feature",
              "properties": {
                "id": "2148136797",
                "osm_type": "node",
                "lat": 47.2910115,
                "lon": 15.978306,
                "name": "Privatzimmer Haus Elfriede",
                "phone": "+43(0)3332/63430",
                "tourism": "guest_house"
              },
              "geometry": {
                "type": "Point",
                "coordinates": [
                  15.978306,
                  47.2910115
                ]
              }
            },
            {
              "type": "Feature",
              "properties": {
                "id": "2182311576",
                "osm_type": "node",
                "lat": 47.2488777,
                "lon": 15.7496368,
                "name": "Gästezimmer Frieß",
                "tourism": "guest_house"
              },
              "geometry": {
                "type": "Point",
                "coordinates": [
                  15.7496368,
                  47.2488777
                ]
              }
            },
            {
              "type": "Feature",
              "properties": {
                "id": "2426366862",
                "osm_type": "node",
                "lat": 47.2541662,
                "lon": 15.8164254,
                "name": "Bauernhof Koglhofer",
                "tourism": "hostel"
              },
              "geometry": {
                "type": "Point",
                "coordinates": [
                  15.8164254,
                  47.2541662
                ]
              }
            },
            {
              "type": "Feature",
              "properties": {
                "id": "2426367227",
                "osm_type": "node",
                "lat": 47.2595839,
                "lon": 15.8099452,
                "name": "Bauernhof \"Lex\"",
                "tourism": "hostel"
              },
              "geometry": {
                "type": "Point",
                "coordinates": [
                  15.8099452,
                  47.2595839
                ]
              }
            },
            {
              "type": "Feature",
              "properties": {
                "id": "2426368908",
                "osm_type": "node",
                "lat": 47.2590305,
                "lon": 15.8053211,
                "name": "Bauernhof Straßentoni",
                "tourism": "hostel"
              },
              "geometry": {
                "type": "Point",
                "coordinates": [
                  15.8053211,
                  47.2590305
                ]
              }
            },
            {
              "type": "Feature",
              "properties": {
                "id": "2426368959",
                "osm_type": "node",
                "lat": 47.2506124,
                "lon": 15.8187107,
                "name": "Bauernhof Stelzergustl",
                "tourism": "hostel"
              },
              "geometry": {
                "type": "Point",
                "coordinates": [
                  15.8187107,
                  47.2506124
                ]
              }
            },
            {
              "type": "Feature",
              "properties": {
                "id": "2426369699",
                "osm_type": "node",
                "lat": 47.2478658,
                "lon": 15.8228051,
                "name": "Bauernhof Zaunfranzl",
                "tourism": "hostel"
              },
              "geometry": {
                "type": "Point",
                "coordinates": [
                  15.8228051,
                  47.2478658
                ]
              }
            },
            {
              "type": "Feature",
              "properties": {
                "id": "2426370087",
                "osm_type": "node",
                "lat": 47.2493598,
                "lon": 15.8081321,
                "name": "Bauernhof Kronegger",
                "tourism": "hostel"
              },
              "geometry": {
                "type": "Point",
                "coordinates": [
                  15.8081321,
                  47.2493598
                ]
              }
            },
            {
              "type": "Feature",
              "properties": {
                "id": "2426370176",
                "osm_type": "node",
                "lat": 47.2557464,
                "lon": 15.8109645,
                "name": "Haus Eibenberger",
                "tourism": "hostel"
              },
              "geometry": {
                "type": "Point",
                "coordinates": [
                  15.8109645,
                  47.2557464
                ]
              }
            },
            {
              "type": "Feature",
              "properties": {
                "id": "2426370432",
                "osm_type": "node",
                "lat": 47.2528336,
                "lon": 15.810943,
                "name": "Biohof Windhaber",
                "tourism": "hostel"
              },
              "geometry": {
                "type": "Point",
                "coordinates": [
                  15.810943,
                  47.2528336
                ]
              }
            },
            {
              "type": "Feature",
              "properties": {
                "id": "2426376378",
                "osm_type": "node",
                "lat": 47.2365259,
                "lon": 15.8068231,
                "name": "Ferienwohung Bachfranzl",
                "tourism": "hostel"
              },
              "geometry": {
                "type": "Point",
                "coordinates": [
                  15.8068231,
                  47.2365259
                ]
              }
            },
            {
              "type": "Feature",
              "properties": {
                "id": "2995494377",
                "osm_type": "node",
                "lat": 47.3031029,
                "lon": 15.9728577,
                "addr:city": "Greinbach",
                "addr:country": "AT",
                "addr:housenumber": "29",
                "addr:place": "Penzendorf",
                "addr:postcode": "8230",
                "at_bev:addr_date": "2018-10-01",
                "name": "Arkadenhof",
                "operator": "Fam. Handler",
                "phone": "+43664 14 29 157",
                "tourism": "guest_house",
                "website": "http://www.arkadenhof-handler.at"
              },
              "geometry": {
                "type": "Point",
                "coordinates": [
                  15.9728577,
                  47.3031029
                ]
              }
            },
            {
              "type": "Feature",
              "properties": {
                "id": "3471037866",
                "osm_type": "node",
                "lat": 47.3001291,
                "lon": 15.8347375,
                "email": "office@gasthofhubmann.at",
                "fax": "+433335 2267 4",
                "name": "Hubmann",
                "phone": "+433335 2267",
                "tourism": "guest_house",
                "website": "https://www.gasthofhubmann.at/"
              },
              "geometry": {
                "type": "Point",
                "coordinates": [
                  15.8347375,
                  47.3001291
                ]
              }
            },
            {
              "type": "Feature",
              "properties": {
                "id": "3471413055",
                "osm_type": "node",
                "lat": 47.30388,
                "lon": 15.8326195,
                "fax": "+433335 2267 4",
                "name": "Hotel Garni 'Zum Alten Gerberhaus'",
                "operator": "Josef Schreiner GesmbH",
                "phone": "+433335 3962 0",
                "tourism": "guest_house",
                "website": "http://www.zum-alten-gerberhaus.at"
              },
              "geometry": {
                "type": "Point",
                "coordinates": [
                  15.8326195,
                  47.30388
                ]
              }
            },
            {
              "type": "Feature",
              "properties": {
                "id": "3831368460",
                "osm_type": "node",
                "lat": 47.3540476,
                "lon": 15.78196,
                "name": "Gasthof Pöttler",
                "tourism": "guest_house"
              },
              "geometry": {
                "type": "Point",
                "coordinates": [
                  15.78196,
                  47.3540476
                ]
              }
            },
            {
              "type": "Feature",
              "properties": {
                "id": "8262440059",
                "osm_type": "node",
                "lat": 47.3187324,
                "lon": 15.861577,
                "name": "Urlaub am Bauernhof 'Scherf'",
                "operator": "Fam. Scherf",
                "tourism": "guest_house"
              },
              "geometry": {
                "type": "Point",
                "coordinates": [
                  15.861577,
                  47.3187324
                ]
              }
            },
            {
              "type": "Feature",
              "properties": {
                "id": "8262445939",
                "osm_type": "node",
                "lat": 47.3154737,
                "lon": 15.8582456,
                "contact:website": "http://www.schweighofer-derler.at/",
                "name": "Frühstückspension Schweighofer-Derler",
                "tourism": "guest_house"
              },
              "geometry": {
                "type": "Point",
                "coordinates": [
                  15.8582456,
                  47.3154737
                ]
              }
            },
            {
              "type": "Feature",
              "properties": {
                "id": "8267084560",
                "osm_type": "node",
                "lat": 47.3169683,
                "lon": 15.8593845,
                "name": "Privatzimmer Schlagbauer",
                "tourism": "guest_house"
              },
              "geometry": {
                "type": "Point",
                "coordinates": [
                  15.8593845,
                  47.3169683
                ]
              }
            },
            {
              "type": "Feature",
              "properties": {
                "id": "8267185166",
                "osm_type": "node",
                "lat": 47.2763142,
                "lon": 15.8692615,
                "name": "Fischerhaus Terler",
                "tourism": "guest_house"
              },
              "geometry": {
                "type": "Point",
                "coordinates": [
                  15.8692615,
                  47.2763142
                ]
              }
            },
            {
              "type": "Feature",
              "properties": {
                "id": "8267185169",
                "osm_type": "node",
                "lat": 47.3021346,
                "lon": 15.8623774,
                "guest_house": "bed_and_breakfast",
                "name": "Beim Schachnerhaus",
                "tourism": "guest_house"
              },
              "geometry": {
                "type": "Point",
                "coordinates": [
                  15.8623774,
                  47.3021346
                ]
              }
            },
            {
              "type": "Feature",
              "properties": {
                "id": "8267185170",
                "osm_type": "node",
                "lat": 47.3000639,
                "lon": 15.8357376,
                "guest_house": "bed_and_breakfast",
                "name": "Villa Fanziska",
                "tourism": "guest_house"
              },
              "geometry": {
                "type": "Point",
                "coordinates": [
                  15.8357376,
                  47.3000639
                ]
              }
            },
            {
              "type": "Feature",
              "properties": {
                "id": "8267185171",
                "osm_type": "node",
                "lat": 47.2854865,
                "lon": 15.8616883,
                "guest_house": "agritourism",
                "name": "Ferienhof Postl",
                "tourism": "guest_house"
              },
              "geometry": {
                "type": "Point",
                "coordinates": [
                  15.8616883,
                  47.2854865
                ]
              }
            },
            {
              "type": "Feature",
              "properties": {
                "id": "8267185177",
                "osm_type": "node",
                "lat": 47.3251814,
                "lon": 15.7731512,
                "guest_house": "agritourism",
                "name": "Biobauernhof Heiling",
                "tourism": "guest_house"
              },
              "geometry": {
                "type": "Point",
                "coordinates": [
                  15.7731512,
                  47.3251814
                ]
              }
            },
            {
              "type": "Feature",
              "properties": {
                "id": "8267185178",
                "osm_type": "node",
                "lat": 47.3054927,
                "lon": 15.8318951,
                "email": "reservierung@pension-caecilia.at",
                "name": "Pension Cäcilia",
                "phone": "+43 3335 2748",
                "rooms": "11",
                "tourism": "guest_house",
                "website": "https://www.pension-caecilia.at"
              },
              "geometry": {
                "type": "Point",
                "coordinates": [
                  15.8318951,
                  47.3054927
                ]
              }
            },
            {
              "type": "Feature",
              "properties": {
                "id": "8270258429",
                "osm_type": "node",
                "lat": 47.2848614,
                "lon": 15.7901963,
                "guest_house": "agritourism",
                "name": "Beim Öllerbauer",
                "tourism": "guest_house"
              },
              "geometry": {
                "type": "Point",
                "coordinates": [
                  15.7901963,
                  47.2848614
                ]
              }
            },
            {
              "type": "Feature",
              "properties": {
                "id": "8270258430",
                "osm_type": "node",
                "lat": 47.3067181,
                "lon": 15.8574007,
                "name": "Fremdenzimmer Haubenwaller",
                "tourism": "guest_house"
              },
              "geometry": {
                "type": "Point",
                "coordinates": [
                  15.8574007,
                  47.3067181
                ]
              }
            },
            {
              "type": "Feature",
              "properties": {
                "id": "8270375817",
                "osm_type": "node",
                "lat": 47.2736992,
                "lon": 15.8253954,
                "name": "Privatzimmer Schirnhofer",
                "tourism": "guest_house"
              },
              "geometry": {
                "type": "Point",
                "coordinates": [
                  15.8253954,
                  47.2736992
                ]
              }
            },
            {
              "type": "Feature",
              "properties": {
                "id": "8270444417",
                "osm_type": "node",
                "lat": 47.3072636,
                "lon": 15.869061,
                "guest_house": "agritourism",
                "name": "Urlaub am Bauernhof 'Schuster'",
                "tourism": "guest_house"
              },
              "geometry": {
                "type": "Point",
                "coordinates": [
                  15.869061,
                  47.3072636
                ]
              }
            },
            {
              "type": "Feature",
              "properties": {
                "id": "8270444418",
                "osm_type": "node",
                "lat": 47.3066411,
                "lon": 15.8425901,
                "name": "Privatzimmer Düregger",
                "tourism": "guest_house"
              },
              "geometry": {
                "type": "Point",
                "coordinates": [
                  15.8425901,
                  47.3066411
                ]
              }
            },
            {
              "type": "Feature",
              "properties": {
                "id": "8270444419",
                "osm_type": "node",
                "lat": 47.2933624,
                "lon": 15.806703,
                "guest_house": "agritourism",
                "name": "Urlaub am Bauernhof 'Wiesenhofer'",
                "tourism": "guest_house"
              },
              "geometry": {
                "type": "Point",
                "coordinates": [
                  15.806703,
                  47.2933624
                ]
              }
            },
            {
              "type": "Feature",
              "properties": {
                "id": "8270444420",
                "osm_type": "node",
                "lat": 47.2670321,
                "lon": 15.8208355,
                "guest_house": "agritourism",
                "name": "Urlaub am Bauernhof 'Felberbauer'",
                "tourism": "guest_house"
              },
              "geometry": {
                "type": "Point",
                "coordinates": [
                  15.8208355,
                  47.2670321
                ]
              }
            },
            {
              "type": "Feature",
              "properties": {
                "id": "8567478049",
                "osm_type": "node",
                "lat": 47.2409728,
                "lon": 15.840759,
                "check_date": "2025-08-04",
                "name": "Hof Groß",
                "tourism": "guest_house"
              },
              "geometry": {
                "type": "Point",
                "coordinates": [
                  15.840759,
                  47.2409728
                ]
              }
            },
            {
              "type": "Feature",
              "properties": {
                "id": "8691356656",
                "osm_type": "node",
                "lat": 47.2773306,
                "lon": 15.7829379,
                "guest_house": "agritourism",
                "name": "Ferienhaus Gabelbauer",
                "operator": "Fam. Höfler",
                "tourism": "guest_house"
              },
              "geometry": {
                "type": "Point",
                "coordinates": [
                  15.7829379,
                  47.2773306
                ]
              }
            },
            {
              "type": "Feature",
              "properties": {
                "id": "3429916932",
                "osm_type": "node",
                "lat": 47.2076616,
                "lon": 16.1622141,
                "addr:country": "AT",
                "addr:housenumber": "87",
                "addr:postcode": "7532",
                "addr:street": "Marktstraße",
                "cuisine": "regional",
                "name": "Pension Gumhalter",
                "operator": "Gumhalter Manfred",
                "phone": "+433358 2411",
                "tourism": "guest_house",
                "website": "https://www.tiscover.com/at/unterkuenfte/kaffee-konditorei-pension-gumhalter"
              },
              "geometry": {
                "type": "Point",
                "coordinates": [
                  16.1622141,
                  47.2076616
                ]
              }
            }
          ],
          "children": []
        }
      ]
    },
    {
      "bbox": {
        "south": 47.033758500000005,
        "west": 16.2068765,
        "north": 47.36431175,
        "east": 17.16058
      },
      "poiCount": 37,
      "leafCount": 37,
      "averagePosition": [
        16.599129372972975,
        47.23164814864865
      ],
      "data": [
        {
          "type": "Feature",
          "properties": {
            "id": "1822942336",
            "osm_type": "node",
            "lat": 47.3049636,
            "lon": 16.4369874,
            "name": "Wusits",
            "tourism": "guest_house"
          },
          "geometry": {
            "type": "Point",
            "coordinates": [
              16.4369874,
              47.3049636
            ]
          }
        },
        {
          "type": "Feature",
          "properties": {
            "id": "1822948822",
            "osm_type": "node",
            "lat": 47.2970074,
            "lon": 16.3951446,
            "name": "Glavanics",
            "tourism": "guest_house"
          },
          "geometry": {
            "type": "Point",
            "coordinates": [
              16.3951446,
              47.2970074
            ]
          }
        },
        {
          "type": "Feature",
          "properties": {
            "id": "2328008922",
            "osm_type": "node",
            "lat": 47.3336818,
            "lon": 16.2273806,
            "addr:city": "Bad Tatzmannsdorf",
            "addr:housenumber": "7",
            "addr:postcode": "7431",
            "addr:street": "Kirchenstraße",
            "name": "Pension Vogelsang",
            "tourism": "guest_house"
          },
          "geometry": {
            "type": "Point",
            "coordinates": [
              16.2273806,
              47.3336818
            ]
          }
        },
        {
          "type": "Feature",
          "properties": {
            "id": "2328008991",
            "osm_type": "node",
            "lat": 47.3329943,
            "lon": 16.2281583,
            "addr:city": "Bad Tatzmannsdorf",
            "addr:housenumber": "5",
            "addr:postcode": "7431",
            "addr:street": "Kirchenstraße",
            "name": "Parkvilla Appartments",
            "tourism": "guest_house"
          },
          "geometry": {
            "type": "Point",
            "coordinates": [
              16.2281583,
              47.3329943
            ]
          }
        },
        {
          "type": "Feature",
          "properties": {
            "id": "2328009001",
            "osm_type": "node",
            "lat": 47.3311787,
            "lon": 16.2281624,
            "name": "Pension Landhof",
            "tourism": "guest_house"
          },
          "geometry": {
            "type": "Point",
            "coordinates": [
              16.2281624,
              47.3311787
            ]
          }
        },
        {
          "type": "Feature",
          "properties": {
            "id": "2328009032",
            "osm_type": "node",
            "lat": 47.3318865,
            "lon": 16.2302745,
            "addr:city": "Bad Tatzmannsdorf",
            "addr:country": "AT",
            "addr:housenumber": "3",
            "addr:postcode": "7431",
            "addr:street": "Hauptstraße",
            "name": "Pension Anna",
            "tourism": "guest_house",
            "website": "http://www.pension-anna-bt.at/"
          },
          "geometry": {
            "type": "Point",
            "coordinates": [
              16.2302745,
              47.3318865
            ]
          }
        },
        {
          "type": "Feature",
          "properties": {
            "id": "2328032460",
            "osm_type": "node",
            "lat": 47.3341919,
            "lon": 16.230287,
            "addr:city": "Bad Tatzmannsdorf",
            "addr:housenumber": "4",
            "addr:postcode": "7431",
            "addr:street": "Parkstraße",
            "name": "Pension Frühwirth",
            "tourism": "guest_house"
          },
          "geometry": {
            "type": "Point",
            "coordinates": [
              16.230287,
              47.3341919
            ]
          }
        },
        {
          "type": "Feature",
          "properties": {
            "id": "2328032473",
            "osm_type": "node",
            "lat": 47.3326327,
            "lon": 16.2317481,
            "addr:city": "Bad Tatzmannsdorf",
            "addr:housenumber": "12",
            "addr:postcode": "7431",
            "addr:street": "Glockenstraße",
            "name": "Gästehaus Nicka",
            "tourism": "guest_house"
          },
          "geometry": {
            "type": "Point",
            "coordinates": [
              16.2317481,
              47.3326327
            ]
          }
        },
        {
          "type": "Feature",
          "properties": {
            "id": "2328032483",
            "osm_type": "node",
            "lat": 47.3329529,
            "lon": 16.230664,
            "addr:city": "Bad Tatzmannsdorf",
            "addr:postcode": "7431",
            "addr:street": "Glockenstraße",
            "name": "Pension Lackner",
            "tourism": "guest_house"
          },
          "geometry": {
            "type": "Point",
            "coordinates": [
              16.230664,
              47.3329529
            ]
          }
        },
        {
          "type": "Feature",
          "properties": {
            "id": "3430556503",
            "osm_type": "node",
            "lat": 47.324367,
            "lon": 16.490783,
            "addr:city": "Bozsok",
            "addr:housenumber": "43",
            "addr:postcode": "9727",
            "addr:street": "Rákóczi utca",
            "guest_house": "bed_and_breakfast",
            "name": "Bozsoki Pihenő",
            "phone": "+36705651652",
            "source": "turistautak.hu",
            "tourism": "guest_house",
            "url": "http://turistautak.hu/poi.php?id=74076",
            "website": "https://www.bozsokipiheno.hu/"
          },
          "geometry": {
            "type": "Point",
            "coordinates": [
              16.490783,
              47.324367
            ]
          }
        },
        {
          "type": "Feature",
          "properties": {
            "id": "3430556520",
            "osm_type": "node",
            "lat": 47.320517,
            "lon": 16.4869,
            "addr:city": "Bozsok",
            "addr:housenumber": "105",
            "addr:postcode": "9727",
            "addr:street": "Rákóczi utca",
            "guest_house": "bed_and_breakfast",
            "name": "Nagy vendégház",
            "source": "turistautak.hu",
            "tourism": "guest_house",
            "url": "http://turistautak.hu/poi.php?id=80431",
            "website": "https://www.nagyvendeghaz.hu/"
          },
          "geometry": {
            "type": "Point",
            "coordinates": [
              16.4869,
              47.320517
            ]
          }
        },
        {
          "type": "Feature",
          "properties": {
            "id": "3430556523",
            "osm_type": "node",
            "lat": 47.3161357,
            "lon": 16.4848052,
            "name": "Patakparti Apartman",
            "source": "turistautak.hu",
            "tourism": "guest_house",
            "url": "http://turistautak.hu/poi.php?id=116383",
            "website": "https://www.patakpartiapartman.hu/"
          },
          "geometry": {
            "type": "Point",
            "coordinates": [
              16.4848052,
              47.3161357
            ]
          }
        },
        {
          "type": "Feature",
          "properties": {
            "id": "3430556527",
            "osm_type": "node",
            "lat": 47.324112,
            "lon": 16.490589,
            "name": "Rákóczi vendégház",
            "source": "turistautak.hu",
            "tourism": "guest_house",
            "url": "http://turistautak.hu/poi.php?id=83609"
          },
          "geometry": {
            "type": "Point",
            "coordinates": [
              16.490589,
              47.324112
            ]
          }
        },
        {
          "type": "Feature",
          "properties": {
            "id": "4056767490",
            "osm_type": "node",
            "lat": 47.3222417,
            "lon": 16.4882133,
            "addr:city": "Bozsok",
            "addr:housenumber": "119",
            "addr:postcode": "9727",
            "addr:street": "Rákóczi utca",
            "name": "Napsugár Vendégház",
            "tourism": "guest_house"
          },
          "geometry": {
            "type": "Point",
            "coordinates": [
              16.4882133,
              47.3222417
            ]
          }
        },
        {
          "type": "Feature",
          "properties": {
            "id": "4144594640",
            "osm_type": "node",
            "lat": 47.3391261,
            "lon": 16.5140988,
            "building": "yes",
            "name": "Szent Vid udvarház",
            "tourism": "guest_house"
          },
          "geometry": {
            "type": "Point",
            "coordinates": [
              16.5140988,
              47.3391261
            ]
          }
        },
        {
          "type": "Feature",
          "properties": {
            "id": "5685243390",
            "osm_type": "node",
            "lat": 47.1072234,
            "lon": 16.4597887,
            "contact:email": "pensionbuch@aon.at",
            "contact:phone": "+43 3323 29000",
            "name": "Frühstückspension Buch",
            "tourism": "guest_house",
            "website": "https://www.pension-buch.at"
          },
          "geometry": {
            "type": "Point",
            "coordinates": [
              16.4597887,
              47.1072234
            ]
          }
        },
        {
          "type": "Feature",
          "properties": {
            "id": "5685317582",
            "osm_type": "node",
            "lat": 47.1064521,
            "lon": 16.4612263,
            "addr:city": "Eberau",
            "addr:country": "AT",
            "addr:housenumber": "13",
            "addr:postcode": "7521",
            "addr:street": "Hauptplatz",
            "at_bev:addr_date": "2017-10-01",
            "contact:phone": "+43 3323 2532",
            "name": "Appartement Kurz",
            "tourism": "guest_house",
            "website": "https://eberau.riskommunal.net/Appartement_Kurz_Josef_und_Anna"
          },
          "geometry": {
            "type": "Point",
            "coordinates": [
              16.4612263,
              47.1064521
            ]
          }
        },
        {
          "type": "Feature",
          "properties": {
            "id": "13052194809",
            "osm_type": "node",
            "lat": 47.2283317,
            "lon": 16.3882807,
            "addr:city": "Hannersdorf",
            "addr:housenumber": "147",
            "addr:postcode": "7473",
            "addr:street": "Hannersdorf",
            "name": "Gästehaus Ildiko",
            "phone": "+43 676 3850 921",
            "tourism": "guest_house",
            "website": "https://de.revngo.com/gastehaus-ildiko-hannersdorf"
          },
          "geometry": {
            "type": "Point",
            "coordinates": [
              16.3882807,
              47.2283317
            ]
          }
        },
        {
          "type": "Feature",
          "properties": {
            "id": "623912665",
            "osm_type": "node",
            "lat": 47.2484845,
            "lon": 16.9495735,
            "name": "Éva Panzió",
            "tourism": "guest_house"
          },
          "geometry": {
            "type": "Point",
            "coordinates": [
              16.9495735,
              47.2484845
            ]
          }
        },
        {
          "type": "Feature",
          "properties": {
            "id": "623912676",
            "osm_type": "node",
            "lat": 47.2482078,
            "lon": 16.9506571,
            "name": "Korona Panzió",
            "tourism": "guest_house"
          },
          "geometry": {
            "type": "Point",
            "coordinates": [
              16.9506571,
              47.2482078
            ]
          }
        },
        {
          "type": "Feature",
          "properties": {
            "id": "2182437099",
            "osm_type": "node",
            "lat": 47.2496162,
            "lon": 16.9339455,
            "addr:city": "Sárvár",
            "addr:housenumber": "8-10/a",
            "addr:postcode": "9600",
            "addr:street": "Hold utca",
            "check_date": "2024-08-18",
            "contact:email": "sarvarapartman@mail.globonet.hu",
            "contact:mobile": "+36 30 974 3386",
            "name": "Hold Apartmanok",
            "tourism": "guest_house"
          },
          "geometry": {
            "type": "Point",
            "coordinates": [
              16.9339455,
              47.2496162
            ]
          }
        },
        {
          "type": "Feature",
          "properties": {
            "id": "2242166642",
            "osm_type": "node",
            "lat": 47.0860897,
            "lon": 16.6277267,
            "name": "Mátyás vendégház",
            "tourism": "guest_house",
            "website": "http://www.matyas-vendeghaz.hupont.hu"
          },
          "geometry": {
            "type": "Point",
            "coordinates": [
              16.6277267,
              47.0860897
            ]
          }
        },
        {
          "type": "Feature",
          "properties": {
            "id": "2940484128",
            "osm_type": "node",
            "lat": 47.0488966,
            "lon": 16.7988699,
            "check_date": "2024-03-30",
            "name": "Zarándokszállás",
            "tourism": "guest_house"
          },
          "geometry": {
            "type": "Point",
            "coordinates": [
              16.7988699,
              47.0488966
            ]
          }
        },
        {
          "type": "Feature",
          "properties": {
            "id": "3210697644",
            "osm_type": "node",
            "lat": 47.2362523,
            "lon": 16.6382437,
            "addr:city": "Szombathely",
            "addr:housenumber": "22",
            "addr:postcode": "9700",
            "addr:street": "Zanati út",
            "building": "yes",
            "check_date": "2025-06-27",
            "name": "Magánszállás",
            "tourism": "guest_house"
          },
          "geometry": {
            "type": "Point",
            "coordinates": [
              16.6382437,
              47.2362523
            ]
          }
        },
        {
          "type": "Feature",
          "properties": {
            "id": "3334183326",
            "osm_type": "node",
            "lat": 47.057526,
            "lon": 16.7004339,
            "building": "yes",
            "name": "Vendégház",
            "tourism": "guest_house"
          },
          "geometry": {
            "type": "Point",
            "coordinates": [
              16.7004339,
              47.057526
            ]
          }
        },
        {
          "type": "Feature",
          "properties": {
            "id": "3459862967",
            "osm_type": "node",
            "lat": 47.09253,
            "lon": 16.62645,
            "name": "Missouri Motel és Mississippi Étterem",
            "source": "turistautak.hu",
            "source:date": "2015-03-03",
            "tourism": "guest_house",
            "url": "http://turistautak.hu/poi.php?id=7735"
          },
          "geometry": {
            "type": "Point",
            "coordinates": [
              16.62645,
              47.09253
            ]
          }
        },
        {
          "type": "Feature",
          "properties": {
            "id": "3469861444",
            "osm_type": "node",
            "lat": 47.305133,
            "lon": 16.82575,
            "name": "Anna Vendéház",
            "source": "turistautak.hu",
            "source:date": "2015-03-03",
            "tourism": "guest_house",
            "url": "http://turistautak.hu/poi.php?id=168880"
          },
          "geometry": {
            "type": "Point",
            "coordinates": [
              16.82575,
              47.305133
            ]
          }
        },
        {
          "type": "Feature",
          "properties": {
            "id": "3469861459",
            "osm_type": "node",
            "lat": 47.255283,
            "lon": 16.819167,
            "name": "Erdei Vendégház",
            "source": "turistautak.hu",
            "source:date": "2015-03-03",
            "tourism": "guest_house",
            "url": "http://turistautak.hu/poi.php?id=168879"
          },
          "geometry": {
            "type": "Point",
            "coordinates": [
              16.819167,
              47.255283
            ]
          }
        },
        {
          "type": "Feature",
          "properties": {
            "id": "3469863419",
            "osm_type": "node",
            "lat": 47.240702,
            "lon": 16.839642,
            "name": "Vadászkastély",
            "source": "turistautak.hu",
            "source:date": "2015-03-03",
            "tourism": "guest_house",
            "url": "http://turistautak.hu/poi.php?id=94698"
          },
          "geometry": {
            "type": "Point",
            "coordinates": [
              16.839642,
              47.240702
            ]
          }
        },
        {
          "type": "Feature",
          "properties": {
            "id": "3469985752",
            "osm_type": "node",
            "lat": 47.036388,
            "lon": 16.874111,
            "name": "Fogadó",
            "source": "turistautak.hu",
            "source:date": "2011-09-06",
            "tourism": "guest_house",
            "url": "http://turistautak.hu/poi.php?id=118334"
          },
          "geometry": {
            "type": "Point",
            "coordinates": [
              16.874111,
              47.036388
            ]
          }
        },
        {
          "type": "Feature",
          "properties": {
            "id": "3469985754",
            "osm_type": "node",
            "lat": 47.055655,
            "lon": 16.803448,
            "description": "Egy 2 és egy 4 ágyas szoba van kiadó. Fürdő, WC a folyosón. A 4 ágyas szoba ára 1 éjszakára 7500 Ft- Konyha nincs, de a szobában van mikrosütő.",
            "name": "Greffer Lászlóné magánszállás",
            "phone": "+36 94 370 792;+36 30 549 2828",
            "source": "turistautak.hu",
            "source:date": "2011-09-19",
            "tourism": "guest_house",
            "url": "http://turistautak.hu/poi.php?id=23540",
            "website": "https://www.vasvar.hu/index.php?ugras=katalogus&katszama=144&elem=18743"
          },
          "geometry": {
            "type": "Point",
            "coordinates": [
              16.803448,
              47.055655
            ]
          }
        },
        {
          "type": "Feature",
          "properties": {
            "id": "3471869167",
            "osm_type": "node",
            "lat": 47.2297301,
            "lon": 16.6381595,
            "addr:city": "Szombathely",
            "addr:housenumber": "70",
            "addr:postcode": "9700",
            "addr:street": "Sólyom utca",
            "contact:email": "kispipa@gmail.com",
            "name": "Kispipa Panzió",
            "source": "turistautak.hu",
            "source:date": "2011-09-06",
            "toilets:wheelchair": "no",
            "tourism": "guest_house",
            "url": "http://turistautak.hu/poi.php?id=91971",
            "website": "http://www.malalula.hu",
            "wheelchair": "no"
          },
          "geometry": {
            "type": "Point",
            "coordinates": [
              16.6381595,
              47.2297301
            ]
          }
        },
        {
          "type": "Feature",
          "properties": {
            "id": "3471869183",
            "osm_type": "node",
            "lat": 47.2355129,
            "lon": 16.6235855,
            "name": "MÁV szállás",
            "source": "turistautak.hu",
            "source:date": "2011-09-06",
            "tourism": "guest_house",
            "url": "http://turistautak.hu/poi.php?id=17130"
          },
          "geometry": {
            "type": "Point",
            "coordinates": [
              16.6235855,
              47.2355129
            ]
          }
        },
        {
          "type": "Feature",
          "properties": {
            "id": "3921907928",
            "osm_type": "node",
            "lat": 47.0839848,
            "lon": 16.8516585,
            "name": "Csurgóparti Vendégház",
            "tourism": "hostel"
          },
          "geometry": {
            "type": "Point",
            "coordinates": [
              16.8516585,
              47.0839848
            ]
          }
        },
        {
          "type": "Feature",
          "properties": {
            "id": "3921928109",
            "osm_type": "node",
            "lat": 47.0847083,
            "lon": 16.8608155,
            "name": "Wagner Lovaspanzió és Étterem",
            "tourism": "hostel"
          },
          "geometry": {
            "type": "Point",
            "coordinates": [
              16.8608155,
              47.0847083
            ]
          }
        },
        {
          "type": "Feature",
          "properties": {
            "id": "4693504294",
            "osm_type": "node",
            "lat": 47.2414044,
            "lon": 16.9638075,
            "addr:city": "Sárvár",
            "addr:housenumber": "38",
            "addr:postcode": "9600",
            "addr:street": "Sótonyi utca",
            "internet_access": "wlan",
            "name": "Villa",
            "name:en": "Villa",
            "name:hu": "Villa",
            "name:ru": "Вилла",
            "tourism": "guest_house"
          },
          "geometry": {
            "type": "Point",
            "coordinates": [
              16.9638075,
              47.2414044
            ]
          }
        },
        {
          "type": "Feature",
          "properties": {
            "id": "6347091908",
            "osm_type": "node",
            "lat": 47.2148804,
            "lon": 17.1382501,
            "name": "Edit Vendegház",
            "tourism": "hostel"
          },
          "geometry": {
            "type": "Point",
            "coordinates": [
              17.1382501,
              47.2148804
            ]
          }
        }
      ],
      "children": []
    },
    {
      "bbox": {
        "south": 47.36431175,
        "west": 15.253173,
        "north": 47.694865,
        "east": 16.2068765
      },
      "poiCount": 47,
      "leafCount": 47,
      "averagePosition": [
        15.637747800000001,
        47.53205722340426
      ],
      "data": [
        {
          "type": "Feature",
          "properties": {
            "id": "2387249738",
            "osm_type": "node",
            "lat": 47.3836915,
            "lon": 15.4825324,
            "amenity": "pub",
            "name": "Klösch",
            "tourism": "guest_house"
          },
          "geometry": {
            "type": "Point",
            "coordinates": [
              15.4825324,
              47.3836915
            ]
          }
        },
        {
          "type": "Feature",
          "properties": {
            "id": "2572711937",
            "osm_type": "node",
            "lat": 47.5614531,
            "lon": 15.3248641,
            "name": "Urlaubsbauernhof Jörgbauer",
            "tourism": "guest_house"
          },
          "geometry": {
            "type": "Point",
            "coordinates": [
              15.3248641,
              47.5614531
            ]
          }
        },
        {
          "type": "Feature",
          "properties": {
            "id": "2572712119",
            "osm_type": "node",
            "lat": 47.5603852,
            "lon": 15.3262481,
            "name": "Privatzimmer Tscherntschitsch",
            "tourism": "guest_house"
          },
          "geometry": {
            "type": "Point",
            "coordinates": [
              15.3262481,
              47.5603852
            ]
          }
        },
        {
          "type": "Feature",
          "properties": {
            "id": "2572743971",
            "osm_type": "node",
            "lat": 47.5591145,
            "lon": 15.3404411,
            "name": "Ferienhaus Kirchleit'n",
            "tourism": "guest_house"
          },
          "geometry": {
            "type": "Point",
            "coordinates": [
              15.3404411,
              47.5591145
            ]
          }
        },
        {
          "type": "Feature",
          "properties": {
            "id": "2576078022",
            "osm_type": "node",
            "lat": 47.5540073,
            "lon": 15.3348216,
            "name": "Urlaubsbauernhof Naturhaus Rossmann",
            "tourism": "guest_house"
          },
          "geometry": {
            "type": "Point",
            "coordinates": [
              15.3348216,
              47.5540073
            ]
          }
        },
        {
          "type": "Feature",
          "properties": {
            "id": "2576104585",
            "osm_type": "node",
            "lat": 47.5579877,
            "lon": 15.3375238,
            "name": "Gasthof Puregger",
            "tourism": "guest_house"
          },
          "geometry": {
            "type": "Point",
            "coordinates": [
              15.3375238,
              47.5579877
            ]
          }
        },
        {
          "type": "Feature",
          "properties": {
            "id": "2576104700",
            "osm_type": "node",
            "lat": 47.5572501,
            "lon": 15.3383607,
            "name": "Urlaubsbauernhof Payer",
            "tourism": "guest_house"
          },
          "geometry": {
            "type": "Point",
            "coordinates": [
              15.3383607,
              47.5572501
            ]
          }
        },
        {
          "type": "Feature",
          "properties": {
            "id": "2582330353",
            "osm_type": "node",
            "lat": 47.5356459,
            "lon": 15.3261936,
            "name": "Urlaubsbauernhof Huberbauer",
            "tourism": "guest_house"
          },
          "geometry": {
            "type": "Point",
            "coordinates": [
              15.3261936,
              47.5356459
            ]
          }
        },
        {
          "type": "Feature",
          "properties": {
            "id": "2582330447",
            "osm_type": "node",
            "lat": 47.5361638,
            "lon": 15.329655,
            "name": "Urlaubsbauernhof Jakobbauer",
            "tourism": "guest_house"
          },
          "geometry": {
            "type": "Point",
            "coordinates": [
              15.329655,
              47.5361638
            ]
          }
        },
        {
          "type": "Feature",
          "properties": {
            "id": "2582330559",
            "osm_type": "node",
            "lat": 47.5382489,
            "lon": 15.3362799,
            "name": "Urlaubsbauernhof Schagerhof",
            "tourism": "guest_house"
          },
          "geometry": {
            "type": "Point",
            "coordinates": [
              15.3362799,
              47.5382489
            ]
          }
        },
        {
          "type": "Feature",
          "properties": {
            "id": "2582351709",
            "osm_type": "node",
            "lat": 47.5320566,
            "lon": 15.3234872,
            "name": "Urlaubsbauernhof Hirtner",
            "tourism": "guest_house"
          },
          "geometry": {
            "type": "Point",
            "coordinates": [
              15.3234872,
              47.5320566
            ]
          }
        },
        {
          "type": "Feature",
          "properties": {
            "id": "2582351755",
            "osm_type": "node",
            "lat": 47.5310488,
            "lon": 15.3112912,
            "name": "Urlaubsbauernhof Pichlerhof",
            "tourism": "guest_house"
          },
          "geometry": {
            "type": "Point",
            "coordinates": [
              15.3112912,
              47.5310488
            ]
          }
        },
        {
          "type": "Feature",
          "properties": {
            "id": "2611392983",
            "osm_type": "node",
            "lat": 47.5647703,
            "lon": 15.3513371,
            "name": "Privatzimmer Gruber",
            "tourism": "guest_house"
          },
          "geometry": {
            "type": "Point",
            "coordinates": [
              15.3513371,
              47.5647703
            ]
          }
        },
        {
          "type": "Feature",
          "properties": {
            "id": "2611449889",
            "osm_type": "node",
            "lat": 47.5663302,
            "lon": 15.3445792,
            "name": "Urlaubsbauernhof Fladischerhof",
            "tourism": "guest_house"
          },
          "geometry": {
            "type": "Point",
            "coordinates": [
              15.3445792,
              47.5663302
            ]
          }
        },
        {
          "type": "Feature",
          "properties": {
            "id": "2611449900",
            "osm_type": "node",
            "lat": 47.5765917,
            "lon": 15.3348522,
            "name": "Pension Gutjahr",
            "tourism": "guest_house"
          },
          "geometry": {
            "type": "Point",
            "coordinates": [
              15.3348522,
              47.5765917
            ]
          }
        },
        {
          "type": "Feature",
          "properties": {
            "id": "5706007846",
            "osm_type": "node",
            "lat": 47.4950504,
            "lon": 15.4346759,
            "addr:city": "Kindberg",
            "addr:country": "AT",
            "addr:housenumber": "34",
            "addr:postcode": "8650",
            "addr:street": "Stanzer Straße",
            "addr:suburb": "Kindbergdörfl",
            "diet:vegan": "yes",
            "email": "office@ehrenfried.at",
            "fax": "+43 3865 2406 20",
            "internet_access": "wlan",
            "internet_access:fee": "no",
            "name": "Pension Ehrenfried",
            "operator": "Christine Ehrenfried",
            "phone": "+43 3865 2406",
            "rooms": "13",
            "tourism": "guest_house",
            "website": "https://ehrenfried.at/",
            "wheelchair": "limited"
          },
          "geometry": {
            "type": "Point",
            "coordinates": [
              15.4346759,
              47.4950504
            ]
          }
        },
        {
          "type": "Feature",
          "properties": {
            "id": "11624348672",
            "osm_type": "node",
            "lat": 47.4490485,
            "lon": 15.2751441,
            "addr:city": "Kapfenberg",
            "addr:country": "AT",
            "addr:housenumber": "53",
            "addr:postcode": "8605",
            "addr:street": "Mariazeller Straße",
            "name": "Gästehaus Red-Field",
            "phone": "+43-664-1424079",
            "tourism": "guest_house"
          },
          "geometry": {
            "type": "Point",
            "coordinates": [
              15.2751441,
              47.4490485
            ]
          }
        },
        {
          "type": "Feature",
          "properties": {
            "id": "12302336957",
            "osm_type": "node",
            "lat": 47.5528628,
            "lon": 15.2595993,
            "addr:city": "Aflenz",
            "addr:housenumber": "38",
            "addr:place": "Feistring",
            "addr:postcode": "8623",
            "guest_house": "agritourism",
            "name": "Urlaub am Bauernhof Roath",
            "tourism": "guest_house",
            "website": "https://www.urlaubambauernhof.at/de/hoefe/roath"
          },
          "geometry": {
            "type": "Point",
            "coordinates": [
              15.2595993,
              47.5528628
            ]
          }
        },
        {
          "type": "Feature",
          "properties": {
            "id": "352814003",
            "osm_type": "node",
            "lat": 47.4935813,
            "lon": 15.7953332,
            "name": "Bühlhofer Bio-Bauernhof",
            "tourism": "guest_house"
          },
          "geometry": {
            "type": "Point",
            "coordinates": [
              15.7953332,
              47.4935813
            ]
          }
        },
        {
          "type": "Feature",
          "properties": {
            "id": "476711047",
            "osm_type": "node",
            "lat": 47.6518116,
            "lon": 15.8696074,
            "addr:city": "Schottwien",
            "addr:country": "AT",
            "addr:housename": "Haus zum Touristen",
            "addr:housenumber": "67",
            "addr:postcode": "2641",
            "addr:street": "Hauptstraße",
            "at_bev:addr_date": "2020-10-01",
            "name": "Haus zum Touristen",
            "old_addr:housenumber": "29",
            "old_addr:place": "Schottwien",
            "tourism": "hostel",
            "url": "http://www.haus-zum-touristen.at"
          },
          "geometry": {
            "type": "Point",
            "coordinates": [
              15.8696074,
              47.6518116
            ]
          }
        },
        {
          "type": "Feature",
          "properties": {
            "id": "914271022",
            "osm_type": "node",
            "lat": 47.6484578,
            "lon": 15.6311981,
            "name": "Gasthof zum Touristen",
            "tourism": "hostel"
          },
          "geometry": {
            "type": "Point",
            "coordinates": [
              15.6311981,
              47.6484578
            ]
          }
        },
        {
          "type": "Feature",
          "properties": {
            "id": "1106648433",
            "osm_type": "node",
            "lat": 47.6099749,
            "lon": 15.9934054,
            "name": "Pfadfinderheim",
            "tourism": "hostel",
            "website": "https://www.pfadfinderheim.com/"
          },
          "geometry": {
            "type": "Point",
            "coordinates": [
              15.9934054,
              47.6099749
            ]
          }
        },
        {
          "type": "Feature",
          "properties": {
            "id": "1453558315",
            "osm_type": "node",
            "lat": 47.5080954,
            "lon": 15.6990127,
            "addr:postcode": "8672",
            "name": "Gh. Willenshofer",
            "tourism": "guest_house"
          },
          "geometry": {
            "type": "Point",
            "coordinates": [
              15.6990127,
              47.5080954
            ]
          }
        },
        {
          "type": "Feature",
          "properties": {
            "id": "1454649940",
            "osm_type": "node",
            "lat": 47.3873386,
            "lon": 15.6982288,
            "name": "Jausenstation Töglhofer",
            "tourism": "guest_house"
          },
          "geometry": {
            "type": "Point",
            "coordinates": [
              15.6982288,
              47.3873386
            ]
          }
        },
        {
          "type": "Feature",
          "properties": {
            "id": "1457616518",
            "osm_type": "node",
            "lat": 47.4322972,
            "lon": 15.7040812,
            "name": "Gh. Almblick",
            "tourism": "guest_house"
          },
          "geometry": {
            "type": "Point",
            "coordinates": [
              15.7040812,
              47.4322972
            ]
          }
        },
        {
          "type": "Feature",
          "properties": {
            "id": "1614868988",
            "osm_type": "node",
            "lat": 47.4468222,
            "lon": 15.8831647,
            "addr:city": "Mönichwald",
            "addr:housenumber": "2a",
            "addr:postcode": "8252",
            "addr:street": "Karnerviertel",
            "name": "Andrea",
            "phone": "+43 3336 4467",
            "tourism": "guest_house"
          },
          "geometry": {
            "type": "Point",
            "coordinates": [
              15.8831647,
              47.4468222
            ]
          }
        },
        {
          "type": "Feature",
          "properties": {
            "id": "1614869070",
            "osm_type": "node",
            "lat": 47.446823,
            "lon": 15.8833461,
            "name": "Lechner",
            "phone": "+3336 4482",
            "tourism": "guest_house"
          },
          "geometry": {
            "type": "Point",
            "coordinates": [
              15.8833461,
              47.446823
            ]
          }
        },
        {
          "type": "Feature",
          "properties": {
            "id": "1850501897",
            "osm_type": "node",
            "lat": 47.4915184,
            "lon": 15.7112136,
            "addr:postcode": "8673",
            "name": "Ponyhof",
            "tourism": "guest_house",
            "website": "https://www.ponyhof-familienhotel.at/"
          },
          "geometry": {
            "type": "Point",
            "coordinates": [
              15.7112136,
              47.4915184
            ]
          }
        },
        {
          "type": "Feature",
          "properties": {
            "id": "2102160917",
            "osm_type": "node",
            "lat": 47.6095826,
            "lon": 15.7557626,
            "name": "Haus Pferscher",
            "tourism": "guest_house"
          },
          "geometry": {
            "type": "Point",
            "coordinates": [
              15.7557626,
              47.6095826
            ]
          }
        },
        {
          "type": "Feature",
          "properties": {
            "id": "2612951739",
            "osm_type": "node",
            "lat": 47.6561153,
            "lon": 15.872143,
            "name": "Ferienwohnung Manuela",
            "tourism": "guest_house"
          },
          "geometry": {
            "type": "Point",
            "coordinates": [
              15.872143,
              47.6561153
            ]
          }
        },
        {
          "type": "Feature",
          "properties": {
            "id": "3258398963",
            "osm_type": "node",
            "lat": 47.6147774,
            "lon": 15.8809825,
            "name": "Almbauer Morgenbesser",
            "tourism": "guest_house",
            "website": "https://almbauer-morgenbesser.at/"
          },
          "geometry": {
            "type": "Point",
            "coordinates": [
              15.8809825,
              47.6147774
            ]
          }
        },
        {
          "type": "Feature",
          "properties": {
            "id": "3992036797",
            "osm_type": "node",
            "lat": 47.5959327,
            "lon": 15.8254933,
            "addr:city": "Steinhaus am Semmering",
            "addr:housenumber": "20",
            "addr:postcode": "8685",
            "addr:street": "Fröschnitz",
            "ele": "960",
            "name": "Familie Postl",
            "note": "Ausgangspunkt für Skitouren auf das Alois Günther Haus, Stuhleck 1782 m.",
            "operator": "Christine Postl",
            "phone": "06642707510",
            "smoking": "no",
            "tourism": "guest_house"
          },
          "geometry": {
            "type": "Point",
            "coordinates": [
              15.8254933,
              47.5959327
            ]
          }
        },
        {
          "type": "Feature",
          "properties": {
            "id": "4457701490",
            "osm_type": "node",
            "lat": 47.3823357,
            "lon": 15.9716144,
            "internet_access": "wlan",
            "name": "Eichbergerhof",
            "operator": "Fam Kohl",
            "tourism": "guest_house"
          },
          "geometry": {
            "type": "Point",
            "coordinates": [
              15.9716144,
              47.3823357
            ]
          }
        },
        {
          "type": "Feature",
          "properties": {
            "id": "4692892363",
            "osm_type": "node",
            "lat": 47.4467991,
            "lon": 15.883825,
            "addr:city": "Waldbach-Mönichwald",
            "addr:housenumber": "6",
            "addr:postcode": "8252",
            "addr:street": "Karnerviertel",
            "internet_access": "wlan",
            "internet_access:fee": "no",
            "name": "Hold Gastwirtschaft",
            "operator": "Stefan Hold",
            "rooms": "20",
            "smoking": "isolated",
            "tourism": "guest_house",
            "website": "https://www.hold-gastwirtschaft.at/",
            "wheelchair": "limited"
          },
          "geometry": {
            "type": "Point",
            "coordinates": [
              15.883825,
              47.4467991
            ]
          }
        },
        {
          "type": "Feature",
          "properties": {
            "id": "4693253250",
            "osm_type": "node",
            "lat": 47.4474891,
            "lon": 15.8823345,
            "tourism": "guest_house"
          },
          "geometry": {
            "type": "Point",
            "coordinates": [
              15.8823345,
              47.4474891
            ]
          }
        },
        {
          "type": "Feature",
          "properties": {
            "id": "4693253251",
            "osm_type": "node",
            "lat": 47.4479353,
            "lon": 15.8820555,
            "tourism": "guest_house"
          },
          "geometry": {
            "type": "Point",
            "coordinates": [
              15.8820555,
              47.4479353
            ]
          }
        },
        {
          "type": "Feature",
          "properties": {
            "id": "5156936721",
            "osm_type": "node",
            "lat": 47.5695568,
            "lon": 15.6181893,
            "addr:city": "Langenwang",
            "addr:country": "AT",
            "addr:housenumber": "2",
            "addr:postcode": "8665",
            "addr:street": "Festwiese",
            "at_bev:addr_date": "2019-04-01",
            "internet_access": "wlan",
            "name": "Gästedorf Waldheimat",
            "tourism": "hostel"
          },
          "geometry": {
            "type": "Point",
            "coordinates": [
              15.6181893,
              47.5695568
            ]
          }
        },
        {
          "type": "Feature",
          "properties": {
            "id": "6238619754",
            "osm_type": "node",
            "lat": 47.3831234,
            "lon": 15.76408,
            "guest_house": "agritourism",
            "name": "Leitenbauerhof",
            "tourism": "guest_house",
            "website": "https://www.leitenbauerhof.at/"
          },
          "geometry": {
            "type": "Point",
            "coordinates": [
              15.76408,
              47.3831234
            ]
          }
        },
        {
          "type": "Feature",
          "properties": {
            "id": "6551194228",
            "osm_type": "node",
            "lat": 47.6337484,
            "lon": 15.8301575,
            "addr2:city": "Semmering",
            "addr2:country": "AT",
            "addr2:hamlet": "Semmering",
            "addr2:housenumber": "57",
            "addr2:postcode": "2680",
            "addr:city": "Semmering",
            "addr:country": "AT",
            "addr:housenumber": "7",
            "addr:postcode": "2680",
            "addr:street": "Mayerstraße",
            "alt_name": "Pension Edelweiss",
            "email": "edel-weiss@aon.at",
            "name": "Edelweiß",
            "phone": "+43 26642284",
            "tourism": "guest_house",
            "website": "http://edelweiss.businesscard.at/"
          },
          "geometry": {
            "type": "Point",
            "coordinates": [
              15.8301575,
              47.6337484
            ]
          }
        },
        {
          "type": "Feature",
          "properties": {
            "id": "7618073838",
            "osm_type": "node",
            "lat": 47.580376,
            "lon": 16.0159287,
            "contact:phone": "+43 2641 6240",
            "name": "Gästehaus Apschner",
            "tourism": "guest_house",
            "website": "https://www.haus-apschner.at/kontakt/"
          },
          "geometry": {
            "type": "Point",
            "coordinates": [
              16.0159287,
              47.580376
            ]
          }
        },
        {
          "type": "Feature",
          "properties": {
            "id": "7618228172",
            "osm_type": "node",
            "lat": 47.5809894,
            "lon": 16.0099675,
            "addr:city": "St. Corona am Wechsel",
            "addr:country": "AT",
            "addr:housenumber": "18",
            "addr:place": "Sankt Corona am Wechsel",
            "addr:postcode": "2880",
            "at_bev:addr_date": "2020-04-01",
            "contact:phone": "+43 664 458 55 54",
            "name": "Bauernhof Kronaushof",
            "tourism": "guest_house",
            "website": "https://www.tiscover.com/at/unterkuenfte/kronaushof"
          },
          "geometry": {
            "type": "Point",
            "coordinates": [
              16.0099675,
              47.5809894
            ]
          }
        },
        {
          "type": "Feature",
          "properties": {
            "id": "7618228173",
            "osm_type": "node",
            "lat": 47.576855,
            "lon": 16.0236454,
            "addr:city": "St. Corona am Wechsel",
            "addr:country": "AT",
            "addr:housenumber": "47",
            "addr:place": "Unternberg",
            "addr:postcode": "2880",
            "at_bev:addr_date": "2020-04-01",
            "contact:phone": "+43 680 141 03 63",
            "name": "Bauernhof Dissauer",
            "tourism": "guest_house",
            "website": "https://www.urlaubambauernhof.at/hoefe/dissauer"
          },
          "geometry": {
            "type": "Point",
            "coordinates": [
              16.0236454,
              47.576855
            ]
          }
        },
        {
          "type": "Feature",
          "properties": {
            "id": "7618236389",
            "osm_type": "node",
            "lat": 47.577482,
            "lon": 16.0235757,
            "addr:city": "St. Corona am Wechsel",
            "addr:country": "AT",
            "addr:housenumber": "44",
            "addr:place": "Unternberg",
            "addr:postcode": "2880",
            "at_bev:addr_date": "2020-04-01",
            "contact:phone": "+43 680 130 30 35",
            "name": "Ofnerhof",
            "tourism": "guest_house",
            "website": "https://www.ofnerhof.at/kontakt/"
          },
          "geometry": {
            "type": "Point",
            "coordinates": [
              16.0235757,
              47.577482
            ]
          }
        },
        {
          "type": "Feature",
          "properties": {
            "id": "12152400026",
            "osm_type": "node",
            "lat": 47.5871494,
            "lon": 15.5437628,
            "addr:housenumber": "10",
            "addr:street": "Massing",
            "fixme": "more details: breakfast, payment, beds, internet access etc.",
            "name": "Gasthof Sagbauer",
            "operator": "Elisabeth Rath und Karl Gutschlhofer",
            "phone": "+43 3855 2226",
            "rooms": "11",
            "tourism": "guest_house",
            "website": "https://www.sagbauer.at/"
          },
          "geometry": {
            "type": "Point",
            "coordinates": [
              15.5437628,
              47.5871494
            ]
          }
        },
        {
          "type": "Feature",
          "properties": {
            "id": "12152450638",
            "osm_type": "node",
            "lat": 47.5804751,
            "lon": 15.5523515,
            "addr:housenumber": "16",
            "addr:street": "Malleisten",
            "check_date": "2024-09-02",
            "description": "Appartmnts und Zimmer",
            "guest_house": "pension",
            "name": "Pension Tannhof",
            "operator": "Familie Schrittwieser",
            "phone": "+43 3855 2247",
            "tourism": "guest_house",
            "website": "https://www.tannhof.com/"
          },
          "geometry": {
            "type": "Point",
            "coordinates": [
              15.5523515,
              47.5804751
            ]
          }
        },
        {
          "type": "Feature",
          "properties": {
            "id": "12152468210",
            "osm_type": "node",
            "lat": 47.6070443,
            "lon": 15.5543527,
            "addr:housenumber": "28",
            "addr:street": "Massing",
            "check_date": "2024-09-02",
            "description": "Zimmer und Ferienwohnung",
            "name": "Haizlhof",
            "operator": "Familie Knabl",
            "phone": "+43 3855 2500",
            "tourism": "guest_house",
            "website": "https://www.haizlhof.at/"
          },
          "geometry": {
            "type": "Point",
            "coordinates": [
              15.5543527,
              47.6070443
            ]
          }
        },
        {
          "type": "Feature",
          "properties": {
            "id": "2300880580",
            "osm_type": "node",
            "lat": 47.4004948,
            "lon": 16.103447,
            "name": "Pension Fritz",
            "tourism": "guest_house"
          },
          "geometry": {
            "type": "Point",
            "coordinates": [
              16.103447,
              47.4004948
            ]
          }
        }
      ],
      "children": []
    },
    {
      "bbox": {
        "south": 47.36431175,
        "west": 16.2068765,
        "north": 47.694865,
        "east": 17.16058
      },
      "poiCount": 82,
      "leafCount": 0,
      "averagePosition": [
        16.64282076707317,
        47.58490536219512
      ],
      "data": [],
      "children": [
        {
          "bbox": {
            "south": 47.36431175,
            "west": 16.2068765,
            "north": 47.529588375,
            "east": 16.68372825
          },
          "poiCount": 17,
          "leafCount": 17,
          "averagePosition": [
            16.549356541176472,
            47.40754340588235
          ],
          "data": [
            {
              "type": "Feature",
              "properties": {
                "id": "2251235106",
                "osm_type": "node",
                "lat": 47.4084933,
                "lon": 16.2425979,
                "addr:city": "Rettenbach",
                "addr:country": "AT",
                "addr:housenumber": "6",
                "addr:postcode": "7434",
                "addr:street": "Dorfplatz",
                "at_bev:addr_date": "2020-10-01",
                "name": "Gasthof Bock",
                "tourism": "guest_house"
              },
              "geometry": {
                "type": "Point",
                "coordinates": [
                  16.2425979,
                  47.4084933
                ]
              }
            },
            {
              "type": "Feature",
              "properties": {
                "id": "3100300773",
                "osm_type": "node",
                "lat": 47.4016867,
                "lon": 16.4832978,
                "name": "Keresztkúti Erdei Pihenőhely",
                "phone": "+36-94-360-373",
                "tourism": "guest_house",
                "website": "https://www.keresztkut.hu/"
              },
              "geometry": {
                "type": "Point",
                "coordinates": [
                  16.4832978,
                  47.4016867
                ]
              }
            },
            {
              "type": "Feature",
              "properties": {
                "id": "3465143437",
                "osm_type": "node",
                "lat": 47.376733,
                "lon": 16.530517,
                "check_date": "2024-11-22",
                "contact:email": "schlafferkft@freemail.hu",
                "contact:fax": "+36 94 561 501",
                "contact:phone": "+36 94 561 500;+36 94 360 649;+36 30 377 3058",
                "name": "Hársfa Panzió",
                "source": "turistautak.hu",
                "source:date": "2015-03-03",
                "tourism": "guest_house",
                "url": "http://turistautak.hu/poi.php?id=16291"
              },
              "geometry": {
                "type": "Point",
                "coordinates": [
                  16.530517,
                  47.376733
                ]
              }
            },
            {
              "type": "Feature",
              "properties": {
                "id": "5895018494",
                "osm_type": "node",
                "lat": 47.3733177,
                "lon": 16.5195897,
                "building": "yes",
                "check_date": "2024-11-22",
                "name": "Mohás vendégház",
                "tourism": "guest_house",
                "website": "https://mohas.hu/hu/"
              },
              "geometry": {
                "type": "Point",
                "coordinates": [
                  16.5195897,
                  47.3733177
                ]
              }
            },
            {
              "type": "Feature",
              "properties": {
                "id": "1391047689",
                "osm_type": "node",
                "lat": 47.5221642,
                "lon": 16.6420297,
                "name": "Zum alten Zollhaus",
                "tourism": "hostel"
              },
              "geometry": {
                "type": "Point",
                "coordinates": [
                  16.6420297,
                  47.5221642
                ]
              }
            },
            {
              "type": "Feature",
              "properties": {
                "id": "3465143434",
                "osm_type": "node",
                "lat": 47.409739,
                "lon": 16.63017,
                "name": "Horvátkert panzió",
                "source": "turistautak.hu",
                "source:date": "2011-09-06",
                "tourism": "guest_house",
                "url": "http://turistautak.hu/poi.php?id=68784"
              },
              "geometry": {
                "type": "Point",
                "coordinates": [
                  16.63017,
                  47.409739
                ]
              }
            },
            {
              "type": "Feature",
              "properties": {
                "id": "3465143447",
                "osm_type": "node",
                "lat": 47.3951879,
                "lon": 16.5377885,
                "name": "Kiss vendégházak",
                "phone": "+36 70 255 3820",
                "source": "turistautak.hu",
                "source:date": "2011-09-06",
                "tourism": "guest_house",
                "url": "http://turistautak.hu/poi.php?id=9773",
                "website": "https://kissvendeghazak.tripod.com/"
              },
              "geometry": {
                "type": "Point",
                "coordinates": [
                  16.5377885,
                  47.3951879
                ]
              }
            },
            {
              "type": "Feature",
              "properties": {
                "id": "3465143462",
                "osm_type": "node",
                "lat": 47.3812659,
                "lon": 16.5539336,
                "name": "Margaréta vendégház",
                "source": "turistautak.hu",
                "source:date": "2011-09-06",
                "tourism": "guest_house",
                "url": "http://turistautak.hu/poi.php?id=68790"
              },
              "geometry": {
                "type": "Point",
                "coordinates": [
                  16.5539336,
                  47.3812659
                ]
              }
            },
            {
              "type": "Feature",
              "properties": {
                "id": "3465143506",
                "osm_type": "node",
                "lat": 47.4130655,
                "lon": 16.6306858,
                "addr:city": "Horvátzsidány",
                "addr:housenumber": "2",
                "addr:postcode": "9733",
                "addr:street": "József Attila utca",
                "email": "info@margaretacsarda.hu",
                "fixme": "verify",
                "name": "Margaréta Panzió",
                "phone": "+36 94 365 582",
                "source": "turistautak.hu",
                "source:date": "2015-03-03",
                "tourism": "guest_house",
                "url": "http://turistautak.hu/poi.php?id=68782",
                "website": "https://margaretacsarda.hu/"
              },
              "geometry": {
                "type": "Point",
                "coordinates": [
                  16.6306858,
                  47.4130655
                ]
              }
            },
            {
              "type": "Feature",
              "properties": {
                "id": "3465143519",
                "osm_type": "node",
                "lat": 47.3841731,
                "lon": 16.5464221,
                "description": "9730 Kőszeg, Rákóczi u. 66. Mobil: 30/9165-144 http://www.koszeg.hu/idegenforgalom/szallas/zsuliett/",
                "fixme": "resurvey (source was old)",
                "name": "Zsüliett vendégház",
                "source": "turistautak.hu",
                "source:date": "2008-03-13",
                "tourism": "guest_house",
                "url": "http://turistautak.hu/poi.php?id=39375"
              },
              "geometry": {
                "type": "Point",
                "coordinates": [
                  16.5464221,
                  47.3841731
                ]
              }
            },
            {
              "type": "Feature",
              "properties": {
                "id": "4175758802",
                "osm_type": "node",
                "lat": 47.386067,
                "lon": 16.5426089,
                "name": "Andalgó Hold",
                "tourism": "guest_house",
                "website": "http://www.andalgoholdkoszeg.hu/"
              },
              "geometry": {
                "type": "Point",
                "coordinates": [
                  16.5426089,
                  47.386067
                ]
              }
            },
            {
              "type": "Feature",
              "properties": {
                "id": "4896523348",
                "osm_type": "node",
                "lat": 47.4643987,
                "lon": 16.6357372,
                "addr:city": "Lutzmannsburg",
                "addr:country": "AT",
                "addr:housenumber": "31",
                "addr:postcode": "7361",
                "addr:street": "Hauptstraße",
                "email": "weingut@pension-schloegl.at",
                "internet_access": "yes",
                "internet_access:fee": "no",
                "name": "Pension Rotweingut Schlögl",
                "operator": "Patrizia Schlögl",
                "phone": "+43 664 5910145",
                "rooms": "4",
                "tourism": "guest_house",
                "website": "https://www.pension-schloegl.at/"
              },
              "geometry": {
                "type": "Point",
                "coordinates": [
                  16.6357372,
                  47.4643987
                ]
              }
            },
            {
              "type": "Feature",
              "properties": {
                "id": "5528072550",
                "osm_type": "node",
                "lat": 47.3826057,
                "lon": 16.5458303,
                "addr:city": "Kőszeg",
                "addr:housenumber": "24",
                "addr:postcode": "9730",
                "addr:street": "Rohonci utca",
                "alt_name": "Rohonci Panzio",
                "email": "Takacskalman@vipmail.hu",
                "internet_access": "wlan",
                "name": "Rohonci Vendégház",
                "phone": "+36 94 361 430",
                "tourism": "guest_house"
              },
              "geometry": {
                "type": "Point",
                "coordinates": [
                  16.5458303,
                  47.3826057
                ]
              }
            },
            {
              "type": "Feature",
              "properties": {
                "id": "6575402652",
                "osm_type": "node",
                "lat": 47.3881389,
                "lon": 16.5385055,
                "addr:city": "Kőszeg",
                "addr:housenumber": "100",
                "addr:postcode": "9730",
                "addr:street": "Várkör",
                "email": "info@kobormacska.hu",
                "name": "Fogadó A Kóbor Macskához",
                "phone": "+36 94 362 273",
                "tourism": "guest_house",
                "website": "http://varkorpanzio.hu/hu/"
              },
              "geometry": {
                "type": "Point",
                "coordinates": [
                  16.5385055,
                  47.3881389
                ]
              }
            },
            {
              "type": "Feature",
              "properties": {
                "id": "6937951409",
                "osm_type": "node",
                "lat": 47.4603207,
                "lon": 16.6726273,
                "building": "yes",
                "name": "Határmenti vendégház",
                "tourism": "guest_house",
                "website": "http://www.hatarmenti-vendeghaz.hu/"
              },
              "geometry": {
                "type": "Point",
                "coordinates": [
                  16.6726273,
                  47.4603207
                ]
              }
            },
            {
              "type": "Feature",
              "properties": {
                "id": "7476523504",
                "osm_type": "node",
                "lat": 47.3903134,
                "lon": 16.5426812,
                "addr:city": "Kőszeg",
                "addr:housenumber": "30",
                "addr:postcode": "9730",
                "addr:street": "Várkör",
                "guest_house": "pension",
                "name": "AACS Panzió és Pizzéria",
                "note": "Munkásszálló",
                "phone": "+36 94 563 190",
                "tourism": "guest_house"
              },
              "geometry": {
                "type": "Point",
                "coordinates": [
                  16.5426812,
                  47.3903134
                ]
              }
            },
            {
              "type": "Feature",
              "properties": {
                "id": "12250584533",
                "osm_type": "node",
                "lat": 47.3905672,
                "lon": 16.5440387,
                "name": "Kőszeg Panzió",
                "tourism": "guest_house"
              },
              "geometry": {
                "type": "Point",
                "coordinates": [
                  16.5440387,
                  47.3905672
                ]
              }
            }
          ],
          "children": []
        },
        {
          "bbox": {
            "south": 47.36431175,
            "west": 16.68372825,
            "north": 47.529588375,
            "east": 17.16058
          },
          "poiCount": 7,
          "leafCount": 7,
          "averagePosition": [
            16.78120487142857,
            47.41381641428571
          ],
          "data": [
            {
              "type": "Feature",
              "properties": {
                "id": "3465143411",
                "osm_type": "node",
                "lat": 47.382783,
                "lon": 16.7602,
                "name": "Eman apartmanok",
                "source": "turistautak.hu",
                "source:date": "2011-09-06",
                "tourism": "guest_house",
                "url": "http://turistautak.hu/poi.php?id=97687"
              },
              "geometry": {
                "type": "Point",
                "coordinates": [
                  16.7602,
                  47.382783
                ]
              }
            },
            {
              "type": "Feature",
              "properties": {
                "id": "3465143415",
                "osm_type": "node",
                "lat": 47.377888,
                "lon": 16.757028,
                "description": "Deák Ferenc tér 84/321-536",
                "name": "Fiora Kft. üdülője",
                "source": "turistautak.hu",
                "source:date": "2011-09-06",
                "tourism": "guest_house",
                "url": "http://turistautak.hu/poi.php?id=49478"
              },
              "geometry": {
                "type": "Point",
                "coordinates": [
                  16.757028,
                  47.377888
                ]
              }
            },
            {
              "type": "Feature",
              "properties": {
                "id": "3465143439",
                "osm_type": "node",
                "lat": 47.401992,
                "lon": 16.705093,
                "alt_name": "Turistaház",
                "name": "Ifjúsági szálló",
                "source": "turistautak.hu",
                "source:date": "2011-09-06",
                "tourism": "guest_house",
                "url": "http://turistautak.hu/poi.php?id=27951"
              },
              "geometry": {
                "type": "Point",
                "coordinates": [
                  16.705093,
                  47.401992
                ]
              }
            },
            {
              "type": "Feature",
              "properties": {
                "id": "3465143635",
                "osm_type": "node",
                "lat": 47.37945,
                "lon": 16.75735,
                "name": "Óvári Vendégház",
                "source": "turistautak.hu",
                "source:date": "2011-09-06",
                "tourism": "guest_house",
                "url": "http://turistautak.hu/poi.php?id=1256"
              },
              "geometry": {
                "type": "Point",
                "coordinates": [
                  16.75735,
                  47.37945
                ]
              }
            },
            {
              "type": "Feature",
              "properties": {
                "id": "4537753234",
                "osm_type": "node",
                "lat": 47.4495327,
                "lon": 16.68577,
                "addr:city": "Zsira",
                "addr:housenumber": "30",
                "addr:postcode": "9476",
                "addr:street": "Salamonfai utca",
                "internet_access": "wlan",
                "name": "Napvirág Vendégház",
                "tourism": "guest_house"
              },
              "geometry": {
                "type": "Point",
                "coordinates": [
                  16.68577,
                  47.4495327
                ]
              }
            },
            {
              "type": "Feature",
              "properties": {
                "id": "6937951412",
                "osm_type": "node",
                "lat": 47.4520194,
                "lon": 16.6846275,
                "building": "yes",
                "contact:phone": "+36 30 959 4201",
                "name": "Rudolf's fogadó",
                "tourism": "guest_house"
              },
              "geometry": {
                "type": "Point",
                "coordinates": [
                  16.6846275,
                  47.4520194
                ]
              }
            },
            {
              "type": "Feature",
              "properties": {
                "id": "1800727219",
                "osm_type": "node",
                "lat": 47.4530498,
                "lon": 17.1183656,
                "name": "Vendégház",
                "tourism": "guest_house"
              },
              "geometry": {
                "type": "Point",
                "coordinates": [
                  17.1183656,
                  47.4530498
                ]
              }
            }
          ],
          "children": []
        },
        {
          "bbox": {
            "south": 47.529588375,
            "west": 16.2068765,
            "north": 47.694865,
            "east": 16.68372825
          },
          "poiCount": 39,
          "leafCount": 39,
          "averagePosition": [
            16.572968017948718,
            47.6765736025641
          ],
          "data": [
            {
              "type": "Feature",
              "properties": {
                "id": "1406906374",
                "osm_type": "node",
                "lat": 47.6779879,
                "lon": 16.5208298,
                "addr:city": "Sopron",
                "addr:postcode": "9400",
                "addr:street": "Brennbergi út",
                "email": "tabor@sopron.hu",
                "name": "Soproni Gyermek és Ifjúsági Tábor",
                "phone": "+36 99 313 116",
                "tourism": "hostel",
                "website": "https://soprontabor.hu/"
              },
              "geometry": {
                "type": "Point",
                "coordinates": [
                  16.5208298,
                  47.6779879
                ]
              }
            },
            {
              "type": "Feature",
              "properties": {
                "id": "1842599311",
                "osm_type": "node",
                "lat": 47.6873631,
                "lon": 16.249645,
                "name": "Pension Hendling",
                "tourism": "guest_house"
              },
              "geometry": {
                "type": "Point",
                "coordinates": [
                  16.249645,
                  47.6873631
                ]
              }
            },
            {
              "type": "Feature",
              "properties": {
                "id": "3050081782",
                "osm_type": "node",
                "lat": 47.6914171,
                "lon": 16.5115098,
                "addr:city": "Ágfalva",
                "addr:housenumber": "16",
                "addr:postcode": "9423",
                "addr:street": "Lépesfalvi utca",
                "name": "Ágfalvi",
                "tourism": "guest_house"
              },
              "geometry": {
                "type": "Point",
                "coordinates": [
                  16.5115098,
                  47.6914171
                ]
              }
            },
            {
              "type": "Feature",
              "properties": {
                "id": "11108310490",
                "osm_type": "node",
                "lat": 47.5466964,
                "lon": 16.4441251,
                "addr:city": "Neutal",
                "addr:housenumber": "110",
                "addr:postcode": "7343",
                "addr:street": "Hauptstraße",
                "guest_house": "bed_and_breakfast",
                "name": "Frühstückspension Ingrid",
                "phone": "+43 660 4634212",
                "tourism": "guest_house",
                "website": "https://www.pension-ingrid.at/"
              },
              "geometry": {
                "type": "Point",
                "coordinates": [
                  16.4441251,
                  47.5466964
                ]
              }
            },
            {
              "type": "Feature",
              "properties": {
                "id": "1406906379",
                "osm_type": "node",
                "lat": 47.6875621,
                "lon": 16.5982957,
                "addr:city": "Sopron",
                "addr:housenumber": "28",
                "addr:postcode": "9400",
                "addr:street": "Gazda utca",
                "amenity": "pub",
                "name": "Bschaden",
                "opening_hours": "Th 18:00-22:00; Fr-Sa 18:00-23:00",
                "tourism": "guest_house",
                "website": "http://www.bschaden.hu/"
              },
              "geometry": {
                "type": "Point",
                "coordinates": [
                  16.5982957,
                  47.6875621
                ]
              }
            },
            {
              "type": "Feature",
              "properties": {
                "id": "1406906381",
                "osm_type": "node",
                "lat": 47.6878716,
                "lon": 16.6014566,
                "addr:city": "Sopron",
                "addr:housenumber": "1",
                "addr:postcode": "9400",
                "addr:street": "Rákosi út",
                "contact:fax": "+36 99 321 118",
                "email": "poluspanzio@t-online.hu",
                "name": "Pólus",
                "phone": "+36 99 311 591",
                "tourism": "guest_house",
                "website": "http://poluspanzio.hu/"
              },
              "geometry": {
                "type": "Point",
                "coordinates": [
                  16.6014566,
                  47.6878716
                ]
              }
            },
            {
              "type": "Feature",
              "properties": {
                "id": "1456119249",
                "osm_type": "node",
                "lat": 47.6818671,
                "lon": 16.5721143,
                "addr:city": "Sopron",
                "addr:housenumber": "31",
                "addr:postcode": "9400",
                "addr:street": "Ady Endre út",
                "email": "info@parkhostel.hu",
                "name": "Park Hostel",
                "phone": "+36 99 786 788",
                "tourism": "hostel",
                "website": "http://www.parkhostel.eu/"
              },
              "geometry": {
                "type": "Point",
                "coordinates": [
                  16.5721143,
                  47.6818671
                ]
              }
            },
            {
              "type": "Feature",
              "properties": {
                "id": "1459648707",
                "osm_type": "node",
                "lat": 47.6818752,
                "lon": 16.5691445,
                "addr:city": "Sopron",
                "addr:housenumber": "4",
                "addr:postcode": "9400",
                "addr:street": "Orgona utca",
                "name": "Oázis",
                "tourism": "guest_house",
                "wifi": "no"
              },
              "geometry": {
                "type": "Point",
                "coordinates": [
                  16.5691445,
                  47.6818752
                ]
              }
            },
            {
              "type": "Feature",
              "properties": {
                "id": "1531614492",
                "osm_type": "node",
                "lat": 47.6772733,
                "lon": 16.5950664,
                "addr:city": "Sopron",
                "addr:housenumber": "3",
                "addr:postcode": "9400",
                "addr:street": "Kőszegi út",
                "email": "info@atriumsopron.hu",
                "name": "Átrium",
                "phone": "+36 99 313 799",
                "tourism": "guest_house",
                "website": "https://atriumsopron.hu/"
              },
              "geometry": {
                "type": "Point",
                "coordinates": [
                  16.5950664,
                  47.6772733
                ]
              }
            },
            {
              "type": "Feature",
              "properties": {
                "id": "1885124407",
                "osm_type": "node",
                "lat": 47.6789365,
                "lon": 16.6043542,
                "addr:city": "Sopron",
                "addr:housenumber": "35",
                "addr:postcode": "9400",
                "addr:street": "Bercsényi Miklós utca",
                "email": "info@gibraltarvendeghaz.hu",
                "name": "Gibraltár",
                "phone": "+36 70 608 3704",
                "tourism": "guest_house",
                "website": "http://www.gibraltarvendeghaz.hu/"
              },
              "geometry": {
                "type": "Point",
                "coordinates": [
                  16.6043542,
                  47.6789365
                ]
              }
            },
            {
              "type": "Feature",
              "properties": {
                "id": "2479858501",
                "osm_type": "node",
                "lat": 47.6787714,
                "lon": 16.546764,
                "addr:city": "Sopron",
                "addr:housenumber": "4",
                "addr:postcode": "9400",
                "addr:street": "Brennbergi út",
                "email": "farkas.vendeghaz@upcmail.hu",
                "name": "Farkas",
                "phone": "+36 99 331 167",
                "tourism": "guest_house"
              },
              "geometry": {
                "type": "Point",
                "coordinates": [
                  16.546764,
                  47.6787714
                ]
              }
            },
            {
              "type": "Feature",
              "properties": {
                "id": "2820918522",
                "osm_type": "node",
                "lat": 47.6883337,
                "lon": 16.5934089,
                "addr:city": "Sopron",
                "addr:housenumber": "13",
                "addr:postcode": "9400",
                "addr:street": "Sas tér",
                "email": "wieden@fullnet.hu",
                "internet_access": "wlan",
                "internet_access:fee": "no",
                "name": "Wieden",
                "phone": "+36 99 523 222",
                "tourism": "guest_house",
                "website": "http://wieden.hu/"
              },
              "geometry": {
                "type": "Point",
                "coordinates": [
                  16.5934089,
                  47.6883337
                ]
              }
            },
            {
              "type": "Feature",
              "properties": {
                "id": "3047641561",
                "osm_type": "node",
                "lat": 47.6350163,
                "lon": 16.6011271,
                "addr:city": "Harka",
                "addr:housenumber": "3",
                "addr:postcode": "9422",
                "addr:street": "Sport utca",
                "email": "harkaapartmanhaz@gmail.com",
                "name": "Harka",
                "phone": "+36 99 345 310",
                "tourism": "guest_house",
                "website": "http://harkaapartmanhaz.hu/"
              },
              "geometry": {
                "type": "Point",
                "coordinates": [
                  16.6011271,
                  47.6350163
                ]
              }
            },
            {
              "type": "Feature",
              "properties": {
                "id": "3069311045",
                "osm_type": "node",
                "lat": 47.6753009,
                "lon": 16.5782071,
                "addr:city": "Sopron",
                "addr:housenumber": "7",
                "addr:postcode": "9400",
                "addr:street": "Alsóőrház köz",
                "email": "martavendegszoba@freemail.hu",
                "name": "Márta",
                "phone": "+36 99 329 198",
                "tourism": "guest_house",
                "website": "http://martaszobai-sopron.mindenkilapja.hu/"
              },
              "geometry": {
                "type": "Point",
                "coordinates": [
                  16.5782071,
                  47.6753009
                ]
              }
            },
            {
              "type": "Feature",
              "properties": {
                "id": "3069342828",
                "osm_type": "node",
                "lat": 47.6777819,
                "lon": 16.6216795,
                "addr:city": "Sopron",
                "addr:housenumber": "8",
                "addr:postcode": "9400",
                "addr:street": "Töpler Kálmán utca",
                "email": "info@pihenokeresztpanzio.hu",
                "name": "Pihenőkereszt Panzió",
                "phone": "+36 99 317 117",
                "tourism": "guest_house",
                "website": "https://www.pihenokeresztpanzio.hu/"
              },
              "geometry": {
                "type": "Point",
                "coordinates": [
                  16.6216795,
                  47.6777819
                ]
              }
            },
            {
              "type": "Feature",
              "properties": {
                "id": "3069342829",
                "osm_type": "node",
                "lat": 47.6864023,
                "lon": 16.5989233,
                "addr:city": "Sopron",
                "addr:housenumber": "8",
                "addr:postcode": "9400",
                "addr:street": "Virág utca",
                "email": "info@dolmanyvendeghaz.hu",
                "name": "Dolmány",
                "phone": "+36 99 313 396",
                "tourism": "guest_house",
                "website": "http://www.dolmanyvendeghaz.hu/"
              },
              "geometry": {
                "type": "Point",
                "coordinates": [
                  16.5989233,
                  47.6864023
                ]
              }
            },
            {
              "type": "Feature",
              "properties": {
                "id": "3069512556",
                "osm_type": "node",
                "lat": 47.6867499,
                "lon": 16.5513611,
                "addr:city": "Sopron",
                "addr:housenumber": "38",
                "addr:postcode": "9400",
                "addr:street": "Kertvárosi utca",
                "email": "vitalpanzio@gmail.com",
                "name": "Club Vital",
                "phone": "+36 30 417 5959",
                "tourism": "guest_house",
                "website": "http://www.clubvital.hu/"
              },
              "geometry": {
                "type": "Point",
                "coordinates": [
                  16.5513611,
                  47.6867499
                ]
              }
            },
            {
              "type": "Feature",
              "properties": {
                "id": "3069512557",
                "osm_type": "node",
                "lat": 47.6906159,
                "lon": 16.5912075,
                "addr:city": "Sopron",
                "addr:housenumber": "40",
                "addr:postcode": "9400",
                "addr:street": "Patak utca",
                "email": "info@bastya2005.t-online.hu",
                "name": "Bástya",
                "phone": "+36 99 325 325",
                "tourism": "guest_house",
                "website": "http://bastyapanzio-sopron.hu/"
              },
              "geometry": {
                "type": "Point",
                "coordinates": [
                  16.5912075,
                  47.6906159
                ]
              }
            },
            {
              "type": "Feature",
              "properties": {
                "id": "3069512558",
                "osm_type": "node",
                "lat": 47.6712137,
                "lon": 16.5916174,
                "addr:city": "Sopron",
                "addr:housenumber": "48",
                "addr:postcode": "9400",
                "addr:street": "Sport utca",
                "contact:fax": "+36 99 315 182",
                "email": "dalipanzio@chello.hu",
                "name": "Dali",
                "phone": "+36 99 510 477",
                "tourism": "guest_house",
                "website": "http://dali.ini.hu/"
              },
              "geometry": {
                "type": "Point",
                "coordinates": [
                  16.5916174,
                  47.6712137
                ]
              }
            },
            {
              "type": "Feature",
              "properties": {
                "id": "3069512559",
                "osm_type": "node",
                "lat": 47.6746897,
                "lon": 16.5804737,
                "addr:city": "Sopron",
                "addr:housenumber": "46",
                "addr:postcode": "9400",
                "addr:street": "Mikoviny utca",
                "email": "picolot@t-online.hu",
                "name": "Villa Sakura",
                "phone": "+36 30 969 4046",
                "tourism": "guest_house",
                "website": "http://www.villa-sakura.hu/"
              },
              "geometry": {
                "type": "Point",
                "coordinates": [
                  16.5804737,
                  47.6746897
                ]
              }
            },
            {
              "type": "Feature",
              "properties": {
                "id": "3069512560",
                "osm_type": "node",
                "lat": 47.6823656,
                "lon": 16.5683712,
                "addr:city": "Sopron",
                "addr:housenumber": "51",
                "addr:postcode": "9400",
                "addr:street": "Ady Endre út",
                "email": "info@annapanzio.net",
                "name": "Anna",
                "phone": "+36 20 570 3309",
                "tourism": "guest_house",
                "website": "http://annapanzio.net/"
              },
              "geometry": {
                "type": "Point",
                "coordinates": [
                  16.5683712,
                  47.6823656
                ]
              }
            },
            {
              "type": "Feature",
              "properties": {
                "id": "3069512561",
                "osm_type": "node",
                "lat": 47.6945394,
                "lon": 16.5830996,
                "addr:city": "Sopron",
                "addr:housenumber": "24",
                "addr:postcode": "9400",
                "addr:street": "Kertesi utca",
                "name": "Bogi",
                "tourism": "guest_house"
              },
              "geometry": {
                "type": "Point",
                "coordinates": [
                  16.5830996,
                  47.6945394
                ]
              }
            },
            {
              "type": "Feature",
              "properties": {
                "id": "3069512562",
                "osm_type": "node",
                "lat": 47.6790662,
                "lon": 16.5778303,
                "addr:city": "Sopron",
                "addr:housenumber": "19",
                "addr:postcode": "9400",
                "addr:street": "Bajcsy-Zsilinszky Endre utca",
                "email": "elmavendeghaz@gmail.com",
                "name": "Elma",
                "phone": "+36 30 237 0297",
                "tourism": "guest_house",
                "website": "http://elma-apartman.blogspot.hu/"
              },
              "geometry": {
                "type": "Point",
                "coordinates": [
                  16.5778303,
                  47.6790662
                ]
              }
            },
            {
              "type": "Feature",
              "properties": {
                "id": "3069512563",
                "osm_type": "node",
                "lat": 47.6765698,
                "lon": 16.6079854,
                "addr:city": "Sopron",
                "addr:housenumber": "4",
                "addr:postcode": "9400",
                "addr:street": "Bezerédj utca",
                "email": "info@alpokaljavendeghaz.com",
                "name": "Alpokalja",
                "phone": "+36 30 932 4514",
                "tourism": "guest_house",
                "website": "http://www.alpokaljavendeghaz.com/"
              },
              "geometry": {
                "type": "Point",
                "coordinates": [
                  16.6079854,
                  47.6765698
                ]
              }
            },
            {
              "type": "Feature",
              "properties": {
                "id": "3069512564",
                "osm_type": "node",
                "lat": 47.6815146,
                "lon": 16.5949495,
                "addr:city": "Sopron",
                "addr:housenumber": "18",
                "addr:postcode": "9400",
                "addr:street": "Pócsi utca",
                "name": "Takács",
                "phone": "+36 30 351 7601",
                "tourism": "guest_house",
                "website": "https://www.takacs-vendeghaz.hu/"
              },
              "geometry": {
                "type": "Point",
                "coordinates": [
                  16.5949495,
                  47.6815146
                ]
              }
            },
            {
              "type": "Feature",
              "properties": {
                "id": "3069512565",
                "osm_type": "node",
                "lat": 47.6817762,
                "lon": 16.5979476,
                "addr:city": "Sopron",
                "addr:housenumber": "2",
                "addr:postcode": "9400",
                "addr:street": "Kurucdomb sor",
                "alt_name": "Fényes Vinorium Panzió",
                "email": "fenyesvendeghaz@gmail.com",
                "internet_access": "wlan",
                "internet_access:fee": "yes",
                "name": "Fényes Panzió",
                "phone": "+36 20 559 5034",
                "rooms": "9",
                "tourism": "guest_house",
                "website": "http://fenyespanzio.fenyszoft.hu/"
              },
              "geometry": {
                "type": "Point",
                "coordinates": [
                  16.5979476,
                  47.6817762
                ]
              }
            },
            {
              "type": "Feature",
              "properties": {
                "id": "3069512567",
                "osm_type": "node",
                "lat": 47.6843083,
                "lon": 16.5971658,
                "addr:city": "Sopron",
                "addr:housenumber": "52",
                "addr:postcode": "9400",
                "addr:street": "Balfi út",
                "contact:fax": "+36 99 326 081",
                "name": "Ringhofer",
                "phone": "+36 99 325 022",
                "tourism": "guest_house",
                "website": "http://kispocsi.uw.hu/ringhofer.html"
              },
              "geometry": {
                "type": "Point",
                "coordinates": [
                  16.5971658,
                  47.6843083
                ]
              }
            },
            {
              "type": "Feature",
              "properties": {
                "id": "3069530934",
                "osm_type": "node",
                "lat": 47.6866607,
                "lon": 16.5801602,
                "addr:city": "Sopron",
                "addr:housenumber": "2",
                "addr:postcode": "9400",
                "addr:street": "Kölcsey Ferenc utca",
                "email": "palmasopron@palmasopron.com",
                "name": "Pálma",
                "phone": "+36 30 841 0250",
                "tourism": "guest_house",
                "website": "https://palmasopron.com/"
              },
              "geometry": {
                "type": "Point",
                "coordinates": [
                  16.5801602,
                  47.6866607
                ]
              }
            },
            {
              "type": "Feature",
              "properties": {
                "id": "3069566714",
                "osm_type": "node",
                "lat": 47.6945457,
                "lon": 16.5850106,
                "addr:city": "Sopron",
                "addr:housenumber": "81",
                "addr:postcode": "9400",
                "addr:street": "Bécsi út",
                "email": "jagerggy@t-online.hu",
                "name": "Jägermeister",
                "phone": "+36 99 349 045",
                "tourism": "guest_house",
                "website": "http://www.soproni-panzio.hu/"
              },
              "geometry": {
                "type": "Point",
                "coordinates": [
                  16.5850106,
                  47.6945457
                ]
              }
            },
            {
              "type": "Feature",
              "properties": {
                "id": "3069566715",
                "osm_type": "node",
                "lat": 47.6515569,
                "lon": 16.6656542,
                "addr:city": "Sopron",
                "addr:housenumber": "54",
                "addr:postcode": "9494",
                "addr:street": "Fő utca",
                "addr:suburb": "Balf",
                "email": "golyafeszekbalf@freemail.hu",
                "name": "Gólyafészek",
                "phone": "+36 99 319 850",
                "tourism": "guest_house",
                "website": "http://golyafeszekbalf.atw.hu/"
              },
              "geometry": {
                "type": "Point",
                "coordinates": [
                  16.6656542,
                  47.6515569
                ]
              }
            },
            {
              "type": "Feature",
              "properties": {
                "id": "3069566716",
                "osm_type": "node",
                "lat": 47.6782646,
                "lon": 16.5680797,
                "addr:city": "Sopron",
                "addr:housenumber": "25",
                "addr:postcode": "9400",
                "addr:street": "Felsőlövér út",
                "email": "info.trimmel@gmail.com",
                "name": "Alpesi Trimmel",
                "phone": "+36 99 316 374",
                "tourism": "guest_house",
                "website": "http://szallassopron.hu/"
              },
              "geometry": {
                "type": "Point",
                "coordinates": [
                  16.5680797,
                  47.6782646
                ]
              }
            },
            {
              "type": "Feature",
              "properties": {
                "id": "3069940147",
                "osm_type": "node",
                "lat": 47.6422549,
                "lon": 16.6633211,
                "addr:city": "Sopron",
                "addr:postcode": "9494",
                "addr:street": "Akácfa sor",
                "addr:suburb": "Balf",
                "email": "martina.lukacs@pr.hu",
                "guest_house": "bed_and_breakfast",
                "name": "Lukács",
                "phone": "+36 99 339 226",
                "tourism": "guest_house",
                "website": "http://sopron-balfi-szallas.hu/"
              },
              "geometry": {
                "type": "Point",
                "coordinates": [
                  16.6633211,
                  47.6422549
                ]
              }
            },
            {
              "type": "Feature",
              "properties": {
                "id": "3069961085",
                "osm_type": "node",
                "lat": 47.677428,
                "lon": 16.5754351,
                "addr:city": "Sopron",
                "addr:housenumber": "5",
                "addr:postcode": "9400",
                "addr:street": "Honvéd út",
                "email": "info@villa-mimi.com",
                "name": "Villa Mimi",
                "phone": "+36 30 237 0275",
                "tourism": "guest_house",
                "website": "https://villa-mimi.com/"
              },
              "geometry": {
                "type": "Point",
                "coordinates": [
                  16.5754351,
                  47.677428
                ]
              }
            },
            {
              "type": "Feature",
              "properties": {
                "id": "3470004320",
                "osm_type": "node",
                "lat": 47.68287,
                "lon": 16.557105,
                "description": "Ferenczi Panzió - Bánfalvi Kisvendéglő Információ - Szobafoglalás: Ferenczi Gábor - tulajdonos Cím: 9400, Sopron, Ady Endre u. 112. Telefon: 06-20-942-0196",
                "name": "Ferenczi Panzió",
                "phone": "+36 20 942 0196",
                "source": "turistautak.hu",
                "source:date": "2011-08-30",
                "tourism": "guest_house",
                "url": "http://turistautak.hu/poi.php?id=123981"
              },
              "geometry": {
                "type": "Point",
                "coordinates": [
                  16.557105,
                  47.68287
                ]
              }
            },
            {
              "type": "Feature",
              "properties": {
                "id": "3470004333",
                "osm_type": "node",
                "lat": 47.6782437,
                "lon": 16.5957818,
                "fixme": "resurvey (source was old)",
                "name": "Kazamata Panzió",
                "source": "turistautak.hu",
                "source:date": "2008-05-14",
                "tourism": "guest_house",
                "url": "http://turistautak.hu/poi.php?id=14630"
              },
              "geometry": {
                "type": "Point",
                "coordinates": [
                  16.5957818,
                  47.6782437
                ]
              }
            },
            {
              "type": "Feature",
              "properties": {
                "id": "3470004353",
                "osm_type": "node",
                "lat": 47.6783608,
                "lon": 16.5648626,
                "description": "A megadott koo a bejáratra vonatkozik.",
                "name": "Magyar Telekom üdülő",
                "source": "turistautak.hu",
                "source:date": "2011-01-08",
                "tourism": "guest_house",
                "url": "http://turistautak.hu/poi.php?id=12652"
              },
              "geometry": {
                "type": "Point",
                "coordinates": [
                  16.5648626,
                  47.6783608
                ]
              }
            },
            {
              "type": "Feature",
              "properties": {
                "id": "3470004375",
                "osm_type": "node",
                "lat": 47.690117,
                "lon": 16.584983,
                "contact:phone": "+36 99 334 656",
                "fixme": "resurvey (source was old)",
                "name": "Selmeci vendégház",
                "source": "turistautak.hu",
                "source:date": "2008-05-14",
                "tourism": "guest_house",
                "url": "http://turistautak.hu/poi.php?id=15522"
              },
              "geometry": {
                "type": "Point",
                "coordinates": [
                  16.584983,
                  47.690117
                ]
              }
            },
            {
              "type": "Feature",
              "properties": {
                "id": "10245690909",
                "osm_type": "node",
                "lat": 47.6942056,
                "lon": 16.5621863,
                "addr:city": "Sopron",
                "addr:housenumber": "24",
                "addr:postcode": "9400",
                "addr:street": "Somfalvi út",
                "name": "Patkó Panzió",
                "tourism": "guest_house"
              },
              "geometry": {
                "type": "Point",
                "coordinates": [
                  16.5621863,
                  47.6942056
                ]
              }
            },
            {
              "type": "Feature",
              "properties": {
                "id": "10972466004",
                "osm_type": "node",
                "lat": 47.6879965,
                "lon": 16.5945127,
                "addr:city": "Sopron",
                "addr:housenumber": "1",
                "addr:postcode": "9400",
                "addr:street": "Szent Mihály utca",
                "contact:email": "sopron@florand.hu",
                "name": "Florand Rooms&Wine",
                "phone": "+36 99 796 870",
                "tourism": "guest_house",
                "website": "https://florand.hu"
              },
              "geometry": {
                "type": "Point",
                "coordinates": [
                  16.5945127,
                  47.6879965
                ]
              }
            }
          ],
          "children": []
        },
        {
          "bbox": {
            "south": 47.529588375,
            "west": 16.68372825,
            "north": 47.694865,
            "east": 17.16058
          },
          "poiCount": 19,
          "leafCount": 19,
          "averagePosition": [
            16.818844994736843,
            47.618469284210526
          ],
          "data": [
            {
              "type": "Feature",
              "properties": {
                "id": "2313025732",
                "osm_type": "node",
                "lat": 47.6196229,
                "lon": 16.8636792,
                "addr:city": "Fertőd",
                "addr:housenumber": "10",
                "addr:postcode": "9431",
                "addr:street": "Fő út",
                "name": "Rábensteiner Panzió",
                "tourism": "guest_house"
              },
              "geometry": {
                "type": "Point",
                "coordinates": [
                  16.8636792,
                  47.6196229
                ]
              }
            },
            {
              "type": "Feature",
              "properties": {
                "id": "2313026103",
                "osm_type": "node",
                "lat": 47.6234884,
                "lon": 16.8665645,
                "tourism": "hostel"
              },
              "geometry": {
                "type": "Point",
                "coordinates": [
                  16.8665645,
                  47.6234884
                ]
              }
            },
            {
              "type": "Feature",
              "properties": {
                "id": "2313026750",
                "osm_type": "node",
                "lat": 47.6227282,
                "lon": 16.8655842,
                "addr:city": "Sarród",
                "addr:housenumber": "57/A",
                "addr:postcode": "9435",
                "addr:street": "Kossuth Lajos utca",
                "contact:email": "info@ujvaripanzio.hu",
                "guest_house": "bed_and_breakfast",
                "name": "Újvári vendégház",
                "phone": "+36 99 537 097",
                "tourism": "guest_house"
              },
              "geometry": {
                "type": "Point",
                "coordinates": [
                  16.8655842,
                  47.6227282
                ]
              }
            },
            {
              "type": "Feature",
              "properties": {
                "id": "2335600857",
                "osm_type": "node",
                "lat": 47.6193182,
                "lon": 16.8748325,
                "addr:city": "Fertőd",
                "addr:housenumber": "2",
                "addr:postcode": "9431",
                "addr:street": "Kertész köz",
                "fixme": "verify location",
                "name": "Nóra Vendégház",
                "tourism": "guest_house"
              },
              "geometry": {
                "type": "Point",
                "coordinates": [
                  16.8748325,
                  47.6193182
                ]
              }
            },
            {
              "type": "Feature",
              "properties": {
                "id": "3466253177",
                "osm_type": "node",
                "lat": 47.626233,
                "lon": 16.742017,
                "addr:city": "Hidegség",
                "addr:housenumber": "5",
                "addr:postcode": "9491",
                "addr:street": "Petőfi Sándor utca",
                "fixme": "resurvey (source was old)",
                "guest_house": "bed_and_breakfast",
                "name": "Büszke Tanya panzió",
                "phone": "+36 99 540 046",
                "source": "turistautak.hu",
                "source:date": "2008-05-14",
                "tourism": "guest_house",
                "url": "http://turistautak.hu/poi.php?id=9133",
                "website": "http://www.iranymagyarorszag.hu/buszke_tanya_etterem_panzio/I306710/"
              },
              "geometry": {
                "type": "Point",
                "coordinates": [
                  16.742017,
                  47.626233
                ]
              }
            },
            {
              "type": "Feature",
              "properties": {
                "id": "3466253179",
                "osm_type": "node",
                "lat": 47.6050666,
                "lon": 16.6969528,
                "addr:city": "Nagycenk",
                "addr:postcode": "9485",
                "addr:street": "Soproni utca",
                "name": "Classic Étterem Panzió",
                "source": "turistautak.hu",
                "source:date": "2013-01-20",
                "tourism": "guest_house",
                "url": "http://turistautak.hu/poi.php?id=42987"
              },
              "geometry": {
                "type": "Point",
                "coordinates": [
                  16.6969528,
                  47.6050666
                ]
              }
            },
            {
              "type": "Feature",
              "properties": {
                "id": "3466253925",
                "osm_type": "node",
                "lat": 47.6253949,
                "lon": 16.7405118,
                "name": "Szent-András Fogadó",
                "source": "turistautak.hu",
                "source:date": "2008-05-14",
                "tourism": "guest_house",
                "url": "http://turistautak.hu/poi.php?id=487"
              },
              "geometry": {
                "type": "Point",
                "coordinates": [
                  16.7405118,
                  47.6253949
                ]
              }
            },
            {
              "type": "Feature",
              "properties": {
                "id": "3466253930",
                "osm_type": "node",
                "lat": 47.6335687,
                "lon": 16.8598592,
                "addr:city": "Sarród",
                "addr:housenumber": "2",
                "addr:postcode": "9435",
                "addr:street": "Petőfi tér",
                "contact:email": "parkpanzio@t-online.hu",
                "contact:mobile": "+36 20 282 5956",
                "contact:phone": "+36 99 371 531",
                "contact:website": "http://parkpanzio.hu/",
                "name": "Park Panzió",
                "tourism": "guest_house"
              },
              "geometry": {
                "type": "Point",
                "coordinates": [
                  16.8598592,
                  47.6335687
                ]
              }
            },
            {
              "type": "Feature",
              "properties": {
                "id": "3466253949",
                "osm_type": "node",
                "lat": 47.5950781,
                "lon": 16.8906389,
                "addr:city": "Petőháza",
                "addr:postcode": "9443",
                "addr:street": "Kinizsi Pál utca",
                "name": "Sport Panzió 30-5304462",
                "source": "turistautak.hu",
                "source:date": "2011-01-08",
                "tourism": "guest_house",
                "url": "http://turistautak.hu/poi.php?id=105176"
              },
              "geometry": {
                "type": "Point",
                "coordinates": [
                  16.8906389,
                  47.5950781
                ]
              }
            },
            {
              "type": "Feature",
              "properties": {
                "id": "3466253961",
                "osm_type": "node",
                "lat": 47.597282,
                "lon": 16.919245,
                "name": "Tercia Étterem Panzió 5000/2fő",
                "phone": "+36 99 544 640",
                "source": "turistautak.hu",
                "source:date": "2015-01-15",
                "tourism": "guest_house",
                "url": "http://turistautak.hu/poi.php?id=105173",
                "website": "https://www.terciarestaurants.hu/"
              },
              "geometry": {
                "type": "Point",
                "coordinates": [
                  16.919245,
                  47.597282
                ]
              }
            },
            {
              "type": "Feature",
              "properties": {
                "id": "3466299221",
                "osm_type": "node",
                "lat": 47.590483,
                "lon": 17.015117,
                "email": "axter.vendeghaz@axter.hu",
                "fixme": "resurvey (source was old)",
                "name": "Axter vendégház",
                "phone": "+36 96 240 057",
                "source": "turistautak.hu",
                "source:date": "2008-02-12",
                "tourism": "guest_house",
                "url": "http://turistautak.hu/poi.php?id=7125",
                "website": "http://www.axter.hu/"
              },
              "geometry": {
                "type": "Point",
                "coordinates": [
                  17.015117,
                  47.590483
                ]
              }
            },
            {
              "type": "Feature",
              "properties": {
                "id": "3500581567",
                "osm_type": "node",
                "lat": 47.620552,
                "lon": 16.7897433,
                "addr:city": "Hegykő",
                "addr:housenumber": "1",
                "addr:postcode": "9437",
                "addr:street": "Alsószer utca",
                "cuisine": "regional",
                "name": "Marben",
                "phone": "+3699540250",
                "smoking": "no",
                "takeaway": "yes",
                "tourism": "guest_house",
                "website": "https://www.marben.hu/"
              },
              "geometry": {
                "type": "Point",
                "coordinates": [
                  16.7897433,
                  47.620552
                ]
              }
            },
            {
              "type": "Feature",
              "properties": {
                "id": "8363958049",
                "osm_type": "node",
                "lat": 47.6207919,
                "lon": 16.7893367,
                "addr:city": "Hegykő",
                "addr:housenumber": "1",
                "addr:postcode": "9437",
                "addr:street": "Patak utca",
                "internet_access": "yes",
                "name": "Szanyi vendégház",
                "phone": "+36309294735",
                "tourism": "guest_house",
                "website": "http://www.szanyivendeghaz.hu/"
              },
              "geometry": {
                "type": "Point",
                "coordinates": [
                  16.7893367,
                  47.6207919
                ]
              }
            },
            {
              "type": "Feature",
              "properties": {
                "id": "9294678564",
                "osm_type": "node",
                "lat": 47.6161395,
                "lon": 16.8790607,
                "addr:city": "Fertőd",
                "addr:housenumber": "61",
                "addr:postcode": "9431",
                "addr:street": "Szent István utca",
                "name": "Kúria vendégház",
                "tourism": "guest_house"
              },
              "geometry": {
                "type": "Point",
                "coordinates": [
                  16.8790607,
                  47.6161395
                ]
              }
            },
            {
              "type": "Feature",
              "properties": {
                "id": "9483560582",
                "osm_type": "node",
                "lat": 47.6212655,
                "lon": 16.7859728,
                "addr:city": "Hegykő",
                "addr:postcode": "9437",
                "addr:street": "Kossuth Lajos utca",
                "name": "Party panzió",
                "tourism": "guest_house"
              },
              "geometry": {
                "type": "Point",
                "coordinates": [
                  16.7859728,
                  47.6212655
                ]
              }
            },
            {
              "type": "Feature",
              "properties": {
                "id": "9484001009",
                "osm_type": "node",
                "lat": 47.6234308,
                "lon": 16.7948457,
                "addr:city": "Hegykő",
                "addr:postcode": "9437",
                "addr:street": "Fertő utca",
                "name": "Filoméne vendégház",
                "tourism": "guest_house"
              },
              "geometry": {
                "type": "Point",
                "coordinates": [
                  16.7948457,
                  47.6234308
                ]
              }
            },
            {
              "type": "Feature",
              "properties": {
                "id": "9487407785",
                "osm_type": "node",
                "lat": 47.6201103,
                "lon": 16.7854871,
                "name": "Margaréta vendégház",
                "tourism": "guest_house"
              },
              "geometry": {
                "type": "Point",
                "coordinates": [
                  16.7854871,
                  47.6201103
                ]
              }
            },
            {
              "type": "Feature",
              "properties": {
                "id": "9543420696",
                "osm_type": "node",
                "lat": 47.6347058,
                "lon": 16.7002343,
                "addr:city": "Fertőboz",
                "addr:housenumber": "12",
                "addr:postcode": "9493",
                "addr:street": "Mise út",
                "guest_house": "bed_and_breakfast",
                "name": "Kilátó panzió",
                "tourism": "guest_house"
              },
              "geometry": {
                "type": "Point",
                "coordinates": [
                  16.7002343,
                  47.6347058
                ]
              }
            },
            {
              "type": "Feature",
              "properties": {
                "id": "10302231208",
                "osm_type": "node",
                "lat": 47.6356566,
                "lon": 16.6983722,
                "addr:city": "Fertőboz",
                "addr:housenumber": "11",
                "addr:postcode": "9493",
                "addr:street": "Fő utca",
                "guest_house": "bed_and_breakfast",
                "phone": "+36203420788",
                "tourism": "guest_house",
                "website": "https://www.gloriett.hu/"
              },
              "geometry": {
                "type": "Point",
                "coordinates": [
                  16.6983722,
                  47.6356566
                ]
              }
            }
          ],
          "children": []
        }
      ]
    }
  ]
}