{
  "bbox": {
    "south": 47.694865,
    "west": 9.530952,
    "north": 48.355971499999995,
    "east": 11.438358999999998
  },
  "poiCount": 188,
  "leafCount": 0,
  "averagePosition": [
    10.600850634042553,
    47.9587349175532
  ],
  "data": [],
  "children": [
    {
      "bbox": {
        "south": 47.694865,
        "west": 9.530952,
        "north": 48.02541825,
        "east": 10.484655499999999
      },
      "poiCount": 50,
      "leafCount": 50,
      "averagePosition": [
        10.11569735,
        47.83181755
      ],
      "data": [
        {
          "type": "Feature",
          "properties": {
            "id": "2721389290",
            "osm_type": "node",
            "lat": 47.7839036,
            "lon": 9.6117699,
            "addr:city": "Ravensburg",
            "addr:country": "DE",
            "addr:housenumber": "32",
            "addr:postcode": "88212",
            "addr:street": "Charlottenstraße",
            "email": "wobantle@gmx.de",
            "guest_house": "guest_house",
            "internet_access": "yes",
            "internet_access:fee": "customers",
            "name": "Gästehaus Bantle",
            "operator": "Fabian und Samantha Bantle",
            "phone": "+49 178 8885067",
            "rooms": "6",
            "tourism": "guest_house",
            "website": "https://www.bantleferienwohnung.de/gaestehaus-ravensburg/"
          },
          "geometry": {
            "type": "Point",
            "coordinates": [
              9.6117699,
              47.7839036
            ]
          }
        },
        {
          "type": "Feature",
          "properties": {
            "id": "9741656654",
            "osm_type": "node",
            "lat": 47.8389163,
            "lon": 9.5957421,
            "name": "Gasthaus Hirsch",
            "tourism": "guest_house"
          },
          "geometry": {
            "type": "Point",
            "coordinates": [
              9.5957421,
              47.8389163
            ]
          }
        },
        {
          "type": "Feature",
          "properties": {
            "id": "10771977371",
            "osm_type": "node",
            "lat": 47.7335563,
            "lon": 9.9769313,
            "leisure": "horse_riding",
            "name": "Ferien- und Reiterhof Bareth",
            "tourism": "guest_house",
            "website": "https://www.reiterhof-bareth.de/"
          },
          "geometry": {
            "type": "Point",
            "coordinates": [
              9.9769313,
              47.7335563
            ]
          }
        },
        {
          "type": "Feature",
          "properties": {
            "id": "388398269",
            "osm_type": "node",
            "lat": 47.8698733,
            "lon": 10.1945439,
            "addr:city": "Bad Grönenbach",
            "addr:country": "DE",
            "addr:housenumber": "2",
            "addr:postcode": "87730",
            "addr:street": "Rechberg",
            "check_date": "2025-02-22",
            "name": "Naturfreundehaus Rechberghaus",
            "operator": "NaturFreunde Deutschland",
            "ref": "N 082",
            "source": "Datenspende der NaturFreunde Deutschland",
            "tourism": "hostel"
          },
          "geometry": {
            "type": "Point",
            "coordinates": [
              10.1945439,
              47.8698733
            ]
          }
        },
        {
          "type": "Feature",
          "properties": {
            "id": "703837539",
            "osm_type": "node",
            "lat": 47.8400708,
            "lon": 10.3011794,
            "addr:city": "Dietmannsried",
            "addr:housenumber": "14",
            "addr:postcode": "87463",
            "addr:street": "Alte Poststraße",
            "addr:suburb": "Schrattenbach",
            "name": "Allgäublick, Fam. Krug",
            "tourism": "guest_house"
          },
          "geometry": {
            "type": "Point",
            "coordinates": [
              10.3011794,
              47.8400708
            ]
          }
        },
        {
          "type": "Feature",
          "properties": {
            "id": "864861948",
            "osm_type": "node",
            "lat": 47.7223988,
            "lon": 10.3109471,
            "check_date": "2024-05-01",
            "name": "KemptenCityHost",
            "tourism": "guest_house",
            "website": "https://www.kemptencityhost.de/"
          },
          "geometry": {
            "type": "Point",
            "coordinates": [
              10.3109471,
              47.7223988
            ]
          }
        },
        {
          "type": "Feature",
          "properties": {
            "id": "1107618918",
            "osm_type": "node",
            "lat": 47.8714726,
            "lon": 10.3205903,
            "addr:city": "Böhen",
            "addr:housenumber": "2a",
            "addr:place": "Rechberg",
            "name": "Ferienhof",
            "tourism": "guest_house"
          },
          "geometry": {
            "type": "Point",
            "coordinates": [
              10.3205903,
              47.8714726
            ]
          }
        },
        {
          "type": "Feature",
          "properties": {
            "id": "1849667252",
            "osm_type": "node",
            "lat": 47.6964391,
            "lon": 10.3466578,
            "name": "Hotel Garni zur Post",
            "name:ru": "Дом",
            "tourism": "hostel"
          },
          "geometry": {
            "type": "Point",
            "coordinates": [
              10.3466578,
              47.6964391
            ]
          }
        },
        {
          "type": "Feature",
          "properties": {
            "id": "2405894044",
            "osm_type": "node",
            "lat": 47.7109695,
            "lon": 10.2473835,
            "name": "Ferienhof Mader",
            "tourism": "guest_house",
            "website": "https://www.ferienhof-mader.de/"
          },
          "geometry": {
            "type": "Point",
            "coordinates": [
              10.2473835,
              47.7109695
            ]
          }
        },
        {
          "type": "Feature",
          "properties": {
            "id": "3631783224",
            "osm_type": "node",
            "lat": 47.862793,
            "lon": 10.0676651,
            "addr:city": "Leutkirch im Allgäu",
            "addr:country": "DE",
            "addr:housenumber": "19",
            "addr:postcode": "88299",
            "addr:street": "Oberer Ölweg",
            "addr:suburb": "Ottmannshofen",
            "email": "gaestehaus.boneberg@t-online.de",
            "name": "Gästehaus Boneberg",
            "operator": "Fam. Boneberg",
            "phone": "+49 7565 914581",
            "smoking": "no",
            "tourism": "guest_house",
            "website": "https://www.gaestehaus-boneberg.de/"
          },
          "geometry": {
            "type": "Point",
            "coordinates": [
              10.0676651,
              47.862793
            ]
          }
        },
        {
          "type": "Feature",
          "properties": {
            "id": "3741952730",
            "osm_type": "node",
            "lat": 47.817512,
            "lon": 10.3318219,
            "internet_access": "wlan",
            "name": "Pension & Gästehaus Sonner",
            "source": "local knowledge",
            "tourism": "guest_house"
          },
          "geometry": {
            "type": "Point",
            "coordinates": [
              10.3318219,
              47.817512
            ]
          }
        },
        {
          "type": "Feature",
          "properties": {
            "id": "5010028721",
            "osm_type": "node",
            "lat": 47.8375321,
            "lon": 10.4180444,
            "addr:city": "Obergünzburg",
            "addr:country": "DE",
            "addr:housenumber": "2",
            "addr:place": "Eschenloh",
            "addr:postcode": "87634",
            "email": "info@hotel-marianne.de",
            "fax": "+49 8372 2452",
            "internet_access": "wlan",
            "internet_access:fee": "no",
            "name": "Pension Marianne",
            "phone": "+49 8372 2052",
            "smoking": "no",
            "tourism": "guest_house",
            "website": "https://www.hotel-marianne.de/"
          },
          "geometry": {
            "type": "Point",
            "coordinates": [
              10.4180444,
              47.8375321
            ]
          }
        },
        {
          "type": "Feature",
          "properties": {
            "id": "5065615964",
            "osm_type": "node",
            "lat": 47.722481,
            "lon": 10.306484,
            "name": "Städt. Schülerinnen- und Studentinnenwohnheim",
            "tourism": "hostel"
          },
          "geometry": {
            "type": "Point",
            "coordinates": [
              10.306484,
              47.722481
            ]
          }
        },
        {
          "type": "Feature",
          "properties": {
            "id": "5065651256",
            "osm_type": "node",
            "lat": 47.7177709,
            "lon": 10.3191015,
            "check_date": "2025-04-05",
            "name": "Studentenwohnheim \"GreenLivingInn\"",
            "tourism": "hostel",
            "wheelchair": "yes"
          },
          "geometry": {
            "type": "Point",
            "coordinates": [
              10.3191015,
              47.7177709
            ]
          }
        },
        {
          "type": "Feature",
          "properties": {
            "id": "5065658129",
            "osm_type": "node",
            "lat": 47.7185383,
            "lon": 10.3184257,
            "name": "Studentenwohnheim \"Kemp40\"",
            "tourism": "hostel",
            "wheelchair": "no"
          },
          "geometry": {
            "type": "Point",
            "coordinates": [
              10.3184257,
              47.7185383
            ]
          }
        },
        {
          "type": "Feature",
          "properties": {
            "id": "5065692124",
            "osm_type": "node",
            "lat": 47.7239988,
            "lon": 10.3232061,
            "name": "Studentenwohnheim Sozialbau",
            "tourism": "hostel",
            "wheelchair": "yes"
          },
          "geometry": {
            "type": "Point",
            "coordinates": [
              10.3232061,
              47.7239988
            ]
          }
        },
        {
          "type": "Feature",
          "properties": {
            "id": "5065692295",
            "osm_type": "node",
            "lat": 47.7245143,
            "lon": 10.3226558,
            "name": "Studentenwohnheim Sozialbau",
            "tourism": "hostel"
          },
          "geometry": {
            "type": "Point",
            "coordinates": [
              10.3226558,
              47.7245143
            ]
          }
        },
        {
          "type": "Feature",
          "properties": {
            "id": "5065697330",
            "osm_type": "node",
            "lat": 47.7144287,
            "lon": 10.3116035,
            "name": "Studentenwohnheim Sozialbau",
            "tourism": "hostel"
          },
          "geometry": {
            "type": "Point",
            "coordinates": [
              10.3116035,
              47.7144287
            ]
          }
        },
        {
          "type": "Feature",
          "properties": {
            "id": "5065699361",
            "osm_type": "node",
            "lat": 47.7142421,
            "lon": 10.3116419,
            "name": "Studentenwohnheim Sozialbau",
            "tourism": "hostel"
          },
          "geometry": {
            "type": "Point",
            "coordinates": [
              10.3116419,
              47.7142421
            ]
          }
        },
        {
          "type": "Feature",
          "properties": {
            "id": "5065699504",
            "osm_type": "node",
            "lat": 47.7141586,
            "lon": 10.3113231,
            "name": "Studentenwohnheim Sozialbau",
            "tourism": "hostel",
            "wheelchair": "no"
          },
          "geometry": {
            "type": "Point",
            "coordinates": [
              10.3113231,
              47.7141586
            ]
          }
        },
        {
          "type": "Feature",
          "properties": {
            "id": "5065729734",
            "osm_type": "node",
            "lat": 47.7308987,
            "lon": 10.3104431,
            "name": "Studentenwohnheim Sozialbau",
            "tourism": "hostel"
          },
          "geometry": {
            "type": "Point",
            "coordinates": [
              10.3104431,
              47.7308987
            ]
          }
        },
        {
          "type": "Feature",
          "properties": {
            "id": "5065729735",
            "osm_type": "node",
            "lat": 47.7236127,
            "lon": 10.3219322,
            "name": "Studentenwohnheim Sozialbau",
            "tourism": "hostel"
          },
          "geometry": {
            "type": "Point",
            "coordinates": [
              10.3219322,
              47.7236127
            ]
          }
        },
        {
          "type": "Feature",
          "properties": {
            "id": "5065734541",
            "osm_type": "node",
            "lat": 47.7245246,
            "lon": 10.3186386,
            "name": "Studentenwohnheim Sozialbau",
            "tourism": "hostel"
          },
          "geometry": {
            "type": "Point",
            "coordinates": [
              10.3186386,
              47.7245246
            ]
          }
        },
        {
          "type": "Feature",
          "properties": {
            "id": "5065743988",
            "osm_type": "node",
            "lat": 47.712795,
            "lon": 10.3136138,
            "check_date": "2025-01-02",
            "name": "Studentenwohnheim Sozialbau",
            "tourism": "hostel",
            "wheelchair": "no"
          },
          "geometry": {
            "type": "Point",
            "coordinates": [
              10.3136138,
              47.712795
            ]
          }
        },
        {
          "type": "Feature",
          "properties": {
            "id": "5091701136",
            "osm_type": "node",
            "lat": 47.8709829,
            "lon": 10.1973148,
            "addr:city": "Bad Grönenbach",
            "addr:housenumber": "17",
            "addr:place": "Rothmoos",
            "addr:postcode": "87730",
            "description": "Telefon nur von 12-13 Uhr Ferienhaus 17 € / Tag / Person Belegung ab 4 Personen",
            "internet_access": "no",
            "name": "Rothmooser Rechbergalp",
            "phone": "+49 83346114",
            "smoking": "outside",
            "tourism": "hostel"
          },
          "geometry": {
            "type": "Point",
            "coordinates": [
              10.1973148,
              47.8709829
            ]
          }
        },
        {
          "type": "Feature",
          "properties": {
            "id": "6071581462",
            "osm_type": "node",
            "lat": 47.803381,
            "lon": 10.405628,
            "contact:phone": "+49 8304 923377",
            "contact:website": "http://www.seminarhaus-allgaeu.de",
            "internet_access": "no",
            "name": "Seminarhaus Allgäu - Der Schnaithof",
            "tourism": "guest_house"
          },
          "geometry": {
            "type": "Point",
            "coordinates": [
              10.405628,
              47.803381
            ]
          }
        },
        {
          "type": "Feature",
          "properties": {
            "id": "8520159879",
            "osm_type": "node",
            "lat": 47.7261667,
            "lon": 10.2517577,
            "addr:city": "Wiggensbach",
            "addr:housenumber": "2",
            "addr:postcode": "87487",
            "addr:street": "Römerstraße",
            "email": "info@alte-saege.de",
            "guest_house": "bed_and_breakfast",
            "internet_access": "wlan",
            "name": "Landgasthof Alte Säge",
            "operator": "Michael Schlottmann",
            "phone": "+49 8370 929990",
            "rooms": "4",
            "tourism": "guest_house",
            "website": "https://www.alte-saege.de/",
            "wheelchair": "yes"
          },
          "geometry": {
            "type": "Point",
            "coordinates": [
              10.2517577,
              47.7261667
            ]
          }
        },
        {
          "type": "Feature",
          "properties": {
            "id": "8989891514",
            "osm_type": "node",
            "lat": 47.8432406,
            "lon": 10.3799877,
            "name": "Haus Immerfroh",
            "tourism": "guest_house"
          },
          "geometry": {
            "type": "Point",
            "coordinates": [
              10.3799877,
              47.8432406
            ]
          }
        },
        {
          "type": "Feature",
          "properties": {
            "id": "10572927245",
            "osm_type": "node",
            "lat": 47.8137967,
            "lon": 10.0727758,
            "addr:city": "Leutkirch im Allgäu",
            "addr:country": "DE",
            "addr:housenumber": "1",
            "addr:postcode": "88299",
            "addr:street": "Am Bächle",
            "mobile": "+49 174 1994653",
            "name": "Haus Karola-Fellner",
            "source": "Datenübernahme von Gebäude",
            "tourism": "guest_house",
            "website": "http://hauskarola.de/"
          },
          "geometry": {
            "type": "Point",
            "coordinates": [
              10.0727758,
              47.8137967
            ]
          }
        },
        {
          "type": "Feature",
          "properties": {
            "id": "10603696067",
            "osm_type": "node",
            "lat": 47.7645461,
            "lon": 10.0978357,
            "addr:city": "Leutkirch im Allgäu",
            "addr:country": "DE",
            "addr:housenumber": "7",
            "addr:postcode": "88299",
            "addr:street": "Winterstetten",
            "addr:suburb": "Winterstetten",
            "contact:email": "micholina@freenet.de",
            "contact:phone": "+49 7567 770",
            "contact:website": "http://www.altepost-winterstetten.de/Home",
            "name": "Alte Post",
            "source": "Datenübernahme von Gebäude",
            "tourism": "guest_house"
          },
          "geometry": {
            "type": "Point",
            "coordinates": [
              10.0978357,
              47.7645461
            ]
          }
        },
        {
          "type": "Feature",
          "properties": {
            "id": "10753900842",
            "osm_type": "node",
            "lat": 47.8230802,
            "lon": 10.0369341,
            "addr:city": "Leutkirch im Allgäu",
            "addr:country": "DE",
            "addr:housenumber": "53",
            "addr:postcode": "88299",
            "addr:street": "Kemptener Straße",
            "check_date": "2024-04-11",
            "email": "info@bayrischer-hof.com",
            "internet_access": "wlan",
            "internet_access:fee": "customers",
            "name": "Bayrischer Hof",
            "opening_hours": "Mo off; Tu-Sa 11:00-22:00; Su 11:00-16:00",
            "opening_hours:kitchen": "Mo off; Tu-Sa 11:30-13:30,17:30-20:30; Su 11:30-13:30",
            "outdoor_seating": "yes",
            "phone": "+49 7561 3742",
            "reservation": "yes",
            "source": "Datenübernahme von Gebäude",
            "tourism": "guest_house",
            "website": "https://www.bayrischer-hof.com/"
          },
          "geometry": {
            "type": "Point",
            "coordinates": [
              10.0369341,
              47.8230802
            ]
          }
        },
        {
          "type": "Feature",
          "properties": {
            "id": "11516081764",
            "osm_type": "node",
            "lat": 47.8536232,
            "lon": 10.4268328,
            "addr:city": "Obergünzburg",
            "addr:country": "DE",
            "addr:housenumber": "29",
            "addr:postcode": "87634",
            "addr:street": "Rotleitenstraße",
            "guest_house": "hostel",
            "name": "Hostel Simic",
            "tourism": "hostel"
          },
          "geometry": {
            "type": "Point",
            "coordinates": [
              10.4268328,
              47.8536232
            ]
          }
        },
        {
          "type": "Feature",
          "properties": {
            "id": "11769071560",
            "osm_type": "node",
            "lat": 47.6990261,
            "lon": 10.3387164,
            "addr:city": "Durach",
            "addr:housenumber": "8",
            "addr:postcode": "87471",
            "addr:street": "Am Sonnenhang",
            "email": "info@gaestehaussonja.de",
            "name": "Gästehaus Sonja",
            "phone": "+49 171 3101029",
            "tourism": "guest_house",
            "website": "https://gaestehaussonja.de"
          },
          "geometry": {
            "type": "Point",
            "coordinates": [
              10.3387164,
              47.6990261
            ]
          }
        },
        {
          "type": "Feature",
          "properties": {
            "id": "61273069",
            "osm_type": "node",
            "lat": 47.9546014,
            "lon": 9.6299046,
            "addr:city": "Aulendorf",
            "addr:housenumber": "10",
            "addr:postcode": "88326",
            "addr:street": "Marienbühlstraße",
            "amenity": "events_venue",
            "name": "Schönstatt-Zentrum",
            "operator": "Michaelsgemeinschaft Aulendorf e. V.",
            "phone": "+49 7525 9234 0",
            "tourism": "guest_house",
            "website": "https://www.schoenstatt-aulendorf.de/",
            "wheelchair": "yes"
          },
          "geometry": {
            "type": "Point",
            "coordinates": [
              9.6299046,
              47.9546014
            ]
          }
        },
        {
          "type": "Feature",
          "properties": {
            "id": "1577364854",
            "osm_type": "node",
            "lat": 48.0038313,
            "lon": 9.5727885,
            "addr:city": "Bad Saulgau",
            "addr:country": "DE",
            "addr:housenumber": "37",
            "addr:postcode": "88348",
            "addr:street": "Hochstraße",
            "addr:suburb": "Renhardsweiler",
            "contact:phone": "+49 7581 48740",
            "contact:website": "http://www.zumhasen.de",
            "lastcheck": "2016-05-21",
            "name": "Landhotel Zum Hasen",
            "tourism": "guest_house"
          },
          "geometry": {
            "type": "Point",
            "coordinates": [
              9.5727885,
              48.0038313
            ]
          }
        },
        {
          "type": "Feature",
          "properties": {
            "id": "1944822545",
            "osm_type": "node",
            "lat": 47.9194016,
            "lon": 9.7577081,
            "addr:city": "Bad Waldsee",
            "addr:country": "DE",
            "addr:housenumber": "30",
            "addr:postcode": "88339",
            "addr:street": "Wurzacher Straße",
            "check_date": "2025-09-12",
            "name": "Gästehaus Rössle",
            "tourism": "guest_house",
            "website": "https://gaestehaus-roessle.com/"
          },
          "geometry": {
            "type": "Point",
            "coordinates": [
              9.7577081,
              47.9194016
            ]
          }
        },
        {
          "type": "Feature",
          "properties": {
            "id": "2441725989",
            "osm_type": "node",
            "lat": 47.9285764,
            "lon": 9.6180254,
            "access": "private",
            "addr:city": "Aulendorf",
            "addr:housenumber": "24",
            "addr:postcode": "88326",
            "addr:street": "Dobelmühle",
            "check_date": "2025-03-28",
            "description": "Gruppenhaus mit Zeltplatz",
            "guest_house": "groupaccomodation",
            "name": "Dobelmühle",
            "operator": "Dobelmühle gGmbH",
            "phone": "+49 7525 8188",
            "tourism": "hostel",
            "website": "https://www.dobelmuehle.de/"
          },
          "geometry": {
            "type": "Point",
            "coordinates": [
              9.6180254,
              47.9285764
            ]
          }
        },
        {
          "type": "Feature",
          "properties": {
            "id": "3925700363",
            "osm_type": "node",
            "lat": 47.9294266,
            "lon": 9.5430774,
            "addr:city": "Altshausen",
            "addr:housenumber": "63",
            "addr:postcode": "88361",
            "addr:street": "Hindenburgstraße",
            "name": "Fahrrad",
            "smoking": "no",
            "tourism": "guest_house",
            "website": "https://www.gasthaus-fahrrad.de/"
          },
          "geometry": {
            "type": "Point",
            "coordinates": [
              9.5430774,
              47.9294266
            ]
          }
        },
        {
          "type": "Feature",
          "properties": {
            "id": "4425280643",
            "osm_type": "node",
            "lat": 47.9593815,
            "lon": 9.6517655,
            "name": "Hofgut Tiergarten",
            "phone": "+49 7525 913190",
            "tourism": "guest_house",
            "website": "https://www.hofgut-tiergarten.com/apartments/",
            "wheelchair": "yes"
          },
          "geometry": {
            "type": "Point",
            "coordinates": [
              9.6517655,
              47.9593815
            ]
          }
        },
        {
          "type": "Feature",
          "properties": {
            "id": "4680070756",
            "osm_type": "node",
            "lat": 48.0182656,
            "lon": 9.5318548,
            "addr:city": "Bad Saulgau",
            "addr:country": "DE",
            "addr:housenumber": "34",
            "addr:postcode": "88348",
            "addr:street": "St.-Bruno-Straße",
            "email": "info@oberamerhof.de",
            "fax": "+49 7581 4892 32",
            "name": "Oberamer Hof",
            "operator": "Familie Weiß",
            "phone": "+49 7581 4892 0",
            "tourism": "guest_house",
            "website": "https://www.oberamerhof.de/"
          },
          "geometry": {
            "type": "Point",
            "coordinates": [
              9.5318548,
              48.0182656
            ]
          }
        },
        {
          "type": "Feature",
          "properties": {
            "id": "7340106268",
            "osm_type": "node",
            "lat": 47.9476877,
            "lon": 9.7576095,
            "addr:city": "Bad Waldsee",
            "addr:housenumber": "3",
            "addr:place": "Mattenhaus",
            "email": "info@hotel-kreuz.de",
            "name": "Landgasthof Kreuz",
            "payment:apple_pay": "yes",
            "payment:cash": "yes",
            "payment:contactless": "yes",
            "payment:girocard": "yes",
            "payment:google_pay": "yes",
            "payment:maestro": "yes",
            "payment:mastercard": "yes",
            "payment:v_pay": "yes",
            "payment:visa": "yes",
            "phone": "+49 7524 97 57 0",
            "source": "Datenübernahme von Gebäude",
            "tourism": "guest_house",
            "website": "https://www.hotel-kreuz.de/"
          },
          "geometry": {
            "type": "Point",
            "coordinates": [
              9.7576095,
              47.9476877
            ]
          }
        },
        {
          "type": "Feature",
          "properties": {
            "id": "10874105940",
            "osm_type": "node",
            "lat": 48.0018381,
            "lon": 9.6493988,
            "addr:city": "Bad Schussenried",
            "addr:housenumber": "11",
            "addr:postcode": "88427",
            "addr:street": "Zellerseeweg",
            "alt_name": "Humboldt-Jugendgästehaus ​​​​​​​​​Bad Schussenried",
            "email": "info@humboldt-jugendgaestehaus.de",
            "guest_house": "guest_house",
            "name": "Jugendgästehaus Bad Schussenried",
            "operator": "Humboldt-Institut e.V.",
            "tourism": "guest_house",
            "website": "https://www.humboldt-jugendgaestehaus.de/jgh/jugendgaestehaus-bad-schussenried"
          },
          "geometry": {
            "type": "Point",
            "coordinates": [
              9.6493988,
              48.0018381
            ]
          }
        },
        {
          "type": "Feature",
          "properties": {
            "id": "11232934554",
            "osm_type": "node",
            "lat": 47.9535412,
            "lon": 9.6407473,
            "name": "Reck",
            "tourism": "guest_house"
          },
          "geometry": {
            "type": "Point",
            "coordinates": [
              9.6407473,
              47.9535412
            ]
          }
        },
        {
          "type": "Feature",
          "properties": {
            "id": "1107636229",
            "osm_type": "node",
            "lat": 47.8745763,
            "lon": 10.2278604,
            "addr:city": "Bad Grönenbach",
            "addr:country": "DE",
            "addr:housenumber": "2",
            "addr:postcode": "87730",
            "addr:street": "Mozartstraße",
            "name": "Pension Tanne",
            "phone": "+49 8334 832",
            "tourism": "guest_house",
            "website": "https://www.schlemmertanne.de/"
          },
          "geometry": {
            "type": "Point",
            "coordinates": [
              10.2278604,
              47.8745763
            ]
          }
        },
        {
          "type": "Feature",
          "properties": {
            "id": "1239528059",
            "osm_type": "node",
            "lat": 47.9876633,
            "lon": 10.1820591,
            "check_date": "2025-06-12",
            "name": "Pension Erb",
            "tourism": "guest_house"
          },
          "geometry": {
            "type": "Point",
            "coordinates": [
              10.1820591,
              47.9876633
            ]
          }
        },
        {
          "type": "Feature",
          "properties": {
            "id": "3678889125",
            "osm_type": "node",
            "lat": 47.996326,
            "lon": 10.338365,
            "name": "BioPension Kirschenfee",
            "tourism": "guest_house"
          },
          "geometry": {
            "type": "Point",
            "coordinates": [
              10.338365,
              47.996326
            ]
          }
        },
        {
          "type": "Feature",
          "properties": {
            "id": "3714340377",
            "osm_type": "node",
            "lat": 47.9844375,
            "lon": 10.182688,
            "addr:city": "Memmingen",
            "addr:housenumber": "2",
            "addr:postcode": "87700",
            "addr:street": "Kuttelgasse",
            "name": "Apartment Storchenfärbe",
            "tourism": "guest_house"
          },
          "geometry": {
            "type": "Point",
            "coordinates": [
              10.182688,
              47.9844375
            ]
          }
        },
        {
          "type": "Feature",
          "properties": {
            "id": "6428261680",
            "osm_type": "node",
            "lat": 47.9033505,
            "lon": 10.1228245,
            "addr:city": "Kronburg",
            "addr:country": "DE",
            "addr:housenumber": "14",
            "addr:postcode": "87758",
            "addr:street": "Memminger Straße",
            "addr:suburb": "Illerbeuren",
            "email": "info@kammer.rest",
            "guest_house": "bed_and_breakfast",
            "internet_access": "wlan",
            "name": "d'Kammer",
            "phone": "+49 8394 926 44 77",
            "tourism": "guest_house",
            "website": "https://michael-staudinger111.jimdo.com/"
          },
          "geometry": {
            "type": "Point",
            "coordinates": [
              10.1228245,
              47.9033505
            ]
          }
        },
        {
          "type": "Feature",
          "properties": {
            "id": "9589142505",
            "osm_type": "node",
            "lat": 47.8825578,
            "lon": 10.4571226,
            "internet_access": "wlan",
            "name": "Bauernhaus Alya",
            "tourism": "guest_house"
          },
          "geometry": {
            "type": "Point",
            "coordinates": [
              10.4571226,
              47.8825578
            ]
          }
        },
        {
          "type": "Feature",
          "properties": {
            "id": "9752165121",
            "osm_type": "node",
            "lat": 47.9201701,
            "lon": 10.200939,
            "addr:city": "Woringen",
            "addr:housenumber": "8",
            "addr:postcode": "87789",
            "addr:street": "Altvaterstraße",
            "name": "Gästehaus Susanne",
            "phone": "+49 8331 4987330",
            "tourism": "guest_house",
            "website": "https://www.gaestehaus-susanne.de/"
          },
          "geometry": {
            "type": "Point",
            "coordinates": [
              10.200939,
              47.9201701
            ]
          }
        }
      ],
      "children": []
    },
    {
      "bbox": {
        "south": 47.694865,
        "west": 10.484655499999999,
        "north": 48.02541825,
        "east": 11.438358999999998
      },
      "poiCount": 70,
      "leafCount": 0,
      "averagePosition": [
        10.994402252857142,
        47.83238357571429
      ],
      "data": [],
      "children": [
        {
          "bbox": {
            "south": 47.694865,
            "west": 10.484655499999999,
            "north": 47.860141625,
            "east": 10.961507249999999
          },
          "poiCount": 25,
          "leafCount": 25,
          "averagePosition": [
            10.725002776000002,
            47.766794344
          ],
          "data": [
            {
              "type": "Feature",
              "properties": {
                "id": "267020284",
                "osm_type": "node",
                "lat": 47.8314934,
                "lon": 10.6379137,
                "name": "Gästehaus Talblick",
                "tourism": "guest_house"
              },
              "geometry": {
                "type": "Point",
                "coordinates": [
                  10.6379137,
                  47.8314934
                ]
              }
            },
            {
              "type": "Feature",
              "properties": {
                "id": "2626042200",
                "osm_type": "node",
                "lat": 47.818703,
                "lon": 10.5347661,
                "leisure": "sports_centre",
                "name": "Allgäuer Taucherhof",
                "phone": "+49 8343 527",
                "sport": "scuba_diving",
                "tourism": "guest_house",
                "website": "https://www.taucherhof.de/"
              },
              "geometry": {
                "type": "Point",
                "coordinates": [
                  10.5347661,
                  47.818703
                ]
              }
            },
            {
              "type": "Feature",
              "properties": {
                "id": "4111199563",
                "osm_type": "node",
                "lat": 47.7487282,
                "lon": 10.9323871,
                "name": "Kainz Hof",
                "tourism": "guest_house"
              },
              "geometry": {
                "type": "Point",
                "coordinates": [
                  10.9323871,
                  47.7487282
                ]
              }
            },
            {
              "type": "Feature",
              "properties": {
                "id": "4303625889",
                "osm_type": "node",
                "lat": 47.7487254,
                "lon": 10.9320445,
                "name": "Bioferien Martin Bleichner",
                "tourism": "hostel"
              },
              "geometry": {
                "type": "Point",
                "coordinates": [
                  10.9320445,
                  47.7487254
                ]
              }
            },
            {
              "type": "Feature",
              "properties": {
                "id": "4489459291",
                "osm_type": "node",
                "lat": 47.7745764,
                "lon": 10.6001829,
                "name": "Ella's Landoase",
                "operator": "Ella's Landoase",
                "tourism": "hostel"
              },
              "geometry": {
                "type": "Point",
                "coordinates": [
                  10.6001829,
                  47.7745764
                ]
              }
            },
            {
              "type": "Feature",
              "properties": {
                "id": "6377653063",
                "osm_type": "node",
                "lat": 47.8483406,
                "lon": 10.8991778,
                "addr:city": "Hohenfurch",
                "addr:country": "DE",
                "addr:housenumber": "1",
                "addr:postcode": "86978",
                "addr:street": "Bräuweg",
                "email": "haus.goetz@t-online.de",
                "fax": "+49 8861 2561861",
                "name": "Haus Götz",
                "operator": "Maria und Wilhelm Götz",
                "phone": "+49 8861 8593",
                "rooms": "2",
                "tourism": "guest_house",
                "website": "http://haus-goetz.info/"
              },
              "geometry": {
                "type": "Point",
                "coordinates": [
                  10.8991778,
                  47.8483406
                ]
              }
            },
            {
              "type": "Feature",
              "properties": {
                "id": "6379268735",
                "osm_type": "node",
                "lat": 47.8400148,
                "lon": 10.878396,
                "addr:city": "Altenstadt",
                "addr:country": "DE",
                "addr:housenumber": "2",
                "addr:postcode": "86972",
                "addr:street": "Burgstraße",
                "addr:suburb": "Schwabniederhofen",
                "email": "Gasthof-Janser@web.de",
                "name": "Gasthof Janser",
                "operator": "Danica Kramarić",
                "phone": "+49 8861 9087255",
                "tourism": "guest_house",
                "website": "https://www.gasthof-janser.com/"
              },
              "geometry": {
                "type": "Point",
                "coordinates": [
                  10.878396,
                  47.8400148
                ]
              }
            },
            {
              "type": "Feature",
              "properties": {
                "id": "6386644018",
                "osm_type": "node",
                "lat": 47.7037403,
                "lon": 10.7899167,
                "addr:city": "Lechbruck",
                "addr:country": "DE",
                "addr:housenumber": "12",
                "addr:postcode": "86983",
                "addr:street": "Auerbergweg",
                "name": "Auerberghaus - Bed & Breakfast",
                "operator": "Gabi Kellner",
                "phone": "+49 8862 932720",
                "tourism": "guest_house",
                "website": "https://www.auerberghaus.de/"
              },
              "geometry": {
                "type": "Point",
                "coordinates": [
                  10.7899167,
                  47.7037403
                ]
              }
            },
            {
              "type": "Feature",
              "properties": {
                "id": "7656479035",
                "osm_type": "node",
                "lat": 47.7003204,
                "lon": 10.8617471,
                "addr:city": "Steingaden",
                "addr:country": "DE",
                "addr:housenumber": "16",
                "addr:postcode": "86989",
                "addr:street": "Welfenstraße",
                "description": "Übernachten in historischen Gemäuern des ehem. Klosters Steingaden - Kreuzgewölbe und Tonnengewölbe - frisch renoviert.",
                "email": "pension@klosterpfortesteingaden.de",
                "guest_house": "pension",
                "internet_access": "yes",
                "internet_access:fee": "no",
                "name": "Pension Klosterpforte Steingaden",
                "operator": "Dr. Michael Barth",
                "rooms": "3",
                "tourism": "guest_house",
                "website": "http://klosterpfortesteingaden.de"
              },
              "geometry": {
                "type": "Point",
                "coordinates": [
                  10.8617471,
                  47.7003204
                ]
              }
            },
            {
              "type": "Feature",
              "properties": {
                "id": "8587068516",
                "osm_type": "node",
                "lat": 47.8318344,
                "lon": 10.6376618,
                "name": "Naturfreundehaus Kaufbeuren",
                "operator": "NaturFreunde Deutschland",
                "ref": "N 115",
                "source": "Datenspende der NaturFreunde Deutschland",
                "tourism": "hostel"
              },
              "geometry": {
                "type": "Point",
                "coordinates": [
                  10.6376618,
                  47.8318344
                ]
              }
            },
            {
              "type": "Feature",
              "properties": {
                "id": "8868063912",
                "osm_type": "node",
                "lat": 47.8151872,
                "lon": 10.8960262,
                "addr:city": "Schongau",
                "addr:country": "DE",
                "addr:housenumber": "27",
                "addr:postcode": "86956",
                "addr:street": "Bauerngasse",
                "guest_house": "guest_house",
                "internet_access": "yes",
                "internet_access:fee": "no",
                "name": "Ferienwohnung Refugio Schongau",
                "phone": "+49 8861 6909683",
                "rooms": "2",
                "tourism": "guest_house",
                "website": "http://www.refugio-schongau.de"
              },
              "geometry": {
                "type": "Point",
                "coordinates": [
                  10.8960262,
                  47.8151872
                ]
              }
            },
            {
              "type": "Feature",
              "properties": {
                "id": "9457473175",
                "osm_type": "node",
                "lat": 47.8213117,
                "lon": 10.6051833,
                "name": "Reiterhof Weber",
                "tourism": "guest_house",
                "website": "https://www.ferienhof-weber.de/"
              },
              "geometry": {
                "type": "Point",
                "coordinates": [
                  10.6051833,
                  47.8213117
                ]
              }
            },
            {
              "type": "Feature",
              "properties": {
                "id": "9733612655",
                "osm_type": "node",
                "lat": 47.7154175,
                "lon": 10.5549377,
                "name": "Gästehaus Berghof",
                "tourism": "guest_house"
              },
              "geometry": {
                "type": "Point",
                "coordinates": [
                  10.5549377,
                  47.7154175
                ]
              }
            },
            {
              "type": "Feature",
              "properties": {
                "id": "9733613195",
                "osm_type": "node",
                "lat": 47.7162368,
                "lon": 10.5555975,
                "name": "Pension Mayr",
                "operator": "Martina Mayr",
                "phone": "+49 8302 700",
                "tourism": "guest_house",
                "website": "https://www.pension-mayr.de/"
              },
              "geometry": {
                "type": "Point",
                "coordinates": [
                  10.5555975,
                  47.7162368
                ]
              }
            },
            {
              "type": "Feature",
              "properties": {
                "id": "10313434319",
                "osm_type": "node",
                "lat": 47.8355454,
                "lon": 10.8256383,
                "addr:city": "Schwabsoien",
                "addr:housenumber": "28",
                "addr:postcode": "86987",
                "addr:street": "Kaufbeurer Straße",
                "email": "willkommen@berkmuellerhof.de",
                "guest_house": "groups;bed_and_breakfast;meetings",
                "name": "Berkmüllerhof",
                "operator": "Familie Heimerer",
                "phone": "+49 171 1450116",
                "tourism": "guest_house",
                "website": "https://www.berkmuellerhof.de/"
              },
              "geometry": {
                "type": "Point",
                "coordinates": [
                  10.8256383,
                  47.8355454
                ]
              }
            },
            {
              "type": "Feature",
              "properties": {
                "id": "10678964825",
                "osm_type": "node",
                "lat": 47.8261871,
                "lon": 10.5850572,
                "name": "Ferienhof Aufmuth",
                "tourism": "guest_house",
                "website": "https://www.bauernhofurlaub-aufmuth.de/"
              },
              "geometry": {
                "type": "Point",
                "coordinates": [
                  10.5850572,
                  47.8261871
                ]
              }
            },
            {
              "type": "Feature",
              "properties": {
                "id": "10681379817",
                "osm_type": "node",
                "lat": 47.702447,
                "lon": 10.7892861,
                "name": "Gästehaus Riesemann",
                "tourism": "guest_house",
                "website": "https://riesemann-lechbruck.de/"
              },
              "geometry": {
                "type": "Point",
                "coordinates": [
                  10.7892861,
                  47.702447
                ]
              }
            },
            {
              "type": "Feature",
              "properties": {
                "id": "10749382287",
                "osm_type": "node",
                "lat": 47.7026921,
                "lon": 10.6044177,
                "name": "Gästehaus Gast",
                "tourism": "guest_house",
                "website": "https://www.haus-gast.de/"
              },
              "geometry": {
                "type": "Point",
                "coordinates": [
                  10.6044177,
                  47.7026921
                ]
              }
            },
            {
              "type": "Feature",
              "properties": {
                "id": "10749382288",
                "osm_type": "node",
                "lat": 47.7030354,
                "lon": 10.604771,
                "name": "Gästehaus Dodel",
                "tourism": "guest_house",
                "website": "http://gaestehaus-dodel.de/"
              },
              "geometry": {
                "type": "Point",
                "coordinates": [
                  10.604771,
                  47.7030354
                ]
              }
            },
            {
              "type": "Feature",
              "properties": {
                "id": "10751022317",
                "osm_type": "node",
                "lat": 47.7755284,
                "lon": 10.7500271,
                "name": "Gästehaus Maria",
                "tourism": "guest_house"
              },
              "geometry": {
                "type": "Point",
                "coordinates": [
                  10.7500271,
                  47.7755284
                ]
              }
            },
            {
              "type": "Feature",
              "properties": {
                "id": "10751227043",
                "osm_type": "node",
                "lat": 47.7151443,
                "lon": 10.7661534,
                "name": "Ferienhaus Weber",
                "tourism": "guest_house",
                "website": "http://www.ferienhaus-weber-hafegg.de/"
              },
              "geometry": {
                "type": "Point",
                "coordinates": [
                  10.7661534,
                  47.7151443
                ]
              }
            },
            {
              "type": "Feature",
              "properties": {
                "id": "10751227044",
                "osm_type": "node",
                "lat": 47.7394053,
                "lon": 10.7779685,
                "name": "Pilgerherberge Pfaffenwinkel",
                "tourism": "guest_house",
                "website": "https://pilgerherberge-pfaffenwinkel.de/"
              },
              "geometry": {
                "type": "Point",
                "coordinates": [
                  10.7779685,
                  47.7394053
                ]
              }
            },
            {
              "type": "Feature",
              "properties": {
                "id": "10751227046",
                "osm_type": "node",
                "lat": 47.7353287,
                "lon": 10.7789462,
                "name": "Käsküche Bernbeuren",
                "tourism": "guest_house",
                "website": "https://kaeskueche-bernbeuren.de/"
              },
              "geometry": {
                "type": "Point",
                "coordinates": [
                  10.7789462,
                  47.7353287
                ]
              }
            },
            {
              "type": "Feature",
              "properties": {
                "id": "11768611393",
                "osm_type": "node",
                "lat": 47.8175635,
                "lon": 10.5335807,
                "name": "Pension Adler",
                "tourism": "guest_house",
                "website": "http://www.adler-aitrang.de/"
              },
              "geometry": {
                "type": "Point",
                "coordinates": [
                  10.5335807,
                  47.8175635
                ]
              }
            },
            {
              "type": "Feature",
              "properties": {
                "id": "11948554419",
                "osm_type": "node",
                "lat": 47.7023513,
                "lon": 10.7932848,
                "name": "Ferienhaus Sefi",
                "tourism": "guest_house"
              },
              "geometry": {
                "type": "Point",
                "coordinates": [
                  10.7932848,
                  47.7023513
                ]
              }
            }
          ],
          "children": []
        },
        {
          "bbox": {
            "south": 47.694865,
            "west": 10.961507249999999,
            "north": 47.860141625,
            "east": 11.438358999999998
          },
          "poiCount": 20,
          "leafCount": 20,
          "averagePosition": [
            11.32437455,
            47.74760098
          ],
          "data": [
            {
              "type": "Feature",
              "properties": {
                "id": "4760102741",
                "osm_type": "node",
                "lat": 47.6954002,
                "lon": 11.0028896,
                "addr:city": "Bad Bayersoien",
                "addr:country": "DE",
                "addr:housenumber": "3",
                "addr:postcode": "82435",
                "addr:street": "Am Kurpark",
                "name": "Landhaus Brigitte",
                "tourism": "guest_house"
              },
              "geometry": {
                "type": "Point",
                "coordinates": [
                  11.0028896,
                  47.6954002
                ]
              }
            },
            {
              "type": "Feature",
              "properties": {
                "id": "259770391",
                "osm_type": "node",
                "lat": 47.7082045,
                "lon": 11.3973055,
                "check_date": "2025-02-26",
                "internet_access": "wlan;wired",
                "name": "Jugendherberge Benediktbeuern",
                "tourism": "hostel",
                "wheelchair": "no"
              },
              "geometry": {
                "type": "Point",
                "coordinates": [
                  11.3973055,
                  47.7082045
                ]
              }
            },
            {
              "type": "Feature",
              "properties": {
                "id": "279104128",
                "osm_type": "node",
                "lat": 47.7080377,
                "lon": 11.400913,
                "name": "Zentrum für Umwelt und Kultur",
                "tourism": "guest_house",
                "website": "https://www.zuk-bb.de/",
                "wheelchair": "no",
                "wikidata": "Q191257",
                "wikipedia": "de:Zentrum für Umwelt und Kultur Benediktbeuern"
              },
              "geometry": {
                "type": "Point",
                "coordinates": [
                  11.400913,
                  47.7080377
                ]
              }
            },
            {
              "type": "Feature",
              "properties": {
                "id": "1049928821",
                "osm_type": "node",
                "lat": 47.7493505,
                "lon": 11.3056376,
                "addr:city": "Antdorf",
                "addr:housenumber": "28",
                "addr:postcode": "82387",
                "addr:street": "Hauptstraße",
                "name": "Gästehaus Orterer",
                "operator": "Georg Orterer",
                "tourism": "guest_house"
              },
              "geometry": {
                "type": "Point",
                "coordinates": [
                  11.3056376,
                  47.7493505
                ]
              }
            },
            {
              "type": "Feature",
              "properties": {
                "id": "1439541877",
                "osm_type": "node",
                "lat": 47.7082594,
                "lon": 11.4035736,
                "addr:city": "Benediktbeuern",
                "addr:housenumber": "58",
                "addr:postcode": "83671",
                "addr:street": "Bahnhofstraße",
                "amenity": "kindergarten",
                "check_date": "2025-03-09",
                "description": "Jugendherberge Benediktbeuern \"Miriam\"",
                "name": "DJH Miriam",
                "tourism": "hostel"
              },
              "geometry": {
                "type": "Point",
                "coordinates": [
                  11.4035736,
                  47.7082594
                ]
              }
            },
            {
              "type": "Feature",
              "properties": {
                "id": "1942760827",
                "osm_type": "node",
                "lat": 47.8062459,
                "lon": 11.3780189,
                "name": "Höllfeichtlhof",
                "source": "local knowledge",
                "tourism": "guest_house"
              },
              "geometry": {
                "type": "Point",
                "coordinates": [
                  11.3780189,
                  47.8062459
                ]
              }
            },
            {
              "type": "Feature",
              "properties": {
                "id": "1942760829",
                "osm_type": "node",
                "lat": 47.8053488,
                "lon": 11.3761896,
                "name": "Otthof",
                "source": "local knowledge",
                "tourism": "guest_house",
                "website": "https://otthof.de"
              },
              "geometry": {
                "type": "Point",
                "coordinates": [
                  11.3761896,
                  47.8053488
                ]
              }
            },
            {
              "type": "Feature",
              "properties": {
                "id": "1978041287",
                "osm_type": "node",
                "lat": 47.7060775,
                "lon": 11.4147628,
                "tourism": "guest_house"
              },
              "geometry": {
                "type": "Point",
                "coordinates": [
                  11.4147628,
                  47.7060775
                ]
              }
            },
            {
              "type": "Feature",
              "properties": {
                "id": "1994995864",
                "osm_type": "node",
                "lat": 47.7036998,
                "lon": 11.4156824,
                "addr:city": "Benediktbeuern",
                "addr:country": "DE",
                "addr:housenumber": "8",
                "addr:postcode": "83671",
                "addr:street": "Schwimmbadstraße",
                "contact:website": "http://www.rummelbartlhof.de/",
                "name": "Rummelbartlhof",
                "tourism": "guest_house"
              },
              "geometry": {
                "type": "Point",
                "coordinates": [
                  11.4156824,
                  47.7036998
                ]
              }
            },
            {
              "type": "Feature",
              "properties": {
                "id": "1994996116",
                "osm_type": "node",
                "lat": 47.7029605,
                "lon": 11.4164015,
                "addr:city": "Benediktbeuern",
                "addr:country": "DE",
                "addr:housenumber": "9",
                "addr:postcode": "83671",
                "addr:street": "Schwimmbadstraße",
                "name": "Ferienhaus Eberle",
                "tourism": "guest_house"
              },
              "geometry": {
                "type": "Point",
                "coordinates": [
                  11.4164015,
                  47.7029605
                ]
              }
            },
            {
              "type": "Feature",
              "properties": {
                "id": "1994996482",
                "osm_type": "node",
                "lat": 47.703108,
                "lon": 11.4170807,
                "name": "Veronika Moosmang",
                "tourism": "guest_house"
              },
              "geometry": {
                "type": "Point",
                "coordinates": [
                  11.4170807,
                  47.703108
                ]
              }
            },
            {
              "type": "Feature",
              "properties": {
                "id": "2108779599",
                "osm_type": "node",
                "lat": 47.8301399,
                "lon": 11.4122094,
                "addr:city": "Eurasburg",
                "addr:housenumber": "47",
                "addr:postcode": "82547",
                "addr:street": "Loisachweg",
                "addr:suburb": "Beuerberg",
                "email": "info@pensionzurmuehle.de",
                "fax": "+49 8179 997241",
                "name": "Pension Zur Mühle",
                "phone": "+49 8179 997390",
                "tourism": "guest_house",
                "website": "https://www.pensionzurmuehle.de/",
                "wheelchair": "yes"
              },
              "geometry": {
                "type": "Point",
                "coordinates": [
                  11.4122094,
                  47.8301399
                ]
              }
            },
            {
              "type": "Feature",
              "properties": {
                "id": "3354500936",
                "osm_type": "node",
                "lat": 47.7322944,
                "lon": 11.3092979,
                "addr:city": "Habach",
                "addr:housenumber": "4",
                "addr:postcode": "82392",
                "addr:street": "Weilbergweg",
                "addr:suburb": "Dürnhausen",
                "name": "Bauernhof Kandler",
                "operator": "Fam. Kandler",
                "phone": "+49 8856 2764",
                "source": "Tourismusverband Pfaffenwinkel www.pfaffen-winkel.de",
                "tourism": "guest_house"
              },
              "geometry": {
                "type": "Point",
                "coordinates": [
                  11.3092979,
                  47.7322944
                ]
              }
            },
            {
              "type": "Feature",
              "properties": {
                "id": "4453725389",
                "osm_type": "node",
                "lat": 47.8385303,
                "lon": 11.1468235,
                "addr:city": "Weilheim in Oberbayern",
                "addr:country": "DE",
                "addr:housenumber": "31",
                "addr:postcode": "82362",
                "addr:street": "Obere Stadt",
                "check_date": "2024-03-17",
                "name": "Oberbräu",
                "tourism": "guest_house"
              },
              "geometry": {
                "type": "Point",
                "coordinates": [
                  11.1468235,
                  47.8385303
                ]
              }
            },
            {
              "type": "Feature",
              "properties": {
                "id": "5638325769",
                "osm_type": "node",
                "lat": 47.7523484,
                "lon": 11.3105991,
                "addr:city": "Antdorf",
                "addr:housenumber": "1",
                "addr:postcode": "82387",
                "addr:street": "Waldramstraße",
                "email": "urlaub@pensionmaria.de",
                "fax": "+49 8856 8038594",
                "internet_access": "wlan",
                "internet_access:fee": "no",
                "name": "Pension Maria",
                "operator": "Nadine Fentsch",
                "phone": "+49 8856 2210",
                "rooms": "12",
                "smoking": "outside",
                "tourism": "guest_house",
                "website": "https://www.pensionmaria.de/"
              },
              "geometry": {
                "type": "Point",
                "coordinates": [
                  11.3105991,
                  47.7523484
                ]
              }
            },
            {
              "type": "Feature",
              "properties": {
                "id": "5638325770",
                "osm_type": "node",
                "lat": 47.7535265,
                "lon": 11.3102292,
                "addr:city": "Antdorf",
                "addr:housenumber": "8",
                "addr:postcode": "82387",
                "addr:street": "Schleierweg",
                "email": "info@antdorfer.de",
                "internet_access": "wlan",
                "internet_access:fee": "no",
                "name": "Antdorfer Gästehaus",
                "operator": "Ramona Dangl",
                "phone": "+49 8856 2200",
                "rooms": "9",
                "smoking": "outside",
                "tourism": "guest_house",
                "website": "https://antdorfer.de/"
              },
              "geometry": {
                "type": "Point",
                "coordinates": [
                  11.3102292,
                  47.7535265
                ]
              }
            },
            {
              "type": "Feature",
              "properties": {
                "id": "7230039678",
                "osm_type": "node",
                "lat": 47.8232383,
                "lon": 11.234801,
                "addr:city": "Seeshaupt",
                "addr:housenumber": "33",
                "addr:postcode": "82402",
                "addr:street": "Magnetsried",
                "name": "CVJM Hof Magnetsried",
                "phone": "+49 8801 9156-0",
                "tourism": "hostel",
                "website": "https://www.cvjm-muenchen.org/cvjm-hof/cvjm-hof/"
              },
              "geometry": {
                "type": "Point",
                "coordinates": [
                  11.234801,
                  47.8232383
                ]
              }
            },
            {
              "type": "Feature",
              "properties": {
                "id": "7342924715",
                "osm_type": "node",
                "lat": 47.8044682,
                "lon": 11.2769436,
                "addr:housenumber": "1",
                "addr:street": "Ellmann",
                "name": "Pension Ott",
                "phone": "+49 8801 451",
                "tourism": "guest_house"
              },
              "geometry": {
                "type": "Point",
                "coordinates": [
                  11.2769436,
                  47.8044682
                ]
              }
            },
            {
              "type": "Feature",
              "properties": {
                "id": "7729000747",
                "osm_type": "node",
                "lat": 47.7072339,
                "lon": 11.4002711,
                "name": "Gästehaus Salesianer Don Boscos",
                "tourism": "guest_house"
              },
              "geometry": {
                "type": "Point",
                "coordinates": [
                  11.4002711,
                  47.7072339
                ]
              }
            },
            {
              "type": "Feature",
              "properties": {
                "id": "12299318977",
                "osm_type": "node",
                "lat": 47.7135469,
                "lon": 11.157861,
                "addr:city": "Uffing am Staffelsee",
                "addr:country": "DE",
                "addr:housenumber": "6",
                "addr:postcode": "82449",
                "addr:street": "Ettaler-Mandl-Weg",
                "email": "schoenblick-uffing@t-online.de",
                "fax": "+49 8846 914 557",
                "name": "Gästehaus Schönblick",
                "operator": "Monika und Thomas Schaur",
                "phone": "+49 8846 450",
                "tourism": "guest_house",
                "website": "www.schoenblick-uffing.de"
              },
              "geometry": {
                "type": "Point",
                "coordinates": [
                  11.157861,
                  47.7135469
                ]
              }
            }
          ],
          "children": []
        },
        {
          "bbox": {
            "south": 47.860141625,
            "west": 10.484655499999999,
            "north": 48.02541825,
            "east": 10.961507249999999
          },
          "poiCount": 11,
          "leafCount": 11,
          "averagePosition": [
            10.697377463636364,
            47.97305355454546
          ],
          "data": [
            {
              "type": "Feature",
              "properties": {
                "id": "596754028",
                "osm_type": "node",
                "lat": 48.0067191,
                "lon": 10.5871815,
                "name": "Haus Doris",
                "tourism": "guest_house"
              },
              "geometry": {
                "type": "Point",
                "coordinates": [
                  10.5871815,
                  48.0067191
                ]
              }
            },
            {
              "type": "Feature",
              "properties": {
                "id": "898677740",
                "osm_type": "node",
                "lat": 47.9638639,
                "lon": 10.9077741,
                "addr:city": "Vilgertshofen",
                "addr:country": "DE",
                "addr:housenumber": "1",
                "addr:postcode": "86946",
                "addr:street": "Stoffener Straße",
                "name": "Gästehaus Lindner",
                "tourism": "guest_house"
              },
              "geometry": {
                "type": "Point",
                "coordinates": [
                  10.9077741,
                  47.9638639
                ]
              }
            },
            {
              "type": "Feature",
              "properties": {
                "id": "1822904893",
                "osm_type": "node",
                "lat": 47.9546768,
                "lon": 10.7168581,
                "tourism": "guest_house"
              },
              "geometry": {
                "type": "Point",
                "coordinates": [
                  10.7168581,
                  47.9546768
                ]
              }
            },
            {
              "type": "Feature",
              "properties": {
                "id": "1822915672",
                "osm_type": "node",
                "lat": 47.9548421,
                "lon": 10.7119175,
                "tourism": "guest_house"
              },
              "geometry": {
                "type": "Point",
                "coordinates": [
                  10.7119175,
                  47.9548421
                ]
              }
            },
            {
              "type": "Feature",
              "properties": {
                "id": "5122531621",
                "osm_type": "node",
                "lat": 47.8852258,
                "lon": 10.6238717,
                "tourism": "guest_house"
              },
              "geometry": {
                "type": "Point",
                "coordinates": [
                  10.6238717,
                  47.8852258
                ]
              }
            },
            {
              "type": "Feature",
              "properties": {
                "id": "5564508618",
                "osm_type": "node",
                "lat": 48.0108707,
                "lon": 10.7609421,
                "addr:city": "Buchloe",
                "addr:country": "DE",
                "addr:housenumber": "2",
                "addr:postcode": "86807",
                "addr:street": "Eschleweg",
                "addr:suburb": "Hausen",
                "email": "buchung@gaensebleamla.de",
                "fax": "+49 8246 9697590",
                "name": "`s gänsebleamla",
                "operator": "Elisabeth Rampp mit Familie",
                "phone": "+49 8246 642",
                "rooms": "3",
                "tourism": "guest_house",
                "website": "https://www.gaensebleamla.de"
              },
              "geometry": {
                "type": "Point",
                "coordinates": [
                  10.7609421,
                  48.0108707
                ]
              }
            },
            {
              "type": "Feature",
              "properties": {
                "id": "5570691821",
                "osm_type": "node",
                "lat": 47.9957617,
                "lon": 10.7773103,
                "addr:city": "Waal",
                "addr:country": "DE",
                "addr:housenumber": "31",
                "addr:postcode": "86875",
                "addr:street": "Ritter-von-Herkomer-Straße",
                "beds": "6",
                "email": "info@deutscheshaus-waal.de",
                "internet_access": "wlan",
                "internet_access:fee": "no",
                "name": "Deutsches Haus",
                "operator": "Gaby Hafenmayr und Peter Liebl",
                "phone": "+49 8246 969387",
                "tourism": "guest_house",
                "website": "https://deutscheshaus-waal.de/"
              },
              "geometry": {
                "type": "Point",
                "coordinates": [
                  10.7773103,
                  47.9957617
                ]
              }
            },
            {
              "type": "Feature",
              "properties": {
                "id": "7554243062",
                "osm_type": "node",
                "lat": 47.9120598,
                "lon": 10.5673617,
                "name": "Gärtner",
                "tourism": "guest_house"
              },
              "geometry": {
                "type": "Point",
                "coordinates": [
                  10.5673617,
                  47.9120598
                ]
              }
            },
            {
              "type": "Feature",
              "properties": {
                "id": "8906966344",
                "osm_type": "node",
                "lat": 48.0130665,
                "lon": 10.5850657,
                "name": "Eichwaldhof",
                "tourism": "guest_house"
              },
              "geometry": {
                "type": "Point",
                "coordinates": [
                  10.5850657,
                  48.0130665
                ]
              }
            },
            {
              "type": "Feature",
              "properties": {
                "id": "9853314588",
                "osm_type": "node",
                "lat": 48.002026,
                "lon": 10.8334184,
                "addr:city": "Landsberg am Lech",
                "addr:country": "DE",
                "addr:housenumber": "4",
                "addr:postcode": "86899",
                "addr:street": "Emmenhauser Straße",
                "email": "Info@Balserhof.de",
                "name": "Balserhof",
                "operator": "Günter Rücker",
                "phone": "+49 8246 960546",
                "rooms": "6",
                "tourism": "guest_house",
                "website": "https://www.balserhof.de/"
              },
              "geometry": {
                "type": "Point",
                "coordinates": [
                  10.8334184,
                  48.002026
                ]
              }
            },
            {
              "type": "Feature",
              "properties": {
                "id": "10280825616",
                "osm_type": "node",
                "lat": 48.0044767,
                "lon": 10.599451,
                "addr:city": "Bad Wörishofen",
                "addr:country": "DE",
                "addr:housenumber": "1",
                "addr:postcode": "86825",
                "addr:street": "Bürgermeister-Singer-Straße",
                "email": "kurpension-andrea@t-online.de",
                "fax": "+49 8247 3506 30",
                "name": "Kurzpension Andrea",
                "phone": "+49 8247 3506 0",
                "tourism": "guest_house"
              },
              "geometry": {
                "type": "Point",
                "coordinates": [
                  10.599451,
                  48.0044767
                ]
              }
            }
          ],
          "children": []
        },
        {
          "bbox": {
            "south": 47.860141625,
            "west": 10.961507249999999,
            "north": 48.02541825,
            "east": 11.438358999999998
          },
          "poiCount": 14,
          "leafCount": 14,
          "averagePosition": [
            11.237460371428572,
            47.96009878571429
          ],
          "data": [
            {
              "type": "Feature",
              "properties": {
                "id": "274587112",
                "osm_type": "node",
                "lat": 47.9059038,
                "lon": 11.2705423,
                "access": "private",
                "name": "Behringerheim",
                "tourism": "guest_house"
              },
              "geometry": {
                "type": "Point",
                "coordinates": [
                  11.2705423,
                  47.9059038
                ]
              }
            },
            {
              "type": "Feature",
              "properties": {
                "id": "1049974161",
                "osm_type": "node",
                "lat": 47.878822,
                "lon": 11.3797867,
                "addr:city": "Münsing",
                "addr:country": "DE",
                "addr:housenumber": "12",
                "addr:postcode": "82541",
                "addr:street": "Dorfstraße",
                "addr:suburb": "Degerndorf",
                "email": "info@pension-kistler.de",
                "internet_access": "wlan",
                "internet_access:fee": "no",
                "name": "Pension Kistler",
                "operator": "Josef Kistler",
                "phone": "+49 8171 78567",
                "rooms": "5",
                "smoking": "outside",
                "tourism": "guest_house",
                "website": "https://www.pension-kistler.de/"
              },
              "geometry": {
                "type": "Point",
                "coordinates": [
                  11.3797867,
                  47.878822
                ]
              }
            },
            {
              "type": "Feature",
              "properties": {
                "id": "1439177296",
                "osm_type": "node",
                "lat": 47.9474162,
                "lon": 11.1130153,
                "name": "MTV-Jugendübernachtungshaus",
                "tourism": "hostel"
              },
              "geometry": {
                "type": "Point",
                "coordinates": [
                  11.1130153,
                  47.9474162
                ]
              }
            },
            {
              "type": "Feature",
              "properties": {
                "id": "1808488766",
                "osm_type": "node",
                "lat": 47.9609613,
                "lon": 11.1507771,
                "addr:city": "Herrsching am Ammersee",
                "addr:country": "DE",
                "addr:housenumber": "76/77",
                "addr:postcode": "82211",
                "addr:street": "Wartaweil",
                "toilets:wheelchair": "yes",
                "tourism": "hostel",
                "website": "https://www.umweltbildung.bayern.de/partner/ust_wartaweil/haus.htm",
                "wheelchair": "yes"
              },
              "geometry": {
                "type": "Point",
                "coordinates": [
                  11.1507771,
                  47.9609613
                ]
              }
            },
            {
              "type": "Feature",
              "properties": {
                "id": "2708369218",
                "osm_type": "node",
                "lat": 48.000381,
                "lon": 11.336481,
                "addr:city": "Starnberg",
                "addr:country": "DE",
                "addr:housenumber": "7",
                "addr:postcode": "82319",
                "addr:street": "Mathildenstraße",
                "name": "Ferienapartments Huber",
                "tourism": "guest_house"
              },
              "geometry": {
                "type": "Point",
                "coordinates": [
                  11.336481,
                  48.000381
                ]
              }
            },
            {
              "type": "Feature",
              "properties": {
                "id": "3736637290",
                "osm_type": "node",
                "lat": 48.002127,
                "lon": 11.0889816,
                "designation": "3star",
                "name": "Triebhof",
                "source": "survey",
                "toilets:wheelchair": "no",
                "tourism": "guest_house",
                "wheelchair": "yes"
              },
              "geometry": {
                "type": "Point",
                "coordinates": [
                  11.0889816,
                  48.002127
                ]
              }
            },
            {
              "type": "Feature",
              "properties": {
                "id": "3956823696",
                "osm_type": "node",
                "lat": 48.0014198,
                "lon": 11.341316,
                "addr:city": "Starnberg",
                "addr:housenumber": "7",
                "addr:postcode": "82319",
                "addr:street": "Hanfelder Straße",
                "contact:email": "info@scholler-starnberg.de",
                "contact:phone": "+49 8151 2060",
                "name": "Gasthaus zur Sonne",
                "toilets:wheelchair": "no",
                "tourism": "guest_house",
                "website": "https://www.scholler-starnberg.de/zimmer.html",
                "wheelchair": "no"
              },
              "geometry": {
                "type": "Point",
                "coordinates": [
                  11.341316,
                  48.0014198
                ]
              }
            },
            {
              "type": "Feature",
              "properties": {
                "id": "4772508542",
                "osm_type": "node",
                "lat": 48.0237196,
                "lon": 11.0967333,
                "name": "Pension Stefan Marx",
                "toilets:wheelchair": "no",
                "tourism": "guest_house",
                "wheelchair": "no"
              },
              "geometry": {
                "type": "Point",
                "coordinates": [
                  11.0967333,
                  48.0237196
                ]
              }
            },
            {
              "type": "Feature",
              "properties": {
                "id": "5130584977",
                "osm_type": "node",
                "lat": 47.9903669,
                "lon": 11.1708977,
                "name": "SVG Gästehaus Hotel Garni",
                "tourism": "guest_house"
              },
              "geometry": {
                "type": "Point",
                "coordinates": [
                  11.1708977,
                  47.9903669
                ]
              }
            },
            {
              "type": "Feature",
              "properties": {
                "id": "5274350234",
                "osm_type": "node",
                "lat": 48.0221352,
                "lon": 11.3236182,
                "addr:city": "Starnberg",
                "addr:housenumber": "14",
                "addr:postcode": "82319",
                "addr:street": "St.-Michael-Straße",
                "name": "Gästehaus Mack",
                "tourism": "guest_house",
                "website": "http://gästehausmack-hanfeld.de/"
              },
              "geometry": {
                "type": "Point",
                "coordinates": [
                  11.3236182,
                  48.0221352
                ]
              }
            },
            {
              "type": "Feature",
              "properties": {
                "id": "8018255690",
                "osm_type": "node",
                "lat": 47.9858601,
                "lon": 11.0934006,
                "name": "Wilhelm–Präger–Haus",
                "operator": "Evangelisches Jugendwerk Weilheim",
                "tourism": "hostel",
                "website": "https://www.jugendwerk-weilheim.de/jugendhaus",
                "wheelchair": "yes"
              },
              "geometry": {
                "type": "Point",
                "coordinates": [
                  11.0934006,
                  47.9858601
                ]
              }
            },
            {
              "type": "Feature",
              "properties": {
                "id": "10979150105",
                "osm_type": "node",
                "lat": 47.8787919,
                "lon": 11.3341495,
                "addr:housenumber": "57",
                "addr:postcode": "82541",
                "addr:street": "Seeleitn",
                "name": "Schullandheim Seeheim",
                "tourism": "guest_house"
              },
              "geometry": {
                "type": "Point",
                "coordinates": [
                  11.3341495,
                  47.8787919
                ]
              }
            },
            {
              "type": "Feature",
              "properties": {
                "id": "11980831093",
                "osm_type": "node",
                "lat": 47.9367439,
                "lon": 11.3464886,
                "name": "Pension Sewald",
                "tourism": "guest_house",
                "website": "https://www.pension-sewald.de/"
              },
              "geometry": {
                "type": "Point",
                "coordinates": [
                  11.3464886,
                  47.9367439
                ]
              }
            },
            {
              "type": "Feature",
              "properties": {
                "id": "12829101174",
                "osm_type": "node",
                "lat": 47.9067343,
                "lon": 11.2782573,
                "addr:city": "Tutzing",
                "addr:country": "DE",
                "addr:housenumber": "17",
                "addr:postcode": "82327",
                "addr:street": "Hauptstraße",
                "contact:email": "gaestehaus@missions-benediktinerinnen.de",
                "contact:phone": "+49 8158 92597-0",
                "contact:website": "https://www.missions-benediktinerinnen.de/gemeinschaften/kloster-tutzing/gaestehaus-maria-hilf",
                "name": "Gästehaus Maria-Hilf",
                "operator": "Missions-Benediktinerinnen von Tutzing",
                "operator:wikidata": "Q941729",
                "operator:wikipedia": "de:Missions-Benediktinerinnen von Tutzing",
                "tourism": "guest_house"
              },
              "geometry": {
                "type": "Point",
                "coordinates": [
                  11.2782573,
                  47.9067343
                ]
              }
            }
          ],
          "children": []
        }
      ]
    },
    {
      "bbox": {
        "south": 48.02541825,
        "west": 9.530952,
        "north": 48.355971499999995,
        "east": 10.484655499999999
      },
      "poiCount": 25,
      "leafCount": 25,
      "averagePosition": [
        9.891154887999999,
        48.175183156
      ],
      "data": [
        {
          "type": "Feature",
          "properties": {
            "id": "268987078",
            "osm_type": "node",
            "lat": 48.1804035,
            "lon": 9.9020483,
            "addr:city": "Mietingen",
            "addr:country": "DE",
            "addr:housenumber": "2",
            "addr:postcode": "88487",
            "addr:street": "Drehergässle",
            "email": "info@zimmervermietungen.online",
            "internet_access": "wlan",
            "name": "Pension Grüner Baum",
            "operator": "Schweizer Immobilien GmbH & Co KG",
            "phone": "+49 174 1612883",
            "smoking": "no",
            "tourism": "guest_house",
            "website": "https://www.zimmervermietungen.online/pension-gruenerbaum-mietingen"
          },
          "geometry": {
            "type": "Point",
            "coordinates": [
              9.9020483,
              48.1804035
            ]
          }
        },
        {
          "type": "Feature",
          "properties": {
            "id": "1417086032",
            "osm_type": "node",
            "lat": 48.2587031,
            "lon": 9.8976262,
            "addr:city": "Achstetten",
            "addr:housenumber": "2",
            "addr:postcode": "88480",
            "addr:street": "Laupheimer Straße",
            "name": "Handwerkerhotel Rössle",
            "tourism": "guest_house",
            "website": "https://www.handwerkerhotel-achstetten.de/ueber_uns.html"
          },
          "geometry": {
            "type": "Point",
            "coordinates": [
              9.8976262,
              48.2587031
            ]
          }
        },
        {
          "type": "Feature",
          "properties": {
            "id": "2976427595",
            "osm_type": "node",
            "lat": 48.0723536,
            "lon": 9.6470514,
            "name": "Schullandheim",
            "tourism": "hostel",
            "wheelchair": "no"
          },
          "geometry": {
            "type": "Point",
            "coordinates": [
              9.6470514,
              48.0723536
            ]
          }
        },
        {
          "type": "Feature",
          "properties": {
            "id": "3098169113",
            "osm_type": "node",
            "lat": 48.3144265,
            "lon": 9.8591284,
            "name": "Pension Steinle",
            "tourism": "guest_house"
          },
          "geometry": {
            "type": "Point",
            "coordinates": [
              9.8591284,
              48.3144265
            ]
          }
        },
        {
          "type": "Feature",
          "properties": {
            "id": "3459067964",
            "osm_type": "node",
            "lat": 48.1161516,
            "lon": 9.5378966,
            "addr:city": "Dürmentingen",
            "addr:housenumber": "26",
            "addr:street": "Bohlenweg",
            "name": "Gästehaus Diesch",
            "phone": "+49 7371 4194",
            "tourism": "guest_house",
            "website": "http://www.gaestehaus-diesch.de/"
          },
          "geometry": {
            "type": "Point",
            "coordinates": [
              9.5378966,
              48.1161516
            ]
          }
        },
        {
          "type": "Feature",
          "properties": {
            "id": "3886492772",
            "osm_type": "node",
            "lat": 48.3053438,
            "lon": 9.6496012,
            "name": "Pension Glava",
            "tourism": "guest_house"
          },
          "geometry": {
            "type": "Point",
            "coordinates": [
              9.6496012,
              48.3053438
            ]
          }
        },
        {
          "type": "Feature",
          "properties": {
            "id": "5036918922",
            "osm_type": "node",
            "lat": 48.0944029,
            "lon": 9.788801,
            "addr:city": "Biberach an der Riß",
            "addr:country": "DE",
            "addr:housenumber": "35",
            "addr:postcode": "88400",
            "addr:street": "Kolpingstraße",
            "amenity": "bicycle_rental",
            "beds": "7",
            "contact:email": "info@pension-schlauberger.de",
            "contact:phone": "+49 176 78 02 17 45",
            "contact:website": "http://www.pension-schlauberger.de",
            "internet_access": "wlan",
            "name": "Pension Schlauberger",
            "tourism": "guest_house"
          },
          "geometry": {
            "type": "Point",
            "coordinates": [
              9.788801,
              48.0944029
            ]
          }
        },
        {
          "type": "Feature",
          "properties": {
            "id": "5547294141",
            "osm_type": "node",
            "lat": 48.2640153,
            "lon": 9.7251199,
            "addr:city": "Ehingen (Donau)",
            "addr:housenumber": "15",
            "addr:street": "Rottenacker Straße",
            "addr:suburb": "Dettingen",
            "name": "Gasthof Knupfer",
            "phone": "+49 7391 2488",
            "tourism": "guest_house",
            "website": "https://www.gasthof-knupfer.de",
            "wheelchair": "limited"
          },
          "geometry": {
            "type": "Point",
            "coordinates": [
              9.7251199,
              48.2640153
            ]
          }
        },
        {
          "type": "Feature",
          "properties": {
            "id": "5747063203",
            "osm_type": "node",
            "lat": 48.1153576,
            "lon": 9.5351176,
            "addr:city": "Dürmentingen",
            "addr:housenumber": "8",
            "addr:street": "Bussenstraße",
            "name": "Burghotel",
            "operator": "Familie Diesch",
            "phone": "+49 7371 959 99 84",
            "tourism": "guest_house",
            "website": "http://www.ritteressen-burg.de/Burg/Burghotel.html"
          },
          "geometry": {
            "type": "Point",
            "coordinates": [
              9.5351176,
              48.1153576
            ]
          }
        },
        {
          "type": "Feature",
          "properties": {
            "id": "6488768384",
            "osm_type": "node",
            "lat": 48.238239,
            "lon": 9.6432745,
            "addr:city": "Munderkingen",
            "addr:housenumber": "2",
            "addr:postcode": "89597",
            "addr:street": "Donaustraße",
            "beds": "9",
            "name": "Rose",
            "phone": "+49 7393 1726",
            "tourism": "guest_house",
            "website": "http://www.gasthof-rose-munderkingen.de/"
          },
          "geometry": {
            "type": "Point",
            "coordinates": [
              9.6432745,
              48.238239
            ]
          }
        },
        {
          "type": "Feature",
          "properties": {
            "id": "7365890099",
            "osm_type": "node",
            "lat": 48.1143217,
            "lon": 9.9968873,
            "addr:city": "Gutenzell-Hürbel",
            "addr:housenumber": "2",
            "addr:postcode": "88484",
            "addr:street": "Schloßbezirk",
            "addr:suburb": "Gutenzell",
            "bicycle:rental": "yes",
            "email": "info@klosterhof-gutenzell.de",
            "name": "Hotel-Restaurant Klosterhof",
            "phone": "+49 7352 92 330",
            "source": "Datenübernahme von Gebäude",
            "tourism": "guest_house",
            "website": "https://www.klosterhof-gutenzell.de"
          },
          "geometry": {
            "type": "Point",
            "coordinates": [
              9.9968873,
              48.1143217
            ]
          }
        },
        {
          "type": "Feature",
          "properties": {
            "id": "7984768196",
            "osm_type": "node",
            "lat": 48.1936656,
            "lon": 9.6082051,
            "addr:housenumber": "10",
            "addr:street": "Gartenstraße",
            "check_date": "2025-03-27",
            "name": "Neuhaus",
            "source": "Maps4BW (LGL-BW, www.lgl-bw.de) Okt.2020; Bing 2019",
            "tourism": "guest_house"
          },
          "geometry": {
            "type": "Point",
            "coordinates": [
              9.6082051,
              48.1936656
            ]
          }
        },
        {
          "type": "Feature",
          "properties": {
            "id": "8244468859",
            "osm_type": "node",
            "lat": 48.2217045,
            "lon": 9.8749816,
            "addr:city": "Laupheim",
            "addr:country": "DE",
            "addr:housenumber": "25",
            "addr:postcode": "88471",
            "addr:street": "Zeppelinstraße",
            "email": "info@zimmervermietungen.online",
            "internet_access": "wlan",
            "name": "Pension Schweizer",
            "operator": "Schweizer Immobilien GmbH & Co KG",
            "phone": "+49 174 1612883",
            "smoking": "no",
            "tourism": "guest_house",
            "website": "https://www.zimmervermietungen.online/pension-schweizer-laupheim"
          },
          "geometry": {
            "type": "Point",
            "coordinates": [
              9.8749816,
              48.2217045
            ]
          }
        },
        {
          "type": "Feature",
          "properties": {
            "id": "8244468860",
            "osm_type": "node",
            "lat": 48.270375,
            "lon": 9.8279102,
            "addr:city": "Ehingen (Donau)",
            "addr:country": "DE",
            "addr:housenumber": "6",
            "addr:postcode": "89584",
            "addr:street": "Prof.-Josef-Schick-Straße",
            "addr:suburb": "Rißtissen",
            "email": "info@zimmervermietungen.online",
            "internet_access": "wlan",
            "name": "Pension Gambrinus",
            "operator": "Schweizer Immobilien GmbH & Co KG",
            "phone": "+49 174 1612883",
            "smoking": "no",
            "tourism": "guest_house",
            "website": "https://www.zimmervermietungen.online/pension-gambrinus-risstissen"
          },
          "geometry": {
            "type": "Point",
            "coordinates": [
              9.8279102,
              48.270375
            ]
          }
        },
        {
          "type": "Feature",
          "properties": {
            "id": "9861698121",
            "osm_type": "node",
            "lat": 48.0635765,
            "lon": 9.6117043,
            "name": "Hotel Moorbadstuben",
            "tourism": "guest_house",
            "wheelchair": "limited"
          },
          "geometry": {
            "type": "Point",
            "coordinates": [
              9.6117043,
              48.0635765
            ]
          }
        },
        {
          "type": "Feature",
          "properties": {
            "id": "10302090432",
            "osm_type": "node",
            "lat": 48.0730216,
            "lon": 9.9508982,
            "addr:city": "Ochsenhausen",
            "addr:housenumber": "58",
            "addr:postcode": "88416",
            "addr:street": "Poststraße",
            "name": "Oxtown City Apartment",
            "tourism": "guest_house"
          },
          "geometry": {
            "type": "Point",
            "coordinates": [
              9.9508982,
              48.0730216
            ]
          }
        },
        {
          "type": "Feature",
          "properties": {
            "id": "10969411506",
            "osm_type": "node",
            "lat": 48.2345692,
            "lon": 9.5691555,
            "addr:city": "Obermarchtal",
            "addr:housenumber": "26",
            "addr:postcode": "89611",
            "addr:street": "Mühlweg",
            "email": "kontakt@seelabaumler.de",
            "guest_house": "ferienhaus,_ferienwohnung,_unterkunft,_pension,_hotel",
            "internet_access": "wlan",
            "internet_access:fee": "no",
            "name": "Ferienhaus Seelabaumler",
            "operator": "Werner Huber",
            "phone": "073751528",
            "rooms": "3 DZ, WZ, Küche, 2 Bäder, Balkon Freisitz, Garage",
            "tourism": "guest_house",
            "website": "https://www.seelabaumler.de"
          },
          "geometry": {
            "type": "Point",
            "coordinates": [
              9.5691555,
              48.2345692
            ]
          }
        },
        {
          "type": "Feature",
          "properties": {
            "id": "1255669428",
            "osm_type": "node",
            "lat": 48.0905505,
            "lon": 10.0716916,
            "addr:city": "Erolzheim",
            "addr:housenumber": "10",
            "addr:postcode": "88453",
            "addr:street": "Marktplatz",
            "check_date": "2025-05-19",
            "email": "info@marktliege.de",
            "name": "Hotel Marktliege",
            "operator": "Famile Straub",
            "phone": "+49 7354 405",
            "tourism": "guest_house",
            "website": "https://www.marktliege.de/"
          },
          "geometry": {
            "type": "Point",
            "coordinates": [
              10.0716916,
              48.0905505
            ]
          }
        },
        {
          "type": "Feature",
          "properties": {
            "id": "2496985507",
            "osm_type": "node",
            "lat": 48.1234346,
            "lon": 10.1510921,
            "name": "Schwalbennest",
            "tourism": "guest_house"
          },
          "geometry": {
            "type": "Point",
            "coordinates": [
              10.1510921,
              48.1234346
            ]
          }
        },
        {
          "type": "Feature",
          "properties": {
            "id": "4314365176",
            "osm_type": "node",
            "lat": 48.0787143,
            "lon": 10.1237767,
            "addr:city": "Kirchdorf an der Iller",
            "addr:housenumber": "15",
            "addr:postcode": "88457",
            "addr:street": "Kirchstraße",
            "fax": "+49 7354 930721",
            "internet_access": "wlan",
            "name": "Gasthof Stern",
            "operator": "Horst und Elke Schuster",
            "phone": "+49 7354 93070",
            "smoking": "no",
            "source": "Daten von Gebäude übernommen",
            "tourism": "guest_house",
            "website": "https://www.stern-kirchdorf.de/",
            "wheelchair": "no"
          },
          "geometry": {
            "type": "Point",
            "coordinates": [
              10.1237767,
              48.0787143
            ]
          }
        },
        {
          "type": "Feature",
          "properties": {
            "id": "5512293275",
            "osm_type": "node",
            "lat": 48.1384344,
            "lon": 10.25684,
            "addr:city": "Babenhausen",
            "addr:country": "DE",
            "addr:housenumber": "51",
            "addr:postcode": "87727",
            "addr:street": "Lindenberg",
            "beds": "2",
            "internet_access": "wlan",
            "name": "Pension Sofie Zint",
            "rooms": "2",
            "smoking": "no",
            "tourism": "guest_house",
            "wheelchair": "no"
          },
          "geometry": {
            "type": "Point",
            "coordinates": [
              10.25684,
              48.1384344
            ]
          }
        },
        {
          "type": "Feature",
          "properties": {
            "id": "7597934061",
            "osm_type": "node",
            "lat": 48.1411025,
            "lon": 10.2632296,
            "addr:city": "Babenhausen",
            "addr:country": "DE",
            "addr:housenumber": "15",
            "addr:postcode": "87727",
            "addr:street": "Evangelikreuz",
            "guest_house": "pension",
            "name": "Haus Pannek",
            "operator": "Friedrich Pannek u. Rosemarie",
            "phone": "+49 8333 1602",
            "tourism": "guest_house"
          },
          "geometry": {
            "type": "Point",
            "coordinates": [
              10.2632296,
              48.1411025
            ]
          }
        },
        {
          "type": "Feature",
          "properties": {
            "id": "7601852288",
            "osm_type": "node",
            "lat": 48.1485962,
            "lon": 10.2472946,
            "addr:city": "Babenhausen",
            "addr:country": "DE",
            "addr:housenumber": "32",
            "addr:postcode": "87727",
            "addr:street": "Gänsberg",
            "guest_house": "bed_and_breakfast",
            "name": "Gästhaus Rosi",
            "phone": "+49 8333 8451",
            "tourism": "guest_house"
          },
          "geometry": {
            "type": "Point",
            "coordinates": [
              10.2472946,
              48.1485962
            ]
          }
        },
        {
          "type": "Feature",
          "properties": {
            "id": "9296852232",
            "osm_type": "node",
            "lat": 48.2259507,
            "lon": 10.3791042,
            "addr:city": "Krumbach (Schwaben)",
            "addr:country": "DE",
            "addr:housenumber": "10",
            "addr:postcode": "86381",
            "addr:street": "Allgäuer Straße",
            "addr:suburb": "Niederraunau",
            "beds": "15",
            "contact:email": "corinnaheiligmann@gmail.com",
            "contact:mobile": "+49 162 8743626",
            "contact:phone": "+49 8282 6058400",
            "contact:website": "https://www.fewo-krumbach.de/",
            "internet_access": "wlan",
            "name": "Gästehaus Heiligmann",
            "operator": "Corinna & Christian Heiligmann",
            "rooms": "6",
            "smoking": "no",
            "tourism": "guest_house",
            "washing_machine": "yes"
          },
          "geometry": {
            "type": "Point",
            "coordinates": [
              10.3791042,
              48.2259507
            ]
          }
        },
        {
          "type": "Feature",
          "properties": {
            "id": "10684134303",
            "osm_type": "node",
            "lat": 48.3021647,
            "lon": 10.1604361,
            "check_date": "2025-03-06",
            "name": "Pension Chefle",
            "tourism": "guest_house",
            "website": "http://pension-chefle.de/"
          },
          "geometry": {
            "type": "Point",
            "coordinates": [
              10.1604361,
              48.3021647
            ]
          }
        }
      ],
      "children": []
    },
    {
      "bbox": {
        "south": 48.02541825,
        "west": 10.484655499999999,
        "north": 48.355971499999995,
        "east": 11.438358999999998
      },
      "poiCount": 43,
      "leafCount": 43,
      "averagePosition": [
        10.936930739534885,
        48.186159483720935
      ],
      "data": [
        {
          "type": "Feature",
          "properties": {
            "id": "938290273",
            "osm_type": "node",
            "lat": 48.2282417,
            "lon": 10.5262586,
            "addr:city": "Aichen",
            "addr:housenumber": "5",
            "addr:place": "Bernbach",
            "addr:postcode": "86479",
            "name": "Reiberhof",
            "operator": "Fam. Georg & Edeltraut Huber",
            "phone": "+49 8284 281",
            "tourism": "guest_house",
            "website": "https://www.reiberhof.de/"
          },
          "geometry": {
            "type": "Point",
            "coordinates": [
              10.5262586,
              48.2282417
            ]
          }
        },
        {
          "type": "Feature",
          "properties": {
            "id": "294600496",
            "osm_type": "node",
            "lat": 48.3458246,
            "lon": 10.7338599,
            "addr:city": "Gessertshausen",
            "addr:country": "DE",
            "addr:housenumber": "5",
            "addr:postcode": "86459",
            "addr:street": "Hausener Straße",
            "addr:suburb": "Deubach",
            "contact:phone": "+49 8238 1463",
            "contact:website": "http://www.hubertusklause-deubach.de",
            "internet_access": "wlan",
            "name": "Hubertus Klause",
            "tourism": "guest_house"
          },
          "geometry": {
            "type": "Point",
            "coordinates": [
              10.7338599,
              48.3458246
            ]
          }
        },
        {
          "type": "Feature",
          "properties": {
            "id": "560484784",
            "osm_type": "node",
            "lat": 48.106654,
            "lon": 10.7719171,
            "addr:city": "Langerringen",
            "addr:country": "DE",
            "addr:housenumber": "11",
            "addr:postcode": "86853",
            "addr:street": "Singoldstraße",
            "addr:suburb": "Schwabmühlhausen",
            "cuisine": "regional",
            "email": "info@landgasthof-unterer-wirt.de",
            "fax": "+49 8248 1300",
            "name": "Unterer Wirt",
            "phone": "+49 8248 1300",
            "toilets:wheelchair": "yes",
            "tourism": "guest_house",
            "website": "http://www.landgasthof-unterer-wirt.de",
            "wheelchair": "no"
          },
          "geometry": {
            "type": "Point",
            "coordinates": [
              10.7719171,
              48.106654
            ]
          }
        },
        {
          "type": "Feature",
          "properties": {
            "id": "563834366",
            "osm_type": "node",
            "lat": 48.3531812,
            "lon": 11.0176413,
            "addr:city": "Friedberg",
            "addr:country": "DE",
            "addr:housenumber": "9",
            "addr:postcode": "86316",
            "addr:street": "Am Bahnholz",
            "addr:suburb": "Wiffertshausen",
            "capacity": "15",
            "name": "Naturfreundehaus Gründlmoos",
            "operator": "NaturFreunde Deutschland",
            "ref": "N 076",
            "source": "Datenspende der NaturFreunde Deutschland",
            "tourism": "hostel",
            "website": "http://www.naturfreunde-lechhausen.de"
          },
          "geometry": {
            "type": "Point",
            "coordinates": [
              11.0176413,
              48.3531812
            ]
          }
        },
        {
          "type": "Feature",
          "properties": {
            "id": "968081312",
            "osm_type": "node",
            "lat": 48.1979331,
            "lon": 10.6002313,
            "addr:city": "Mittelneufnach",
            "addr:country": "DE",
            "addr:housenumber": "2a",
            "addr:postcode": "86868",
            "addr:street": "Waldstraße",
            "name": "Gästehaus Waldblick",
            "tourism": "guest_house"
          },
          "geometry": {
            "type": "Point",
            "coordinates": [
              10.6002313,
              48.1979331
            ]
          }
        },
        {
          "type": "Feature",
          "properties": {
            "id": "968081458",
            "osm_type": "node",
            "lat": 48.1978731,
            "lon": 10.5990386,
            "addr:city": "Mittelneufnach",
            "addr:country": "DE",
            "addr:housenumber": "2",
            "addr:postcode": "86868",
            "addr:street": "Waldstraße",
            "name": "Pension zur Mühle",
            "tourism": "guest_house"
          },
          "geometry": {
            "type": "Point",
            "coordinates": [
              10.5990386,
              48.1978731
            ]
          }
        },
        {
          "type": "Feature",
          "properties": {
            "id": "1065087633",
            "osm_type": "node",
            "lat": 48.3122308,
            "lon": 10.7262641,
            "name": "Zisterzienserinnenabtei Oberschönenfeld",
            "tourism": "guest_house"
          },
          "geometry": {
            "type": "Point",
            "coordinates": [
              10.7262641,
              48.3122308
            ]
          }
        },
        {
          "type": "Feature",
          "properties": {
            "id": "1356992219",
            "osm_type": "node",
            "lat": 48.0886492,
            "lon": 11.0224307,
            "addr:city": "Eresing",
            "addr:housenumber": "31",
            "addr:postcode": "86922",
            "addr:street": "Hauptstraße",
            "check_date": "2021-07-02",
            "name": "Gasthof-Pension Wiedmann",
            "opening_hours": "Tu-Fr 17:30-21:30; Sa 16:00-21:00; Su 11:00-21:00",
            "tourism": "guest_house"
          },
          "geometry": {
            "type": "Point",
            "coordinates": [
              11.0224307,
              48.0886492
            ]
          }
        },
        {
          "type": "Feature",
          "properties": {
            "id": "1449754827",
            "osm_type": "node",
            "lat": 48.247482,
            "lon": 10.794103,
            "name": "Pension Sauer",
            "tourism": "guest_house"
          },
          "geometry": {
            "type": "Point",
            "coordinates": [
              10.794103,
              48.247482
            ]
          }
        },
        {
          "type": "Feature",
          "properties": {
            "id": "1480484671",
            "osm_type": "node",
            "lat": 48.2193132,
            "lon": 10.8409959,
            "addr:city": "Kleinaitingen",
            "addr:country": "DE",
            "addr:housenumber": "31",
            "addr:postcode": "86507",
            "addr:street": "Hauptstraße",
            "contact:fax": "+49 8203 963216",
            "contact:phone": "+49 8203 963215",
            "name": "Pension Bichler",
            "tourism": "guest_house"
          },
          "geometry": {
            "type": "Point",
            "coordinates": [
              10.8409959,
              48.2193132
            ]
          }
        },
        {
          "type": "Feature",
          "properties": {
            "id": "1781914270",
            "osm_type": "node",
            "lat": 48.0919157,
            "lon": 10.9348275,
            "name": "Gasthaus Weißes Lamm",
            "tourism": "guest_house"
          },
          "geometry": {
            "type": "Point",
            "coordinates": [
              10.9348275,
              48.0919157
            ]
          }
        },
        {
          "type": "Feature",
          "properties": {
            "id": "2087305425",
            "osm_type": "node",
            "lat": 48.2876985,
            "lon": 10.5345112,
            "addr:city": "Ziemetshausen",
            "addr:housenumber": "9",
            "addr:postcode": "86473",
            "addr:street": "Raiffeisenstraße",
            "breakfast": "yes",
            "email": "info@gaestehaus-eisele.de",
            "fax": "+49 8284 928014",
            "name": "Gästehaus Eisele",
            "operator": "Georg und Doris Eisele",
            "phone": "+49 8284 775",
            "rooms": "5",
            "tourism": "guest_house",
            "website": "http://www.gaestehaus-eisele.de/"
          },
          "geometry": {
            "type": "Point",
            "coordinates": [
              10.5345112,
              48.2876985
            ]
          }
        },
        {
          "type": "Feature",
          "properties": {
            "id": "4585803387",
            "osm_type": "node",
            "lat": 48.0641984,
            "lon": 10.640685,
            "beds": "8",
            "name": "Pension Stern",
            "operator": "Familie Probst",
            "phone": "+49 8245 1256",
            "rooms": "5",
            "tourism": "guest_house"
          },
          "geometry": {
            "type": "Point",
            "coordinates": [
              10.640685,
              48.0641984
            ]
          }
        },
        {
          "type": "Feature",
          "properties": {
            "id": "5111138923",
            "osm_type": "node",
            "lat": 48.0494114,
            "lon": 10.8782513,
            "addr:city": "Landsberg am Lech",
            "addr:country": "DE",
            "addr:housenumber": "405",
            "addr:postcode": "86899",
            "addr:street": "Alte Bergstraße",
            "email": "info@chapeau-landsberg.de",
            "mobile": "+49 163 4193187",
            "name": "Chapeau",
            "phone": "+49 8191 9728070",
            "tourism": "guest_house",
            "website": "https://www.chapeau-landsberg.de/"
          },
          "geometry": {
            "type": "Point",
            "coordinates": [
              10.8782513,
              48.0494114
            ]
          }
        },
        {
          "type": "Feature",
          "properties": {
            "id": "5535114294",
            "osm_type": "node",
            "lat": 48.2425911,
            "lon": 10.9893724,
            "addr:city": "Merching",
            "addr:country": "DE",
            "addr:housenumber": "13",
            "addr:postcode": "86504",
            "addr:street": "Kirchfeldstraße",
            "email": "info@landgasthof-aumiller.de",
            "fax": "+49 8233 7437-55",
            "internet_access": "wlan",
            "internet_access:fee": "no",
            "name": "Landgasthof Aumiller",
            "operator": "Landgasthof Aumiller GmbH & Co. KG",
            "phone": "+49 8233 7437-0",
            "tourism": "guest_house",
            "website": "https://www.landgasthof-aumiller.de/de/",
            "wheelchair": "yes"
          },
          "geometry": {
            "type": "Point",
            "coordinates": [
              10.9893724,
              48.2425911
            ]
          }
        },
        {
          "type": "Feature",
          "properties": {
            "id": "5540762375",
            "osm_type": "node",
            "lat": 48.3343084,
            "lon": 10.8262525,
            "addr:city": "Augsburg",
            "addr:country": "DE",
            "addr:housenumber": "4",
            "addr:postcode": "86199",
            "addr:street": "Wellenburg",
            "addr:suburb": "Göggingen",
            "contact:email": "info@schlossgaststaette-wellenburg.de",
            "contact:fax": "+49 821 44403-12",
            "contact:phone": "+49 821 44403-0",
            "contact:website": "https://www.schlossgaststaette-wellenburg.de/",
            "name": "Schlossgaststätte Wellenburg",
            "operator": "Walter Nemeth",
            "tourism": "guest_house"
          },
          "geometry": {
            "type": "Point",
            "coordinates": [
              10.8262525,
              48.3343084
            ]
          }
        },
        {
          "type": "Feature",
          "properties": {
            "id": "5548109630",
            "osm_type": "node",
            "lat": 48.159412,
            "lon": 10.7171554,
            "addr:city": "Hiltenfingen",
            "addr:country": "DE",
            "addr:housenumber": "22",
            "addr:postcode": "86856",
            "addr:street": "Türkheimer Straße",
            "fax": "+49 8232 2405",
            "name": "Gasthof Krone Hiltenfingen",
            "operator": "Luise Götz",
            "phone": "+49 8232 2405",
            "tourism": "guest_house",
            "website": "http://www.krone-hiltenfingen.de/"
          },
          "geometry": {
            "type": "Point",
            "coordinates": [
              10.7171554,
              48.159412
            ]
          }
        },
        {
          "type": "Feature",
          "properties": {
            "id": "5558742093",
            "osm_type": "node",
            "lat": 48.0674417,
            "lon": 10.8073613,
            "addr:city": "Igling",
            "addr:country": "DE",
            "addr:housenumber": "3",
            "addr:place": "Schloss Igling",
            "addr:postcode": "86859",
            "email": "webmaster@schloss-igling.de",
            "fax": "+49 8248 892",
            "name": "Schloss Igling",
            "operator": "Verwaltung Graf Maldeghem",
            "phone": "+49 8248 892",
            "rooms": "3",
            "tourism": "guest_house",
            "website": "http://www.schloss-igling.de/gaestezimmer.html"
          },
          "geometry": {
            "type": "Point",
            "coordinates": [
              10.8073613,
              48.0674417
            ]
          }
        },
        {
          "type": "Feature",
          "properties": {
            "id": "5561558221",
            "osm_type": "node",
            "lat": 48.0480618,
            "lon": 10.8816113,
            "addr:city": "Landsberg am Lech",
            "addr:country": "DE",
            "addr:housenumber": "451",
            "addr:postcode": "86899",
            "addr:street": "Alte Bergstraße",
            "email": "sudoebel@freenet.de",
            "name": "Privatpension Zweite Heimat",
            "operator": "Susanne Doebel",
            "phone": "+49 162 4022503",
            "tourism": "guest_house",
            "website": "https://www.zweite-heimat.info/"
          },
          "geometry": {
            "type": "Point",
            "coordinates": [
              10.8816113,
              48.0480618
            ]
          }
        },
        {
          "type": "Feature",
          "properties": {
            "id": "8518975678",
            "osm_type": "node",
            "lat": 48.3004763,
            "lon": 10.9864516,
            "addr:city": "Kissing",
            "addr:housenumber": "32",
            "addr:postcode": "86438",
            "addr:street": "Bahnhofstraße",
            "beds": "26",
            "guest_house": "guest_house",
            "internet_access": "wlan",
            "internet_access:fee": "yes",
            "name": "Landgasthof Alt-Kissing",
            "rooms": "18",
            "tourism": "guest_house"
          },
          "geometry": {
            "type": "Point",
            "coordinates": [
              10.9864516,
              48.3004763
            ]
          }
        },
        {
          "type": "Feature",
          "properties": {
            "id": "8949330205",
            "osm_type": "node",
            "lat": 48.1051767,
            "lon": 10.7719797,
            "addr:city": "Langerringen",
            "addr:housenumber": "1",
            "addr:postcode": "86853",
            "addr:street": "Singoldstraße",
            "addr:suburb": "Schwabmühlhausen",
            "email": "info@pension-schwabmuehlhausen.de",
            "guest_house": "bed_and_breakfast",
            "internet_access": "wlan",
            "internet_access:fee": "customers",
            "name": "Gasthof zum Bären",
            "phone": "+49 8248 1322",
            "tourism": "guest_house",
            "website": "https://www.pension-schwabmuehlhausen.de/"
          },
          "geometry": {
            "type": "Point",
            "coordinates": [
              10.7719797,
              48.1051767
            ]
          }
        },
        {
          "type": "Feature",
          "properties": {
            "id": "9195319444",
            "osm_type": "node",
            "lat": 48.2415666,
            "lon": 10.640574,
            "addr:city": "Mickhausen",
            "addr:housenumber": "14",
            "addr:postcode": "86866",
            "addr:street": "Kleestraße",
            "name": "Gästehaus Staudenschloss",
            "tourism": "guest_house"
          },
          "geometry": {
            "type": "Point",
            "coordinates": [
              10.640574,
              48.2415666
            ]
          }
        },
        {
          "type": "Feature",
          "properties": {
            "id": "9207930823",
            "osm_type": "node",
            "lat": 48.3315569,
            "lon": 11.0100504,
            "addr:city": "Friedberg",
            "addr:country": "DE",
            "addr:housenumber": "26",
            "addr:postcode": "86316",
            "addr:street": "Pfarrer-Fiegl-Straße",
            "addr:suburb": "Ottmaring",
            "name": "Jägerhaus",
            "tourism": "guest_house",
            "website": "https://jaegerhaus-friedberg.de/"
          },
          "geometry": {
            "type": "Point",
            "coordinates": [
              11.0100504,
              48.3315569
            ]
          }
        },
        {
          "type": "Feature",
          "properties": {
            "id": "9335929219",
            "osm_type": "node",
            "lat": 48.354387,
            "lon": 10.9530832,
            "addr:city": "Friedberg",
            "addr:housenumber": "9",
            "addr:postcode": "86316",
            "addr:street": "Meringer Straße",
            "name": "S. Hefele Fremdenzimmer",
            "tourism": "guest_house"
          },
          "geometry": {
            "type": "Point",
            "coordinates": [
              10.9530832,
              48.354387
            ]
          }
        },
        {
          "type": "Feature",
          "properties": {
            "id": "9586255092",
            "osm_type": "node",
            "lat": 48.2541379,
            "lon": 10.8810743,
            "addr:city": "Königsbrunn",
            "addr:housenumber": "58",
            "addr:postcode": "86343",
            "addr:street": "Landsberger Straße",
            "name": "Topkapi",
            "phone": "+49 8231 2245",
            "tourism": "guest_house",
            "website": "https://www.topkapi-neuhaus.de/fremdenzimmer"
          },
          "geometry": {
            "type": "Point",
            "coordinates": [
              10.8810743,
              48.2541379
            ]
          }
        },
        {
          "type": "Feature",
          "properties": {
            "id": "9704407005",
            "osm_type": "node",
            "lat": 48.1598087,
            "lon": 10.8068373,
            "addr:city": "Untermeitingen",
            "addr:housenumber": "7",
            "addr:postcode": "86836",
            "addr:street": "Welserstraße",
            "internet_access": "wlan",
            "name": "Pension Zur Alten Post",
            "phone": "+49 8232 9698908",
            "tourism": "guest_house",
            "website": "https://www.pension-altepost-untermeitingen.de",
            "wheelchair": "no"
          },
          "geometry": {
            "type": "Point",
            "coordinates": [
              10.8068373,
              48.1598087
            ]
          }
        },
        {
          "type": "Feature",
          "properties": {
            "id": "10686801720",
            "osm_type": "node",
            "lat": 48.1388405,
            "lon": 10.5856748,
            "addr:city": "Markt Wald",
            "addr:country": "DE",
            "addr:housenumber": "16",
            "addr:postcode": "86865",
            "addr:street": "Am Sonnenhang",
            "name": "Haus Sonnenhang",
            "tourism": "guest_house",
            "website": "http://www.haus-sonnenhang.com/"
          },
          "geometry": {
            "type": "Point",
            "coordinates": [
              10.5856748,
              48.1388405
            ]
          }
        },
        {
          "type": "Feature",
          "properties": {
            "id": "10936308784",
            "osm_type": "node",
            "lat": 48.35537,
            "lon": 10.9353346,
            "addr:city": "Augsburg",
            "addr:housenumber": "93",
            "addr:postcode": "86163",
            "addr:street": "Friedberger Straße",
            "name": "Henry's Sleeping",
            "rooms": "15",
            "source": "https://www.augsburger-allgemeine.de/augsburg/augsburg-an-der-friedberger-strasse-eroeffnet-ein-neues-hostel-id66626686.html",
            "start_date": "2023-06-15",
            "tourism": "hostel",
            "website": "https://www.henrys-sleeping.de/"
          },
          "geometry": {
            "type": "Point",
            "coordinates": [
              10.9353346,
              48.35537
            ]
          }
        },
        {
          "type": "Feature",
          "properties": {
            "id": "12083779849",
            "osm_type": "node",
            "lat": 48.3412502,
            "lon": 10.8656399,
            "addr:housenumber": "14a",
            "addr:street": "Butzstraße",
            "name": "Pension am Gögginger Park",
            "phone": "+49 176 51 37 05 77",
            "tourism": "guest_house",
            "website": "http://www.pension-amgoeggingerpark.de",
            "wheelchair": "no"
          },
          "geometry": {
            "type": "Point",
            "coordinates": [
              10.8656399,
              48.3412502
            ]
          }
        },
        {
          "type": "Feature",
          "properties": {
            "id": "60339549",
            "osm_type": "node",
            "lat": 48.1782442,
            "lon": 11.2999304,
            "addr:city": "Emmering",
            "addr:country": "DE",
            "addr:housenumber": "3",
            "addr:postcode": "82275",
            "addr:street": "Doktor-Rank-Straße",
            "name": "Gästehaus Bösl",
            "tourism": "guest_house"
          },
          "geometry": {
            "type": "Point",
            "coordinates": [
              11.2999304,
              48.1782442
            ]
          }
        },
        {
          "type": "Feature",
          "properties": {
            "id": "267399755",
            "osm_type": "node",
            "lat": 48.1464446,
            "lon": 11.3492032,
            "addr:city": "Puchheim",
            "addr:country": "DE",
            "addr:housenumber": "2",
            "addr:postcode": "82178",
            "addr:street": "Alte Bergstraße",
            "addr:suburb": "Puchheim-Ort",
            "disused:amenity": "restaurant",
            "name": "FANA Pension",
            "note": "Colonial seit 16.01.2017 (nach 21 Jahren) geschlossen, Haus soll zu Boardinghaus umgebaut werden",
            "old_name": "Colonial",
            "tourism": "guest_house"
          },
          "geometry": {
            "type": "Point",
            "coordinates": [
              11.3492032,
              48.1464446
            ]
          }
        },
        {
          "type": "Feature",
          "properties": {
            "id": "301742672",
            "osm_type": "node",
            "lat": 48.1742674,
            "lon": 11.358344,
            "addr:city": "Puchheim",
            "addr:country": "DE",
            "addr:housenumber": "38",
            "addr:postcode": "82178",
            "addr:street": "Lochhauser Straße",
            "alt_name": "Cafe Göbl",
            "name": "Gasthof & Pension Göbl",
            "note": "Restaurant Betrieb wurde aufgeben, ist aber weiterhin eine Pension",
            "tourism": "guest_house",
            "website": "http://www.gasthof-goebl.de",
            "wheelchair": "limited"
          },
          "geometry": {
            "type": "Point",
            "coordinates": [
              11.358344,
              48.1742674
            ]
          }
        },
        {
          "type": "Feature",
          "properties": {
            "id": "364802849",
            "osm_type": "node",
            "lat": 48.0622815,
            "lon": 11.1403877,
            "cafe": "yes",
            "name": "Pension Waldeck",
            "tourism": "guest_house"
          },
          "geometry": {
            "type": "Point",
            "coordinates": [
              11.1403877,
              48.0622815
            ]
          }
        },
        {
          "type": "Feature",
          "properties": {
            "id": "451028341",
            "osm_type": "node",
            "lat": 48.0254244,
            "lon": 11.0967559,
            "addr:city": "Utting am Ammersee",
            "addr:country": "DE",
            "addr:housenumber": "17",
            "addr:postcode": "86919",
            "addr:street": "Seestraße",
            "name": "Segelschule Marx",
            "phone": "+49 8806 7704",
            "sport": "sailing",
            "toilets:wheelchair": "no",
            "tourism": "guest_house",
            "website": "http://www.segelschule-marx.de/",
            "wheelchair": "yes"
          },
          "geometry": {
            "type": "Point",
            "coordinates": [
              11.0967559,
              48.0254244
            ]
          }
        },
        {
          "type": "Feature",
          "properties": {
            "id": "947073197",
            "osm_type": "node",
            "lat": 48.0504351,
            "lon": 11.0833606,
            "addr:city": "Schondorf am Ammersee",
            "addr:country": "DE",
            "addr:housenumber": "58",
            "addr:postcode": "86938",
            "addr:street": "Landsberger Straße",
            "contact:fax": "+49 8192 998181",
            "contact:phone": "+49 8192 286",
            "contact:website": "http://www.gasthof-drexl-schondorf.de/",
            "internet_access": "wlan",
            "name": "Drexl",
            "operator": "Familie Vogt",
            "tourism": "guest_house"
          },
          "geometry": {
            "type": "Point",
            "coordinates": [
              11.0833606,
              48.0504351
            ]
          }
        },
        {
          "type": "Feature",
          "properties": {
            "id": "1764425667",
            "osm_type": "node",
            "lat": 48.058397,
            "lon": 11.4024461,
            "name": "Haller",
            "tourism": "guest_house",
            "website": "https://landgasthof-haller.de"
          },
          "geometry": {
            "type": "Point",
            "coordinates": [
              11.4024461,
              48.058397
            ]
          }
        },
        {
          "type": "Feature",
          "properties": {
            "id": "1801676362",
            "osm_type": "node",
            "lat": 48.3083252,
            "lon": 11.2337474,
            "name": "Pension beim Wirt",
            "tourism": "guest_house"
          },
          "geometry": {
            "type": "Point",
            "coordinates": [
              11.2337474,
              48.3083252
            ]
          }
        },
        {
          "type": "Feature",
          "properties": {
            "id": "2315778793",
            "osm_type": "node",
            "lat": 48.1186577,
            "lon": 11.1314851,
            "name": "Pension Klotz",
            "tourism": "guest_house"
          },
          "geometry": {
            "type": "Point",
            "coordinates": [
              11.1314851,
              48.1186577
            ]
          }
        },
        {
          "type": "Feature",
          "properties": {
            "id": "7223220477",
            "osm_type": "node",
            "lat": 48.1323771,
            "lon": 11.3855539,
            "addr:city": "Germering",
            "addr:country": "DE",
            "addr:housenumber": "59a",
            "addr:postcode": "82110",
            "addr:street": "Eisenbahnstraße",
            "name": "Pension Lenz",
            "tourism": "guest_house",
            "website": "https://www.pension-lenz.de",
            "wheelchair": "no"
          },
          "geometry": {
            "type": "Point",
            "coordinates": [
              11.3855539,
              48.1323771
            ]
          }
        },
        {
          "type": "Feature",
          "properties": {
            "id": "7447441495",
            "osm_type": "node",
            "lat": 48.0679494,
            "lon": 11.2012455,
            "name": "Pension am See",
            "tourism": "guest_house"
          },
          "geometry": {
            "type": "Point",
            "coordinates": [
              11.2012455,
              48.0679494
            ]
          }
        },
        {
          "type": "Feature",
          "properties": {
            "id": "8848453369",
            "osm_type": "node",
            "lat": 48.0522948,
            "lon": 11.0908878,
            "addr:city": "Schondorf am Ammersee",
            "addr:country": "DE",
            "addr:housenumber": "41",
            "addr:postcode": "86938",
            "addr:street": "Bahnhofstraße",
            "contact:email": "schondorfer@t-online.de",
            "contact:fax": "+49 8192 998698",
            "contact:phone": "+49 8192 1400",
            "contact:website": "http://www.schondorfer.de/",
            "internet_access": "wlan",
            "name": "Pension Schondorfer",
            "smoking": "no",
            "tourism": "guest_house"
          },
          "geometry": {
            "type": "Point",
            "coordinates": [
              11.0908878,
              48.0522948
            ]
          }
        },
        {
          "type": "Feature",
          "properties": {
            "id": "12444424514",
            "osm_type": "node",
            "lat": 48.3537127,
            "lon": 11.13637,
            "addr:city": "Adelzhausen",
            "addr:country": "DE",
            "addr:housenumber": "4",
            "addr:postcode": "86559",
            "addr:street": "Bergstraße",
            "name": "Zur Linde",
            "operator": "Familie Kluger-Friedl",
            "phone": "+49 8258 457",
            "tourism": "guest_house",
            "website": "https://www.hotel-gasthof-linde.de/home.htm"
          },
          "geometry": {
            "type": "Point",
            "coordinates": [
              11.13637,
              48.3537127
            ]
          }
        },
        {
          "type": "Feature",
          "properties": {
            "id": "13124581802",
            "osm_type": "node",
            "lat": 48.051054,
            "lon": 11.098836,
            "addr:housenumber": "11",
            "addr:street": "Seestraße",
            "name": "Pension Schwarz - Segelboot Verleih - Segelschule",
            "phone": "+49 8192 215",
            "tourism": "guest_house",
            "website": "https://schwarz-ammersee.de"
          },
          "geometry": {
            "type": "Point",
            "coordinates": [
              11.098836,
              48.051054
            ]
          }
        }
      ],
      "children": []
    }
  ]
}