{
  "bbox": {
    "south": 47.033758500000005,
    "west": 13.345766,
    "north": 47.694865,
    "east": 15.253173
  },
  "poiCount": 220,
  "leafCount": 0,
  "averagePosition": [
    14.468863640454545,
    47.32054803454546
  ],
  "data": [],
  "children": [
    {
      "bbox": {
        "south": 47.033758500000005,
        "west": 13.345766,
        "north": 47.36431175,
        "east": 14.2994695
      },
      "poiCount": 23,
      "leafCount": 23,
      "averagePosition": [
        13.87308467826087,
        47.13717605652174
      ],
      "data": [
        {
          "type": "Feature",
          "properties": {
            "id": "5830852082",
            "osm_type": "node",
            "lat": 47.3459111,
            "lon": 13.3917174,
            "addr:city": "Flachau",
            "addr:country": "AT",
            "addr:housenumber": "159",
            "addr:postcode": "5542",
            "addr:street": "Hauptstraße",
            "amenity": "cafe",
            "at_bev:addr_date": "2017-10-01",
            "capacity": "100",
            "cuisine": "coffee_shop;ice_cream;regional;sandwich",
            "internet_access": "wlan",
            "name": "D‘ Bachstub’n",
            "opening_hours": "Mo-Su 06:00-20:00",
            "outdoor_seating": "yes",
            "website": "https://bachstubn.at"
          },
          "geometry": {
            "type": "Point",
            "coordinates": [
              13.3917174,
              47.3459111
            ]
          }
        },
        {
          "type": "Feature",
          "properties": {
            "id": "1106797280",
            "osm_type": "node",
            "lat": 47.0972085,
            "lon": 13.637427,
            "addr:city": "Sankt Michael im Lungau",
            "addr:housenumber": "268",
            "addr:street": "Postplatz",
            "amenity": "cafe",
            "name": "Premium",
            "operator": "Nadine Rossmann",
            "phone": "+43 664 4300093"
          },
          "geometry": {
            "type": "Point",
            "coordinates": [
              13.637427,
              47.0972085
            ]
          }
        },
        {
          "type": "Feature",
          "properties": {
            "id": "1551970439",
            "osm_type": "node",
            "lat": 47.1497733,
            "lon": 13.7455155,
            "amenity": "cafe",
            "name": "Renes Dorfküche",
            "old_name": "Siegl",
            "opening_hours": "Mo-We 09:00-17:00, Fr-Sa 09:00-18:00; PH off"
          },
          "geometry": {
            "type": "Point",
            "coordinates": [
              13.7455155,
              47.1497733
            ]
          }
        },
        {
          "type": "Feature",
          "properties": {
            "id": "2657768967",
            "osm_type": "node",
            "lat": 47.1340706,
            "lon": 13.6837101,
            "amenity": "cafe",
            "name": "Cafe Manuela",
            "opening_hours": "Mo-Th 07:30-16:30; Fr 07:30-16:00; Sa 07:30-12:00; Su 08:00-16:30"
          },
          "geometry": {
            "type": "Point",
            "coordinates": [
              13.6837101,
              47.1340706
            ]
          }
        },
        {
          "type": "Feature",
          "properties": {
            "id": "3027004260",
            "osm_type": "node",
            "lat": 47.0982758,
            "lon": 13.6376238,
            "addr:city": "Sankt Michael im Lungau",
            "addr:housenumber": "10",
            "addr:postcode": "5582",
            "addr:street": "Marktstraße",
            "amenity": "cafe",
            "cuisine": "german",
            "name": "Café Mandl",
            "shop": "confectionery",
            "source": "Bing"
          },
          "geometry": {
            "type": "Point",
            "coordinates": [
              13.6376238,
              47.0982758
            ]
          }
        },
        {
          "type": "Feature",
          "properties": {
            "id": "3051297396",
            "osm_type": "node",
            "lat": 47.0967072,
            "lon": 13.6320334,
            "addr:city": "Sankt Michael im Lungau",
            "addr:housenumber": "580",
            "addr:street": "Gewerbestraße",
            "amenity": "cafe",
            "contact:email": "info@bellissimo-cafe.at",
            "contact:phone": "+43 6477 20210",
            "name": "Bellissimo",
            "opening_hours": "00:00-20:00",
            "shop": "bakery"
          },
          "geometry": {
            "type": "Point",
            "coordinates": [
              13.6320334,
              47.0967072
            ]
          }
        },
        {
          "type": "Feature",
          "properties": {
            "id": "3364544713",
            "osm_type": "node",
            "lat": 47.1283484,
            "lon": 13.8120717,
            "amenity": "cafe",
            "name": "Binggl",
            "website": "https://www.troadkunst.at/",
            "wheelchair": "yes"
          },
          "geometry": {
            "type": "Point",
            "coordinates": [
              13.8120717,
              47.1283484
            ]
          }
        },
        {
          "type": "Feature",
          "properties": {
            "id": "4118793453",
            "osm_type": "node",
            "lat": 47.1334358,
            "lon": 13.680332,
            "amenity": "cafe",
            "cuisine": "coffee_shop",
            "internet_access": "wlan",
            "name": "Cafe Binggl"
          },
          "geometry": {
            "type": "Point",
            "coordinates": [
              13.680332,
              47.1334358
            ]
          }
        },
        {
          "type": "Feature",
          "properties": {
            "id": "4280880796",
            "osm_type": "node",
            "lat": 47.2488264,
            "lon": 13.5573319,
            "amenity": "cafe",
            "name": "Cafe Binggl",
            "opening_hours": "09:00-18:00"
          },
          "geometry": {
            "type": "Point",
            "coordinates": [
              13.5573319,
              47.2488264
            ]
          }
        },
        {
          "type": "Feature",
          "properties": {
            "id": "5753382529",
            "osm_type": "node",
            "lat": 47.1268754,
            "lon": 13.8103744,
            "addr:city": "Tamsweg",
            "addr:country": "AT",
            "addr:housenumber": "4-6",
            "addr:postcode": "5580",
            "addr:street": "Kirchengasse",
            "amenity": "cafe",
            "cuisine": "cake",
            "email": "hochleitner@sbg.at",
            "indoor_seating": "yes",
            "name": "Café Hochleitner",
            "operator": "Josef Hochleitner Bäckerei und Konditorei KG",
            "outdoor_seating": "yes",
            "phone": "06474 2240",
            "shop": "bakery",
            "website": "www.hochleitner.at"
          },
          "geometry": {
            "type": "Point",
            "coordinates": [
              13.8103744,
              47.1268754
            ]
          }
        },
        {
          "type": "Feature",
          "properties": {
            "id": "5950994209",
            "osm_type": "node",
            "lat": 47.1507504,
            "lon": 13.7445483,
            "amenity": "cafe",
            "indoor_seating": "no",
            "name": "Cafe Prosecco",
            "outdoor_seating": "yes"
          },
          "geometry": {
            "type": "Point",
            "coordinates": [
              13.7445483,
              47.1507504
            ]
          }
        },
        {
          "type": "Feature",
          "properties": {
            "id": "6854505321",
            "osm_type": "node",
            "lat": 47.0759898,
            "lon": 13.8413888,
            "amenity": "cafe",
            "name": "Burgblick"
          },
          "geometry": {
            "type": "Point",
            "coordinates": [
              13.8413888,
              47.0759898
            ]
          }
        },
        {
          "type": "Feature",
          "properties": {
            "id": "7775016700",
            "osm_type": "node",
            "lat": 47.0612242,
            "lon": 13.9866849,
            "amenity": "cafe",
            "name": "Jausenstation Stadlbauer"
          },
          "geometry": {
            "type": "Point",
            "coordinates": [
              13.9866849,
              47.0612242
            ]
          }
        },
        {
          "type": "Feature",
          "properties": {
            "id": "9044773586",
            "osm_type": "node",
            "lat": 47.1256951,
            "lon": 13.810147,
            "amenity": "cafe",
            "contact:website": "http://www.cafe-viva.at",
            "indoor_seating": "yes",
            "name": "Cafe Viva",
            "outdoor_seating": "yes"
          },
          "geometry": {
            "type": "Point",
            "coordinates": [
              13.810147,
              47.1256951
            ]
          }
        },
        {
          "type": "Feature",
          "properties": {
            "id": "11705760737",
            "osm_type": "node",
            "lat": 47.134386,
            "lon": 13.682022,
            "addr:city": "Mauterndorf",
            "addr:housenumber": "134",
            "addr:postcode": "5670",
            "addr:street": "Markt",
            "amenity": "cafe",
            "name": "Wohnwaren Kaffee Stegmühle",
            "opening_hours": "We-Fr 10:00-18:00; Sa 08:30-18:00",
            "outdoor_seating": "yes",
            "phone": "+43 660 5258797",
            "toilets": "yes"
          },
          "geometry": {
            "type": "Point",
            "coordinates": [
              13.682022,
              47.134386
            ]
          }
        },
        {
          "type": "Feature",
          "properties": {
            "id": "1854590713",
            "osm_type": "node",
            "lat": 47.1870982,
            "lon": 14.187966,
            "amenity": "cafe",
            "name": "Markt Cafe"
          },
          "geometry": {
            "type": "Point",
            "coordinates": [
              14.187966,
              47.1870982
            ]
          }
        },
        {
          "type": "Feature",
          "properties": {
            "id": "2922004706",
            "osm_type": "node",
            "lat": 47.2042453,
            "lon": 14.2811505,
            "amenity": "cafe",
            "name": "Cafe 7PR",
            "operator": "Robert Leitner",
            "smoking": "yes"
          },
          "geometry": {
            "type": "Point",
            "coordinates": [
              14.2811505,
              47.2042453
            ]
          }
        },
        {
          "type": "Feature",
          "properties": {
            "id": "3222390863",
            "osm_type": "node",
            "lat": 47.1110213,
            "lon": 14.1663832,
            "addr:city": "Murau",
            "addr:country": "AT",
            "addr:housenumber": "8",
            "addr:postcode": "8850",
            "addr:street": "Raffaltplatz",
            "amenity": "cafe",
            "name": "Cafe zur Krone",
            "phone": "+433532 4010"
          },
          "geometry": {
            "type": "Point",
            "coordinates": [
              14.1663832,
              47.1110213
            ]
          }
        },
        {
          "type": "Feature",
          "properties": {
            "id": "3222491480",
            "osm_type": "node",
            "lat": 47.1104586,
            "lon": 14.1722342,
            "addr:city": "Murau",
            "addr:country": "AT",
            "addr:housenumber": "10",
            "addr:postcode": "8850",
            "addr:street": "Schillerplatz",
            "amenity": "cafe",
            "cuisine": "pizza",
            "name": "Platzhirsch"
          },
          "geometry": {
            "type": "Point",
            "coordinates": [
              14.1722342,
              47.1104586
            ]
          }
        },
        {
          "type": "Feature",
          "properties": {
            "id": "3222491548",
            "osm_type": "node",
            "lat": 47.1103619,
            "lon": 14.1713652,
            "addr:city": "Murau",
            "addr:country": "AT",
            "addr:housenumber": "2",
            "addr:postcode": "8850",
            "addr:street": "Schillerplatz",
            "amenity": "cafe",
            "cuisine": "regional",
            "name": "Openspace",
            "outdoor_seating": "yes",
            "phone": "+43 3532 2211",
            "website": "http://www.openspacemurau.at"
          },
          "geometry": {
            "type": "Point",
            "coordinates": [
              14.1713652,
              47.1103619
            ]
          }
        },
        {
          "type": "Feature",
          "properties": {
            "id": "4351622210",
            "osm_type": "node",
            "lat": 47.1108148,
            "lon": 14.1714261,
            "addr:housenumber": "5",
            "addr:postcode": "8850",
            "addr:street": "Schillerplatz",
            "amenity": "cafe",
            "indoor_seating": "yes",
            "name": "Stadtcafe Murau",
            "opening_hours": "Tu-Fr 08:00-18:00; Sa 08:30-17:00; Su 09:30-17:00",
            "outdoor_seating": "terrace",
            "phone": "+43 3532 20026",
            "website": "https://www.stadtcafe-murau.at/",
            "wheelchair": "no"
          },
          "geometry": {
            "type": "Point",
            "coordinates": [
              14.1714261,
              47.1108148
            ]
          }
        },
        {
          "type": "Feature",
          "properties": {
            "id": "7126583194",
            "osm_type": "node",
            "lat": 47.1027811,
            "lon": 14.0865269,
            "amenity": "cafe",
            "name": "Dörflwirt"
          },
          "geometry": {
            "type": "Point",
            "coordinates": [
              14.0865269,
              47.1027811
            ]
          }
        },
        {
          "type": "Feature",
          "properties": {
            "id": "12723760110",
            "osm_type": "node",
            "lat": 47.1107901,
            "lon": 14.1909673,
            "amenity": "cafe",
            "name": "Cafe Korni",
            "opening_hours": "Mo-Sa 07:00-19:00"
          },
          "geometry": {
            "type": "Point",
            "coordinates": [
              14.1909673,
              47.1107901
            ]
          }
        }
      ],
      "children": []
    },
    {
      "bbox": {
        "south": 47.033758500000005,
        "west": 14.2994695,
        "north": 47.36431175,
        "east": 15.253173
      },
      "poiCount": 87,
      "leafCount": 0,
      "averagePosition": [
        14.831638059770118,
        47.17024525747127
      ],
      "data": [],
      "children": [
        {
          "bbox": {
            "south": 47.033758500000005,
            "west": 14.2994695,
            "north": 47.199035125,
            "east": 14.77632125
          },
          "poiCount": 29,
          "leafCount": 29,
          "averagePosition": [
            14.607212055172415,
            47.157761724137934
          ],
          "data": [
            {
              "type": "Feature",
              "properties": {
                "id": "995068298",
                "osm_type": "node",
                "lat": 47.0741322,
                "lon": 14.4254426,
                "amenity": "cafe",
                "name": "Café Central Neumarkt",
                "vegetarian": "options",
                "website": "http://www.cafe-central.co.at/"
              },
              "geometry": {
                "type": "Point",
                "coordinates": [
                  14.4254426,
                  47.0741322
                ]
              }
            },
            {
              "type": "Feature",
              "properties": {
                "id": "1078854358",
                "osm_type": "node",
                "lat": 47.1342454,
                "lon": 14.3394022,
                "amenity": "cafe",
                "name": "Sommercafe",
                "opening_hours": "Jun-Sep: Th-Su 10:00-22:00"
              },
              "geometry": {
                "type": "Point",
                "coordinates": [
                  14.3394022,
                  47.1342454
                ]
              }
            },
            {
              "type": "Feature",
              "properties": {
                "id": "1134334727",
                "osm_type": "node",
                "lat": 47.0724708,
                "lon": 14.4267424,
                "air_conditioning": "yes",
                "amenity": "cafe",
                "check_date": "2025-04-12",
                "indoor_seating": "yes",
                "name": "Werner's Cafe",
                "outdoor_seating": "yes",
                "pub": "yes"
              },
              "geometry": {
                "type": "Point",
                "coordinates": [
                  14.4267424,
                  47.0724708
                ]
              }
            },
            {
              "type": "Feature",
              "properties": {
                "id": "2449528184",
                "osm_type": "node",
                "lat": 47.1987265,
                "lon": 14.441351,
                "amenity": "cafe",
                "name": "Cafe Holiday"
              },
              "geometry": {
                "type": "Point",
                "coordinates": [
                  14.441351,
                  47.1987265
                ]
              }
            },
            {
              "type": "Feature",
              "properties": {
                "id": "4241518445",
                "osm_type": "node",
                "lat": 47.1982869,
                "lon": 14.444599,
                "addr:city": "Unzmarkt-Frauenburg",
                "addr:country": "AT",
                "addr:housenumber": "6",
                "addr:postcode": "8800",
                "addr:street": "Kärntnerstraße",
                "amenity": "cafe",
                "name": "Bäckerei Krumböck",
                "phone": "+43 3583 2334"
              },
              "geometry": {
                "type": "Point",
                "coordinates": [
                  14.444599,
                  47.1982869
                ]
              }
            },
            {
              "type": "Feature",
              "properties": {
                "id": "4966395429",
                "osm_type": "node",
                "lat": 47.0949218,
                "lon": 14.3592887,
                "amenity": "cafe",
                "name": "Moorstübel",
                "outdoor_seating": "yes"
              },
              "geometry": {
                "type": "Point",
                "coordinates": [
                  14.3592887,
                  47.0949218
                ]
              }
            },
            {
              "type": "Feature",
              "properties": {
                "id": "6636879788",
                "osm_type": "node",
                "lat": 47.078589,
                "lon": 14.424964,
                "amenity": "cafe",
                "name": "Café Altenbach",
                "outdoor_seating": "yes",
                "phone": "+43 660 6332566"
              },
              "geometry": {
                "type": "Point",
                "coordinates": [
                  14.424964,
                  47.078589
                ]
              }
            },
            {
              "type": "Feature",
              "properties": {
                "id": "7040204579",
                "osm_type": "node",
                "lat": 47.1470142,
                "lon": 14.4195931,
                "addr:city": "Scheifling",
                "addr:country": "AT",
                "addr:housenumber": "26",
                "addr:postcode": "8811",
                "addr:street": "Bahnhofstraße",
                "amenity": "cafe",
                "contact:phone": "+43 664 391 12 55",
                "name": "Cafe Abseits",
                "opening_hours": "Mo, Th 16:00-00:00; Tu, We 10:00-00:00; Sa, Su 11:00-00:00"
              },
              "geometry": {
                "type": "Point",
                "coordinates": [
                  14.4195931,
                  47.1470142
                ]
              }
            },
            {
              "type": "Feature",
              "properties": {
                "id": "8589476417",
                "osm_type": "node",
                "lat": 47.1307316,
                "lon": 14.3605095,
                "addr:city": "Teufenbach-Katsch",
                "addr:housenumber": "4",
                "addr:postcode": "8833",
                "addr:street": "Kirchgasse",
                "amenity": "cafe",
                "contact:website": "https://www.schlosscafe-teufenbach.at/",
                "cuisine": "cake;sandwich",
                "drink:coffee": "yes",
                "internet_access": "wlan",
                "internet_access:fee": "no",
                "name": "Schlosscafé Teufenbach",
                "outdoor_seating": "yes"
              },
              "geometry": {
                "type": "Point",
                "coordinates": [
                  14.3605095,
                  47.1307316
                ]
              }
            },
            {
              "type": "Feature",
              "properties": {
                "id": "1614274344",
                "osm_type": "node",
                "lat": 47.1898042,
                "lon": 14.7540272,
                "addr:city": "Zeltweg",
                "addr:country": "AT",
                "addr:housenumber": "43a",
                "addr:postcode": "8740",
                "addr:street": "Bahnhofstraße",
                "amenity": "cafe",
                "cuisine": "ice_cream",
                "name": "Eiscafe Bella Vista",
                "opening_hours": "Mo-Fr 07:00-22:00; Sa 08:00-22:00",
                "phone": "+43/(0) 650-4250338",
                "website": "http://eiscafe-bellavista.at/index.php/kontakt"
              },
              "geometry": {
                "type": "Point",
                "coordinates": [
                  14.7540272,
                  47.1898042
                ]
              }
            },
            {
              "type": "Feature",
              "properties": {
                "id": "1614274356",
                "osm_type": "node",
                "lat": 47.1900302,
                "lon": 14.7538837,
                "addr:city": "Zeltweg",
                "addr:country": "AT",
                "addr:housenumber": "38",
                "addr:postcode": "8740",
                "addr:street": "Bahnhofstraße",
                "amenity": "cafe",
                "cuisine": "cake",
                "fax": "+43 3577-223374",
                "name": "Café Konditorei Madenberger",
                "opening_hours": "Mo-Fr 05:00-20:00; Sa 05:00-13:00",
                "phone": "+43 3577-22337",
                "website": "https://madenberger.at/"
              },
              "geometry": {
                "type": "Point",
                "coordinates": [
                  14.7538837,
                  47.1900302
                ]
              }
            },
            {
              "type": "Feature",
              "properties": {
                "id": "1647304033",
                "osm_type": "node",
                "lat": 47.1943826,
                "lon": 14.7431401,
                "addr:city": "Zeltweg",
                "addr:country": "AT",
                "addr:housenumber": "26",
                "addr:postcode": "8740",
                "addr:street": "Tischlerstraße",
                "amenity": "cafe",
                "email": "mihael@pub-duo.at",
                "name": "Cafe-Pub Duo",
                "name:de": "Cafe-Pub Duo",
                "name:en": "Cafe-Pub Duo",
                "opening_hours": "Mo-Sa 08:00-23:00; Su 09:00-21:00",
                "outdoor_seating": "yes",
                "phone": "+43 (0) 664 120 46 15",
                "smoking": "separated",
                "website": "https://www.pub-duo.at/",
                "wheelchair": "limited"
              },
              "geometry": {
                "type": "Point",
                "coordinates": [
                  14.7431401,
                  47.1943826
                ]
              }
            },
            {
              "type": "Feature",
              "properties": {
                "id": "4623314921",
                "osm_type": "node",
                "lat": 47.1716589,
                "lon": 14.6340326,
                "addr:housenumber": "132",
                "addr:postcode": "8750",
                "addr:street": "Burggasse",
                "amenity": "cafe",
                "name": "Cafe Bar Grünhübl"
              },
              "geometry": {
                "type": "Point",
                "coordinates": [
                  14.6340326,
                  47.1716589
                ]
              }
            },
            {
              "type": "Feature",
              "properties": {
                "id": "5464808016",
                "osm_type": "node",
                "lat": 47.1837836,
                "lon": 14.6801577,
                "amenity": "cafe",
                "name": "Julius Meinl"
              },
              "geometry": {
                "type": "Point",
                "coordinates": [
                  14.6801577,
                  47.1837836
                ]
              }
            },
            {
              "type": "Feature",
              "properties": {
                "id": "5579051419",
                "osm_type": "node",
                "lat": 47.1967333,
                "lon": 14.7639325,
                "amenity": "cafe",
                "name": "Queens",
                "outdoor_seating": "yes"
              },
              "geometry": {
                "type": "Point",
                "coordinates": [
                  14.7639325,
                  47.1967333
                ]
              }
            },
            {
              "type": "Feature",
              "properties": {
                "id": "5593735093",
                "osm_type": "node",
                "lat": 47.1693064,
                "lon": 14.6617752,
                "addr:city": "Judenburg",
                "addr:country": "AT",
                "addr:housenumber": "7",
                "addr:postcode": "8750",
                "addr:street": "Kaserngasse",
                "amenity": "cafe",
                "name": "Schorf's Eck",
                "opening_hours": "We-Fr 16:00-22:00+; Sa 18:00-22:00+"
              },
              "geometry": {
                "type": "Point",
                "coordinates": [
                  14.6617752,
                  47.1693064
                ]
              }
            },
            {
              "type": "Feature",
              "properties": {
                "id": "5594339429",
                "osm_type": "node",
                "lat": 47.1712064,
                "lon": 14.6393748,
                "addr:city": "Judenburg",
                "addr:country": "AT",
                "addr:housenumber": "116",
                "addr:postcode": "8750",
                "addr:street": "Burggasse",
                "amenity": "cafe",
                "name": "Cafe Melange",
                "opening_hours": "Mo-Sa 06:00-19:00"
              },
              "geometry": {
                "type": "Point",
                "coordinates": [
                  14.6393748,
                  47.1712064
                ]
              }
            },
            {
              "type": "Feature",
              "properties": {
                "id": "5594339436",
                "osm_type": "node",
                "lat": 47.1696164,
                "lon": 14.6467146,
                "addr:city": "Judenburg",
                "addr:country": "AT",
                "addr:housenumber": "85a",
                "addr:postcode": "8750",
                "addr:street": "Burggasse",
                "amenity": "cafe",
                "name": "A1-Cafe",
                "outdoor_seating": "yes",
                "phone": "+43 3572 82 469"
              },
              "geometry": {
                "type": "Point",
                "coordinates": [
                  14.6467146,
                  47.1696164
                ]
              }
            },
            {
              "type": "Feature",
              "properties": {
                "id": "5596295983",
                "osm_type": "node",
                "lat": 47.1680008,
                "lon": 14.6584922,
                "addr:city": "Judenburg",
                "addr:country": "AT",
                "addr:housenumber": "21",
                "addr:postcode": "8750",
                "addr:street": "Burggasse",
                "amenity": "cafe",
                "email": "tee_cafe_steinkellner@gmx.at",
                "name": "Tee-Cafe-Steinkellner",
                "opening_hours": "Mo-Fr 07:00-18:00; Sa 07:00-14:00",
                "outdoor_seating": "yes",
                "phone": "+43 3572 86464",
                "website": "https://www.tee-cafe-steinkellner.at/"
              },
              "geometry": {
                "type": "Point",
                "coordinates": [
                  14.6584922,
                  47.1680008
                ]
              }
            },
            {
              "type": "Feature",
              "properties": {
                "id": "5599132871",
                "osm_type": "node",
                "lat": 47.1683582,
                "lon": 14.6605119,
                "addr:city": "Judenburg",
                "addr:country": "AT",
                "addr:housenumber": "3",
                "addr:postcode": "8750",
                "addr:street": "Ziehrergasse",
                "amenity": "cafe",
                "name": "Kaffee Tanja",
                "phone": "+43 3572 85411"
              },
              "geometry": {
                "type": "Point",
                "coordinates": [
                  14.6605119,
                  47.1683582
                ]
              }
            },
            {
              "type": "Feature",
              "properties": {
                "id": "5600198280",
                "osm_type": "node",
                "lat": 47.1679844,
                "lon": 14.6596858,
                "addr:city": "Judenburg",
                "addr:country": "AT",
                "addr:housenumber": "14",
                "addr:postcode": "8750",
                "addr:street": "Burggasse",
                "amenity": "cafe",
                "name": "Stadt Cafe"
              },
              "geometry": {
                "type": "Point",
                "coordinates": [
                  14.6596858,
                  47.1679844
                ]
              }
            },
            {
              "type": "Feature",
              "properties": {
                "id": "5600399743",
                "osm_type": "node",
                "lat": 47.168898,
                "lon": 14.6604073,
                "addr:city": "Judenburg",
                "addr:country": "AT",
                "addr:housenumber": "2",
                "addr:postcode": "8750",
                "addr:street": "Hauptplatz",
                "amenity": "cafe",
                "indoor_seating": "yes",
                "name": "Mittoni",
                "outdoor_seating": "yes",
                "phone": "+43 699 11343348"
              },
              "geometry": {
                "type": "Point",
                "coordinates": [
                  14.6604073,
                  47.168898
                ]
              }
            },
            {
              "type": "Feature",
              "properties": {
                "id": "5605024954",
                "osm_type": "node",
                "lat": 47.1536662,
                "lon": 14.7393742,
                "addr:city": "Weißkirchen in Steiermark",
                "addr:country": "AT",
                "addr:district": "Murtal",
                "addr:housenumber": "6",
                "addr:postcode": "8741",
                "addr:street": "Hauptplatz",
                "amenity": "cafe",
                "name": "Cafe Castra",
                "opening_hours": "Mo-Sa 08:00-24:00",
                "outdoor_seating": "yes",
                "website": "https://de-de.facebook.com/pg/Cafecastra/about/?ref=page_internal"
              },
              "geometry": {
                "type": "Point",
                "coordinates": [
                  14.7393742,
                  47.1536662
                ]
              }
            },
            {
              "type": "Feature",
              "properties": {
                "id": "5605024960",
                "osm_type": "node",
                "lat": 47.1542817,
                "lon": 14.7398677,
                "addr:city": "Weißkirchen in Steiermark",
                "addr:country": "AT",
                "addr:district": "Murtal",
                "addr:housenumber": "4",
                "addr:postcode": "8741",
                "addr:street": "Stubalpenstraße",
                "amenity": "cafe",
                "email": "fellisch@aon.at",
                "name": "Caffelisch",
                "outdoor_seating": "yes",
                "phone": "+43 (0) 664-313 27 28",
                "website": "http://www.cafellisch.at/kontakt.html"
              },
              "geometry": {
                "type": "Point",
                "coordinates": [
                  14.7398677,
                  47.1542817
                ]
              }
            },
            {
              "type": "Feature",
              "properties": {
                "id": "5607615366",
                "osm_type": "node",
                "lat": 47.176082,
                "lon": 14.6755913,
                "amenity": "cafe",
                "name": "Cafe Nora",
                "outdoor_seating": "yes"
              },
              "geometry": {
                "type": "Point",
                "coordinates": [
                  14.6755913,
                  47.176082
                ]
              }
            },
            {
              "type": "Feature",
              "properties": {
                "id": "6180834844",
                "osm_type": "node",
                "lat": 47.1988473,
                "lon": 14.6969672,
                "addr:city": "Fohnsdorf",
                "addr:country": "AT",
                "addr:housenumber": "1",
                "addr:postcode": "8753",
                "addr:street": "Fahrtechnikstraße",
                "amenity": "cafe",
                "name": "FAZ-Cafe",
                "opening_hours": "Mo-Su 08:00-18:00; Tu off",
                "phone": "+43 3573 34000-3",
                "website": "http://www.faz-fohnsdorf.at/faz-cafe/"
              },
              "geometry": {
                "type": "Point",
                "coordinates": [
                  14.6969672,
                  47.1988473
                ]
              }
            },
            {
              "type": "Feature",
              "properties": {
                "id": "11262216631",
                "osm_type": "node",
                "lat": 47.1937974,
                "lon": 14.7471797,
                "addr:city": "Zeltweg",
                "addr:housenumber": "15",
                "addr:postcode": "8740",
                "addr:street": "Bundesstraße",
                "amenity": "cafe",
                "email": "willkommen@cafe-wasserturm.at",
                "name": "Café Wasserturm",
                "opening_hours": "We-Su 08:00-17:00",
                "outdoor_seating": "yes",
                "phone": "+43 3577 226011400",
                "website": "https://www.cafe-wasserturm.at"
              },
              "geometry": {
                "type": "Point",
                "coordinates": [
                  14.7471797,
                  47.1937974
                ]
              }
            },
            {
              "type": "Feature",
              "properties": {
                "id": "11400937457",
                "osm_type": "node",
                "lat": 47.1917967,
                "lon": 14.7560146,
                "amenity": "cafe",
                "contact:instagram": "https://www.instagram.com/palmocca/",
                "name": "palmocca",
                "opening_hours": "Mo-Fr 08:00-18:00; We off; Sa 08:00-12:00",
                "smoking": "no"
              },
              "geometry": {
                "type": "Point",
                "coordinates": [
                  14.7560146,
                  47.1917967
                ]
              }
            },
            {
              "type": "Feature",
              "properties": {
                "id": "13015594423",
                "osm_type": "node",
                "lat": 47.0677369,
                "lon": 14.6961268,
                "amenity": "cafe",
                "name": "La Vie"
              },
              "geometry": {
                "type": "Point",
                "coordinates": [
                  14.6961268,
                  47.0677369
                ]
              }
            }
          ],
          "children": []
        },
        {
          "bbox": {
            "south": 47.033758500000005,
            "west": 14.77632125,
            "north": 47.199035125,
            "east": 15.253173
          },
          "poiCount": 23,
          "leafCount": 23,
          "averagePosition": [
            15.107068647826086,
            47.061640113043474
          ],
          "data": [
            {
              "type": "Feature",
              "properties": {
                "id": "5971016013",
                "osm_type": "node",
                "lat": 47.184593,
                "lon": 14.8084854,
                "addr:city": "Großlobming",
                "addr:country": "AT",
                "addr:housenumber": "1",
                "addr:postcode": "8734",
                "addr:street": "Kirchengasse",
                "amenity": "cafe",
                "name": "Cafe im Schablhof",
                "opening_hours": "Mo-Fr 07:30-19:30; Th off; Su 07:30-19:00",
                "operator": "Heiderose Haßler",
                "phone": "+43 (0) 664 735 780 95",
                "website": "http://www.schablhofcafe.at/"
              },
              "geometry": {
                "type": "Point",
                "coordinates": [
                  14.8084854,
                  47.184593
                ]
              }
            },
            {
              "type": "Feature",
              "properties": {
                "id": "1078985895",
                "osm_type": "node",
                "lat": 47.04676,
                "lon": 15.1576157,
                "addr:housenumber": "23",
                "addr:postcode": "8570",
                "addr:street": "Grazer Vorstadt",
                "amenity": "cafe",
                "name": "Cafe 11er"
              },
              "geometry": {
                "type": "Point",
                "coordinates": [
                  15.1576157,
                  47.04676
                ]
              }
            },
            {
              "type": "Feature",
              "properties": {
                "id": "1739203401",
                "osm_type": "node",
                "lat": 47.0520096,
                "lon": 15.0819053,
                "addr:city": "Köflach",
                "addr:country": "AT",
                "addr:housenumber": "32",
                "addr:postcode": "8580",
                "addr:street": "St. Martinerstraße",
                "amenity": "cafe",
                "name": "Cafe Energieschiff"
              },
              "geometry": {
                "type": "Point",
                "coordinates": [
                  15.0819053,
                  47.0520096
                ]
              }
            },
            {
              "type": "Feature",
              "properties": {
                "id": "1888110312",
                "osm_type": "node",
                "lat": 47.0807439,
                "lon": 15.1003915,
                "amenity": "cafe",
                "name": "Cafe Caballero",
                "outdoor_seating": "yes",
                "wheelchair": "no"
              },
              "geometry": {
                "type": "Point",
                "coordinates": [
                  15.1003915,
                  47.0807439
                ]
              }
            },
            {
              "type": "Feature",
              "properties": {
                "id": "1918393089",
                "osm_type": "node",
                "lat": 47.0490593,
                "lon": 15.150483,
                "addr:city": "Voitsberg",
                "addr:country": "AT",
                "addr:housenumber": "56",
                "addr:postcode": "8570",
                "addr:street": "Hauptplatz",
                "amenity": "cafe",
                "name": "Sorger",
                "opening_hours": "Mo-Fr 06:00-18:00; Sa 06:00-12:30; Su 06:00-12:00",
                "phone": "+43 3142 23 776",
                "website": "https://www.sorgerbrot.at/",
                "wheelchair": "yes"
              },
              "geometry": {
                "type": "Point",
                "coordinates": [
                  15.150483,
                  47.0490593
                ]
              }
            },
            {
              "type": "Feature",
              "properties": {
                "id": "1918393132",
                "osm_type": "node",
                "lat": 47.0494732,
                "lon": 15.1494946,
                "addr:city": "Voitsberg",
                "addr:country": "AT",
                "addr:housenumber": "2",
                "addr:postcode": "8570",
                "addr:street": "Hauptplatz",
                "amenity": "cafe",
                "name": "Stadtcafe",
                "opening_hours": "Mo-Th 07:00-23:00; Sa 08:00-24:00; Su 09:00-22:00",
                "outdoor_seating": "yes",
                "phone": "+43 3142 23230",
                "smoking": "isolated",
                "website": "https://www.facebook.com/StadtcafeVoitsberg",
                "wheelchair": "limited"
              },
              "geometry": {
                "type": "Point",
                "coordinates": [
                  15.1494946,
                  47.0494732
                ]
              }
            },
            {
              "type": "Feature",
              "properties": {
                "id": "1918600268",
                "osm_type": "node",
                "lat": 47.0498742,
                "lon": 15.1480534,
                "addr:city": "Voitsberg",
                "addr:country": "AT",
                "addr:housenumber": "9",
                "addr:postcode": "8570",
                "addr:street": "Hauptplatz",
                "amenity": "cafe",
                "name": "Gensinger",
                "wheelchair": "no"
              },
              "geometry": {
                "type": "Point",
                "coordinates": [
                  15.1480534,
                  47.0498742
                ]
              }
            },
            {
              "type": "Feature",
              "properties": {
                "id": "1919074676",
                "osm_type": "node",
                "lat": 47.0647564,
                "lon": 15.0834169,
                "addr:city": "Köflach",
                "addr:country": "AT",
                "addr:housenumber": "14",
                "addr:postcode": "8580",
                "addr:street": "Hauptplatz",
                "amenity": "cafe",
                "name": "Pötscher",
                "operator": "Peter Pötscher",
                "phone": "+433144 58 41"
              },
              "geometry": {
                "type": "Point",
                "coordinates": [
                  15.0834169,
                  47.0647564
                ]
              }
            },
            {
              "type": "Feature",
              "properties": {
                "id": "1920068254",
                "osm_type": "node",
                "lat": 47.0628043,
                "lon": 15.068395,
                "addr:city": "Maria Lankowitz",
                "addr:country": "AT",
                "addr:housenumber": "14",
                "addr:postcode": "8591",
                "addr:street": "Hans-Jäger-Straße",
                "amenity": "cafe",
                "contact:phone": "+43 3144 71892",
                "name": "Cafe Gitti",
                "old_name": "Cafe zur Alten Schmiede",
                "source": "https://www.maria-lankowitz.at/kultur-tourismus/kulinarik"
              },
              "geometry": {
                "type": "Point",
                "coordinates": [
                  15.068395,
                  47.0628043
                ]
              }
            },
            {
              "type": "Feature",
              "properties": {
                "id": "3274726689",
                "osm_type": "node",
                "lat": 47.0575754,
                "lon": 15.1116767,
                "addr:city": "Rosental an der Kainach",
                "addr:country": "AT",
                "addr:housenumber": "104",
                "addr:postcode": "8582",
                "addr:street": "Hauptstraße",
                "amenity": "cafe",
                "contact:facebook": "https://www.facebook.com/freiZeitRosental",
                "name": "freiZeit Rosental Café Konditorei",
                "old_name": "Pfeffermühle"
              },
              "geometry": {
                "type": "Point",
                "coordinates": [
                  15.1116767,
                  47.0575754
                ]
              }
            },
            {
              "type": "Feature",
              "properties": {
                "id": "3361721593",
                "osm_type": "node",
                "lat": 47.0494724,
                "lon": 15.1506234,
                "addr:city": "Voitsberg",
                "addr:country": "AT",
                "addr:housenumber": "35",
                "addr:postcode": "8570",
                "addr:street": "Hauptplatz",
                "amenity": "cafe",
                "name": "Miami Eis"
              },
              "geometry": {
                "type": "Point",
                "coordinates": [
                  15.1506234,
                  47.0494724
                ]
              }
            },
            {
              "type": "Feature",
              "properties": {
                "id": "3750231555",
                "osm_type": "node",
                "lat": 47.0543277,
                "lon": 15.1583556,
                "amenity": "cafe"
              },
              "geometry": {
                "type": "Point",
                "coordinates": [
                  15.1583556,
                  47.0543277
                ]
              }
            },
            {
              "type": "Feature",
              "properties": {
                "id": "3813031326",
                "osm_type": "node",
                "lat": 47.0454151,
                "lon": 15.1455787,
                "addr:city": "Voitsberg",
                "addr:country": "AT",
                "addr:housenumber": "7",
                "addr:postcode": "8570",
                "addr:street": "Kowaldstraße",
                "amenity": "cafe",
                "cuisine": "regional",
                "name": "Magerl",
                "operator": "Gerhard Magerl",
                "phone": "+433142 22468"
              },
              "geometry": {
                "type": "Point",
                "coordinates": [
                  15.1455787,
                  47.0454151
                ]
              }
            },
            {
              "type": "Feature",
              "properties": {
                "id": "3872992851",
                "osm_type": "node",
                "lat": 47.0652892,
                "lon": 15.1281244,
                "addr:city": "Bärnbach",
                "addr:country": "AT",
                "addr:housenumber": "16c",
                "addr:postcode": "8572",
                "addr:street": "Dr. Niederdorfer Straße",
                "amenity": "cafe",
                "name": "LA CASA",
                "phone": "+433142 61234"
              },
              "geometry": {
                "type": "Point",
                "coordinates": [
                  15.1281244,
                  47.0652892
                ]
              }
            },
            {
              "type": "Feature",
              "properties": {
                "id": "4200725822",
                "osm_type": "node",
                "lat": 47.0440839,
                "lon": 15.1607858,
                "addr:city": "Voitsberg",
                "addr:housenumber": "1",
                "addr:postcode": "8570",
                "addr:street": "Vorstadtgasse",
                "amenity": "cafe",
                "name": "Fredl's Cafe",
                "owner": "Alfred Waschnig"
              },
              "geometry": {
                "type": "Point",
                "coordinates": [
                  15.1607858,
                  47.0440839
                ]
              }
            },
            {
              "type": "Feature",
              "properties": {
                "id": "4202030118",
                "osm_type": "node",
                "lat": 47.0541626,
                "lon": 15.1393932,
                "addr:city": "Voitsberg",
                "addr:country": "AT",
                "addr:housenumber": "52",
                "addr:postcode": "8570",
                "addr:street": "Conrad-von-Hötzendorf-Straße",
                "amenity": "cafe",
                "name": "Voitsbergerstüberl",
                "operator": "Su, PH off",
                "phone": "+43 3142 21142"
              },
              "geometry": {
                "type": "Point",
                "coordinates": [
                  15.1393932,
                  47.0541626
                ]
              }
            },
            {
              "type": "Feature",
              "properties": {
                "id": "5293335684",
                "osm_type": "node",
                "lat": 47.0619543,
                "lon": 15.0795982,
                "addr:city": "Köflach",
                "addr:country": "AT",
                "addr:housenumber": "18",
                "addr:postcode": "8580",
                "addr:street": "Kärntnerstraße",
                "amenity": "cafe",
                "contact:facebook": "https://de-de.facebook.com/koeflacherknusperstube/",
                "contact:phone": "+43 664 535 23 74",
                "name": "Köflacher Knusperstube",
                "opening_hours": "Mo-Su 04:30-19:00",
                "operator": "Fam. Jöbstl",
                "smoking": "separated",
                "start_date": "2012-09-01"
              },
              "geometry": {
                "type": "Point",
                "coordinates": [
                  15.0795982,
                  47.0619543
                ]
              }
            },
            {
              "type": "Feature",
              "properties": {
                "id": "5293549545",
                "osm_type": "node",
                "lat": 47.0661227,
                "lon": 15.0864265,
                "addr:city": "Köflach",
                "addr:country": "AT",
                "addr:housenumber": "1",
                "addr:postcode": "8580",
                "addr:street": "Friedhofstraße",
                "amenity": "cafe",
                "contact:phone": "+43 3144 3758",
                "name": "Café Elisabeth"
              },
              "geometry": {
                "type": "Point",
                "coordinates": [
                  15.0864265,
                  47.0661227
                ]
              }
            },
            {
              "type": "Feature",
              "properties": {
                "id": "6042268485",
                "osm_type": "node",
                "lat": 47.0450925,
                "lon": 15.1512422,
                "addr:city": "Voitsberg",
                "addr:country": "AT",
                "addr:housename": "Café Elke",
                "addr:housenumber": "12",
                "addr:postcode": "8570",
                "addr:street": "Luthergasse",
                "amenity": "cafe",
                "at_bev:addr_date": "2018-10-01",
                "cuisine": "regional",
                "internet_access": "no",
                "name": "Café Elke"
              },
              "geometry": {
                "type": "Point",
                "coordinates": [
                  15.1512422,
                  47.0450925
                ]
              }
            },
            {
              "type": "Feature",
              "properties": {
                "id": "7337313030",
                "osm_type": "node",
                "lat": 47.0553911,
                "lon": 15.1183048,
                "addr:city": "Rosental an der Kainach",
                "addr:housenumber": "19",
                "addr:postcode": "8582",
                "addr:street": "Knappenplatz",
                "amenity": "cafe",
                "name": "Cafe-Bar Milano"
              },
              "geometry": {
                "type": "Point",
                "coordinates": [
                  15.1183048,
                  47.0553911
                ]
              }
            },
            {
              "type": "Feature",
              "properties": {
                "id": "10168947443",
                "osm_type": "node",
                "lat": 47.0521383,
                "lon": 15.13316,
                "amenity": "cafe",
                "contact:facebook": "https://www.facebook.com/CafeBarVeronaBaernbach/",
                "contact:phone": "+43 3142 23096",
                "name": "café-bar verona",
                "opening_hours": "Mo-Fr 07:30-22:00; Sa 07:30-23:00"
              },
              "geometry": {
                "type": "Point",
                "coordinates": [
                  15.13316,
                  47.0521383
                ]
              }
            },
            {
              "type": "Feature",
              "properties": {
                "id": "11279784021",
                "osm_type": "node",
                "lat": 47.0636261,
                "lon": 15.0870383,
                "amenity": "cafe",
                "contact:mobile": "+43 664 4522 579",
                "name": "Charly's Cafe & Bar",
                "website": "https://www.charlys.cc/"
              },
              "geometry": {
                "type": "Point",
                "coordinates": [
                  15.0870383,
                  47.0636261
                ]
              }
            },
            {
              "type": "Feature",
              "properties": {
                "id": "11915626457",
                "osm_type": "node",
                "lat": 47.0629974,
                "lon": 15.0640303,
                "amenity": "cafe",
                "cuisine": "cake",
                "name": "Cafe Vielharmonie",
                "website": "https://sonata.hotel-detail-check.com/cafe-vielharmonie-apart-pension-austria"
              },
              "geometry": {
                "type": "Point",
                "coordinates": [
                  15.0640303,
                  47.0629974
                ]
              }
            }
          ],
          "children": []
        },
        {
          "bbox": {
            "south": 47.199035125,
            "west": 14.2994695,
            "north": 47.36431175,
            "east": 14.77632125
          },
          "poiCount": 9,
          "leafCount": 9,
          "averagePosition": [
            14.595691100000002,
            47.229904233333336
          ],
          "data": [
            {
              "type": "Feature",
              "properties": {
                "id": "6247268251",
                "osm_type": "node",
                "lat": 47.2792841,
                "lon": 14.4813189,
                "addr:city": "Pölstal",
                "addr:country": "AT",
                "addr:housenumber": "11",
                "addr:postcode": "8763",
                "addr:street": "Hauptstraße",
                "amenity": "cafe",
                "email": "brandl.brot@aon.at",
                "name": "Cafe Brandl",
                "opening_hours": "Mo-Sa 06:00-18:30",
                "phone": "+43 43 3571 23 31"
              },
              "geometry": {
                "type": "Point",
                "coordinates": [
                  14.4813189,
                  47.2792841
                ]
              }
            },
            {
              "type": "Feature",
              "properties": {
                "id": "6715758359",
                "osm_type": "node",
                "lat": 47.2059088,
                "lon": 14.4994634,
                "addr:city": "St. Georgen ob Judenburg",
                "addr:country": "AT",
                "addr:housenumber": "11",
                "addr:place": "St. Georgen ob Judenburg",
                "addr:postcode": "8756",
                "amenity": "cafe",
                "name": "Postcafe Ehgartner",
                "opening_hours": "Mo-Su 08:00-24:00",
                "outdoor_seating": "yes",
                "phone": "4+43 660 2742488",
                "website": "https://www.murtaleis.at/",
                "wheelchair": "yes"
              },
              "geometry": {
                "type": "Point",
                "coordinates": [
                  14.4994634,
                  47.2059088
                ]
              }
            },
            {
              "type": "Feature",
              "properties": {
                "id": "12110528397",
                "osm_type": "node",
                "lat": 47.2514798,
                "lon": 14.4854593,
                "amenity": "cafe",
                "indoor_seating": "yes",
                "outdoor_seating": "yes",
                "shop": "pastry"
              },
              "geometry": {
                "type": "Point",
                "coordinates": [
                  14.4854593,
                  47.2514798
                ]
              }
            },
            {
              "type": "Feature",
              "properties": {
                "id": "4608082991",
                "osm_type": "node",
                "lat": 47.2080017,
                "lon": 14.6776955,
                "addr:housenumber": "1",
                "addr:postcode": "8753",
                "addr:street": "Hauptstraße",
                "amenity": "cafe",
                "email": "aurelia.k@hotmail.com",
                "name": "Heurigen Cafe",
                "phone": "+43 660 1600967"
              },
              "geometry": {
                "type": "Point",
                "coordinates": [
                  14.6776955,
                  47.2080017
                ]
              }
            },
            {
              "type": "Feature",
              "properties": {
                "id": "5609409868",
                "osm_type": "node",
                "lat": 47.204759,
                "lon": 14.6749073,
                "amenity": "cafe",
                "name": "Cafe Glück auf",
                "outdoor_seating": "yes"
              },
              "geometry": {
                "type": "Point",
                "coordinates": [
                  14.6749073,
                  47.204759
                ]
              }
            },
            {
              "type": "Feature",
              "properties": {
                "id": "5611024298",
                "osm_type": "node",
                "lat": 47.2078057,
                "lon": 14.6758112,
                "amenity": "cafe",
                "name": "Cafe Central",
                "outdoor_seating": "yes",
                "phone": "+43 664 386871",
                "wheelchair": "no"
              },
              "geometry": {
                "type": "Point",
                "coordinates": [
                  14.6758112,
                  47.2078057
                ]
              }
            },
            {
              "type": "Feature",
              "properties": {
                "id": "6174659455",
                "osm_type": "node",
                "lat": 47.2201893,
                "lon": 14.5799853,
                "amenity": "cafe",
                "email": "wernerrsun@ainet.at",
                "name": "Cafe Living",
                "opening_hours": "Mo-Th 08:00-23:00; Fr,Sa 08:00-24:00; Su 08:00-12:00",
                "phone": "43 664 41 16 866"
              },
              "geometry": {
                "type": "Point",
                "coordinates": [
                  14.5799853,
                  47.2201893
                ]
              }
            },
            {
              "type": "Feature",
              "properties": {
                "id": "6710912797",
                "osm_type": "node",
                "lat": 47.271095,
                "lon": 14.7033482,
                "addr:housenumber": "25",
                "addr:place": "Bischoffeld",
                "addr:postcode": "8731",
                "amenity": "cafe",
                "name": "Café Wolfsberger",
                "note": "ca. 2km nach Westen verlegt",
                "opening_hours": "Mo-Fr 7:00-12:30,15:00-18:00;Sa 7:00-12:30",
                "phone": "+43 3513 88345"
              },
              "geometry": {
                "type": "Point",
                "coordinates": [
                  14.7033482,
                  47.271095
                ]
              }
            },
            {
              "type": "Feature",
              "properties": {
                "id": "6981250709",
                "osm_type": "node",
                "lat": 47.2206147,
                "lon": 14.5832308,
                "amenity": "cafe",
                "name": "Cafe Trend",
                "smoking": "no"
              },
              "geometry": {
                "type": "Point",
                "coordinates": [
                  14.5832308,
                  47.2206147
                ]
              }
            }
          ],
          "children": []
        },
        {
          "bbox": {
            "south": 47.199035125,
            "west": 14.77632125,
            "north": 47.36431175,
            "east": 15.253173
          },
          "poiCount": 26,
          "leafCount": 26,
          "averagePosition": [
            14.919983184615385,
            47.25959179615385
          ],
          "data": [
            {
              "type": "Feature",
              "properties": {
                "id": "701440179",
                "osm_type": "node",
                "lat": 47.2264753,
                "lon": 14.8583368,
                "addr:city": "Sankt Margarethen bei Knittelfeld",
                "addr:country": "AT",
                "addr:housenumber": "2",
                "addr:postcode": "8720",
                "addr:street": "Hauptstraße",
                "amenity": "cafe",
                "name": "Cafe Duller",
                "phone": "+43 676 89881985",
                "source": "survey"
              },
              "geometry": {
                "type": "Point",
                "coordinates": [
                  14.8583368,
                  47.2264753
                ]
              }
            },
            {
              "type": "Feature",
              "properties": {
                "id": "846014899",
                "osm_type": "node",
                "lat": 47.3438418,
                "lon": 15.0139612,
                "addr:city": "Sankt Michael in Obersteiermark",
                "addr:country": "AT",
                "addr:housenumber": "62",
                "addr:postcode": "8770",
                "addr:street": "Hauptstraße",
                "amenity": "cafe",
                "at_bev:addr_date": "2016-10-02",
                "contact:phone": "+43 3843 277 01",
                "name": "Café Pölzl",
                "opening_hours": "PH,Tu-Th,Su 09:00-19:00; Fr,Sa 09:00-22:00",
                "outdoor_seating": "yes",
                "website": "https://www.konditorei-poelzl.at/impressum",
                "wheelchair": "yes"
              },
              "geometry": {
                "type": "Point",
                "coordinates": [
                  15.0139612,
                  47.3438418
                ]
              }
            },
            {
              "type": "Feature",
              "properties": {
                "id": "1315535547",
                "osm_type": "node",
                "lat": 47.2723238,
                "lon": 14.7838159,
                "addr:city": "Seckau",
                "addr:conscriptionnumber": "39",
                "addr:country": "AT",
                "addr:hamlet": "Seckau",
                "addr:housenumber": "11",
                "addr:postcode": "8732",
                "addr:street": "Marktstraße",
                "amenity": "cafe",
                "at_bev:addr_date": "2022-10-02",
                "contact:facebook": "https://www.facebook.com/seckauer.lebkuchen/",
                "email": "konditorei@regner.at",
                "fax": "+43 (0)35 14 / 52 07 9",
                "name": "Kaffeekonditorei Michael Regner",
                "phone": "+43 (0)35 14 / 52 07",
                "website": "https://www.regner.at/"
              },
              "geometry": {
                "type": "Point",
                "coordinates": [
                  14.7838159,
                  47.2723238
                ]
              }
            },
            {
              "type": "Feature",
              "properties": {
                "id": "1692406826",
                "osm_type": "node",
                "lat": 47.2077791,
                "lon": 14.797148,
                "addr:city": "Spielberg",
                "addr:country": "AT",
                "addr:housenumber": "1",
                "addr:postcode": "8724",
                "addr:street": "Marktpassage",
                "amenity": "cafe",
                "name": "Ranissimo",
                "opening_hours": "Mo-Fr 07:30-24:00; Sa 09:00-24:00",
                "phone": "+43 660 4125234"
              },
              "geometry": {
                "type": "Point",
                "coordinates": [
                  14.797148,
                  47.2077791
                ]
              }
            },
            {
              "type": "Feature",
              "properties": {
                "id": "2040941639",
                "osm_type": "node",
                "lat": 47.2152207,
                "lon": 14.8273882,
                "addr:city": "Knittelfeld",
                "addr:country": "AT",
                "addr:district": "Murtal",
                "addr:housenumber": "9",
                "addr:postcode": "8720",
                "addr:street": "Kapuzinerplatz",
                "amenity": "cafe",
                "name": "Pauls Cafe",
                "website": "https://pauls-hotel.at/",
                "wheelchair": "yes"
              },
              "geometry": {
                "type": "Point",
                "coordinates": [
                  14.8273882,
                  47.2152207
                ]
              }
            },
            {
              "type": "Feature",
              "properties": {
                "id": "2040941700",
                "osm_type": "node",
                "lat": 47.2146181,
                "lon": 14.8272381,
                "addr:city": "Knittelfeld",
                "addr:country": "AT",
                "addr:housenumber": "23",
                "addr:postcode": "8720",
                "addr:street": "Herrengasse",
                "amenity": "cafe",
                "name": "Cafe Lippizaner",
                "phone": "+43 3512 4466-0",
                "website": "https://www.cafe-lipizzaner.at/contact/"
              },
              "geometry": {
                "type": "Point",
                "coordinates": [
                  14.8272381,
                  47.2146181
                ]
              }
            },
            {
              "type": "Feature",
              "properties": {
                "id": "5584937025",
                "osm_type": "node",
                "lat": 47.208325,
                "lon": 14.7968352,
                "addr:city": "Spielberg",
                "addr:country": "AT",
                "addr:housenumber": "5",
                "addr:postcode": "8724",
                "addr:street": "Marktpassage",
                "amenity": "cafe",
                "name": "Cafe Don Tobacco's"
              },
              "geometry": {
                "type": "Point",
                "coordinates": [
                  14.7968352,
                  47.208325
                ]
              }
            },
            {
              "type": "Feature",
              "properties": {
                "id": "5585754110",
                "osm_type": "node",
                "lat": 47.2079433,
                "lon": 14.7969787,
                "addr:city": "Spielberg",
                "addr:country": "AT",
                "addr:housenumber": "1 c 11/12",
                "addr:postcode": "8724",
                "addr:street": "Marktpassage",
                "amenity": "cafe",
                "email": "zuberthomas82@gmail.com",
                "name": "Lounge Coconut",
                "phone": "+43 664 1454280",
                "website": "http://www.coconut.st/"
              },
              "geometry": {
                "type": "Point",
                "coordinates": [
                  14.7969787,
                  47.2079433
                ]
              }
            },
            {
              "type": "Feature",
              "properties": {
                "id": "5620027627",
                "osm_type": "node",
                "lat": 47.2151976,
                "lon": 14.8283954,
                "amenity": "cafe",
                "name": "Shisha-Bar-Lounge",
                "outdoor_seating": "yes"
              },
              "geometry": {
                "type": "Point",
                "coordinates": [
                  14.8283954,
                  47.2151976
                ]
              }
            },
            {
              "type": "Feature",
              "properties": {
                "id": "5620027633",
                "osm_type": "node",
                "lat": 47.2152149,
                "lon": 14.8275934,
                "addr:city": "Knittelfeld",
                "addr:country": "AT",
                "addr:housenumber": "19",
                "addr:postcode": "8720",
                "addr:street": "Frauengasse",
                "amenity": "cafe",
                "name": "JESS Cafe",
                "outdoor_seating": "yes"
              },
              "geometry": {
                "type": "Point",
                "coordinates": [
                  14.8275934,
                  47.2152149
                ]
              }
            },
            {
              "type": "Feature",
              "properties": {
                "id": "5628930604",
                "osm_type": "node",
                "lat": 47.2109324,
                "lon": 14.8204574,
                "addr:city": "Knittelfeld",
                "addr:country": "AT",
                "addr:housenumber": "39",
                "addr:postcode": "8720",
                "addr:street": "Kärntner Straße",
                "amenity": "cafe"
              },
              "geometry": {
                "type": "Point",
                "coordinates": [
                  14.8204574,
                  47.2109324
                ]
              }
            },
            {
              "type": "Feature",
              "properties": {
                "id": "5630875819",
                "osm_type": "node",
                "lat": 47.2139514,
                "lon": 14.8289305,
                "addr:city": "Knittefeld",
                "addr:country": "AT",
                "addr:housenumber": "1",
                "addr:postcode": "8720",
                "addr:street": "Herrengasse",
                "amenity": "cafe",
                "name": "Pedro's Cafe",
                "outdoor_seating": "yes"
              },
              "geometry": {
                "type": "Point",
                "coordinates": [
                  14.8289305,
                  47.2139514
                ]
              }
            },
            {
              "type": "Feature",
              "properties": {
                "id": "5885090388",
                "osm_type": "node",
                "lat": 47.2091887,
                "lon": 14.8248965,
                "amenity": "cafe",
                "name": "Parkcafé",
                "opening_hours": "Mo-Su 08:00-23:00",
                "phone": "+43 3512 42665",
                "website": "https://parkcafe-knittelfeld.business.site/"
              },
              "geometry": {
                "type": "Point",
                "coordinates": [
                  14.8248965,
                  47.2091887
                ]
              }
            },
            {
              "type": "Feature",
              "properties": {
                "id": "5894408424",
                "osm_type": "node",
                "lat": 47.2128009,
                "lon": 14.8304956,
                "addr:city": "Knittelfeld",
                "addr:country": "AT",
                "addr:district": "Murtal",
                "addr:housenumber": "18",
                "addr:postcode": "8720",
                "addr:street": "Esperantostraße",
                "amenity": "cafe",
                "at_bev:addr_date": "2017-10-01",
                "name": "Kathi's Zum Pepe",
                "opening_hours": "Tu-Su 16:00-24:00",
                "phone": "+43 676 916 62 15"
              },
              "geometry": {
                "type": "Point",
                "coordinates": [
                  14.8304956,
                  47.2128009
                ]
              }
            },
            {
              "type": "Feature",
              "properties": {
                "id": "6221561475",
                "osm_type": "node",
                "lat": 47.2696985,
                "lon": 14.8606959,
                "addr:city": "Sankt Marein-Feistritz",
                "addr:country": "AT",
                "addr:housenumber": "5a",
                "addr:postcode": "8733",
                "addr:street": "Hauptstraße",
                "amenity": "cafe",
                "name": "Kaffee Wedl"
              },
              "geometry": {
                "type": "Point",
                "coordinates": [
                  14.8606959,
                  47.2696985
                ]
              }
            },
            {
              "type": "Feature",
              "properties": {
                "id": "6366235638",
                "osm_type": "node",
                "lat": 47.3384834,
                "lon": 15.0112584,
                "addr:city": "Sankt Michael in Obersteiermark",
                "addr:country": "AT",
                "addr:housenumber": "1",
                "addr:postcode": "8770",
                "addr:street": "Kärntner Straße",
                "amenity": "cafe",
                "diet:vegetarian": "yes",
                "name": "CAFÉ Die Mitte",
                "phone": "+43 3843 2910"
              },
              "geometry": {
                "type": "Point",
                "coordinates": [
                  15.0112584,
                  47.3384834
                ]
              }
            },
            {
              "type": "Feature",
              "properties": {
                "id": "6817723374",
                "osm_type": "node",
                "lat": 47.3365254,
                "lon": 15.0203326,
                "addr:city": "Sankt Michael in Obersteiermark",
                "addr:housenumber": "25a",
                "addr:postcode": "8770",
                "addr:street": "Raiffeisenstraße",
                "amenity": "cafe",
                "contact:phone": "+43 664 376 51 74",
                "name": "NaUnd",
                "opening_hours": "Mo-Fr 10:30-00:00; Sa 10:30-14:00",
                "website": "https://cafe-naund.business.site/"
              },
              "geometry": {
                "type": "Point",
                "coordinates": [
                  15.0203326,
                  47.3365254
                ]
              }
            },
            {
              "type": "Feature",
              "properties": {
                "id": "6848667676",
                "osm_type": "node",
                "lat": 47.3086914,
                "lon": 14.9418046,
                "amenity": "cafe",
                "name": "Cafe Flair"
              },
              "geometry": {
                "type": "Point",
                "coordinates": [
                  14.9418046,
                  47.3086914
                ]
              }
            },
            {
              "type": "Feature",
              "properties": {
                "id": "7594649087",
                "osm_type": "node",
                "lat": 47.2102255,
                "lon": 14.8049998,
                "amenity": "cafe",
                "name": "Jamila Coffee",
                "opening_hours": "Mo-Sa 08:30-17:00",
                "smoking": "no",
                "wheelchair": "yes"
              },
              "geometry": {
                "type": "Point",
                "coordinates": [
                  14.8049998,
                  47.2102255
                ]
              }
            },
            {
              "type": "Feature",
              "properties": {
                "id": "8278686185",
                "osm_type": "node",
                "lat": 47.2146982,
                "lon": 14.8275549,
                "amenity": "cafe",
                "name": "Christa",
                "smoking": "no"
              },
              "geometry": {
                "type": "Point",
                "coordinates": [
                  14.8275549,
                  47.2146982
                ]
              }
            },
            {
              "type": "Feature",
              "properties": {
                "id": "1975488704",
                "osm_type": "node",
                "lat": 47.2268518,
                "lon": 15.234356,
                "addr:city": "Übelbach",
                "addr:housenumber": "60",
                "addr:postcode": "8124",
                "addr:street": "Alter Markt",
                "amenity": "cafe",
                "contact:mobile": "+43664 39 50 682",
                "name": "Marktcafé",
                "operator": "Christine Lanz"
              },
              "geometry": {
                "type": "Point",
                "coordinates": [
                  15.234356,
                  47.2268518
                ]
              }
            },
            {
              "type": "Feature",
              "properties": {
                "id": "3892577257",
                "osm_type": "node",
                "lat": 47.2270113,
                "lon": 15.2328521,
                "addr:city": "Übelbach",
                "addr:country": "AT",
                "addr:housenumber": "34",
                "addr:postcode": "8124",
                "addr:street": "Alter Markt",
                "amenity": "cafe",
                "name": "Café Milano"
              },
              "geometry": {
                "type": "Point",
                "coordinates": [
                  15.2328521,
                  47.2270113
                ]
              }
            },
            {
              "type": "Feature",
              "properties": {
                "id": "4771395322",
                "osm_type": "node",
                "lat": 47.3620887,
                "lon": 15.0665716,
                "addr:city": "Leoben",
                "addr:country": "AT",
                "addr:housenumber": "395",
                "addr:postcode": "8700",
                "addr:street": "Kärntner Straße",
                "addr:suburb": "Leitendorf",
                "amenity": "cafe",
                "name": "Beniva",
                "opening_hours": "Mo-Th 08:30-16:00; Fr 08:30-13:30",
                "operator": "Verein Hand in Hand",
                "phone": "+43 3842 21027",
                "source": "local_knowledge"
              },
              "geometry": {
                "type": "Point",
                "coordinates": [
                  15.0665716,
                  47.3620887
                ]
              }
            },
            {
              "type": "Feature",
              "properties": {
                "id": "5711122782",
                "osm_type": "node",
                "lat": 47.3640922,
                "lon": 15.0961523,
                "amenity": "cafe",
                "brand": "Wild Bean Cafe",
                "brand:wikidata": "Q61804826",
                "cuisine": "coffee_shop",
                "name": "Wild Bean Cafe",
                "opening_hours": "24/7",
                "takeaway": "yes"
              },
              "geometry": {
                "type": "Point",
                "coordinates": [
                  15.0961523,
                  47.3640922
                ]
              }
            },
            {
              "type": "Feature",
              "properties": {
                "id": "6489853038",
                "osm_type": "node",
                "lat": 47.3596336,
                "lon": 15.09599,
                "addr:city": "Leoben",
                "addr:country": "AT",
                "addr:housenumber": "20",
                "addr:postcode": "8700",
                "addr:street": "Max Kober-Gasse",
                "amenity": "cafe",
                "at_bev:addr_date": "2018-10-01",
                "name": "Kupferdachl",
                "old_name": "Kupferdachl"
              },
              "geometry": {
                "type": "Point",
                "coordinates": [
                  15.09599,
                  47.3596336
                ]
              }
            },
            {
              "type": "Feature",
              "properties": {
                "id": "6861866745",
                "osm_type": "node",
                "lat": 47.3575737,
                "lon": 15.0645237,
                "addr:city": "Leoben",
                "addr:country": "AT",
                "addr:housenumber": "28",
                "addr:postcode": "8700",
                "addr:street": "Fabriksgasse",
                "amenity": "cafe",
                "name": "Sportcafe",
                "operator": "Sportverein Hinterberg",
                "outdoor_seating": "yes",
                "website": "https://www.svhinterberg.at/sportplatzcafe/",
                "wheelchair": "yes"
              },
              "geometry": {
                "type": "Point",
                "coordinates": [
                  15.0645237,
                  47.3575737
                ]
              }
            }
          ],
          "children": []
        }
      ]
    },
    {
      "bbox": {
        "south": 47.36431175,
        "west": 13.345766,
        "north": 47.694865,
        "east": 14.2994695
      },
      "poiCount": 58,
      "leafCount": 0,
      "averagePosition": [
        13.734866032758623,
        47.495721232758626
      ],
      "data": [],
      "children": [
        {
          "bbox": {
            "south": 47.36431175,
            "west": 13.345766,
            "north": 47.529588375,
            "east": 13.82261775
          },
          "poiCount": 24,
          "leafCount": 24,
          "averagePosition": [
            13.603470795833333,
            47.395448029166666
          ],
          "data": [
            {
              "type": "Feature",
              "properties": {
                "id": "888685856",
                "osm_type": "node",
                "lat": 47.3792976,
                "lon": 13.4736649,
                "amenity": "cafe",
                "name": "Balbina´s Cafe Feinkostladen"
              },
              "geometry": {
                "type": "Point",
                "coordinates": [
                  13.4736649,
                  47.3792976
                ]
              }
            },
            {
              "type": "Feature",
              "properties": {
                "id": "1184554231",
                "osm_type": "node",
                "lat": 47.3849176,
                "lon": 13.4636436,
                "amenity": "cafe"
              },
              "geometry": {
                "type": "Point",
                "coordinates": [
                  13.4636436,
                  47.3849176
                ]
              }
            },
            {
              "type": "Feature",
              "properties": {
                "id": "1184554234",
                "osm_type": "node",
                "lat": 47.3843946,
                "lon": 13.461817,
                "amenity": "cafe"
              },
              "geometry": {
                "type": "Point",
                "coordinates": [
                  13.461817,
                  47.3843946
                ]
              }
            },
            {
              "type": "Feature",
              "properties": {
                "id": "3816140906",
                "osm_type": "node",
                "lat": 47.391823,
                "lon": 13.3876871,
                "amenity": "cafe",
                "cuisine": "spanish"
              },
              "geometry": {
                "type": "Point",
                "coordinates": [
                  13.3876871,
                  47.391823
                ]
              }
            },
            {
              "type": "Feature",
              "properties": {
                "id": "4028654477",
                "osm_type": "node",
                "lat": 47.4320523,
                "lon": 13.5233951,
                "amenity": "cafe"
              },
              "geometry": {
                "type": "Point",
                "coordinates": [
                  13.5233951,
                  47.4320523
                ]
              }
            },
            {
              "type": "Feature",
              "properties": {
                "id": "5054121648",
                "osm_type": "node",
                "lat": 47.3846878,
                "lon": 13.4611598,
                "amenity": "cafe",
                "name": "City Lounge",
                "opening_hours": "We-Mo 07:30-18:00"
              },
              "geometry": {
                "type": "Point",
                "coordinates": [
                  13.4611598,
                  47.3846878
                ]
              }
            },
            {
              "type": "Feature",
              "properties": {
                "id": "6314694104",
                "osm_type": "node",
                "lat": 47.3800627,
                "lon": 13.4193177,
                "addr:city": "Altenmarkt im Pongau",
                "addr:housenumber": "29",
                "addr:postcode": "5541",
                "addr:street": "Obere Marktstraße",
                "amenity": "cafe",
                "cuisine": "regional;sandwich;coffee_shop;ice_cream",
                "internet_access": "wlan",
                "name": "Cafe Freiraum",
                "outdoor_seating": "yes",
                "phone": "+43 660 6403374",
                "website": "https://www.cafe-freiraum.at/",
                "wheelchair": "yes"
              },
              "geometry": {
                "type": "Point",
                "coordinates": [
                  13.4193177,
                  47.3800627
                ]
              }
            },
            {
              "type": "Feature",
              "properties": {
                "id": "12198734939",
                "osm_type": "node",
                "lat": 47.3845733,
                "lon": 13.461075,
                "addr:city": "Radstadt",
                "addr:housenumber": "17",
                "addr:postcode": "5550",
                "addr:street": "Hoheneggstraße",
                "amenity": "cafe",
                "cuisine": "cake;breakfast;bistro",
                "name": "Stadtbäckerei Radstadt",
                "opening_hours": "Mo-Th 08:00-18:00; Fr,Sa 08:00-20:00; Su,PH off",
                "website": "https://stadtbaeckerei.at/"
              },
              "geometry": {
                "type": "Point",
                "coordinates": [
                  13.461075,
                  47.3845733
                ]
              }
            },
            {
              "type": "Feature",
              "properties": {
                "id": "12469028606",
                "osm_type": "node",
                "lat": 47.3915609,
                "lon": 13.4298223,
                "amenity": "cafe",
                "name": "Jausenstation Habersatt"
              },
              "geometry": {
                "type": "Point",
                "coordinates": [
                  13.4298223,
                  47.3915609
                ]
              }
            },
            {
              "type": "Feature",
              "properties": {
                "id": "1044712372",
                "osm_type": "node",
                "lat": 47.3820518,
                "lon": 13.6722832,
                "amenity": "cafe",
                "name": "Perner"
              },
              "geometry": {
                "type": "Point",
                "coordinates": [
                  13.6722832,
                  47.3820518
                ]
              }
            },
            {
              "type": "Feature",
              "properties": {
                "id": "1044750085",
                "osm_type": "node",
                "lat": 47.4226305,
                "lon": 13.6242825,
                "addr:city": "Ramsau am Dachstein",
                "addr:country": "AT",
                "addr:housenumber": "76",
                "addr:place": "Schildlehen",
                "addr:postcode": "8972",
                "amenity": "cafe",
                "at_bev:addr_date": "2016-10-02",
                "cuisine": "regional",
                "name": "Waldcafe Liftstüberl Rittisberg",
                "outdoor_seating": "yes"
              },
              "geometry": {
                "type": "Point",
                "coordinates": [
                  13.6242825,
                  47.4226305
                ]
              }
            },
            {
              "type": "Feature",
              "properties": {
                "id": "1044924423",
                "osm_type": "node",
                "lat": 47.3918764,
                "lon": 13.6899238,
                "addr:city": "Schladming",
                "addr:country": "AT",
                "addr:postcode": "8970",
                "amenity": "cafe",
                "name": "Café Niederl"
              },
              "geometry": {
                "type": "Point",
                "coordinates": [
                  13.6899238,
                  47.3918764
                ]
              }
            },
            {
              "type": "Feature",
              "properties": {
                "id": "1044942726",
                "osm_type": "node",
                "lat": 47.3918406,
                "lon": 13.6876065,
                "amenity": "cafe",
                "cuisine": "regional",
                "name": "Bäckerei - Konditorei - Café Stefflbäck",
                "wheelchair": "yes"
              },
              "geometry": {
                "type": "Point",
                "coordinates": [
                  13.6876065,
                  47.3918406
                ]
              }
            },
            {
              "type": "Feature",
              "properties": {
                "id": "1044943039",
                "osm_type": "node",
                "lat": 47.3907243,
                "lon": 13.6875985,
                "amenity": "cafe",
                "name": "Vita-Mine Cafe",
                "website": "https://www.vitamine-schladming.at/"
              },
              "geometry": {
                "type": "Point",
                "coordinates": [
                  13.6875985,
                  47.3907243
                ]
              }
            },
            {
              "type": "Feature",
              "properties": {
                "id": "1044943514",
                "osm_type": "node",
                "lat": 47.3915593,
                "lon": 13.6749265,
                "addr:city": "Schladming",
                "addr:housenumber": "371",
                "addr:postcode": "8970",
                "addr:street": "Salzburgerstraße",
                "amenity": "cafe",
                "name": "Cafe Mitterhofer"
              },
              "geometry": {
                "type": "Point",
                "coordinates": [
                  13.6749265,
                  47.3915593
                ]
              }
            },
            {
              "type": "Feature",
              "properties": {
                "id": "1827399801",
                "osm_type": "node",
                "lat": 47.3935423,
                "lon": 13.6867856,
                "addr:housename": "Crystal",
                "addr:housenumber": "248A",
                "addr:postcode": "8970",
                "addr:street": "Erzherzog Johann Straße",
                "amenity": "cafe",
                "contact:phone": "+43 3687 23038",
                "cuisine": "international",
                "designation": "Teehaus.Cafe.Bistro.Shop",
                "internet_access": "wlan",
                "internet_access:fee": "no",
                "name": "ARTiSAN",
                "website": "https://www.artisan-schladming.at/"
              },
              "geometry": {
                "type": "Point",
                "coordinates": [
                  13.6867856,
                  47.3935423
                ]
              }
            },
            {
              "type": "Feature",
              "properties": {
                "id": "3310019093",
                "osm_type": "node",
                "lat": 47.391669,
                "lon": 13.6874991,
                "amenity": "cafe",
                "name": "Sattler's",
                "opening_hours": "Mo 08:00-18:00; Tu-Su 08:00-22:00"
              },
              "geometry": {
                "type": "Point",
                "coordinates": [
                  13.6874991,
                  47.391669
                ]
              }
            },
            {
              "type": "Feature",
              "properties": {
                "id": "4340472146",
                "osm_type": "node",
                "lat": 47.3905804,
                "lon": 13.6883642,
                "addr:city": "Schladming",
                "addr:postcode": "8970",
                "addr:street": "Martin-Luther-Straße",
                "amenity": "cafe",
                "diet:vegan": "yes",
                "name": "Bistro Cafe"
              },
              "geometry": {
                "type": "Point",
                "coordinates": [
                  13.6883642,
                  47.3905804
                ]
              }
            },
            {
              "type": "Feature",
              "properties": {
                "id": "4355939296",
                "osm_type": "node",
                "lat": 47.3918431,
                "lon": 13.6898028,
                "addr:housenumber": "42",
                "addr:postcode": "8970",
                "addr:street": "Hauptplatz",
                "amenity": "cafe",
                "cuisine": "ice_cream",
                "name": "Mama Joe"
              },
              "geometry": {
                "type": "Point",
                "coordinates": [
                  13.6898028,
                  47.3918431
                ]
              }
            },
            {
              "type": "Feature",
              "properties": {
                "id": "4698047633",
                "osm_type": "node",
                "lat": 47.418234,
                "lon": 13.6833126,
                "addr:city": "Ramsau am Dachstein",
                "addr:country": "AT",
                "addr:housenumber": "49",
                "addr:place": "Leiten",
                "addr:postcode": "8972",
                "amenity": "cafe",
                "contact:email": "info@waldhof-ramsau.at",
                "contact:facebook": "Waldhof.Ramsau",
                "contact:instagram": "waldhof_ramsau",
                "contact:phone": "+43 3687 815 45",
                "contact:website": "https://waldhof-ramsau.at",
                "cuisine": "regional",
                "email": "info@waldhof-ramsau.at",
                "internet_access": "wlan",
                "name": "Cafe Waldhof",
                "opening_hours": "Fr-Tu 11:30-17:30",
                "organic": "only",
                "outdoor_seating": "yes",
                "smoking": "outside"
              },
              "geometry": {
                "type": "Point",
                "coordinates": [
                  13.6833126,
                  47.418234
                ]
              }
            },
            {
              "type": "Feature",
              "properties": {
                "id": "4803542906",
                "osm_type": "node",
                "lat": 47.4101662,
                "lon": 13.7682392,
                "addr:city": "Haus",
                "addr:country": "AT",
                "addr:housenumber": "48",
                "addr:postcode": "8967",
                "addr:street": "Schloßplatz",
                "amenity": "cafe",
                "at_bev:addr_date": "2018-04-02",
                "name": "Stefflbäck",
                "opening_hours": "06:30-17:00",
                "operator": "Sebastian Knapp",
                "phone": "+43 3686 2275",
                "shop": "bakery",
                "website": "http://www.stefflbaeck.at/",
                "wheelchair": "limited"
              },
              "geometry": {
                "type": "Point",
                "coordinates": [
                  13.7682392,
                  47.4101662
                ]
              }
            },
            {
              "type": "Feature",
              "properties": {
                "id": "9178266179",
                "osm_type": "node",
                "lat": 47.3939423,
                "lon": 13.6871953,
                "amenity": "cafe",
                "cuisine": "cake;bakery",
                "indoor_seating": "yes",
                "name": "Lasser",
                "opening_hours": "Mo-Fr 06:30-18:00; Sa 06:30-12:30; Su,PH 07:00-12:00",
                "outdoor_seating": "yes",
                "phone": "+43 3687 22438",
                "website": "https://www.lasser.at/"
              },
              "geometry": {
                "type": "Point",
                "coordinates": [
                  13.6871953,
                  47.3939423
                ]
              }
            },
            {
              "type": "Feature",
              "properties": {
                "id": "12817060655",
                "osm_type": "node",
                "lat": 47.4237671,
                "lon": 13.7809264,
                "amenity": "cafe",
                "email": "info@dorfcafe.at",
                "mobile": "+43 664 2009022",
                "name": "Dorf Café Weißenbach",
                "opening_hours": "Mo-Su 10:00-20:00; Tu off",
                "operator": "Hubert & Angelika Danklmaier",
                "smoking": "outside",
                "takeaway": "yes",
                "website": "https://www.dorfcafe.at/de/dorf-cafe/index.php"
              },
              "geometry": {
                "type": "Point",
                "coordinates": [
                  13.7809264,
                  47.4237671
                ]
              }
            },
            {
              "type": "Feature",
              "properties": {
                "id": "13014775084",
                "osm_type": "node",
                "lat": 47.3929556,
                "lon": 13.6929704,
                "addr:city": "Schladming",
                "addr:housenumber": "52",
                "addr:postcode": "8970",
                "addr:street": "Coburgstraße",
                "amenity": "cafe",
                "name": "Okema Steffl-Bäck",
                "website": "www.stefflbaeck.at"
              },
              "geometry": {
                "type": "Point",
                "coordinates": [
                  13.6929704,
                  47.3929556
                ]
              }
            }
          ],
          "children": []
        },
        {
          "bbox": {
            "south": 47.36431175,
            "west": 13.82261775,
            "north": 47.529588375,
            "east": 14.2994695
          },
          "poiCount": 6,
          "leafCount": 6,
          "averagePosition": [
            14.00527635,
            47.45742931666666
          ],
          "data": [
            {
              "type": "Feature",
              "properties": {
                "id": "2358647288",
                "osm_type": "node",
                "lat": 47.4601778,
                "lon": 13.9909105,
                "addr:city": "Öblarn",
                "addr:housenumber": "34",
                "addr:postcode": "8960",
                "addr:street": "Am Hauptplatz",
                "amenity": "cafe",
                "name": "Kaffeerina",
                "opening_hours": "Fr-Tu 08:00-20:00",
                "outdoor_seating": "yes",
                "phone": "+43 650 53 54 412",
                "website": "https://www.schladming-dachstein.at/de/Service/Infos-von-A-Z/Kaffeerina_az_8576160"
              },
              "geometry": {
                "type": "Point",
                "coordinates": [
                  13.9909105,
                  47.4601778
                ]
              }
            },
            {
              "type": "Feature",
              "properties": {
                "id": "3676649295",
                "osm_type": "node",
                "lat": 47.4445068,
                "lon": 13.9016057,
                "amenity": "cafe",
                "name": "Steffl-Bäck",
                "opening_hours": "07:00-17:00"
              },
              "geometry": {
                "type": "Point",
                "coordinates": [
                  13.9016057,
                  47.4445068
                ]
              }
            },
            {
              "type": "Feature",
              "properties": {
                "id": "10561865246",
                "osm_type": "node",
                "lat": 47.4440118,
                "lon": 13.9020757,
                "amenity": "cafe",
                "indoor_seating": "yes",
                "name": "Café Wieser",
                "opening_hours": "Mo-Fr 09:00-19:00; Sa 09:00-14:00",
                "outdoor_seating": "yes"
              },
              "geometry": {
                "type": "Point",
                "coordinates": [
                  13.9020757,
                  47.4440118
                ]
              }
            },
            {
              "type": "Feature",
              "properties": {
                "id": "12150359620",
                "osm_type": "node",
                "lat": 47.4094915,
                "lon": 13.9661077,
                "amenity": "cafe"
              },
              "geometry": {
                "type": "Point",
                "coordinates": [
                  13.9661077,
                  47.4094915
                ]
              }
            },
            {
              "type": "Feature",
              "properties": {
                "id": "1905075850",
                "osm_type": "node",
                "lat": 47.520625,
                "lon": 14.1432299,
                "amenity": "cafe",
                "email": "boerniscafeamplatzl@gmail.com",
                "mobile": "+43 664 1945732",
                "name": "Börni's Cafe am Platzl",
                "opening_hours": "Tu-Su 08:00-22:00"
              },
              "geometry": {
                "type": "Point",
                "coordinates": [
                  14.1432299,
                  47.520625
                ]
              }
            },
            {
              "type": "Feature",
              "properties": {
                "id": "12169898619",
                "osm_type": "node",
                "lat": 47.465763,
                "lon": 14.1277286,
                "amenity": "cafe",
                "description": "Hinterzimmer mit Cafébereich *im* Spar. Mit Kaffeemaschine und Bedienung durch Spar Angestellte. Bezahlt wird an der Spar Kassa",
                "name": "Spar Cafe"
              },
              "geometry": {
                "type": "Point",
                "coordinates": [
                  14.1277286,
                  47.465763
                ]
              }
            }
          ],
          "children": []
        },
        {
          "bbox": {
            "south": 47.529588375,
            "west": 13.345766,
            "north": 47.694865,
            "east": 13.82261775
          },
          "poiCount": 19,
          "leafCount": 19,
          "averagePosition": [
            13.651181984210526,
            47.602442410526315
          ],
          "data": [
            {
              "type": "Feature",
              "properties": {
                "id": "4185712311",
                "osm_type": "node",
                "lat": 47.5643584,
                "lon": 13.3461755,
                "addr:city": "Abtenau",
                "addr:country": "AT",
                "addr:housenumber": "281",
                "addr:postcode": "5441",
                "addr:street": "Markt",
                "amenity": "cafe",
                "internet_access": "wlan",
                "internet_access:fee": "no",
                "name": "Silvis",
                "operator": "Silvi Rosicova",
                "payment:coins": "yes",
                "payment:notes": "yes",
                "smoking": "outside"
              },
              "geometry": {
                "type": "Point",
                "coordinates": [
                  13.3461755,
                  47.5643584
                ]
              }
            },
            {
              "type": "Feature",
              "properties": {
                "id": "5844469371",
                "osm_type": "node",
                "lat": 47.5929762,
                "lon": 13.4681135,
                "addr:city": "Rußbach am Paß Gschütt",
                "addr:country": "AT",
                "addr:housename": "Hotel Kerschbaumer",
                "addr:housenumber": "1",
                "addr:place": "Schattau",
                "addr:postcode": "5442",
                "addr:street": "Schattau",
                "amenity": "cafe",
                "at_bev:addr_date": "2018-04-02",
                "cuisine": "coffee_shop;ice_cream",
                "internet_access": "wlan",
                "internet_access:fee": "customers",
                "name": "Daybar Wohnzimmer",
                "opening_hours": "Mo-Su 15:00-22:00",
                "outdoor_seating": "yes",
                "phone": "+436242 379",
                "website": "https://www.kerschbaumer.at/de/genuss/kulinarik.html"
              },
              "geometry": {
                "type": "Point",
                "coordinates": [
                  13.4681135,
                  47.5929762
                ]
              }
            },
            {
              "type": "Feature",
              "properties": {
                "id": "1792514372",
                "osm_type": "node",
                "lat": 47.5623134,
                "lon": 13.6492988,
                "addr:city": "Hallstatt",
                "addr:housenumber": "59",
                "addr:postcode": "4830",
                "addr:street": "Marktplatz",
                "amenity": "cafe",
                "bar": "yes",
                "cuisine": "pizza",
                "email": "info@derbl.at",
                "internet_access": "wlan",
                "internet_access:fee": "no",
                "name": "Marktbeisl Zur Ruth",
                "outdoor_seating": "yes",
                "phone": "+43 6134 20017",
                "smoking": "outside",
                "website": "www.marktbeisl.at"
              },
              "geometry": {
                "type": "Point",
                "coordinates": [
                  13.6492988,
                  47.5623134
                ]
              }
            },
            {
              "type": "Feature",
              "properties": {
                "id": "3716813125",
                "osm_type": "node",
                "lat": 47.6419305,
                "lon": 13.6136028,
                "amenity": "cafe",
                "name": "Am Kurpark"
              },
              "geometry": {
                "type": "Point",
                "coordinates": [
                  13.6136028,
                  47.6419305
                ]
              }
            },
            {
              "type": "Feature",
              "properties": {
                "id": "4366964076",
                "osm_type": "node",
                "lat": 47.6093926,
                "lon": 13.7820085,
                "addr:city": "Bad Aussee",
                "addr:housenumber": "72",
                "addr:postcode": "8990",
                "addr:street": "Ischler Straße",
                "amenity": "cafe",
                "level": "0",
                "name": "Café Strenberger",
                "opening_hours": "Mo-Sa 08:00-20:00; Jul-Aug Su 10:00-19:00",
                "operator": "Hugo Rubenbauer",
                "outdoor_seating": "yes",
                "phone": "+43 3622 55415",
                "smoking": "outside",
                "wheelchair": "yes"
              },
              "geometry": {
                "type": "Point",
                "coordinates": [
                  13.7820085,
                  47.6093926
                ]
              }
            },
            {
              "type": "Feature",
              "properties": {
                "id": "4883718382",
                "osm_type": "node",
                "lat": 47.6470044,
                "lon": 13.6148406,
                "addr:city": "Bad Goisern am Hallstättersee",
                "addr:country": "AT",
                "addr:housenumber": "112",
                "addr:postcode": "4822",
                "addr:street": "Bundesstraße",
                "amenity": "cafe",
                "at_bev:addr_date": "2016-10-02",
                "name": "Kurtis Cafe",
                "source": "geoimage.at",
                "website": "https://www.kurtiscafe.at/"
              },
              "geometry": {
                "type": "Point",
                "coordinates": [
                  13.6148406,
                  47.6470044
                ]
              }
            },
            {
              "type": "Feature",
              "properties": {
                "id": "4970830421",
                "osm_type": "node",
                "lat": 47.5563641,
                "lon": 13.6481318,
                "amenity": "cafe",
                "check_date": "2025-03-01",
                "check_date:opening_hours": "2025-03-01",
                "name": "Seecafé Frundsberg",
                "name:de": "Seecafé Frundsberg",
                "opening_hours": "Mo-Su 09:00-18:00",
                "phone": "+43 6134 20050"
              },
              "geometry": {
                "type": "Point",
                "coordinates": [
                  13.6481318,
                  47.5563641
                ]
              }
            },
            {
              "type": "Feature",
              "properties": {
                "id": "5037674743",
                "osm_type": "node",
                "lat": 47.6413263,
                "lon": 13.6165325,
                "addr:city": "Bad Goisern",
                "addr:housenumber": "55",
                "addr:postcode": "4822",
                "addr:street": "Au",
                "amenity": "cafe",
                "cafe": "yes",
                "craft": "bakery",
                "indoor_seating": "yes",
                "name": "Kulturcafe Bäckerei Maislinger",
                "outdoor_seating": "yes",
                "phone": "0613520562",
                "snack": "yes"
              },
              "geometry": {
                "type": "Point",
                "coordinates": [
                  13.6165325,
                  47.6413263
                ]
              }
            },
            {
              "type": "Feature",
              "properties": {
                "id": "7101814799",
                "osm_type": "node",
                "lat": 47.5612695,
                "lon": 13.6485437,
                "addr:housenumber": "169",
                "addr:street": "Seestraße",
                "amenity": "cafe",
                "name": "Simple 169",
                "phone": "+436644311749",
                "website": "https://simple169.eatbu.com"
              },
              "geometry": {
                "type": "Point",
                "coordinates": [
                  13.6485437,
                  47.5612695
                ]
              }
            },
            {
              "type": "Feature",
              "properties": {
                "id": "7221008756",
                "osm_type": "node",
                "lat": 47.642091,
                "lon": 13.616279,
                "amenity": "cafe",
                "name": "Café Laden"
              },
              "geometry": {
                "type": "Point",
                "coordinates": [
                  13.616279,
                  47.642091
                ]
              }
            },
            {
              "type": "Feature",
              "properties": {
                "id": "7620580186",
                "osm_type": "node",
                "lat": 47.5614999,
                "lon": 13.6485916,
                "amenity": "cafe"
              },
              "geometry": {
                "type": "Point",
                "coordinates": [
                  13.6485916,
                  47.5614999
                ]
              }
            },
            {
              "type": "Feature",
              "properties": {
                "id": "9034290264",
                "osm_type": "node",
                "lat": 47.6092788,
                "lon": 13.7817552,
                "amenity": "cafe",
                "cuisine": "ice_cream",
                "name": "Charly Temmel Eis"
              },
              "geometry": {
                "type": "Point",
                "coordinates": [
                  13.7817552,
                  47.6092788
                ]
              }
            },
            {
              "type": "Feature",
              "properties": {
                "id": "10050853333",
                "osm_type": "node",
                "lat": 47.5865128,
                "lon": 13.5389127,
                "addr:city": "Gosau",
                "addr:country": "AT",
                "addr:housenumber": "54",
                "addr:postcode": "4824",
                "addr:street": "Vordertalstraße",
                "amenity": "cafe",
                "check_date": "2022-09-25",
                "email": "office@gosinger-cafe.at",
                "name": "Konditorei & Café Gosinger",
                "opening_hours": "Mo,Tu,Th-Su 08:00-19:00; We off",
                "operator": "Gosinger Konditorei & Café KG",
                "outdoor_seating": "yes",
                "phone": "+43 6136 20735",
                "shop": "bakery",
                "website": "https://www.gosinger-konditorei.com/"
              },
              "geometry": {
                "type": "Point",
                "coordinates": [
                  13.5389127,
                  47.5865128
                ]
              }
            },
            {
              "type": "Feature",
              "properties": {
                "id": "10811572262",
                "osm_type": "node",
                "lat": 47.6098123,
                "lon": 13.7837167,
                "amenity": "cafe",
                "cuisine": "coffee_shop",
                "email": "wilfried.temmel@yahoo.de",
                "name": "Lewandofsky-Temmel Kurcafe-Konditorei",
                "opening_hours": "Mo-Sa 08:00-22:00; Su 09:00-22:00",
                "outdoor_seating": "yes",
                "phone": "+43362253013",
                "website": "https://www.temmel.com/",
                "wheelchair": "yes"
              },
              "geometry": {
                "type": "Point",
                "coordinates": [
                  13.7837167,
                  47.6098123
                ]
              }
            },
            {
              "type": "Feature",
              "properties": {
                "id": "11257762541",
                "osm_type": "node",
                "lat": 47.6084559,
                "lon": 13.7840777,
                "addr:city": "Bad Aussee",
                "addr:country": "AT",
                "addr:housenumber": "104",
                "addr:postcode": "8990",
                "addr:street": "Oppauerplatz",
                "amenity": "cafe",
                "name": "Number 9 Café-Bar",
                "opening_hours": "Tu-Su 16:00-02:00",
                "phone": "+43 676 9404735",
                "wheelchair": "yes"
              },
              "geometry": {
                "type": "Point",
                "coordinates": [
                  13.7840777,
                  47.6084559
                ]
              }
            },
            {
              "type": "Feature",
              "properties": {
                "id": "11260092760",
                "osm_type": "node",
                "lat": 47.6087874,
                "lon": 13.7827272,
                "amenity": "cafe",
                "name": "Cafe Wiedleite"
              },
              "geometry": {
                "type": "Point",
                "coordinates": [
                  13.7827272,
                  47.6087874
                ]
              }
            },
            {
              "type": "Feature",
              "properties": {
                "id": "11775236831",
                "osm_type": "node",
                "lat": 47.672213,
                "lon": 13.6157417,
                "amenity": "cafe",
                "diet:vegetarian": "yes",
                "indoor_seating": "yes",
                "name": "Kaiserin Elisabeth Kaffeehaus",
                "opening_hours": "Mo-We,Fr,Sa 08:30-17:00",
                "outdoor_seating": "yes"
              },
              "geometry": {
                "type": "Point",
                "coordinates": [
                  13.6157417,
                  47.672213
                ]
              }
            },
            {
              "type": "Feature",
              "properties": {
                "id": "12160516803",
                "osm_type": "node",
                "lat": 47.6113728,
                "lon": 13.7860394,
                "addr:city": "Bad Aussee",
                "addr:country": "AT",
                "addr:housenumber": "36",
                "addr:postcode": "8990",
                "addr:street": "Meranplatz",
                "amenity": "cafe",
                "internet_access": "wlan",
                "name": "Cafe Anna Plochl",
                "name:de": "Das Kleine Café am Meranplatz",
                "name:en": "Das Kleine Café am Meranplatz",
                "opening_hours": "Mo-Sa 08:00-18:00; Su 09:00-17:00",
                "outdoor_seating": "yes",
                "phone": "+43362229015",
                "website": "https://www.daskleinecafe.at",
                "wheelchair": "yes"
              },
              "geometry": {
                "type": "Point",
                "coordinates": [
                  13.7860394,
                  47.6113728
                ]
              }
            },
            {
              "type": "Feature",
              "properties": {
                "id": "12171265756",
                "osm_type": "node",
                "lat": 47.5594465,
                "lon": 13.6473688,
                "amenity": "cafe",
                "name": "Muk's Schmankerl",
                "opening_hours": "Mo-Su 10:00-20:00",
                "phone": "+43 664 1225530"
              },
              "geometry": {
                "type": "Point",
                "coordinates": [
                  13.6473688,
                  47.5594465
                ]
              }
            }
          ],
          "children": []
        },
        {
          "bbox": {
            "south": 47.529588375,
            "west": 13.82261775,
            "north": 47.694865,
            "east": 14.2994695
          },
          "poiCount": 9,
          "leafCount": 9,
          "averagePosition": [
            14.08164611111111,
            47.56334412222222
          ],
          "data": [
            {
              "type": "Feature",
              "properties": {
                "id": "1358056181",
                "osm_type": "node",
                "lat": 47.5550929,
                "lon": 13.9310871,
                "addr:city": "Bad Mitterndorf",
                "addr:country": "AT",
                "addr:housenumber": "152",
                "addr:postcode": "8983",
                "addr:street": "Hauptplatz",
                "amenity": "cafe",
                "check_date": "2025-02-21",
                "cuisine": "ice_cream;regional",
                "name": "S'Platzl",
                "opening_hours": "Mo-Su 16:00-23:00; We off",
                "website": "https://www.splatzl8983.at/"
              },
              "geometry": {
                "type": "Point",
                "coordinates": [
                  13.9310871,
                  47.5550929
                ]
              }
            },
            {
              "type": "Feature",
              "properties": {
                "id": "3680686459",
                "osm_type": "node",
                "lat": 47.5552826,
                "lon": 13.933966,
                "amenity": "cafe",
                "check_date:opening_hours": "2024-02-23",
                "contact:phone": "004336233402",
                "name": "Dorfbäckerei Cafe Schlömmer",
                "opening_hours": "Mo-Fr 06:30-18:00; Sa 06:30-17:00; PH closed",
                "shop": "bakery"
              },
              "geometry": {
                "type": "Point",
                "coordinates": [
                  13.933966,
                  47.5552826
                ]
              }
            },
            {
              "type": "Feature",
              "properties": {
                "id": "5910802410",
                "osm_type": "node",
                "lat": 47.6374513,
                "lon": 13.9026821,
                "amenity": "cafe",
                "level": "0",
                "name": "Eck am See",
                "opening_hours": "Mo-Fr 08:00-12:00,14:00-17:00; Sa 08:00-11:00; PH closed",
                "shop": "bakery"
              },
              "geometry": {
                "type": "Point",
                "coordinates": [
                  13.9026821,
                  47.6374513
                ]
              }
            },
            {
              "type": "Feature",
              "properties": {
                "id": "8214584375",
                "osm_type": "node",
                "lat": 47.5624055,
                "lon": 14.0126941,
                "addr:city": "Bad Mitterndorf",
                "addr:housenumber": "71",
                "addr:postcode": "8982",
                "addr:street": "Tauplitz",
                "amenity": "cafe",
                "capacity": "50",
                "cuisine": "coffee_shop;regional",
                "description": "Unser Cafe-Restaurant liegt in Tauplitz bei Bad Mitterndorf und verfügt über eine sehr gute Lage. Wenn sie auf dem Weg zu einer der zahlreichen kulturellen Veranstaltungen im Salzkammergut sind oder nach der sportlichen Aktivität ein Restaurant in Tauplit",
                "diet:gluten_free": "yes",
                "diet:lactose_free": "yes",
                "diet:meat": "yes",
                "diet:vegan": "yes",
                "diet:vegetarian": "yes",
                "email": "office@dietauplitzerin.at",
                "image": "https://www.google.at/url?sa=i&url=https%3A%2F%2Fwww.rollingpin.ch%2Funternehmen%2Frestaurant-und-cafe-die-tauplitzerin-bad-mitterndorf&psig=AOvVaw3WU4DKQPnikAo2ccvEItK_&ust=1607710256865000&source=images&cd=vfe&ved=0CAIQjRxqFwoTCKCwiNGBxO0CFQAAAAAdAAAAAB",
                "internet_access": "yes",
                "internet_access:fee": "no",
                "internet_access:ssid": "dietauplitzerin_FREE",
                "name": "die Tauplitzerin",
                "opening_hours": "Mo-Su 8:00-21:00",
                "outdoor_seating": "yes",
                "payment:american_express": "yes",
                "payment:cash": "yes",
                "payment:credit_cards": "yes",
                "payment:diners_club": "yes",
                "payment:discover_card": "yes",
                "payment:easycard": "yes",
                "payment:ep_geldkarte": "yes",
                "payment:girocard": "yes",
                "payment:jcb": "yes",
                "payment:maestro": "yes",
                "payment:mastercard": "yes",
                "payment:visa": "yes",
                "payment:visa_electron": "yes",
                "phone": "+43368829399",
                "ref:vatin": "ATU72902326",
                "reservation": "recommended",
                "source": "local knowledge",
                "takeaway": "yes",
                "website": "https://www.dietauplitzerin.at/",
                "wheelchair": "yes"
              },
              "geometry": {
                "type": "Point",
                "coordinates": [
                  14.0126941,
                  47.5624055
                ]
              }
            },
            {
              "type": "Feature",
              "properties": {
                "id": "4961512422",
                "osm_type": "node",
                "lat": 47.5656194,
                "lon": 14.2435135,
                "amenity": "cafe",
                "cuisine": "ice_cream;donut;cake",
                "internet_access": "wlan",
                "internet_access:fee": "no",
                "name": "Cafe Taunt",
                "name:de": "Cafe Taunt",
                "opening_hours": "Mo, We-Sa 09:00-22:00; Su 09:00-19:00",
                "outdoor_seating": "yes"
              },
              "geometry": {
                "type": "Point",
                "coordinates": [
                  14.2435135,
                  47.5656194
                ]
              }
            },
            {
              "type": "Feature",
              "properties": {
                "id": "6831014501",
                "osm_type": "node",
                "lat": 47.5598182,
                "lon": 14.2513303,
                "addr:city": "Liezen",
                "addr:housenumber": "12",
                "addr:postcode": "8940",
                "addr:street": "Gesäusestraße",
                "amenity": "cafe",
                "bar": "yes",
                "name": "Cafe-Lounge White"
              },
              "geometry": {
                "type": "Point",
                "coordinates": [
                  14.2513303,
                  47.5598182
                ]
              }
            },
            {
              "type": "Feature",
              "properties": {
                "id": "8486943051",
                "osm_type": "node",
                "lat": 47.533554,
                "lon": 14.1090162,
                "addr:city": "Stainach-Pürgg",
                "addr:country": "AT",
                "addr:housenumber": "146",
                "addr:postcode": "8950",
                "addr:street": "Grazerstraße",
                "amenity": "cafe",
                "brewery": "Gösser",
                "email": "info@stefflbaeck.at",
                "name": "Stefflbäck",
                "operator": "Stefan Knapp e.U.",
                "phone": "+43-3682-25019"
              },
              "geometry": {
                "type": "Point",
                "coordinates": [
                  14.1090162,
                  47.533554
                ]
              }
            },
            {
              "type": "Feature",
              "properties": {
                "id": "8490037598",
                "osm_type": "node",
                "lat": 47.5335413,
                "lon": 14.1079125,
                "amenity": "cafe",
                "name": "Kaffeehaus"
              },
              "geometry": {
                "type": "Point",
                "coordinates": [
                  14.1079125,
                  47.5335413
                ]
              }
            },
            {
              "type": "Feature",
              "properties": {
                "id": "13062137051",
                "osm_type": "node",
                "lat": 47.5673319,
                "lon": 14.2426132,
                "amenity": "cafe",
                "cuisine": "ice_cream",
                "indoor_seating": "yes",
                "name": "il Gelato",
                "outdoor_seating": "yes",
                "wheelchair": "yes"
              },
              "geometry": {
                "type": "Point",
                "coordinates": [
                  14.2426132,
                  47.5673319
                ]
              }
            }
          ],
          "children": []
        }
      ]
    },
    {
      "bbox": {
        "south": 47.36431175,
        "west": 14.2994695,
        "north": 47.694865,
        "east": 15.253173
      },
      "poiCount": 52,
      "leafCount": 0,
      "averagePosition": [
        14.944121388461541,
        47.45773748846154
      ],
      "data": [],
      "children": [
        {
          "bbox": {
            "south": 47.36431175,
            "west": 14.2994695,
            "north": 47.529588375,
            "east": 14.77632125
          },
          "poiCount": 7,
          "leafCount": 7,
          "averagePosition": [
            14.502185057142857,
            47.48933297142857
          ],
          "data": [
            {
              "type": "Feature",
              "properties": {
                "id": "3606546240",
                "osm_type": "node",
                "lat": 47.4858707,
                "lon": 14.4869373,
                "amenity": "cafe",
                "indoor_seating": "yes",
                "name": "Stadtcafe Hupf",
                "outdoor_seating": "no"
              },
              "geometry": {
                "type": "Point",
                "coordinates": [
                  14.4869373,
                  47.4858707
                ]
              }
            },
            {
              "type": "Feature",
              "properties": {
                "id": "3629633717",
                "osm_type": "node",
                "lat": 47.4883333,
                "lon": 14.4881802,
                "amenity": "cafe",
                "name": "Cafe Schmankerl"
              },
              "geometry": {
                "type": "Point",
                "coordinates": [
                  14.4881802,
                  47.4883333
                ]
              }
            },
            {
              "type": "Feature",
              "properties": {
                "id": "7141495097",
                "osm_type": "node",
                "lat": 47.4885804,
                "lon": 14.4850865,
                "addr:city": "Trieben",
                "addr:country": "AT",
                "addr:housenumber": "38/2",
                "addr:postcode": "8784",
                "addr:street": "Schoberpaß Bundesstraße",
                "amenity": "cafe",
                "at_bev:addr_date": "2019-10-01",
                "check_date": "2023-07-07",
                "cuisine": "coffee_shop;sandwich;frühstück",
                "indoor_seating": "yes",
                "internet_access": "no",
                "name": "Café Rita",
                "opening_hours": "Mo-Fr 05:30-13:00",
                "outdoor_seating": "no",
                "phone": "+43 650 5103001",
                "website": "https://caferita.at"
              },
              "geometry": {
                "type": "Point",
                "coordinates": [
                  14.4850865,
                  47.4885804
                ]
              }
            },
            {
              "type": "Feature",
              "properties": {
                "id": "8968790531",
                "osm_type": "node",
                "lat": 47.4938215,
                "lon": 14.4828995,
                "air_conditioning": "yes",
                "amenity": "cafe",
                "brand": "Wild Bean Cafe",
                "brand:wikidata": "Q61804826",
                "changing_table": "no",
                "check_date": "2025-04-13",
                "cuisine": "coffee_shop",
                "device_charging": "yes",
                "indoor_seating": "yes",
                "name": "Wild Bean Cafe",
                "opening_hours": "Mo-Su 06:00-21:00",
                "outdoor_seating": "yes",
                "takeaway": "yes",
                "wheelchair": "yes"
              },
              "geometry": {
                "type": "Point",
                "coordinates": [
                  14.4828995,
                  47.4938215
                ]
              }
            },
            {
              "type": "Feature",
              "properties": {
                "id": "9748071416",
                "osm_type": "node",
                "lat": 47.525724,
                "lon": 14.3598619,
                "addr:housenumber": "46",
                "addr:street": "Hauptstraße",
                "amenity": "cafe",
                "name": "Eis cafe",
                "wheelchair": "yes"
              },
              "geometry": {
                "type": "Point",
                "coordinates": [
                  14.3598619,
                  47.525724
                ]
              }
            },
            {
              "type": "Feature",
              "properties": {
                "id": "4680301784",
                "osm_type": "node",
                "lat": 47.4913344,
                "lon": 14.549181,
                "addr:city": "Gaishorn am See",
                "addr:country": "AT",
                "addr:housenumber": "7",
                "addr:place": "Gaishorn am See",
                "addr:postcode": "8783",
                "amenity": "cafe",
                "at_bev:addr_date": "2019-10-01",
                "name": "Bäckerei, Konditorei, Kaffeehaus Sturm",
                "opening_hours": "Mo-Fr 06:00-18:00; Sa 06:00-13:00",
                "operator": "Leopold Sturm",
                "phone": "+43 3617 22 25-0"
              },
              "geometry": {
                "type": "Point",
                "coordinates": [
                  14.549181,
                  47.4913344
                ]
              }
            },
            {
              "type": "Feature",
              "properties": {
                "id": "7729523710",
                "osm_type": "node",
                "lat": 47.4516665,
                "lon": 14.663149,
                "amenity": "cafe"
              },
              "geometry": {
                "type": "Point",
                "coordinates": [
                  14.663149,
                  47.4516665
                ]
              }
            }
          ],
          "children": []
        },
        {
          "bbox": {
            "south": 47.36431175,
            "west": 14.77632125,
            "north": 47.529588375,
            "east": 15.253173
          },
          "poiCount": 31,
          "leafCount": 31,
          "averagePosition": [
            15.089062025806452,
            47.393030906451614
          ],
          "data": [
            {
              "type": "Feature",
              "properties": {
                "id": "848999913",
                "osm_type": "node",
                "lat": 47.3698993,
                "lon": 15.0925715,
                "amenity": "cafe",
                "name": "Cafe Rene`e",
                "opening_hours": "Tu-Sa 9:00-24:00"
              },
              "geometry": {
                "type": "Point",
                "coordinates": [
                  15.0925715,
                  47.3698993
                ]
              }
            },
            {
              "type": "Feature",
              "properties": {
                "id": "5296310822",
                "osm_type": "node",
                "lat": 47.4262871,
                "lon": 15.0058333,
                "addr:city": "Trofaiach",
                "addr:country": "AT",
                "addr:housenumber": "1",
                "addr:postcode": "8793",
                "addr:street": "Raiffeisenplatz",
                "amenity": "cafe",
                "name": "Café Gande",
                "outdoor_seating": "yes",
                "source": "survey, local knowledge",
                "wheelchair": "yes"
              },
              "geometry": {
                "type": "Point",
                "coordinates": [
                  15.0058333,
                  47.4262871
                ]
              }
            },
            {
              "type": "Feature",
              "properties": {
                "id": "6329171017",
                "osm_type": "node",
                "lat": 47.4277693,
                "lon": 15.0096243,
                "amenity": "cafe",
                "name": "Stamperl"
              },
              "geometry": {
                "type": "Point",
                "coordinates": [
                  15.0096243,
                  47.4277693
                ]
              }
            },
            {
              "type": "Feature",
              "properties": {
                "id": "9923051057",
                "osm_type": "node",
                "lat": 47.4316976,
                "lon": 15.0017962,
                "addr:city": "Trofaiach",
                "addr:country": "AT",
                "addr:housenumber": "5",
                "addr:postcode": "8793",
                "addr:street": "Reichensteinstraße",
                "amenity": "cafe",
                "delivery": "no",
                "mobile": "+43 650 9111161",
                "name": "Café Arcadia",
                "operator": "Ursula Reichmann",
                "outdoor_seating": "yes",
                "source": "survey, local knowledge",
                "takeaway": "yes",
                "website": "https://cafe-arcadia.slue.io/"
              },
              "geometry": {
                "type": "Point",
                "coordinates": [
                  15.0017962,
                  47.4316976
                ]
              }
            },
            {
              "type": "Feature",
              "properties": {
                "id": "12740978664",
                "osm_type": "node",
                "lat": 47.4009068,
                "lon": 14.8244915,
                "amenity": "cafe",
                "name": "Cafe & Backstube Leitner",
                "opening_hours": "Mo - Fr: 06:00-19:00, Sa: 06:00-13:00",
                "phone": "43 (0) 664/8229264"
              },
              "geometry": {
                "type": "Point",
                "coordinates": [
                  14.8244915,
                  47.4009068
                ]
              }
            },
            {
              "type": "Feature",
              "properties": {
                "id": "13114742371",
                "osm_type": "node",
                "lat": 47.3928489,
                "lon": 14.9027443,
                "addr:city": "Kammern",
                "addr:housenumber": "55",
                "addr:postcode": "8773",
                "addr:street": "Hauptstraße",
                "amenity": "cafe",
                "mobile": "+43 676 9575003",
                "name": "Café Ladi",
                "opening_hours": "Mo, Di, Fr, Sa, So, 8:30-20:00 Uhr",
                "outdoor_seating": "yes",
                "phone": "+43 3844 87049"
              },
              "geometry": {
                "type": "Point",
                "coordinates": [
                  14.9027443,
                  47.3928489
                ]
              }
            },
            {
              "type": "Feature",
              "properties": {
                "id": "840572408",
                "osm_type": "node",
                "lat": 47.3798925,
                "lon": 15.094758,
                "addr:city": "Leoben",
                "addr:country": "AT",
                "addr:housenumber": "9",
                "addr:postcode": "8700",
                "addr:street": "Hauptplatz",
                "addr:suburb": "Leoben",
                "amenity": "cafe",
                "diet:vegetarian": "yes",
                "name": "Cafe Steinscherer",
                "opening_hours": "Mo-Fr 07:00-19:00; Sa 07:00-18:00; Su 10:00-18:00",
                "phone": "+43 3842 42378",
                "source": "survey",
                "website": "www.cafe-steinscherer.at"
              },
              "geometry": {
                "type": "Point",
                "coordinates": [
                  15.094758,
                  47.3798925
                ]
              }
            },
            {
              "type": "Feature",
              "properties": {
                "id": "840572455",
                "osm_type": "node",
                "lat": 47.3823146,
                "lon": 15.0941181,
                "addr:city": "Leoben",
                "addr:country": "AT",
                "addr:housenumber": "2a",
                "addr:postcode": "8700",
                "addr:street": "Franz Josef-Straße",
                "addr:suburb": "Leoben",
                "amenity": "cafe",
                "cuisine": "cake;coffee_shop;tea",
                "internet_access": "wlan",
                "name": "Illy-Café Goodies & Snackeria",
                "opening_hours": "Mo-Fr 07:00-19:00; Sa 08:00-18:00",
                "phone": "+43 3842 42613",
                "source": "survey",
                "website": "https://www.goodies-leoben.at/"
              },
              "geometry": {
                "type": "Point",
                "coordinates": [
                  15.0941181,
                  47.3823146
                ]
              }
            },
            {
              "type": "Feature",
              "properties": {
                "id": "840572497",
                "osm_type": "node",
                "lat": 47.3802728,
                "lon": 15.0945489,
                "addr:city": "Leoben",
                "addr:country": "AT",
                "addr:housenumber": "11",
                "addr:postcode": "8700",
                "addr:street": "Hauptplatz",
                "addr:suburb": "Leoben",
                "amenity": "cafe",
                "cuisine": "ice_cream",
                "diet:vegetarian": "yes",
                "name": "Cortina",
                "smoking": "no",
                "source": "survey"
              },
              "geometry": {
                "type": "Point",
                "coordinates": [
                  15.0945489,
                  47.3802728
                ]
              }
            },
            {
              "type": "Feature",
              "properties": {
                "id": "840572516",
                "osm_type": "node",
                "lat": 47.3806021,
                "lon": 15.0943567,
                "addr:city": "Leoben",
                "addr:country": "AT",
                "addr:housenumber": "13",
                "addr:postcode": "8700",
                "addr:street": "Hauptplatz",
                "addr:suburb": "Leoben",
                "amenity": "cafe",
                "name": "Cafe Martini",
                "shop": "bakery",
                "smoking": "isolated",
                "source": "survey",
                "toilets:wheelchair": "no",
                "wheelchair": "limited"
              },
              "geometry": {
                "type": "Point",
                "coordinates": [
                  15.0943567,
                  47.3806021
                ]
              }
            },
            {
              "type": "Feature",
              "properties": {
                "id": "840572527",
                "osm_type": "node",
                "lat": 47.382203,
                "lon": 15.0922438,
                "addr:city": "Leoben",
                "addr:country": "AT",
                "addr:housenumber": "9",
                "addr:postcode": "8700",
                "addr:street": "Peter Tunner-Straße",
                "addr:suburb": "Leoben",
                "alt_name": "Maurer",
                "amenity": "cafe",
                "cuisine": "regional",
                "food": "yes",
                "name": "Peter-Tunner Stüberl",
                "outdoor_seating": "yes",
                "source": "local_knowledge"
              },
              "geometry": {
                "type": "Point",
                "coordinates": [
                  15.0922438,
                  47.382203
                ]
              }
            },
            {
              "type": "Feature",
              "properties": {
                "id": "840572533",
                "osm_type": "node",
                "lat": 47.381381,
                "lon": 15.0942395,
                "addr:city": "Leoben",
                "addr:country": "AT",
                "addr:housenumber": "17",
                "addr:postcode": "8700",
                "addr:street": "Hauptplatz",
                "addr:suburb": "Leoben",
                "amenity": "cafe",
                "diet:vegetarian": "yes",
                "internet_access": "wlan",
                "level": "3",
                "name": "Bellini",
                "opening_hours": "Mo-Fr 09:00-24:00; Sa 09:00-02:00; Su 14:00-24:00",
                "phone": "+43 3842 484 86",
                "smoking": "isolated",
                "source": "survey",
                "website": "http://www.cafebellini.at",
                "wheelchair": "limited"
              },
              "geometry": {
                "type": "Point",
                "coordinates": [
                  15.0942395,
                  47.381381
                ]
              }
            },
            {
              "type": "Feature",
              "properties": {
                "id": "840572556",
                "osm_type": "node",
                "lat": 47.3807514,
                "lon": 15.0949967,
                "amenity": "cafe",
                "brand": "Segafredo",
                "brand:wikidata": "Q21282762",
                "brand:wikipedia": "it:Segafredo Zanetti",
                "cuisine": "coffee_shop",
                "name": "Segafredo",
                "takeaway": "yes"
              },
              "geometry": {
                "type": "Point",
                "coordinates": [
                  15.0949967,
                  47.3807514
                ]
              }
            },
            {
              "type": "Feature",
              "properties": {
                "id": "840607027",
                "osm_type": "node",
                "lat": 47.3745581,
                "lon": 15.0908851,
                "amenity": "cafe"
              },
              "geometry": {
                "type": "Point",
                "coordinates": [
                  15.0908851,
                  47.3745581
                ]
              }
            },
            {
              "type": "Feature",
              "properties": {
                "id": "848736122",
                "osm_type": "node",
                "lat": 47.3817538,
                "lon": 15.0920069,
                "amenity": "cafe",
                "name": "Erzherzog Johann",
                "wheelchair": "no"
              },
              "geometry": {
                "type": "Point",
                "coordinates": [
                  15.0920069,
                  47.3817538
                ]
              }
            },
            {
              "type": "Feature",
              "properties": {
                "id": "851245119",
                "osm_type": "node",
                "lat": 47.380561,
                "lon": 15.0951181,
                "addr:city": "Leoben",
                "addr:housenumber": "1",
                "addr:postcode": "8700",
                "addr:street": "Hauptplatz",
                "amenity": "cafe",
                "contact:phone": "+43 3842 428 23",
                "name": "Stadtcafe-Leoben",
                "opening_hours": "Mo-We 08:30-24:00; Th-Sa 08:30-01:00; Su 14:00-22:00",
                "website": "http://www.stadtcafe-leoben.at/impressum/impressum.php"
              },
              "geometry": {
                "type": "Point",
                "coordinates": [
                  15.0951181,
                  47.380561
                ]
              }
            },
            {
              "type": "Feature",
              "properties": {
                "id": "858942905",
                "osm_type": "node",
                "lat": 47.3789544,
                "lon": 15.0976634,
                "amenity": "cafe"
              },
              "geometry": {
                "type": "Point",
                "coordinates": [
                  15.0976634,
                  47.3789544
                ]
              }
            },
            {
              "type": "Feature",
              "properties": {
                "id": "1432566681",
                "osm_type": "node",
                "lat": 47.3864231,
                "lon": 15.0967452,
                "access": "customers",
                "amenity": "cafe",
                "smoking": "no",
                "smoking:outside": "yes",
                "source": "survey",
                "wheelchair": "yes"
              },
              "geometry": {
                "type": "Point",
                "coordinates": [
                  15.0967452,
                  47.3864231
                ]
              }
            },
            {
              "type": "Feature",
              "properties": {
                "id": "1436582115",
                "osm_type": "node",
                "lat": 47.3796514,
                "lon": 15.1050233,
                "amenity": "cafe"
              },
              "geometry": {
                "type": "Point",
                "coordinates": [
                  15.1050233,
                  47.3796514
                ]
              }
            },
            {
              "type": "Feature",
              "properties": {
                "id": "1436582124",
                "osm_type": "node",
                "lat": 47.3819285,
                "lon": 15.0954038,
                "addr:city": "Leoben",
                "addr:country": "AT",
                "addr:housenumber": "19",
                "addr:postcode": "8700",
                "addr:street": "Hauptplatz",
                "addr:suburb": "Leoben",
                "amenity": "cafe",
                "branch": "Espresso",
                "brand": "Segafredo",
                "brand:wikidata": "Q21282762",
                "brand:wikipedia": "it:Segafredo Zanetti",
                "cuisine": "coffee_shop",
                "name": "Segafredo",
                "opening_hours": "Mo-Sa 08:00-20:00",
                "phone": "+43 664 3779085",
                "source": "survey; http://www.segafredo-leoben.at/",
                "takeaway": "yes",
                "website": "http://www.segafredo-leoben.at/"
              },
              "geometry": {
                "type": "Point",
                "coordinates": [
                  15.0954038,
                  47.3819285
                ]
              }
            },
            {
              "type": "Feature",
              "properties": {
                "id": "1741556706",
                "osm_type": "node",
                "lat": 47.3816061,
                "lon": 15.0951729,
                "amenity": "cafe",
                "name": "Coffeeshop"
              },
              "geometry": {
                "type": "Point",
                "coordinates": [
                  15.0951729,
                  47.3816061
                ]
              }
            },
            {
              "type": "Feature",
              "properties": {
                "id": "1838967348",
                "osm_type": "node",
                "lat": 47.4071093,
                "lon": 15.2483126,
                "amenity": "cafe",
                "entrance": "yes",
                "name": "Friedrich",
                "shop": "bakery"
              },
              "geometry": {
                "type": "Point",
                "coordinates": [
                  15.2483126,
                  47.4071093
                ]
              }
            },
            {
              "type": "Feature",
              "properties": {
                "id": "1838993209",
                "osm_type": "node",
                "lat": 47.407091,
                "lon": 15.2484814,
                "amenity": "cafe",
                "entrance": "yes",
                "name": "Kommunikation Gemeinde Oberaich"
              },
              "geometry": {
                "type": "Point",
                "coordinates": [
                  15.2484814,
                  47.407091
                ]
              }
            },
            {
              "type": "Feature",
              "properties": {
                "id": "1844578717",
                "osm_type": "node",
                "lat": 47.3802888,
                "lon": 15.0955186,
                "amenity": "cafe",
                "name": "Bodega"
              },
              "geometry": {
                "type": "Point",
                "coordinates": [
                  15.0955186,
                  47.3802888
                ]
              }
            },
            {
              "type": "Feature",
              "properties": {
                "id": "2079693663",
                "osm_type": "node",
                "lat": 47.5200045,
                "lon": 15.2235022,
                "addr:housenumber": "70",
                "addr:postcode": "8621",
                "addr:street": "Thörl",
                "air_conditioning": "yes",
                "amenity": "cafe",
                "check_date": "2025-05-31",
                "indoor_seating": "yes",
                "name": "Cafe Ebner",
                "outdoor_seating": "yes",
                "wheelchair": "no",
                "wifi": "no"
              },
              "geometry": {
                "type": "Point",
                "coordinates": [
                  15.2235022,
                  47.5200045
                ]
              }
            },
            {
              "type": "Feature",
              "properties": {
                "id": "3542673259",
                "osm_type": "node",
                "lat": 47.3824585,
                "lon": 15.0935701,
                "amenity": "cafe",
                "name": "Coffeeshop"
              },
              "geometry": {
                "type": "Point",
                "coordinates": [
                  15.0935701,
                  47.3824585
                ]
              }
            },
            {
              "type": "Feature",
              "properties": {
                "id": "3822222639",
                "osm_type": "node",
                "lat": 47.382117,
                "lon": 15.0927983,
                "addr:city": "Leoben",
                "addr:country": "AT",
                "addr:housenumber": "4",
                "addr:postcode": "8700",
                "addr:street": "Peter Tunner-Straße",
                "addr:suburb": "Leoben",
                "amenity": "cafe",
                "cuisine": "regional",
                "name": "Mitt'n drin",
                "opening_hours": "Mo-Th 08:30-18:00; Fr 08:30-14:00",
                "operator": "Lebenshilfe Leoben",
                "outdoor_seating": "yes",
                "phone": "+43 50100 34911",
                "source": "survey",
                "website": "https://www.lebenshilfe-leoben.at/cms/index.php?option=com_content&task=view&id=75&Itemid=70",
                "wheelchair": "yes"
              },
              "geometry": {
                "type": "Point",
                "coordinates": [
                  15.0927983,
                  47.382117
                ]
              }
            },
            {
              "type": "Feature",
              "properties": {
                "id": "4263557365",
                "osm_type": "node",
                "lat": 47.3888795,
                "lon": 15.1008569,
                "amenity": "cafe",
                "name": "Cappuccino",
                "opening_hours": "Tu-Sa 16:00-24:00",
                "operator": "Karin Geßelbauer",
                "outdoor_seating": "yes"
              },
              "geometry": {
                "type": "Point",
                "coordinates": [
                  15.1008569,
                  47.3888795
                ]
              }
            },
            {
              "type": "Feature",
              "properties": {
                "id": "4686713067",
                "osm_type": "node",
                "lat": 47.3808226,
                "lon": 15.0931459,
                "amenity": "cafe",
                "level": "0",
                "name": "Habakuk",
                "opening_hours": "Mo,We,Th 09:00-24:00+; Tu,Fr 07:00-24:00+; Sa,Su 10:00-24:00+",
                "outdoor_seating": "yes",
                "smoking": "yes",
                "website": "https://www.facebook.com/Habakuk.Leoben/"
              },
              "geometry": {
                "type": "Point",
                "coordinates": [
                  15.0931459,
                  47.3808226
                ]
              }
            },
            {
              "type": "Feature",
              "properties": {
                "id": "5015464690",
                "osm_type": "node",
                "lat": 47.3751546,
                "lon": 15.072636,
                "addr:city": "Leoben",
                "addr:country": "AT",
                "addr:housenumber": "77b",
                "addr:postcode": "8700",
                "addr:street": "Pestalozzistraße",
                "addr:suburb": "Donawitz",
                "amenity": "cafe",
                "fixme": "check position",
                "name": "Ois Paletti",
                "opening_hours": "Mo-Fr 08:00-22:00; Sa 09:00-22:00; Su 14:30-20:00",
                "phone": "+43 664 75012525",
                "source": "local_knowledge"
              },
              "geometry": {
                "type": "Point",
                "coordinates": [
                  15.072636,
                  47.3751546
                ]
              }
            },
            {
              "type": "Feature",
              "properties": {
                "id": "10957532564",
                "osm_type": "node",
                "lat": 47.3977695,
                "lon": 15.2277593,
                "addr:city": "Bruck an der Mur",
                "addr:housenumber": "1",
                "addr:postcode": "8600",
                "addr:street": "Alt-Mitteraich",
                "amenity": "cafe",
                "name": "Nussbaumstüberl"
              },
              "geometry": {
                "type": "Point",
                "coordinates": [
                  15.2277593,
                  47.3977695
                ]
              }
            }
          ],
          "children": []
        },
        {
          "bbox": {
            "south": 47.529588375,
            "west": 14.2994695,
            "north": 47.694865,
            "east": 14.77632125
          },
          "poiCount": 5,
          "leafCount": 5,
          "averagePosition": [
            14.407978259999998,
            47.61470118
          ],
          "data": [
            {
              "type": "Feature",
              "properties": {
                "id": "1832134449",
                "osm_type": "node",
                "lat": 47.6643281,
                "lon": 14.3403242,
                "addr:city": "Spital am Pyhrn",
                "addr:country": "AT",
                "addr:postcode": "4582",
                "amenity": "cafe",
                "brewery": "Gösser",
                "contact:phone": "+43 7563 8007",
                "cuisine": "cake",
                "name": "Konditorei Kemetmüller",
                "opening_hours": "Tu-Sa 06:45-18:00,PH,Su 09:00-18:00,SH",
                "outdoor_seating": "yes",
                "website": "https://www.kemetmueller.com",
                "wheelchair": "limited"
              },
              "geometry": {
                "type": "Point",
                "coordinates": [
                  14.3403242,
                  47.6643281
                ]
              }
            },
            {
              "type": "Feature",
              "properties": {
                "id": "4343456879",
                "osm_type": "node",
                "lat": 47.5765861,
                "lon": 14.4609652,
                "addr:city": "Admont",
                "addr:country": "AT",
                "addr:housenumber": "11",
                "addr:postcode": "8911",
                "addr:street": "Hauptstraße",
                "amenity": "cafe",
                "at_bev:addr_date": "2018-10-01",
                "contact:phone": "+43 3613 4170",
                "cuisine": "cake",
                "name": "Café Wagner"
              },
              "geometry": {
                "type": "Point",
                "coordinates": [
                  14.4609652,
                  47.5765861
                ]
              }
            },
            {
              "type": "Feature",
              "properties": {
                "id": "10562303918",
                "osm_type": "node",
                "lat": 47.6277094,
                "lon": 14.3155791,
                "amenity": "cafe",
                "name": "Arenatreff"
              },
              "geometry": {
                "type": "Point",
                "coordinates": [
                  14.3155791,
                  47.6277094
                ]
              }
            },
            {
              "type": "Feature",
              "properties": {
                "id": "12064835609",
                "osm_type": "node",
                "lat": 47.6645768,
                "lon": 14.3395103,
                "amenity": "cafe",
                "changing_table": "yes",
                "changing_table:count": "1",
                "changing_table:fee": "no",
                "changing_table:location": "wheelchair_toilet",
                "indoor_seating": "yes",
                "level": "0",
                "name": "Stifts-Cafe",
                "opening_hours": "Mo-Su 08:00-22:00",
                "outdoor_seating": "yes",
                "toilets": "yes",
                "toilets:wheelchair": "designated",
                "wheelchair": "yes"
              },
              "geometry": {
                "type": "Point",
                "coordinates": [
                  14.3395103,
                  47.6645768
                ]
              }
            },
            {
              "type": "Feature",
              "properties": {
                "id": "13074871412",
                "osm_type": "node",
                "lat": 47.5403055,
                "lon": 14.5835125,
                "amenity": "cafe"
              },
              "geometry": {
                "type": "Point",
                "coordinates": [
                  14.5835125,
                  47.5403055
                ]
              }
            }
          ],
          "children": []
        },
        {
          "bbox": {
            "south": 47.529588375,
            "west": 14.77632125,
            "north": 47.694865,
            "east": 15.253173
          },
          "poiCount": 9,
          "leafCount": 9,
          "averagePosition": [
            15.086466966666668,
            47.5688394
          ],
          "data": [
            {
              "type": "Feature",
              "properties": {
                "id": "1344333040",
                "osm_type": "node",
                "lat": 47.5427198,
                "lon": 14.8850466,
                "amenity": "cafe",
                "contact:phone": "+43 664 1814 204",
                "cuisine": "cake",
                "name": "Meiteim",
                "opening_hours": "Mo-Su 08:00-19:00; Su 10:00-19:00",
                "website": "http://www.gastro-fedl.sta.io/standort/"
              },
              "geometry": {
                "type": "Point",
                "coordinates": [
                  14.8850466,
                  47.5427198
                ]
              }
            },
            {
              "type": "Feature",
              "properties": {
                "id": "4714928987",
                "osm_type": "node",
                "lat": 47.6643578,
                "lon": 14.9861427,
                "addr:housenumber": "193",
                "addr:postcode": "8924",
                "addr:street": "Wildalpen",
                "amenity": "cafe",
                "name": "Kajakshop Wildalpen",
                "phone": "+43 3636 2040",
                "website": "http://www.kajakshop.at/"
              },
              "geometry": {
                "type": "Point",
                "coordinates": [
                  14.9861427,
                  47.6643578
                ]
              }
            },
            {
              "type": "Feature",
              "properties": {
                "id": "5906995179",
                "osm_type": "node",
                "lat": 47.6653305,
                "lon": 14.9844423,
                "amenity": "cafe",
                "name": "BurnOut Wildalps"
              },
              "geometry": {
                "type": "Point",
                "coordinates": [
                  14.9844423,
                  47.6653305
                ]
              }
            },
            {
              "type": "Feature",
              "properties": {
                "id": "7259006053",
                "osm_type": "node",
                "lat": 47.5411973,
                "lon": 14.8985164,
                "amenity": "cafe"
              },
              "geometry": {
                "type": "Point",
                "coordinates": [
                  14.8985164,
                  47.5411973
                ]
              }
            },
            {
              "type": "Feature",
              "properties": {
                "id": "3530638355",
                "osm_type": "node",
                "lat": 47.5444062,
                "lon": 15.2381203,
                "addr:city": "Aflenz",
                "addr:country": "AT",
                "addr:housenumber": "51",
                "addr:place": "Aflenz Kurort",
                "addr:postcode": "8623",
                "amenity": "cafe",
                "at_bev:addr_date": "2018-10-01",
                "indoor_seating": "yes",
                "name": "Cafe Konditorei Moser-Fink",
                "opening_hours": "Tu,Fr,Sa 08:00-18:00; Mo 14:00-18:00; Su,PH 08:00-12:00,13:00-18:00",
                "outdoor_seating": "yes",
                "website": "http://www.moser-fink.at/"
              },
              "geometry": {
                "type": "Point",
                "coordinates": [
                  15.2381203,
                  47.5444062
                ]
              }
            },
            {
              "type": "Feature",
              "properties": {
                "id": "7283512208",
                "osm_type": "node",
                "lat": 47.5440117,
                "lon": 15.2381596,
                "amenity": "cafe",
                "name": "Hochschwab Röster Achatz OG"
              },
              "geometry": {
                "type": "Point",
                "coordinates": [
                  15.2381596,
                  47.5440117
                ]
              }
            },
            {
              "type": "Feature",
              "properties": {
                "id": "7283512209",
                "osm_type": "node",
                "lat": 47.5415185,
                "lon": 15.2396029,
                "amenity": "cafe",
                "name": "Siegi's Cafe",
                "opening_hours": "Mo-Th 14:00+; Fr-Su 15:00+",
                "outdoor_seating": "yes"
              },
              "geometry": {
                "type": "Point",
                "coordinates": [
                  15.2396029,
                  47.5415185
                ]
              }
            },
            {
              "type": "Feature",
              "properties": {
                "id": "7283512210",
                "osm_type": "node",
                "lat": 47.539978,
                "lon": 15.2388652,
                "amenity": "cafe",
                "name": "Cafe-Bar-Bistro Hoppipolla",
                "outdoor_seating": "yes"
              },
              "geometry": {
                "type": "Point",
                "coordinates": [
                  15.2388652,
                  47.539978
                ]
              }
            },
            {
              "type": "Feature",
              "properties": {
                "id": "10120565463",
                "osm_type": "node",
                "lat": 47.5360348,
                "lon": 15.0693067,
                "addr:city": "Tragöß-Sankt Katharein",
                "addr:housenumber": "45",
                "addr:postcode": "8612",
                "addr:street": "Oberort",
                "amenity": "cafe",
                "cuisine": "breakfast;coffee_shop",
                "name": "Hoamat-Kaffee",
                "opening_hours": "Apr-Oct: Mo-Su, 08:30-19:00, We off; Nov: Mo-Su, 08:30-19:00",
                "outdoor_seating": "yes",
                "phone": "+43 676 946 6562"
              },
              "geometry": {
                "type": "Point",
                "coordinates": [
                  15.0693067,
                  47.5360348
                ]
              }
            }
          ],
          "children": []
        }
      ]
    }
  ]
}