{
  "bbox": {
    "south": 46.372652,
    "west": 11.438358999999998,
    "north": 47.033758500000005,
    "east": 13.345766
  },
  "poiCount": 44,
  "leafCount": 44,
  "averagePosition": [
    12.161233502272728,
    46.72427792727273
  ],
  "data": [
    {
      "type": "Feature",
      "properties": {
        "id": "12278376939",
        "osm_type": "node",
        "lat": 47.0056952,
        "lon": 11.5059471,
        "brand": "Skechers",
        "brand:wikidata": "Q2945643",
        "level": "0",
        "name": "Skechers",
        "shop": "shoes"
      },
      "geometry": {
        "type": "Point",
        "coordinates": [
          11.5059471,
          47.0056952
        ]
      }
    },
    {
      "type": "Feature",
      "properties": {
        "id": "5811645142",
        "osm_type": "node",
        "lat": 46.9518353,
        "lon": 11.9209165,
        "check_date": "2024-12-21",
        "contact:email": "shoes@abfalterer.it",
        "contact:phone": "+39 474 671202",
        "contact:website": "http://abfalterer-shoes.com/",
        "description": "Schuhe, Lederwaren",
        "name": "Abfalterer",
        "opening_hours": "Mo-Fr 08:15-12:00,15:00-18:30; Sa 08:15-12:00; Jul Sa[2]-Sep Sa[1]: Sa 08:15-12:00,15:00-18:00; Dec Sa[3]-Dec Sa[5]: Sa 08:15-12:00,15:00-18:00; easter: Sa 15:00-18:00; Su,PH off",
        "operator": "ABFALTERER NRK OHG, Luttach",
        "shop": "shoes"
      },
      "geometry": {
        "type": "Point",
        "coordinates": [
          11.9209165,
          46.9518353
        ]
      }
    },
    {
      "type": "Feature",
      "properties": {
        "id": "6287087736",
        "osm_type": "node",
        "lat": 46.9202628,
        "lon": 11.9515523,
        "name": "Schuhchic Reden",
        "shop": "shoes"
      },
      "geometry": {
        "type": "Point",
        "coordinates": [
          11.9515523,
          46.9202628
        ]
      }
    },
    {
      "type": "Feature",
      "properties": {
        "id": "10976695493",
        "osm_type": "node",
        "lat": 46.9174479,
        "lon": 12.3310542,
        "addr:city": "St Jakob/Defereggen",
        "addr:country": "AT",
        "addr:housenumber": "53",
        "addr:street": "Unterrotte",
        "name": "Unterkircher",
        "shop": "shoes"
      },
      "geometry": {
        "type": "Point",
        "coordinates": [
          12.3310542,
          46.9174479
        ]
      }
    },
    {
      "type": "Feature",
      "properties": {
        "id": "11655858940",
        "osm_type": "node",
        "lat": 47.0028126,
        "lon": 12.5407299,
        "addr:city": "Matrei in Osttirol",
        "addr:country": "AT",
        "addr:housenumber": "2",
        "addr:postcode": "9971",
        "addr:street": "Josef-Gridling-Weg",
        "email": "gerd.rainer@gmx.at",
        "name": "Rainer",
        "phone": "+43-4875-6594",
        "shop": "shoes",
        "website": "https://matreimarkt.at/betrieb/schuh-sport-textil-rainer/"
      },
      "geometry": {
        "type": "Point",
        "coordinates": [
          12.5407299,
          47.0028126
        ]
      }
    },
    {
      "type": "Feature",
      "properties": {
        "id": "11666870695",
        "osm_type": "node",
        "lat": 46.9936389,
        "lon": 12.5422838,
        "addr:city": "Matrei in Osttirol",
        "addr:country": "AT",
        "addr:housenumber": "75",
        "addr:postcode": "9971",
        "addr:street": "Lienzer Straße",
        "brand": "Quick Schuh",
        "brand:wikidata": "Q2123069",
        "email": "info@quick-schuh-matrei.at",
        "name": "Quick Schuh",
        "official_name": "Wibmer GmbH",
        "opening_hours": "Mo-Fr 08:30-12:30, 13:30-18:00",
        "phone": "+43 4875 6581121",
        "shop": "shoes",
        "website": "https://www.quick-schuh.com/stores/matrei-in-osttirol/"
      },
      "geometry": {
        "type": "Point",
        "coordinates": [
          12.5422838,
          46.9936389
        ]
      }
    },
    {
      "type": "Feature",
      "properties": {
        "id": "948860259",
        "osm_type": "node",
        "lat": 46.4294486,
        "lon": 11.6855993,
        "addr:city": "Pozza di Fassa",
        "addr:country": "IT",
        "addr:housenumber": "96",
        "addr:postcode": "38036",
        "addr:street": "Strada Dolomites",
        "name": "Calzature Dolomiti",
        "opening_hours": "Mo-Fr 09:00-12:00,16:00-19:00",
        "shop": "shoes"
      },
      "geometry": {
        "type": "Point",
        "coordinates": [
          11.6855993,
          46.4294486
        ]
      }
    },
    {
      "type": "Feature",
      "properties": {
        "id": "2328413793",
        "osm_type": "node",
        "lat": 46.8304593,
        "lon": 11.7809664,
        "name": "Schuhmode Christine",
        "shop": "shoes"
      },
      "geometry": {
        "type": "Point",
        "coordinates": [
          11.7809664,
          46.8304593
        ]
      }
    },
    {
      "type": "Feature",
      "properties": {
        "id": "2440226328",
        "osm_type": "node",
        "lat": 46.7373609,
        "lon": 11.6415687,
        "shop": "shoes"
      },
      "geometry": {
        "type": "Point",
        "coordinates": [
          11.6415687,
          46.7373609
        ]
      }
    },
    {
      "type": "Feature",
      "properties": {
        "id": "2749652260",
        "osm_type": "node",
        "lat": 46.7918545,
        "lon": 11.928788,
        "addr:city": "Bruneck - Brunico",
        "addr:city:de": "Bruneck",
        "addr:city:it": "Brunico",
        "addr:housenumber": "20a",
        "addr:postcode": "39031",
        "addr:street": "St.-Lorenzner-Straße - Via San Lorenzo",
        "addr:street:de": "St.-Lorenzner-Straße",
        "addr:street:it": "Via San Lorenzo",
        "name": "Pittarello",
        "shop": "shoes"
      },
      "geometry": {
        "type": "Point",
        "coordinates": [
          11.928788,
          46.7918545
        ]
      }
    },
    {
      "type": "Feature",
      "properties": {
        "id": "2756042101",
        "osm_type": "node",
        "lat": 46.5732121,
        "lon": 11.6748592,
        "addr:city": "Urtijëi - St.Ulrich - Ortisei",
        "addr:city:de": "St.Ulrich",
        "addr:city:it": "Ortisei",
        "addr:city:lld": "Urtijëi",
        "addr:housenumber": "117",
        "addr:postcode": "39046",
        "addr:street": "Streda Rezia",
        "addr:street:de": "Rezia-Straße",
        "addr:street:it": "Via Rezia",
        "addr:street:lld": "Streda Rezia",
        "email": "malsinerklaus@gmail.com",
        "name": "MK by Malsiner",
        "phone": "+39 0471 797115",
        "shop": "shoes",
        "website": "https://www.valgardena.it/en/addresses/detail/base/poi/ortisei-val-gardena/mk-by-malsiner/59519DB5CA5D41FCD8A9AC221DE9FB00/"
      },
      "geometry": {
        "type": "Point",
        "coordinates": [
          11.6748592,
          46.5732121
        ]
      }
    },
    {
      "type": "Feature",
      "properties": {
        "id": "2756046213",
        "osm_type": "node",
        "lat": 46.5742673,
        "lon": 11.6714663,
        "addr:city": "Urtijëi - St.Ulrich - Ortisei",
        "addr:city:de": "St.Ulrich",
        "addr:city:it": "Ortisei",
        "addr:city:lld": "Urtijëi",
        "addr:housenumber": "28A",
        "addr:postcode": "39046",
        "addr:street": "Streda Rezia",
        "addr:street:de": "Rezia-Straße",
        "addr:street:it": "Via Rezia",
        "addr:street:lld": "Streda Rezia",
        "email": "info@rabanser.com",
        "name": "Rabanser Shoes",
        "name:de": "Schuhe Rabanser",
        "name:it": "Calzature Rabanser",
        "phone": "+39 0471 797934",
        "shop": "shoes",
        "website": "https://www.valgardena.it/en/addresses/detail/base/poi/ortisei-val-gardena/rabanser-shoes/4C1AF54FE64B422D9DBAD1F590435F71/"
      },
      "geometry": {
        "type": "Point",
        "coordinates": [
          11.6714663,
          46.5742673
        ]
      }
    },
    {
      "type": "Feature",
      "properties": {
        "id": "3132017306",
        "osm_type": "node",
        "lat": 46.554523,
        "lon": 11.7581032,
        "addr:housenumber": "182",
        "addr:street": "Streda Mëisules",
        "email": "klauspeppi@alice.it",
        "name": "Pitscheider",
        "phone": "+39 0471 795163",
        "shop": "shoes",
        "website": "https://www.valgardena.it/en/addresses/detail/base/poi/selva-val-gardena/shoes-pitscheider/5041E637DBE2EF8E103D146E1B6563BE/"
      },
      "geometry": {
        "type": "Point",
        "coordinates": [
          11.7581032,
          46.554523
        ]
      }
    },
    {
      "type": "Feature",
      "properties": {
        "id": "4949158339",
        "osm_type": "node",
        "lat": 46.7213775,
        "lon": 11.6550789,
        "name": "S. Brugger",
        "name:de": "S. Brugger",
        "shop": "shoes"
      },
      "geometry": {
        "type": "Point",
        "coordinates": [
          11.6550789,
          46.7213775
        ]
      }
    },
    {
      "type": "Feature",
      "properties": {
        "id": "8007164092",
        "osm_type": "node",
        "lat": 46.7173464,
        "lon": 11.6575456,
        "name": "Fawa Shoes",
        "opening_hours": "Mo-Fr 09:00-18:30; Sa 09:30-18:00",
        "payment:credit_cards": "yes",
        "payment:debit_cards": "yes",
        "shop": "shoes",
        "wheelchair": "yes"
      },
      "geometry": {
        "type": "Point",
        "coordinates": [
          11.6575456,
          46.7173464
        ]
      }
    },
    {
      "type": "Feature",
      "properties": {
        "id": "8021403631",
        "osm_type": "node",
        "lat": 46.7174772,
        "lon": 11.657275,
        "name": "Cljo",
        "shop": "shoes",
        "wheelchair": "no"
      },
      "geometry": {
        "type": "Point",
        "coordinates": [
          11.657275,
          46.7174772
        ]
      }
    },
    {
      "type": "Feature",
      "properties": {
        "id": "8026127487",
        "osm_type": "node",
        "lat": 46.7165989,
        "lon": 11.6560261,
        "name": "Dissinger",
        "shop": "shoes"
      },
      "geometry": {
        "type": "Point",
        "coordinates": [
          11.6560261,
          46.7165989
        ]
      }
    },
    {
      "type": "Feature",
      "properties": {
        "id": "10106616815",
        "osm_type": "node",
        "lat": 46.5667424,
        "lon": 11.560461,
        "name": "Wörndle",
        "shop": "shoes",
        "wheelchair": "no"
      },
      "geometry": {
        "type": "Point",
        "coordinates": [
          11.560461,
          46.5667424
        ]
      }
    },
    {
      "type": "Feature",
      "properties": {
        "id": "10106648157",
        "osm_type": "node",
        "lat": 46.5670161,
        "lon": 11.5602932,
        "name": "Wörndle",
        "opening_hours": "Mo-Sa 08:30-12:00, Mo-Fr 15:30-18:00",
        "shop": "shoes"
      },
      "geometry": {
        "type": "Point",
        "coordinates": [
          11.5602932,
          46.5670161
        ]
      }
    },
    {
      "type": "Feature",
      "properties": {
        "id": "10305008279",
        "osm_type": "node",
        "lat": 46.6403,
        "lon": 11.5665256,
        "name": "K. Delmonego",
        "shop": "shoes",
        "wheelchair": "limited"
      },
      "geometry": {
        "type": "Point",
        "coordinates": [
          11.5665256,
          46.6403
        ]
      }
    },
    {
      "type": "Feature",
      "properties": {
        "id": "11075158521",
        "osm_type": "node",
        "lat": 46.7608935,
        "lon": 12.0302441,
        "check_date": "2025-08-23",
        "check_date:opening_hours": "2025-08-23",
        "name": "Mutschlechner",
        "opening_hours": "Mo-Sa 08:00-12:00,15:00-18:30",
        "shop": "shoes",
        "wheelchair": "yes"
      },
      "geometry": {
        "type": "Point",
        "coordinates": [
          12.0302441,
          46.7608935
        ]
      }
    },
    {
      "type": "Feature",
      "properties": {
        "id": "11569339528",
        "osm_type": "node",
        "lat": 46.5871666,
        "lon": 11.9035744,
        "check_date": "2024-01-30",
        "name": "Calzature Schue",
        "shop": "shoes"
      },
      "geometry": {
        "type": "Point",
        "coordinates": [
          11.9035744,
          46.5871666
        ]
      }
    },
    {
      "type": "Feature",
      "properties": {
        "id": "11708171106",
        "osm_type": "node",
        "lat": 46.7972163,
        "lon": 11.9413567,
        "check_date": "2024-03-09",
        "name": "Gärtner",
        "opening_hours": "Mo-Fr 08:30-12:30,14:30-18:30; Sa 08:30-12:00; Su off",
        "shop": "shoes",
        "wheelchair": "yes"
      },
      "geometry": {
        "type": "Point",
        "coordinates": [
          11.9413567,
          46.7972163
        ]
      }
    },
    {
      "type": "Feature",
      "properties": {
        "id": "11708171140",
        "osm_type": "node",
        "lat": 46.7965522,
        "lon": 11.9378974,
        "check_date": "2024-03-09",
        "name": "perpedes",
        "shop": "shoes",
        "wheelchair": "yes"
      },
      "geometry": {
        "type": "Point",
        "coordinates": [
          11.9378974,
          46.7965522
        ]
      }
    },
    {
      "type": "Feature",
      "properties": {
        "id": "11873997272",
        "osm_type": "node",
        "lat": 46.7171382,
        "lon": 11.655938,
        "name": "Federer",
        "shop": "shoes"
      },
      "geometry": {
        "type": "Point",
        "coordinates": [
          11.655938,
          46.7171382
        ]
      }
    },
    {
      "type": "Feature",
      "properties": {
        "id": "11891016875",
        "osm_type": "node",
        "lat": 46.5729513,
        "lon": 11.6753601,
        "addr:city": "Urtijëi - St.Ulrich - Ortisei",
        "addr:city:de": "St.Ulrich",
        "addr:city:it": "Ortisei",
        "addr:city:lld": "Urtijëi",
        "addr:housenumber": "167",
        "addr:postcode": "39046",
        "addr:street": "Streda Rezia",
        "addr:street:de": "Rezia-Straße",
        "addr:street:it": "Via Rezia",
        "addr:street:lld": "Streda Rezia",
        "email": "malsinerklaus@gmail.com",
        "name": "MK by Malsiner",
        "phone": "+39 0471 797115",
        "shop": "shoes",
        "website": "https://www.valgardena.it/en/addresses/detail/base/poi/ortisei-val-gardena/mk-by-malsiner/59519DB5CA5D41FCD8A9AC221DE9FB00/"
      },
      "geometry": {
        "type": "Point",
        "coordinates": [
          11.6753601,
          46.5729513
        ]
      }
    },
    {
      "type": "Feature",
      "properties": {
        "id": "670959394",
        "osm_type": "node",
        "lat": 46.7498395,
        "lon": 12.435069,
        "addr:city": "Sillian",
        "addr:housenumber": "49c",
        "addr:postcode": "9920",
        "addr:street": "Pustertalerstraße",
        "name": "Schuhe Oberthaler",
        "organic": "no",
        "phone": "+43 4842 63 50",
        "second_hand": "no",
        "shop": "shoes",
        "wheelchair": "yes"
      },
      "geometry": {
        "type": "Point",
        "coordinates": [
          12.435069,
          46.7498395
        ]
      }
    },
    {
      "type": "Feature",
      "properties": {
        "id": "2333490712",
        "osm_type": "node",
        "lat": 46.7334588,
        "lon": 12.2798672,
        "name": "Mühlmann",
        "shop": "shoes"
      },
      "geometry": {
        "type": "Point",
        "coordinates": [
          12.2798672,
          46.7334588
        ]
      }
    },
    {
      "type": "Feature",
      "properties": {
        "id": "2721631642",
        "osm_type": "node",
        "lat": 46.5388047,
        "lon": 12.135536,
        "brand": "Geox",
        "brand:wikidata": "Q588001",
        "name": "Geox",
        "shop": "shoes"
      },
      "geometry": {
        "type": "Point",
        "coordinates": [
          12.135536,
          46.5388047
        ]
      }
    },
    {
      "type": "Feature",
      "properties": {
        "id": "11304765691",
        "osm_type": "node",
        "lat": 46.7339272,
        "lon": 12.22366,
        "name": "Schuhe Gartner",
        "shop": "shoes"
      },
      "geometry": {
        "type": "Point",
        "coordinates": [
          12.22366,
          46.7339272
        ]
      }
    },
    {
      "type": "Feature",
      "properties": {
        "id": "12347715096",
        "osm_type": "node",
        "lat": 46.7382013,
        "lon": 12.1694682,
        "contact:city": "Niederdorf - Villabassa",
        "contact:city:de": "Niederdorf",
        "contact:city:it": "Villabassa",
        "contact:housenumber": "3",
        "contact:postcode": "39039",
        "contact:street": "Frau-Emma-Straße - Via Frau Emma",
        "contact:street:de": "Frau-Emma-Straße",
        "contact:street:it": "Via Frau Emma",
        "name": "Schuhgeschäft Egarter Karl",
        "operator": "Egarter Karl",
        "shop": "shoes"
      },
      "geometry": {
        "type": "Point",
        "coordinates": [
          12.1694682,
          46.7382013
        ]
      }
    },
    {
      "type": "Feature",
      "properties": {
        "id": "13002026762",
        "osm_type": "node",
        "lat": 46.5391533,
        "lon": 12.134996,
        "name": "Scarpa",
        "shop": "shoes"
      },
      "geometry": {
        "type": "Point",
        "coordinates": [
          12.134996,
          46.5391533
        ]
      }
    },
    {
      "type": "Feature",
      "properties": {
        "id": "1403560148",
        "osm_type": "node",
        "lat": 46.8291746,
        "lon": 12.7727076,
        "addr:city": "Lienz",
        "addr:country": "AT",
        "addr:housenumber": "17b",
        "addr:postcode": "9900",
        "addr:street": "Tiroler Straße",
        "name": "Shoe 4 You",
        "shop": "shoes"
      },
      "geometry": {
        "type": "Point",
        "coordinates": [
          12.7727076,
          46.8291746
        ]
      }
    },
    {
      "type": "Feature",
      "properties": {
        "id": "1664666595",
        "osm_type": "node",
        "lat": 46.8329002,
        "lon": 12.7810844,
        "addr:city": "Lienz",
        "addr:country": "AT",
        "addr:housenumber": "67d",
        "addr:postcode": "9900",
        "addr:street": "Kärntner Straße",
        "brand": "Reno",
        "brand:wikidata": "Q2144204",
        "brand:wikipedia": "de:Reno (Schuhhandel)",
        "name": "Reno",
        "shop": "shoes"
      },
      "geometry": {
        "type": "Point",
        "coordinates": [
          12.7810844,
          46.8329002
        ]
      }
    },
    {
      "type": "Feature",
      "properties": {
        "id": "1835584884",
        "osm_type": "node",
        "lat": 46.8289942,
        "lon": 12.7682587,
        "addr:city": "Lienz",
        "addr:housenumber": "15",
        "addr:postcode": "9900",
        "addr:street": "Hauptplatz",
        "mobile": "+43 650 4414452",
        "name": "Promoda Schuhe",
        "shop": "shoes"
      },
      "geometry": {
        "type": "Point",
        "coordinates": [
          12.7682587,
          46.8289942
        ]
      }
    },
    {
      "type": "Feature",
      "properties": {
        "id": "1882705776",
        "osm_type": "node",
        "lat": 46.529775,
        "lon": 13.01668,
        "name": "Calzature Langillotti",
        "shop": "shoes"
      },
      "geometry": {
        "type": "Point",
        "coordinates": [
          13.01668,
          46.529775
        ]
      }
    },
    {
      "type": "Feature",
      "properties": {
        "id": "1887910098",
        "osm_type": "node",
        "lat": 46.8310995,
        "lon": 12.8000112,
        "brand": "Deichmann",
        "brand:wikidata": "Q664543",
        "brand:wikipedia": "en:Deichmann SE",
        "name": "Deichmann",
        "opening_hours": "Mo-Fr 09:00-19:30; Sa 09:00-18:00",
        "shop": "shoes"
      },
      "geometry": {
        "type": "Point",
        "coordinates": [
          12.8000112,
          46.8310995
        ]
      }
    },
    {
      "type": "Feature",
      "properties": {
        "id": "2853609188",
        "osm_type": "node",
        "lat": 46.4840351,
        "lon": 12.865302,
        "shop": "shoes"
      },
      "geometry": {
        "type": "Point",
        "coordinates": [
          12.865302,
          46.4840351
        ]
      }
    },
    {
      "type": "Feature",
      "properties": {
        "id": "5064440126",
        "osm_type": "node",
        "lat": 46.5701061,
        "lon": 12.7230763,
        "name": "Calzoleria da Ewald",
        "shop": "shoes"
      },
      "geometry": {
        "type": "Point",
        "coordinates": [
          12.7230763,
          46.5701061
        ]
      }
    },
    {
      "type": "Feature",
      "properties": {
        "id": "12368632151",
        "osm_type": "node",
        "lat": 46.8287294,
        "lon": 12.7626225,
        "contact:email": "lienz@gea.at",
        "contact:phone": "+43 4852 65382",
        "name": "GEA",
        "opening_hours": "Mo-Fr 09:00-13:00, 14:00-18:00; Sa 09:00-13:00",
        "shop": "shoes",
        "website": "https://gea-waldviertler.at/shop/filiale/gea-lienz",
        "wheelchair": "yes"
      },
      "geometry": {
        "type": "Point",
        "coordinates": [
          12.7626225,
          46.8287294
        ]
      }
    },
    {
      "type": "Feature",
      "properties": {
        "id": "12484069268",
        "osm_type": "node",
        "lat": 46.8295996,
        "lon": 12.7682564,
        "name": "Rieder Schuhe",
        "shop": "shoes"
      },
      "geometry": {
        "type": "Point",
        "coordinates": [
          12.7682564,
          46.8295996
        ]
      }
    },
    {
      "type": "Feature",
      "properties": {
        "id": "13136280327",
        "osm_type": "node",
        "lat": 46.828843,
        "lon": 12.7680678,
        "level": "0",
        "name": "Promod",
        "shop": "shoes"
      },
      "geometry": {
        "type": "Point",
        "coordinates": [
          12.7680678,
          46.828843
        ]
      }
    },
    {
      "type": "Feature",
      "properties": {
        "id": "2422473086",
        "osm_type": "node",
        "lat": 46.5291349,
        "lon": 13.1177197,
        "shop": "shoes"
      },
      "geometry": {
        "type": "Point",
        "coordinates": [
          13.1177197,
          46.5291349
        ]
      }
    },
    {
      "type": "Feature",
      "properties": {
        "id": "4460594793",
        "osm_type": "node",
        "lat": 46.7508574,
        "lon": 13.1804801,
        "addr:street": "Drautal Straße",
        "name": "Schuhhandlung Rieder",
        "name:de": "Schuhhandlung Rieder",
        "name:en": "Rieder Shoes",
        "opening_hours": "Mo-Fr 08:30-12:00,15:00-18:00; Sa 08:30-12:00",
        "shop": "shoes"
      },
      "geometry": {
        "type": "Point",
        "coordinates": [
          13.1804801,
          46.7508574
        ]
      }
    }
  ],
  "children": []
}