{
  "bbox": {
    "south": 48.355971499999995,
    "west": 13.345766,
    "north": 49.017078,
    "east": 15.253173
  },
  "poiCount": 63,
  "leafCount": 0,
  "averagePosition": [
    14.145400403174603,
    48.6785019
  ],
  "data": [],
  "children": [
    {
      "bbox": {
        "south": 48.355971499999995,
        "west": 13.345766,
        "north": 48.68652475,
        "east": 14.2994695
      },
      "poiCount": 22,
      "leafCount": 22,
      "averagePosition": [
        13.543290027272729,
        48.53278247727273
      ],
      "data": [
        {
          "type": "Feature",
          "properties": {
            "id": "1545997242",
            "osm_type": "node",
            "lat": 48.4561923,
            "lon": 13.4307007,
            "name": "Schuh und Orthophädie Schneebauer",
            "shop": "shoes"
          },
          "geometry": {
            "type": "Point",
            "coordinates": [
              13.4307007,
              48.4561923
            ]
          }
        },
        {
          "type": "Feature",
          "properties": {
            "id": "1812804320",
            "osm_type": "node",
            "lat": 48.5744152,
            "lon": 13.4607896,
            "addr:city": "Passau",
            "addr:country": "DE",
            "addr:housenumber": "8",
            "addr:postcode": "94032",
            "addr:street": "Grabengasse",
            "check_date": "2024-02-27",
            "contact:email": "schuh-lakota@t-online.de",
            "contact:fax": "+49 851 34450",
            "contact:phone": "+49 851 35898",
            "contact:website": "http://www.schuhwahnsinn.de/",
            "name": "Lakota",
            "opening_hours": "Mo-Fr 10:00-18:00; Sa 10:00-16:00",
            "shop": "shoes",
            "wheelchair": "no"
          },
          "geometry": {
            "type": "Point",
            "coordinates": [
              13.4607896,
              48.5744152
            ]
          }
        },
        {
          "type": "Feature",
          "properties": {
            "id": "2414013298",
            "osm_type": "node",
            "lat": 48.573763,
            "lon": 13.461142,
            "addr:city": "Passau",
            "addr:postcode": "94032",
            "email": "info@foran-design.de",
            "name": "Maßschuh-Atelier Foran-design",
            "note": "Maßschuhe, wie richtig taggen?",
            "opening_hours": "Mo-Th 09:00-12:30,13:30-18:00; Fr 09:00-12:30,13:30-17:00",
            "phone": "+49 851 934 69 60",
            "shop": "shoes",
            "website": "http://foran-design.de",
            "wheelchair": "no"
          },
          "geometry": {
            "type": "Point",
            "coordinates": [
              13.461142,
              48.573763
            ]
          }
        },
        {
          "type": "Feature",
          "properties": {
            "id": "2437752244",
            "osm_type": "node",
            "lat": 48.4562415,
            "lon": 13.4356247,
            "addr:city": "Schärding",
            "addr:country": "AT",
            "addr:housenumber": "3/2",
            "addr:postcode": "4780",
            "addr:street": "Alfred-Kubin-Straße",
            "addr:suburb": "Schärding Vorstadt",
            "name": "Quick Schuh",
            "shop": "shoes",
            "website": "http://www.quick-schuh-schaerding.at"
          },
          "geometry": {
            "type": "Point",
            "coordinates": [
              13.4356247,
              48.4562415
            ]
          }
        },
        {
          "type": "Feature",
          "properties": {
            "id": "3176684739",
            "osm_type": "node",
            "lat": 48.4563698,
            "lon": 13.4321555,
            "name": "Schuhhaus Mayer",
            "shop": "shoes"
          },
          "geometry": {
            "type": "Point",
            "coordinates": [
              13.4321555,
              48.4563698
            ]
          }
        },
        {
          "type": "Feature",
          "properties": {
            "id": "3321144354",
            "osm_type": "node",
            "lat": 48.5745045,
            "lon": 13.4577266,
            "addr:housenumber": "9",
            "addr:street": "Brunngasse",
            "check_date:opening_hours": "2023-08-25",
            "fixme": "exact location within the building",
            "name": "Think!",
            "opening_hours": "Mo-Fr 13:30-18:00, Sa 13:30-17:00,09:30-13:00, Mo-Fr 09:30-13:00",
            "shop": "shoes",
            "website": "https://dealer.thinkshoes.com/de/stores/passau"
          },
          "geometry": {
            "type": "Point",
            "coordinates": [
              13.4577266,
              48.5745045
            ]
          }
        },
        {
          "type": "Feature",
          "properties": {
            "id": "3515194103",
            "osm_type": "node",
            "lat": 48.4467943,
            "lon": 13.4412664,
            "brand": "Deichmann",
            "brand:wikidata": "Q664543",
            "brand:wikipedia": "en:Deichmann SE",
            "name": "Deichmann",
            "shop": "shoes"
          },
          "geometry": {
            "type": "Point",
            "coordinates": [
              13.4412664,
              48.4467943
            ]
          }
        },
        {
          "type": "Feature",
          "properties": {
            "id": "3524348622",
            "osm_type": "node",
            "lat": 48.573924,
            "lon": 13.4562249,
            "addr:housenumber": "7",
            "addr:street": "Bahnhofstraße",
            "fixme": "genaue Position innerhalb Gebäude unbekannt",
            "name": "Sutor",
            "opening_hours": "Mo-Sa 09:00-18:00",
            "phone": "+49 851 72803",
            "shop": "shoes",
            "wheelchair": "yes"
          },
          "geometry": {
            "type": "Point",
            "coordinates": [
              13.4562249,
              48.573924
            ]
          }
        },
        {
          "type": "Feature",
          "properties": {
            "id": "3533881827",
            "osm_type": "node",
            "lat": 48.5740862,
            "lon": 13.4590387,
            "addr:city": "Passau",
            "addr:country": "DE",
            "addr:housenumber": "19",
            "addr:postcode": "94032",
            "addr:street": "Ludwigstraße",
            "check_date:opening_hours": "2023-08-25",
            "email": "info@schuhhaus-resch.de",
            "fax": "+49 851 9667640",
            "name": "Schuhhaus Resch",
            "opening_hours": "Mo-Sa 10:00-18:00",
            "phone": "+49 851 4908873",
            "shop": "shoes",
            "website": "https://www.schuhhaus-resch.de/",
            "wheelchair": "yes"
          },
          "geometry": {
            "type": "Point",
            "coordinates": [
              13.4590387,
              48.5740862
            ]
          }
        },
        {
          "type": "Feature",
          "properties": {
            "id": "3533881828",
            "osm_type": "node",
            "lat": 48.574093,
            "lon": 13.458501,
            "addr:city": "Passau",
            "addr:country": "DE",
            "addr:housenumber": "22",
            "addr:postcode": "94032",
            "addr:street": "Ludwigstraße",
            "email": "info@sneakergroup.de",
            "name": "Sneakergroup",
            "opening_hours": "Mo-Sa 10:00-18:00",
            "phone": "+49 851 4908880",
            "shop": "shoes",
            "website": "http://www.sneakergroup.de/"
          },
          "geometry": {
            "type": "Point",
            "coordinates": [
              13.458501,
              48.574093
            ]
          }
        },
        {
          "type": "Feature",
          "properties": {
            "id": "3559450319",
            "osm_type": "node",
            "lat": 48.5732022,
            "lon": 13.4558426,
            "brand": "Deichmann",
            "brand:wikidata": "Q664543",
            "brand:wikipedia": "en:Deichmann SE",
            "check_date": "2024-05-28",
            "level": "-1",
            "name": "Deichmann",
            "shop": "shoes"
          },
          "geometry": {
            "type": "Point",
            "coordinates": [
              13.4558426,
              48.5732022
            ]
          }
        },
        {
          "type": "Feature",
          "properties": {
            "id": "3559450370",
            "osm_type": "node",
            "lat": 48.5738441,
            "lon": 13.4556988,
            "addr:city": "Passau",
            "addr:country": "DE",
            "addr:housenumber": "1",
            "addr:postcode": "94032",
            "addr:street": "Bahnhofstraße",
            "brand": "Snipes",
            "brand:wikidata": "Q42306166",
            "brand:wikipedia": "de:Snipes (Unternehmen)",
            "level": "-1",
            "name": "Snipes",
            "shop": "shoes",
            "wheelchair": "yes"
          },
          "geometry": {
            "type": "Point",
            "coordinates": [
              13.4556988,
              48.5738441
            ]
          }
        },
        {
          "type": "Feature",
          "properties": {
            "id": "3559450374",
            "osm_type": "node",
            "lat": 48.5731429,
            "lon": 13.4560843,
            "check_date": "2024-05-28",
            "level": "0",
            "name": "Sutor",
            "shop": "shoes"
          },
          "geometry": {
            "type": "Point",
            "coordinates": [
              13.4560843,
              48.5731429
            ]
          }
        },
        {
          "type": "Feature",
          "properties": {
            "id": "4753332919",
            "osm_type": "node",
            "lat": 48.574047,
            "lon": 13.4565529,
            "name": "Leguano",
            "opening_hours": "Mo-Fr 09:30-13:00,13:30-18:00; Sa 10:00-16:00",
            "shop": "shoes"
          },
          "geometry": {
            "type": "Point",
            "coordinates": [
              13.4565529,
              48.574047
            ]
          }
        },
        {
          "type": "Feature",
          "properties": {
            "id": "4754698163",
            "osm_type": "node",
            "lat": 48.5741952,
            "lon": 13.4592274,
            "brand": "Tamaris",
            "brand:wikidata": "Q61994827",
            "check_date": "2023-08-25",
            "name": "Tamaris",
            "opening_hours": "Mo-Sa 10:00-18:00",
            "shop": "shoes"
          },
          "geometry": {
            "type": "Point",
            "coordinates": [
              13.4592274,
              48.5741952
            ]
          }
        },
        {
          "type": "Feature",
          "properties": {
            "id": "6192828617",
            "osm_type": "node",
            "lat": 48.5734757,
            "lon": 13.4088326,
            "brand": "Siemes Schuhcenter",
            "brand:wikidata": "Q2800720",
            "brand:wikipedia": "de:Siemes (Unternehmen)",
            "name": "Siemes Schuhcenter",
            "shop": "shoes"
          },
          "geometry": {
            "type": "Point",
            "coordinates": [
              13.4088326,
              48.5734757
            ]
          }
        },
        {
          "type": "Feature",
          "properties": {
            "id": "12361252469",
            "osm_type": "node",
            "lat": 48.5717401,
            "lon": 13.4516524,
            "addr:city": "Passau",
            "addr:country": "DE",
            "addr:housenumber": "1a",
            "addr:postcode": "94032",
            "addr:street": "Nibelungenstraße",
            "name": "Schmeller Orthopädie-Schuhtechnik",
            "phone": "+49 851 53204",
            "shop": "shoes"
          },
          "geometry": {
            "type": "Point",
            "coordinates": [
              13.4516524,
              48.5717401
            ]
          }
        },
        {
          "type": "Feature",
          "properties": {
            "id": "3244073198",
            "osm_type": "node",
            "lat": 48.5676935,
            "lon": 13.9795988,
            "brand": "Deichmann",
            "brand:wikidata": "Q664543",
            "brand:wikipedia": "en:Deichmann SE",
            "name": "Deichmann",
            "shop": "shoes",
            "source": "knowledge"
          },
          "geometry": {
            "type": "Point",
            "coordinates": [
              13.9795988,
              48.5676935
            ]
          }
        },
        {
          "type": "Feature",
          "properties": {
            "id": "4380487991",
            "osm_type": "node",
            "lat": 48.4373184,
            "lon": 13.6602448,
            "addr:city": "Kopfing im Innkreis",
            "addr:country": "AT",
            "addr:housenumber": "35",
            "addr:postcode": "4794",
            "addr:street": "Hauptstraße",
            "email": "office@thinkshoes.com",
            "name": "Think!",
            "name:de": "Think!",
            "official_name": "Think Schuhwerk GmbH",
            "opening_hours": "Mo-Fr 09:00-18:00; Sa 09:00-12:00",
            "phone": "+43 7763 2208 35",
            "shop": "shoes",
            "website": "https://www.thinkshoes.com/"
          },
          "geometry": {
            "type": "Point",
            "coordinates": [
              13.6602448,
              48.4373184
            ]
          }
        },
        {
          "type": "Feature",
          "properties": {
            "id": "6297252453",
            "osm_type": "node",
            "lat": 48.4058923,
            "lon": 13.5313824,
            "contact:phone": "+43 7719 8811-390",
            "name": "Shoe Factory Outlet",
            "opening_hours": "Mo-Fr 09:00-18:00; Sa 09:00-12:00",
            "operator": "Lorenz Shoe Group",
            "shop": "shoes"
          },
          "geometry": {
            "type": "Point",
            "coordinates": [
              13.5313824,
              48.4058923
            ]
          }
        },
        {
          "type": "Feature",
          "properties": {
            "id": "9035794379",
            "osm_type": "node",
            "lat": 48.5683984,
            "lon": 13.9807109,
            "addr:city": "Rohrbach-Berg",
            "addr:country": "AT",
            "addr:housenumber": "4",
            "addr:postcode": "4150",
            "addr:street": "Wirtschaftszeile",
            "name": "myshoes",
            "opening_hours": "Mo-Fr 08:30-18:30; Sa 08:30-17:00",
            "phone": "+43 7289 219 00",
            "shop": "shoes",
            "website": "https://www.myshoes.at/AT/de/shop/welcome.html"
          },
          "geometry": {
            "type": "Point",
            "coordinates": [
              13.9807109,
              48.5683984
            ]
          }
        },
        {
          "type": "Feature",
          "properties": {
            "id": "838753832",
            "osm_type": "node",
            "lat": 48.4678809,
            "lon": 14.1633826,
            "addr:city": "St. Veit im Mühlkreis",
            "addr:country": "AT",
            "addr:housenumber": "15-16",
            "addr:postcode": "4173",
            "addr:street": "Schnopfhagenplatz",
            "name": "Neundlinger",
            "shop": "shoes"
          },
          "geometry": {
            "type": "Point",
            "coordinates": [
              14.1633826,
              48.4678809
            ]
          }
        }
      ],
      "children": []
    },
    {
      "bbox": {
        "south": 48.355971499999995,
        "west": 14.2994695,
        "north": 48.68652475,
        "east": 15.253173
      },
      "poiCount": 14,
      "leafCount": 14,
      "averagePosition": [
        14.781031314285714,
        48.490938742857146
      ],
      "data": [
        {
          "type": "Feature",
          "properties": {
            "id": "8323390862",
            "osm_type": "node",
            "lat": 48.3574405,
            "lon": 14.4758542,
            "name": "Lang",
            "shop": "shoes"
          },
          "geometry": {
            "type": "Point",
            "coordinates": [
              14.4758542,
              48.3574405
            ]
          }
        },
        {
          "type": "Feature",
          "properties": {
            "id": "385741173",
            "osm_type": "node",
            "lat": 48.511967,
            "lon": 14.5040362,
            "name": "Gesund Schuh",
            "shop": "shoes"
          },
          "geometry": {
            "type": "Point",
            "coordinates": [
              14.5040362,
              48.511967
            ]
          }
        },
        {
          "type": "Feature",
          "properties": {
            "id": "1545709116",
            "osm_type": "node",
            "lat": 48.512033,
            "lon": 14.5050734,
            "addr:city": "Freistadt",
            "addr:country": "AT",
            "addr:housenumber": "8",
            "addr:postcode": "4240",
            "addr:street": "Hauptplatz",
            "name": "GEA Waldviertler",
            "shop": "shoes"
          },
          "geometry": {
            "type": "Point",
            "coordinates": [
              14.5050734,
              48.512033
            ]
          }
        },
        {
          "type": "Feature",
          "properties": {
            "id": "2766922412",
            "osm_type": "node",
            "lat": 48.5111646,
            "lon": 14.5046813,
            "addr:city": "Freistadt",
            "addr:country": "AT",
            "addr:housenumber": "24",
            "addr:postcode": "4240",
            "addr:street": "Hauptplatz",
            "at_bev:addr_date": "2017-10-01",
            "name": "Regina Schuhe",
            "shop": "shoes"
          },
          "geometry": {
            "type": "Point",
            "coordinates": [
              14.5046813,
              48.5111646
            ]
          }
        },
        {
          "type": "Feature",
          "properties": {
            "id": "6611921472",
            "osm_type": "node",
            "lat": 48.4977297,
            "lon": 14.5026897,
            "name": "Shoe4You",
            "shop": "shoes"
          },
          "geometry": {
            "type": "Point",
            "coordinates": [
              14.5026897,
              48.4977297
            ]
          }
        },
        {
          "type": "Feature",
          "properties": {
            "id": "6611921475",
            "osm_type": "node",
            "lat": 48.4973564,
            "lon": 14.5035896,
            "brand": "Deichmann",
            "brand:wikidata": "Q664543",
            "brand:wikipedia": "en:Deichmann SE",
            "name": "Deichmann",
            "shop": "shoes"
          },
          "geometry": {
            "type": "Point",
            "coordinates": [
              14.5035896,
              48.4973564
            ]
          }
        },
        {
          "type": "Feature",
          "properties": {
            "id": "323222568",
            "osm_type": "node",
            "lat": 48.4174502,
            "lon": 14.6127064,
            "addr:city": "Gutau",
            "addr:housenumber": "8",
            "addr:postcode": "4293",
            "addr:street": "Marktplatz",
            "name": "Schuhe Brückler",
            "phone": "+43 7946 6246",
            "shop": "shoes",
            "wheelchair": "no"
          },
          "geometry": {
            "type": "Point",
            "coordinates": [
              14.6127064,
              48.4174502
            ]
          }
        },
        {
          "type": "Feature",
          "properties": {
            "id": "3686925376",
            "osm_type": "node",
            "lat": 48.4942433,
            "lon": 14.9563153,
            "addr:city": "Arbesbach",
            "addr:housenumber": "30",
            "addr:place": "Arbesbach",
            "addr:postcode": "3925",
            "name": "Kern Schuhe-Sport GesmbH",
            "shop": "shoes"
          },
          "geometry": {
            "type": "Point",
            "coordinates": [
              14.9563153,
              48.4942433
            ]
          }
        },
        {
          "type": "Feature",
          "properties": {
            "id": "3918567862",
            "osm_type": "node",
            "lat": 48.4075479,
            "lon": 14.8408631,
            "name": "Kern Schuhe - Sport",
            "opening_hours": "Mo-We 09:00-12:00; Fr 09:00-12:00,14:30-18:00",
            "shop": "shoes",
            "website": "http://www.kern-schuhe-sport.at/"
          },
          "geometry": {
            "type": "Point",
            "coordinates": [
              14.8408631,
              48.4075479
            ]
          }
        },
        {
          "type": "Feature",
          "properties": {
            "id": "12539089154",
            "osm_type": "node",
            "lat": 48.4323204,
            "lon": 14.7815023,
            "addr:city": "Unterweißenbach",
            "addr:country": "AT",
            "addr:housenumber": "7",
            "addr:postcode": "4273",
            "addr:street": "Almstraße",
            "at_bev:addr_date": "2024-10-01",
            "email": "office@ortho-pointner.at",
            "name": "Orthopädie Pointner",
            "opening_hours": "Mo, Tu, Th, Fr 08:00-12:00,14:00-17:00; We 08:00-12:00; PH off",
            "phone": "+43 7956 207 90",
            "shop": "shoes",
            "website": "https://www.ortho-pointner.at/"
          },
          "geometry": {
            "type": "Point",
            "coordinates": [
              14.7815023,
              48.4323204
            ]
          }
        },
        {
          "type": "Feature",
          "properties": {
            "id": "3215868961",
            "osm_type": "node",
            "lat": 48.5999033,
            "lon": 15.1912672,
            "brand": "Deichmann",
            "brand:wikidata": "Q664543",
            "brand:wikipedia": "en:Deichmann SE",
            "name": "Deichmann",
            "opening_hours": "Mo-Fr 08:30-18:30; Sa 08:30-17:00",
            "shop": "shoes"
          },
          "geometry": {
            "type": "Point",
            "coordinates": [
              15.1912672,
              48.5999033
            ]
          }
        },
        {
          "type": "Feature",
          "properties": {
            "id": "4335565369",
            "osm_type": "node",
            "lat": 48.4239159,
            "lon": 15.2211907,
            "addr:housenumber": "15",
            "addr:street": "Oberer Markt",
            "check_date": "2024-08-30",
            "check_date:opening_hours": "2024-08-30",
            "name": "Schuh-Shop Jager",
            "opening_hours": "Mo-Fr 08:00-12:00,14:00-18:00; Sa 08:00-12:00",
            "shop": "shoes"
          },
          "geometry": {
            "type": "Point",
            "coordinates": [
              15.2211907,
              48.4239159
            ]
          }
        },
        {
          "type": "Feature",
          "properties": {
            "id": "5063671436",
            "osm_type": "node",
            "lat": 48.6036378,
            "lon": 15.1681355,
            "addr:city": "Zwettl",
            "addr:country": "AT",
            "addr:housenumber": "1",
            "addr:postcode": "3910",
            "addr:street": "Kirchengasse",
            "name": "Schuh Stolz",
            "shop": "shoes",
            "website": "http://www.schuhstolz.at"
          },
          "geometry": {
            "type": "Point",
            "coordinates": [
              15.1681355,
              48.6036378
            ]
          }
        },
        {
          "type": "Feature",
          "properties": {
            "id": "5063671437",
            "osm_type": "node",
            "lat": 48.6064324,
            "lon": 15.1665335,
            "name": "Schuhmacher Rabl",
            "shop": "shoes",
            "website": "http://webideen.net/azs/rabl.htm"
          },
          "geometry": {
            "type": "Point",
            "coordinates": [
              15.1665335,
              48.6064324
            ]
          }
        }
      ],
      "children": []
    },
    {
      "bbox": {
        "south": 48.68652475,
        "west": 13.345766,
        "north": 49.017078,
        "east": 14.2994695
      },
      "poiCount": 5,
      "leafCount": 5,
      "averagePosition": [
        13.518110799999999,
        48.753722700000004
      ],
      "data": [
        {
          "type": "Feature",
          "properties": {
            "id": "2673261350",
            "osm_type": "node",
            "lat": 48.8557235,
            "lon": 13.3938843,
            "brand": "Deichmann",
            "brand:wikidata": "Q664543",
            "brand:wikipedia": "en:Deichmann SE",
            "name": "Deichmann",
            "shop": "shoes"
          },
          "geometry": {
            "type": "Point",
            "coordinates": [
              13.3938843,
              48.8557235
            ]
          }
        },
        {
          "type": "Feature",
          "properties": {
            "id": "3437181859",
            "osm_type": "node",
            "lat": 48.7275068,
            "lon": 13.3810062,
            "addr:city": "Tittling",
            "addr:country": "DE",
            "addr:housenumber": "17",
            "addr:postcode": "94104",
            "addr:street": "Marktplatz",
            "name": "Schuh Högerl",
            "shop": "shoes"
          },
          "geometry": {
            "type": "Point",
            "coordinates": [
              13.3810062,
              48.7275068
            ]
          }
        },
        {
          "type": "Feature",
          "properties": {
            "id": "9330959056",
            "osm_type": "node",
            "lat": 48.7229492,
            "lon": 13.6125159,
            "brand": "Deichmann",
            "brand:wikidata": "Q664543",
            "brand:wikipedia": "en:Deichmann SE",
            "name": "Deichmann",
            "shop": "shoes"
          },
          "geometry": {
            "type": "Point",
            "coordinates": [
              13.6125159,
              48.7229492
            ]
          }
        },
        {
          "type": "Feature",
          "properties": {
            "id": "12791992214",
            "osm_type": "node",
            "lat": 48.7313205,
            "lon": 13.601781,
            "name": "Schuh Ertl",
            "shop": "shoes"
          },
          "geometry": {
            "type": "Point",
            "coordinates": [
              13.601781,
              48.7313205
            ]
          }
        },
        {
          "type": "Feature",
          "properties": {
            "id": "12791995685",
            "osm_type": "node",
            "lat": 48.7311135,
            "lon": 13.6013666,
            "name": "Schuh Ertl",
            "shop": "shoes"
          },
          "geometry": {
            "type": "Point",
            "coordinates": [
              13.6013666,
              48.7311135
            ]
          }
        }
      ],
      "children": []
    },
    {
      "bbox": {
        "south": 48.68652475,
        "west": 14.2994695,
        "north": 49.017078,
        "east": 15.253173
      },
      "poiCount": 22,
      "leafCount": 22,
      "averagePosition": [
        14.4855842,
        48.9264840590909
      ],
      "data": [
        {
          "type": "Feature",
          "properties": {
            "id": "4401651200",
            "osm_type": "node",
            "lat": 48.8120327,
            "lon": 14.3174281,
            "addr:city": "Český Krumlov",
            "addr:postcode": "381 01",
            "addr:street": "Latrán",
            "brand": "Baťa",
            "brand:wikidata": "Q688082",
            "brand:wikipedia": "en:Bata (company)",
            "name": "Baťa",
            "opening_hours": "Mo-Fr 10:00-18:00; Sa,Su 10:00-18:00",
            "payment:cash": "yes",
            "payment:credit_cards": "yes",
            "shoes": "women;yes",
            "shop": "shoes"
          },
          "geometry": {
            "type": "Point",
            "coordinates": [
              14.3174281,
              48.8120327
            ]
          }
        },
        {
          "type": "Feature",
          "properties": {
            "id": "7044203773",
            "osm_type": "node",
            "lat": 48.8246697,
            "lon": 14.3328492,
            "addr:city": "Český Krumlov",
            "addr:postcode": "38101",
            "addr:street": "Budějovická",
            "brand": "Deichmann",
            "brand:wikidata": "Q664543",
            "brand:wikipedia": "en:Deichmann SE",
            "check_date:opening_hours": "2024-11-09",
            "name": "Deichmann",
            "opening_hours": "Mo-Su 09:00-20:00",
            "payment:cash": "yes",
            "payment:credit_cards": "yes",
            "shop": "shoes",
            "wheelchair": "yes"
          },
          "geometry": {
            "type": "Point",
            "coordinates": [
              14.3328492,
              48.8246697
            ]
          }
        },
        {
          "type": "Feature",
          "properties": {
            "id": "8859148862",
            "osm_type": "node",
            "lat": 48.8164575,
            "lon": 14.3162949,
            "addr:city": "Český Krumlov",
            "addr:housenumber": "187",
            "addr:postcode": "381 01",
            "addr:street": "třída Míru",
            "email": "palec@hravenozky.cz",
            "name": "Hravé nožky",
            "payment:cash": "yes",
            "payment:credit_cards": "yes",
            "phone": "+420731523741",
            "shop": "shoes",
            "website": "http://www.hravenozky.cz"
          },
          "geometry": {
            "type": "Point",
            "coordinates": [
              14.3162949,
              48.8164575
            ]
          }
        },
        {
          "type": "Feature",
          "properties": {
            "id": "13090092798",
            "osm_type": "node",
            "lat": 48.8238319,
            "lon": 14.3323511,
            "name": "Vaše Zdravá Obuv",
            "shop": "shoes"
          },
          "geometry": {
            "type": "Point",
            "coordinates": [
              14.3323511,
              48.8238319
            ]
          }
        },
        {
          "type": "Feature",
          "properties": {
            "id": "2464439631",
            "osm_type": "node",
            "lat": 48.7716562,
            "lon": 14.9854443,
            "addr:city": "Gmünd",
            "addr:country": "AT",
            "addr:housenumber": "2",
            "addr:postcode": "3950",
            "addr:street": "Schremser Straße",
            "check_date": "2024-01-06",
            "name": "Waldbauer",
            "shop": "shoes",
            "website": "http://www.waldbauer-schuhe.at/filialen/gmuend.php"
          },
          "geometry": {
            "type": "Point",
            "coordinates": [
              14.9854443,
              48.7716562
            ]
          }
        },
        {
          "type": "Feature",
          "properties": {
            "id": "7483224106",
            "osm_type": "node",
            "lat": 48.7653245,
            "lon": 14.9791095,
            "brand": "Deichmann",
            "brand:wikidata": "Q664543",
            "brand:wikipedia": "en:Deichmann SE",
            "name": "Deichmann",
            "shop": "shoes"
          },
          "geometry": {
            "type": "Point",
            "coordinates": [
              14.9791095,
              48.7653245
            ]
          }
        },
        {
          "type": "Feature",
          "properties": {
            "id": "2485193177",
            "osm_type": "node",
            "lat": 48.9745714,
            "lon": 14.483216,
            "name": "Vagabond",
            "shop": "shoes",
            "source": "survey"
          },
          "geometry": {
            "type": "Point",
            "coordinates": [
              14.483216,
              48.9745714
            ]
          }
        },
        {
          "type": "Feature",
          "properties": {
            "id": "4553840430",
            "osm_type": "node",
            "lat": 48.974947,
            "lon": 14.4757299,
            "check_date": "2025-04-23",
            "name": "Obuv",
            "name:cs": "Obuv",
            "opening_hours": "Mo-Fr 09:00-17:30; Sa 09:00-12:00",
            "shop": "shoes",
            "wheelchair": "no"
          },
          "geometry": {
            "type": "Point",
            "coordinates": [
              14.4757299,
              48.974947
            ]
          }
        },
        {
          "type": "Feature",
          "properties": {
            "id": "4560785693",
            "osm_type": "node",
            "lat": 48.99222,
            "lon": 14.4686098,
            "addr:housenumber": "2551",
            "addr:postcode": "37004",
            "addr:street": "Průběžná",
            "brand": "Humanic",
            "brand:wikidata": "Q1636668",
            "brand:wikipedia": "en:Humanic",
            "name": "Humanic",
            "opening_hours": "Mo-Sa 09:00-19:00; Su 10:00-18:00",
            "shop": "shoes"
          },
          "geometry": {
            "type": "Point",
            "coordinates": [
              14.4686098,
              48.99222
            ]
          }
        },
        {
          "type": "Feature",
          "properties": {
            "id": "5250914563",
            "osm_type": "node",
            "lat": 48.9756319,
            "lon": 14.4797686,
            "check_date": "2023-03-31",
            "second_hand": "only",
            "shop": "shoes"
          },
          "geometry": {
            "type": "Point",
            "coordinates": [
              14.4797686,
              48.9756319
            ]
          }
        },
        {
          "type": "Feature",
          "properties": {
            "id": "5250914565",
            "osm_type": "node",
            "lat": 48.9768771,
            "lon": 14.4780397,
            "name": "Mylerie",
            "shoes": "children",
            "shop": "shoes",
            "was:name": "Beseda"
          },
          "geometry": {
            "type": "Point",
            "coordinates": [
              14.4780397,
              48.9768771
            ]
          }
        },
        {
          "type": "Feature",
          "properties": {
            "id": "7630141307",
            "osm_type": "node",
            "lat": 48.973639,
            "lon": 14.4756862,
            "brand": "Baťa",
            "brand:wikidata": "Q688082",
            "brand:wikipedia": "cs:Baťa",
            "name": "Baťa",
            "opening_hours": "Mo-Fr 09:00-18:00; Sa 09:00-13:00",
            "shop": "shoes",
            "wheelchair": "yes"
          },
          "geometry": {
            "type": "Point",
            "coordinates": [
              14.4756862,
              48.973639
            ]
          }
        },
        {
          "type": "Feature",
          "properties": {
            "id": "7929528064",
            "osm_type": "node",
            "lat": 48.9771918,
            "lon": 14.4740972,
            "name": "U Jindřicha",
            "shop": "shoes",
            "wheelchair": "no"
          },
          "geometry": {
            "type": "Point",
            "coordinates": [
              14.4740972,
              48.9771918
            ]
          }
        },
        {
          "type": "Feature",
          "properties": {
            "id": "9423661914",
            "osm_type": "node",
            "lat": 48.9764003,
            "lon": 14.4756281,
            "check_date": "2025-05-23",
            "name": "Shoemaker U Černé Věže",
            "opening_hours": "Mo-Fr 09:00-18:00; Sa 09:00-12:30",
            "shop": "shoes",
            "wheelchair": "no"
          },
          "geometry": {
            "type": "Point",
            "coordinates": [
              14.4756281,
              48.9764003
            ]
          }
        },
        {
          "type": "Feature",
          "properties": {
            "id": "9423661999",
            "osm_type": "node",
            "lat": 48.9771911,
            "lon": 14.4738098,
            "name": "Shoemaker Premium",
            "shop": "shoes",
            "was:name": "Vivo barefoot",
            "wheelchair": "no"
          },
          "geometry": {
            "type": "Point",
            "coordinates": [
              14.4738098,
              48.9771911
            ]
          }
        },
        {
          "type": "Feature",
          "properties": {
            "id": "9423662001",
            "osm_type": "node",
            "lat": 48.9770523,
            "lon": 14.4737647,
            "name": "Shoemaker",
            "shop": "shoes"
          },
          "geometry": {
            "type": "Point",
            "coordinates": [
              14.4737647,
              48.9770523
            ]
          }
        },
        {
          "type": "Feature",
          "properties": {
            "id": "9423662005",
            "osm_type": "node",
            "lat": 48.9763568,
            "lon": 14.4739211,
            "name": "Dětská obuv",
            "shop": "shoes"
          },
          "geometry": {
            "type": "Point",
            "coordinates": [
              14.4739211,
              48.9763568
            ]
          }
        },
        {
          "type": "Feature",
          "properties": {
            "id": "9885006056",
            "osm_type": "node",
            "lat": 48.9755892,
            "lon": 14.473514,
            "brand": "Rieker",
            "brand:wikidata": "Q2152193",
            "name": "Rieker",
            "shop": "shoes",
            "wheelchair": "no"
          },
          "geometry": {
            "type": "Point",
            "coordinates": [
              14.473514,
              48.9755892
            ]
          }
        },
        {
          "type": "Feature",
          "properties": {
            "id": "9885505547",
            "osm_type": "node",
            "lat": 48.9770641,
            "lon": 14.4734086,
            "name": "Obuv Zdravotní",
            "shop": "shoes"
          },
          "geometry": {
            "type": "Point",
            "coordinates": [
              14.4734086,
              48.9770641
            ]
          }
        },
        {
          "type": "Feature",
          "properties": {
            "id": "9918648242",
            "osm_type": "node",
            "lat": 48.9748708,
            "lon": 14.4858468,
            "name": "V V",
            "note": "zdravé obouvání",
            "shop": "shoes"
          },
          "geometry": {
            "type": "Point",
            "coordinates": [
              14.4858468,
              48.9748708
            ]
          }
        },
        {
          "type": "Feature",
          "properties": {
            "id": "10939571296",
            "osm_type": "node",
            "lat": 48.9834561,
            "lon": 14.4418181,
            "level": "0",
            "name": "Quick Schuh",
            "opening_hours": "Mo-Sa 09:00-20:00; Su 10:00-20:00; PH off",
            "payment:credit_cards": "yes",
            "payment:debit_cards": "yes",
            "shop": "shoes",
            "wheelchair": "yes"
          },
          "geometry": {
            "type": "Point",
            "coordinates": [
              14.4418181,
              48.9834561
            ]
          }
        },
        {
          "type": "Feature",
          "properties": {
            "id": "13099151240",
            "osm_type": "node",
            "lat": 48.9056179,
            "lon": 14.3125167,
            "addr:city": "Křemže",
            "addr:housenumber": "362",
            "addr:postcode": "38203",
            "addr:street": "Budějovická",
            "shoes": "yes",
            "shop": "shoes"
          },
          "geometry": {
            "type": "Point",
            "coordinates": [
              14.3125167,
              48.9056179
            ]
          }
        }
      ],
      "children": []
    }
  ]
}