{
  "bbox": {
    "south": 47.033758500000005,
    "west": 13.345766,
    "north": 47.694865,
    "east": 15.253173
  },
  "poiCount": 44,
  "leafCount": 44,
  "averagePosition": [
    14.323655156818182,
    47.31552093863636
  ],
  "data": [
    {
      "type": "Feature",
      "properties": {
        "id": "3050341195",
        "osm_type": "node",
        "lat": 47.0961957,
        "lon": 13.6324963,
        "addr:city": "Sankt Michael im Lungau",
        "addr:country": "AT",
        "addr:housenumber": "582",
        "addr:postcode": "5582",
        "addr:street": "Gewerbestraße",
        "at_bev:addr_date": "2018-04-02",
        "contact:email": "info@quick-schuh-st-michael.at",
        "contact:website": "https://www.schuhe.at/online-kaufen/store-1060046035/",
        "name": "Quick",
        "opening_hours": "Mo-Fr 08:30-18:30; Sa 08:30-17:00",
        "operator": "Christine Schwaiger",
        "shop": "shoes"
      },
      "geometry": {
        "type": "Point",
        "coordinates": [
          13.6324963,
          47.0961957
        ]
      }
    },
    {
      "type": "Feature",
      "properties": {
        "id": "3050438368",
        "osm_type": "node",
        "lat": 47.0992062,
        "lon": 13.6389714,
        "addr:city": "Sankt Michael im Lungau",
        "addr:housenumber": "85",
        "addr:street": "Marktstraße",
        "contact:phone": "+43 6477 71591",
        "contact:website": "http://schuh-kollmann.at",
        "name": "Kollmann",
        "opening_hours": "Mo-Fr 09:00-12:00,15:00-18:00; Sa 09:00-12:00",
        "shop": "shoes"
      },
      "geometry": {
        "type": "Point",
        "coordinates": [
          13.6389714,
          47.0992062
        ]
      }
    },
    {
      "type": "Feature",
      "properties": {
        "id": "3364544719",
        "osm_type": "node",
        "lat": 47.1281213,
        "lon": 13.8125833,
        "brand": "Deichmann",
        "brand:wikidata": "Q664543",
        "name": "Deichmann",
        "shop": "shoes"
      },
      "geometry": {
        "type": "Point",
        "coordinates": [
          13.8125833,
          47.1281213
        ]
      }
    },
    {
      "type": "Feature",
      "properties": {
        "id": "9044773566",
        "osm_type": "node",
        "lat": 47.1275077,
        "lon": 13.8109344,
        "shop": "shoes"
      },
      "geometry": {
        "type": "Point",
        "coordinates": [
          13.8109344,
          47.1275077
        ]
      }
    },
    {
      "type": "Feature",
      "properties": {
        "id": "9044773579",
        "osm_type": "node",
        "lat": 47.1275228,
        "lon": 13.8105252,
        "contact:website": "http://www.schuh-kollmann.at",
        "name": "Schuhhaus Kollmann",
        "shop": "shoes"
      },
      "geometry": {
        "type": "Point",
        "coordinates": [
          13.8105252,
          47.1275228
        ]
      }
    },
    {
      "type": "Feature",
      "properties": {
        "id": "9044773584",
        "osm_type": "node",
        "lat": 47.1256824,
        "lon": 13.8106567,
        "addr:city": "Tamsweg",
        "addr:housenumber": "6",
        "addr:postcode": "5580",
        "addr:street": "Marktplatz",
        "email": "petra_holzer@gmx.net",
        "mobile": "+43 664 2302242",
        "name": "Schwaiger-Schuhe",
        "opening_hours": "Mo-Fr 09:00-12:00, 14:00-18:00, Sa 09:00-12:00; PH off",
        "phone": "+43 6474 2494",
        "shop": "shoes",
        "website": "https://www.schwaiger-schuhe.at/"
      },
      "geometry": {
        "type": "Point",
        "coordinates": [
          13.8106567,
          47.1256824
        ]
      }
    },
    {
      "type": "Feature",
      "properties": {
        "id": "995068424",
        "osm_type": "node",
        "lat": 47.0742367,
        "lon": 14.4254285,
        "craft": "shoemaker",
        "name": "Zechner Schuhe & Taschen",
        "shop": "shoes"
      },
      "geometry": {
        "type": "Point",
        "coordinates": [
          14.4254285,
          47.0742367
        ]
      }
    },
    {
      "type": "Feature",
      "properties": {
        "id": "7040307434",
        "osm_type": "node",
        "lat": 47.1487197,
        "lon": 14.4148321,
        "addr:city": "Scheifling",
        "addr:country": "AT",
        "addr:housenumber": "1",
        "addr:postcode": "8811",
        "addr:street": "Walkweg",
        "contact:phone": "+43 3582 2332",
        "name": "Klausner Walkfilzschuhe",
        "shop": "shoes"
      },
      "geometry": {
        "type": "Point",
        "coordinates": [
          14.4148321,
          47.1487197
        ]
      }
    },
    {
      "type": "Feature",
      "properties": {
        "id": "9268018488",
        "osm_type": "node",
        "lat": 47.3535957,
        "lon": 14.4710199,
        "addr:city": "St. Johann am Tauern",
        "addr:country": "AT",
        "addr:housenumber": "73",
        "addr:place": "Sonnseite",
        "addr:postcode": "8765",
        "alt_name": "Der Maßschuhmacher",
        "email": "schwarz@derschuhmacher.at",
        "name": "Heinrich Schwarz",
        "opening_hours": "Tu-Fr 08:00-12:00, 15:00-18:00",
        "phone": "+43 3575 217",
        "shop": "shoes",
        "website": "http://www.derschuhmacher.at/"
      },
      "geometry": {
        "type": "Point",
        "coordinates": [
          14.4710199,
          47.3535957
        ]
      }
    },
    {
      "type": "Feature",
      "properties": {
        "id": "11153300971",
        "osm_type": "node",
        "lat": 47.1099092,
        "lon": 14.1694065,
        "name": "Schuhhaus Schwaiger",
        "opening_hours": "Mo-Fr 08:30-12:00, 14:30-18:00; Sa 08:30-12:00",
        "shop": "shoes"
      },
      "geometry": {
        "type": "Point",
        "coordinates": [
          14.1694065,
          47.1099092
        ]
      }
    },
    {
      "type": "Feature",
      "properties": {
        "id": "12723760108",
        "osm_type": "node",
        "lat": 47.1108362,
        "lon": 14.1913534,
        "brand": "Deichmann",
        "brand:wikidata": "Q664543",
        "contact:phone": "+43 3532 42985",
        "name": "Deichmann",
        "opening_hours": "Mo-Fr 09:00-18:00; Sa 09:00-17:00",
        "shop": "shoes"
      },
      "geometry": {
        "type": "Point",
        "coordinates": [
          14.1913534,
          47.1108362
        ]
      }
    },
    {
      "type": "Feature",
      "properties": {
        "id": "1736163648",
        "osm_type": "node",
        "lat": 47.1676866,
        "lon": 14.6610946,
        "addr:city": "Judenburg",
        "addr:country": "AT",
        "addr:district": "Murtal",
        "addr:housenumber": "16",
        "addr:postcode": "8750",
        "addr:street": "Hauptplatz",
        "contact:phone": "+43 3572 84304",
        "email": "office@rattenegger.at",
        "fax": "+43 3572 84304",
        "name": "Rattenegger Schuhe",
        "name:de": "Rattenegger Schuhe",
        "name:en": "Rattenegger Shoes",
        "opening_hours": "Mo-Fr 09:00-12:30,14:30-18:00, Sa 09:00-13:00, 14:00-17:00",
        "phone": "+ 43 3572 84304",
        "shop": "shoes",
        "source": "survey",
        "website": "https://www.schuhmode-rattenegger.at/filiale-judenburg/",
        "wheelchair": "yes"
      },
      "geometry": {
        "type": "Point",
        "coordinates": [
          14.6610946,
          47.1676866
        ]
      }
    },
    {
      "type": "Feature",
      "properties": {
        "id": "4764169393",
        "osm_type": "node",
        "lat": 47.2107988,
        "lon": 14.8073572,
        "addr:city": "Knittelfeld",
        "addr:country": "AT",
        "addr:district": "Murtal",
        "addr:housenumber": "100",
        "addr:postcode": "8720",
        "addr:street": "Kärntner Straße",
        "brand": "Deichmann",
        "brand:wikidata": "Q664543",
        "brand:wikipedia": "en:Deichmann SE",
        "name": "Deichmann",
        "opening_hours": "Mo-Fr 09:00-18:30; Sa 09:00-18:00",
        "phone": "+43 3512 47402",
        "shop": "shoes"
      },
      "geometry": {
        "type": "Point",
        "coordinates": [
          14.8073572,
          47.2107988
        ]
      }
    },
    {
      "type": "Feature",
      "properties": {
        "id": "5462726142",
        "osm_type": "node",
        "lat": 47.1853067,
        "lon": 14.6865373,
        "addr:city": "Fohnsdorf",
        "addr:country": "AT",
        "addr:district": "Murtal",
        "addr:housenumber": "18",
        "addr:postcode": "8753",
        "addr:street": "Arena am Waldfeld",
        "brand": "Deichmann",
        "brand:wikidata": "Q664543",
        "brand:wikipedia": "en:Deichmann SE",
        "name": "Deichmann",
        "opening_hours": "Mo-Fr 09:00-18:30; Sa 09:00-18:00",
        "phone": "+43 3572 47322",
        "second_hand": "no",
        "shop": "shoes",
        "website": "https://www.deichmann.com/AT/"
      },
      "geometry": {
        "type": "Point",
        "coordinates": [
          14.6865373,
          47.1853067
        ]
      }
    },
    {
      "type": "Feature",
      "properties": {
        "id": "5464809433",
        "osm_type": "node",
        "lat": 47.1844016,
        "lon": 14.6798882,
        "addr:city": "Fohnsdorf",
        "addr:country": "AT",
        "addr:housenumber": "23",
        "addr:postcode": "8753",
        "addr:street": "Arena am Waldfeld",
        "fax": "+43 3572 46701 5399",
        "name": "Shoe4You",
        "opening_hours": "Mo-Fr 09:00-18:30; Sa 09:00-18:00",
        "phone": "+43 3572 46701",
        "second_hand": "no",
        "shop": "shoes",
        "website": "https://www.shoe4you.com/at",
        "wheelchair": "yes"
      },
      "geometry": {
        "type": "Point",
        "coordinates": [
          14.6798882,
          47.1844016
        ]
      }
    },
    {
      "type": "Feature",
      "properties": {
        "id": "5619962349",
        "osm_type": "node",
        "lat": 47.2153789,
        "lon": 14.8276712,
        "addr:city": "Knittelfeld",
        "addr:country": "AT",
        "addr:district": "Murtal",
        "addr:housenumber": "28",
        "addr:postcode": "8720",
        "addr:street": "Frauengasse",
        "name": "Rattenegger",
        "shop": "shoes",
        "website": "https://www.schuhmode-rattenegger.at/"
      },
      "geometry": {
        "type": "Point",
        "coordinates": [
          14.8276712,
          47.2153789
        ]
      }
    },
    {
      "type": "Feature",
      "properties": {
        "id": "5630875815",
        "osm_type": "node",
        "lat": 47.2137264,
        "lon": 14.8295219,
        "addr:city": "Knittelfeld",
        "addr:country": "AT",
        "addr:housenumber": "2",
        "addr:postcode": "8720",
        "addr:street": "Kirchengasse",
        "name": "Schuhservice",
        "shop": "shoes"
      },
      "geometry": {
        "type": "Point",
        "coordinates": [
          14.8295219,
          47.2137264
        ]
      }
    },
    {
      "type": "Feature",
      "properties": {
        "id": "5854534403",
        "osm_type": "node",
        "lat": 47.1846832,
        "lon": 14.6860331,
        "name": "My Shoes",
        "shop": "shoes",
        "website": "https://www.myshoes.at/AT/de/shop/home-damen.cat"
      },
      "geometry": {
        "type": "Point",
        "coordinates": [
          14.6860331,
          47.1846832
        ]
      }
    },
    {
      "type": "Feature",
      "properties": {
        "id": "6296122281",
        "osm_type": "node",
        "lat": 47.2142179,
        "lon": 14.8296983,
        "addr:city": "Knittefeld",
        "addr:country": "AT",
        "addr:district": "Murtal",
        "addr:housenumber": "5",
        "addr:postcode": "8720",
        "addr:street": "Hauptplatz",
        "brand": "Quick Schuh",
        "brand:wikidata": "Q2123069",
        "brand:wikipedia": "de:Quick Schuh",
        "name": "Quick Schuh",
        "shop": "shoes",
        "website": "https://www.quick-schuh.com/cms/front_content.php"
      },
      "geometry": {
        "type": "Point",
        "coordinates": [
          14.8296983,
          47.2142179
        ]
      }
    },
    {
      "type": "Feature",
      "properties": {
        "id": "12367462841",
        "osm_type": "node",
        "lat": 47.2145918,
        "lon": 14.8263395,
        "contact:email": "knittelfeld@gea.at",
        "contact:mobile": "+43 664 502 7810",
        "name": "GEA",
        "opening_hours": "Tu-Fr 09:00-12:30, 15:00-18:00; Sa 09:00-12:30",
        "shop": "shoes",
        "website": "https://gea-waldviertler.at/shop/filiale/gea-knittelfeld"
      },
      "geometry": {
        "type": "Point",
        "coordinates": [
          14.8263395,
          47.2145918
        ]
      }
    },
    {
      "type": "Feature",
      "properties": {
        "id": "5183783350",
        "osm_type": "node",
        "lat": 47.3718739,
        "lon": 15.0886589,
        "brand": "Deichmann",
        "brand:wikidata": "Q664543",
        "brand:wikipedia": "en:Deichmann SE",
        "name": "Deichmann",
        "opening_hours": "Mo-Fr 09:00-18:30;Sa 09:00-17:00;PH closed",
        "shop": "shoes"
      },
      "geometry": {
        "type": "Point",
        "coordinates": [
          15.0886589,
          47.3718739
        ]
      }
    },
    {
      "type": "Feature",
      "properties": {
        "id": "5892497487",
        "osm_type": "node",
        "lat": 47.0534446,
        "lon": 15.1301669,
        "addr:city": "Bärnbach",
        "addr:country": "AT",
        "addr:housenumber": "18",
        "addr:postcode": "8572",
        "addr:street": "Packer Straße",
        "at_bev:addr_date": "2018-10-01",
        "name": "DELKA",
        "shop": "shoes",
        "website": "https://www.delka.at/",
        "wheelchair": "yes"
      },
      "geometry": {
        "type": "Point",
        "coordinates": [
          15.1301669,
          47.0534446
        ]
      }
    },
    {
      "type": "Feature",
      "properties": {
        "id": "7337313040",
        "osm_type": "node",
        "lat": 47.0557567,
        "lon": 15.1166504,
        "addr:city": "Rosental an der Kainach",
        "addr:housenumber": "5",
        "addr:postcode": "8582",
        "addr:street": "Knappenplatz",
        "name": "SHOE 4 YOU",
        "shop": "shoes"
      },
      "geometry": {
        "type": "Point",
        "coordinates": [
          15.1166504,
          47.0557567
        ]
      }
    },
    {
      "type": "Feature",
      "properties": {
        "id": "8376019507",
        "osm_type": "node",
        "lat": 47.0530283,
        "lon": 15.1341026,
        "addr:city": "Voitsberg",
        "addr:country": "AT",
        "addr:housenumber": "1",
        "addr:postcode": "8570",
        "addr:street": "Am Vorum",
        "brand": "Deichmann",
        "brand:wikidata": "Q664543",
        "brand:wikipedia": "en:Deichmann SE",
        "contact:phone": "+433142 982 04",
        "name": "Deichmann",
        "opening_hours": "Mo-Fr 09:00-19:00; Sa 09:00-18:00",
        "shop": "shoes"
      },
      "geometry": {
        "type": "Point",
        "coordinates": [
          15.1341026,
          47.0530283
        ]
      }
    },
    {
      "type": "Feature",
      "properties": {
        "id": "5054122850",
        "osm_type": "node",
        "lat": 47.3850769,
        "lon": 13.4614355,
        "name": "Klieber",
        "shop": "shoes"
      },
      "geometry": {
        "type": "Point",
        "coordinates": [
          13.4614355,
          47.3850769
        ]
      }
    },
    {
      "type": "Feature",
      "properties": {
        "id": "7482453979",
        "osm_type": "node",
        "lat": 47.3771209,
        "lon": 13.4751442,
        "name": "RICCO Schuh",
        "shop": "shoes"
      },
      "geometry": {
        "type": "Point",
        "coordinates": [
          13.4751442,
          47.3771209
        ]
      }
    },
    {
      "type": "Feature",
      "properties": {
        "id": "1044801575",
        "osm_type": "node",
        "lat": 47.3931459,
        "lon": 13.6848791,
        "addr:city": "Schladming",
        "addr:housenumber": "427",
        "addr:postcode": "8970",
        "addr:street": "Dachsteingasse",
        "name": "Weitgasser",
        "shop": "shoes"
      },
      "geometry": {
        "type": "Point",
        "coordinates": [
          13.6848791,
          47.3931459
        ]
      }
    },
    {
      "type": "Feature",
      "properties": {
        "id": "1098524760",
        "osm_type": "node",
        "lat": 47.3911,
        "lon": 13.6591,
        "name": "Klieber Schuhe",
        "shop": "shoes"
      },
      "geometry": {
        "type": "Point",
        "coordinates": [
          13.6591,
          47.3911
        ]
      }
    },
    {
      "type": "Feature",
      "properties": {
        "id": "3306086261",
        "osm_type": "node",
        "lat": 47.3913853,
        "lon": 13.6884706,
        "addr:city": "Schladming",
        "addr:housenumber": "35",
        "addr:postcode": "8970",
        "addr:street": "Hauptplatz",
        "name": "Schuhe Weitgasser",
        "shop": "shoes"
      },
      "geometry": {
        "type": "Point",
        "coordinates": [
          13.6884706,
          47.3913853
        ]
      }
    },
    {
      "type": "Feature",
      "properties": {
        "id": "5012826151",
        "osm_type": "node",
        "lat": 47.6393325,
        "lon": 13.6179974,
        "name": "Style Schuhe für dich",
        "shop": "shoes"
      },
      "geometry": {
        "type": "Point",
        "coordinates": [
          13.6179974,
          47.6393325
        ]
      }
    },
    {
      "type": "Feature",
      "properties": {
        "id": "5037650394",
        "osm_type": "node",
        "lat": 47.6417216,
        "lon": 13.6158508,
        "name": "der Goiserer",
        "shop": "shoes",
        "website": "https://www.dergoiserer.at/"
      },
      "geometry": {
        "type": "Point",
        "coordinates": [
          13.6158508,
          47.6417216
        ]
      }
    },
    {
      "type": "Feature",
      "properties": {
        "id": "7156983996",
        "osm_type": "node",
        "lat": 47.5549452,
        "lon": 13.9307197,
        "check_date": "2025-02-21",
        "contact:mobile": "+43 664 105 92 08",
        "name": "Schuhhaus Falkensteiner",
        "opening_hours": "Mo-Fr 09:00-12:00, 15:00-18:00; Sa 09:00-12:00",
        "shop": "shoes"
      },
      "geometry": {
        "type": "Point",
        "coordinates": [
          13.9307197,
          47.5549452
        ]
      }
    },
    {
      "type": "Feature",
      "properties": {
        "id": "9034290237",
        "osm_type": "node",
        "lat": 47.6093991,
        "lon": 13.7815969,
        "name": "Schuhhaus Laimer",
        "shop": "shoes"
      },
      "geometry": {
        "type": "Point",
        "coordinates": [
          13.7815969,
          47.6093991
        ]
      }
    },
    {
      "type": "Feature",
      "properties": {
        "id": "10561865249",
        "osm_type": "node",
        "lat": 47.4442111,
        "lon": 13.9023373,
        "name": "Schuhe bei Josef",
        "opening_hours": "Mo-Fr 08:00-12:00,15:00-18:00; Sa 08:30-12:00",
        "shop": "shoes"
      },
      "geometry": {
        "type": "Point",
        "coordinates": [
          13.9023373,
          47.4442111
        ]
      }
    },
    {
      "type": "Feature",
      "properties": {
        "id": "11257803139",
        "osm_type": "node",
        "lat": 47.608164,
        "lon": 13.7839335,
        "name": "Schuh Zaisenberger",
        "shop": "shoes"
      },
      "geometry": {
        "type": "Point",
        "coordinates": [
          13.7839335,
          47.608164
        ]
      }
    },
    {
      "type": "Feature",
      "properties": {
        "id": "3758095698",
        "osm_type": "node",
        "lat": 47.5757595,
        "lon": 14.4607412,
        "addr:city": "Admont",
        "addr:country": "AT",
        "addr:housenumber": "381",
        "addr:postcode": "8911",
        "addr:street": "Hauptstraße",
        "contact:phone": "+43 3613 2324",
        "name": "Schuah Gschäft",
        "opening_hours": "Mo-Fr 09:00-12:00, 15:00-18:00; Sa 09:00-12:00",
        "shop": "shoes",
        "website": "https://www.schuah.at/impressum/"
      },
      "geometry": {
        "type": "Point",
        "coordinates": [
          14.4607412,
          47.5757595
        ]
      }
    },
    {
      "type": "Feature",
      "properties": {
        "id": "4445087597",
        "osm_type": "node",
        "lat": 47.5617154,
        "lon": 14.2447039,
        "brand": "Deichmann",
        "brand:wikidata": "Q664543",
        "brand:wikipedia": "en:Deichmann SE",
        "level": "1",
        "name": "Deichmann",
        "shop": "shoes",
        "wheelchair": "yes"
      },
      "geometry": {
        "type": "Point",
        "coordinates": [
          14.2447039,
          47.5617154
        ]
      }
    },
    {
      "type": "Feature",
      "properties": {
        "id": "4445087606",
        "osm_type": "node",
        "lat": 47.5614946,
        "lon": 14.245302,
        "brand": "Humanic",
        "brand:wikidata": "Q1636668",
        "brand:wikipedia": "en:Humanic",
        "level": "1",
        "name": "Humanic",
        "shop": "shoes",
        "wheelchair": "yes"
      },
      "geometry": {
        "type": "Point",
        "coordinates": [
          14.245302,
          47.5614946
        ]
      }
    },
    {
      "type": "Feature",
      "properties": {
        "id": "4961512321",
        "osm_type": "node",
        "lat": 47.5654038,
        "lon": 14.2428774,
        "addr:city": "Liezen",
        "addr:country": "AT",
        "addr:housenumber": "4",
        "addr:postcode": "8940",
        "addr:street": "Fronleichnamsweg",
        "contact:phone": "+43 3612 22726",
        "name": "Schupfer Schuhe",
        "name:de": "Schupfer Schuhe",
        "shop": "shoes",
        "website": "https://schupfer-schuhe.at/impressum"
      },
      "geometry": {
        "type": "Point",
        "coordinates": [
          14.2428774,
          47.5654038
        ]
      }
    },
    {
      "type": "Feature",
      "properties": {
        "id": "1344333028",
        "osm_type": "node",
        "lat": 47.5414043,
        "lon": 14.8864058,
        "contact:phone": "+43 3848 60060",
        "name": "Schuhgeschäft am Platzl",
        "shop": "shoes"
      },
      "geometry": {
        "type": "Point",
        "coordinates": [
          14.8864058,
          47.5414043
        ]
      }
    },
    {
      "type": "Feature",
      "properties": {
        "id": "3015973882",
        "osm_type": "node",
        "lat": 47.6703166,
        "lon": 14.7840186,
        "addr:city": "Landl",
        "addr:country": "AT",
        "addr:housenumber": "166a",
        "addr:place": "Gams bei Hieflau",
        "addr:postcode": "8922",
        "at_bev:addr_date": "2018-10-01",
        "name": "Schuhhaus Krenn",
        "shop": "shoes",
        "website": "http://schuhhaus-krenn.at/"
      },
      "geometry": {
        "type": "Point",
        "coordinates": [
          14.7840186,
          47.6703166
        ]
      }
    },
    {
      "type": "Feature",
      "properties": {
        "id": "845976400",
        "osm_type": "node",
        "lat": 47.3804313,
        "lon": 15.0936804,
        "addr:city": "Leoben",
        "addr:country": "AT",
        "addr:housenumber": "8",
        "addr:postcode": "8700",
        "addr:street": "Homanngasse",
        "at_bev:addr_date": "2017-10-01",
        "name": "Rattenegger",
        "opening_hours": "Mo-Fr 09:00-18:00; Sa 09:00-13:00",
        "shop": "shoes"
      },
      "geometry": {
        "type": "Point",
        "coordinates": [
          15.0936804,
          47.3804313
        ]
      }
    },
    {
      "type": "Feature",
      "properties": {
        "id": "1493328642",
        "osm_type": "node",
        "lat": 47.3821742,
        "lon": 15.0948261,
        "brand": "CCC",
        "brand:wikidata": "Q11788344",
        "brand:wikipedia": "de:CCC (Unternehmen)",
        "level": "0",
        "name": "CCC",
        "shop": "shoes",
        "wheelchair": "yes"
      },
      "geometry": {
        "type": "Point",
        "coordinates": [
          15.0948261,
          47.3821742
        ]
      }
    },
    {
      "type": "Feature",
      "properties": {
        "id": "5505513390",
        "osm_type": "node",
        "lat": 47.3821901,
        "lon": 15.0948787,
        "brand": "Deichmann",
        "brand:wikidata": "Q664543",
        "brand:wikipedia": "en:Deichmann SE",
        "level": "1",
        "name": "Deichmann",
        "shop": "shoes",
        "wheelchair": "yes"
      },
      "geometry": {
        "type": "Point",
        "coordinates": [
          15.0948787,
          47.3821901
        ]
      }
    }
  ],
  "children": []
}