{
  "bbox": {
    "south": 46.372652,
    "west": 15.253173,
    "north": 47.033758500000005,
    "east": 17.16058
  },
  "poiCount": 88,
  "leafCount": 0,
  "averagePosition": [
    15.943182893181818,
    46.65617965113636
  ],
  "data": [],
  "children": [
    {
      "bbox": {
        "south": 46.372652,
        "west": 15.253173,
        "north": 46.70320525,
        "east": 16.2068765
      },
      "poiCount": 39,
      "leafCount": 39,
      "averagePosition": [
        15.788752782051283,
        46.522809835897434
      ],
      "data": [
        {
          "type": "Feature",
          "properties": {
            "id": "7350256840",
            "osm_type": "node",
            "lat": 46.6672805,
            "lon": 15.4690259,
            "addr:city": "Leutschach an der Weinstraße",
            "addr:country": "AT",
            "addr:housenumber": "5",
            "addr:postcode": "8463",
            "addr:street": "Marburger Straße",
            "name": "Schuh - Sport - Pinnitsch",
            "shop": "shoes"
          },
          "geometry": {
            "type": "Point",
            "coordinates": [
              15.4690259,
              46.6672805
            ]
          }
        },
        {
          "type": "Feature",
          "properties": {
            "id": "4547092251",
            "osm_type": "node",
            "lat": 46.5173775,
            "lon": 15.654331,
            "brand": "PittaRosso",
            "brand:wikidata": "Q105643314",
            "name": "PittaRosso",
            "shop": "shoes",
            "website": "https://www.pittarosso.com/si/cevlji-zenske"
          },
          "geometry": {
            "type": "Point",
            "coordinates": [
              15.654331,
              46.5173775
            ]
          }
        },
        {
          "type": "Feature",
          "properties": {
            "id": "4675182590",
            "osm_type": "node",
            "lat": 46.5537123,
            "lon": 15.645742,
            "addr:city": "Maribor",
            "addr:housenumber": "6",
            "addr:postcode": "2000",
            "addr:street": "Trg revolucije",
            "name": "La Scarpa / Caprice / Ara obutev",
            "opening_hours": "Mo-Fr 8:00-19:00; Sa 8:00-13:00",
            "phone": "+386 2 33 02 210",
            "shop": "shoes"
          },
          "geometry": {
            "type": "Point",
            "coordinates": [
              15.645742,
              46.5537123
            ]
          }
        },
        {
          "type": "Feature",
          "properties": {
            "id": "4955260374",
            "osm_type": "node",
            "lat": 46.5594407,
            "lon": 15.6463102,
            "addr:city": "Maribor",
            "addr:housenumber": "3",
            "addr:postcode": "2000",
            "addr:street": "Ulica 10. oktobra",
            "description": "Trgovina se zapira konec meseca junija 2023",
            "name": "Čevlji Janez",
            "opening_hours": "Sa 08:00-13:00; Mo-Fr 08:00-13:00,15:00-18:00",
            "operator": "Gorišek Ivan s.p.",
            "shop": "shoes"
          },
          "geometry": {
            "type": "Point",
            "coordinates": [
              15.6463102,
              46.5594407
            ]
          }
        },
        {
          "type": "Feature",
          "properties": {
            "id": "5126802349",
            "osm_type": "node",
            "lat": 46.5544209,
            "lon": 15.6455679,
            "addr:housenumber": "9",
            "addr:street": "Trg revolucije",
            "name": "Ara trgovina s čevlji",
            "shop": "shoes"
          },
          "geometry": {
            "type": "Point",
            "coordinates": [
              15.6455679,
              46.5544209
            ]
          }
        },
        {
          "type": "Feature",
          "properties": {
            "id": "5178974881",
            "osm_type": "node",
            "lat": 46.5535816,
            "lon": 15.6524759,
            "brand": "Ecco",
            "brand:wikidata": "Q1280255",
            "level": "0",
            "name": "Ecco",
            "shop": "shoes"
          },
          "geometry": {
            "type": "Point",
            "coordinates": [
              15.6524759,
              46.5535816
            ]
          }
        },
        {
          "type": "Feature",
          "properties": {
            "id": "5178974883",
            "osm_type": "node",
            "lat": 46.5534267,
            "lon": 15.652079,
            "level": "0",
            "name": "Mass čevlji",
            "shop": "shoes"
          },
          "geometry": {
            "type": "Point",
            "coordinates": [
              15.652079,
              46.5534267
            ]
          }
        },
        {
          "type": "Feature",
          "properties": {
            "id": "5178974902",
            "osm_type": "node",
            "lat": 46.5542493,
            "lon": 15.6523606,
            "level": "0",
            "name": "Transport footwear",
            "shop": "shoes"
          },
          "geometry": {
            "type": "Point",
            "coordinates": [
              15.6523606,
              46.5542493
            ]
          }
        },
        {
          "type": "Feature",
          "properties": {
            "id": "5178974905",
            "osm_type": "node",
            "lat": 46.5541626,
            "lon": 15.652205,
            "level": "0",
            "name": "Sneakers",
            "shop": "shoes"
          },
          "geometry": {
            "type": "Point",
            "coordinates": [
              15.652205,
              46.5541626
            ]
          }
        },
        {
          "type": "Feature",
          "properties": {
            "id": "5178974906",
            "osm_type": "node",
            "lat": 46.5541719,
            "lon": 15.6520092,
            "brand": "Bata",
            "brand:wikidata": "Q688082",
            "level": "0",
            "name": "Bata",
            "shop": "shoes"
          },
          "geometry": {
            "type": "Point",
            "coordinates": [
              15.6520092,
              46.5541719
            ]
          }
        },
        {
          "type": "Feature",
          "properties": {
            "id": "5215138786",
            "osm_type": "node",
            "lat": 46.5538509,
            "lon": 15.651556,
            "brand": "Geox",
            "brand:wikidata": "Q588001",
            "email": "geox.mb@eurosport-trade.si",
            "level": "0",
            "name": "Geox",
            "shop": "shoes",
            "website": "https://www.geox.com/"
          },
          "geometry": {
            "type": "Point",
            "coordinates": [
              15.651556,
              46.5538509
            ]
          }
        },
        {
          "type": "Feature",
          "properties": {
            "id": "5215138794",
            "osm_type": "node",
            "lat": 46.5537735,
            "lon": 15.6514165,
            "level": "1",
            "name": "Princess",
            "phone": "+386 2 621 02 74",
            "shop": "shoes"
          },
          "geometry": {
            "type": "Point",
            "coordinates": [
              15.6514165,
              46.5537735
            ]
          }
        },
        {
          "type": "Feature",
          "properties": {
            "id": "5225490215",
            "osm_type": "node",
            "lat": 46.5578219,
            "lon": 15.6452979,
            "addr:city": "Maribor",
            "addr:housenumber": "13",
            "addr:postcode": "2000",
            "addr:street": "Glavni Trg",
            "email": "info@kisilak.com",
            "name": "Salon čevljev Kisilak",
            "opening_hours": "Mo-Fr 09:00-19:00; Sa 08:30-13:00",
            "phone": "+386 2 250 1116",
            "shop": "shoes",
            "website": "http://kisilak.com/"
          },
          "geometry": {
            "type": "Point",
            "coordinates": [
              15.6452979,
              46.5578219
            ]
          }
        },
        {
          "type": "Feature",
          "properties": {
            "id": "5225491948",
            "osm_type": "node",
            "lat": 46.5594413,
            "lon": 15.646201,
            "addr:city": "Maribor",
            "addr:housenumber": "5",
            "addr:postcode": "2000",
            "addr:street": "Ulica 10. oktobra",
            "email": "ciciban@ciciban.info",
            "name": "Ciciban Maribor",
            "opening_hours": "Mo-Fr 09:00-19:00; Sa 08:30-13:00",
            "phone": "+386 2 250 9383",
            "second_hand": "no",
            "shop": "shoes",
            "website": "https://www.ciciban.info/"
          },
          "geometry": {
            "type": "Point",
            "coordinates": [
              15.646201,
              46.5594413
            ]
          }
        },
        {
          "type": "Feature",
          "properties": {
            "id": "5225491989",
            "osm_type": "node",
            "lat": 46.5599632,
            "lon": 15.6465563,
            "addr:city": "Maribor",
            "addr:housenumber": "27",
            "addr:postcode": "2000",
            "addr:street": "Gosposka ulica",
            "email": "info@skratek.si",
            "name": "Škratek - otroški čevlji",
            "opening_hours": "Mo-Fr 09:00-19:00; Sa 09:00-14:00",
            "phone": "+386 70 280 888",
            "second_hand": "no",
            "shop": "shoes",
            "website": "https://skratek.si/"
          },
          "geometry": {
            "type": "Point",
            "coordinates": [
              15.6465563,
              46.5599632
            ]
          }
        },
        {
          "type": "Feature",
          "properties": {
            "id": "5248619946",
            "osm_type": "node",
            "lat": 46.5538325,
            "lon": 15.6528461,
            "branch": "čevlji in torbice",
            "brand": "CCC",
            "brand:wikidata": "Q11788344",
            "level": "1",
            "name": "CCC",
            "shop": "shoes"
          },
          "geometry": {
            "type": "Point",
            "coordinates": [
              15.6528461,
              46.5538325
            ]
          }
        },
        {
          "type": "Feature",
          "properties": {
            "id": "5248619962",
            "osm_type": "node",
            "lat": 46.554028,
            "lon": 15.6531733,
            "brand": "Humanic",
            "brand:wikidata": "Q1636668",
            "email": "pahernik.petra@lsag.com",
            "level": "1",
            "name": "Humanic",
            "phone": "+386 2 888 4086",
            "shop": "shoes"
          },
          "geometry": {
            "type": "Point",
            "coordinates": [
              15.6531733,
              46.554028
            ]
          }
        },
        {
          "type": "Feature",
          "properties": {
            "id": "5280135312",
            "osm_type": "node",
            "lat": 46.5585108,
            "lon": 15.6507741,
            "addr:housenumber": "5",
            "addr:street": "Ulica Vita Kraigherja",
            "email": "trgovina.maribor@kopitarna.eu",
            "name": "Kopitarna Maribor",
            "opening_hours": "Mo-Fr 8:00-19:30; Sa 8:00-13:30",
            "phone": "+386 2 237 2734",
            "shop": "shoes",
            "website": "https://www.kopitarna.com/"
          },
          "geometry": {
            "type": "Point",
            "coordinates": [
              15.6507741,
              46.5585108
            ]
          }
        },
        {
          "type": "Feature",
          "properties": {
            "id": "5305463590",
            "osm_type": "node",
            "lat": 46.5393569,
            "lon": 15.6409639,
            "email": "info@extrastil.si",
            "name": "Extrastil obutev",
            "phone": "+386 5 902 7096",
            "shop": "shoes",
            "website": "https://www.extrastil.si/"
          },
          "geometry": {
            "type": "Point",
            "coordinates": [
              15.6409639,
              46.5393569
            ]
          }
        },
        {
          "type": "Feature",
          "properties": {
            "id": "5499889682",
            "osm_type": "node",
            "lat": 46.5590466,
            "lon": 15.6504455,
            "addr:city": "Maribor",
            "addr:housenumber": "5",
            "addr:postcode": "2000",
            "addr:street": "Ulica Vita Kraigherja",
            "email": "tr0058@alpina.si",
            "name": "Alpina obutev Maribor",
            "opening_hours": "Mo-Fr 8:00-19:00; Sa 8:00-13:00",
            "phone": "+386 2 238 0702",
            "shop": "shoes",
            "website": "https://www.alpinashop.si/"
          },
          "geometry": {
            "type": "Point",
            "coordinates": [
              15.6504455,
              46.5590466
            ]
          }
        },
        {
          "type": "Feature",
          "properties": {
            "id": "5543374370",
            "osm_type": "node",
            "lat": 46.5773339,
            "lon": 15.829827,
            "name": "Brigita trgovina z čevlji",
            "shop": "shoes"
          },
          "geometry": {
            "type": "Point",
            "coordinates": [
              15.829827,
              46.5773339
            ]
          }
        },
        {
          "type": "Feature",
          "properties": {
            "id": "5700529944",
            "osm_type": "node",
            "lat": 46.5338927,
            "lon": 15.6647229,
            "addr:city": "Maribor",
            "addr:housenumber": "97",
            "addr:postcode": "2000",
            "addr:street": "Ptujska cesta",
            "name": "Trgovina Teja",
            "operator": "Robert Bobič s.p.",
            "shop": "shoes"
          },
          "geometry": {
            "type": "Point",
            "coordinates": [
              15.6647229,
              46.5338927
            ]
          }
        },
        {
          "type": "Feature",
          "properties": {
            "id": "6200766717",
            "osm_type": "node",
            "lat": 46.3849478,
            "lon": 15.5730979,
            "brand": "CCC",
            "brand:wikidata": "Q11788344",
            "check_date": "2025-07-19",
            "name": "CCC",
            "opening_hours": "Mo-Fr 09:00-20:00; Sa 08:00-20:00",
            "payment:cash": "yes",
            "payment:mastercard": "yes",
            "payment:visa": "yes",
            "shop": "shoes"
          },
          "geometry": {
            "type": "Point",
            "coordinates": [
              15.5730979,
              46.3849478
            ]
          }
        },
        {
          "type": "Feature",
          "properties": {
            "id": "6200766724",
            "osm_type": "node",
            "lat": 46.3847236,
            "lon": 15.5733418,
            "brand": "CCC",
            "brand:wikidata": "Q11788344",
            "brand:wikipedia": "de:CCC (Unternehmen)",
            "check_date": "2025-07-19",
            "name": "Deichman",
            "opening_hours": "Mo-Sa 08:30-20:00",
            "payment:cash": "yes",
            "payment:mastercard": "yes",
            "payment:visa": "yes",
            "shop": "shoes"
          },
          "geometry": {
            "type": "Point",
            "coordinates": [
              15.5733418,
              46.3847236
            ]
          }
        },
        {
          "type": "Feature",
          "properties": {
            "id": "9465412862",
            "osm_type": "node",
            "lat": 46.4160775,
            "lon": 15.879079,
            "addr:city": "Ptuj",
            "addr:housenumber": "24",
            "addr:postcode": "2250",
            "addr:street": "Ormoška cesta",
            "brand": "Deichmann",
            "brand:wikidata": "Q664543",
            "brand:wikipedia": "en:Deichmann SE",
            "name": "Deichmann",
            "shop": "shoes"
          },
          "geometry": {
            "type": "Point",
            "coordinates": [
              15.879079,
              46.4160775
            ]
          }
        },
        {
          "type": "Feature",
          "properties": {
            "id": "9861031747",
            "osm_type": "node",
            "lat": 46.4235646,
            "lon": 15.8864296,
            "addr:city": "Ptuj",
            "addr:housenumber": "21",
            "addr:postcode": "2250",
            "addr:street": "Puhova ulica",
            "brand": "PittaRosso",
            "brand:wikidata": "Q105643314",
            "name": "PittaRosso",
            "opening_hours": "Mo-Sa 08:00-20:00",
            "operator": "PittaRosso - PE Ptuj",
            "shop": "shoes",
            "website": "https://negozi.pittarosso.com/it/slovenia/ptuj"
          },
          "geometry": {
            "type": "Point",
            "coordinates": [
              15.8864296,
              46.4235646
            ]
          }
        },
        {
          "type": "Feature",
          "properties": {
            "id": "9917559013",
            "osm_type": "node",
            "lat": 46.4236374,
            "lon": 15.8862855,
            "addr:city": "Ptuj",
            "addr:postcode": "2250",
            "addr:street": "Puhova ulica",
            "email": "info@pami.si",
            "name": "Pami",
            "opening_hours": "Mo-Sa 08:00-20:00",
            "operator": "PAMI Proizvodno in trgovsko podjetje, d.o.o.",
            "phone": "+386 5 330 60 00",
            "shop": "shoes",
            "website": "https://pami-lascarpa.si/"
          },
          "geometry": {
            "type": "Point",
            "coordinates": [
              15.8862855,
              46.4236374
            ]
          }
        },
        {
          "type": "Feature",
          "properties": {
            "id": "11599236596",
            "osm_type": "node",
            "lat": 46.4181023,
            "lon": 15.878893,
            "addr:city": "Ptuj",
            "addr:housenumber": "15",
            "addr:postcode": "2250",
            "addr:street": "Ormoška cesta",
            "email": "info@mass.si",
            "name": "Mass - PE Supernova Ptuj",
            "opening_hours": "Mo-Sa 08:00-20:00",
            "operator": "MASS d. o. o.",
            "phone": "+386 1 586 44 20",
            "shop": "shoes",
            "website": "https://www.mass.si/"
          },
          "geometry": {
            "type": "Point",
            "coordinates": [
              15.878893,
              46.4181023
            ]
          }
        },
        {
          "type": "Feature",
          "properties": {
            "id": "11599238730",
            "osm_type": "node",
            "lat": 46.4183486,
            "lon": 15.8790898,
            "addr:city": "Ptuj",
            "addr:housenumber": "15",
            "addr:postcode": "2250",
            "addr:street": "Ormoška cesta",
            "name": "KOPITARNA - PE Supernova Ptuj",
            "opening_hours": "Mo-Sa 08:00-20:00",
            "operator": "Kopitarna Sevnica d.o.o.",
            "shop": "shoes",
            "website": "https://www.kopitarna.com/"
          },
          "geometry": {
            "type": "Point",
            "coordinates": [
              15.8790898,
              46.4183486
            ]
          }
        },
        {
          "type": "Feature",
          "properties": {
            "id": "11601329699",
            "osm_type": "node",
            "lat": 46.426766,
            "lon": 15.892087,
            "addr:city": "Ptuj",
            "addr:housenumber": "3",
            "addr:postcode": "2250",
            "addr:street": "Špindlerjeva ulica",
            "name": "Alpina - PE MC Ptuj",
            "operator": "Alpina, tovarna obutve, d.o.o.",
            "phone": "+386 70510734",
            "shop": "shoes",
            "website": "https://www.alpinashop.si/"
          },
          "geometry": {
            "type": "Point",
            "coordinates": [
              15.892087,
              46.426766
            ]
          }
        },
        {
          "type": "Feature",
          "properties": {
            "id": "11638574726",
            "osm_type": "node",
            "lat": 46.4196841,
            "lon": 15.8725881,
            "addr:city": "Ptuj",
            "addr:housenumber": "5",
            "addr:postcode": "2250",
            "addr:street": "Ulica heroja Lacka",
            "name": "La Scarpa",
            "operator": "Pami d.o.o.",
            "shop": "shoes",
            "website": "https://pami-lascarpa.si/"
          },
          "geometry": {
            "type": "Point",
            "coordinates": [
              15.8725881,
              46.4196841
            ]
          }
        },
        {
          "type": "Feature",
          "properties": {
            "id": "12382127436",
            "osm_type": "node",
            "lat": 46.4211745,
            "lon": 15.8722119,
            "addr:city": "Ptuj",
            "addr:housenumber": "9",
            "addr:postcode": "2250",
            "addr:street": "Slomškova ulica",
            "currency:XBT": "yes",
            "name": "Popoln korak",
            "operator": "Tarso, Luka Vrbinc s.p.",
            "payment:lightning": "yes",
            "phone": "031 519 588",
            "shop": "shoes",
            "website": "https://www.popolnkorak.si/lokacije-in-partnerji"
          },
          "geometry": {
            "type": "Point",
            "coordinates": [
              15.8722119,
              46.4211745
            ]
          }
        },
        {
          "type": "Feature",
          "properties": {
            "id": "4081981044",
            "osm_type": "node",
            "lat": 46.5179397,
            "lon": 16.1963052,
            "name": "Pami",
            "shop": "shoes"
          },
          "geometry": {
            "type": "Point",
            "coordinates": [
              16.1963052,
              46.5179397
            ]
          }
        },
        {
          "type": "Feature",
          "properties": {
            "id": "4172214966",
            "osm_type": "node",
            "lat": 46.517615,
            "lon": 16.1975404,
            "name": "Peko",
            "shop": "shoes"
          },
          "geometry": {
            "type": "Point",
            "coordinates": [
              16.1975404,
              46.517615
            ]
          }
        },
        {
          "type": "Feature",
          "properties": {
            "id": "4338797738",
            "osm_type": "node",
            "lat": 46.5301963,
            "lon": 16.1868138,
            "name": "La Scarpa",
            "shop": "shoes"
          },
          "geometry": {
            "type": "Point",
            "coordinates": [
              16.1868138,
              46.5301963
            ]
          }
        },
        {
          "type": "Feature",
          "properties": {
            "id": "4348231396",
            "osm_type": "node",
            "lat": 46.6679893,
            "lon": 16.1795573,
            "addr:city": "Murska Sobota",
            "addr:housenumber": "66",
            "addr:postcode": "9000",
            "addr:street": "Lendavska ulica",
            "brand": "CCC",
            "brand:wikidata": "Q11788344",
            "brand:wikipedia": "en:OVS (company)",
            "check_date": "2023-09-14",
            "name": "CCC",
            "opening_hours": "Mo-Sa 08:00-20:00",
            "operator": "Italian",
            "shop": "shoes"
          },
          "geometry": {
            "type": "Point",
            "coordinates": [
              16.1795573,
              46.6679893
            ]
          }
        },
        {
          "type": "Feature",
          "properties": {
            "id": "4623593858",
            "osm_type": "node",
            "lat": 46.6607486,
            "lon": 16.165613,
            "check_date": "2025-01-26",
            "name": "La Scarpa",
            "opening_hours": "Mo-Fr 09:00-13:00; Sa 08:00-13:00",
            "shop": "shoes"
          },
          "geometry": {
            "type": "Point",
            "coordinates": [
              16.165613,
              46.6607486
            ]
          }
        },
        {
          "type": "Feature",
          "properties": {
            "id": "4818969720",
            "osm_type": "node",
            "lat": 46.6681096,
            "lon": 16.1776683,
            "brand": "Deichmann",
            "brand:wikidata": "Q664543",
            "brand:wikipedia": "en:Deichmann SE",
            "check_date": "2024-06-10",
            "contact:facebook": "https://www.facebook.com/Deichmann",
            "contact:website": "https://www.deichmann.com/SI/sl/shop/welcome.html",
            "name": "Deichmann",
            "opening_hours": "Mo-Sa 08:00-20:00",
            "payment:cash": "yes",
            "payment:mastercard": "yes",
            "payment:visa": "yes",
            "shop": "shoes",
            "wheelchair": "yes"
          },
          "geometry": {
            "type": "Point",
            "coordinates": [
              16.1776683,
              46.6681096
            ]
          }
        },
        {
          "type": "Feature",
          "properties": {
            "id": "11635257964",
            "osm_type": "node",
            "lat": 46.4072825,
            "lon": 16.1588697,
            "addr:city": "Ormož",
            "addr:housenumber": "2B",
            "addr:postcode": "2270",
            "addr:street": "Opekarniška cesta",
            "name": "PAMI",
            "operator": "PAMI Ormož",
            "shop": "shoes"
          },
          "geometry": {
            "type": "Point",
            "coordinates": [
              16.1588697,
              46.4072825
            ]
          }
        }
      ],
      "children": []
    },
    {
      "bbox": {
        "south": 46.372652,
        "west": 16.2068765,
        "north": 46.70320525,
        "east": 17.16058
      },
      "poiCount": 14,
      "leafCount": 14,
      "averagePosition": [
        16.59676675,
        46.42097538571428
      ],
      "data": [
        {
          "type": "Feature",
          "properties": {
            "id": "3887517078",
            "osm_type": "node",
            "lat": 46.3903321,
            "lon": 16.4348715,
            "addr:city": "Čakovec",
            "addr:housenumber": "6",
            "addr:postcode": "40000",
            "addr:street": "Trg Republike",
            "name": "JUMP",
            "opening_hours": "Mo-Fr 8:00-20:00; Sa 08:00-13:00)",
            "shop": "shoes"
          },
          "geometry": {
            "type": "Point",
            "coordinates": [
              16.4348715,
              46.3903321
            ]
          }
        },
        {
          "type": "Feature",
          "properties": {
            "id": "3887518047",
            "osm_type": "node",
            "lat": 46.390067,
            "lon": 16.4370852,
            "addr:city": "Čakovec",
            "addr:housenumber": "7",
            "addr:postcode": "40000",
            "addr:street": "Ulica kralja Tomislava",
            "name": "Fenix",
            "opening_hours": "Mo-Fr 8:30-20:00, Sa 8:00-13:00",
            "shop": "shoes"
          },
          "geometry": {
            "type": "Point",
            "coordinates": [
              16.4370852,
              46.390067
            ]
          }
        },
        {
          "type": "Feature",
          "properties": {
            "id": "3887541015",
            "osm_type": "node",
            "lat": 46.3895391,
            "lon": 16.4383202,
            "addr:city": "Čakovec",
            "addr:housenumber": "14",
            "addr:postcode": "40000",
            "addr:street": "Ulica kralja Tomislava",
            "name": "Borovo",
            "opening_hours": "Mo-Fr 07:30-20:00; Sa 07:00-15:00",
            "operator": "BOROVO d.d.",
            "shop": "shoes",
            "website": "https://www.borovo.hr/"
          },
          "geometry": {
            "type": "Point",
            "coordinates": [
              16.4383202,
              46.3895391
            ]
          }
        },
        {
          "type": "Feature",
          "properties": {
            "id": "3887570879",
            "osm_type": "node",
            "lat": 46.3898503,
            "lon": 16.4372139,
            "addr:city": "Čakovec",
            "addr:housenumber": "10",
            "addr:postcode": "40000",
            "addr:street": "Ulica kralja Tomislava",
            "name": "Planika",
            "opening_hours": "Mo-Fr 08:00-20:00; Sa 08:00-14:00",
            "operator": "NINA COMMERCE d.o.o",
            "shop": "shoes",
            "website": "https://www.planet-obuca.com/"
          },
          "geometry": {
            "type": "Point",
            "coordinates": [
              16.4372139,
              46.3898503
            ]
          }
        },
        {
          "type": "Feature",
          "properties": {
            "id": "4879880907",
            "osm_type": "node",
            "lat": 46.3958733,
            "lon": 16.4282714,
            "addr:city": "Čakovec",
            "addr:country": "HR",
            "addr:housenumber": "25",
            "addr:postcode": "40000",
            "addr:street": "Svetojelenska cesta",
            "brand": "Deichmann",
            "brand:wikidata": "Q664543",
            "brand:wikipedia": "en:Deichmann SE",
            "name": "Deichmann",
            "opening_hours": "Mo-Sa 08:00-21:00; Su 08:00-14:00",
            "operator": "Deichmann trgovina obućom d.o.o.",
            "payment:cash": "yes",
            "payment:maestro": "yes",
            "payment:visa_debit": "yes",
            "payment:visa_electron": "yes",
            "phone": "+385 40 310 462",
            "second_hand": "no",
            "shop": "shoes",
            "website": "https://www.deichmann.com/HR/hr/shop/welcome.html",
            "wheelchair": "yes"
          },
          "geometry": {
            "type": "Point",
            "coordinates": [
              16.4282714,
              46.3958733
            ]
          }
        },
        {
          "type": "Feature",
          "properties": {
            "id": "6024472850",
            "osm_type": "node",
            "lat": 46.3954872,
            "lon": 16.4291778,
            "addr:city": "Čakovec",
            "addr:country": "HR",
            "addr:housenumber": "23",
            "addr:postcode": "40000",
            "addr:street": "Svetojelenska cesta",
            "name": "Froddo",
            "opening_hours": "Mo-Sa 07:00-21:00; Su 07:00-14:00",
            "operator": "Ivančica d.d.",
            "payment:american_express": "yes",
            "payment:cash": "yes",
            "payment:diners_club": "yes",
            "payment:maestro": "yes",
            "payment:mastercard": "yes",
            "payment:visa": "yes",
            "payment:visa_debit": "yes",
            "payment:visa_electron": "yes",
            "phone": "+385 40 493 840",
            "shop": "shoes",
            "website": "https://www.froddo.com/hr",
            "wheelchair": "yes"
          },
          "geometry": {
            "type": "Point",
            "coordinates": [
              16.4291778,
              46.3954872
            ]
          }
        },
        {
          "type": "Feature",
          "properties": {
            "id": "6470797649",
            "osm_type": "node",
            "lat": 46.3900426,
            "lon": 16.4363328,
            "addr:city": "Čakovec",
            "addr:housenumber": "4",
            "addr:postcode": "40000",
            "addr:street": "Ulica kralja Tomislava",
            "name": "Planet Obuća",
            "opening_hours": "Mo-Fr 08:00-20:00; Sa 08:00-13:00",
            "operator": "NINA COMMERCE d.o.o",
            "shop": "shoes",
            "website": "https://www.planet-obuca.com/"
          },
          "geometry": {
            "type": "Point",
            "coordinates": [
              16.4363328,
              46.3900426
            ]
          }
        },
        {
          "type": "Feature",
          "properties": {
            "id": "6486416394",
            "osm_type": "node",
            "lat": 46.3891135,
            "lon": 16.4384422,
            "addr:city": "Čakovec",
            "addr:housenumber": "6",
            "addr:postcode": "40000",
            "addr:street": "Ulica Josipa Jurja Strossmayera",
            "name": "Roberto",
            "shop": "shoes"
          },
          "geometry": {
            "type": "Point",
            "coordinates": [
              16.4384422,
              46.3891135
            ]
          }
        },
        {
          "type": "Feature",
          "properties": {
            "id": "6495254375",
            "osm_type": "node",
            "lat": 46.3906633,
            "lon": 16.4360945,
            "addr:city": "Čakovec",
            "addr:housenumber": "2",
            "addr:postcode": "40000",
            "addr:street": "Ulica Katarine Zrinski",
            "name": "Diva",
            "shop": "shoes"
          },
          "geometry": {
            "type": "Point",
            "coordinates": [
              16.4360945,
              46.3906633
            ]
          }
        },
        {
          "type": "Feature",
          "properties": {
            "id": "10800040012",
            "osm_type": "node",
            "lat": 46.555724,
            "lon": 16.4489794,
            "brand": "Deichmann",
            "brand:wikidata": "Q664543",
            "brand:wikipedia": "en:Deichmann SE",
            "name": "Deichmann",
            "opening_hours": "Mo-Sa 08:00-20:00",
            "shop": "shoes"
          },
          "geometry": {
            "type": "Point",
            "coordinates": [
              16.4489794,
              46.555724
            ]
          }
        },
        {
          "type": "Feature",
          "properties": {
            "id": "2508600819",
            "osm_type": "node",
            "lat": 46.4537292,
            "lon": 16.9943201,
            "shop": "shoes"
          },
          "geometry": {
            "type": "Point",
            "coordinates": [
              16.9943201,
              46.4537292
            ]
          }
        },
        {
          "type": "Feature",
          "properties": {
            "id": "2539898119",
            "osm_type": "node",
            "lat": 46.453595,
            "lon": 17.0121357,
            "addr:city": "Nagykanizsa",
            "addr:housenumber": "4",
            "addr:postcode": "8800",
            "addr:street": "Táborhely utca",
            "air_conditioning": "yes",
            "brand": "CCC",
            "brand:wikidata": "Q11788344",
            "brand:wikipedia": "pl:CCC (przedsiębiorstwo)",
            "contact:email": "info.hu@ccc.eu",
            "contact:facebook": "https://www.facebook.com/CCC.Hungary/",
            "contact:instagram": "https://www.instagram.com/cccshoesbags_hu/",
            "contact:linkedin": "https://www.linkedin.com/company/cccsa",
            "contact:phone": "+36 1 445 3701",
            "contact:website": "https://ccc.eu/hu/",
            "contact:youtube": "https://www.youtube.com/channel/UCVscWDmL_2JddDdGuku7f2w",
            "name": "CCC",
            "operator": "CCC Hungary Shoes Kft.",
            "operator:addr": "1123 Budapest, Alkotás utca 53.",
            "payment:cash": "yes",
            "payment:contactless": "yes",
            "payment:maestro": "yes",
            "payment:mastercard": "yes",
            "payment:mastercard_contactless": "yes",
            "payment:mastercard_electronic": "yes",
            "payment:visa": "yes",
            "payment:visa_electron": "yes",
            "ref:HU:company": "01-09-991763",
            "ref:HU:vatin": "24128296-2-44",
            "ref:vatin": "HU24128296",
            "shop": "shoes",
            "source": "import;website",
            "source:date": "2025-06-15"
          },
          "geometry": {
            "type": "Point",
            "coordinates": [
              17.0121357,
              46.453595
            ]
          }
        },
        {
          "type": "Feature",
          "properties": {
            "id": "2566443610",
            "osm_type": "node",
            "lat": 46.4545834,
            "lon": 16.9925089,
            "name": "Asso Gyermekcipő",
            "shop": "shoes"
          },
          "geometry": {
            "type": "Point",
            "coordinates": [
              16.9925089,
              46.4545834
            ]
          }
        },
        {
          "type": "Feature",
          "properties": {
            "id": "6050459487",
            "osm_type": "node",
            "lat": 46.4550554,
            "lon": 16.9909809,
            "name": "Belvárosi cipőbolt",
            "opening_hours": "Mo-Fr 08:30-17:00; Sa 09:00-12:00",
            "shop": "shoes"
          },
          "geometry": {
            "type": "Point",
            "coordinates": [
              16.9909809,
              46.4550554
            ]
          }
        }
      ],
      "children": []
    },
    {
      "bbox": {
        "south": 46.70320525,
        "west": 15.253173,
        "north": 47.033758500000005,
        "east": 16.2068765
      },
      "poiCount": 28,
      "leafCount": 28,
      "averagePosition": [
        15.612663089285714,
        46.90709695357143
      ],
      "data": [
        {
          "type": "Feature",
          "properties": {
            "id": "3608660680",
            "osm_type": "node",
            "lat": 46.7546338,
            "lon": 15.3670253,
            "addr:city": "Gleinstätten",
            "addr:country": "AT",
            "addr:housenumber": "85",
            "addr:place": "Gleinstätten",
            "addr:postcode": "8443",
            "at_bev:addr_date": "2018-10-01",
            "name": "Schuhhaus Kraus",
            "operator": "Spari Petra",
            "shop": "shoes"
          },
          "geometry": {
            "type": "Point",
            "coordinates": [
              15.3670253,
              46.7546338
            ]
          }
        },
        {
          "type": "Feature",
          "properties": {
            "id": "520165776",
            "osm_type": "node",
            "lat": 46.7813345,
            "lon": 15.5387841,
            "addr:city": "Leibnitz",
            "addr:country": "AT",
            "addr:housenumber": "23",
            "addr:postcode": "8430",
            "addr:street": "Hauptplatz",
            "name": "Schuhmode Pospischil",
            "shop": "shoes"
          },
          "geometry": {
            "type": "Point",
            "coordinates": [
              15.5387841,
              46.7813345
            ]
          }
        },
        {
          "type": "Feature",
          "properties": {
            "id": "520165781",
            "osm_type": "node",
            "lat": 46.7817938,
            "lon": 15.5397435,
            "addr:city": "Leibnitz",
            "addr:country": "AT",
            "addr:housenumber": "11",
            "addr:postcode": "8430",
            "addr:street": "Hauptplatz",
            "name": "nagl",
            "note": "„Leibnitz lädt ein“-Gutschein",
            "opening_hours": "Mo-Fr 8:30-13:00,14:30-18:00; Sa 8:30-16:00 \"1. Samstag im Monat bis 17.00\"",
            "shop": "shoes"
          },
          "geometry": {
            "type": "Point",
            "coordinates": [
              15.5397435,
              46.7817938
            ]
          }
        },
        {
          "type": "Feature",
          "properties": {
            "id": "1643420120",
            "osm_type": "node",
            "lat": 46.7821247,
            "lon": 15.5386663,
            "name": "Hammer",
            "shop": "shoes"
          },
          "geometry": {
            "type": "Point",
            "coordinates": [
              15.5386663,
              46.7821247
            ]
          }
        },
        {
          "type": "Feature",
          "properties": {
            "id": "1867900153",
            "osm_type": "node",
            "lat": 46.7962633,
            "lon": 15.5551846,
            "addr:city": "Leibnitz",
            "addr:country": "AT",
            "addr:housenumber": "1-2",
            "addr:postcode": "8430",
            "addr:street": "Leopold-Figl-Straße",
            "brand": "Deichmann",
            "brand:wikidata": "Q664543",
            "brand:wikipedia": "en:Deichmann SE",
            "name": "Deichmann",
            "opening_hours": "Mo-Fr 08:30-18:30;Sa 08:30-18:00",
            "operator": "Deichmann",
            "shop": "shoes",
            "website": "https://www.deichmann.com/",
            "wheelchair": "yes"
          },
          "geometry": {
            "type": "Point",
            "coordinates": [
              15.5551846,
              46.7962633
            ]
          }
        },
        {
          "type": "Feature",
          "properties": {
            "id": "2864875060",
            "osm_type": "node",
            "lat": 46.7967525,
            "lon": 15.5383596,
            "addr:city": "Leibnitz",
            "addr:country": "AT",
            "addr:housenumber": "166",
            "addr:postcode": "8430",
            "addr:street": "Grazer Straße",
            "addr:suburb": "Kaindorf an der Sulm",
            "at_bev:addr_date": "2019-10-01",
            "name": "Schuhhandel Probst",
            "note": "Schuhhandel und Schuhreparatur",
            "operator": "Günter Probst",
            "shop": "shoes"
          },
          "geometry": {
            "type": "Point",
            "coordinates": [
              15.5383596,
              46.7967525
            ]
          }
        },
        {
          "type": "Feature",
          "properties": {
            "id": "3599635252",
            "osm_type": "node",
            "lat": 46.8713502,
            "lon": 15.9031392,
            "name": "Conrad",
            "shop": "shoes"
          },
          "geometry": {
            "type": "Point",
            "coordinates": [
              15.9031392,
              46.8713502
            ]
          }
        },
        {
          "type": "Feature",
          "properties": {
            "id": "4975204549",
            "osm_type": "node",
            "lat": 46.7968629,
            "lon": 15.5554755,
            "addr:city": "Leibnitz",
            "addr:housenumber": "1",
            "addr:postcode": "8430",
            "addr:street": "Leopold-Figl-Straße",
            "name": "My Shoes",
            "shop": "shoes"
          },
          "geometry": {
            "type": "Point",
            "coordinates": [
              15.5554755,
              46.7968629
            ]
          }
        },
        {
          "type": "Feature",
          "properties": {
            "id": "10591989397",
            "osm_type": "node",
            "lat": 46.7077427,
            "lon": 15.7742214,
            "name": "Schuh-Nische",
            "opening_hours": "08:30-12:00,15:00-18:00",
            "shop": "shoes",
            "website": "https://www.ringschuh.at/geschaefte/stores/schuhnische"
          },
          "geometry": {
            "type": "Point",
            "coordinates": [
              15.7742214,
              46.7077427
            ]
          }
        },
        {
          "type": "Feature",
          "properties": {
            "id": "3356239162",
            "osm_type": "node",
            "lat": 46.8083074,
            "lon": 16.0336022,
            "name": "Trgovina Maja",
            "shop": "shoes"
          },
          "geometry": {
            "type": "Point",
            "coordinates": [
              16.0336022,
              46.8083074
            ]
          }
        },
        {
          "type": "Feature",
          "properties": {
            "id": "2481349001",
            "osm_type": "node",
            "lat": 46.98543,
            "lon": 15.2803067,
            "addr:housenumber": "7",
            "addr:postcode": "8562",
            "addr:street": "Oberer Markt",
            "name": "Meier Schuhe",
            "shop": "shoes",
            "wheelchair": "limited"
          },
          "geometry": {
            "type": "Point",
            "coordinates": [
              15.2803067,
              46.98543
            ]
          }
        },
        {
          "type": "Feature",
          "properties": {
            "id": "4312420143",
            "osm_type": "node",
            "lat": 46.8936891,
            "lon": 15.2645016,
            "addr:city": "Stainz",
            "addr:country": "AT",
            "addr:housenumber": "20",
            "addr:postcode": "8510",
            "addr:street": "Hauptplatz",
            "at_bev:addr_date": "2018-04-02",
            "name": "Ima",
            "opening_hours": "Mo-Fr 08:30-12:30, 14:30-18:00; Sa 08:30-12:30",
            "shop": "shoes",
            "website": "https://www.ringschuh.at/geschaefte/stores/ima-schuhe",
            "wheelchair": "yes"
          },
          "geometry": {
            "type": "Point",
            "coordinates": [
              15.2645016,
              46.8936891
            ]
          }
        },
        {
          "type": "Feature",
          "properties": {
            "id": "8865159003",
            "osm_type": "node",
            "lat": 46.9718997,
            "lon": 15.4949245,
            "addr:city": "Fernitz-Mellach",
            "addr:country": "AT",
            "addr:housenumber": "6",
            "addr:postcode": "8072",
            "addr:street": "Kalsdorfer Straße",
            "contact:phone": "+43 3135 20766",
            "name": "VEGA NOVA - Fernitz",
            "shop": "shoes",
            "website": "https://veganova.at/standorte/fernitz/"
          },
          "geometry": {
            "type": "Point",
            "coordinates": [
              15.4949245,
              46.9718997
            ]
          }
        },
        {
          "type": "Feature",
          "properties": {
            "id": "9750235328",
            "osm_type": "node",
            "lat": 47.0124739,
            "lon": 15.4121548,
            "brand": "shoe4you",
            "brand:wikidata": "Q108006445",
            "level": "1",
            "name": "shoe4you",
            "shop": "shoes",
            "wheelchair": "yes"
          },
          "geometry": {
            "type": "Point",
            "coordinates": [
              15.4121548,
              47.0124739
            ]
          }
        },
        {
          "type": "Feature",
          "properties": {
            "id": "9750235332",
            "osm_type": "node",
            "lat": 47.0116746,
            "lon": 15.4120875,
            "brand": "Humanic",
            "brand:wikidata": "Q1636668",
            "level": "1",
            "name": "Humanic",
            "shop": "shoes",
            "wheelchair": "yes"
          },
          "geometry": {
            "type": "Point",
            "coordinates": [
              15.4120875,
              47.0116746
            ]
          }
        },
        {
          "type": "Feature",
          "properties": {
            "id": "9750235348",
            "osm_type": "node",
            "lat": 47.0124548,
            "lon": 15.4134156,
            "brand": "Foot Locker",
            "brand:wikidata": "Q63335",
            "level": "0",
            "name": "Foot Locker",
            "shop": "shoes"
          },
          "geometry": {
            "type": "Point",
            "coordinates": [
              15.4134156,
              47.0124548
            ]
          }
        },
        {
          "type": "Feature",
          "properties": {
            "id": "9750235365",
            "osm_type": "node",
            "lat": 47.0119282,
            "lon": 15.4120673,
            "brand": "Snipes",
            "brand:wikidata": "Q42306166",
            "level": "0",
            "name": "Snipes",
            "shop": "shoes",
            "wheelchair": "yes"
          },
          "geometry": {
            "type": "Point",
            "coordinates": [
              15.4120673,
              47.0119282
            ]
          }
        },
        {
          "type": "Feature",
          "properties": {
            "id": "9750235372",
            "osm_type": "node",
            "lat": 47.0120457,
            "lon": 15.4114528,
            "brand": "Tamaris",
            "brand:wikidata": "Q61994827",
            "level": "0",
            "name": "Tamaris",
            "shop": "shoes"
          },
          "geometry": {
            "type": "Point",
            "coordinates": [
              15.4114528,
              47.0120457
            ]
          }
        },
        {
          "type": "Feature",
          "properties": {
            "id": "9750235379",
            "osm_type": "node",
            "lat": 47.0123413,
            "lon": 15.4121308,
            "level": "0",
            "name": "JD Sports",
            "shop": "shoes"
          },
          "geometry": {
            "type": "Point",
            "coordinates": [
              15.4121308,
              47.0123413
            ]
          }
        },
        {
          "type": "Feature",
          "properties": {
            "id": "9750235407",
            "osm_type": "node",
            "lat": 47.0122522,
            "lon": 15.4099164,
            "brand": "Deichmann",
            "brand:wikidata": "Q664543",
            "level": "1",
            "name": "Deichmann",
            "shop": "shoes",
            "wheelchair": "yes"
          },
          "geometry": {
            "type": "Point",
            "coordinates": [
              15.4099164,
              47.0122522
            ]
          }
        },
        {
          "type": "Feature",
          "properties": {
            "id": "9750235441",
            "osm_type": "node",
            "lat": 47.0135128,
            "lon": 15.4124914,
            "level": "1",
            "name": "Farmah‘s Trendy Zone",
            "shop": "shoes"
          },
          "geometry": {
            "type": "Point",
            "coordinates": [
              15.4124914,
              47.0135128
            ]
          }
        },
        {
          "type": "Feature",
          "properties": {
            "id": "317374097",
            "osm_type": "node",
            "lat": 46.948814,
            "lon": 15.9156195,
            "addr:city": "Feldbach",
            "addr:housenumber": "465",
            "addr:place": "Mühldorf",
            "addr:postcode": "8330",
            "brand": "Deichmann",
            "brand:wikidata": "Q664543",
            "brand:wikipedia": "en:Deichmann SE",
            "name": "Deichmann",
            "phone": "+43 3152 37003",
            "shop": "shoes"
          },
          "geometry": {
            "type": "Point",
            "coordinates": [
              15.9156195,
              46.948814
            ]
          }
        },
        {
          "type": "Feature",
          "properties": {
            "id": "2299389419",
            "osm_type": "node",
            "lat": 46.9500118,
            "lon": 15.9140958,
            "addr:city": "Feldbach",
            "addr:country": "AT",
            "addr:housenumber": "6",
            "addr:postcode": "8330",
            "addr:street": "Gewerbepark",
            "at_bev:addr_date": "2018-10-01",
            "brand": "Deichmann",
            "brand:wikidata": "Q664543",
            "name": "Deichmann",
            "opening_hours": "Mo-Fr 09:00-18:30; Sa 09:00-17:00",
            "operator": "Jello HandelsgmbH",
            "shop": "shoes"
          },
          "geometry": {
            "type": "Point",
            "coordinates": [
              15.9140958,
              46.9500118
            ]
          }
        },
        {
          "type": "Feature",
          "properties": {
            "id": "2498915789",
            "osm_type": "node",
            "lat": 46.8755592,
            "lon": 15.825408,
            "addr:city": "Gnas",
            "addr:country": "AT",
            "addr:housenumber": "39",
            "addr:place": "Gnas",
            "addr:postcode": "8342",
            "fax": "+43 3151 22 19 5",
            "name": "Schuhhaus Konrad",
            "phone": "+43 3151 22 19 0",
            "shop": "shoes"
          },
          "geometry": {
            "type": "Point",
            "coordinates": [
              15.825408,
              46.8755592
            ]
          }
        },
        {
          "type": "Feature",
          "properties": {
            "id": "3645866430",
            "osm_type": "node",
            "lat": 46.9529898,
            "lon": 15.8890354,
            "addr:city": "Feldbach",
            "addr:housenumber": "9",
            "addr:postcode": "8330",
            "addr:street": "Hauptplatz",
            "name": "Schuhhaus Trummer",
            "shop": "shoes"
          },
          "geometry": {
            "type": "Point",
            "coordinates": [
              15.8890354,
              46.9529898
            ]
          }
        },
        {
          "type": "Feature",
          "properties": {
            "id": "3940471083",
            "osm_type": "node",
            "lat": 46.9525983,
            "lon": 15.8883104,
            "addr:city": "Feldbach",
            "addr:housenumber": "16",
            "addr:postcode": "8330",
            "addr:street": "Hauptplatz",
            "name": "Schuhhaus Nagl",
            "operator": "Nagl GmbH",
            "phone": "+43 3152 2283",
            "shop": "shoes",
            "website": "https://www.naglschuhe.com/"
          },
          "geometry": {
            "type": "Point",
            "coordinates": [
              15.8883104,
              46.9525983
            ]
          }
        },
        {
          "type": "Feature",
          "properties": {
            "id": "4704089147",
            "osm_type": "node",
            "lat": 46.9522589,
            "lon": 15.8901584,
            "addr:city": "Feldbach",
            "addr:housenumber": "6",
            "addr:postcode": "8330",
            "addr:street": "Bürgergasse",
            "name": "Ferder Schuhe",
            "shop": "shoes"
          },
          "geometry": {
            "type": "Point",
            "coordinates": [
              15.8901584,
              46.9522589
            ]
          }
        },
        {
          "type": "Feature",
          "properties": {
            "id": "2598296662",
            "osm_type": "node",
            "lat": 46.9396146,
            "lon": 16.1522879,
            "addr:city": "Jennersdorf",
            "addr:country": "AT",
            "addr:housenumber": "58",
            "addr:postcode": "8380",
            "addr:street": "Technologiepark",
            "brand": "Quick Schuh",
            "brand:wikidata": "Q2123069",
            "brand:wikipedia": "de:Quick Schuh",
            "name": "Quick Schuh",
            "shop": "shoes"
          },
          "geometry": {
            "type": "Point",
            "coordinates": [
              16.1522879,
              46.9396146
            ]
          }
        }
      ],
      "children": []
    },
    {
      "bbox": {
        "south": 46.70320525,
        "west": 16.2068765,
        "north": 47.033758500000005,
        "east": 17.16058
      },
      "poiCount": 7,
      "leafCount": 7,
      "averagePosition": [
        16.81849072857143,
        46.86597937142857
      ],
      "data": [
        {
          "type": "Feature",
          "properties": {
            "id": "3479932390",
            "osm_type": "node",
            "lat": 46.841436,
            "lon": 16.868409,
            "addr:city": "Zalaegerszeg",
            "addr:housenumber": "5-7",
            "addr:postcode": "8900",
            "addr:street": "Balatoni út",
            "brand": "Deichmann",
            "brand:wikidata": "Q664543",
            "brand:wikipedia": "en:Deichmann SE",
            "name": "Deichmann",
            "opening_hours": "Mo-Sa 09:00-20:00; Su 10:00-18:00",
            "shop": "shoes",
            "source": "turistautak.hu",
            "source:date": "2012-01-20",
            "url": "http://turistautak.hu/poi.php?id=98625",
            "wheelchair": "yes"
          },
          "geometry": {
            "type": "Point",
            "coordinates": [
              16.868409,
              46.841436
            ]
          }
        },
        {
          "type": "Feature",
          "properties": {
            "id": "5153325463",
            "osm_type": "node",
            "lat": 46.8426326,
            "lon": 16.8456869,
            "name": "Bizánc cipőbolt",
            "opening_hours": "Mo-Fr 09:00-17:00; Sa 09:00-13:00",
            "shop": "shoes"
          },
          "geometry": {
            "type": "Point",
            "coordinates": [
              16.8456869,
              46.8426326
            ]
          }
        },
        {
          "type": "Feature",
          "properties": {
            "id": "5153328377",
            "osm_type": "node",
            "lat": 46.8420643,
            "lon": 16.8456874,
            "name": "Brand Store",
            "opening_hours": "Mo-Fr 09:00-17:30; Sa 09:00-12:30",
            "shop": "shoes"
          },
          "geometry": {
            "type": "Point",
            "coordinates": [
              16.8456874,
              46.8420643
            ]
          }
        },
        {
          "type": "Feature",
          "properties": {
            "id": "5210050312",
            "osm_type": "node",
            "lat": 46.8411463,
            "lon": 16.8683238,
            "addr:city": "Zalaegerszeg",
            "addr:housenumber": "5-7",
            "addr:postcode": "8900",
            "addr:street": "Balatoni út",
            "air_conditioning": "yes",
            "brand": "CCC",
            "brand:wikidata": "Q11788344",
            "brand:wikipedia": "pl:CCC (przedsiębiorstwo)",
            "contact:email": "info.hu@ccc.eu",
            "contact:facebook": "https://www.facebook.com/CCC.Hungary/",
            "contact:instagram": "https://www.instagram.com/cccshoesbags_hu/",
            "contact:linkedin": "https://www.linkedin.com/company/cccsa",
            "contact:phone": "+36 1 445 3701",
            "contact:website": "https://ccc.eu/hu/",
            "contact:youtube": "https://www.youtube.com/channel/UCVscWDmL_2JddDdGuku7f2w",
            "name": "CCC",
            "opening_hours": "Mo-Sa 09:00-20:00; Su 10:00-18:00",
            "operator": "CCC Hungary Shoes Kft.",
            "operator:addr": "1123 Budapest, Alkotás utca 53.",
            "payment:cash": "yes",
            "payment:contactless": "yes",
            "payment:maestro": "yes",
            "payment:mastercard": "yes",
            "payment:mastercard_contactless": "yes",
            "payment:mastercard_electronic": "yes",
            "payment:visa": "yes",
            "payment:visa_electron": "yes",
            "ref:HU:company": "01-09-991763",
            "ref:HU:vatin": "24128296-2-44",
            "ref:vatin": "HU24128296",
            "shop": "shoes",
            "source": "import;website",
            "source:date": "2025-06-15"
          },
          "geometry": {
            "type": "Point",
            "coordinates": [
              16.8683238,
              46.8411463
            ]
          }
        },
        {
          "type": "Feature",
          "properties": {
            "id": "12112721190",
            "osm_type": "node",
            "lat": 46.8421749,
            "lon": 16.8456875,
            "name": "Belvárosi Cipő",
            "shop": "shoes"
          },
          "geometry": {
            "type": "Point",
            "coordinates": [
              16.8456875,
              46.8421749
            ]
          }
        },
        {
          "type": "Feature",
          "properties": {
            "id": "12920529885",
            "osm_type": "node",
            "lat": 46.84461,
            "lon": 16.8514,
            "addr:city": "Zalaegerszeg",
            "addr:housenumber": "5",
            "addr:postcode": "8900",
            "addr:street": "Stadion utca",
            "air_conditioning": "yes",
            "brand": "CCC",
            "brand:wikidata": "Q11788344",
            "brand:wikipedia": "pl:CCC (przedsiębiorstwo)",
            "contact:email": "info.hu@ccc.eu",
            "contact:facebook": "https://www.facebook.com/CCC.Hungary/",
            "contact:instagram": "https://www.instagram.com/cccshoesbags_hu/",
            "contact:linkedin": "https://www.linkedin.com/company/cccsa",
            "contact:phone": "+36 1 445 3701",
            "contact:website": "https://ccc.eu/hu/",
            "contact:youtube": "https://www.youtube.com/channel/UCVscWDmL_2JddDdGuku7f2w",
            "fixme": "Ellenőrizni a meglétét és a pontos helyére tenni;Check its existence and put it in the right place",
            "name": "CCC",
            "operator": "CCC Hungary Shoes Kft.",
            "operator:addr": "1123 Budapest, Alkotás utca 53.",
            "payment:cash": "yes",
            "payment:contactless": "yes",
            "payment:maestro": "yes",
            "payment:mastercard": "yes",
            "payment:mastercard_contactless": "yes",
            "payment:mastercard_electronic": "yes",
            "payment:visa": "yes",
            "payment:visa_electron": "yes",
            "ref:HU:company": "01-09-991763",
            "ref:HU:vatin": "24128296-2-44",
            "ref:vatin": "HU24128296",
            "shop": "shoes",
            "source": "import;website",
            "source:date": "2025-06-15"
          },
          "geometry": {
            "type": "Point",
            "coordinates": [
              16.8514,
              46.84461
            ]
          }
        },
        {
          "type": "Feature",
          "properties": {
            "id": "5860179446",
            "osm_type": "node",
            "lat": 47.0077915,
            "lon": 16.6042405,
            "name": "Legero",
            "opening_hours": "Mo-Fr 09:00-17:00; Sa 08:00-12:00; PH,Su off",
            "shop": "shoes"
          },
          "geometry": {
            "type": "Point",
            "coordinates": [
              16.6042405,
              47.0077915
            ]
          }
        }
      ],
      "children": []
    }
  ]
}