{
  "bbox": {
    "south": 48.355971499999995,
    "west": 15.253173,
    "north": 49.017078,
    "east": 17.16058
  },
  "poiCount": 51,
  "leafCount": 0,
  "averagePosition": [
    16.20784917647059,
    48.621898954901965
  ],
  "data": [],
  "children": [
    {
      "bbox": {
        "south": 48.355971499999995,
        "west": 15.253173,
        "north": 48.68652475,
        "east": 16.2068765
      },
      "poiCount": 20,
      "leafCount": 20,
      "averagePosition": [
        15.6512787,
        48.46353061
      ],
      "data": [
        {
          "type": "Feature",
          "properties": {
            "id": "5340680061",
            "osm_type": "node",
            "lat": 48.373248,
            "lon": 15.3458693,
            "craft": "shoemaker",
            "name": "Löw",
            "operator": "2022 geschlossen",
            "shop": "shoes"
          },
          "geometry": {
            "type": "Point",
            "coordinates": [
              15.3458693,
              48.373248
            ]
          }
        },
        {
          "type": "Feature",
          "properties": {
            "id": "8164985299",
            "osm_type": "node",
            "lat": 48.415632,
            "lon": 15.3032921,
            "name": "Schönhofer Renate",
            "shop": "shoes"
          },
          "geometry": {
            "type": "Point",
            "coordinates": [
              15.3032921,
              48.415632
            ]
          }
        },
        {
          "type": "Feature",
          "properties": {
            "id": "10018175969",
            "osm_type": "node",
            "lat": 48.5172418,
            "lon": 15.4870292,
            "addr:city": "Gföhl",
            "addr:country": "AT",
            "addr:housenumber": "17",
            "addr:postcode": "3542",
            "addr:street": "Zwettler Straße",
            "check_date": "2025-05-30",
            "name": "Schuhe Mold",
            "opening_hours": "Mo-Fr 09:00-18:00, Sa 8:00-12:00",
            "phone": "+43 2716 6349",
            "shop": "shoes",
            "wheelchair": "no"
          },
          "geometry": {
            "type": "Point",
            "coordinates": [
              15.4870292,
              48.5172418
            ]
          }
        },
        {
          "type": "Feature",
          "properties": {
            "id": "456769408",
            "osm_type": "node",
            "lat": 48.4060415,
            "lon": 15.6571503,
            "addr:city": "Krems an der Donau",
            "addr:country": "AT",
            "addr:housenumber": "4",
            "addr:postcode": "3500",
            "addr:street": "Gewerbeparkstraße",
            "name": "Shoe4You",
            "phone": "+43 2732 811 06",
            "shop": "shoes",
            "website": "http://www.shoe4you.at",
            "wheelchair": "yes"
          },
          "geometry": {
            "type": "Point",
            "coordinates": [
              15.6571503,
              48.4060415
            ]
          }
        },
        {
          "type": "Feature",
          "properties": {
            "id": "456769417",
            "osm_type": "node",
            "lat": 48.4053292,
            "lon": 15.6583154,
            "addr:city": "Krems an der Donau",
            "addr:country": "AT",
            "addr:housenumber": "6",
            "addr:postcode": "3500",
            "addr:street": "Gewerbeparkstraße",
            "brand": "Deichmann",
            "brand:wikidata": "Q664543",
            "brand:wikipedia": "en:Deichmann SE",
            "name": "Deichmann",
            "phone": "+43 2732 759 27",
            "shop": "shoes",
            "website": "https://www.deichmann.com/",
            "wheelchair": "yes"
          },
          "geometry": {
            "type": "Point",
            "coordinates": [
              15.6583154,
              48.4053292
            ]
          }
        },
        {
          "type": "Feature",
          "properties": {
            "id": "607053342",
            "osm_type": "node",
            "lat": 48.4112088,
            "lon": 15.600739,
            "addr:city": "Krems an der Donau",
            "addr:country": "AT",
            "addr:housenumber": "2",
            "addr:postcode": "3500",
            "addr:street": "Untere Landstraße",
            "email": "info@klimesch-schuhe.at",
            "name": "Klimesch Schuh",
            "opening_hours": "Mo-Fr 09:00-18:00; Sa 09:00-17:00",
            "phone": "+43 2732 757 88",
            "shop": "shoes",
            "website": "https://klimesch-schuhe.at/"
          },
          "geometry": {
            "type": "Point",
            "coordinates": [
              15.600739,
              48.4112088
            ]
          }
        },
        {
          "type": "Feature",
          "properties": {
            "id": "607110818",
            "osm_type": "node",
            "lat": 48.4118656,
            "lon": 15.6034673,
            "addr:city": "Krems an der Donau",
            "addr:country": "AT",
            "addr:housenumber": "47",
            "addr:postcode": "3500",
            "addr:street": "Untere Landstraße",
            "check_date": "2025-06-07",
            "check_date:opening_hours": "2025-06-07",
            "email": "krems@gea.at",
            "name": "GEA Krems",
            "opening_hours": "Mo,Tu,Th,Fr 09:00-13:00, Mo-Fr 14:00-18:00, Sa 09:00-13:00",
            "phone": "+43 2732 982 67",
            "shop": "shoes",
            "website": "https://gea-waldviertler.at",
            "wheelchair": "no"
          },
          "geometry": {
            "type": "Point",
            "coordinates": [
              15.6034673,
              48.4118656
            ]
          }
        },
        {
          "type": "Feature",
          "properties": {
            "id": "5443236296",
            "osm_type": "node",
            "lat": 48.4111296,
            "lon": 15.6004343,
            "addr:city": "Krems an der Donau",
            "addr:country": "AT",
            "addr:housenumber": "1",
            "addr:postcode": "3500",
            "addr:street": "Obere Landstraße",
            "check_date": "2024-09-07",
            "mobile": "+43 660 115 50 79",
            "name": "Görtz",
            "shop": "shoes",
            "website": "https://www.goertz.at/"
          },
          "geometry": {
            "type": "Point",
            "coordinates": [
              15.6004343,
              48.4111296
            ]
          }
        },
        {
          "type": "Feature",
          "properties": {
            "id": "10213088353",
            "osm_type": "node",
            "lat": 48.4100762,
            "lon": 15.597286,
            "addr:city": "Krems an der Donau",
            "addr:country": "AT",
            "addr:housenumber": "27",
            "addr:postcode": "3500",
            "addr:street": "Obere Landstraße",
            "name": "Schuhe Mold",
            "opening_hours": "Mo-Fr 09:00-18:00; Sa 09:00-17:00; PH off",
            "phone": "+43 2732 77697",
            "shop": "shoes",
            "website": "https://www.mold.at/de/Filialen_Krems.htm"
          },
          "geometry": {
            "type": "Point",
            "coordinates": [
              15.597286,
              48.4100762
            ]
          }
        },
        {
          "type": "Feature",
          "properties": {
            "id": "10244707285",
            "osm_type": "node",
            "lat": 48.4164715,
            "lon": 15.6215494,
            "addr:city": "Krems an der Donau",
            "addr:country": "AT",
            "addr:housenumber": "96-102",
            "addr:postcode": "3500",
            "addr:street": "Wiener Straße",
            "brand": "Snipes",
            "brand:wikidata": "Q42306166",
            "check_date": "2024-07-27",
            "level": "1",
            "name": "Snipes",
            "opening_hours": "Mo-Fr 09:00-19:00; Sa 09:00-18:00; PH off",
            "phone": "+43 2732 98 296",
            "shop": "shoes",
            "website": "https://www.snipes.at/"
          },
          "geometry": {
            "type": "Point",
            "coordinates": [
              15.6215494,
              48.4164715
            ]
          }
        },
        {
          "type": "Feature",
          "properties": {
            "id": "11975816208",
            "osm_type": "node",
            "lat": 48.4097471,
            "lon": 15.6004579,
            "addr:city": "Krems an der Donau",
            "addr:country": "AT",
            "addr:housenumber": "7",
            "addr:postcode": "3500",
            "addr:street": "Herzogstraße",
            "name": "Müllner Orthopädie-Schuh-Technik",
            "opening_hours": "Mo-Fr 08:00-12:00,14:30-18:00",
            "shop": "shoes",
            "website": "https://www.fussberater.at/"
          },
          "geometry": {
            "type": "Point",
            "coordinates": [
              15.6004579,
              48.4097471
            ]
          }
        },
        {
          "type": "Feature",
          "properties": {
            "id": "12078675954",
            "osm_type": "node",
            "lat": 48.4160652,
            "lon": 15.6207828,
            "addr:city": "Krems an der Donau",
            "addr:country": "AT",
            "addr:housenumber": "96-102",
            "addr:postcode": "3500",
            "addr:street": "Wiener Straße",
            "check_date": "2024-07-27",
            "level": "3",
            "name": "Regina Schuhe",
            "shop": "shoes"
          },
          "geometry": {
            "type": "Point",
            "coordinates": [
              15.6207828,
              48.4160652
            ]
          }
        },
        {
          "type": "Feature",
          "properties": {
            "id": "12217460895",
            "osm_type": "node",
            "lat": 48.6674036,
            "lon": 15.6355876,
            "name": "Regina",
            "shop": "shoes"
          },
          "geometry": {
            "type": "Point",
            "coordinates": [
              15.6355876,
              48.6674036
            ]
          }
        },
        {
          "type": "Feature",
          "properties": {
            "id": "12217609305",
            "osm_type": "node",
            "lat": 48.6664775,
            "lon": 15.6374226,
            "brand": "Deichmann",
            "brand:wikidata": "Q664543",
            "name": "Deichmann",
            "shop": "shoes"
          },
          "geometry": {
            "type": "Point",
            "coordinates": [
              15.6374226,
              48.6664775
            ]
          }
        },
        {
          "type": "Feature",
          "properties": {
            "id": "12302038577",
            "osm_type": "node",
            "lat": 48.4107757,
            "lon": 15.5992019,
            "addr:city": "Krems an der Donau",
            "addr:country": "AT",
            "addr:housenumber": "7",
            "addr:postcode": "3500",
            "addr:street": "Obere Landstraße",
            "mobile": "+43 676 916 36 04",
            "name": "La Borsa",
            "shop": "shoes",
            "website": "https://www.laborsa.at/"
          },
          "geometry": {
            "type": "Point",
            "coordinates": [
              15.5992019,
              48.4107757
            ]
          }
        },
        {
          "type": "Feature",
          "properties": {
            "id": "12501829195",
            "osm_type": "node",
            "lat": 48.4161033,
            "lon": 15.6206153,
            "addr:city": "Krems an der Donau",
            "addr:country": "AT",
            "addr:housenumber": "96-102",
            "addr:postcode": "3500",
            "addr:street": "Wiener Straße",
            "level": "1",
            "name": "Deichmann",
            "phone": "+43 2732 79 101",
            "shop": "shoes",
            "website": "https://www.deichmann.com/"
          },
          "geometry": {
            "type": "Point",
            "coordinates": [
              15.6206153,
              48.4161033
            ]
          }
        },
        {
          "type": "Feature",
          "properties": {
            "id": "12606509985",
            "osm_type": "node",
            "lat": 48.4112596,
            "lon": 15.5993844,
            "addr:city": "Krems an der Donau",
            "addr:country": "AT",
            "addr:housenumber": "1",
            "addr:postcode": "3500",
            "addr:street": "Kirchengasse",
            "alt_name": "Schuhboutique Johann Maier",
            "name": "Johann Maier",
            "phone": "+43 664 357 07 77",
            "shop": "shoes",
            "website": "https://www.facebook.com/people/Schuhboutique-Johann-Maier/61561394893058/"
          },
          "geometry": {
            "type": "Point",
            "coordinates": [
              15.5993844,
              48.4112596
            ]
          }
        },
        {
          "type": "Feature",
          "properties": {
            "id": "1891674549",
            "osm_type": "node",
            "lat": 48.569145,
            "lon": 16.0786393,
            "brand": "Deichmann",
            "brand:wikidata": "Q664543",
            "brand:wikipedia": "en:Deichmann SE",
            "name": "Deichmann",
            "opening_hours": "Mo-Fr 08:30-18:00; Sa 08:30-17:00",
            "phone": "+43 2952 34240",
            "shop": "shoes"
          },
          "geometry": {
            "type": "Point",
            "coordinates": [
              16.0786393,
              48.569145
            ]
          }
        },
        {
          "type": "Feature",
          "properties": {
            "id": "1948259398",
            "osm_type": "node",
            "lat": 48.5631209,
            "lon": 16.0792259,
            "addr:housenumber": "2",
            "addr:postcode": "2020",
            "addr:street": "Sparkassegasse",
            "brand": "Humanic",
            "brand:wikidata": "Q1636668",
            "brand:wikipedia": "en:Humanic",
            "name": "Humanic",
            "shop": "shoes",
            "website": "https://www.humanic.net/at",
            "wheelchair": "no"
          },
          "geometry": {
            "type": "Point",
            "coordinates": [
              16.0792259,
              48.5631209
            ]
          }
        },
        {
          "type": "Feature",
          "properties": {
            "id": "5682542124",
            "osm_type": "node",
            "lat": 48.5622701,
            "lon": 16.079124,
            "name": "Mühlberger Schuhe",
            "operator": "Mühlberger",
            "shop": "shoes"
          },
          "geometry": {
            "type": "Point",
            "coordinates": [
              16.079124,
              48.5622701
            ]
          }
        }
      ],
      "children": []
    },
    {
      "bbox": {
        "south": 48.355971499999995,
        "west": 16.2068765,
        "north": 48.68652475,
        "east": 17.16058
      },
      "poiCount": 11,
      "leafCount": 11,
      "averagePosition": [
        16.621783845454544,
        48.47541228181819
      ],
      "data": [
        {
          "type": "Feature",
          "properties": {
            "id": "5093060222",
            "osm_type": "node",
            "lat": 48.3606059,
            "lon": 16.3101578,
            "addr:city": "Leobendorf",
            "addr:housenumber": "4a",
            "addr:postcode": "2100",
            "addr:street": "Hammerschmied-Straße",
            "brand": "Deichmann",
            "brand:wikidata": "Q664543",
            "brand:wikipedia": "en:Deichmann SE",
            "contact:phone": "+43 2262 73109",
            "contact:website": "www.deichmann.com",
            "name": "Deichmann",
            "opening_hours": "Mo-Fr 09:00-18:30; Sa 09:00-17:00; Su,PH off",
            "operator": "Deichmann Schuhvertriebsgesellschaft m.b.H.",
            "shop": "shoes"
          },
          "geometry": {
            "type": "Point",
            "coordinates": [
              16.3101578,
              48.3606059
            ]
          }
        },
        {
          "type": "Feature",
          "properties": {
            "id": "2609356666",
            "osm_type": "node",
            "lat": 48.38541,
            "lon": 16.2354219,
            "brand": "Deichmann",
            "brand:wikidata": "Q664543",
            "brand:wikipedia": "en:Deichmann SE",
            "name": "Deichmann",
            "shop": "shoes"
          },
          "geometry": {
            "type": "Point",
            "coordinates": [
              16.2354219,
              48.38541
            ]
          }
        },
        {
          "type": "Feature",
          "properties": {
            "id": "4833523372",
            "osm_type": "node",
            "lat": 48.3853179,
            "lon": 16.2133724,
            "name": "Delka",
            "shop": "shoes"
          },
          "geometry": {
            "type": "Point",
            "coordinates": [
              16.2133724,
              48.3853179
            ]
          }
        },
        {
          "type": "Feature",
          "properties": {
            "id": "452517168",
            "osm_type": "node",
            "lat": 48.5683465,
            "lon": 16.5917332,
            "brand": "Deichmann",
            "brand:wikidata": "Q664543",
            "brand:wikipedia": "en:Deichmann SE",
            "name": "Deichmann",
            "shop": "shoes"
          },
          "geometry": {
            "type": "Point",
            "coordinates": [
              16.5917332,
              48.5683465
            ]
          }
        },
        {
          "type": "Feature",
          "properties": {
            "id": "1369028041",
            "osm_type": "node",
            "lat": 48.567686,
            "lon": 16.5925788,
            "name": "Shoe4you",
            "shop": "shoes"
          },
          "geometry": {
            "type": "Point",
            "coordinates": [
              16.5925788,
              48.567686
            ]
          }
        },
        {
          "type": "Feature",
          "properties": {
            "id": "3734597398",
            "osm_type": "node",
            "lat": 48.5685188,
            "lon": 16.5723379,
            "addr:city": "Mistelbach",
            "addr:country": "AT",
            "addr:housenumber": "26",
            "addr:postcode": "2130",
            "addr:street": "Hauptplatz",
            "email": "mistelbach@schuhe-goessinger.at",
            "name": "Schuhe Gössinger",
            "opening_hours": "Mo-Fr 09:00-13:00, 13:30-18:00, Sa 09:00-16:00",
            "operator": "G&G Polak GmbH",
            "phone": "+43 2572 34364",
            "shop": "shoes",
            "website": "http://www.schuhe-gössinger.at"
          },
          "geometry": {
            "type": "Point",
            "coordinates": [
              16.5723379,
              48.5685188
            ]
          }
        },
        {
          "type": "Feature",
          "properties": {
            "id": "5843375885",
            "osm_type": "node",
            "lat": 48.6685547,
            "lon": 16.6280886,
            "addr:city": "Poysdorf",
            "addr:housenumber": "11",
            "addr:postcode": "2170",
            "addr:street": "Brunngasse",
            "name": "Eisinger",
            "opening_hours": "Mo-Fr 08:00-12:00,14:00-17:30; Sa 09:00-12:00",
            "phone": "+4325522461",
            "shop": "shoes",
            "website": "http://www.eisingerschuhe.at/"
          },
          "geometry": {
            "type": "Point",
            "coordinates": [
              16.6280886,
              48.6685547
            ]
          }
        },
        {
          "type": "Feature",
          "properties": {
            "id": "6797605114",
            "osm_type": "node",
            "lat": 48.4329611,
            "lon": 17.0284814,
            "brand": "Deichmann",
            "brand:wikidata": "Q664543",
            "brand:wikipedia": "en:Deichmann SE",
            "name": "Deichmann",
            "opening_hours": "Mo-Su 09:00-20:00",
            "shop": "shoes",
            "website": "https://www.deichmann.com/sk-sk/",
            "wheelchair": "yes"
          },
          "geometry": {
            "type": "Point",
            "coordinates": [
              17.0284814,
              48.4329611
            ]
          }
        },
        {
          "type": "Feature",
          "properties": {
            "id": "7167780432",
            "osm_type": "node",
            "lat": 48.4376164,
            "lon": 17.0164926,
            "opening_hours": "Mo-Fr 9:00-18:00;Sa 9:00-12:00",
            "shop": "shoes"
          },
          "geometry": {
            "type": "Point",
            "coordinates": [
              17.0164926,
              48.4376164
            ]
          }
        },
        {
          "type": "Feature",
          "properties": {
            "id": "12760740558",
            "osm_type": "node",
            "lat": 48.4380265,
            "lon": 17.0176888,
            "check_date": "2025-04-13",
            "contact:phone": "+421 905 340 810",
            "name": "Luxury shoes",
            "opening_hours": "Mo-Fr 10:00-17:00; Sa 9:00-12:00",
            "shop": "shoes"
          },
          "geometry": {
            "type": "Point",
            "coordinates": [
              17.0176888,
              48.4380265
            ]
          }
        },
        {
          "type": "Feature",
          "properties": {
            "id": "13057527941",
            "osm_type": "node",
            "lat": 48.4164913,
            "lon": 16.6332689,
            "addr:city": "Groß-Schweinbarth",
            "addr:housenumber": "26",
            "addr:postcode": "2221",
            "addr:street": "Hauptstraße",
            "email": "mail@fussundschuh.at",
            "name": "Fuß & Schuh Scheidl GmbH",
            "opening_hours": "Mo–Mi, Fr: 8–12 und 14–18 Uhr (Werkstätte nur bis 17 Uhr besetzt) Do: 8–15 Uhr",
            "phone": "+43 2289 2395",
            "shoes": "orthopaedic",
            "shop": "shoes",
            "website": "https://fussundschuh.at/"
          },
          "geometry": {
            "type": "Point",
            "coordinates": [
              16.6332689,
              48.4164913
            ]
          }
        }
      ],
      "children": []
    },
    {
      "bbox": {
        "south": 48.68652475,
        "west": 15.253173,
        "north": 49.017078,
        "east": 16.2068765
      },
      "poiCount": 8,
      "leafCount": 8,
      "averagePosition": [
        15.946210975,
        48.8360598
      ],
      "data": [
        {
          "type": "Feature",
          "properties": {
            "id": "9008288109",
            "osm_type": "node",
            "lat": 48.810894,
            "lon": 15.2714593,
            "brand": "Deichmann",
            "brand:wikidata": "Q664543",
            "brand:wikipedia": "en:Deichmann SE",
            "name": "Deichmann",
            "shop": "shoes"
          },
          "geometry": {
            "type": "Point",
            "coordinates": [
              15.2714593,
              48.810894
            ]
          }
        },
        {
          "type": "Feature",
          "properties": {
            "id": "6601194972",
            "osm_type": "node",
            "lat": 48.7572535,
            "lon": 15.9514688,
            "addr:city": "Retz",
            "addr:country": "AT",
            "addr:housenumber": "34",
            "addr:postcode": "2070",
            "addr:street": "Hauptplatz",
            "name": "Mühlberger Shoes & Bags",
            "shop": "shoes"
          },
          "geometry": {
            "type": "Point",
            "coordinates": [
              15.9514688,
              48.7572535
            ]
          }
        },
        {
          "type": "Feature",
          "properties": {
            "id": "866998626",
            "osm_type": "node",
            "lat": 48.8531698,
            "lon": 16.051888,
            "name": "Obuv Svoboda",
            "opening_hours": "Mo-Fr 08:00-17:30; Sa 08:00-12:00",
            "shop": "shoes"
          },
          "geometry": {
            "type": "Point",
            "coordinates": [
              16.051888,
              48.8531698
            ]
          }
        },
        {
          "type": "Feature",
          "properties": {
            "id": "1147672287",
            "osm_type": "node",
            "lat": 48.8554572,
            "lon": 16.0582211,
            "shop": "shoes"
          },
          "geometry": {
            "type": "Point",
            "coordinates": [
              16.0582211,
              48.8554572
            ]
          }
        },
        {
          "type": "Feature",
          "properties": {
            "id": "1212067920",
            "osm_type": "node",
            "lat": 48.8460301,
            "lon": 16.0695353,
            "brand": "Deichmann",
            "brand:wikidata": "Q664543",
            "brand:wikipedia": "en:Deichmann SE",
            "name": "Deichmann",
            "shop": "shoes"
          },
          "geometry": {
            "type": "Point",
            "coordinates": [
              16.0695353,
              48.8460301
            ]
          }
        },
        {
          "type": "Feature",
          "properties": {
            "id": "9169545134",
            "osm_type": "node",
            "lat": 48.8553503,
            "lon": 16.0509693,
            "addr:city": "Znojmo",
            "addr:housenumber": "15",
            "addr:postcode": "66902",
            "addr:street": "Zámečnická",
            "name": "Obuv Svoboda",
            "opening_hours": "Mo-Fr 08:00-17:30, Sa 08:00-12:00",
            "payment:american_express": "yes",
            "payment:diners_club": "yes",
            "payment:jcb": "yes",
            "payment:maestro": "yes",
            "payment:mastercard": "yes",
            "payment:mastercard_electronic": "yes",
            "payment:v_pay": "yes",
            "payment:visa": "yes",
            "payment:visa_electron": "yes",
            "phone": "+420 730898070",
            "shop": "shoes",
            "website": "https://www.obuv-svoboda.cz/prodejny/znojmo-zamecnicka.html",
            "wheelchair": "yes"
          },
          "geometry": {
            "type": "Point",
            "coordinates": [
              16.0509693,
              48.8553503
            ]
          }
        },
        {
          "type": "Feature",
          "properties": {
            "id": "11420969946",
            "osm_type": "node",
            "lat": 48.8540936,
            "lon": 16.0681,
            "brand": "CCC",
            "brand:wikidata": "Q11788344",
            "name": "CCC",
            "shop": "shoes"
          },
          "geometry": {
            "type": "Point",
            "coordinates": [
              16.0681,
              48.8540936
            ]
          }
        },
        {
          "type": "Feature",
          "properties": {
            "id": "12641453526",
            "osm_type": "node",
            "lat": 48.8562299,
            "lon": 16.048046,
            "name": "Baťa",
            "shop": "shoes"
          },
          "geometry": {
            "type": "Point",
            "coordinates": [
              16.048046,
              48.8562299
            ]
          }
        }
      ],
      "children": []
    },
    {
      "bbox": {
        "south": 48.68652475,
        "west": 16.2068765,
        "north": 49.017078,
        "east": 17.16058
      },
      "poiCount": 12,
      "leafCount": 12,
      "averagePosition": [
        16.93045199166667,
        48.87735175
      ],
      "data": [
        {
          "type": "Feature",
          "properties": {
            "id": "5777585459",
            "osm_type": "node",
            "lat": 48.7207994,
            "lon": 16.384194,
            "addr:city": "Laa an der Thaya",
            "addr:country": "AT",
            "addr:housenumber": "15",
            "addr:postcode": "2136",
            "addr:street": "Stadtplatz",
            "name": "Eisinger Schuhhaus & Orthopädieschuhtechnik",
            "shop": "shoes"
          },
          "geometry": {
            "type": "Point",
            "coordinates": [
              16.384194,
              48.7207994
            ]
          }
        },
        {
          "type": "Feature",
          "properties": {
            "id": "3667914634",
            "osm_type": "node",
            "lat": 48.8065752,
            "lon": 16.6386166,
            "brand": "Rieker",
            "brand:wikidata": "Q2152193",
            "name": "Rieker",
            "opening_hours": "Mo-Fr 08:00-17:00; Sa 08:00-12:00",
            "shop": "shoes",
            "source": "survey"
          },
          "geometry": {
            "type": "Point",
            "coordinates": [
              16.6386166,
              48.8065752
            ]
          }
        },
        {
          "type": "Feature",
          "properties": {
            "id": "3750729558",
            "osm_type": "node",
            "lat": 48.7590166,
            "lon": 16.8824167,
            "shop": "shoes"
          },
          "geometry": {
            "type": "Point",
            "coordinates": [
              16.8824167,
              48.7590166
            ]
          }
        },
        {
          "type": "Feature",
          "properties": {
            "id": "10652492298",
            "osm_type": "node",
            "lat": 48.7806633,
            "lon": 16.9018143,
            "branch": "Břeclav",
            "brand": "CCC",
            "brand:wikidata": "Q11788344",
            "check_date": "2024-09-11",
            "level": "0",
            "name": "CCC",
            "opening_hours": "09:00-19:00; PH off",
            "payment:cash": "yes",
            "payment:maestro": "yes",
            "payment:mastercard": "yes",
            "payment:visa": "yes",
            "shop": "shoes",
            "wheelchair": "yes"
          },
          "geometry": {
            "type": "Point",
            "coordinates": [
              16.9018143,
              48.7806633
            ]
          }
        },
        {
          "type": "Feature",
          "properties": {
            "id": "10652492303",
            "osm_type": "node",
            "lat": 48.7816127,
            "lon": 16.9021121,
            "branch": "Břeclav",
            "brand": "Deichmann",
            "brand:wikidata": "Q664543",
            "check_date": "2024-09-11",
            "level": "0",
            "name": "Deichmann",
            "opening_hours": "09:00-20:00; PH off",
            "payment:cash": "yes",
            "payment:maestro": "yes",
            "payment:mastercard": "yes",
            "payment:visa": "yes",
            "shop": "shoes",
            "wheelchair": "yes"
          },
          "geometry": {
            "type": "Point",
            "coordinates": [
              16.9021121,
              48.7816127
            ]
          }
        },
        {
          "type": "Feature",
          "properties": {
            "id": "11613358542",
            "osm_type": "node",
            "lat": 48.8528976,
            "lon": 17.1165387,
            "brand": "CCC",
            "brand:wikidata": "Q11788344",
            "name": "CCC",
            "shop": "shoes"
          },
          "geometry": {
            "type": "Point",
            "coordinates": [
              17.1165387,
              48.8528976
            ]
          }
        },
        {
          "type": "Feature",
          "properties": {
            "id": "11613358545",
            "osm_type": "node",
            "lat": 48.8535496,
            "lon": 17.1185706,
            "brand": "Deichmann",
            "brand:wikidata": "Q664543",
            "name": "Deichmann",
            "shop": "shoes"
          },
          "geometry": {
            "type": "Point",
            "coordinates": [
              17.1185706,
              48.8535496
            ]
          }
        },
        {
          "type": "Feature",
          "properties": {
            "id": "11899189159",
            "osm_type": "node",
            "lat": 48.9394091,
            "lon": 16.7364441,
            "mobile": "+420 778 409 099",
            "opening_hours": "Mo-Fr 09:00-12:00,13:00-16:30; We 09:00-12:00,13:00-16:00",
            "shop": "shoes"
          },
          "geometry": {
            "type": "Point",
            "coordinates": [
              16.7364441,
              48.9394091
            ]
          }
        },
        {
          "type": "Feature",
          "properties": {
            "id": "1929500002",
            "osm_type": "node",
            "lat": 49.0101618,
            "lon": 17.1236106,
            "name": "Obuv Ivana",
            "shop": "shoes"
          },
          "geometry": {
            "type": "Point",
            "coordinates": [
              17.1236106,
              49.0101618
            ]
          }
        },
        {
          "type": "Feature",
          "properties": {
            "id": "1932934686",
            "osm_type": "node",
            "lat": 49.0094254,
            "lon": 17.1260161,
            "name": "Ježek",
            "opening_hours": "Mo-Fr 08:00-17:00; Sa 08:30-10:45",
            "payment:american_express": "yes",
            "payment:diners_club": "yes",
            "payment:jcb": "yes",
            "payment:maestro": "yes",
            "payment:mastercard": "yes",
            "payment:visa": "yes",
            "payment:visa_debit": "yes",
            "payment:visa_electron": "yes",
            "shop": "shoes",
            "website": "http://www.boty-barinova.cz/",
            "wheelchair": "no"
          },
          "geometry": {
            "type": "Point",
            "coordinates": [
              17.1260161,
              49.0094254
            ]
          }
        },
        {
          "type": "Feature",
          "properties": {
            "id": "6796001978",
            "osm_type": "node",
            "lat": 49.004561,
            "lon": 17.110114,
            "brand": "Deichmann",
            "brand:wikidata": "Q664543",
            "brand:wikipedia": "en:Deichmann SE",
            "name": "Deichmann",
            "shop": "shoes"
          },
          "geometry": {
            "type": "Point",
            "coordinates": [
              17.110114,
              49.004561
            ]
          }
        },
        {
          "type": "Feature",
          "properties": {
            "id": "7412535914",
            "osm_type": "node",
            "lat": 49.0095493,
            "lon": 17.1249761,
            "addr:city": "Kyjov",
            "addr:housenumber": "7",
            "addr:postcode": "697 01",
            "addr:street": "Masarykovo náměstí",
            "addr:unit": "26",
            "name": "Dona Bota",
            "phone": "+420 608 074 347",
            "shop": "shoes",
            "website": "https://www.donabota.cz/"
          },
          "geometry": {
            "type": "Point",
            "coordinates": [
              17.1249761,
              49.0095493
            ]
          }
        }
      ],
      "children": []
    }
  ]
}