{
  "bbox": {
    "south": 47.694865,
    "west": 13.345766,
    "north": 48.355971499999995,
    "east": 15.253173
  },
  "poiCount": 124,
  "leafCount": 0,
  "averagePosition": [
    14.198498545967743,
    48.12939569274194
  ],
  "data": [],
  "children": [
    {
      "bbox": {
        "south": 47.694865,
        "west": 13.345766,
        "north": 48.02541825,
        "east": 14.2994695
      },
      "poiCount": 23,
      "leafCount": 23,
      "averagePosition": [
        13.713671186956521,
        47.875784852173915
      ],
      "data": [
        {
          "type": "Feature",
          "properties": {
            "id": "1941632317",
            "osm_type": "node",
            "lat": 47.8551856,
            "lon": 13.3498693,
            "name": "City-Schuh",
            "shop": "shoes"
          },
          "geometry": {
            "type": "Point",
            "coordinates": [
              13.3498693,
              47.8551856
            ]
          }
        },
        {
          "type": "Feature",
          "properties": {
            "id": "4484122332",
            "osm_type": "node",
            "lat": 47.7671359,
            "lon": 13.364494,
            "addr:city": "Sankt Gilgen",
            "addr:country": "AT",
            "addr:housenumber": "10",
            "addr:postcode": "5340",
            "addr:street": "Mozartplatz",
            "contact:phone": "+43 6227 27 039",
            "contact:website": "http://www.schnapsundschuh.at",
            "name": "Schnaps und Schuh",
            "shop": "shoes",
            "wheelchair": "no"
          },
          "geometry": {
            "type": "Point",
            "coordinates": [
              13.364494,
              47.7671359
            ]
          }
        },
        {
          "type": "Feature",
          "properties": {
            "id": "2343404842",
            "osm_type": "node",
            "lat": 47.7034408,
            "lon": 13.6283548,
            "addr:city": "Bad Ischl",
            "addr:country": "AT",
            "addr:housenumber": "53a",
            "addr:postcode": "4820",
            "addr:street": "Grazerstraße",
            "name": "Orthopädie Schuh&Technik HAUSER",
            "shop": "shoes",
            "source": "bad-ischl.ooe.gv.at/Umpostung_von_PLZ_5351_Aigen-Voglhub_auf_PLZ_4820_Bad_Ischl_ab_26_Februar_2018",
            "website": "https://www.hauser-ortho.at/"
          },
          "geometry": {
            "type": "Point",
            "coordinates": [
              13.6283548,
              47.7034408
            ]
          }
        },
        {
          "type": "Feature",
          "properties": {
            "id": "3885827561",
            "osm_type": "node",
            "lat": 47.7126028,
            "lon": 13.6229866,
            "contact:phone": "+43 3622 52310",
            "name": "Schuhmoments",
            "opening_hours": "Mo-Fr 09:00-12:30, 14:30-18:00; Sa 09:00-12:30",
            "operator": "Schuhhaus Laimer",
            "shop": "shoes",
            "website": "https://schuhhauslaimer.at/#kontakt",
            "wheelchair": "no"
          },
          "geometry": {
            "type": "Point",
            "coordinates": [
              13.6229866,
              47.7126028
            ]
          }
        },
        {
          "type": "Feature",
          "properties": {
            "id": "9776343768",
            "osm_type": "node",
            "lat": 47.7102036,
            "lon": 13.6204227,
            "name": "free feet Barfußschuhe",
            "shop": "shoes"
          },
          "geometry": {
            "type": "Point",
            "coordinates": [
              13.6204227,
              47.7102036
            ]
          }
        },
        {
          "type": "Feature",
          "properties": {
            "id": "10302155029",
            "osm_type": "node",
            "lat": 47.7102526,
            "lon": 13.6207188,
            "addr:city": "Bad Ischl",
            "addr:housenumber": "4",
            "addr:postcode": "4820",
            "addr:street": "Esplanade",
            "name": "Quell Shuhe",
            "phone": "+43 6132 22205",
            "shop": "shoes",
            "website": "https://quellschuh.at"
          },
          "geometry": {
            "type": "Point",
            "coordinates": [
              13.6207188,
              47.7102526
            ]
          }
        },
        {
          "type": "Feature",
          "properties": {
            "id": "12297685965",
            "osm_type": "node",
            "lat": 47.7183452,
            "lon": 13.5826958,
            "brand": "Deichmann",
            "brand:wikidata": "Q664543",
            "name": "Deichmann",
            "shop": "shoes"
          },
          "geometry": {
            "type": "Point",
            "coordinates": [
              13.5826958,
              47.7183452
            ]
          }
        },
        {
          "type": "Feature",
          "properties": {
            "id": "12297695934",
            "osm_type": "node",
            "lat": 47.7184975,
            "lon": 13.5835878,
            "name": "Shoe 4 you",
            "shop": "shoes"
          },
          "geometry": {
            "type": "Point",
            "coordinates": [
              13.5835878,
              47.7184975
            ]
          }
        },
        {
          "type": "Feature",
          "properties": {
            "id": "1420723945",
            "osm_type": "node",
            "lat": 48.0086713,
            "lon": 13.654871,
            "addr:city": "Vöcklabruck",
            "addr:country": "AT",
            "addr:housenumber": "14",
            "addr:postcode": "4840",
            "addr:street": "Stadtplatz",
            "name": "Schuhwerk",
            "shop": "shoes",
            "wheelchair": "yes"
          },
          "geometry": {
            "type": "Point",
            "coordinates": [
              13.654871,
              48.0086713
            ]
          }
        },
        {
          "type": "Feature",
          "properties": {
            "id": "1863944125",
            "osm_type": "node",
            "lat": 48.0068492,
            "lon": 13.6541939,
            "addr:city": "Vöcklabruck",
            "addr:country": "AT",
            "addr:housenumber": "17",
            "addr:postcode": "4840",
            "addr:street": "Graben",
            "name": "Mayr Kurt Orthopädie",
            "phone": "+43 7672 26290",
            "shop": "shoes",
            "wheelchair": "yes"
          },
          "geometry": {
            "type": "Point",
            "coordinates": [
              13.6541939,
              48.0068492
            ]
          }
        },
        {
          "type": "Feature",
          "properties": {
            "id": "1877673970",
            "osm_type": "node",
            "lat": 47.9963056,
            "lon": 13.6211561,
            "addr:city": "Timelkam",
            "addr:country": "AT",
            "addr:housenumber": "40",
            "addr:postcode": "4850",
            "addr:street": "Atterseestraße",
            "branch": "Schuhvertrieb",
            "brand": "Deichmann",
            "brand:wikidata": "Q664543",
            "name": "Deichmann",
            "phone": "+43 7672 93796",
            "shop": "shoes",
            "wheelchair": "yes"
          },
          "geometry": {
            "type": "Point",
            "coordinates": [
              13.6211561,
              47.9963056
            ]
          }
        },
        {
          "type": "Feature",
          "properties": {
            "id": "1880521926",
            "osm_type": "node",
            "lat": 48.0026227,
            "lon": 13.6107944,
            "addr:city": "Timelkam",
            "addr:country": "AT",
            "addr:housenumber": "15",
            "addr:postcode": "4850",
            "addr:street": "Linzer Straße",
            "name": "Schuhe Andorfer",
            "phone": "+43-7672-92134",
            "shop": "shoes",
            "wheelchair": "no"
          },
          "geometry": {
            "type": "Point",
            "coordinates": [
              13.6107944,
              48.0026227
            ]
          }
        },
        {
          "type": "Feature",
          "properties": {
            "id": "1889636675",
            "osm_type": "node",
            "lat": 48.0039705,
            "lon": 13.6770647,
            "addr:city": "Vöcklabruck",
            "addr:country": "AT",
            "addr:housenumber": "1",
            "addr:postcode": "4840",
            "addr:street": "Max Planck-Straße",
            "brand": "Deichmann",
            "brand:wikidata": "Q664543",
            "brand:wikipedia": "en:Deichmann SE",
            "name": "Deichmann",
            "phone": "+43767221720",
            "shop": "shoes",
            "wheelchair": "yes"
          },
          "geometry": {
            "type": "Point",
            "coordinates": [
              13.6770647,
              48.0039705
            ]
          }
        },
        {
          "type": "Feature",
          "properties": {
            "id": "2517405084",
            "osm_type": "node",
            "lat": 47.9264013,
            "lon": 13.7900395,
            "name": "Vögele Shoes",
            "shop": "shoes",
            "wheelchair": "yes"
          },
          "geometry": {
            "type": "Point",
            "coordinates": [
              13.7900395,
              47.9264013
            ]
          }
        },
        {
          "type": "Feature",
          "properties": {
            "id": "2625437150",
            "osm_type": "node",
            "lat": 48.0110878,
            "lon": 13.7205515,
            "UID": "ATU67596327",
            "addr:city": "Attnang-Puchheim",
            "addr:country": "AT",
            "addr:housenumber": "8",
            "addr:postcode": "4800",
            "addr:street": "Straße des 21. April",
            "brand": "Schudigu",
            "email": "f.bischof@schudigu.at",
            "entrance": "yes",
            "fax": "+43-7684-6419",
            "mobile": "+43-664-8491273",
            "name": "Schudigu",
            "opening_hours": "Mo-Th 08:30-12:00,14:30-18:00; Fr 08:00-12:00,14:30-18:00; Sa 08:30-12:00",
            "operator": "Schudigu GmbH & CoKG",
            "payment:cash": "yes",
            "payment:maestro": "yes",
            "payment:mastercard": "yes",
            "payment:mastercard_electronic": "yes",
            "payment:visa": "yes",
            "payment:visa_electron": "yes",
            "phone": "+43-7684-6419",
            "repair": "yes",
            "shop": "shoes",
            "step_count": "2",
            "website": "https://www.schudigu.at/",
            "wheelchair": "no"
          },
          "geometry": {
            "type": "Point",
            "coordinates": [
              13.7205515,
              48.0110878
            ]
          }
        },
        {
          "type": "Feature",
          "properties": {
            "id": "2676855198",
            "osm_type": "node",
            "lat": 47.9258133,
            "lon": 13.7889826,
            "brand": "Geox",
            "brand:wikidata": "Q588001",
            "brand:wikipedia": "en:Geox",
            "name": "Geox",
            "shop": "shoes"
          },
          "geometry": {
            "type": "Point",
            "coordinates": [
              13.7889826,
              47.9258133
            ]
          }
        },
        {
          "type": "Feature",
          "properties": {
            "id": "3250387261",
            "osm_type": "node",
            "lat": 47.9003303,
            "lon": 13.7628145,
            "name": "Schuhe Vogl",
            "shop": "shoes"
          },
          "geometry": {
            "type": "Point",
            "coordinates": [
              13.7628145,
              47.9003303
            ]
          }
        },
        {
          "type": "Feature",
          "properties": {
            "id": "3350448508",
            "osm_type": "node",
            "lat": 47.9188275,
            "lon": 13.7994369,
            "addr:city": "Gmunden",
            "addr:country": "AT",
            "addr:housenumber": "7",
            "addr:postcode": "4810",
            "addr:street": "Kirchengasse",
            "name": "Schuhmode Kürmayr",
            "phone": "+43 (0)7612 723 15",
            "shop": "shoes",
            "website": "https://www.kuermayr.at/at/gmunden/"
          },
          "geometry": {
            "type": "Point",
            "coordinates": [
              13.7994369,
              47.9188275
            ]
          }
        },
        {
          "type": "Feature",
          "properties": {
            "id": "3350448510",
            "osm_type": "node",
            "lat": 47.9187393,
            "lon": 13.7997479,
            "addr:city": "Gmunden",
            "addr:country": "AT",
            "addr:housenumber": "6",
            "addr:postcode": "4810",
            "addr:street": "Kirchengasse",
            "brand": "ara",
            "brand:wikidata": "Q623598",
            "name": "ara",
            "shop": "shoes",
            "website": "https://www.ara-shoes.de/"
          },
          "geometry": {
            "type": "Point",
            "coordinates": [
              13.7997479,
              47.9187393
            ]
          }
        },
        {
          "type": "Feature",
          "properties": {
            "id": "4591090462",
            "osm_type": "node",
            "lat": 47.9261711,
            "lon": 13.7904001,
            "brand": "Deichmann",
            "brand:wikidata": "Q664543",
            "brand:wikipedia": "en:Deichmann SE",
            "name": "Deichmann",
            "shop": "shoes",
            "wheelchair": "yes"
          },
          "geometry": {
            "type": "Point",
            "coordinates": [
              13.7904001,
              47.9261711
            ]
          }
        },
        {
          "type": "Feature",
          "properties": {
            "id": "417133738",
            "osm_type": "node",
            "lat": 47.90605,
            "lon": 14.1222383,
            "addr:city": "Kirchdorf an der Krems",
            "addr:country": "AT",
            "addr:housenumber": "4",
            "addr:postcode": "4560",
            "addr:street": "Simon-Redtenbacher-Platz",
            "name": "Hochhauser Schuhe und Hüte",
            "shop": "shoes"
          },
          "geometry": {
            "type": "Point",
            "coordinates": [
              14.1222383,
              47.90605
            ]
          }
        },
        {
          "type": "Feature",
          "properties": {
            "id": "4715489755",
            "osm_type": "node",
            "lat": 47.8900969,
            "lon": 14.1267957,
            "addr:city": "Micheldorf",
            "addr:country": "AT",
            "addr:housenumber": "7",
            "addr:postcode": "4563",
            "addr:street": "Kollingerfeld",
            "brand": "Deichmann",
            "brand:wikidata": "Q664543",
            "brand:wikipedia": "en:Deichmann SE",
            "name": "Deichmann",
            "shop": "shoes"
          },
          "geometry": {
            "type": "Point",
            "coordinates": [
              14.1267957,
              47.8900969
            ]
          }
        },
        {
          "type": "Feature",
          "properties": {
            "id": "5222973178",
            "osm_type": "node",
            "lat": 47.9054508,
            "lon": 14.1222204,
            "addr:city": "Kirchdorf an der Krems",
            "addr:country": "AT",
            "addr:housenumber": "4",
            "addr:postcode": "4560",
            "addr:street": "Hauptplatz",
            "contact:email": "kirchdorf@gea.at",
            "contact:phone": "+43 7582 51045",
            "email": "kirchdorf@gea.at",
            "name": "GEA GehenSitzenLiegen",
            "opening_hours": "Mo-Fr 09:00-12:00, 14:30-18:00; Sa 09:00-12:00",
            "operator": "Werner Kumpl",
            "shop": "shoes",
            "website": "https://gea-waldviertler.at/shop/filiale/gea-kirchdorf"
          },
          "geometry": {
            "type": "Point",
            "coordinates": [
              14.1222204,
              47.9054508
            ]
          }
        }
      ],
      "children": []
    },
    {
      "bbox": {
        "south": 47.694865,
        "west": 14.2994695,
        "north": 48.02541825,
        "east": 15.253173
      },
      "poiCount": 5,
      "leafCount": 5,
      "averagePosition": [
        14.74547752,
        47.943989599999995
      ],
      "data": [
        {
          "type": "Feature",
          "properties": {
            "id": "12753928609",
            "osm_type": "node",
            "lat": 47.8590657,
            "lon": 14.6660709,
            "shop": "shoes"
          },
          "geometry": {
            "type": "Point",
            "coordinates": [
              14.6660709,
              47.8590657
            ]
          }
        },
        {
          "type": "Feature",
          "properties": {
            "id": "2268082577",
            "osm_type": "node",
            "lat": 48.022348,
            "lon": 14.408322,
            "name": "Etlinger Schuhe & Taschen",
            "shop": "shoes"
          },
          "geometry": {
            "type": "Point",
            "coordinates": [
              14.408322,
              48.022348
            ]
          }
        },
        {
          "type": "Feature",
          "properties": {
            "id": "6062057326",
            "osm_type": "node",
            "lat": 47.9607342,
            "lon": 14.775334,
            "addr:city": "Waidhofen an der Ybbs",
            "addr:country": "AT",
            "addr:housenumber": "18",
            "addr:postcode": "3340",
            "addr:street": "Oberer Stadtplatz",
            "contact:phone": "+43 7442 556 23",
            "name": "Watzinger",
            "opening_hours": "Mo-Fr 08:30-12:30, 14:00-18:00; Sa 08:30-12:30",
            "shop": "shoes",
            "website": "https://www.watzinger-schuhe.at/"
          },
          "geometry": {
            "type": "Point",
            "coordinates": [
              14.775334,
              47.9607342
            ]
          }
        },
        {
          "type": "Feature",
          "properties": {
            "id": "6131276457",
            "osm_type": "node",
            "lat": 47.9498667,
            "lon": 14.7902788,
            "addr:city": "Waidhofen an der Ybbs",
            "addr:housenumber": "2",
            "addr:postcode": "3340",
            "addr:street": "Hammerschmiedstraße",
            "brand": "Quick Schuh",
            "brand:wikidata": "Q2123069",
            "brand:wikipedia": "de:Quick Schuh",
            "contact:phone": "+43 7442 526 79",
            "name": "Quick Schuh",
            "opening_hours": "Mo-Fr 08:30-18:00; Sa 08:30-17:00",
            "shop": "shoes",
            "website": "https://www.schuhmode-lang.at/waidhofen-ybbs/"
          },
          "geometry": {
            "type": "Point",
            "coordinates": [
              14.7902788,
              47.9498667
            ]
          }
        },
        {
          "type": "Feature",
          "properties": {
            "id": "1577464845",
            "osm_type": "node",
            "lat": 47.9279334,
            "lon": 15.0873819,
            "name": "Matschi",
            "shop": "shoes",
            "wheelchair": "limited"
          },
          "geometry": {
            "type": "Point",
            "coordinates": [
              15.0873819,
              47.9279334
            ]
          }
        }
      ],
      "children": []
    },
    {
      "bbox": {
        "south": 48.02541825,
        "west": 13.345766,
        "north": 48.355971499999995,
        "east": 14.2994695
      },
      "poiCount": 59,
      "leafCount": 0,
      "averagePosition": [
        14.052865672881357,
        48.23007504745763
      ],
      "data": [],
      "children": [
        {
          "bbox": {
            "south": 48.02541825,
            "west": 13.82261775,
            "north": 48.190694875,
            "east": 14.2994695
          },
          "poiCount": 14,
          "leafCount": 14,
          "averagePosition": [
            14.051897235714284,
            48.13460625
          ],
          "data": [
            {
              "type": "Feature",
              "properties": {
                "id": "697869809",
                "osm_type": "node",
                "lat": 48.1672646,
                "lon": 14.0230018,
                "addr:city": "Wels",
                "addr:country": "AT",
                "addr:housenumber": "7",
                "addr:postcode": "4600",
                "addr:street": "Wallerer Straße",
                "name": "Orthopädie-Schuhtechnik Sperl",
                "opening_hours": "Mo-Th 09:00-12:00,15:00-18:00",
                "shop": "shoes",
                "website": "https://www.sperl.co.at/",
                "wheelchair": "yes"
              },
              "geometry": {
                "type": "Point",
                "coordinates": [
                  14.0230018,
                  48.1672646
                ]
              }
            },
            {
              "type": "Feature",
              "properties": {
                "id": "1104542887",
                "osm_type": "node",
                "lat": 48.1824437,
                "lon": 14.0141159,
                "addr:city": "Wels",
                "addr:country": "AT",
                "addr:housenumber": "91",
                "addr:postcode": "4600",
                "addr:street": "Oberfeldstraße",
                "name": "Lang",
                "shop": "shoes"
              },
              "geometry": {
                "type": "Point",
                "coordinates": [
                  14.0141159,
                  48.1824437
                ]
              }
            },
            {
              "type": "Feature",
              "properties": {
                "id": "1680780618",
                "osm_type": "node",
                "lat": 48.1566543,
                "lon": 14.0241212,
                "name": "Vögele Shoes",
                "shop": "shoes",
                "wheelchair": "yes"
              },
              "geometry": {
                "type": "Point",
                "coordinates": [
                  14.0241212,
                  48.1566543
                ]
              }
            },
            {
              "type": "Feature",
              "properties": {
                "id": "1774361023",
                "osm_type": "node",
                "lat": 48.1601668,
                "lon": 14.0256712,
                "name": "Fantastic Shoes",
                "shop": "shoes"
              },
              "geometry": {
                "type": "Point",
                "coordinates": [
                  14.0256712,
                  48.1601668
                ]
              }
            },
            {
              "type": "Feature",
              "properties": {
                "id": "2292190025",
                "osm_type": "node",
                "lat": 48.1591065,
                "lon": 14.0258928,
                "addr:city": "Wels",
                "addr:country": "AT",
                "addr:housenumber": "39",
                "addr:postcode": "4600",
                "addr:street": "Ringstraße",
                "name": "Kaltenberger",
                "shop": "shoes",
                "wheelchair": "yes"
              },
              "geometry": {
                "type": "Point",
                "coordinates": [
                  14.0258928,
                  48.1591065
                ]
              }
            },
            {
              "type": "Feature",
              "properties": {
                "id": "2292921063",
                "osm_type": "node",
                "lat": 48.1580093,
                "lon": 14.0248601,
                "addr:city": "Wels",
                "addr:country": "AT",
                "addr:housenumber": "23",
                "addr:postcode": "4600",
                "addr:street": "Schmidtgasse",
                "brand": "Humanic",
                "brand:wikidata": "Q1636668",
                "name": "Humanic",
                "shop": "shoes"
              },
              "geometry": {
                "type": "Point",
                "coordinates": [
                  14.0248601,
                  48.1580093
                ]
              }
            },
            {
              "type": "Feature",
              "properties": {
                "id": "3150422595",
                "osm_type": "node",
                "lat": 48.1845983,
                "lon": 14.0268781,
                "brand": "Deichmann",
                "brand:wikidata": "Q664543",
                "brand:wikipedia": "en:Deichmann SE",
                "name": "Deichmann",
                "shop": "shoes"
              },
              "geometry": {
                "type": "Point",
                "coordinates": [
                  14.0268781,
                  48.1845983
                ]
              }
            },
            {
              "type": "Feature",
              "properties": {
                "id": "3821792066",
                "osm_type": "node",
                "lat": 48.0975542,
                "lon": 13.8967305,
                "addr:city": "Edt bei Lambach",
                "addr:country": "AT",
                "addr:housenumber": "30",
                "addr:postcode": "4650",
                "addr:street": "Linzerstraße",
                "name": "Stapa Schuhe",
                "shop": "shoes"
              },
              "geometry": {
                "type": "Point",
                "coordinates": [
                  13.8967305,
                  48.0975542
                ]
              }
            },
            {
              "type": "Feature",
              "properties": {
                "id": "5489528127",
                "osm_type": "node",
                "lat": 48.1564265,
                "lon": 14.0259628,
                "addr:housenumber": "7",
                "addr:street": "Traungasse",
                "craft": "shoemaker",
                "name": "Schuhmacherei Felix Strauss",
                "opening_hours": "Tu-Fr 08:00-12:00,14:00-18:00; Sa[1] 09:00-15:00; PH off",
                "shoes:repair": "yes",
                "shop": "shoes",
                "website": "https://www.massschuhe.at/"
              },
              "geometry": {
                "type": "Point",
                "coordinates": [
                  14.0259628,
                  48.1564265
                ]
              }
            },
            {
              "type": "Feature",
              "properties": {
                "id": "5691711503",
                "osm_type": "node",
                "lat": 48.1577564,
                "lon": 14.0254283,
                "addr:city": "Wels",
                "addr:country": "AT",
                "addr:housenumber": "18",
                "addr:postcode": "4600",
                "addr:street": "Schmidtgasse",
                "brand": "ara",
                "brand:wikidata": "Q623598",
                "name": "ara",
                "opening_hours": "Mo-Fr 09:30-18:00; Sa 09:30-16:00",
                "operator": "ara Shoes AG",
                "shop": "shoes",
                "website": "https://ara-shoes.at",
                "wheelchair": "yes"
              },
              "geometry": {
                "type": "Point",
                "coordinates": [
                  14.0254283,
                  48.1577564
                ]
              }
            },
            {
              "type": "Feature",
              "properties": {
                "id": "373870417",
                "osm_type": "node",
                "lat": 48.0526828,
                "lon": 14.1309507,
                "addr:city": "Kremsmünster",
                "addr:country": "AT",
                "addr:housenumber": "6",
                "addr:postcode": "4550",
                "addr:street": "Franz-Hönig-Straße",
                "contact:phone": "+43 7583 8497",
                "name": "Peterseil Schuhmode",
                "shop": "shoes",
                "website": "https://www.schuhmode-peterseil.at/kopie-von-service"
              },
              "geometry": {
                "type": "Point",
                "coordinates": [
                  14.1309507,
                  48.0526828
                ]
              }
            },
            {
              "type": "Feature",
              "properties": {
                "id": "1393022414",
                "osm_type": "node",
                "lat": 48.0371967,
                "lon": 14.210594,
                "addr:city": "Bad Hall",
                "addr:housenumber": "7",
                "addr:postcode": "4540",
                "addr:street": "Bahnhofplatz",
                "name": "Quick Schuh",
                "shop": "shoes"
              },
              "geometry": {
                "type": "Point",
                "coordinates": [
                  14.210594,
                  48.0371967
                ]
              }
            },
            {
              "type": "Feature",
              "properties": {
                "id": "3770378502",
                "osm_type": "node",
                "lat": 48.0341834,
                "lon": 14.2103764,
                "addr:city": "Bad Hall",
                "addr:country": "AT",
                "addr:housenumber": "25",
                "addr:postcode": "4540",
                "addr:street": "Hauptplatz",
                "name": "Hochhauser Schuhe",
                "shop": "shoes"
              },
              "geometry": {
                "type": "Point",
                "coordinates": [
                  14.2103764,
                  48.0341834
                ]
              }
            },
            {
              "type": "Feature",
              "properties": {
                "id": "7317501262",
                "osm_type": "node",
                "lat": 48.180444,
                "lon": 14.0619775,
                "addr:street": "Ginzkeystraße",
                "name": "Shoe4You",
                "shop": "shoes"
              },
              "geometry": {
                "type": "Point",
                "coordinates": [
                  14.0619775,
                  48.180444
                ]
              }
            }
          ],
          "children": []
        },
        {
          "bbox": {
            "south": 48.190694875,
            "west": 13.345766,
            "north": 48.355971499999995,
            "east": 13.82261775
          },
          "poiCount": 9,
          "leafCount": 9,
          "averagePosition": [
            13.519411655555555,
            48.223758733333334
          ],
          "data": [
            {
              "type": "Feature",
              "properties": {
                "id": "1548057509",
                "osm_type": "node",
                "lat": 48.2095048,
                "lon": 13.487496,
                "brand": "Quick Schuh",
                "brand:wikidata": "Q2123069",
                "brand:wikipedia": "de:Quick Schuh",
                "name": "Quick Schuh",
                "opening_hours": "Mo-Fr 09:00-12:30,14:00-18:00; Sa 09:30-12:30,13:30-16:00",
                "shop": "shoes"
              },
              "geometry": {
                "type": "Point",
                "coordinates": [
                  13.487496,
                  48.2095048
                ]
              }
            },
            {
              "type": "Feature",
              "properties": {
                "id": "3657092861",
                "osm_type": "node",
                "lat": 48.2197983,
                "lon": 13.4965238,
                "brand": "Deichmann",
                "brand:wikidata": "Q664543",
                "brand:wikipedia": "en:Deichmann SE",
                "name": "Deichmann",
                "shop": "shoes"
              },
              "geometry": {
                "type": "Point",
                "coordinates": [
                  13.4965238,
                  48.2197983
                ]
              }
            },
            {
              "type": "Feature",
              "properties": {
                "id": "4127693689",
                "osm_type": "node",
                "lat": 48.2104394,
                "lon": 13.4881055,
                "addr:city": "Ried im Innkreis",
                "addr:housenumber": "22",
                "addr:postcode": "4910",
                "addr:street": "Roßmarkt",
                "name": "Freyer Herrenschuhe",
                "phone": "+43 7752 82420",
                "shop": "shoes"
              },
              "geometry": {
                "type": "Point",
                "coordinates": [
                  13.4881055,
                  48.2104394
                ]
              }
            },
            {
              "type": "Feature",
              "properties": {
                "id": "4136750383",
                "osm_type": "node",
                "lat": 48.2076968,
                "lon": 13.4854842,
                "addr:city": "Ried im Innkreis",
                "addr:housenumber": "27",
                "addr:postcode": "4910",
                "addr:street": "Rainerstraße",
                "name": "Freyer GmbH",
                "opening_hours": "Mo-Fr 08:15-12:00,14:00-18:00; Sa 09:00-12:00",
                "phone": "+43 7752 83293",
                "shop": "shoes"
              },
              "geometry": {
                "type": "Point",
                "coordinates": [
                  13.4854842,
                  48.2076968
                ]
              }
            },
            {
              "type": "Feature",
              "properties": {
                "id": "9288138833",
                "osm_type": "node",
                "lat": 48.2068106,
                "lon": 13.4853367,
                "brand": "Humanic",
                "brand:wikidata": "Q1636668",
                "brand:wikipedia": "en:Humanic",
                "name": "Humanic",
                "opening_hours": "Mo-Fr 09:00-19:00; Sa 09:00-18:00; PH off",
                "shop": "shoes"
              },
              "geometry": {
                "type": "Point",
                "coordinates": [
                  13.4853367,
                  48.2068106
                ]
              }
            },
            {
              "type": "Feature",
              "properties": {
                "id": "9350680991",
                "osm_type": "node",
                "lat": 48.2068445,
                "lon": 13.486052,
                "brand": "Deichmann",
                "brand:wikidata": "Q664543",
                "brand:wikipedia": "en:Deichmann SE",
                "level": "1",
                "name": "Deichmann",
                "opening_hours": "Mo-Fr 09:00-19:00; Sa 09:00-18:00; PH off",
                "shop": "shoes",
                "wheelchair": "yes"
              },
              "geometry": {
                "type": "Point",
                "coordinates": [
                  13.486052,
                  48.2068445
                ]
              }
            },
            {
              "type": "Feature",
              "properties": {
                "id": "10010594467",
                "osm_type": "node",
                "lat": 48.2080226,
                "lon": 13.486845,
                "name": "GEA",
                "opening_hours": "Mo-We,Fr 09:00-18:00; Sa 09:00-12:00; Th 09:00-12:00; Su,PH off",
                "shop": "shoes",
                "wheelchair": "yes"
              },
              "geometry": {
                "type": "Point",
                "coordinates": [
                  13.486845,
                  48.2080226
                ]
              }
            },
            {
              "type": "Feature",
              "properties": {
                "id": "10572425691",
                "osm_type": "node",
                "lat": 48.208432,
                "lon": 13.4871601,
                "name": "Kürmayr",
                "opening_hours": "Mo-Fr 09:00-18:00; Sa 09:00-17:00; Su,PH off",
                "shop": "shoes",
                "wheelchair": "yes"
              },
              "geometry": {
                "type": "Point",
                "coordinates": [
                  13.4871601,
                  48.208432
                ]
              }
            },
            {
              "type": "Feature",
              "properties": {
                "id": "10012193658",
                "osm_type": "node",
                "lat": 48.3362796,
                "lon": 13.7717016,
                "addr:city": "Peuerbach",
                "addr:country": "AT",
                "addr:housenumber": "2a",
                "addr:postcode": "4722",
                "addr:street": "Ernst-Dreefs-Straße",
                "email": "office@schuhmode-lang.at",
                "name": "Schuhmode Lang",
                "opening_hours": "Mo-Fr 09:00-18:00; Sa 09:00-16:00",
                "phone": "+43 7276 29161",
                "shop": "shoes",
                "website": "https://www.schuhmode-lang.at/peuerbach/"
              },
              "geometry": {
                "type": "Point",
                "coordinates": [
                  13.7717016,
                  48.3362796
                ]
              }
            }
          ],
          "children": []
        },
        {
          "bbox": {
            "south": 48.190694875,
            "west": 13.82261775,
            "north": 48.355971499999995,
            "east": 14.2994695
          },
          "poiCount": 36,
          "leafCount": 36,
          "averagePosition": [
            14.186605791666667,
            48.26878088055556
          ],
          "data": [
            {
              "type": "Feature",
              "properties": {
                "id": "1495696855",
                "osm_type": "node",
                "lat": 48.302271,
                "lon": 14.0282,
                "brand": "Deichmann",
                "brand:wikidata": "Q664543",
                "brand:wikipedia": "en:Deichmann SE",
                "name": "Deichmann",
                "opening_hours": "Mo-Fr 08:30-18:30;Sa 08:30-17:00",
                "shop": "shoes",
                "wheelchair": "yes"
              },
              "geometry": {
                "type": "Point",
                "coordinates": [
                  14.0282,
                  48.302271
                ]
              }
            },
            {
              "type": "Feature",
              "properties": {
                "id": "3423478820",
                "osm_type": "node",
                "lat": 48.3113202,
                "lon": 14.0225366,
                "addr:city": "Eferding",
                "addr:housenumber": "11",
                "addr:postcode": "4070",
                "addr:street": "Kirchenplatz",
                "name": "ORTHO Schuhtechnik GmbH",
                "opening_hours": "Mo,Tu,Th 09:00-12:00; We 13:00-19:00; Fr 09:00-12:00, 13:00-17:00",
                "phone": "+436644263792",
                "shop": "shoes",
                "website": "https://www.ortho-schuhtechnik.at/"
              },
              "geometry": {
                "type": "Point",
                "coordinates": [
                  14.0225366,
                  48.3113202
                ]
              }
            },
            {
              "type": "Feature",
              "properties": {
                "id": "3709809588",
                "osm_type": "node",
                "lat": 48.2342802,
                "lon": 13.8299063,
                "name": "Schuhmode Lang",
                "shop": "shoes",
                "website": "https://www.schuhmode-lang.at/"
              },
              "geometry": {
                "type": "Point",
                "coordinates": [
                  13.8299063,
                  48.2342802
                ]
              }
            },
            {
              "type": "Feature",
              "properties": {
                "id": "3715303624",
                "osm_type": "node",
                "lat": 48.2356513,
                "lon": 13.8266391,
                "addr:city": "Grieskirchen",
                "addr:country": "AT",
                "addr:housenumber": "8",
                "addr:postcode": "4710",
                "addr:street": "Oberer Stadtplatz",
                "name": "Stockinger",
                "shop": "shoes",
                "website": "https://www.stockinger.co.at"
              },
              "geometry": {
                "type": "Point",
                "coordinates": [
                  13.8266391,
                  48.2356513
                ]
              }
            },
            {
              "type": "Feature",
              "properties": {
                "id": "4484937836",
                "osm_type": "node",
                "lat": 48.226742,
                "lon": 13.8498056,
                "name": "Shoe4You",
                "shop": "shoes"
              },
              "geometry": {
                "type": "Point",
                "coordinates": [
                  13.8498056,
                  48.226742
                ]
              }
            },
            {
              "type": "Feature",
              "properties": {
                "id": "11579927482",
                "osm_type": "node",
                "lat": 48.3086728,
                "lon": 14.0213469,
                "addr:city": "Eferding",
                "addr:country": "AT",
                "addr:housenumber": "23",
                "addr:postcode": "4070",
                "addr:street": "Schmiedstraße",
                "email": "manuela@schuwidu.at",
                "name": "Schuwi Du",
                "operator": "Manuela Edtmayr",
                "phone": "+43-7272-6630",
                "shop": "shoes",
                "website": "https://www.schuwidu.at/"
              },
              "geometry": {
                "type": "Point",
                "coordinates": [
                  14.0213469,
                  48.3086728
                ]
              }
            },
            {
              "type": "Feature",
              "properties": {
                "id": "11612786626",
                "osm_type": "node",
                "lat": 48.2263685,
                "lon": 13.8498245,
                "brand": "Deichmann",
                "brand:wikidata": "Q664543",
                "name": "Deichmann",
                "shop": "shoes"
              },
              "geometry": {
                "type": "Point",
                "coordinates": [
                  13.8498245,
                  48.2263685
                ]
              }
            },
            {
              "type": "Feature",
              "properties": {
                "id": "985263133",
                "osm_type": "node",
                "lat": 48.2568156,
                "lon": 14.2530337,
                "contact:website": "https://www.shoe4you.com/",
                "entrance": "yes",
                "name": "Shoe4You",
                "opening_hours": "Mo-Fr 09:00-18:00; Sa 09:00-17:00; Su off",
                "shop": "shoes"
              },
              "geometry": {
                "type": "Point",
                "coordinates": [
                  14.2530337,
                  48.2568156
                ]
              }
            },
            {
              "type": "Feature",
              "properties": {
                "id": "1003953349",
                "osm_type": "node",
                "lat": 48.1952261,
                "lon": 14.2473051,
                "contact:phone": "+43 50 30287301",
                "name": "ShoeFashionFactory",
                "opening_hours": "Mo-Fr 09:00-19:00; Sa 09:00-18:00",
                "operator": "Fr. Ingrid Streit",
                "shop": "shoes"
              },
              "geometry": {
                "type": "Point",
                "coordinates": [
                  14.2473051,
                  48.1952261
                ]
              }
            },
            {
              "type": "Feature",
              "properties": {
                "id": "1004370015",
                "osm_type": "node",
                "lat": 48.1960948,
                "lon": 14.2468418,
                "contact:phone": "+43 7229 79172",
                "contact:website": "http://www.voegele-shoes.com",
                "name": "Vögele Shoes",
                "opening_hours": "Mo-Fr 09:00-19:00; Sa 09:00-18:00",
                "operator": "Fr. Waltraud Kishalmi",
                "shop": "shoes"
              },
              "geometry": {
                "type": "Point",
                "coordinates": [
                  14.2468418,
                  48.1960948
                ]
              }
            },
            {
              "type": "Feature",
              "properties": {
                "id": "1277283666",
                "osm_type": "node",
                "lat": 48.1961105,
                "lon": 14.2473293,
                "brand": "Crocs",
                "brand:wikidata": "Q926699",
                "brand:wikipedia": "en:Crocs",
                "contact:phone": "+43 7229 21999",
                "contact:website": "http://www.the-original.at",
                "name": "Crocs",
                "opening_hours": "Mo-Fr 09:00-19:00; Sa 09:00-18:00",
                "operator": "Alina Farcas",
                "shop": "shoes"
              },
              "geometry": {
                "type": "Point",
                "coordinates": [
                  14.2473293,
                  48.1961105
                ]
              }
            },
            {
              "type": "Feature",
              "properties": {
                "id": "1277283699",
                "osm_type": "node",
                "lat": 48.1966173,
                "lon": 14.2477403,
                "brand": "Deichmann",
                "brand:wikidata": "Q664543",
                "brand:wikipedia": "en:Deichmann SE",
                "contact:phone": "+43 7229 81279",
                "contact:website": "http://www.deichmann.at",
                "name": "Deichmann",
                "opening_hours": "Mo-Fr 09:00-19:00; Sa 09:00-18:00",
                "operator": "Fr. Regina Hornbostel",
                "shop": "shoes"
              },
              "geometry": {
                "type": "Point",
                "coordinates": [
                  14.2477403,
                  48.1966173
                ]
              }
            },
            {
              "type": "Feature",
              "properties": {
                "id": "1665980134",
                "osm_type": "node",
                "lat": 48.2669803,
                "lon": 14.2887101,
                "name": "Regina Schuhmoden",
                "opening_hours": "Mo-Fr 09:00-18:00; Sa 09:00-17:00",
                "shop": "shoes",
                "wheelchair": "yes"
              },
              "geometry": {
                "type": "Point",
                "coordinates": [
                  14.2887101,
                  48.2669803
                ]
              }
            },
            {
              "type": "Feature",
              "properties": {
                "id": "2779094045",
                "osm_type": "node",
                "lat": 48.3396652,
                "lon": 14.1684115,
                "addr:city": "Ottensheim",
                "addr:country": "AT",
                "addr:housenumber": "62-68",
                "addr:postcode": "4100",
                "addr:street": "Hostauerstraße",
                "brand": "Deichmann",
                "brand:wikidata": "Q664543",
                "brand:wikipedia": "en:Deichmann SE",
                "contact:phone": "+43 7234 20001",
                "contact:website": "http://www.deichmann.com/",
                "name": "Deichmann",
                "opening_hours": "Mo-Fr 09:00-19:00; Sa 09:00-18:00",
                "shop": "shoes"
              },
              "geometry": {
                "type": "Point",
                "coordinates": [
                  14.1684115,
                  48.3396652
                ]
              }
            },
            {
              "type": "Feature",
              "properties": {
                "id": "3633280123",
                "osm_type": "node",
                "lat": 48.3017155,
                "lon": 14.2899341,
                "name": "Eiler",
                "opening_hours": "Mo-Fr 09:30-18:00; Sa 10:00-17:00",
                "shop": "shoes"
              },
              "geometry": {
                "type": "Point",
                "coordinates": [
                  14.2899341,
                  48.3017155
                ]
              }
            },
            {
              "type": "Feature",
              "properties": {
                "id": "3633280133",
                "osm_type": "node",
                "lat": 48.3038446,
                "lon": 14.2885794,
                "brand": "Humanic",
                "brand:wikidata": "Q1636668",
                "brand:wikipedia": "en:Humanic",
                "check_date:opening_hours": "2025-07-07",
                "name": "Humanic",
                "opening_hours": "Mo-Fr 09:30-18:00; Sa 09:30-17:00",
                "shop": "shoes",
                "wheelchair": "yes"
              },
              "geometry": {
                "type": "Point",
                "coordinates": [
                  14.2885794,
                  48.3038446
                ]
              }
            },
            {
              "type": "Feature",
              "properties": {
                "id": "3633359565",
                "osm_type": "node",
                "lat": 48.298913,
                "lon": 14.2911567,
                "brand": "Deichmann",
                "brand:wikidata": "Q664543",
                "brand:wikipedia": "en:Deichmann SE",
                "check_date:opening_hours": "2023-09-16",
                "name": "Deichmann",
                "opening_hours": "Mo-Fr 09:00-18:30; Sa 09:00-18:00",
                "shop": "shoes",
                "wheelchair": "yes"
              },
              "geometry": {
                "type": "Point",
                "coordinates": [
                  14.2911567,
                  48.298913
                ]
              }
            },
            {
              "type": "Feature",
              "properties": {
                "id": "3633359566",
                "osm_type": "node",
                "lat": 48.2991732,
                "lon": 14.2914865,
                "brand": "Snipes",
                "brand:wikidata": "Q42306166",
                "check_date:opening_hours": "2023-09-16",
                "name": "Snipes",
                "opening_hours": "Mo-Fr 09:00-18:30; Sa 09:00-18:00",
                "shop": "shoes",
                "wheelchair": "no"
              },
              "geometry": {
                "type": "Point",
                "coordinates": [
                  14.2914865,
                  48.2991732
                ]
              }
            },
            {
              "type": "Feature",
              "properties": {
                "id": "3633359568",
                "osm_type": "node",
                "lat": 48.2997439,
                "lon": 14.2910496,
                "brand": "Humanic",
                "brand:wikidata": "Q1636668",
                "name": "Humanic",
                "opening_hours": "Mo-Fr 09:30-18:00; Sa 09:30-17:00",
                "shop": "shoes"
              },
              "geometry": {
                "type": "Point",
                "coordinates": [
                  14.2910496,
                  48.2997439
                ]
              }
            },
            {
              "type": "Feature",
              "properties": {
                "id": "3699101053",
                "osm_type": "node",
                "lat": 48.2989635,
                "lon": 14.2874376,
                "entrance": "yes",
                "name": "Barfussschuhe Ella",
                "opening_hours": "Mo,Tu 13:00-18:00; Th-Sa 10:00-18:00",
                "payment:credit_cards": "yes",
                "payment:debit_cards": "yes",
                "shop": "shoes"
              },
              "geometry": {
                "type": "Point",
                "coordinates": [
                  14.2874376,
                  48.2989635
                ]
              }
            },
            {
              "type": "Feature",
              "properties": {
                "id": "4024063454",
                "osm_type": "node",
                "lat": 48.2421812,
                "lon": 14.2351053,
                "brand": "Humanic",
                "brand:wikidata": "Q1636668",
                "level": "1",
                "name": "Humanic",
                "opening_hours": "Mo-We 09:30-19:00; Th,Fr 09:30-21:00; Sa 09:00-18:00",
                "shop": "shoes"
              },
              "geometry": {
                "type": "Point",
                "coordinates": [
                  14.2351053,
                  48.2421812
                ]
              }
            },
            {
              "type": "Feature",
              "properties": {
                "id": "4024063463",
                "osm_type": "node",
                "lat": 48.2431247,
                "lon": 14.2350374,
                "brand": "Deichmann",
                "brand:wikidata": "Q664543",
                "level": "0",
                "name": "Deichmann",
                "phone": "+437229624560",
                "shop": "shoes",
                "website": "https://www.deichmann.com/"
              },
              "geometry": {
                "type": "Point",
                "coordinates": [
                  14.2350374,
                  48.2431247
                ]
              }
            },
            {
              "type": "Feature",
              "properties": {
                "id": "4368517969",
                "osm_type": "node",
                "lat": 48.2346409,
                "lon": 14.2366549,
                "name": "DEICHMANN",
                "opening_hours": "Mo-Fr 09:00-18:30; Sa 09:00-17:00",
                "payment:maestro": "yes",
                "payment:mastercard": "yes",
                "payment:visa": "yes",
                "shop": "shoes"
              },
              "geometry": {
                "type": "Point",
                "coordinates": [
                  14.2366549,
                  48.2346409
                ]
              }
            },
            {
              "type": "Feature",
              "properties": {
                "id": "4607476761",
                "osm_type": "node",
                "lat": 48.2437441,
                "lon": 14.2370157,
                "brand": "Tamaris",
                "brand:wikidata": "Q61994827",
                "level": "0",
                "name": "Tamaris",
                "shop": "shoes"
              },
              "geometry": {
                "type": "Point",
                "coordinates": [
                  14.2370157,
                  48.2437441
                ]
              }
            },
            {
              "type": "Feature",
              "properties": {
                "id": "4607476767",
                "osm_type": "node",
                "lat": 48.244202,
                "lon": 14.2375482,
                "brand": "Snipes",
                "brand:wikidata": "Q42306166",
                "level": "0",
                "name": "Snipes",
                "shop": "shoes"
              },
              "geometry": {
                "type": "Point",
                "coordinates": [
                  14.2375482,
                  48.244202
                ]
              }
            },
            {
              "type": "Feature",
              "properties": {
                "id": "4609250509",
                "osm_type": "node",
                "lat": 48.2434924,
                "lon": 14.2358543,
                "brand": "Foot Locker",
                "brand:wikidata": "Q63335",
                "brand:wikipedia": "en:Foot Locker",
                "level": "1",
                "name": "Foot Locker",
                "shop": "shoes"
              },
              "geometry": {
                "type": "Point",
                "coordinates": [
                  14.2358543,
                  48.2434924
                ]
              }
            },
            {
              "type": "Feature",
              "properties": {
                "id": "4609253555",
                "osm_type": "node",
                "lat": 48.2438367,
                "lon": 14.2361957,
                "brand": "Ecco",
                "brand:wikidata": "Q1280255",
                "level": "1",
                "name": "Ecco",
                "shop": "shoes"
              },
              "geometry": {
                "type": "Point",
                "coordinates": [
                  14.2361957,
                  48.2438367
                ]
              }
            },
            {
              "type": "Feature",
              "properties": {
                "id": "5539744574",
                "osm_type": "node",
                "lat": 48.299294,
                "lon": 14.29111,
                "brand": "Geox",
                "brand:wikidata": "Q588001",
                "brand:wikipedia": "en:Geox",
                "name": "Geox",
                "opening_hours": "Mo-Fr 09:30-18:00; Sa 09:30-17:00",
                "shop": "shoes"
              },
              "geometry": {
                "type": "Point",
                "coordinates": [
                  14.29111,
                  48.299294
                ]
              }
            },
            {
              "type": "Feature",
              "properties": {
                "id": "7154744787",
                "osm_type": "node",
                "lat": 48.3046448,
                "lon": 14.2889348,
                "check_date:opening_hours": "2022-09-26",
                "contact:email": "linz@gea.at",
                "contact:phone": "+43 732 776606",
                "contact:website": "http://www.gea.at",
                "name": "GEA",
                "opening_hours": "Mo-Fr 10:00-18:00; Sa 10:00-17:00; PH off",
                "shop": "shoes",
                "wheelchair": "limited"
              },
              "geometry": {
                "type": "Point",
                "coordinates": [
                  14.2889348,
                  48.3046448
                ]
              }
            },
            {
              "type": "Feature",
              "properties": {
                "id": "7481452603",
                "osm_type": "node",
                "lat": 48.3026241,
                "lon": 14.0315749,
                "name": "palazzo shoes",
                "opening_hours": "Mo-Fr 08:30-18:30; Sa 08:00-17:00",
                "shop": "shoes",
                "wheelchair": "yes"
              },
              "geometry": {
                "type": "Point",
                "coordinates": [
                  14.0315749,
                  48.3026241
                ]
              }
            },
            {
              "type": "Feature",
              "properties": {
                "id": "9276139508",
                "osm_type": "node",
                "lat": 48.2785208,
                "lon": 14.2491294,
                "name": "Schuhe Gumpelmeir",
                "shop": "shoes"
              },
              "geometry": {
                "type": "Point",
                "coordinates": [
                  14.2491294,
                  48.2785208
                ]
              }
            },
            {
              "type": "Feature",
              "properties": {
                "id": "9886723231",
                "osm_type": "node",
                "lat": 48.334882,
                "lon": 14.1727399,
                "name": "Kern",
                "shop": "shoes"
              },
              "geometry": {
                "type": "Point",
                "coordinates": [
                  14.1727399,
                  48.334882
                ]
              }
            },
            {
              "type": "Feature",
              "properties": {
                "id": "10029815765",
                "osm_type": "node",
                "lat": 48.3026925,
                "lon": 14.2891882,
                "name": "Schuhmode Kürmayr",
                "opening_hours": "Mo-Fr 09:30-18:30; Sa 09:30-17:30",
                "shop": "shoes",
                "wheelchair": "yes"
              },
              "geometry": {
                "type": "Point",
                "coordinates": [
                  14.2891882,
                  48.3026925
                ]
              }
            },
            {
              "type": "Feature",
              "properties": {
                "id": "10253433009",
                "osm_type": "node",
                "lat": 48.2563378,
                "lon": 14.2868373,
                "brand": "Deichmann",
                "brand:wikidata": "Q664543",
                "name": "Deichmann",
                "opening_hours": "Mo-Fr 08:30-19:00; Sa 08:30-18:00",
                "shop": "shoes"
              },
              "geometry": {
                "type": "Point",
                "coordinates": [
                  14.2868373,
                  48.2563378
                ]
              }
            },
            {
              "type": "Feature",
              "properties": {
                "id": "10654557344",
                "osm_type": "node",
                "lat": 48.3027201,
                "lon": 14.2991223,
                "check_date:opening_hours": "2024-07-23",
                "contact:phone": "+43 732 779 003",
                "name": "Stockmayr",
                "opening_hours": "Mo-Fr 09:00-18:00; Sa 09:00-12:30",
                "shop": "shoes"
              },
              "geometry": {
                "type": "Point",
                "coordinates": [
                  14.2991223,
                  48.3027201
                ]
              }
            },
            {
              "type": "Feature",
              "properties": {
                "id": "12015465061",
                "osm_type": "node",
                "lat": 48.3040041,
                "lon": 14.2884855,
                "brand": "ara",
                "brand:wikidata": "Q623598",
                "name": "ara",
                "shop": "shoes"
              },
              "geometry": {
                "type": "Point",
                "coordinates": [
                  14.2884855,
                  48.3040041
                ]
              }
            }
          ],
          "children": []
        }
      ]
    },
    {
      "bbox": {
        "south": 48.02541825,
        "west": 14.2994695,
        "north": 48.355971499999995,
        "east": 15.253173
      },
      "poiCount": 37,
      "leafCount": 37,
      "averagePosition": [
        14.65818702972973,
        48.15155779729729
      ],
      "data": [
        {
          "type": "Feature",
          "properties": {
            "id": "648235283",
            "osm_type": "node",
            "lat": 48.2762191,
            "lon": 14.3039819,
            "name": "Cobbler",
            "shop": "shoes"
          },
          "geometry": {
            "type": "Point",
            "coordinates": [
              14.3039819,
              48.2762191
            ]
          }
        },
        {
          "type": "Feature",
          "properties": {
            "id": "1874664455",
            "osm_type": "node",
            "lat": 48.1754307,
            "lon": 14.5248342,
            "name": "Kürmayr",
            "shop": "shoes"
          },
          "geometry": {
            "type": "Point",
            "coordinates": [
              14.5248342,
              48.1754307
            ]
          }
        },
        {
          "type": "Feature",
          "properties": {
            "id": "2529252087",
            "osm_type": "node",
            "lat": 48.2203433,
            "lon": 14.4064821,
            "brand": "Deichmann",
            "brand:wikidata": "Q664543",
            "brand:wikipedia": "en:Deichmann SE",
            "check_date:opening_hours": "2024-06-16",
            "level": "0",
            "name": "Deichmann",
            "opening_hours": "Mo-Fr 09:00-18:30; Sa 09:00-18:00; Su,PH off",
            "second_hand": "no",
            "shop": "shoes",
            "wheelchair": "yes"
          },
          "geometry": {
            "type": "Point",
            "coordinates": [
              14.4064821,
              48.2203433
            ]
          }
        },
        {
          "type": "Feature",
          "properties": {
            "id": "2529264508",
            "osm_type": "node",
            "lat": 48.2202641,
            "lon": 14.4082536,
            "brand": "shoe4you",
            "brand:wikidata": "Q108006445",
            "check_date:opening_hours": "2024-06-16",
            "name": "shoe4you",
            "opening_hours": "Mo-Fr 09:00-18:30; Sa 09:00-17:00",
            "shop": "shoes"
          },
          "geometry": {
            "type": "Point",
            "coordinates": [
              14.4082536,
              48.2202641
            ]
          }
        },
        {
          "type": "Feature",
          "properties": {
            "id": "2701105127",
            "osm_type": "node",
            "lat": 48.2145558,
            "lon": 14.4764618,
            "name": "Peterseil",
            "shop": "shoes"
          },
          "geometry": {
            "type": "Point",
            "coordinates": [
              14.4764618,
              48.2145558
            ]
          }
        },
        {
          "type": "Feature",
          "properties": {
            "id": "2706808005",
            "osm_type": "node",
            "lat": 48.2161872,
            "lon": 14.4645965,
            "addr:city": "Enns",
            "addr:housenumber": "9",
            "addr:postcode": "4470",
            "addr:street": "Am Römerfeld",
            "brand": "Deichmann",
            "brand:wikidata": "Q664543",
            "brand:wikipedia": "en:Deichmann SE",
            "name": "Deichmann",
            "opening_hours": "Mo-Fr 08:30-18:30; Sa 08:30-17:00",
            "shop": "shoes"
          },
          "geometry": {
            "type": "Point",
            "coordinates": [
              14.4645965,
              48.2161872
            ]
          }
        },
        {
          "type": "Feature",
          "properties": {
            "id": "3424677793",
            "osm_type": "node",
            "lat": 48.2209717,
            "lon": 14.4103846,
            "check_date:opening_hours": "2024-06-16",
            "name": "Peter Wagner",
            "opening_hours": "Mo-Fr 08:00-18:00",
            "shop": "shoes"
          },
          "geometry": {
            "type": "Point",
            "coordinates": [
              14.4103846,
              48.2209717
            ]
          }
        },
        {
          "type": "Feature",
          "properties": {
            "id": "5144979496",
            "osm_type": "node",
            "lat": 48.2399405,
            "lon": 14.5269312,
            "name": "shoe4you",
            "shop": "shoes",
            "wheelchair": "yes"
          },
          "geometry": {
            "type": "Point",
            "coordinates": [
              14.5269312,
              48.2399405
            ]
          }
        },
        {
          "type": "Feature",
          "properties": {
            "id": "6898389766",
            "osm_type": "node",
            "lat": 48.0477578,
            "lon": 14.4226807,
            "addr:city": "Steyr",
            "addr:country": "AT",
            "addr:housenumber": "2",
            "addr:postcode": "4400",
            "addr:street": "Anton-Plochberger-Straße",
            "brand": "Deichmann",
            "brand:wikidata": "Q664543",
            "brand:wikipedia": "en:Deichmann SE",
            "contact:phone": "+43 7252 518 58",
            "name": "Deichmann",
            "shop": "shoes",
            "website": "https://stores.deichmann.com/at-de/oberoesterreich/steyr/anton-plochberger-strasse-2.html"
          },
          "geometry": {
            "type": "Point",
            "coordinates": [
              14.4226807,
              48.0477578
            ]
          }
        },
        {
          "type": "Feature",
          "properties": {
            "id": "6898397413",
            "osm_type": "node",
            "lat": 48.0543753,
            "lon": 14.4229149,
            "addr:city": "Steyr",
            "addr:country": "AT",
            "addr:housenumber": "23a",
            "addr:postcode": "4400",
            "addr:street": "Resthofstraße",
            "brand": "Deichmann",
            "brand:wikidata": "Q664543",
            "brand:wikipedia": "en:Deichmann SE",
            "name": "Deichmann",
            "opening_hours": "Mo-Fr 08:30-18:30; Sa 08:30-18:00",
            "shop": "shoes"
          },
          "geometry": {
            "type": "Point",
            "coordinates": [
              14.4229149,
              48.0543753
            ]
          }
        },
        {
          "type": "Feature",
          "properties": {
            "id": "7187146435",
            "osm_type": "node",
            "lat": 48.0295202,
            "lon": 14.4094981,
            "addr:city": "Steyr",
            "addr:housenumber": "46",
            "addr:postcode": "4400",
            "addr:street": "Leopold-Werndl-Straße",
            "check_date:opening_hours": "2023-05-19",
            "name": "GEA",
            "opening_hours": "Mo-Fr 09:00-12:30,14:00-18:00; Sa 09:00-12:30",
            "operator": "GEA Mama eG",
            "payment:cash": "yes",
            "payment:mastercard": "yes",
            "payment:visa": "yes",
            "shop": "shoes",
            "website": "https://gea-waldviertler.at/shop/filiale/gea-steyr"
          },
          "geometry": {
            "type": "Point",
            "coordinates": [
              14.4094981,
              48.0295202
            ]
          }
        },
        {
          "type": "Feature",
          "properties": {
            "id": "8094306945",
            "osm_type": "node",
            "lat": 48.0393305,
            "lon": 14.4190733,
            "name": "Etlinger",
            "opening_hours": "Mo-Fr 09:00-18:00; Sa 09:00-17:00",
            "shop": "shoes"
          },
          "geometry": {
            "type": "Point",
            "coordinates": [
              14.4190733,
              48.0393305
            ]
          }
        },
        {
          "type": "Feature",
          "properties": {
            "id": "9447544815",
            "osm_type": "node",
            "lat": 48.2399655,
            "lon": 14.5272785,
            "name": "my shoes",
            "shop": "shoes"
          },
          "geometry": {
            "type": "Point",
            "coordinates": [
              14.5272785,
              48.2399655
            ]
          }
        },
        {
          "type": "Feature",
          "properties": {
            "id": "9450015590",
            "osm_type": "node",
            "lat": 48.2400526,
            "lon": 14.5282368,
            "name": "Brandner - Schuhfachgeschäft",
            "shop": "shoes"
          },
          "geometry": {
            "type": "Point",
            "coordinates": [
              14.5282368,
              48.2400526
            ]
          }
        },
        {
          "type": "Feature",
          "properties": {
            "id": "9660589656",
            "osm_type": "node",
            "lat": 48.040765,
            "lon": 14.4201463,
            "name": "Kürmayr",
            "opening_hours": "Mo-Fr 09:00-18:00; Sa 09:00-17:00",
            "shop": "shoes",
            "wheelchair": "no"
          },
          "geometry": {
            "type": "Point",
            "coordinates": [
              14.4201463,
              48.040765
            ]
          }
        },
        {
          "type": "Feature",
          "properties": {
            "id": "9660690333",
            "osm_type": "node",
            "lat": 48.0393068,
            "lon": 14.4197529,
            "name": "Nanu",
            "opening_hours": "Mo-Fr 09:00-13:00,14:00-18:00; Sa 09:00-17:00",
            "shop": "shoes",
            "wheelchair": "no"
          },
          "geometry": {
            "type": "Point",
            "coordinates": [
              14.4197529,
              48.0393068
            ]
          }
        },
        {
          "type": "Feature",
          "properties": {
            "id": "12238817148",
            "osm_type": "node",
            "lat": 48.0439137,
            "lon": 14.4176385,
            "addr:housenumber": "22",
            "addr:street": "Sierninger Straße",
            "check_date": "2024-10-09",
            "name": "Orthopädie-Schuhtechnik Haidenthaler",
            "opening_hours": "Mo-Th 08:00-12:00,13:00-17:00; Fr 08:00-12:00; Sa-Su off",
            "shop": "shoes"
          },
          "geometry": {
            "type": "Point",
            "coordinates": [
              14.4176385,
              48.0439137
            ]
          }
        },
        {
          "type": "Feature",
          "properties": {
            "id": "1479192946",
            "osm_type": "node",
            "lat": 48.0371893,
            "lon": 14.7771738,
            "addr:city": "Kematen an der Ybbs",
            "addr:housenumber": "6",
            "addr:postcode": "3331",
            "addr:street": "35.a Straße",
            "brand": "Deichmann",
            "brand:wikidata": "Q664543",
            "brand:wikipedia": "en:Deichmann SE",
            "contact:phone": "+43 7448 20300",
            "name": "Deichmann",
            "old_name": "Vögele",
            "opening_hours": "Mo-Fr 09:00-18:30; Sa 09:00-18:00",
            "shop": "shoes"
          },
          "geometry": {
            "type": "Point",
            "coordinates": [
              14.7771738,
              48.0371893
            ]
          }
        },
        {
          "type": "Feature",
          "properties": {
            "id": "2331132461",
            "osm_type": "node",
            "lat": 48.2388902,
            "lon": 14.6277896,
            "brand": "Reno",
            "brand:wikidata": "Q2144204",
            "brand:wikipedia": "de:Reno (Schuhhandel)",
            "contact:phone": "+43 7262 53686",
            "name": "Reno",
            "opening_hours": "Mo-Fr 08:30-18:00; Sa 08:30-17:00",
            "shop": "shoes",
            "wheelchair": "yes"
          },
          "geometry": {
            "type": "Point",
            "coordinates": [
              14.6277896,
              48.2388902
            ]
          }
        },
        {
          "type": "Feature",
          "properties": {
            "id": "2331224745",
            "osm_type": "node",
            "lat": 48.2500648,
            "lon": 14.6329099,
            "check_date": "2025-04-14",
            "contact:mail": "schuhmode.alfred@gmail.com",
            "contact:phone": "+43 7262 53053",
            "contact:website": "http://www.schuhmode-alfred.at/",
            "name": "Schuhmode Alfred",
            "opening_hours": "Mo-Fr 08:30-18:00; Sa 08:30-12:30",
            "shop": "shoes",
            "wheelchair": "yes"
          },
          "geometry": {
            "type": "Point",
            "coordinates": [
              14.6329099,
              48.2500648
            ]
          }
        },
        {
          "type": "Feature",
          "properties": {
            "id": "4921775713",
            "osm_type": "node",
            "lat": 48.1242414,
            "lon": 14.8759562,
            "addr:city": "Amstetten",
            "addr:country": "AT",
            "addr:postcode": "3300",
            "check_date:opening_hours": "2025-06-14",
            "contact:email": "office@gerlinger.co.at",
            "contact:fax": "+43 7472 63955-9",
            "contact:phone": "+43 7472 63955-0",
            "contact:website": "https://www.gerlinger.co.at/",
            "craft": "shoemaker",
            "name": "Gerlinger Schuhe & Orthopädie",
            "opening_hours": "Mo-Fr 08:30-12:30,14:00-18:00; Sa 09:00-12:00,14:00-16:00; Su,PH off",
            "operator": "Gerlinger GmbH",
            "shoes": "orthopaedic",
            "shop": "shoes",
            "toilets:wheelchair": "no",
            "wheelchair": "yes",
            "wheelchair:description": "Ein sehr steiler Aufstieg zum Lift nach oben zum Gerlinger, aber prinzipiell barrierefrei."
          },
          "geometry": {
            "type": "Point",
            "coordinates": [
              14.8759562,
              48.1242414
            ]
          }
        },
        {
          "type": "Feature",
          "properties": {
            "id": "4921781719",
            "osm_type": "node",
            "lat": 48.1228628,
            "lon": 14.8708606,
            "contact:phone": "+43 7472 62580",
            "craft": "shoemaker",
            "name": "Schuhhaus Hanser",
            "opening_hours": "Mo-Fr 09:00-12:00, 14:00-18:00; Sa 09:00-12:00,14:00-16:00; Su,PH off",
            "shoes": "orthopaedic",
            "shop": "shoes"
          },
          "geometry": {
            "type": "Point",
            "coordinates": [
              14.8708606,
              48.1228628
            ]
          }
        },
        {
          "type": "Feature",
          "properties": {
            "id": "5924094855",
            "osm_type": "node",
            "lat": 48.1211798,
            "lon": 14.8695197,
            "addr:city": "Amstetten",
            "addr:country": "AT",
            "addr:housenumber": "1",
            "addr:postcode": "3300",
            "addr:street": "Waidhofner Straße",
            "brand": "Humanic",
            "brand:wikidata": "Q1636668",
            "contact:phone": "+43 800 8010 0100",
            "level": "1",
            "name": "Humanic",
            "shop": "shoes",
            "wheelchair": "yes"
          },
          "geometry": {
            "type": "Point",
            "coordinates": [
              14.8695197,
              48.1211798
            ]
          }
        },
        {
          "type": "Feature",
          "properties": {
            "id": "6263400307",
            "osm_type": "node",
            "lat": 48.2297263,
            "lon": 14.8477797,
            "addr:city": "Grein",
            "addr:housenumber": "2",
            "addr:postcode": "4360",
            "addr:street": "Breitenangerstraße",
            "name": "Hofer Schuhe",
            "shop": "shoes"
          },
          "geometry": {
            "type": "Point",
            "coordinates": [
              14.8477797,
              48.2297263
            ]
          }
        },
        {
          "type": "Feature",
          "properties": {
            "id": "7942335314",
            "osm_type": "node",
            "lat": 48.2504151,
            "lon": 14.6322127,
            "check_date": "2025-04-14",
            "contact:mail": "schuhmode@kuermayr.at",
            "contact:phone": "+43 7262 52506",
            "contact:website": "https://www.kuermayr.at/at/perg/",
            "name": "Schuhmode Kürmayr",
            "opening_hours": "Mo-Fr 08:00-18:00; Sa 08:30-12:30",
            "shop": "shoes",
            "wheelchair": "yes"
          },
          "geometry": {
            "type": "Point",
            "coordinates": [
              14.6322127,
              48.2504151
            ]
          }
        },
        {
          "type": "Feature",
          "properties": {
            "id": "8866135407",
            "osm_type": "node",
            "lat": 48.1240782,
            "lon": 14.8709782,
            "addr:city": "Amstetten",
            "addr:country": "AT",
            "addr:postcode": "3300",
            "contact:phone": "+43 7472 98206",
            "name": "GEA Amstetten",
            "opening_hours": "Mo-Fr 09:00-13:00, 14:00-18:00; Sa 09:00-12:00",
            "shop": "shoes",
            "website": "https://gea-waldviertler.at/"
          },
          "geometry": {
            "type": "Point",
            "coordinates": [
              14.8709782,
              48.1240782
            ]
          }
        },
        {
          "type": "Feature",
          "properties": {
            "id": "8916797080",
            "osm_type": "node",
            "lat": 48.0432291,
            "lon": 14.6226253,
            "addr:city": "St. Peter in der Au",
            "addr:country": "AT",
            "addr:postcode": "3352",
            "contact:phone": "+43 664 730 60 464",
            "name": "Schuhaus Renner",
            "opening_hours": "Mo-Fr 08:00-12:00, 14:30-18:00; Sa 08:00-12:00",
            "shop": "shoes"
          },
          "geometry": {
            "type": "Point",
            "coordinates": [
              14.6226253,
              48.0432291
            ]
          }
        },
        {
          "type": "Feature",
          "properties": {
            "id": "9836518920",
            "osm_type": "node",
            "lat": 48.1116376,
            "lon": 14.5644778,
            "addr:city": "Haag",
            "addr:country": "AT",
            "addr:postcode": "3350",
            "name": "Kürmayr Schuh Gmbh",
            "shop": "shoes"
          },
          "geometry": {
            "type": "Point",
            "coordinates": [
              14.5644778,
              48.1116376
            ]
          }
        },
        {
          "type": "Feature",
          "properties": {
            "id": "10310813233",
            "osm_type": "node",
            "lat": 48.121318,
            "lon": 14.8687558,
            "brand": "Deichmann",
            "brand:wikidata": "Q664543",
            "contact:phone": "+43 7472 28311",
            "level": "2",
            "name": "Deichmann",
            "shop": "shoes"
          },
          "geometry": {
            "type": "Point",
            "coordinates": [
              14.8687558,
              48.121318
            ]
          }
        },
        {
          "type": "Feature",
          "properties": {
            "id": "11999085455",
            "osm_type": "node",
            "lat": 48.0422003,
            "lon": 14.6097247,
            "contact:phone": "+43 7477 43684",
            "name": "Schönegger",
            "shop": "shoes",
            "website": "https://www.bessergehen.at/kontakt/"
          },
          "geometry": {
            "type": "Point",
            "coordinates": [
              14.6097247,
              48.0422003
            ]
          }
        },
        {
          "type": "Feature",
          "properties": {
            "id": "12756988162",
            "osm_type": "node",
            "lat": 48.354524,
            "lon": 14.5326118,
            "name": "Schuhhaus Böhm",
            "opening_hours": "Mo-Fr 8:00-12:00, 14:30-18:00; Sa 8:00-12:00",
            "shop": "shoes",
            "wheelchair": "yes"
          },
          "geometry": {
            "type": "Point",
            "coordinates": [
              14.5326118,
              48.354524
            ]
          }
        },
        {
          "type": "Feature",
          "properties": {
            "id": "13063083213",
            "osm_type": "node",
            "lat": 48.1287809,
            "lon": 14.989403,
            "name": "Schuhhaus Walter",
            "opening_hours": "Mo-Fr 08:00-12:00,14:30-18:00; Th,Sa 08:00-12:00",
            "organic": "no",
            "second_hand": "only",
            "shoes:repair": "yes",
            "shop": "shoes",
            "wheelchair": "limited"
          },
          "geometry": {
            "type": "Point",
            "coordinates": [
              14.989403,
              48.1287809
            ]
          }
        },
        {
          "type": "Feature",
          "properties": {
            "id": "1743514824",
            "osm_type": "node",
            "lat": 48.1725548,
            "lon": 15.0852194,
            "brand": "Deichmann",
            "brand:wikidata": "Q664543",
            "brand:wikipedia": "en:Deichmann SE",
            "name": "Deichmann",
            "shop": "shoes"
          },
          "geometry": {
            "type": "Point",
            "coordinates": [
              15.0852194,
              48.1725548
            ]
          }
        },
        {
          "type": "Feature",
          "properties": {
            "id": "3792648417",
            "osm_type": "node",
            "lat": 48.1775765,
            "lon": 15.0813608,
            "addr:city": "Ybbs an der Donau",
            "addr:country": "AT",
            "addr:housenumber": "10",
            "addr:postcode": "3370",
            "addr:street": "Stauwerkstraße",
            "contact:phone": "+43 7412 52716",
            "email": "schuhe@geyrecker.com",
            "name": "Schuhe Orthopädie Geyrecker",
            "opening_hours": "Mo-Fr 08:00-12:00,14:00-18:00; Sa 08:00-12:00",
            "shop": "shoes",
            "website": "https://www.geyrecker.com/",
            "wheelchair": "yes"
          },
          "geometry": {
            "type": "Point",
            "coordinates": [
              15.0813608,
              48.1775765
            ]
          }
        },
        {
          "type": "Feature",
          "properties": {
            "id": "4076439764",
            "osm_type": "node",
            "lat": 48.2114837,
            "lon": 15.2062441,
            "addr:city": "Pöchlarn",
            "addr:country": "AT",
            "addr:housenumber": "22",
            "addr:postcode": "3380",
            "addr:street": "Regensburger Straße",
            "name": "Gerlinde's Schuhe",
            "operator": "Gerlinde Miehl",
            "phone": "+43 676 525 93 54",
            "shop": "shoes",
            "website": "https://m.facebook.com/Gerlindes-Schuhe-182712011936242/"
          },
          "geometry": {
            "type": "Point",
            "coordinates": [
              15.2062441,
              48.2114837
            ]
          }
        },
        {
          "type": "Feature",
          "properties": {
            "id": "6939899905",
            "osm_type": "node",
            "lat": 48.1327847,
            "lon": 15.1397282,
            "brand": "Deichmann",
            "brand:wikidata": "Q664543",
            "brand:wikipedia": "en:Deichmann SE",
            "level": "0",
            "name": "Deichmann",
            "payment:Wieselburger_10er": "yes",
            "shop": "shoes"
          },
          "geometry": {
            "type": "Point",
            "coordinates": [
              15.1397282,
              48.1327847
            ]
          }
        },
        {
          "type": "Feature",
          "properties": {
            "id": "9836635400",
            "osm_type": "node",
            "lat": 48.0540012,
            "lon": 15.1384429,
            "name": "LANG - Schuhe",
            "shop": "shoes"
          },
          "geometry": {
            "type": "Point",
            "coordinates": [
              15.1384429,
              48.0540012
            ]
          }
        }
      ],
      "children": []
    }
  ]
}