{
  "bbox": {
    "south": 47.694865,
    "west": 9.530952,
    "north": 48.355971499999995,
    "east": 11.438358999999998
  },
  "poiCount": 180,
  "leafCount": 0,
  "averagePosition": [
    10.484883242777778,
    47.99131624611111
  ],
  "data": [],
  "children": [
    {
      "bbox": {
        "south": 47.694865,
        "west": 9.530952,
        "north": 48.02541825,
        "east": 10.484655499999999
      },
      "poiCount": 61,
      "leafCount": 0,
      "averagePosition": [
        9.949122022950819,
        47.798618773770485
      ],
      "data": [],
      "children": [
        {
          "bbox": {
            "south": 47.694865,
            "west": 9.530952,
            "north": 47.860141625,
            "east": 10.007803749999999
          },
          "poiCount": 26,
          "leafCount": 26,
          "averagePosition": [
            9.664811261538462,
            47.78283196538462
          ],
          "data": [
            {
              "type": "Feature",
              "properties": {
                "id": "370912700",
                "osm_type": "node",
                "lat": 47.7723578,
                "lon": 9.8914625,
                "name": "Werdich",
                "shop": "shoes"
              },
              "geometry": {
                "type": "Point",
                "coordinates": [
                  9.8914625,
                  47.7723578
                ]
              }
            },
            {
              "type": "Feature",
              "properties": {
                "id": "466163027",
                "osm_type": "node",
                "lat": 47.8545656,
                "lon": 9.8961184,
                "addr:housenumber": "7",
                "addr:street": "St.-Ulrich-Straße",
                "name": "Göppel",
                "shop": "shoes"
              },
              "geometry": {
                "type": "Point",
                "coordinates": [
                  9.8961184,
                  47.8545656
                ]
              }
            },
            {
              "type": "Feature",
              "properties": {
                "id": "1533291025",
                "osm_type": "node",
                "lat": 47.7815677,
                "lon": 9.6124386,
                "name": "Shoetown Werdich",
                "opening_hours": "Mo-Fr 09:30-18:00; Sa 09:30-18:00; Su,PH off",
                "shop": "shoes",
                "website": "https://www.werdich.com/?f=Ravensburg08",
                "wheelchair": "yes"
              },
              "geometry": {
                "type": "Point",
                "coordinates": [
                  9.6124386,
                  47.7815677
                ]
              }
            },
            {
              "type": "Feature",
              "properties": {
                "id": "1607059332",
                "osm_type": "node",
                "lat": 47.8075217,
                "lon": 9.6420682,
                "addr:city": "Weingarten",
                "addr:housenumber": "15",
                "addr:postcode": "88250",
                "addr:street": "Broner Platz",
                "name": "Ruetz",
                "opening_hours": "Mo-Fr 09:00-12:45, Mo,Tu,Th,Fr 14:00-18:00, Sa 09:00-13:30",
                "phone": "+49 751 41322",
                "shop": "shoes",
                "wheelchair": "yes"
              },
              "geometry": {
                "type": "Point",
                "coordinates": [
                  9.6420682,
                  47.8075217
                ]
              }
            },
            {
              "type": "Feature",
              "properties": {
                "id": "2308898002",
                "osm_type": "node",
                "lat": 47.7909319,
                "lon": 9.8808091,
                "name": "Schuh-Treff",
                "shop": "shoes"
              },
              "geometry": {
                "type": "Point",
                "coordinates": [
                  9.8808091,
                  47.7909319
                ]
              }
            },
            {
              "type": "Feature",
              "properties": {
                "id": "2421985425",
                "osm_type": "node",
                "lat": 47.6964539,
                "lon": 9.8232417,
                "brand": "Deichmann",
                "brand:wikidata": "Q664543",
                "name": "Deichmann",
                "shop": "shoes"
              },
              "geometry": {
                "type": "Point",
                "coordinates": [
                  9.8232417,
                  47.6964539
                ]
              }
            },
            {
              "type": "Feature",
              "properties": {
                "id": "2721389297",
                "osm_type": "node",
                "lat": 47.7840762,
                "lon": 9.6120846,
                "addr:city": "Ravensburg",
                "addr:country": "DE",
                "addr:housenumber": "37",
                "addr:postcode": "88212",
                "addr:street": "Obere Breite Straße",
                "contact:website": "https://www.schuhmacherei-petra-gehrke.de",
                "craft": "shoemaker",
                "name": "Schuhmacherei Petra Gehrke",
                "opening_hours": "We-Fr 10:00-13:00,14:00-17:00; Sa 09:30-12:30; Su-Tu,PH off",
                "shop": "shoes",
                "wheelchair": "yes"
              },
              "geometry": {
                "type": "Point",
                "coordinates": [
                  9.6120846,
                  47.7840762
                ]
              }
            },
            {
              "type": "Feature",
              "properties": {
                "id": "2724111081",
                "osm_type": "node",
                "lat": 47.7831898,
                "lon": 9.6101464,
                "addr:city": "Ravensburg",
                "addr:housenumber": "33",
                "addr:postcode": "88212",
                "addr:street": "Eisenbahnstraße",
                "name": "Simon extra bequem",
                "opening_hours": "Mo-Fr 09:30-18:30; Sa 09:00-16:00",
                "phone": "+49 751 3524588",
                "shop": "shoes",
                "website": "https://www.schuhmoden-simon.de/77/geschaefte/simon-extrem-bequem"
              },
              "geometry": {
                "type": "Point",
                "coordinates": [
                  9.6101464,
                  47.7831898
                ]
              }
            },
            {
              "type": "Feature",
              "properties": {
                "id": "2725105957",
                "osm_type": "node",
                "lat": 47.781035,
                "lon": 9.6104302,
                "addr:city": "Ravensburg",
                "addr:housenumber": "43",
                "addr:postcode": "88214",
                "addr:street": "Bachstraße",
                "check_date": "2023-08-21",
                "name": "Simon Select",
                "opening_hours": "Mo-Fr 09:30-18:30; Sa 09:30-18:00",
                "phone": "+49 751 3591110",
                "shop": "shoes",
                "website": "https://www.schuhmoden-simon.de/76/geschaefte/simon-select"
              },
              "geometry": {
                "type": "Point",
                "coordinates": [
                  9.6104302,
                  47.781035
                ]
              }
            },
            {
              "type": "Feature",
              "properties": {
                "id": "4493314928",
                "osm_type": "node",
                "lat": 47.7803306,
                "lon": 9.6059773,
                "addr:city": "Ravensburg",
                "addr:housenumber": "5",
                "addr:postcode": "88214",
                "addr:street": "Jahnstraße",
                "brand": "Deichmann",
                "brand:wikidata": "Q664543",
                "brand:wikipedia": "en:Deichmann SE",
                "name": "Deichmann",
                "shop": "shoes"
              },
              "geometry": {
                "type": "Point",
                "coordinates": [
                  9.6059773,
                  47.7803306
                ]
              }
            },
            {
              "type": "Feature",
              "properties": {
                "id": "4753259550",
                "osm_type": "node",
                "lat": 47.826025,
                "lon": 9.6512597,
                "addr:city": "Baienfurt",
                "addr:housenumber": "4",
                "addr:postcode": "88255",
                "addr:street": "Waldseer Straße",
                "email": "info@schuhe-hagen.de",
                "name": "Schuhe Anne Hagen",
                "opening_hours": "Mo-Fr 09:00-13:00,14:00-18:00",
                "phone": "+49 751 47076",
                "shop": "shoes",
                "website": "https://schuhe-hagen.de/"
              },
              "geometry": {
                "type": "Point",
                "coordinates": [
                  9.6512597,
                  47.826025
                ]
              }
            },
            {
              "type": "Feature",
              "properties": {
                "id": "5036870785",
                "osm_type": "node",
                "lat": 47.7830201,
                "lon": 9.6132732,
                "addr:city": "Ravensburg",
                "addr:housenumber": "57",
                "addr:postcode": "88212",
                "addr:street": "Marienplatz",
                "brand": "Deichmann",
                "brand:wikidata": "Q664543",
                "brand:wikipedia": "en:Deichmann SE",
                "name": "Deichmann",
                "opening_hours": "Mo-We,Fr 09:00-18:30; Th 09:00-19:00; Sa 09:00-18:00; Su,PH off",
                "phone": "+49 751 351175",
                "shop": "shoes"
              },
              "geometry": {
                "type": "Point",
                "coordinates": [
                  9.6132732,
                  47.7830201
                ]
              }
            },
            {
              "type": "Feature",
              "properties": {
                "id": "5072186645",
                "osm_type": "node",
                "lat": 47.7814369,
                "lon": 9.6145322,
                "addr:city": "Ravensburg",
                "addr:country": "DE",
                "addr:housenumber": "4",
                "addr:postcode": "88212",
                "addr:street": "Marktstraße",
                "check_date:opening_hours": "2023-11-28",
                "email": "info@schuhmoden-simon.de",
                "name": "Schuhmoden Simon",
                "opening_hours": "Mo-Fr 09:00-18:30; Sa 09:00-18:00",
                "phone": "+49 751 2861",
                "shop": "shoes",
                "website": "https://www.schuhmoden-simon.de",
                "wheelchair": "no"
              },
              "geometry": {
                "type": "Point",
                "coordinates": [
                  9.6145322,
                  47.7814369
                ]
              }
            },
            {
              "type": "Feature",
              "properties": {
                "id": "5143969808",
                "osm_type": "node",
                "lat": 47.8084247,
                "lon": 9.642276,
                "addr:city": "Weingarten",
                "addr:housenumber": "16",
                "addr:postcode": "88250",
                "addr:street": "Kirchstraße",
                "brand": "Schuh-Mann",
                "brand:wikidata": "Q66133314",
                "contact:phone": "+49 751 56994329",
                "name": "Schuh-Mann",
                "opening_hours": "Mo-Fr 09:30-18:00; Sa 09:30-14:00; PH off",
                "shop": "shoes",
                "wheelchair": "no"
              },
              "geometry": {
                "type": "Point",
                "coordinates": [
                  9.642276,
                  47.8084247
                ]
              }
            },
            {
              "type": "Feature",
              "properties": {
                "id": "5180729235",
                "osm_type": "node",
                "lat": 47.7807632,
                "lon": 9.6158668,
                "name": "Gipfelstürmer",
                "opening_hours": "Mo-Fr 10:00-18:00; Sa 09:30-15:30",
                "payment:cash": "yes",
                "payment:girocard": "yes",
                "shop": "shoes",
                "wheelchair": "yes"
              },
              "geometry": {
                "type": "Point",
                "coordinates": [
                  9.6158668,
                  47.7807632
                ]
              }
            },
            {
              "type": "Feature",
              "properties": {
                "id": "5830949668",
                "osm_type": "node",
                "lat": 47.7815862,
                "lon": 9.6120271,
                "addr:city": "Ravensburg",
                "addr:housenumber": "18",
                "addr:postcode": "88214",
                "addr:street": "Bachstraße",
                "name": "Schuh-Beck",
                "opening_hours": "Mo-Fr 09:30-18:30; Sa 09:00-18:00; Su,PH off",
                "phone": "+49 751 37068102",
                "shop": "shoes",
                "website": "https://www.schuh-beck.de/filiale-11313.asp",
                "wheelchair": "yes"
              },
              "geometry": {
                "type": "Point",
                "coordinates": [
                  9.6120271,
                  47.7815862
                ]
              }
            },
            {
              "type": "Feature",
              "properties": {
                "id": "5830966375",
                "osm_type": "node",
                "lat": 47.7820008,
                "lon": 9.6097237,
                "name": "Rieker-Store",
                "shop": "shoes"
              },
              "geometry": {
                "type": "Point",
                "coordinates": [
                  9.6097237,
                  47.7820008
                ]
              }
            },
            {
              "type": "Feature",
              "properties": {
                "id": "5830966380",
                "osm_type": "node",
                "lat": 47.7820251,
                "lon": 9.6113523,
                "branch": "& ecco Store",
                "brand": "ara",
                "brand:wikidata": "Q623598",
                "contact:website": "https://de.ecco.com",
                "name": "ara",
                "shop": "shoes"
              },
              "geometry": {
                "type": "Point",
                "coordinates": [
                  9.6113523,
                  47.7820251
                ]
              }
            },
            {
              "type": "Feature",
              "properties": {
                "id": "5833527700",
                "osm_type": "node",
                "lat": 47.7817274,
                "lon": 9.6102526,
                "name": "AccA44",
                "shop": "shoes",
                "shop_1": "bag"
              },
              "geometry": {
                "type": "Point",
                "coordinates": [
                  9.6102526,
                  47.7817274
                ]
              }
            },
            {
              "type": "Feature",
              "properties": {
                "id": "5837020511",
                "osm_type": "node",
                "lat": 47.7819909,
                "lon": 9.6105986,
                "addr:city": "Ravensburg",
                "addr:housenumber": "23",
                "addr:postcode": "88212",
                "addr:street": "Adlerstraße",
                "brand": "Snipes",
                "brand:wikidata": "Q42306166",
                "name": "Snipes",
                "opening_hours": "Mo-Su 10:00-19:00",
                "shop": "shoes",
                "website": "https://www.snipes.com/de-de/"
              },
              "geometry": {
                "type": "Point",
                "coordinates": [
                  9.6105986,
                  47.7819909
                ]
              }
            },
            {
              "type": "Feature",
              "properties": {
                "id": "6515090071",
                "osm_type": "node",
                "lat": 47.6970502,
                "lon": 9.8229119,
                "brand": "Schuh-Mann",
                "brand:wikidata": "Q66133314",
                "name": "Schuh-Mann",
                "shop": "shoes",
                "wheelchair": "yes"
              },
              "geometry": {
                "type": "Point",
                "coordinates": [
                  9.8229119,
                  47.6970502
                ]
              }
            },
            {
              "type": "Feature",
              "properties": {
                "id": "7109320135",
                "osm_type": "node",
                "lat": 47.8075852,
                "lon": 9.6407541,
                "addr:city": "Weingarten",
                "addr:housenumber": "12",
                "addr:postcode": "88250",
                "addr:street": "Karlstraße",
                "check_date:opening_hours": "2024-03-02",
                "contact:email": "kontakt@schuhhandel-kern.de",
                "contact:phone": "+49 751 5577324",
                "contact:website": "https://kernschuhe.de",
                "name": "Kern Schuhe",
                "opening_hours": "Sa 09:00-16:00; PH off; Mo-Fr 09:00-18:30",
                "shop": "shoes",
                "wheelchair": "yes"
              },
              "geometry": {
                "type": "Point",
                "coordinates": [
                  9.6407541,
                  47.8075852
                ]
              }
            },
            {
              "type": "Feature",
              "properties": {
                "id": "9860241682",
                "osm_type": "node",
                "lat": 47.7821825,
                "lon": 9.6119593,
                "name": "Leguano",
                "opening_hours": "Mo-Sa 09:30-13:00,13:30-18:00",
                "panoramax": "4be84d45-53c3-4312-bdc8-14b9a6e72c45",
                "payment:cards": "no",
                "payment:cash": "no",
                "payment:credit_cards": "yes",
                "payment:debit_cards": "yes",
                "payment:qr_code": "no",
                "shop": "shoes"
              },
              "geometry": {
                "type": "Point",
                "coordinates": [
                  9.6119593,
                  47.7821825
                ]
              }
            },
            {
              "type": "Feature",
              "properties": {
                "id": "11006126810",
                "osm_type": "node",
                "lat": 47.7824881,
                "lon": 9.611473,
                "shop": "shoes"
              },
              "geometry": {
                "type": "Point",
                "coordinates": [
                  9.611473,
                  47.7824881
                ]
              }
            },
            {
              "type": "Feature",
              "properties": {
                "id": "11495470930",
                "osm_type": "node",
                "lat": 47.7811288,
                "lon": 9.6111078,
                "brand": "Deichmann",
                "brand:wikidata": "Q664543",
                "name": "Deichmann",
                "old_name": "Depot",
                "shop": "shoes"
              },
              "geometry": {
                "type": "Point",
                "coordinates": [
                  9.6111078,
                  47.7811288
                ]
              }
            },
            {
              "type": "Feature",
              "properties": {
                "id": "12517400785",
                "osm_type": "node",
                "lat": 47.7821658,
                "lon": 9.6109475,
                "addr:city": "Ravensburg",
                "addr:housenumber": "26",
                "addr:postcode": "88212",
                "addr:street": "Adlerstraße",
                "contact:instagram": "https://www.instagram.com//kybun.joya_store.ravensburg/",
                "contact:website": "https://www.ky-jo-store.de/",
                "email": "info@ky-jo-store.de",
                "level": "0",
                "name": "Kybun & Joya",
                "opening_hours": "Mo-Fr 09:00–12:30,13:30–18:00; Sa 10:00-13:00",
                "phone": "+4975197771430",
                "shop": "shoes",
                "start_date": "2025",
                "wheelchair": "limited"
              },
              "geometry": {
                "type": "Point",
                "coordinates": [
                  9.6109475,
                  47.7821658
                ]
              }
            }
          ],
          "children": []
        },
        {
          "bbox": {
            "south": 47.694865,
            "west": 10.007803749999999,
            "north": 47.860141625,
            "east": 10.484655499999999
          },
          "poiCount": 24,
          "leafCount": 24,
          "averagePosition": [
            10.243538458333333,
            47.74307900416667
          ],
          "data": [
            {
              "type": "Feature",
              "properties": {
                "id": "3360188528",
                "osm_type": "node",
                "lat": 47.8254854,
                "lon": 10.023235,
                "addr:city": "Leutkirch im Allgäu",
                "addr:country": "DE",
                "addr:housenumber": "9",
                "addr:postcode": "88299",
                "addr:street": "Evangelische Kirchgasse",
                "check_date:opening_hours": "2024-05-01",
                "name": "Schuh Outlet",
                "opening_hours": "Mo-Fr 10:00-12:30,14:00-18:00",
                "shop": "shoes",
                "wheelchair": "yes"
              },
              "geometry": {
                "type": "Point",
                "coordinates": [
                  10.023235,
                  47.8254854
                ]
              }
            },
            {
              "type": "Feature",
              "properties": {
                "id": "5835052308",
                "osm_type": "node",
                "lat": 47.825096,
                "lon": 10.0196003,
                "addr:city": "Leutkirch im Allgäu",
                "addr:housenumber": "11",
                "addr:place": "Bahnhofsarkaden",
                "addr:postcode": "88299",
                "brand": "Deichmann",
                "brand:wikidata": "Q664543",
                "brand:wikipedia": "en:Deichmann SE",
                "check_date": "2025-07-01",
                "check_date:opening_hours": "2025-07-01",
                "name": "Deichmann",
                "opening_hours": "Mo-Fr 09:00-19:00; Sa 09:00-18:00; Su off",
                "phone": "+49 7561 8489813",
                "shop": "shoes",
                "website": "https://stores.deichmann.com/de-de/de/baden-wuerttemberg/leutkirch/bahnhofsarkaden-11",
                "wheelchair": "yes"
              },
              "geometry": {
                "type": "Point",
                "coordinates": [
                  10.0196003,
                  47.825096
                ]
              }
            },
            {
              "type": "Feature",
              "properties": {
                "id": "5835052311",
                "osm_type": "node",
                "lat": 47.8248026,
                "lon": 10.0208064,
                "addr:city": "Leutkirch im Allgäu",
                "addr:housenumber": "1/1",
                "addr:place": "Bahnhofsarkaden",
                "addr:postcode": "88299",
                "brand": "Schuh-Mann",
                "brand:wikidata": "Q66133314",
                "check_date": "2025-07-25",
                "check_date:opening_hours": "2024-05-11",
                "name": "Schuh-Mann",
                "opening_hours": "Mo-Fr 09:00-19:00; Sa 09:00-18:00",
                "shop": "shoes",
                "wheelchair": "yes"
              },
              "geometry": {
                "type": "Point",
                "coordinates": [
                  10.0208064,
                  47.8248026
                ]
              }
            },
            {
              "type": "Feature",
              "properties": {
                "id": "7264937908",
                "osm_type": "node",
                "lat": 47.8286969,
                "lon": 10.023395,
                "name": "Junker",
                "opening_hours": "Mo,Tu,Th,Fr 09:00-12:30,14:00-18:00; We,Sa 09:00-12:30",
                "shop": "shoes",
                "wheelchair": "no"
              },
              "geometry": {
                "type": "Point",
                "coordinates": [
                  10.023395,
                  47.8286969
                ]
              }
            },
            {
              "type": "Feature",
              "properties": {
                "id": "7264937969",
                "osm_type": "node",
                "lat": 47.8249513,
                "lon": 10.0237866,
                "addr:city": "Leutkirch im Allgäu",
                "addr:country": "DE",
                "addr:housenumber": "1",
                "addr:postcode": "88299",
                "addr:street": "Marktstraße",
                "check_date": "2024-04-02",
                "email": "shoetown.leutkirch@werdich.com",
                "name": "ShoeTown Werdich",
                "opening_hours": "Mo-Fr 09:00-18:00; Sa 09:00-14:00; Su off",
                "phone": "+49 7561 4278",
                "shop": "shoes",
                "website": "https://www.werdich.com/filialen/shoetown-in-leutkirch-21/",
                "wheelchair": "yes"
              },
              "geometry": {
                "type": "Point",
                "coordinates": [
                  10.0237866,
                  47.8249513
                ]
              }
            },
            {
              "type": "Feature",
              "properties": {
                "id": "600842418",
                "osm_type": "node",
                "lat": 47.6965338,
                "lon": 10.3463318,
                "name": "Wirth",
                "shop": "shoes"
              },
              "geometry": {
                "type": "Point",
                "coordinates": [
                  10.3463318,
                  47.6965338
                ]
              }
            },
            {
              "type": "Feature",
              "properties": {
                "id": "676048590",
                "osm_type": "node",
                "lat": 47.7268094,
                "lon": 10.3162446,
                "name": "Suttor",
                "shop": "shoes"
              },
              "geometry": {
                "type": "Point",
                "coordinates": [
                  10.3162446,
                  47.7268094
                ]
              }
            },
            {
              "type": "Feature",
              "properties": {
                "id": "677539578",
                "osm_type": "node",
                "lat": 47.7260171,
                "lon": 10.3156024,
                "check_date": "2023-09-17",
                "name": "Schuhaus Onkel Hannes",
                "shop": "shoes"
              },
              "geometry": {
                "type": "Point",
                "coordinates": [
                  10.3156024,
                  47.7260171
                ]
              }
            },
            {
              "type": "Feature",
              "properties": {
                "id": "677589137",
                "osm_type": "node",
                "lat": 47.7245621,
                "lon": 10.3158389,
                "check_date": "2025-03-13",
                "check_date:opening_hours": "2025-03-13",
                "name": "Shoetown Werdich",
                "opening_hours": "Mo-Sa 09:30-18:00",
                "shop": "shoes",
                "wheelchair": "yes"
              },
              "geometry": {
                "type": "Point",
                "coordinates": [
                  10.3158389,
                  47.7245621
                ]
              }
            },
            {
              "type": "Feature",
              "properties": {
                "id": "677589144",
                "osm_type": "node",
                "lat": 47.7247303,
                "lon": 10.315844,
                "addr:city": "Kempten (Allgäu)",
                "addr:postcode": "87435",
                "check_date:opening_hours": "2025-03-13",
                "contact:phone": "+49 831 22608",
                "name": "Werdich",
                "opening_hours": "Mo-Sa 09:30-18:00",
                "shop": "shoes",
                "wheelchair": "yes"
              },
              "geometry": {
                "type": "Point",
                "coordinates": [
                  10.315844,
                  47.7247303
                ]
              }
            },
            {
              "type": "Feature",
              "properties": {
                "id": "677589146",
                "osm_type": "node",
                "lat": 47.724878,
                "lon": 10.3155761,
                "brand": "Deichmann",
                "brand:wikidata": "Q664543",
                "brand:wikipedia": "en:Deichmann SE",
                "check_date:opening_hours": "2025-08-25",
                "name": "Deichmann",
                "opening_hours": "Mo-Sa 09:30-19:30",
                "shop": "shoes",
                "wheelchair": "yes"
              },
              "geometry": {
                "type": "Point",
                "coordinates": [
                  10.3155761,
                  47.724878
                ]
              }
            },
            {
              "type": "Feature",
              "properties": {
                "id": "677589158",
                "osm_type": "node",
                "lat": 47.7250449,
                "lon": 10.3157834,
                "addr:city": "Kempten (Allgäu)",
                "addr:postcode": "87435",
                "name": "Lafar Schuhe",
                "shop": "shoes"
              },
              "geometry": {
                "type": "Point",
                "coordinates": [
                  10.3157834,
                  47.7250449
                ]
              }
            },
            {
              "type": "Feature",
              "properties": {
                "id": "858488834",
                "osm_type": "node",
                "lat": 47.725394,
                "lon": 10.3103049,
                "name": "Hauber",
                "shop": "shoes"
              },
              "geometry": {
                "type": "Point",
                "coordinates": [
                  10.3103049,
                  47.725394
                ]
              }
            },
            {
              "type": "Feature",
              "properties": {
                "id": "858488846",
                "osm_type": "node",
                "lat": 47.7251586,
                "lon": 10.3099677,
                "name": "Max Wildegger",
                "shop": "shoes",
                "wheelchair": "limited"
              },
              "geometry": {
                "type": "Point",
                "coordinates": [
                  10.3099677,
                  47.7251586
                ]
              }
            },
            {
              "type": "Feature",
              "properties": {
                "id": "974892285",
                "osm_type": "node",
                "lat": 47.7228023,
                "lon": 10.3160593,
                "addr:city": "Kempten (Allgäu)",
                "addr:country": "DE",
                "addr:housenumber": "82",
                "addr:postcode": "87435",
                "addr:street": "Kotterner Straße",
                "check_date": "2024-01-01",
                "name": "Almwerk",
                "shop": "shoes",
                "wheelchair": "yes"
              },
              "geometry": {
                "type": "Point",
                "coordinates": [
                  10.3160593,
                  47.7228023
                ]
              }
            },
            {
              "type": "Feature",
              "properties": {
                "id": "981314360",
                "osm_type": "node",
                "lat": 47.7275767,
                "lon": 10.314905,
                "addr:city": "Kempten (Allgäu)",
                "addr:country": "DE",
                "addr:housenumber": "43",
                "addr:postcode": "87435",
                "addr:street": "Gerberstraße",
                "name": "Schnäppchen-Schuh",
                "opening_hours": "We-Fr 10:00-18:00; Sa 10:00-14:00",
                "shop": "shoes"
              },
              "geometry": {
                "type": "Point",
                "coordinates": [
                  10.314905,
                  47.7275767
                ]
              }
            },
            {
              "type": "Feature",
              "properties": {
                "id": "1031070605",
                "osm_type": "node",
                "lat": 47.7280491,
                "lon": 10.3160894,
                "addr:city": "Kempten (Allgäu)",
                "addr:country": "DE",
                "addr:housenumber": "44",
                "addr:postcode": "87435",
                "addr:street": "Kronenstraße",
                "name": "Schuh Bernhart",
                "shop": "shoes",
                "website": "https://www.schuh-bernhart.de/"
              },
              "geometry": {
                "type": "Point",
                "coordinates": [
                  10.3160894,
                  47.7280491
                ]
              }
            },
            {
              "type": "Feature",
              "properties": {
                "id": "1995557698",
                "osm_type": "node",
                "lat": 47.7269953,
                "lon": 10.3139894,
                "addr:city": "Kempten (Allgäu)",
                "addr:country": "DE",
                "addr:housenumber": "32",
                "addr:postcode": "87435",
                "addr:street": "Klostersteige",
                "name": "leguano Barfußschuhe",
                "opening_hours": "Mo-Sa 09:30-13:00,13:30-18:00; PH off",
                "phone": "0831 57578938",
                "shop": "shoes"
              },
              "geometry": {
                "type": "Point",
                "coordinates": [
                  10.3139894,
                  47.7269953
                ]
              }
            },
            {
              "type": "Feature",
              "properties": {
                "id": "2390510225",
                "osm_type": "node",
                "lat": 47.7237869,
                "lon": 10.3155463,
                "addr:city": "Kempten (Allgäu)",
                "addr:country": "DE",
                "addr:housenumber": "1",
                "addr:postcode": "87435",
                "addr:street": "Bahnhofstraße",
                "branch": "Shoes & Bags",
                "brand": "CCC",
                "brand:wikidata": "Q11788344",
                "contact:phone": "+49 83158093516",
                "fixme": "no longer exists, there is a woolworth now",
                "name": "CCC",
                "old_name": "1982",
                "opening_hours": "Mo-Fr 09:30-19:30; Sa 09:30-19:30",
                "shop": "shoes",
                "website": "https://ccc.eu/at/",
                "wheelchair": "yes"
              },
              "geometry": {
                "type": "Point",
                "coordinates": [
                  10.3155463,
                  47.7237869
                ]
              }
            },
            {
              "type": "Feature",
              "properties": {
                "id": "7079259753",
                "osm_type": "node",
                "lat": 47.7205327,
                "lon": 10.315308,
                "addr:city": "Kempten (Allgäu)",
                "addr:country": "DE",
                "addr:housenumber": "1",
                "addr:postcode": "87435",
                "addr:street": "August-Fischer-Platz",
                "brand": "Snipes",
                "brand:wikidata": "Q42306166",
                "brand:wikipedia": "de:Snipes (Unternehmen)",
                "check_date:opening_hours": "2024-01-26",
                "level": "2",
                "name": "Snipes",
                "opening_hours": "Mo-Sa 09:30-20:00",
                "phone": "+49 831 58008855",
                "shop": "shoes",
                "website": "https://www.snipes.com",
                "wheelchair": "yes"
              },
              "geometry": {
                "type": "Point",
                "coordinates": [
                  10.315308,
                  47.7205327
                ]
              }
            },
            {
              "type": "Feature",
              "properties": {
                "id": "7272727554",
                "osm_type": "node",
                "lat": 47.6964908,
                "lon": 10.0418311,
                "brand": "Schuh-Mann",
                "brand:wikidata": "Q66133314",
                "name": "Schuh-Mann",
                "opening_hours": "Mo-Fr 09:00-19:00; Sa 09:00-16:00",
                "shop": "shoes"
              },
              "geometry": {
                "type": "Point",
                "coordinates": [
                  10.0418311,
                  47.6964908
                ]
              }
            },
            {
              "type": "Feature",
              "properties": {
                "id": "9211748716",
                "osm_type": "node",
                "lat": 47.7188192,
                "lon": 10.3082839,
                "addr:city": "Kempten (Allgäu)",
                "addr:country": "DE",
                "addr:housenumber": "18",
                "addr:postcode": "87435",
                "addr:street": "Goethestraße",
                "check_date": "2024-01-11",
                "craft": "shoemaker",
                "email": "kunert@der-schuhmacher-kempten.de",
                "name": "Der Schuhmacher",
                "opening_hours": "Mo-Fr 08:30-12:15; Mo-Tu 14:00-17:30; Th 14:00-18:00; Fr 14:00-17:30",
                "operator": "Herbert Kunert",
                "phone": "+49 831 53061430",
                "shop": "shoes",
                "website": "https://www.der-schuhmacher-kempten.de/home.html",
                "wheelchair": "yes"
              },
              "geometry": {
                "type": "Point",
                "coordinates": [
                  10.3082839,
                  47.7188192
                ]
              }
            },
            {
              "type": "Feature",
              "properties": {
                "id": "13120976330",
                "osm_type": "node",
                "lat": 47.7201679,
                "lon": 10.3152436,
                "brand": "Foot Locker",
                "brand:wikidata": "Q63335",
                "name": "Foot Locker",
                "shop": "shoes"
              },
              "geometry": {
                "type": "Point",
                "coordinates": [
                  10.3152436,
                  47.7201679
                ]
              }
            },
            {
              "type": "Feature",
              "properties": {
                "id": "13120991538",
                "osm_type": "node",
                "lat": 47.7205148,
                "lon": 10.3153499,
                "brand": "Tamaris",
                "brand:wikidata": "Q61994827",
                "name": "Tamaris",
                "shop": "shoes"
              },
              "geometry": {
                "type": "Point",
                "coordinates": [
                  10.3153499,
                  47.7205148
                ]
              }
            }
          ],
          "children": []
        },
        {
          "bbox": {
            "south": 47.860141625,
            "west": 9.530952,
            "north": 48.02541825,
            "east": 10.007803749999999
          },
          "poiCount": 5,
          "leafCount": 5,
          "averagePosition": [
            9.70999562,
            47.931645939999996
          ],
          "data": [
            {
              "type": "Feature",
              "properties": {
                "id": "1449632805",
                "osm_type": "node",
                "lat": 47.9208495,
                "lon": 9.7540976,
                "addr:city": "Bad Waldsee",
                "addr:country": "DE",
                "addr:housenumber": "43",
                "addr:postcode": "88339",
                "addr:street": "Hauptstraße",
                "contact:website": "http://www.senko-schuhe.de/",
                "email": "mail@senko-schuhe.de",
                "lastcheck": "2017-01-19",
                "name": "Senko Schuhe",
                "opening_hours": "Mo-Fr 09:00-12:15,14:00-18:00; Sa 09:00-13:00",
                "operator": "Stefan Senko",
                "phone": "+49 7524 912222",
                "shop": "shoes",
                "website": "https://senko-schuhe.de/",
                "wheelchair": "limited"
              },
              "geometry": {
                "type": "Point",
                "coordinates": [
                  9.7540976,
                  47.9208495
                ]
              }
            },
            {
              "type": "Feature",
              "properties": {
                "id": "1939364399",
                "osm_type": "node",
                "lat": 47.921109,
                "lon": 9.7533008,
                "name": "Kern",
                "shop": "shoes",
                "wheelchair": "yes"
              },
              "geometry": {
                "type": "Point",
                "coordinates": [
                  9.7533008,
                  47.921109
                ]
              }
            },
            {
              "type": "Feature",
              "properties": {
                "id": "5155056766",
                "osm_type": "node",
                "lat": 47.9195049,
                "lon": 9.7563127,
                "addr:city": "Bad Waldsee",
                "addr:country": "DE",
                "addr:housenumber": "6",
                "addr:postcode": "88339",
                "addr:street": "Wurzacher Straße",
                "shop": "shoes"
              },
              "geometry": {
                "type": "Point",
                "coordinates": [
                  9.7563127,
                  47.9195049
                ]
              }
            },
            {
              "type": "Feature",
              "properties": {
                "id": "5514304442",
                "osm_type": "node",
                "lat": 47.9539084,
                "lon": 9.6411976,
                "addr:city": "Aulendorf",
                "addr:country": "DE",
                "addr:housenumber": "18",
                "addr:postcode": "88326",
                "addr:street": "Kolpingstraße",
                "name": "Schuhhaus Weber-Henkel",
                "shop": "shoes",
                "wheelchair": "yes"
              },
              "geometry": {
                "type": "Point",
                "coordinates": [
                  9.6411976,
                  47.9539084
                ]
              }
            },
            {
              "type": "Feature",
              "properties": {
                "id": "6146097141",
                "osm_type": "node",
                "lat": 47.9428579,
                "lon": 9.6450694,
                "addr:city": "Aulendorf",
                "addr:country": "DE",
                "addr:housenumber": "5",
                "addr:postcode": "88326",
                "addr:street": "Alte Kiesgrube",
                "contact:phone": "+49 7525 911268",
                "name": "Kern Schuhe",
                "opening_hours": "Mo-Fr 09:00-19:00; Sa 09:00-17:00; PH off",
                "shop": "shoes",
                "website": "https://kernschuhe.de/filialen/filiale-aulendorf/"
              },
              "geometry": {
                "type": "Point",
                "coordinates": [
                  9.6450694,
                  47.9428579
                ]
              }
            }
          ],
          "children": []
        },
        {
          "bbox": {
            "south": 47.860141625,
            "west": 10.007803749999999,
            "north": 48.02541825,
            "east": 10.484655499999999
          },
          "poiCount": 6,
          "leafCount": 6,
          "averagePosition": [
            10.202741583333333,
            47.978331383333334
          ],
          "data": [
            {
              "type": "Feature",
              "properties": {
                "id": "1236678394",
                "osm_type": "node",
                "lat": 47.9869813,
                "lon": 10.1858163,
                "check_date": "2023-11-23",
                "name": "Schuhaus Cornelius",
                "opening_hours": "Mo-Fr 09:00-18:00; Sa 09:00-14:00",
                "shop": "shoes",
                "wheelchair": "no"
              },
              "geometry": {
                "type": "Point",
                "coordinates": [
                  10.1858163,
                  47.9869813
                ]
              }
            },
            {
              "type": "Feature",
              "properties": {
                "id": "5567353249",
                "osm_type": "node",
                "lat": 47.9426423,
                "lon": 10.3035937,
                "name": "Dietrich",
                "shop": "shoes"
              },
              "geometry": {
                "type": "Point",
                "coordinates": [
                  10.3035937,
                  47.9426423
                ]
              }
            },
            {
              "type": "Feature",
              "properties": {
                "id": "5736857799",
                "osm_type": "node",
                "lat": 47.9852006,
                "lon": 10.1819184,
                "addr:city": "Memmingen",
                "addr:housenumber": "21",
                "addr:postcode": "87700",
                "addr:street": "Kramerstraße",
                "check_date:opening_hours": "2024-01-14",
                "name": "R&J",
                "opening_hours:signed": "no",
                "shop": "shoes"
              },
              "geometry": {
                "type": "Point",
                "coordinates": [
                  10.1819184,
                  47.9852006
                ]
              }
            },
            {
              "type": "Feature",
              "properties": {
                "id": "5736857810",
                "osm_type": "node",
                "lat": 47.9851531,
                "lon": 10.1814389,
                "addr:city": "Memmingen",
                "addr:country": "DE",
                "addr:housenumber": "3-5",
                "addr:postcode": "87700",
                "addr:street": "Furtgasse",
                "brand": "Quick Schuh",
                "brand:wikidata": "Q2123069",
                "brand:wikipedia": "de:Quick Schuh",
                "name": "Quick Schuh",
                "opening_hours": "Mo-Fr 09:00-18:30; Sa 09:00-16:00",
                "shop": "shoes"
              },
              "geometry": {
                "type": "Point",
                "coordinates": [
                  10.1814389,
                  47.9851531
                ]
              }
            },
            {
              "type": "Feature",
              "properties": {
                "id": "5736857814",
                "osm_type": "node",
                "lat": 47.9854448,
                "lon": 10.1817383,
                "addr:city": "Memmingen",
                "addr:housenumber": "15",
                "addr:postcode": "87700",
                "addr:street": "Kramerstraße",
                "brand": "Snipes",
                "brand:wikidata": "Q42306166",
                "brand:wikipedia": "de:Snipes (Unternehmen)",
                "check_date": "2023-11-17",
                "name": "Snipes",
                "opening_hours": "Mo-Fr 10:00-19:00; Sa 10:00-18:00",
                "shop": "shoes"
              },
              "geometry": {
                "type": "Point",
                "coordinates": [
                  10.1817383,
                  47.9854448
                ]
              }
            },
            {
              "type": "Feature",
              "properties": {
                "id": "5926999952",
                "osm_type": "node",
                "lat": 47.9845662,
                "lon": 10.1819439,
                "addr:city": "Memmingen",
                "addr:housenumber": "22",
                "addr:postcode": "87700",
                "addr:street": "Kramerstraße",
                "check_date": "2023-12-02",
                "name": "Shoe-Town Werdich",
                "opening_hours": "Mo-Fr 10:00-18:00; Sa 10:00-16:00",
                "shop": "shoes"
              },
              "geometry": {
                "type": "Point",
                "coordinates": [
                  10.1819439,
                  47.9845662
                ]
              }
            }
          ],
          "children": []
        }
      ]
    },
    {
      "bbox": {
        "south": 47.694865,
        "west": 10.484655499999999,
        "north": 48.02541825,
        "east": 11.438358999999998
      },
      "poiCount": 36,
      "leafCount": 36,
      "averagePosition": [
        10.94479718611111,
        47.868948075
      ],
      "data": [
        {
          "type": "Feature",
          "properties": {
            "id": "1558283816",
            "osm_type": "node",
            "lat": 47.775902,
            "lon": 10.6137092,
            "brand": "Deichmann",
            "brand:wikidata": "Q664543",
            "name": "Deichmann",
            "shop": "shoes",
            "wheelchair": "yes"
          },
          "geometry": {
            "type": "Point",
            "coordinates": [
              10.6137092,
              47.775902
            ]
          }
        },
        {
          "type": "Feature",
          "properties": {
            "id": "1558306027",
            "osm_type": "node",
            "lat": 47.7782236,
            "lon": 10.6161902,
            "name": "Sepp Schuhe",
            "shop": "shoes"
          },
          "geometry": {
            "type": "Point",
            "coordinates": [
              10.6161902,
              47.7782236
            ]
          }
        },
        {
          "type": "Feature",
          "properties": {
            "id": "1805637717",
            "osm_type": "node",
            "lat": 47.8242608,
            "lon": 10.8720312,
            "name": "Wohlfühl Reich",
            "shop": "shoes",
            "wheelchair": "limited"
          },
          "geometry": {
            "type": "Point",
            "coordinates": [
              10.8720312,
              47.8242608
            ]
          }
        },
        {
          "type": "Feature",
          "properties": {
            "id": "4972422577",
            "osm_type": "node",
            "lat": 47.8083792,
            "lon": 10.8749199,
            "brand": "Quick Schuh",
            "brand:wikidata": "Q2123069",
            "brand:wikipedia": "de:Quick Schuh",
            "name": "Quick Schuh",
            "operator": "Quick Schuh",
            "shop": "shoes",
            "wheelchair": "yes"
          },
          "geometry": {
            "type": "Point",
            "coordinates": [
              10.8749199,
              47.8083792
            ]
          }
        },
        {
          "type": "Feature",
          "properties": {
            "id": "6150105310",
            "osm_type": "node",
            "lat": 47.8152421,
            "lon": 10.8985475,
            "brand": "Deichmann",
            "brand:wikidata": "Q664543",
            "name": "Deichmann",
            "operator": "Deichmann",
            "shop": "shoes"
          },
          "geometry": {
            "type": "Point",
            "coordinates": [
              10.8985475,
              47.8152421
            ]
          }
        },
        {
          "type": "Feature",
          "properties": {
            "id": "8816656913",
            "osm_type": "node",
            "lat": 47.7964859,
            "lon": 10.9247081,
            "name": "Haslauer",
            "shop": "shoes"
          },
          "geometry": {
            "type": "Point",
            "coordinates": [
              10.9247081,
              47.7964859
            ]
          }
        },
        {
          "type": "Feature",
          "properties": {
            "id": "9248261186",
            "osm_type": "node",
            "lat": 47.736375,
            "lon": 10.7765244,
            "name": "Orthopädie Schuh & Technik Reich",
            "shop": "shoes"
          },
          "geometry": {
            "type": "Point",
            "coordinates": [
              10.7765244,
              47.736375
            ]
          }
        },
        {
          "type": "Feature",
          "properties": {
            "id": "11094123033",
            "osm_type": "node",
            "lat": 47.816431,
            "lon": 10.9021862,
            "addr:city": "Schongau",
            "addr:country": "DE",
            "addr:housenumber": "5",
            "addr:postcode": "86956",
            "addr:street": "An der Leithe",
            "name": "Markenschuh Herrmann",
            "opening_hours": "Mo-Fr 09:30-19:00; Sa 09:00-17:00",
            "phone": "+49 8861 / 9098891",
            "shop": "shoes",
            "website": "https://www.herrmann-schuhe-mode.de/"
          },
          "geometry": {
            "type": "Point",
            "coordinates": [
              10.9021862,
              47.816431
            ]
          }
        },
        {
          "type": "Feature",
          "properties": {
            "id": "1623938204",
            "osm_type": "node",
            "lat": 47.7879177,
            "lon": 11.0610123,
            "shop": "shoes"
          },
          "geometry": {
            "type": "Point",
            "coordinates": [
              11.0610123,
              47.7879177
            ]
          }
        },
        {
          "type": "Feature",
          "properties": {
            "id": "1985390648",
            "osm_type": "node",
            "lat": 47.7557444,
            "lon": 11.3767605,
            "brand": "Deichmann",
            "brand:wikidata": "Q664543",
            "brand:wikipedia": "en:Deichmann SE",
            "name": "Deichmann",
            "opening_hours": "Mo-Fr 09:00-19:00; Sa 09:00-18:00",
            "shop": "shoes"
          },
          "geometry": {
            "type": "Point",
            "coordinates": [
              11.3767605,
              47.7557444
            ]
          }
        },
        {
          "type": "Feature",
          "properties": {
            "id": "2607646046",
            "osm_type": "node",
            "lat": 47.8390978,
            "lon": 11.1443283,
            "addr:city": "Weilheim in Oberbayern",
            "addr:country": "DE",
            "addr:housenumber": "1",
            "addr:postcode": "82362",
            "addr:street": "Pütrichstraße",
            "check_date": "2024-04-27",
            "name": "Schuhhaus Pröbstl",
            "opening_hours": "Mo-Fr 10:00-18:00; Sa 10:00-16:00; PH off",
            "shop": "shoes",
            "source": "survey",
            "wheelchair": "limited"
          },
          "geometry": {
            "type": "Point",
            "coordinates": [
              11.1443283,
              47.8390978
            ]
          }
        },
        {
          "type": "Feature",
          "properties": {
            "id": "2809083367",
            "osm_type": "node",
            "lat": 47.8429116,
            "lon": 11.1491685,
            "addr:city": "Weilheim in Oberbayern",
            "addr:country": "DE",
            "addr:housenumber": "28",
            "addr:postcode": "82362",
            "addr:street": "Kaltenmoserstraße",
            "brand": "Deichmann",
            "brand:wikidata": "Q664543",
            "brand:wikipedia": "en:Deichmann SE",
            "check_date": "2025-08-30",
            "level": "0",
            "name": "Deichmann",
            "opening_hours": "Mo-Sa 07:00-20:00",
            "phone": "+49 881 417645",
            "shop": "shoes",
            "website": "https://www.deichmann.com/",
            "wheelchair": "yes"
          },
          "geometry": {
            "type": "Point",
            "coordinates": [
              11.1491685,
              47.8429116
            ]
          }
        },
        {
          "type": "Feature",
          "properties": {
            "id": "3742347051",
            "osm_type": "node",
            "lat": 47.7899254,
            "lon": 11.0540398,
            "brand": "Deichmann",
            "brand:wikidata": "Q664543",
            "brand:wikipedia": "en:Deichmann SE",
            "name": "Deichmann",
            "shop": "shoes",
            "wheelchair": "yes"
          },
          "geometry": {
            "type": "Point",
            "coordinates": [
              11.0540398,
              47.7899254
            ]
          }
        },
        {
          "type": "Feature",
          "properties": {
            "id": "4338842098",
            "osm_type": "node",
            "lat": 47.7496936,
            "lon": 11.3737889,
            "addr:city": "Penzberg",
            "addr:country": "DE",
            "addr:housenumber": "14",
            "addr:postcode": "82377",
            "addr:street": "Bahnhofstraße",
            "name": "Elisa Schuhe",
            "opening_hours": "Mo-Fr 09:00-18:30; Sa 09:00-16:00",
            "operator": "Irma Haas",
            "phone": "+49 8856 6088224",
            "shop": "shoes",
            "website": "https://www.elisa-schuhe.de/",
            "wheelchair": "yes"
          },
          "geometry": {
            "type": "Point",
            "coordinates": [
              11.3737889,
              47.7496936
            ]
          }
        },
        {
          "type": "Feature",
          "properties": {
            "id": "4338842105",
            "osm_type": "node",
            "lat": 47.7506135,
            "lon": 11.3769187,
            "addr:city": "Penzberg",
            "addr:country": "DE",
            "addr:housenumber": "9",
            "addr:postcode": "82377",
            "addr:street": "Friedrich-Ebert-Straße",
            "level": "1",
            "name": "Schuhhandwerk Haake",
            "opening_hours": "Mo \"nach Vereinbarung\"; Tu,Th,Fr 09:30-13:00,15:00-18:00; We 09:00-13:00; Sa 10:00-13:00; PH off",
            "operator": "Christian Haake",
            "phone": "+49 8856 5274",
            "shop": "shoes",
            "website": "https://www.haake-schuhhandwerk.de/"
          },
          "geometry": {
            "type": "Point",
            "coordinates": [
              11.3769187,
              47.7506135
            ]
          }
        },
        {
          "type": "Feature",
          "properties": {
            "id": "6482835079",
            "osm_type": "node",
            "lat": 47.8474312,
            "lon": 11.1523165,
            "addr:city": "Weilheim in Oberbayern",
            "addr:country": "DE",
            "addr:housenumber": "4",
            "addr:postcode": "82362",
            "addr:street": "Christoph-Selhamer-Straße",
            "kids_area": "yes",
            "name": "Herrmann Schuhe und Mode",
            "phone": "+49 881 92799420",
            "shop": "shoes"
          },
          "geometry": {
            "type": "Point",
            "coordinates": [
              11.1523165,
              47.8474312
            ]
          }
        },
        {
          "type": "Feature",
          "properties": {
            "id": "6853893525",
            "osm_type": "node",
            "lat": 47.8421226,
            "lon": 11.1434891,
            "addr:city": "Weilheim in Oberbayern",
            "addr:country": "DE",
            "addr:housenumber": "3",
            "addr:postcode": "82362",
            "addr:street": "Krumpperstraße",
            "name": "TipTap Kinderschuhe",
            "opening_hours": "Mo-Fr 09:00-12:00,14:30-18:00; We 09:00-12:00; Sa 09:00-14:00; PH off",
            "shoes": "children",
            "shop": "shoes"
          },
          "geometry": {
            "type": "Point",
            "coordinates": [
              11.1434891,
              47.8421226
            ]
          }
        },
        {
          "type": "Feature",
          "properties": {
            "id": "6915082882",
            "osm_type": "node",
            "lat": 47.8399119,
            "lon": 11.1413855,
            "addr:city": "Weilheim in Oberbayern",
            "addr:housenumber": "3",
            "addr:postcode": "82362",
            "addr:street": "Schmiedstraße",
            "level": "0",
            "name": "Schuh Box",
            "opening_hours": "Mo-Fr 09:30-19:00; Sa 09:30-18:00; PH off",
            "shop": "shoes",
            "website": "https://schuh-box.de/",
            "wheelchair": "yes"
          },
          "geometry": {
            "type": "Point",
            "coordinates": [
              11.1413855,
              47.8399119
            ]
          }
        },
        {
          "type": "Feature",
          "properties": {
            "id": "7231535502",
            "osm_type": "node",
            "lat": 47.7491881,
            "lon": 11.3731501,
            "name": "Penzberger Schuh- und Schlüsselservice",
            "opening_hours": "Mo-Fr 09:30-18:00;PH off",
            "shop": "shoes"
          },
          "geometry": {
            "type": "Point",
            "coordinates": [
              11.3731501,
              47.7491881
            ]
          }
        },
        {
          "type": "Feature",
          "properties": {
            "id": "369733525",
            "osm_type": "node",
            "lat": 47.8747981,
            "lon": 11.0239758,
            "name": "Schuhe H. Steigenberger",
            "shop": "shoes"
          },
          "geometry": {
            "type": "Point",
            "coordinates": [
              11.0239758,
              47.8747981
            ]
          }
        },
        {
          "type": "Feature",
          "properties": {
            "id": "960562642",
            "osm_type": "node",
            "lat": 47.8774708,
            "lon": 10.6201606,
            "name": "Another Shoestore",
            "shop": "shoes",
            "wheelchair": "yes"
          },
          "geometry": {
            "type": "Point",
            "coordinates": [
              10.6201606,
              47.8774708
            ]
          }
        },
        {
          "type": "Feature",
          "properties": {
            "id": "3564398109",
            "osm_type": "node",
            "lat": 48.0043427,
            "lon": 10.5926248,
            "description": "Bequeme Schuhmode",
            "name": "Wilhelm Scharpf",
            "shop": "shoes"
          },
          "geometry": {
            "type": "Point",
            "coordinates": [
              10.5926248,
              48.0043427
            ]
          }
        },
        {
          "type": "Feature",
          "properties": {
            "id": "5470718375",
            "osm_type": "node",
            "lat": 48.0203156,
            "lon": 10.602124,
            "addr:city": "Bad Wörishofen",
            "addr:country": "DE",
            "addr:housenumber": "20",
            "addr:street": "Karl-Benz-Straße",
            "brand": "Deichmann",
            "brand:wikidata": "Q664543",
            "contact:email": "service-de@deichmann.com",
            "contact:phone": "+49 8247 34154",
            "contact:website": "https://stores.deichmann.com/de-de/de/bayern/bad-woerishofen/karl-benz-strasse-20",
            "name": "Deichmann",
            "opening_hours": "Mo-Fr 09:00-19:00; Sa 09:00-18:00, Su,PH off",
            "shop": "shoes"
          },
          "geometry": {
            "type": "Point",
            "coordinates": [
              10.602124,
              48.0203156
            ]
          }
        },
        {
          "type": "Feature",
          "properties": {
            "id": "9066982573",
            "osm_type": "node",
            "lat": 48.0031962,
            "lon": 10.5914125,
            "name": "Landmann",
            "opening_hours": "Mo-Fr 09:30-13:00,14:00-18:00; Sa 10:00-13:30; PH closed",
            "shop": "shoes",
            "wheelchair": "yes"
          },
          "geometry": {
            "type": "Point",
            "coordinates": [
              10.5914125,
              48.0031962
            ]
          }
        },
        {
          "type": "Feature",
          "properties": {
            "id": "9445304728",
            "osm_type": "node",
            "lat": 47.8818446,
            "lon": 10.6182747,
            "name": "Shoe Town",
            "shop": "shoes",
            "wheelchair": "yes"
          },
          "geometry": {
            "type": "Point",
            "coordinates": [
              10.6182747,
              47.8818446
            ]
          }
        },
        {
          "type": "Feature",
          "properties": {
            "id": "9502124680",
            "osm_type": "node",
            "lat": 47.911011,
            "lon": 10.6351708,
            "name": "HOFMANN Shoes + Fashion",
            "shop": "shoes"
          },
          "geometry": {
            "type": "Point",
            "coordinates": [
              10.6351708,
              47.911011
            ]
          }
        },
        {
          "type": "Feature",
          "properties": {
            "id": "10982883845",
            "osm_type": "node",
            "lat": 47.8828746,
            "lon": 10.6208281,
            "brand": "Deichmann",
            "brand:wikidata": "Q664543",
            "level": "0",
            "name": "Deichmann",
            "opening_hours": "Mo-Sa 09:00-20:00; Su, PH off",
            "shop": "shoes"
          },
          "geometry": {
            "type": "Point",
            "coordinates": [
              10.6208281,
              47.8828746
            ]
          }
        },
        {
          "type": "Feature",
          "properties": {
            "id": "11167465761",
            "osm_type": "node",
            "lat": 47.8998618,
            "lon": 10.642481,
            "brand": "Deichmann",
            "brand:wikidata": "Q664543",
            "name": "Deichmann",
            "opening_hours": "Mo-Sa 09:00-19:00; Su, PH off",
            "shop": "shoes"
          },
          "geometry": {
            "type": "Point",
            "coordinates": [
              10.642481,
              47.8998618
            ]
          }
        },
        {
          "type": "Feature",
          "properties": {
            "id": "12058869991",
            "osm_type": "node",
            "lat": 48.0039372,
            "lon": 10.5923818,
            "brand": "Rieker",
            "brand:wikidata": "Q2152193",
            "name": "Rieker",
            "opening_hours": "Mo-Fr 09:30-13:00,13:30-18:00; Sa 09:30-14:00",
            "operator": "Kunkel-Schuh GmbH & Co.KG",
            "phone": "+49 8247 9987639",
            "shop": "shoes",
            "website": "https://www.profil-schuh.de/bad-woerishofen-rieker/"
          },
          "geometry": {
            "type": "Point",
            "coordinates": [
              10.5923818,
              48.0039372
            ]
          }
        },
        {
          "type": "Feature",
          "properties": {
            "id": "12102807017",
            "osm_type": "node",
            "lat": 48.0040229,
            "lon": 10.5921172,
            "name": "leguano Barfußschuhe",
            "shop": "shoes"
          },
          "geometry": {
            "type": "Point",
            "coordinates": [
              10.5921172,
              48.0040229
            ]
          }
        },
        {
          "type": "Feature",
          "properties": {
            "id": "12102807019",
            "osm_type": "node",
            "lat": 48.0031292,
            "lon": 10.5928588,
            "name": "Schuh Berger",
            "shop": "shoes"
          },
          "geometry": {
            "type": "Point",
            "coordinates": [
              10.5928588,
              48.0031292
            ]
          }
        },
        {
          "type": "Feature",
          "properties": {
            "id": "5128169513",
            "osm_type": "node",
            "lat": 47.9930804,
            "lon": 11.1734994,
            "name": "Shoeties Kinder- und Jugendschuhe",
            "opening_hours": "Mo-Fr 09:00-12:00, 02:30-18:00; Sa 09:00-02:00",
            "shop": "shoes"
          },
          "geometry": {
            "type": "Point",
            "coordinates": [
              11.1734994,
              47.9930804
            ]
          }
        },
        {
          "type": "Feature",
          "properties": {
            "id": "5673253080",
            "osm_type": "node",
            "lat": 47.9498878,
            "lon": 11.1076889,
            "addr:city": "Dießen am Ammersee",
            "addr:country": "DE",
            "addr:housenumber": "12",
            "addr:postcode": "86911",
            "addr:street": "Bahnhofstraße",
            "name": "Sole Runner Barfußschuhe",
            "opening_hours": "Sa 09:00-13:00; PH off; Tu-Fr 10:00-13:00,14:00-18:00",
            "payment:credit_cards": "no",
            "payment:debit_cards": "yes",
            "phone": "+49 8807 2449889",
            "shop": "shoes",
            "website": "https://www.sole-runner-shop.com/"
          },
          "geometry": {
            "type": "Point",
            "coordinates": [
              11.1076889,
              47.9498878
            ]
          }
        },
        {
          "type": "Feature",
          "properties": {
            "id": "8911627813",
            "osm_type": "node",
            "lat": 47.9122749,
            "lon": 11.4204672,
            "addr:city": "Wolfratshausen",
            "addr:country": "DE",
            "addr:housenumber": "7",
            "addr:postcode": "82515",
            "addr:street": "Am Wasen",
            "name": "Bartl",
            "opening_hours": "Mo-Sa 09:30-12:00, Mo, Tu, Th, Fr 14:30-18:00; PH off",
            "shop": "shoes",
            "website": "http://www.schuhbartl.de/"
          },
          "geometry": {
            "type": "Point",
            "coordinates": [
              11.4204672,
              47.9122749
            ]
          }
        },
        {
          "type": "Feature",
          "properties": {
            "id": "10882855668",
            "osm_type": "node",
            "lat": 47.9999553,
            "lon": 11.3431534,
            "addr:city": "Starnberg",
            "addr:housenumber": "18",
            "addr:postcode": "82319",
            "addr:street": "Wittelsbacherstraße",
            "name": "SportSchuh Kunkel",
            "opening_hours": "Mo-Fr 10:00-18:30; Sa 10:00-14:00; Su,PH off",
            "phone": "+49 8151 4543",
            "shop": "shoes",
            "website": "https://www.schuhhaus-kunkel.de/",
            "wheelchair": "limited"
          },
          "geometry": {
            "type": "Point",
            "coordinates": [
              11.3431534,
              47.9999553
            ]
          }
        },
        {
          "type": "Feature",
          "properties": {
            "id": "11262728845",
            "osm_type": "node",
            "lat": 47.9142702,
            "lon": 11.4183048,
            "addr:city": "Wolfratshausen",
            "addr:country": "DE",
            "addr:housenumber": "1",
            "addr:postcode": "82515",
            "addr:street": "Marienplatz",
            "check_date": "2023-10-14",
            "name": "Schuhmoden Meiler",
            "shop": "shoes"
          },
          "geometry": {
            "type": "Point",
            "coordinates": [
              11.4183048,
              47.9142702
            ]
          }
        }
      ],
      "children": []
    },
    {
      "bbox": {
        "south": 48.02541825,
        "west": 9.530952,
        "north": 48.355971499999995,
        "east": 10.484655499999999
      },
      "poiCount": 27,
      "leafCount": 27,
      "averagePosition": [
        9.984062322222222,
        48.2310305037037
      ],
      "data": [
        {
          "type": "Feature",
          "properties": {
            "id": "384756504",
            "osm_type": "node",
            "lat": 48.1667799,
            "lon": 9.789157,
            "brand": "Schuh-Mann",
            "brand:wikidata": "Q66133314",
            "name": "Schuh-Mann",
            "shop": "shoes",
            "source": "knowledge",
            "website": "https://schuh-mann.de/Schuh-Mann-Marktoberdorf/",
            "wheelchair": "yes"
          },
          "geometry": {
            "type": "Point",
            "coordinates": [
              9.789157,
              48.1667799
            ]
          }
        },
        {
          "type": "Feature",
          "properties": {
            "id": "1605645573",
            "osm_type": "node",
            "lat": 48.2832548,
            "lon": 9.7263111,
            "name": "Kern Schuhe",
            "opening_hours": "Mo-Fr 09:00-19:00; Sa 09:00-16:00",
            "shop": "shoes",
            "wheelchair": "no",
            "wheelchair:description": "steile Rampe über 4 Stufen am Eingang"
          },
          "geometry": {
            "type": "Point",
            "coordinates": [
              9.7263111,
              48.2832548
            ]
          }
        },
        {
          "type": "Feature",
          "properties": {
            "id": "1880453673",
            "osm_type": "node",
            "lat": 48.3280815,
            "lon": 9.8945544,
            "addr:housenumber": "18",
            "addr:street": "Donaustetter Straße",
            "name": "Schuhhaus Walter",
            "opening_hours": "Mo-Sa 09:00-19:00",
            "phone": "+49 7305 934144",
            "shop": "shoes",
            "url": "http://walter-schuhe.de/filiale.php?ort=erbach",
            "website": "https://walter-schuhe.de/store-erbach/",
            "wheelchair": "yes"
          },
          "geometry": {
            "type": "Point",
            "coordinates": [
              9.8945544,
              48.3280815
            ]
          }
        },
        {
          "type": "Feature",
          "properties": {
            "id": "2496972280",
            "osm_type": "node",
            "lat": 48.3269011,
            "lon": 9.8969795,
            "brand": "Deichmann",
            "brand:wikidata": "Q664543",
            "brand:wikipedia": "en:Deichmann SE",
            "name": "Deichmann",
            "shop": "shoes"
          },
          "geometry": {
            "type": "Point",
            "coordinates": [
              9.8969795,
              48.3269011
            ]
          }
        },
        {
          "type": "Feature",
          "properties": {
            "id": "3871311494",
            "osm_type": "node",
            "lat": 48.2289439,
            "lon": 9.8847574,
            "addr:city": "Laupheim",
            "addr:country": "DE",
            "addr:housenumber": "12/1",
            "addr:postcode": "88471",
            "addr:street": "Marktplatz",
            "name": "Sießegger Orthopädie Schuhtechnik",
            "shop": "shoes",
            "source": "Datenübernahme von Gebäude"
          },
          "geometry": {
            "type": "Point",
            "coordinates": [
              9.8847574,
              48.2289439
            ]
          }
        },
        {
          "type": "Feature",
          "properties": {
            "id": "3883289676",
            "osm_type": "node",
            "lat": 48.2282891,
            "lon": 9.8851721,
            "addr:city": "Laupheim",
            "addr:country": "DE",
            "addr:housenumber": "6",
            "addr:postcode": "88471",
            "addr:street": "Lange Straße",
            "name": "Braig Schuhe",
            "shop": "shoes",
            "source": "Datenübernahme von Gebäude"
          },
          "geometry": {
            "type": "Point",
            "coordinates": [
              9.8851721,
              48.2282891
            ]
          }
        },
        {
          "type": "Feature",
          "properties": {
            "id": "4709841211",
            "osm_type": "node",
            "lat": 48.235814,
            "lon": 9.6442646,
            "craft": "shoemaker",
            "name": "Müller Schuhe",
            "opening_hours": "Mo-Th 08:30-12:30,14:00-18:00; Sa 08:30-12:30",
            "operator": "Paul Gröber",
            "phone": "+49 7393 2258",
            "shop": "shoes",
            "website": "https://www.mueller-schuhe.de/"
          },
          "geometry": {
            "type": "Point",
            "coordinates": [
              9.6442646,
              48.235814
            ]
          }
        },
        {
          "type": "Feature",
          "properties": {
            "id": "4893134897",
            "osm_type": "node",
            "lat": 48.0725242,
            "lon": 9.9509002,
            "name": "Jäger",
            "shop": "shoes"
          },
          "geometry": {
            "type": "Point",
            "coordinates": [
              9.9509002,
              48.0725242
            ]
          }
        },
        {
          "type": "Feature",
          "properties": {
            "id": "6880938084",
            "osm_type": "node",
            "lat": 48.078193,
            "lon": 9.9486157,
            "addr:city": "Ochsenhausen",
            "addr:housenumber": "69",
            "addr:postcode": "88416",
            "addr:street": "Ulmer Straße",
            "brand": "Quick Schuh",
            "brand:wikidata": "Q2123069",
            "brand:wikipedia": "de:Quick Schuh",
            "name": "Quick Schuh",
            "shop": "shoes"
          },
          "geometry": {
            "type": "Point",
            "coordinates": [
              9.9486157,
              48.078193
            ]
          }
        },
        {
          "type": "Feature",
          "properties": {
            "id": "7329267227",
            "osm_type": "node",
            "lat": 48.2714592,
            "lon": 9.7277677,
            "brand": "Deichmann",
            "brand:wikidata": "Q664543",
            "brand:wikipedia": "en:Deichmann SE",
            "name": "Deichmann",
            "shop": "shoes"
          },
          "geometry": {
            "type": "Point",
            "coordinates": [
              9.7277677,
              48.2714592
            ]
          }
        },
        {
          "type": "Feature",
          "properties": {
            "id": "8075637831",
            "osm_type": "node",
            "lat": 48.2407488,
            "lon": 9.8668599,
            "addr:city": "Laupheim",
            "addr:country": "DE",
            "addr:housenumber": "27/1",
            "addr:postcode": "88471",
            "addr:street": "Neue Welt",
            "name": "Schuh-Schweizer Lagerverkauf",
            "opening_hours": "We-Fr 09:00-18:00; Sa 09:00-16:00",
            "phone": "+49 7392 972734",
            "shop": "shoes",
            "website": "https://www.schuh-schweizer.de/laupheim-lagerverkauf"
          },
          "geometry": {
            "type": "Point",
            "coordinates": [
              9.8668599,
              48.2407488
            ]
          }
        },
        {
          "type": "Feature",
          "properties": {
            "id": "8075637833",
            "osm_type": "node",
            "lat": 48.2218457,
            "lon": 9.8748475,
            "addr:city": "Laupheim",
            "addr:country": "DE",
            "addr:housenumber": "23-25",
            "addr:postcode": "88471",
            "addr:street": "Zeppelinstraße",
            "brand": "Schuh-Schweizer",
            "check_date:opening_hours": "2022-11-21",
            "name": "Schuh Schweizer",
            "opening_hours": "Mo-Fr 09:00-19:00; Sa 09:00-16:00",
            "operator": "Schuh-Schweizer GmbH BCT Schuhhandel GmbH",
            "phone": "+49 7392 901130",
            "shop": "shoes",
            "website": "https://www.schuh-schweizer.de/laupheim",
            "wheelchair": "yes"
          },
          "geometry": {
            "type": "Point",
            "coordinates": [
              9.8748475,
              48.2218457
            ]
          }
        },
        {
          "type": "Feature",
          "properties": {
            "id": "8310747926",
            "osm_type": "node",
            "lat": 48.2200425,
            "lon": 9.8794395,
            "brand": "Deichmann",
            "brand:wikidata": "Q664543",
            "name": "Deichmann",
            "shop": "shoes"
          },
          "geometry": {
            "type": "Point",
            "coordinates": [
              9.8794395,
              48.2200425
            ]
          }
        },
        {
          "type": "Feature",
          "properties": {
            "id": "9006484513",
            "osm_type": "node",
            "lat": 48.235435,
            "lon": 9.6539475,
            "name": "Schuh Mann",
            "shop": "shoes",
            "website": "https://www.schuh-mann.de"
          },
          "geometry": {
            "type": "Point",
            "coordinates": [
              9.6539475,
              48.235435
            ]
          }
        },
        {
          "type": "Feature",
          "properties": {
            "id": "9079420664",
            "osm_type": "node",
            "lat": 48.2836726,
            "lon": 9.7274367,
            "name": "Schuhhaus Maute",
            "opening_hours": "Mo-Fr 09:30-18:00; Sa 09:30-14:00",
            "shop": "shoes"
          },
          "geometry": {
            "type": "Point",
            "coordinates": [
              9.7274367,
              48.2836726
            ]
          }
        },
        {
          "type": "Feature",
          "properties": {
            "id": "310888115",
            "osm_type": "node",
            "lat": 48.3031358,
            "lon": 10.1603296,
            "check_date": "2024-04-11",
            "name": "Wolf – das Schuhhaus",
            "shop": "shoes",
            "wheelchair": "no"
          },
          "geometry": {
            "type": "Point",
            "coordinates": [
              10.1603296,
              48.3031358
            ]
          }
        },
        {
          "type": "Feature",
          "properties": {
            "id": "676201099",
            "osm_type": "node",
            "lat": 48.0389508,
            "lon": 10.3358479,
            "addr:city": "Erkheim",
            "addr:housenumber": "27",
            "addr:postcode": "87746",
            "addr:street": "Günztalstraße",
            "name": "Schuh Hämmerle",
            "shop": "shoes"
          },
          "geometry": {
            "type": "Point",
            "coordinates": [
              10.3358479,
              48.0389508
            ]
          }
        },
        {
          "type": "Feature",
          "properties": {
            "id": "725317937",
            "osm_type": "node",
            "lat": 48.2866125,
            "lon": 10.0776944,
            "brand": "Quick Schuh",
            "brand:wikidata": "Q2123069",
            "brand:wikipedia": "de:Quick Schuh",
            "name": "Quick Schuh",
            "shop": "shoes",
            "wheelchair": "limited"
          },
          "geometry": {
            "type": "Point",
            "coordinates": [
              10.0776944,
              48.2866125
            ]
          }
        },
        {
          "type": "Feature",
          "properties": {
            "id": "1554817351",
            "osm_type": "node",
            "lat": 48.2226833,
            "lon": 10.1040201,
            "level": "0",
            "name": "Roitzheim",
            "opening_hours": "Mo,Tu,Th 09:00-12:30, 14:00-18:00; We,Fr 09:00-13:00, 14:00-18:00; Sa 09:00-13:00",
            "shop": "shoes",
            "wheelchair": "yes"
          },
          "geometry": {
            "type": "Point",
            "coordinates": [
              10.1040201,
              48.2226833
            ]
          }
        },
        {
          "type": "Feature",
          "properties": {
            "id": "1833432225",
            "osm_type": "node",
            "lat": 48.2032181,
            "lon": 10.0750195,
            "addr:city": "Dietenheim",
            "addr:housenumber": "15",
            "addr:postcode": "89165",
            "addr:street": "Bürgermeister-Widmann-Straße",
            "name": "Kern Schuhe",
            "shop": "shoes",
            "wheelchair": "yes"
          },
          "geometry": {
            "type": "Point",
            "coordinates": [
              10.0750195,
              48.2032181
            ]
          }
        },
        {
          "type": "Feature",
          "properties": {
            "id": "2173836177",
            "osm_type": "node",
            "lat": 48.2549983,
            "lon": 10.356551,
            "brand": "KERN",
            "name": "Kern Schuhe",
            "shop": "shoes"
          },
          "geometry": {
            "type": "Point",
            "coordinates": [
              10.356551,
              48.2549983
            ]
          }
        },
        {
          "type": "Feature",
          "properties": {
            "id": "3861716762",
            "osm_type": "node",
            "lat": 48.3079954,
            "lon": 10.1531422,
            "name": "Kern Schuhe",
            "opening_hours": "Mo-Fr 09:00-19:00; Sa 09:00-18:00",
            "shop": "shoes",
            "wheelchair": "yes"
          },
          "geometry": {
            "type": "Point",
            "coordinates": [
              10.1531422,
              48.3079954
            ]
          }
        },
        {
          "type": "Feature",
          "properties": {
            "id": "4220216614",
            "osm_type": "node",
            "lat": 48.3325147,
            "lon": 10.0386579,
            "addr:city": "Senden",
            "addr:country": "DE",
            "addr:housenumber": "13",
            "addr:postcode": "89250",
            "addr:street": "Berliner Straße",
            "brand": "Deichmann",
            "brand:wikidata": "Q664543",
            "brand:wikipedia": "en:Deichmann SE",
            "check_date:opening_hours": "2022-06-25",
            "name": "Deichmann",
            "opening_hours": "Mo-Sa 09:00-20:00",
            "phone": "+49 7307 939235",
            "shop": "shoes",
            "website": "https://www.deichmann.com/"
          },
          "geometry": {
            "type": "Point",
            "coordinates": [
              10.0386579,
              48.3325147
            ]
          }
        },
        {
          "type": "Feature",
          "properties": {
            "id": "5017674119",
            "osm_type": "node",
            "lat": 48.2227132,
            "lon": 10.1080463,
            "name": "Jürgens Laufeck",
            "opening_hours": "Tu, We, Fr 09:00-12:30, 14:00-18:00; Th 09:00-12:30, 14:00-19:30; Sa 09:00-13:00",
            "shop": "shoes"
          },
          "geometry": {
            "type": "Point",
            "coordinates": [
              10.1080463,
              48.2227132
            ]
          }
        },
        {
          "type": "Feature",
          "properties": {
            "id": "6418416180",
            "osm_type": "node",
            "lat": 48.2213007,
            "lon": 10.101463,
            "addr:city": "Illertissen",
            "addr:country": "DE",
            "addr:housenumber": "4",
            "addr:postcode": "89257",
            "addr:street": "Dietenheimer Straße",
            "name": "Kern Schuhe",
            "opening_hours": "Mo-Fr 09:00-19:00; Sa 09:00-18:00",
            "shop": "shoes",
            "website": "https://kernschuhe.de/filialen/filiale-illertissen/"
          },
          "geometry": {
            "type": "Point",
            "coordinates": [
              10.101463,
              48.2213007
            ]
          }
        },
        {
          "type": "Feature",
          "properties": {
            "id": "7598854588",
            "osm_type": "node",
            "lat": 48.1375026,
            "lon": 10.2470735,
            "addr:city": "Babenhausen",
            "addr:country": "DE",
            "addr:housenumber": "10 a",
            "addr:postcode": "87727",
            "addr:street": "Bahnhofstraße",
            "name": "KERN SCHUHE",
            "phone": "+49 8333 934283",
            "shop": "shoes",
            "website": "https://kernschuhe.de"
          },
          "geometry": {
            "type": "Point",
            "coordinates": [
              10.2470735,
              48.1375026
            ]
          }
        },
        {
          "type": "Feature",
          "properties": {
            "id": "10948454805",
            "osm_type": "node",
            "lat": 48.2842129,
            "lon": 10.4608265,
            "addr:city": "Thannhausen",
            "addr:country": "DE",
            "addr:housenumber": "2",
            "addr:postcode": "86470",
            "addr:street": "Rudolf-Diesel-Straße",
            "email": "info@v-markt.de",
            "name": "SCHUHPROFI & MODE",
            "opening_hours": "Mo-Sa 09:00-19:00",
            "operator": "Horst Hermann",
            "phone": "+49 8281 7993068",
            "shop": "shoes",
            "website": "https://www.schuhprofi-thannhausen.de/"
          },
          "geometry": {
            "type": "Point",
            "coordinates": [
              10.4608265,
              48.2842129
            ]
          }
        }
      ],
      "children": []
    },
    {
      "bbox": {
        "south": 48.02541825,
        "west": 10.484655499999999,
        "north": 48.355971499999995,
        "east": 11.438358999999998
      },
      "poiCount": 56,
      "leafCount": 0,
      "averagePosition": [
        11.014288551785715,
        48.16430758571429
      ],
      "data": [],
      "children": [
        {
          "bbox": {
            "south": 48.02541825,
            "west": 10.484655499999999,
            "north": 48.190694875,
            "east": 10.961507249999999
          },
          "poiCount": 21,
          "leafCount": 21,
          "averagePosition": [
            10.70689330952381,
            48.087903852380954
          ],
          "data": [
            {
              "type": "Feature",
              "properties": {
                "id": "583920459",
                "osm_type": "node",
                "lat": 48.0459542,
                "lon": 10.5078243,
                "name": "Kern Schuhe und Mode",
                "shop": "shoes",
                "wheelchair": "yes"
              },
              "geometry": {
                "type": "Point",
                "coordinates": [
                  10.5078243,
                  48.0459542
                ]
              }
            },
            {
              "type": "Feature",
              "properties": {
                "id": "727737503",
                "osm_type": "node",
                "lat": 48.0461079,
                "lon": 10.4868965,
                "addr:city": "Mindelheim",
                "addr:country": "DE",
                "addr:housenumber": "52",
                "addr:postcode": "87719",
                "addr:street": "Maximilianstraße",
                "check_date:opening_hours": "2025-04-23",
                "name": "Schuhhaus Nertinger",
                "opening_hours": "Mo-Sa 09:30-12:30, Mo-Fr 14:00-18:00",
                "shop": "shoes",
                "website": "https://www.nertinger.de/",
                "wheelchair": "yes"
              },
              "geometry": {
                "type": "Point",
                "coordinates": [
                  10.4868965,
                  48.0461079
                ]
              }
            },
            {
              "type": "Feature",
              "properties": {
                "id": "1110710111",
                "osm_type": "node",
                "lat": 48.0449157,
                "lon": 10.5070994,
                "addr:city": "Mindelheim",
                "brand": "Deichmann",
                "brand:wikidata": "Q664543",
                "brand:wikipedia": "en:Deichmann SE",
                "name": "Deichmann",
                "opening_hours": "Mo-Fr 09:00-19:00; Sa 09:00-18:00; So,PH off",
                "shop": "shoes",
                "wheelchair": "yes"
              },
              "geometry": {
                "type": "Point",
                "coordinates": [
                  10.5070994,
                  48.0449157
                ]
              }
            },
            {
              "type": "Feature",
              "properties": {
                "id": "1483908581",
                "osm_type": "node",
                "lat": 48.0466773,
                "lon": 10.4900423,
                "name": "Sauter",
                "opening_hours": "Mo-Fr 09:30-18:00; Sa 09:30-13:00",
                "shop": "shoes",
                "wheelchair": "yes"
              },
              "geometry": {
                "type": "Point",
                "coordinates": [
                  10.4900423,
                  48.0466773
                ]
              }
            },
            {
              "type": "Feature",
              "properties": {
                "id": "6268012416",
                "osm_type": "node",
                "lat": 48.0438802,
                "lon": 10.504953,
                "name": "Gabor Werksverkauf",
                "shop": "shoes"
              },
              "geometry": {
                "type": "Point",
                "coordinates": [
                  10.504953,
                  48.0438802
                ]
              }
            },
            {
              "type": "Feature",
              "properties": {
                "id": "9556595309",
                "osm_type": "node",
                "lat": 48.0517941,
                "lon": 10.489534,
                "name": "Deutschenbaur",
                "shop": "shoes",
                "website": "https://www.orthopaedie-deutschenbaur.com/"
              },
              "geometry": {
                "type": "Point",
                "coordinates": [
                  10.489534,
                  48.0517941
                ]
              }
            },
            {
              "type": "Feature",
              "properties": {
                "id": "399047457",
                "osm_type": "node",
                "lat": 48.1723624,
                "lon": 10.7409068,
                "brand": "Deichmann",
                "brand:wikidata": "Q664543",
                "brand:wikipedia": "en:Deichmann SE",
                "name": "Deichmann",
                "shop": "shoes"
              },
              "geometry": {
                "type": "Point",
                "coordinates": [
                  10.7409068,
                  48.1723624
                ]
              }
            },
            {
              "type": "Feature",
              "properties": {
                "id": "691520039",
                "osm_type": "node",
                "lat": 48.177055,
                "lon": 10.755163,
                "addr:city": "Schwabmünchen",
                "addr:country": "DE",
                "addr:housenumber": "17",
                "addr:postcode": "86830",
                "addr:street": "Mindelheimer Straße",
                "name": "Paul Moll Schuhorthopädie",
                "opening_hours": "Mo-Fr 08:00-12:00,13:00-18:00; Sa 08:30-13:00",
                "phone": "+49 8232 2872",
                "shop": "shoes"
              },
              "geometry": {
                "type": "Point",
                "coordinates": [
                  10.755163,
                  48.177055
                ]
              }
            },
            {
              "type": "Feature",
              "properties": {
                "id": "779526512",
                "osm_type": "node",
                "lat": 48.0556445,
                "lon": 10.892278,
                "brand": "Siemes Schuhcenter",
                "brand:wikidata": "Q2800720",
                "brand:wikipedia": "de:Siemes (Unternehmen)",
                "check_date:opening_hours": "2023-04-01",
                "name": "Siemes Schuhcenter",
                "opening_hours": "Mo-Fr 09:00-20:00; Sa 09:00-18:00",
                "shop": "shoes",
                "wheelchair": "yes"
              },
              "geometry": {
                "type": "Point",
                "coordinates": [
                  10.892278,
                  48.0556445
                ]
              }
            },
            {
              "type": "Feature",
              "properties": {
                "id": "1274777239",
                "osm_type": "node",
                "lat": 48.0540523,
                "lon": 10.8769412,
                "addr:city": "Landsberg am Lech",
                "addr:country": "DE",
                "addr:housenumber": "251",
                "addr:postcode": "86899",
                "addr:street": "Sandauer Straße",
                "craft": "shoemaker",
                "fax": "+49 8191 969141",
                "name": "Fuß- und Orthopädietechnik Michael Schopf",
                "opening_hours": "Mo-Fr 08:30-12:30; Mo, Tu, Th, Fr 14:00-18:00",
                "phone": "+49 8191 12283",
                "shop": "shoes",
                "wheelchair": "yes"
              },
              "geometry": {
                "type": "Point",
                "coordinates": [
                  10.8769412,
                  48.0540523
                ]
              }
            },
            {
              "type": "Feature",
              "properties": {
                "id": "1288721997",
                "osm_type": "node",
                "lat": 48.051937,
                "lon": 10.8777569,
                "name": "MBT-Shop",
                "opening_hours": "Mo-Fr 10:00-13:00,14:00-18:00; Sa 10:00-14:00",
                "phone": "+49 8191 9705290",
                "shop": "shoes",
                "wheelchair": "no"
              },
              "geometry": {
                "type": "Point",
                "coordinates": [
                  10.8777569,
                  48.051937
                ]
              }
            },
            {
              "type": "Feature",
              "properties": {
                "id": "1460315801",
                "osm_type": "node",
                "lat": 48.1392723,
                "lon": 10.5837856,
                "addr:city": "Markt Wald",
                "addr:country": "DE",
                "addr:housenumber": "34",
                "addr:postcode": "86865",
                "addr:street": "Hauptstraße",
                "name": "Schuhaus Glas",
                "shop": "shoes",
                "wheelchair": "no"
              },
              "geometry": {
                "type": "Point",
                "coordinates": [
                  10.5837856,
                  48.1392723
                ]
              }
            },
            {
              "type": "Feature",
              "properties": {
                "id": "5364033074",
                "osm_type": "node",
                "lat": 48.0522059,
                "lon": 10.8770057,
                "addr:city": "Landsberg am Lech",
                "addr:country": "DE",
                "addr:housenumber": "274",
                "addr:postcode": "86899",
                "addr:street": "Vorderer Anger",
                "name": "Schuhhaus Pflanz",
                "shop": "shoes",
                "wheelchair": "yes"
              },
              "geometry": {
                "type": "Point",
                "coordinates": [
                  10.8770057,
                  48.0522059
                ]
              }
            },
            {
              "type": "Feature",
              "properties": {
                "id": "7972716413",
                "osm_type": "node",
                "lat": 48.1772698,
                "lon": 10.758078,
                "name": "Forstner",
                "shop": "shoes"
              },
              "geometry": {
                "type": "Point",
                "coordinates": [
                  10.758078,
                  48.1772698
                ]
              }
            },
            {
              "type": "Feature",
              "properties": {
                "id": "7972744860",
                "osm_type": "node",
                "lat": 48.1761743,
                "lon": 10.7578254,
                "name": "Deutschenbaur",
                "shop": "shoes"
              },
              "geometry": {
                "type": "Point",
                "coordinates": [
                  10.7578254,
                  48.1761743
                ]
              }
            },
            {
              "type": "Feature",
              "properties": {
                "id": "8146649588",
                "osm_type": "node",
                "lat": 48.0732345,
                "lon": 10.8591232,
                "addr:city": "Landsberg am Lech",
                "addr:country": "DE",
                "addr:housenumber": "66",
                "addr:postcode": "86899",
                "addr:street": "Lechwiesenstraße",
                "name": "KERN Schuhe",
                "shop": "shoes"
              },
              "geometry": {
                "type": "Point",
                "coordinates": [
                  10.8591232,
                  48.0732345
                ]
              }
            },
            {
              "type": "Feature",
              "properties": {
                "id": "9014427155",
                "osm_type": "node",
                "lat": 48.0344927,
                "lon": 10.7198131,
                "name": "Rapp",
                "shop": "shoes"
              },
              "geometry": {
                "type": "Point",
                "coordinates": [
                  10.7198131,
                  48.0344927
                ]
              }
            },
            {
              "type": "Feature",
              "properties": {
                "id": "9014474712",
                "osm_type": "node",
                "lat": 48.0349357,
                "lon": 10.7194,
                "name": "Kern Schuhe",
                "shop": "shoes"
              },
              "geometry": {
                "type": "Point",
                "coordinates": [
                  10.7194,
                  48.0349357
                ]
              }
            },
            {
              "type": "Feature",
              "properties": {
                "id": "10983896905",
                "osm_type": "node",
                "lat": 48.0610662,
                "lon": 10.8674858,
                "addr:city": "Landsberg am Lech",
                "addr:country": "DE",
                "addr:housenumber": "52",
                "addr:postcode": "86899",
                "addr:street": "Augsburger Straße",
                "brand": "Deichmann",
                "brand:wikidata": "Q664543",
                "name": "Deichmann",
                "opening_hours": "Mo-Fr 09:00-19:00; Sa 09:00-18:00; PH Su off",
                "payment:cash": "yes",
                "payment:mastercard": "yes",
                "payment:visa": "yes",
                "phone": "+49 8191 922383",
                "shop": "shoes",
                "website": "https://stores.deichmann.com/de-de/de/bayern/landsberg/augsburger-strasse-52",
                "wheelchair": "yes"
              },
              "geometry": {
                "type": "Point",
                "coordinates": [
                  10.8674858,
                  48.0610662
                ]
              }
            },
            {
              "type": "Feature",
              "properties": {
                "id": "12147701790",
                "osm_type": "node",
                "lat": 48.1603133,
                "lon": 10.8157181,
                "addr:city": "Untermeitingen",
                "addr:housenumber": "44",
                "addr:postcode": "86836",
                "addr:street": "Lechfelder Straße",
                "brand": "Schuh-Mann",
                "brand:wikidata": "Q66133314",
                "check_date:opening_hours": "2024-08-09",
                "height": "4.5",
                "name": "Schuh-Mann",
                "opening_hours": "Mo-Fr 09:00-19:00; Sa 09:00-18:00",
                "operator": "Mishoo GmbH",
                "shop": "shoes",
                "website": "https://www.schuh-mann.de/",
                "wheelchair": "yes"
              },
              "geometry": {
                "type": "Point",
                "coordinates": [
                  10.8157181,
                  48.1603133
                ]
              }
            },
            {
              "type": "Feature",
              "properties": {
                "id": "12850656960",
                "osm_type": "node",
                "lat": 48.1466356,
                "lon": 10.7571292,
                "addr:city": "Langerringen",
                "addr:housenumber": "53",
                "addr:postcode": "86853",
                "addr:street": "Hauptstraße",
                "email": "info@barfusswunder.de",
                "level": "0",
                "mobile": "+49 171 4229548",
                "name": "Barfußwunder",
                "opening_hours": "Do-Fr 09:30 - 17:30; Sa 09:30 - 13:00; PH off",
                "shoes": "men;women;children",
                "shop": "shoes",
                "stroller": "yes",
                "website": "https://www.barfusswunder.de",
                "wheelchair": "yes"
              },
              "geometry": {
                "type": "Point",
                "coordinates": [
                  10.7571292,
                  48.1466356
                ]
              }
            }
          ],
          "children": []
        },
        {
          "bbox": {
            "south": 48.02541825,
            "west": 10.961507249999999,
            "north": 48.190694875,
            "east": 11.438358999999998
          },
          "poiCount": 19,
          "leafCount": 19,
          "averagePosition": [
            11.315957031578947,
            48.14528443157895
          ],
          "data": [
            {
              "type": "Feature",
              "properties": {
                "id": "445781757",
                "osm_type": "node",
                "lat": 48.179193,
                "lon": 11.253358,
                "addr:city": "Fürstenfeldbruck",
                "addr:country": "DE",
                "addr:housenumber": "10",
                "addr:postcode": "82256",
                "addr:street": "Pucher Straße",
                "email": "sk@englschalk.de",
                "name": "Englschalk",
                "opening_hours": "Mo-Fr 13:00-18:30,14:00-18:00; Sa 09:00-15:00",
                "phone": "+49 8141 12269",
                "shop": "shoes",
                "website": "https://www.englschalk.de/",
                "wheelchair": "yes"
              },
              "geometry": {
                "type": "Point",
                "coordinates": [
                  11.253358,
                  48.179193
                ]
              }
            },
            {
              "type": "Feature",
              "properties": {
                "id": "471223562",
                "osm_type": "node",
                "lat": 48.1281263,
                "lon": 11.3660348,
                "addr:city": "Germering",
                "addr:country": "DE",
                "addr:housenumber": "53",
                "addr:postcode": "82110",
                "addr:street": "Untere Bahnhofstraße",
                "name": "Schuh & Leder Thumann",
                "opening_hours": "Mo-Fr 09:30-18:30; Sa 09:00-13:30",
                "shop": "shoes",
                "website": "https://www.schuh-thumann.de",
                "wheelchair": "yes"
              },
              "geometry": {
                "type": "Point",
                "coordinates": [
                  11.3660348,
                  48.1281263
                ]
              }
            },
            {
              "type": "Feature",
              "properties": {
                "id": "892190870",
                "osm_type": "node",
                "lat": 48.1372132,
                "lon": 11.3632185,
                "addr:city": "Germering",
                "addr:country": "DE",
                "addr:housenumber": "16",
                "addr:postcode": "82110",
                "addr:street": "Augsburger Straße",
                "name": "Kinderschuhklub",
                "opening_hours": "Mo-Fr 10:00-13:00,14:00-18:00; Sa 09:30-13:00",
                "shop": "shoes"
              },
              "geometry": {
                "type": "Point",
                "coordinates": [
                  11.3632185,
                  48.1372132
                ]
              }
            },
            {
              "type": "Feature",
              "properties": {
                "id": "1137523793",
                "osm_type": "node",
                "lat": 48.1261229,
                "lon": 11.3663946,
                "addr:city": "Germering",
                "addr:country": "DE",
                "addr:housenumber": "3a",
                "addr:postcode": "82110",
                "addr:street": "Otto-Wagner-Straße",
                "name": "Reitstiefel Shop",
                "shoes": "horseback_riding",
                "shop": "shoes",
                "website": "https://www.reitstiefel.shop/pages/ladengeschaft-munchen"
              },
              "geometry": {
                "type": "Point",
                "coordinates": [
                  11.3663946,
                  48.1261229
                ]
              }
            },
            {
              "type": "Feature",
              "properties": {
                "id": "1169047783",
                "osm_type": "node",
                "lat": 48.1762102,
                "lon": 11.2470718,
                "name": "Schuhhaus Pleil",
                "opening_hours": "Mo-Fr 08:30-20:00",
                "shop": "shoes",
                "wheelchair": "yes"
              },
              "geometry": {
                "type": "Point",
                "coordinates": [
                  11.2470718,
                  48.1762102
                ]
              }
            },
            {
              "type": "Feature",
              "properties": {
                "id": "2195766884",
                "osm_type": "node",
                "lat": 48.1866918,
                "lon": 11.3857385,
                "brand": "Deichmann",
                "brand:wikidata": "Q664543",
                "brand:wikipedia": "en:Deichmann SE",
                "check_date:opening_hours": "2022-03-03",
                "name": "Deichmann",
                "opening_hours": "Mo-Sa 09:00-20:00",
                "phone": "+49 8142 2848875",
                "shop": "shoes",
                "website": "https://www.deichmann.com/",
                "wheelchair": "limited"
              },
              "geometry": {
                "type": "Point",
                "coordinates": [
                  11.3857385,
                  48.1866918
                ]
              }
            },
            {
              "type": "Feature",
              "properties": {
                "id": "3113569593",
                "osm_type": "node",
                "lat": 48.1029446,
                "lon": 11.4299047,
                "addr:city": "Planegg",
                "addr:country": "DE",
                "addr:housenumber": "17",
                "addr:postcode": "82152",
                "addr:street": "Münchner Straße",
                "contact:phone": "+49 89 89920008",
                "craft": "shoemaker",
                "name": "Schuhreparaturen",
                "opening_hours": "Mo,Tu,Th,Fr 07:30-12:30,14:00-18:00; We,Sa 07:30-12:00; Su,PH off",
                "operator": "Kurt Selahattin",
                "shop": "shoes"
              },
              "geometry": {
                "type": "Point",
                "coordinates": [
                  11.4299047,
                  48.1029446
                ]
              }
            },
            {
              "type": "Feature",
              "properties": {
                "id": "3258620070",
                "osm_type": "node",
                "lat": 48.1378901,
                "lon": 11.3741204,
                "brand": "Deichmann",
                "brand:wikidata": "Q664543",
                "brand:wikipedia": "en:Deichmann SE",
                "level": "0",
                "name": "Deichmann",
                "opening_hours": "Mo-Sa 09:00-20:00",
                "shop": "shoes",
                "wheelchair": "yes"
              },
              "geometry": {
                "type": "Point",
                "coordinates": [
                  11.3741204,
                  48.1378901
                ]
              }
            },
            {
              "type": "Feature",
              "properties": {
                "id": "3327125273",
                "osm_type": "node",
                "lat": 48.1556942,
                "lon": 11.0768831,
                "addr:city": "Moorenweis",
                "addr:housenumber": "17",
                "addr:postcode": "82272",
                "addr:street": "Lindenstraße",
                "name": "Schuhhaus Schindlmayr",
                "phone": "08146/386",
                "shop": "shoes"
              },
              "geometry": {
                "type": "Point",
                "coordinates": [
                  11.0768831,
                  48.1556942
                ]
              }
            },
            {
              "type": "Feature",
              "properties": {
                "id": "3703473851",
                "osm_type": "node",
                "lat": 48.15154,
                "lon": 11.4201722,
                "email": "info@schuh-haller.de",
                "name": "Haller",
                "opening_hours": "Mo-Fr 08:00-12:00,14:30-18:00; We 08:00-12:00; Th 08:00-12:00,14:30-19:00",
                "phone": "+49 89 434239",
                "shop": "shoes",
                "website": "https://www.schuh-haller.de/",
                "wheelchair": "limited"
              },
              "geometry": {
                "type": "Point",
                "coordinates": [
                  11.4201722,
                  48.15154
                ]
              }
            },
            {
              "type": "Feature",
              "properties": {
                "id": "3719781425",
                "osm_type": "node",
                "lat": 48.1060416,
                "lon": 11.4239456,
                "check_date": "2025-07-08",
                "name": "Schuhe Lugmaier Orthopädie",
                "opening_hours": "Mo-Fr 09:00-18:30; Sa 09:00-14:00; PH off",
                "shop": "shoes"
              },
              "geometry": {
                "type": "Point",
                "coordinates": [
                  11.4239456,
                  48.1060416
                ]
              }
            },
            {
              "type": "Feature",
              "properties": {
                "id": "3719947526",
                "osm_type": "node",
                "lat": 48.1044813,
                "lon": 11.4178578,
                "name": "Profili - Mode, Schuhe, Lederwaren",
                "opening_hours": "Mo-Fr 10:00-13:00, Sa 10:00-13:00; PH off, Mo-Fr 14:30-18:00",
                "shop": "shoes"
              },
              "geometry": {
                "type": "Point",
                "coordinates": [
                  11.4178578,
                  48.1044813
                ]
              }
            },
            {
              "type": "Feature",
              "properties": {
                "id": "4604000190",
                "osm_type": "node",
                "lat": 48.161442,
                "lon": 11.2257577,
                "brand": "Deichmann",
                "brand:wikidata": "Q664543",
                "brand:wikipedia": "en:Deichmann SE",
                "level": "0",
                "name": "Deichmann",
                "opening_hours": "Mo-Sa 09:00-20:00",
                "shop": "shoes",
                "wheelchair": "yes"
              },
              "geometry": {
                "type": "Point",
                "coordinates": [
                  11.2257577,
                  48.161442
                ]
              }
            },
            {
              "type": "Feature",
              "properties": {
                "id": "4604006890",
                "osm_type": "node",
                "lat": 48.1608134,
                "lon": 11.2239925,
                "brand": "MyShoes",
                "brand:wikidata": "Q107091147",
                "level": "0",
                "name": "MyShoes",
                "name:de": "MyShoes",
                "opening_hours": "Mo-Sa 09:00-20:00",
                "shop": "shoes",
                "wheelchair": "yes"
              },
              "geometry": {
                "type": "Point",
                "coordinates": [
                  11.2239925,
                  48.1608134
                ]
              }
            },
            {
              "type": "Feature",
              "properties": {
                "id": "4767138661",
                "osm_type": "node",
                "lat": 48.177063,
                "lon": 11.2547671,
                "addr:city": "Fürstenfeldbruck",
                "addr:housenumber": "10",
                "addr:postcode": "82256",
                "addr:street": "Ledererstraße",
                "fax": "+49 8141 21198",
                "name": "Orthopädie Schuh-Technik Gottmann",
                "opening_hours": "Mo-Fr 08:30-12:30,14:00-18:00",
                "phone": "+49 8141 21198",
                "shop": "shoes"
              },
              "geometry": {
                "type": "Point",
                "coordinates": [
                  11.2547671,
                  48.177063
                ]
              }
            },
            {
              "type": "Feature",
              "properties": {
                "id": "5310934691",
                "osm_type": "node",
                "lat": 48.1790392,
                "lon": 11.253603,
                "addr:city": "Fürstenfeldbruck",
                "addr:country": "DE",
                "addr:housenumber": "5",
                "addr:postcode": "82256",
                "addr:street": "Pucher Straße",
                "email": "sk@englschalk.de",
                "name": "Englschalk",
                "opening_hours": "Mo-Fr 09:00-13:00,14:00-18:00; Sa 09:00-15:00",
                "phone": "+49 8141 12269",
                "shop": "shoes",
                "website": "https://www.englschalk.de/",
                "wheelchair": "yes"
              },
              "geometry": {
                "type": "Point",
                "coordinates": [
                  11.253603,
                  48.1790392
                ]
              }
            },
            {
              "type": "Feature",
              "properties": {
                "id": "5613843435",
                "osm_type": "node",
                "lat": 48.1736909,
                "lon": 11.2642531,
                "addr:city": "Fürstenfeldbruck",
                "addr:country": "DE",
                "addr:housenumber": "2",
                "addr:postcode": "82256",
                "addr:street": "Oskar-von-Miller-Straße",
                "brand": "Quick Schuh",
                "brand:wikidata": "Q2123069",
                "brand:wikipedia": "de:Quick Schuh",
                "name": "Quick Schuh",
                "opening_hours": "Mo-Sa 09:00-20:00",
                "phone": "+49 8141 3568248",
                "shop": "shoes",
                "website": "https://www.schuhe.de/online-kaufen/fuerstenfeldbruck/quick-schuh-1000089421.html"
              },
              "geometry": {
                "type": "Point",
                "coordinates": [
                  11.2642531,
                  48.1736909
                ]
              }
            },
            {
              "type": "Feature",
              "properties": {
                "id": "8724921841",
                "osm_type": "node",
                "lat": 48.0748599,
                "lon": 11.2478147,
                "name": "Schuhhaus Nördinger",
                "shop": "shoes"
              },
              "geometry": {
                "type": "Point",
                "coordinates": [
                  11.2478147,
                  48.0748599
                ]
              }
            },
            {
              "type": "Feature",
              "properties": {
                "id": "10784136292",
                "osm_type": "node",
                "lat": 48.1413466,
                "lon": 11.4082955,
                "addr:city": "München",
                "addr:country": "DE",
                "addr:housenumber": "3",
                "addr:postcode": "81248",
                "addr:street": "Mahatma-Gandhi-Platz",
                "email": "service-de@deichmann.com",
                "level": "0",
                "name": "Deichmann",
                "opening_hours": "Mo-Sa 09:30-20:00",
                "payment:cash": "yes",
                "payment:credit_cards": "yes",
                "payment:mastercard": "yes",
                "payment:visa": "yes",
                "phone": "089 96118634",
                "shop": "shoes",
                "wheelchair": "yes"
              },
              "geometry": {
                "type": "Point",
                "coordinates": [
                  11.4082955,
                  48.1413466
                ]
              }
            }
          ],
          "children": []
        },
        {
          "bbox": {
            "south": 48.190694875,
            "west": 10.484655499999999,
            "north": 48.355971499999995,
            "east": 10.961507249999999
          },
          "poiCount": 6,
          "leafCount": 6,
          "averagePosition": [
            10.845708049999999,
            48.31466051666666
          ],
          "data": [
            {
              "type": "Feature",
              "properties": {
                "id": "620827546",
                "osm_type": "node",
                "lat": 48.3395173,
                "lon": 10.8678595,
                "addr:city": "Augsburg",
                "addr:country": "DE",
                "addr:housenumber": "20",
                "addr:postcode": "86199",
                "addr:street": "Bürgermeister-Aurnhammer-Straße",
                "check_date:opening_hours": "2025-07-23",
                "entrance": "yes",
                "name": "Schuh Fackler",
                "opening_hours": "Mo-Fr 10:00-18:00; Sa 09:00-13:00",
                "phone": "+49 821 92706",
                "shop": "shoes",
                "website": "http://www.schuh-fackler.de",
                "wheelchair": "limited"
              },
              "geometry": {
                "type": "Point",
                "coordinates": [
                  10.8678595,
                  48.3395173
                ]
              }
            },
            {
              "type": "Feature",
              "properties": {
                "id": "684379255",
                "osm_type": "node",
                "lat": 48.3417689,
                "lon": 10.8848898,
                "addr:city": "Augsburg",
                "addr:country": "DE",
                "addr:housenumber": "1",
                "addr:postcode": "86199",
                "addr:street": "Bergiusstraße",
                "contact:phone": "+49 821 9067567",
                "contact:website": "https://www.herrmann-schuhe-mode.de/",
                "name": "Markenschuh Herrmann",
                "opening_hours": "Sa 09:00-19:00; Mo-Fr 09:30-19:00",
                "shop": "shoes",
                "wheelchair": "yes"
              },
              "geometry": {
                "type": "Point",
                "coordinates": [
                  10.8848898,
                  48.3417689
                ]
              }
            },
            {
              "type": "Feature",
              "properties": {
                "id": "800602802",
                "osm_type": "node",
                "lat": 48.3460501,
                "lon": 10.8853371,
                "addr:city": "Augsburg",
                "addr:country": "DE",
                "addr:housenumber": "3",
                "addr:postcode": "86199",
                "addr:street": "Eichleitnerstraße",
                "brand": "Siemes Schuhcenter",
                "brand:wikidata": "Q2800720",
                "brand:wikipedia": "de:Siemes (Unternehmen)",
                "contact:phone": "+49 821 5894308",
                "contact:website": "https://www.schuhcenter.de/",
                "name": "Siemes Schuhcenter",
                "opening_hours": "Mo-Fr 09:30-20:00; Sa 09:00-18:00",
                "operator": "Schuhhaus SIEMES Einkaufs & Beteiligungs GmbH",
                "shop": "shoes"
              },
              "geometry": {
                "type": "Point",
                "coordinates": [
                  10.8853371,
                  48.3460501
                ]
              }
            },
            {
              "type": "Feature",
              "properties": {
                "id": "1152795374",
                "osm_type": "node",
                "lat": 48.2862559,
                "lon": 10.8909952,
                "brand": "Deichmann",
                "brand:wikidata": "Q664543",
                "brand:wikipedia": "en:Deichmann SE",
                "name": "Deichmann",
                "opening_hours": "Mo-Fr 09:00-19:00; Sa 09:00-18:00",
                "shop": "shoes",
                "wheelchair": "yes"
              },
              "geometry": {
                "type": "Point",
                "coordinates": [
                  10.8909952,
                  48.2862559
                ]
              }
            },
            {
              "type": "Feature",
              "properties": {
                "id": "4142127718",
                "osm_type": "node",
                "lat": 48.281892,
                "lon": 10.6550175,
                "name": "Schuh Sport Dempf",
                "shop": "shoes",
                "step_count": "4"
              },
              "geometry": {
                "type": "Point",
                "coordinates": [
                  10.6550175,
                  48.281892
                ]
              }
            },
            {
              "type": "Feature",
              "properties": {
                "id": "13011608971",
                "osm_type": "node",
                "lat": 48.2924789,
                "lon": 10.8901492,
                "addr:city": "Königsbrunn",
                "addr:housenumber": "2",
                "addr:postcode": "86343",
                "addr:street": "Hunnenstraße",
                "name": "Deichmann",
                "shop": "shoes"
              },
              "geometry": {
                "type": "Point",
                "coordinates": [
                  10.8901492,
                  48.2924789
                ]
              }
            }
          ],
          "children": []
        },
        {
          "bbox": {
            "south": 48.190694875,
            "west": 10.961507249999999,
            "north": 48.355971499999995,
            "east": 11.438358999999998
          },
          "poiCount": 10,
          "leafCount": 10,
          "averagePosition": [
            11.18779675,
            48.27068766
          ],
          "data": [
            {
              "type": "Feature",
              "properties": {
                "id": "1184469946",
                "osm_type": "node",
                "lat": 48.2749075,
                "lon": 10.9737269,
                "brand": "Deichmann",
                "brand:wikidata": "Q664543",
                "brand:wikipedia": "en:Deichmann SE",
                "name": "Deichmann",
                "opening_hours": "Mo-Sa 09:00-20:00",
                "phone": "+4982337390896",
                "shop": "shoes",
                "website": "https://www.deichmann.com/de-de/",
                "wheelchair": "yes"
              },
              "geometry": {
                "type": "Point",
                "coordinates": [
                  10.9737269,
                  48.2749075
                ]
              }
            },
            {
              "type": "Feature",
              "properties": {
                "id": "3977234837",
                "osm_type": "node",
                "lat": 48.3546827,
                "lon": 10.9788744,
                "addr:city": "Friedberg",
                "addr:country": "DE",
                "addr:housenumber": "15",
                "addr:postcode": "86316",
                "addr:street": "Marienplatz",
                "email": "info@schuhhaus-kratzer.de",
                "fax": "+49 821 60 91 73",
                "name": "Schuhhaus Kratzer",
                "opening_hours": "Mo-Fr 09:00-18:30; Sa 09:00-14:00",
                "phone": "+49 821 60 91 10",
                "shop": "shoes",
                "website": "https://www.schuhhaus-kratzer.de/",
                "wheelchair": "yes"
              },
              "geometry": {
                "type": "Point",
                "coordinates": [
                  10.9788744,
                  48.3546827
                ]
              }
            },
            {
              "type": "Feature",
              "properties": {
                "id": "6555208157",
                "osm_type": "node",
                "lat": 48.2740773,
                "lon": 10.9766491,
                "name": "Schuh + Sportpalast",
                "phone": "+49 8233 7390744",
                "shop": "shoes",
                "website": "https://www.schuh-frank.de"
              },
              "geometry": {
                "type": "Point",
                "coordinates": [
                  10.9766491,
                  48.2740773
                ]
              }
            },
            {
              "type": "Feature",
              "properties": {
                "id": "6876031753",
                "osm_type": "node",
                "lat": 48.2734115,
                "lon": 10.9775651,
                "brand": "Quick Schuh",
                "brand:wikidata": "Q2123069",
                "brand:wikipedia": "de:Quick Schuh",
                "check_date:opening_hours": "2023-11-16",
                "contact:email": "kontakt@schuhhandel-kern.de",
                "contact:phone": "+49 8233 737682",
                "contact:website": "https://www.schuhe.de/online-kaufen/mering/quick-schuh-1000449298.html",
                "level": "0",
                "name": "Quick Schuh",
                "opening_hours": "Mo-Fr 09:00-19:00; Sa 09:00-17:00; Su,PH off",
                "operator": "Peter Kern Schuhhandel",
                "shop": "shoes",
                "stroller": "yes",
                "wheelchair": "yes"
              },
              "geometry": {
                "type": "Point",
                "coordinates": [
                  10.9775651,
                  48.2734115
                ]
              }
            },
            {
              "type": "Feature",
              "properties": {
                "id": "122159496",
                "osm_type": "node",
                "lat": 48.2034238,
                "lon": 11.3238729,
                "addr:city": "Olching",
                "addr:country": "DE",
                "addr:housenumber": "84",
                "addr:postcode": "82140",
                "addr:street": "Hauptstraße",
                "name": "Enrico Santoro - Einlagen & Schuhtechnik",
                "opening_hours": "Mo-Fr 08:30-12:30, 14:00-18:00",
                "phone": "+49 8142 655 57 82",
                "shoes": "Orthopädisch;einlagen",
                "shop": "shoes",
                "website": "https://einlagen-santoro.de/",
                "wheelchair": "limited"
              },
              "geometry": {
                "type": "Point",
                "coordinates": [
                  11.3238729,
                  48.2034238
                ]
              }
            },
            {
              "type": "Feature",
              "properties": {
                "id": "2278316654",
                "osm_type": "node",
                "lat": 48.2157,
                "lon": 11.2577433,
                "addr:city": "Maisach",
                "addr:country": "DE",
                "addr:housenumber": "14",
                "addr:postcode": "82216",
                "addr:street": "Bahnhofstraße",
                "check_date": "2024-09-20",
                "name": "Schuhhaus Huttenloher",
                "opening_hours": "Mo-Fr 09:00-13:00,14:00-18:00; We,Sa 09:00-13:00",
                "operator": "Andreas Dittrich",
                "phone": "+49 8141 5335775",
                "shop": "shoes",
                "website": "https://www.schuhhaus-huttenloher.de",
                "wheelchair": "no"
              },
              "geometry": {
                "type": "Point",
                "coordinates": [
                  11.2577433,
                  48.2157
                ]
              }
            },
            {
              "type": "Feature",
              "properties": {
                "id": "3899426468",
                "osm_type": "node",
                "lat": 48.1948874,
                "lon": 11.3724558,
                "name": "Andreas Moser Orthopädieschuhmacher",
                "opening_hours": "Mo-Th 08:00-12:30,14:00-18:00; Fr 08:00-12:30,14:00-16:30; Sa 09:00-12:00",
                "phone": "+49 8142 51431",
                "shop": "shoes",
                "website": "http://www.moser-orthopaedie.de/"
              },
              "geometry": {
                "type": "Point",
                "coordinates": [
                  11.3724558,
                  48.1948874
                ]
              }
            },
            {
              "type": "Feature",
              "properties": {
                "id": "7314315758",
                "osm_type": "node",
                "lat": 48.3079825,
                "lon": 11.1999719,
                "name": "Schuh Hiegl",
                "shop": "shoes"
              },
              "geometry": {
                "type": "Point",
                "coordinates": [
                  11.1999719,
                  48.3079825
                ]
              }
            },
            {
              "type": "Feature",
              "properties": {
                "id": "8297555348",
                "osm_type": "node",
                "lat": 48.3472218,
                "lon": 11.3811169,
                "addr:city": "Markt Indersdorf",
                "addr:country": "DE",
                "addr:housenumber": "8a",
                "addr:postcode": "85229",
                "addr:street": "Seilerstraße",
                "brand": "Deichmann",
                "brand:wikidata": "Q664543",
                "brand:wikipedia": "en:Deichmann SE",
                "name": "Deichmann",
                "shop": "shoes",
                "source": "Bayern 2m"
              },
              "geometry": {
                "type": "Point",
                "coordinates": [
                  11.3811169,
                  48.3472218
                ]
              }
            },
            {
              "type": "Feature",
              "properties": {
                "id": "11089124931",
                "osm_type": "node",
                "lat": 48.2605821,
                "lon": 11.4359912,
                "name": "Rössler",
                "shop": "shoes"
              },
              "geometry": {
                "type": "Point",
                "coordinates": [
                  11.4359912,
                  48.2605821
                ]
              }
            }
          ],
          "children": []
        }
      ]
    }
  ]
}