{
  "bbox": {
    "south": 47.033758500000005,
    "west": 11.438358999999998,
    "north": 47.694865,
    "east": 13.345766
  },
  "poiCount": 72,
  "leafCount": 0,
  "averagePosition": [
    12.338323258333336,
    47.45520185555555
  ],
  "data": [],
  "children": [
    {
      "bbox": {
        "south": 47.033758500000005,
        "west": 11.438358999999998,
        "north": 47.36431175,
        "east": 12.392062499999998
      },
      "poiCount": 14,
      "leafCount": 14,
      "averagePosition": [
        11.736548792857144,
        47.28369462142857
      ],
      "data": [
        {
          "type": "Feature",
          "properties": {
            "id": "5031049007",
            "osm_type": "node",
            "lat": 47.278367,
            "lon": 11.4982416,
            "name": "Kotzbeck's",
            "shop": "shoes",
            "website": "https://www.shoesnfeet.at/"
          },
          "geometry": {
            "type": "Point",
            "coordinates": [
              11.4982416,
              47.278367
            ]
          }
        },
        {
          "type": "Feature",
          "properties": {
            "id": "5741264979",
            "osm_type": "node",
            "lat": 47.2744751,
            "lon": 11.4557014,
            "addr:city": "Rum",
            "addr:country": "AT",
            "addr:housenumber": "11",
            "addr:postcode": "6063",
            "addr:street": "Siemensstraße",
            "brand": "shoe4you",
            "brand:wikidata": "Q108006445",
            "name": "shoe4you",
            "opening_hours": "Mo-Fr 09:00-18:30; Sa 09:00-18:00; PH off",
            "phone": "+43 512 265479",
            "shop": "shoes",
            "source": "website",
            "website": "https://www.shoe4you.com/at/storefinder/%C3%96sterreich/Store-Innsbruck-Rum"
          },
          "geometry": {
            "type": "Point",
            "coordinates": [
              11.4557014,
              47.2744751
            ]
          }
        },
        {
          "type": "Feature",
          "properties": {
            "id": "6645039477",
            "osm_type": "node",
            "lat": 47.2818413,
            "lon": 11.5095272,
            "addr:city": "Hall in Tirol",
            "addr:country": "AT",
            "addr:housenumber": "15",
            "addr:postcode": "6060",
            "addr:street": "Rosengasse",
            "addr:suburb": "Pradl",
            "name": "La Scarpa",
            "opening_hours": "Mo-Fr 10:00-12:30; 15:00-18:00; Sa 10:00-12:30; PH off",
            "operator": "Inh. Gerda Steffan",
            "phone": "+43 664 6528076",
            "shop": "shoes",
            "website": "https://www.lascarpa.at/"
          },
          "geometry": {
            "type": "Point",
            "coordinates": [
              11.5095272,
              47.2818413
            ]
          }
        },
        {
          "type": "Feature",
          "properties": {
            "id": "6695540767",
            "osm_type": "node",
            "lat": 47.2774641,
            "lon": 11.4979293,
            "brand": "Deichmann",
            "brand:wikidata": "Q664543",
            "name": "Deichmann",
            "shop": "shoes"
          },
          "geometry": {
            "type": "Point",
            "coordinates": [
              11.4979293,
              47.2774641
            ]
          }
        },
        {
          "type": "Feature",
          "properties": {
            "id": "3263209807",
            "osm_type": "node",
            "lat": 47.3452712,
            "lon": 11.6941171,
            "name": "Prantl Schuhhaus",
            "shop": "shoes",
            "url": "https://www.prantlschuhe.at/"
          },
          "geometry": {
            "type": "Point",
            "coordinates": [
              11.6941171,
              47.3452712
            ]
          }
        },
        {
          "type": "Feature",
          "properties": {
            "id": "3635172806",
            "osm_type": "node",
            "lat": 47.1656501,
            "lon": 11.8624087,
            "check_date": "2025-08-29",
            "name": "Schuhmode Kröll",
            "shop": "shoes"
          },
          "geometry": {
            "type": "Point",
            "coordinates": [
              11.8624087,
              47.1656501
            ]
          }
        },
        {
          "type": "Feature",
          "properties": {
            "id": "7768339202",
            "osm_type": "node",
            "lat": 47.3472054,
            "lon": 11.7075707,
            "addr:city": "Schwaz",
            "addr:housenumber": "10",
            "addr:postcode": "6130",
            "addr:street": "Andreas-Hofer-Straße",
            "brand": "shoe4you",
            "brand:wikidata": "Q108006445",
            "level": "1",
            "name": "shoe4you",
            "opening_hours": "Mo-Fr 09:00-19:00; Sa 09:00-18:00",
            "phone": "+43 3167 8445519",
            "shop": "shoes",
            "website": "https://www.shoe4you.com/at"
          },
          "geometry": {
            "type": "Point",
            "coordinates": [
              11.7075707,
              47.3472054
            ]
          }
        },
        {
          "type": "Feature",
          "properties": {
            "id": "7768339216",
            "osm_type": "node",
            "lat": 47.3473742,
            "lon": 11.7074274,
            "addr:city": "Schwaz",
            "addr:housenumber": "10",
            "addr:postcode": "6130",
            "addr:street": "Andreas-Hofer-Straße",
            "level": "0",
            "name": "Maniolo´s",
            "opening_hours": "Mo-Fr 09:00-19:00; Sa 09:00-18:00",
            "phone": "+43 5242 62819",
            "shop": "shoes",
            "website": "https://shop.schuhe-laner.at/"
          },
          "geometry": {
            "type": "Point",
            "coordinates": [
              11.7074274,
              47.3473742
            ]
          }
        },
        {
          "type": "Feature",
          "properties": {
            "id": "8523375288",
            "osm_type": "node",
            "lat": 47.3455944,
            "lon": 11.8501397,
            "brand": "Quick Schuh",
            "brand:wikidata": "Q2123069",
            "brand:wikipedia": "de:Quick Schuh",
            "name": "Quick Schuh",
            "shop": "shoes"
          },
          "geometry": {
            "type": "Point",
            "coordinates": [
              11.8501397,
              47.3455944
            ]
          }
        },
        {
          "type": "Feature",
          "properties": {
            "id": "8524732585",
            "osm_type": "node",
            "lat": 47.2931974,
            "lon": 11.8743927,
            "name": "Schuster Orthopädie Schuhtechnik",
            "shoes": "orthopaedic",
            "shop": "shoes"
          },
          "geometry": {
            "type": "Point",
            "coordinates": [
              11.8743927,
              47.2931974
            ]
          }
        },
        {
          "type": "Feature",
          "properties": {
            "id": "8536274536",
            "osm_type": "node",
            "lat": 47.1564617,
            "lon": 11.7278331,
            "name": "Schuhe Kreidl",
            "shop": "shoes"
          },
          "geometry": {
            "type": "Point",
            "coordinates": [
              11.7278331,
              47.1564617
            ]
          }
        },
        {
          "type": "Feature",
          "properties": {
            "id": "8625054263",
            "osm_type": "node",
            "lat": 47.2352874,
            "lon": 11.8795744,
            "name": "Schuhhaus Fuchs",
            "shop": "shoes"
          },
          "geometry": {
            "type": "Point",
            "coordinates": [
              11.8795744,
              47.2352874
            ]
          }
        },
        {
          "type": "Feature",
          "properties": {
            "id": "10081333599",
            "osm_type": "node",
            "lat": 47.3508059,
            "lon": 11.6990836,
            "brand": "Deichmann",
            "brand:wikidata": "Q664543",
            "brand:wikipedia": "en:Deichmann SE",
            "name": "Deichmann",
            "shop": "shoes"
          },
          "geometry": {
            "type": "Point",
            "coordinates": [
              11.6990836,
              47.3508059
            ]
          }
        },
        {
          "type": "Feature",
          "properties": {
            "id": "2380504225",
            "osm_type": "node",
            "lat": 47.2727295,
            "lon": 12.3477362,
            "name": "nindl",
            "shop": "shoes"
          },
          "geometry": {
            "type": "Point",
            "coordinates": [
              12.3477362,
              47.2727295
            ]
          }
        }
      ],
      "children": []
    },
    {
      "bbox": {
        "south": 47.033758500000005,
        "west": 12.392062499999998,
        "north": 47.36431175,
        "east": 13.345766
      },
      "poiCount": 9,
      "leafCount": 9,
      "averagePosition": [
        12.943275966666667,
        47.270237622222226
      ],
      "data": [
        {
          "type": "Feature",
          "properties": {
            "id": "11947918778",
            "osm_type": "node",
            "lat": 47.2838327,
            "lon": 12.483667,
            "name": "Scarpa",
            "shop": "shoes"
          },
          "geometry": {
            "type": "Point",
            "coordinates": [
              12.483667,
              47.2838327
            ]
          }
        },
        {
          "type": "Feature",
          "properties": {
            "id": "4429400125",
            "osm_type": "node",
            "lat": 47.3241414,
            "lon": 12.7994904,
            "name": "Steinacher",
            "opening_hours": "Mo-Sa 09:00-12:30, Mo-Fr 14:00-18:00",
            "shop": "shoes"
          },
          "geometry": {
            "type": "Point",
            "coordinates": [
              12.7994904,
              47.3241414
            ]
          }
        },
        {
          "type": "Feature",
          "properties": {
            "id": "4429401573",
            "osm_type": "node",
            "lat": 47.3223008,
            "lon": 12.7976627,
            "name": "Hierandtner",
            "opening_hours": "Mo-Fr 10:00-18:00; Sa 10:00-16:00",
            "shop": "shoes",
            "wheelchair": "no"
          },
          "geometry": {
            "type": "Point",
            "coordinates": [
              12.7976627,
              47.3223008
            ]
          }
        },
        {
          "type": "Feature",
          "properties": {
            "id": "12927621501",
            "osm_type": "node",
            "lat": 47.2863411,
            "lon": 12.5722144,
            "name": "Forster Orthopädieschuhtechnik",
            "shop": "shoes"
          },
          "geometry": {
            "type": "Point",
            "coordinates": [
              12.5722144,
              47.2863411
            ]
          }
        },
        {
          "type": "Feature",
          "properties": {
            "id": "2627682731",
            "osm_type": "node",
            "lat": 47.3452287,
            "lon": 13.19243,
            "addr:city": "Sankt Johann im Pongau",
            "addr:country": "AT",
            "addr:housenumber": "1",
            "addr:postcode": "5600",
            "addr:street": "Reinbachgasse",
            "name": "Jello",
            "shop": "shoes",
            "wheelchair": "yes"
          },
          "geometry": {
            "type": "Point",
            "coordinates": [
              13.19243,
              47.3452287
            ]
          }
        },
        {
          "type": "Feature",
          "properties": {
            "id": "3691803025",
            "osm_type": "node",
            "lat": 47.2380963,
            "lon": 13.200865,
            "name": "Richard Diess",
            "note": "Auch Orthopädie",
            "shop": "shoes"
          },
          "geometry": {
            "type": "Point",
            "coordinates": [
              13.200865,
              47.2380963
            ]
          }
        },
        {
          "type": "Feature",
          "properties": {
            "id": "5660706643",
            "osm_type": "node",
            "lat": 47.1698448,
            "lon": 13.1077798,
            "name": "Schuh Schnöll",
            "opening_hours": "Mo-Fr 08:30-12:00,14:30-18:00; Sa 08:30-12:00",
            "shop": "shoes"
          },
          "geometry": {
            "type": "Point",
            "coordinates": [
              13.1077798,
              47.1698448
            ]
          }
        },
        {
          "type": "Feature",
          "properties": {
            "id": "6185501629",
            "osm_type": "node",
            "lat": 47.1128317,
            "lon": 13.1329355,
            "name": "Pondorfer",
            "opening_hours": "Mo-Fr 08:30-12:00,14:30-18:00",
            "shop": "shoes"
          },
          "geometry": {
            "type": "Point",
            "coordinates": [
              13.1329355,
              47.1128317
            ]
          }
        },
        {
          "type": "Feature",
          "properties": {
            "id": "10977583757",
            "osm_type": "node",
            "lat": 47.3495211,
            "lon": 13.2024389,
            "addr:city": "Sankt Johann im Pongau",
            "addr:country": "AT",
            "addr:housenumber": "2",
            "addr:postcode": "5600",
            "addr:street": "Ing.-Ludwig-Pech-Straße",
            "name": "Novak",
            "opening_hours": "Mo-Fr 09:00-12:00, 14:00-18:00",
            "phone": "+43 6412 4336",
            "shop": "shoes"
          },
          "geometry": {
            "type": "Point",
            "coordinates": [
              13.2024389,
              47.3495211
            ]
          }
        }
      ],
      "children": []
    },
    {
      "bbox": {
        "south": 47.36431175,
        "west": 11.438358999999998,
        "north": 47.694865,
        "east": 12.392062499999998
      },
      "poiCount": 28,
      "leafCount": 28,
      "averagePosition": [
        12.096053939285714,
        47.53254625
      ],
      "data": [
        {
          "type": "Feature",
          "properties": {
            "id": "1738763782",
            "osm_type": "node",
            "lat": 47.693228,
            "lon": 11.7704434,
            "addr:city": "Rottach-Egern",
            "addr:country": "DE",
            "addr:housenumber": "31",
            "addr:postcode": "83700",
            "addr:street": "Nördliche Hauptstraße",
            "name": "Schuhaus Angl",
            "opening_hours": "Mo-Fr 09:30-18:30, Sa 09:30-17:30",
            "shop": "shoes",
            "website": "https://www.schuhhaus-angl.de/geschaefte",
            "wheelchair": "yes"
          },
          "geometry": {
            "type": "Point",
            "coordinates": [
              11.7704434,
              47.693228
            ]
          }
        },
        {
          "type": "Feature",
          "properties": {
            "id": "1909670776",
            "osm_type": "node",
            "lat": 47.4307876,
            "lon": 11.8794358,
            "name": "Schuhhaus Sprenger",
            "shop": "shoes",
            "source": "geoimage.at MaxRes"
          },
          "geometry": {
            "type": "Point",
            "coordinates": [
              11.8794358,
              47.4307876
            ]
          }
        },
        {
          "type": "Feature",
          "properties": {
            "id": "2298376362",
            "osm_type": "node",
            "lat": 47.4362429,
            "lon": 11.8836514,
            "addr:city": "Brixlegg",
            "addr:country": "AT",
            "addr:postcode": "6230",
            "addr:street": "Niederfeldweg",
            "brand": "shoe4you",
            "brand:wikidata": "Q108006445",
            "name": "shoe4you",
            "opening_hours": "Mo-Fr 09:00-18:00; Sa 09:00-17:00",
            "shop": "shoes"
          },
          "geometry": {
            "type": "Point",
            "coordinates": [
              11.8836514,
              47.4362429
            ]
          }
        },
        {
          "type": "Feature",
          "properties": {
            "id": "4526614110",
            "osm_type": "node",
            "lat": 47.3748513,
            "lon": 11.8436866,
            "addr:housenumber": "22",
            "addr:postcode": "6262",
            "addr:street": "Dorfstraße",
            "brand": "Deichmann",
            "brand:wikidata": "Q664543",
            "brand:wikipedia": "en:Deichmann SE",
            "name": "Deichmann",
            "name:de": "Deichmann",
            "shop": "shoes",
            "was:addr:housenumber": "324",
            "was:addr:place": "Schlitters"
          },
          "geometry": {
            "type": "Point",
            "coordinates": [
              11.8436866,
              47.3748513
            ]
          }
        },
        {
          "type": "Feature",
          "properties": {
            "id": "8833675532",
            "osm_type": "node",
            "lat": 47.4286498,
            "lon": 11.8770334,
            "contact:website": "https://www.der-schuh.at/",
            "name": "Der Schuh",
            "opening_hours": "Mo-Fr 09:00-12:30,14:30-18:00; Sa 09:00-12:00",
            "shop": "shoes"
          },
          "geometry": {
            "type": "Point",
            "coordinates": [
              11.8770334,
              47.4286498
            ]
          }
        },
        {
          "type": "Feature",
          "properties": {
            "id": "9034448364",
            "osm_type": "node",
            "lat": 47.4917788,
            "lon": 11.8989457,
            "name": "Monis Schuhe",
            "shop": "shoes"
          },
          "geometry": {
            "type": "Point",
            "coordinates": [
              11.8989457,
              47.4917788
            ]
          }
        },
        {
          "type": "Feature",
          "properties": {
            "id": "11967529200",
            "osm_type": "node",
            "lat": 47.6926331,
            "lon": 11.7703354,
            "name": "Schad",
            "shop": "shoes"
          },
          "geometry": {
            "type": "Point",
            "coordinates": [
              11.7703354,
              47.6926331
            ]
          }
        },
        {
          "type": "Feature",
          "properties": {
            "id": "444858768",
            "osm_type": "node",
            "lat": 47.5945854,
            "lon": 12.1748453,
            "brand": "Deichmann",
            "brand:wikidata": "Q664543",
            "brand:wikipedia": "en:Deichmann SE",
            "check_date": "2024-06-27",
            "name": "Deichmann",
            "opening_hours": "Mo-Fr 08:30-18:30; Sa 08:30-17:00",
            "shop": "shoes"
          },
          "geometry": {
            "type": "Point",
            "coordinates": [
              12.1748453,
              47.5945854
            ]
          }
        },
        {
          "type": "Feature",
          "properties": {
            "id": "1264157739",
            "osm_type": "node",
            "lat": 47.6482917,
            "lon": 12.1719433,
            "name": "Schuhaus Heumann",
            "shop": "shoes"
          },
          "geometry": {
            "type": "Point",
            "coordinates": [
              12.1719433,
              47.6482917
            ]
          }
        },
        {
          "type": "Feature",
          "properties": {
            "id": "1266043656",
            "osm_type": "node",
            "lat": 47.6505173,
            "lon": 12.1608983,
            "name": "SchuhWieDu",
            "shop": "shoes"
          },
          "geometry": {
            "type": "Point",
            "coordinates": [
              12.1608983,
              47.6505173
            ]
          }
        },
        {
          "type": "Feature",
          "properties": {
            "id": "1326854759",
            "osm_type": "node",
            "lat": 47.5848683,
            "lon": 12.17261,
            "entrance": "yes",
            "name": "Horngacher, Finn Comfort",
            "opening_hours": "Mo-Th 09:00-13:00, 14:00-18:00; Fr, Sa 08:30-12:30",
            "shop": "shoes"
          },
          "geometry": {
            "type": "Point",
            "coordinates": [
              12.17261,
              47.5848683
            ]
          }
        },
        {
          "type": "Feature",
          "properties": {
            "id": "1370957472",
            "osm_type": "node",
            "lat": 47.5843977,
            "lon": 12.1717062,
            "check_date": "2024-06-26",
            "name": "Stiefelkater",
            "opening_hours": "Mo-Fr 09:30-18:00; Sa 09:30-16:00",
            "shop": "shoes"
          },
          "geometry": {
            "type": "Point",
            "coordinates": [
              12.1717062,
              47.5843977
            ]
          }
        },
        {
          "type": "Feature",
          "properties": {
            "id": "1371016790",
            "osm_type": "node",
            "lat": 47.5832904,
            "lon": 12.1709954,
            "addr:city": "Kufstein",
            "addr:housenumber": "6",
            "addr:postcode": "6330",
            "addr:street": "Hans Reisch-Straße",
            "check_date": "2024-12-14",
            "name": "Ozon",
            "opening_hours": "Mo-Fr 09:30-12:30, 14:30-18:00; Sa 09:30-16:30",
            "shop": "shoes",
            "website": "https://www.ozon-kufstein.at"
          },
          "geometry": {
            "type": "Point",
            "coordinates": [
              12.1709954,
              47.5832904
            ]
          }
        },
        {
          "type": "Feature",
          "properties": {
            "id": "1569439885",
            "osm_type": "node",
            "lat": 47.4884198,
            "lon": 12.0703685,
            "name": "Shoe4You",
            "opening_hours": "Mo-Fr 09:00-18:30; Sa 09:00-18:00",
            "shop": "shoes"
          },
          "geometry": {
            "type": "Point",
            "coordinates": [
              12.0703685,
              47.4884198
            ]
          }
        },
        {
          "type": "Feature",
          "properties": {
            "id": "1822628037",
            "osm_type": "node",
            "lat": 47.5098768,
            "lon": 12.1202604,
            "name": "Schuh-Fuchs",
            "shop": "shoes"
          },
          "geometry": {
            "type": "Point",
            "coordinates": [
              12.1202604,
              47.5098768
            ]
          }
        },
        {
          "type": "Feature",
          "properties": {
            "id": "2389483324",
            "osm_type": "node",
            "lat": 47.4890886,
            "lon": 12.0601764,
            "addr:city": "Wörgl",
            "addr:country": "AT",
            "addr:housenumber": "21",
            "addr:postcode": "6300",
            "addr:street": "KR Martin Pichler-Straße",
            "alt_name": "Maria's Schuhmoden",
            "contact:email": "gea-info@marias-schuhmoden.at",
            "contact:phone": "+43 5332 22022",
            "contact:website": "https://gea-waldviertler.at",
            "level": "0",
            "name": "GEA",
            "opening_hours": "Mo-Fr 10:00-13:00, 14:00-18:00; Sa 09:00-17:00",
            "operator": "Maria Misslinger",
            "shop": "shoes"
          },
          "geometry": {
            "type": "Point",
            "coordinates": [
              12.0601764,
              47.4890886
            ]
          }
        },
        {
          "type": "Feature",
          "properties": {
            "id": "2946159483",
            "osm_type": "node",
            "lat": 47.5828797,
            "lon": 12.1712014,
            "brand": "ara",
            "brand:wikidata": "Q623598",
            "brand:wikipedia": "de:Ara AG",
            "check_date": "2024-06-27",
            "name": "ara",
            "opening_hours": "Mo-Fr 09:00-12:30, Mo-Fr 14:00-18:00; Sa 09:30-13:00",
            "shop": "shoes"
          },
          "geometry": {
            "type": "Point",
            "coordinates": [
              12.1712014,
              47.5828797
            ]
          }
        },
        {
          "type": "Feature",
          "properties": {
            "id": "3056330071",
            "osm_type": "node",
            "lat": 47.6308127,
            "lon": 12.214496,
            "craft": "shoemaker",
            "name": "Steinbacher",
            "shop": "shoes"
          },
          "geometry": {
            "type": "Point",
            "coordinates": [
              12.214496,
              47.6308127
            ]
          }
        },
        {
          "type": "Feature",
          "properties": {
            "id": "4178821601",
            "osm_type": "node",
            "lat": 47.4896078,
            "lon": 12.0621561,
            "name": "Caracas",
            "opening_hours": "Mo-Fr 09:00-18:00; Sa 09:00-17:00",
            "shop": "shoes",
            "website": "http://www.caracas-shop.at/"
          },
          "geometry": {
            "type": "Point",
            "coordinates": [
              12.0621561,
              47.4896078
            ]
          }
        },
        {
          "type": "Feature",
          "properties": {
            "id": "5417316625",
            "osm_type": "node",
            "lat": 47.4557515,
            "lon": 12.3865014,
            "addr:city": "Kitzbühel",
            "addr:country": "AT",
            "addr:housenumber": "15",
            "addr:postcode": "6370",
            "addr:street": "St. Johanner Straße",
            "check_date": "2024-11-02",
            "email": "marketing@lackner-schuhe.at",
            "fax": "+43 5356 64286-18",
            "name": "Lackner Schuhe",
            "official_name": "Lackner Schuhe Gesellschaft m.b.H. & Co. KG.",
            "opening_hours": "Mo-Fr 09:00-18:00; Sa 09:00-16:00; Su off",
            "operator": "Karl Klaus Lackner",
            "phone": "+43 5356 64286",
            "shop": "shoes",
            "website": "https://www.lackner-shop.com"
          },
          "geometry": {
            "type": "Point",
            "coordinates": [
              12.3865014,
              47.4557515
            ]
          }
        },
        {
          "type": "Feature",
          "properties": {
            "id": "5494619492",
            "osm_type": "node",
            "lat": 47.4898839,
            "lon": 12.0623332,
            "addr:city": "Wörgl",
            "addr:country": "AT",
            "addr:housenumber": "45",
            "addr:postcode": "6300",
            "addr:street": "Bahnhofstraße",
            "at_bev:addr_date": "2017-10-01",
            "contact:phone": "+43533272950",
            "contact:website": "http://www.orthopaedie-schneck.at/",
            "healthcare": "podiatrist",
            "healthcare:speciality": "orthopaedics",
            "name": "Orthopädie Schneck",
            "opening_hours": "Mo-Fr 09:00-12:00, 14:30-17:30; We,Sa 09:00-12:00",
            "shop": "shoes"
          },
          "geometry": {
            "type": "Point",
            "coordinates": [
              12.0623332,
              47.4898839
            ]
          }
        },
        {
          "type": "Feature",
          "properties": {
            "id": "6030115948",
            "osm_type": "node",
            "lat": 47.4473591,
            "lon": 12.3148132,
            "check_date": "2024-02-16",
            "name": "Angermann",
            "opening_hours": "Mo-Fr 08:00-12:00,14:30-18:00; Sa 08:30-12:00",
            "shop": "shoes",
            "wheelchair": "limited"
          },
          "geometry": {
            "type": "Point",
            "coordinates": [
              12.3148132,
              47.4473591
            ]
          }
        },
        {
          "type": "Feature",
          "properties": {
            "id": "6461505586",
            "osm_type": "node",
            "lat": 47.5851162,
            "lon": 12.1719897,
            "check_date": "2024-06-26",
            "contact:phone": "+43 5372 62794",
            "contact:website": "https://vonstoll.com",
            "description": "Handpicked Footwear",
            "name": "Vonstoll",
            "opening_hours": "Mo-Fr 09:30-13:00, 14:00-18:00; Sa 10:00-14:00",
            "shop": "shoes"
          },
          "geometry": {
            "type": "Point",
            "coordinates": [
              12.1719897,
              47.5851162
            ]
          }
        },
        {
          "type": "Feature",
          "properties": {
            "id": "8087320190",
            "osm_type": "node",
            "lat": 47.4860704,
            "lon": 12.0632613,
            "name": "Orthopädie & Schuhtechnik Horngacher",
            "shop": "shoes"
          },
          "geometry": {
            "type": "Point",
            "coordinates": [
              12.0632613,
              47.4860704
            ]
          }
        },
        {
          "type": "Feature",
          "properties": {
            "id": "8679523267",
            "osm_type": "node",
            "lat": 47.4466575,
            "lon": 12.3140502,
            "name": "Gschwantler Shoe Boutique",
            "opening_hours": "Mo-Sa 09:30-18:00",
            "shop": "shoes"
          },
          "geometry": {
            "type": "Point",
            "coordinates": [
              12.3140502,
              47.4466575
            ]
          }
        },
        {
          "type": "Feature",
          "properties": {
            "id": "11444021181",
            "osm_type": "node",
            "lat": 47.5849311,
            "lon": 12.1706951,
            "fixme": "Name des Ladens vom Übersichtsplan. Ist hier noch dieser Laden?",
            "level": "1",
            "name": "maniolo‘s",
            "opening_hours": "Mo-Fr 09:00-18:30; Sa 09:00-18:00; PH off",
            "shop": "shoes"
          },
          "geometry": {
            "type": "Point",
            "coordinates": [
              12.1706951,
              47.5849311
            ]
          }
        },
        {
          "type": "Feature",
          "properties": {
            "id": "11444820720",
            "osm_type": "node",
            "lat": 47.5846176,
            "lon": 12.1692231,
            "fixme": "Name des Ladens vom Übersichtsplan. Ist hier noch dieser Laden?",
            "level": "1",
            "name": "Nipp",
            "opening_hours": "Mo-Fr 09:00-18:00; Sa 09:00-17:00; PH off",
            "shop": "shoes"
          },
          "geometry": {
            "type": "Point",
            "coordinates": [
              12.1692231,
              47.5846176
            ]
          }
        },
        {
          "type": "Feature",
          "properties": {
            "id": "12306766065",
            "osm_type": "node",
            "lat": 47.4461,
            "lon": 12.3914541,
            "check_date": "2025-07-13",
            "check_date:opening_hours": "2025-07-13",
            "name": "Haderer",
            "opening_hours": "Mo-Fr 09:30-13:00,14:00-18:00; Sa 10:00-17:00; Su,PH off",
            "shop": "shoes"
          },
          "geometry": {
            "type": "Point",
            "coordinates": [
              12.3914541,
              47.4461
            ]
          }
        }
      ],
      "children": []
    },
    {
      "bbox": {
        "south": 47.36431175,
        "west": 12.392062499999998,
        "north": 47.694865,
        "east": 13.345766
      },
      "poiCount": 21,
      "leafCount": 21,
      "averagePosition": [
        12.80326654761905,
        47.54568453809524
      ],
      "data": [
        {
          "type": "Feature",
          "properties": {
            "id": "3206556495",
            "osm_type": "node",
            "lat": 47.4875089,
            "lon": 12.5303217,
            "addr:city": "Fieberbrunn",
            "addr:country": "AT",
            "addr:housenumber": "47a",
            "addr:postcode": "6391",
            "addr:street": "Rosenegg",
            "name": "Fuschlberger",
            "shop": "shoes",
            "source": "survey"
          },
          "geometry": {
            "type": "Point",
            "coordinates": [
              12.5303217,
              47.4875089
            ]
          }
        },
        {
          "type": "Feature",
          "properties": {
            "id": "3501618663",
            "osm_type": "node",
            "lat": 47.5233423,
            "lon": 12.4297021,
            "addr:city": "St. Johann in Tirol",
            "addr:country": "AT",
            "addr:housenumber": "13",
            "addr:postcode": "6380",
            "addr:street": "Dechant-Wieshoferstraße",
            "name": "Schuhmoden - Fuschlberger",
            "opening_hours": "Mo-Sa 09:00-12:30,14:00-18:00",
            "operator": "Schuhmoden Fuschlberger GmbH & Co KG",
            "phone": "+436645171779",
            "shop": "shoes",
            "source": "Lokalerhebung 2019",
            "website": "http://www.fuschlberger.com"
          },
          "geometry": {
            "type": "Point",
            "coordinates": [
              12.4297021,
              47.5233423
            ]
          }
        },
        {
          "type": "Feature",
          "properties": {
            "id": "3702849830",
            "osm_type": "node",
            "lat": 47.6659586,
            "lon": 12.4039663,
            "addr:city": "Kössen",
            "addr:country": "AT",
            "addr:housenumber": "26",
            "addr:postcode": "6345",
            "addr:street": "Alleestraße",
            "email": "schuhhaus.schermer@aon.at",
            "fax": "+43 5375 62744",
            "name": "Schermer",
            "opening_hours": "Mo-Fr 08:30-12:30,14:30-18:00; Sa 08:30-12:30",
            "phone": "+43 5375 6274",
            "shop": "shoes",
            "website": "https://www.schuhhaus-schermer.at/",
            "wheelchair": "limited"
          },
          "geometry": {
            "type": "Point",
            "coordinates": [
              12.4039663,
              47.6659586
            ]
          }
        },
        {
          "type": "Feature",
          "properties": {
            "id": "3808099158",
            "osm_type": "node",
            "lat": 47.5236026,
            "lon": 12.431104,
            "addr:city": "St. Johann in Tirol",
            "addr:country": "AT",
            "addr:housenumber": "10",
            "addr:postcode": "6380",
            "addr:street": "Dechant-Wieshoferstraße",
            "alt_name": "Schuhhaus Haselmaier",
            "name": "Lackner Schuhmode & mehr",
            "opening_hours": "Mo-Fr 09:00-12:30,14:30-18:00; Sa 09:00-12:30",
            "operator": "Manuela Holaus-Lackner",
            "phone": "+43535265071",
            "shop": "shoes",
            "source": "Lokalerhebung 2012-2019",
            "website": "http://www.lackner-schuhe.at/de/filiale-st-johann-it.html"
          },
          "geometry": {
            "type": "Point",
            "coordinates": [
              12.431104,
              47.5236026
            ]
          }
        },
        {
          "type": "Feature",
          "properties": {
            "id": "4712865024",
            "osm_type": "node",
            "lat": 47.5222762,
            "lon": 12.4263773,
            "addr:city": "St. Johann in Tirol",
            "addr:country": "AT",
            "addr:housenumber": "6",
            "addr:postcode": "6380",
            "addr:street": "Kaiserstraße",
            "email": "info@golser-schuh.at",
            "name": "Schuhe Golser",
            "opening_hours": "Mo-Fr 10:00-18:30; Sa 10:00-17:00",
            "phone": "+43535262283",
            "shop": "shoes",
            "source": "Lokalerhebung 2012-2019",
            "website": "https://golser-schuh.at/",
            "wheelchair": "yes"
          },
          "geometry": {
            "type": "Point",
            "coordinates": [
              12.4263773,
              47.5222762
            ]
          }
        },
        {
          "type": "Feature",
          "properties": {
            "id": "5812083298",
            "osm_type": "node",
            "lat": 47.5283757,
            "lon": 12.4251195,
            "addr:city": "St. Johann in Tirol",
            "addr:country": "AT",
            "addr:housenumber": "29",
            "addr:postcode": "6380",
            "addr:street": "Salzburgerstraße",
            "brand": "Deichmann",
            "brand:wikidata": "Q664543",
            "brand:wikipedia": "en:Deichmann SE",
            "check_date": "2023-08-23",
            "name": "Deichmann",
            "shop": "shoes",
            "source": "Lokalerhebung 2012-2019",
            "wheelchair": "yes"
          },
          "geometry": {
            "type": "Point",
            "coordinates": [
              12.4251195,
              47.5283757
            ]
          }
        },
        {
          "type": "Feature",
          "properties": {
            "id": "8883475908",
            "osm_type": "node",
            "lat": 47.5571223,
            "lon": 12.4485863,
            "name": "Wieser",
            "shop": "shoes"
          },
          "geometry": {
            "type": "Point",
            "coordinates": [
              12.4485863,
              47.5571223
            ]
          }
        },
        {
          "type": "Feature",
          "properties": {
            "id": "12306762284",
            "osm_type": "node",
            "lat": 47.4450602,
            "lon": 12.3926046,
            "check_date": "2024-11-02",
            "name": "Schuh Outlet",
            "shop": "shoes"
          },
          "geometry": {
            "type": "Point",
            "coordinates": [
              12.3926046,
              47.4450602
            ]
          }
        },
        {
          "type": "Feature",
          "properties": {
            "id": "2122651780",
            "osm_type": "node",
            "lat": 47.63182,
            "lon": 13.0002484,
            "addr:city": "Berchtesgaden",
            "addr:country": "DE",
            "addr:housenumber": "3",
            "addr:postcode": "83471",
            "addr:street": "Dr.-Imhof-Straße",
            "email": "schuh.angerer@t-online.de",
            "fax": "+49 8652 64582",
            "name": "Schuhhaus Angerer",
            "opening_hours": "Mo-Fr 09:00-18:00; Sa 09:00-16:00",
            "phone": "+49 8652 2569",
            "shop": "shoes",
            "website": "https://www.schuhhaus-angerer.de/",
            "wheelchair": "yes"
          },
          "geometry": {
            "type": "Point",
            "coordinates": [
              13.0002484,
              47.63182
            ]
          }
        },
        {
          "type": "Feature",
          "properties": {
            "id": "3206171041",
            "osm_type": "node",
            "lat": 47.4775229,
            "lon": 12.5432172,
            "addr:city": "Fieberbrunn",
            "addr:country": "AT",
            "addr:housenumber": "9",
            "addr:postcode": "6391",
            "addr:street": "Dorfstraße",
            "name": "Stefan Hinterholzer",
            "phone": "+43 05354 56253",
            "shop": "shoes",
            "source": "survey",
            "wheelchair": "yes"
          },
          "geometry": {
            "type": "Point",
            "coordinates": [
              12.5432172,
              47.4775229
            ]
          }
        },
        {
          "type": "Feature",
          "properties": {
            "id": "5983451335",
            "osm_type": "node",
            "lat": 47.4295406,
            "lon": 12.8421739,
            "addr:city": "Saalfelden am Steinernen Meer",
            "addr:housenumber": "24",
            "addr:postcode": "5760",
            "addr:street": "Leogangerstraße",
            "brand": "Deichmann",
            "brand:wikidata": "Q664543",
            "brand:wikipedia": "en:Deichmann SE",
            "name": "Deichmann",
            "ref:vatin": "ATU14877203",
            "shop": "shoes"
          },
          "geometry": {
            "type": "Point",
            "coordinates": [
              12.8421739,
              47.4295406
            ]
          }
        },
        {
          "type": "Feature",
          "properties": {
            "id": "7951706157",
            "osm_type": "node",
            "lat": 47.6031995,
            "lon": 12.9854102,
            "level": "0",
            "name": "Schuh Biberger",
            "opening_hours": "Tu-Sa 10:00-12:00, Tu,Th,Fr 15:00-17:00; PH off",
            "shoes:repair": "yes",
            "shop": "shoes",
            "wheelchair": "limited",
            "wheelchair:description": "Stufe mit 15cm Höhe",
            "wheelchair:entrance_width": "100",
            "wheelchair:step_height": "15"
          },
          "geometry": {
            "type": "Point",
            "coordinates": [
              12.9854102,
              47.6031995
            ]
          }
        },
        {
          "type": "Feature",
          "properties": {
            "id": "8886957522",
            "osm_type": "node",
            "lat": 47.5854741,
            "lon": 12.5672312,
            "name": "Ringschuh Foidl",
            "shop": "shoes"
          },
          "geometry": {
            "type": "Point",
            "coordinates": [
              12.5672312,
              47.5854741
            ]
          }
        },
        {
          "type": "Feature",
          "properties": {
            "id": "958316658",
            "osm_type": "node",
            "lat": 47.5637523,
            "lon": 13.3449268,
            "name": "Schwaighofer Schuhe und Lederwaren",
            "shop": "shoes",
            "website": "https://www.intersport-schwaighofer.at/"
          },
          "geometry": {
            "type": "Point",
            "coordinates": [
              13.3449268,
              47.5637523
            ]
          }
        },
        {
          "type": "Feature",
          "properties": {
            "id": "1100444225",
            "osm_type": "node",
            "lat": 47.6863445,
            "lon": 13.1077684,
            "addr:city": "Hallein",
            "addr:country": "AT",
            "addr:housename": "Deichmann",
            "addr:housenumber": "28",
            "addr:postcode": "5400",
            "addr:street": "Europastraße",
            "brand": "Deichmann",
            "brand:wikidata": "Q664543",
            "brand:wikipedia": "en:Deichmann SE",
            "name": "Deichmann",
            "opening_hours": "Mo-Fr 08:30-18:30; Sa 08:30-17:00",
            "shop": "shoes"
          },
          "geometry": {
            "type": "Point",
            "coordinates": [
              13.1077684,
              47.6863445
            ]
          }
        },
        {
          "type": "Feature",
          "properties": {
            "id": "3535011986",
            "osm_type": "node",
            "lat": 47.6264295,
            "lon": 13.1458224,
            "addr:city": "Kuchl",
            "addr:country": "AT",
            "addr:housenumber": "14",
            "addr:postcode": "5431",
            "addr:street": "Markt",
            "name": "Schuhe Unterwurzacher",
            "operator": "Fam. Unterwurzacher",
            "shop": "shoes"
          },
          "geometry": {
            "type": "Point",
            "coordinates": [
              13.1458224,
              47.6264295
            ]
          }
        },
        {
          "type": "Feature",
          "properties": {
            "id": "5747845358",
            "osm_type": "node",
            "lat": 47.4161743,
            "lon": 13.218673,
            "addr:city": "Bischofshofen",
            "addr:country": "AT",
            "addr:housenumber": "10",
            "addr:postcode": "5500",
            "addr:street": "Bahnhofstraße",
            "at_bev:addr_date": "2017-10-01",
            "check_date": "2024-07-29",
            "name": "Novak",
            "opening_hours": "Mo,Fr 09:00-12:30,14:00-18:00; Tu-Th 09:00-12:00,14:00-18:00; Sa 09:00-12:30,14:00-16:00",
            "shop": "shoes"
          },
          "geometry": {
            "type": "Point",
            "coordinates": [
              13.218673,
              47.4161743
            ]
          }
        },
        {
          "type": "Feature",
          "properties": {
            "id": "10253674659",
            "osm_type": "node",
            "lat": 47.4088856,
            "lon": 13.2175202,
            "addr:city": "Bischofshofen",
            "addr:country": "AT",
            "addr:housenumber": "49",
            "addr:postcode": "5500",
            "addr:street": "Gasteiner Straße",
            "brand": "Deichmann",
            "brand:wikidata": "Q664543",
            "name": "Deichmann",
            "shop": "shoes"
          },
          "geometry": {
            "type": "Point",
            "coordinates": [
              13.2175202,
              47.4088856
            ]
          }
        },
        {
          "type": "Feature",
          "properties": {
            "id": "10657379398",
            "osm_type": "node",
            "lat": 47.6827033,
            "lon": 13.0980786,
            "name": "Gruber Schuhe",
            "shop": "shoes"
          },
          "geometry": {
            "type": "Point",
            "coordinates": [
              13.0980786,
              47.6827033
            ]
          }
        },
        {
          "type": "Feature",
          "properties": {
            "id": "10720582555",
            "osm_type": "node",
            "lat": 47.6827986,
            "lon": 13.0923638,
            "addr:city": "Hallein",
            "addr:country": "AT",
            "addr:housenumber": "2",
            "addr:postcode": "5400",
            "addr:street": "Wichtlhuberstraße",
            "contact:email": "info@gehma-cityshop.com",
            "contact:phone": "+43 6245 81113",
            "contact:website": "https://www.gehma.at/",
            "name": "Gehma Cityshop",
            "opening_hours": "Mo-Fr 09:00-12:30, 14:30-18:00; Sa 09:00-12:00",
            "shop": "shoes"
          },
          "geometry": {
            "type": "Point",
            "coordinates": [
              13.0923638,
              47.6827986
            ]
          }
        },
        {
          "type": "Feature",
          "properties": {
            "id": "12901421249",
            "osm_type": "node",
            "lat": 47.4114833,
            "lon": 13.2173816,
            "brand": "shoe4you",
            "brand:wikidata": "Q108006445",
            "name": "shoe4you",
            "opening_hours": "Mo-Fr 09:00-18:00; Sa 09:00-17:00",
            "shop": "shoes"
          },
          "geometry": {
            "type": "Point",
            "coordinates": [
              13.2173816,
              47.4114833
            ]
          }
        }
      ],
      "children": []
    }
  ]
}