{
  "bbox": {
    "south": 47.033758500000005,
    "west": 15.253173,
    "north": 47.694865,
    "east": 17.16058
  },
  "poiCount": 81,
  "leafCount": 0,
  "averagePosition": [
    15.806184854320989,
    47.215621854320986
  ],
  "data": [],
  "children": [
    {
      "bbox": {
        "south": 47.033758500000005,
        "west": 15.253173,
        "north": 47.36431175,
        "east": 16.2068765
      },
      "poiCount": 56,
      "leafCount": 0,
      "averagePosition": [
        15.6179058,
        47.13888286785715
      ],
      "data": [],
      "children": [
        {
          "bbox": {
            "south": 47.033758500000005,
            "west": 15.253173,
            "north": 47.199035125,
            "east": 15.73002475
          },
          "poiCount": 36,
          "leafCount": 36,
          "averagePosition": [
            15.47127365,
            47.07444081944445
          ],
          "data": [
            {
              "type": "Feature",
              "properties": {
                "id": "478061669",
                "osm_type": "node",
                "lat": 47.0739037,
                "lon": 15.4356432,
                "addr:city": "Graz",
                "addr:country": "AT",
                "addr:housenumber": "36",
                "addr:postcode": "8010",
                "addr:street": "Sackstraße",
                "name": "GEA",
                "shop": "shoes"
              },
              "geometry": {
                "type": "Point",
                "coordinates": [
                  15.4356432,
                  47.0739037
                ]
              }
            },
            {
              "type": "Feature",
              "properties": {
                "id": "616898594",
                "osm_type": "node",
                "lat": 47.0718068,
                "lon": 15.4381537,
                "addr:city": "Graz",
                "addr:country": "AT",
                "addr:housenumber": "5",
                "addr:postcode": "8010",
                "addr:street": "Sporgasse",
                "brand": "Foot Locker",
                "brand:wikidata": "Q63335",
                "brand:wikipedia": "en:Foot Locker",
                "check_date:opening_hours": "2022-11-12",
                "last_checked": "2016-07-10",
                "name": "Foot Locker",
                "old:amenity": "cafe",
                "old_name": "Haltestelle",
                "opening_hours": "Mo-Fr 10:00-19:00; Sa 10:00-18:00",
                "shop": "shoes",
                "source": "survey",
                "wheelchair": "no"
              },
              "geometry": {
                "type": "Point",
                "coordinates": [
                  15.4381537,
                  47.0718068
                ]
              }
            },
            {
              "type": "Feature",
              "properties": {
                "id": "926922313",
                "osm_type": "node",
                "lat": 47.0410794,
                "lon": 15.4612215,
                "addr:city": "Graz",
                "addr:country": "AT",
                "addr:housenumber": "3",
                "addr:postcode": "8041",
                "addr:street": "Ostbahnstraße",
                "level": "0",
                "name": "Stiefelkönig",
                "shop": "shoes",
                "wheelchair": "yes"
              },
              "geometry": {
                "type": "Point",
                "coordinates": [
                  15.4612215,
                  47.0410794
                ]
              }
            },
            {
              "type": "Feature",
              "properties": {
                "id": "926922340",
                "osm_type": "node",
                "lat": 47.0410022,
                "lon": 15.4613323,
                "addr:city": "Graz",
                "addr:country": "AT",
                "addr:housenumber": "3",
                "addr:postcode": "8041",
                "addr:street": "Ostbahnstraße",
                "brand": "Humanic",
                "brand:wikidata": "Q1636668",
                "brand:wikipedia": "en:Humanic",
                "level": "1",
                "name": "Humanic",
                "shop": "shoes",
                "wheelchair": "yes"
              },
              "geometry": {
                "type": "Point",
                "coordinates": [
                  15.4613323,
                  47.0410022
                ]
              }
            },
            {
              "type": "Feature",
              "properties": {
                "id": "960249733",
                "osm_type": "node",
                "lat": 47.0669769,
                "lon": 15.4421844,
                "addr:city": "Graz",
                "addr:country": "AT",
                "addr:housenumber": "17",
                "addr:postcode": "8010",
                "addr:street": "Jakominiplatz",
                "brand": "Snipes",
                "brand:wikidata": "Q42306166",
                "brand:wikipedia": "de:Snipes (Unternehmen)",
                "check_date": "2025-08-25",
                "check_date:opening_hours": "2023-04-26",
                "name": "Snipes",
                "old_name": "Monzero",
                "opening_hours": "Mo-Fr 10:00-19:00; Sa 10:00-18:00",
                "shop": "shoes",
                "start_date": "2016/09/08",
                "website": "https://www.snipes.at/",
                "wheelchair": "yes"
              },
              "geometry": {
                "type": "Point",
                "coordinates": [
                  15.4421844,
                  47.0669769
                ]
              }
            },
            {
              "type": "Feature",
              "properties": {
                "id": "971748352",
                "osm_type": "node",
                "lat": 47.0677633,
                "lon": 15.4419126,
                "addr:city": "Graz",
                "addr:country": "AT",
                "addr:housenumber": "1-4",
                "addr:postcode": "8010",
                "addr:street": "Jakominiplatz",
                "brand": "shoe4you",
                "brand:wikidata": "Q108006445",
                "contact:phone": "+43 316 7844 2624",
                "level": "0;1",
                "name": "shoe4you",
                "opening_hours": "Mo-Fr 09:00-18:30; Sa 09:00-18:00",
                "payment:credit_cards": "yes",
                "payment:debit_cards": "yes",
                "shop": "shoes",
                "start_date": "Nov. 2015",
                "website": "https://www.shoe4you.com/at",
                "wheelchair": "yes"
              },
              "geometry": {
                "type": "Point",
                "coordinates": [
                  15.4419126,
                  47.0677633
                ]
              }
            },
            {
              "type": "Feature",
              "properties": {
                "id": "994994627",
                "osm_type": "node",
                "lat": 47.061017,
                "lon": 15.4204841,
                "addr:city": "Graz",
                "addr:country": "AT",
                "addr:housenumber": "30",
                "addr:postcode": "8020",
                "addr:street": "Kärntner Straße",
                "contact:phone": "+43 316 720 561",
                "name": "Pittarello",
                "opening_hours": "Mo-Fr 09:00-19:00; Sa 09:00-18:00",
                "shop": "shoes",
                "website": "https://stores.pittarello.com/de/austria/graz"
              },
              "geometry": {
                "type": "Point",
                "coordinates": [
                  15.4204841,
                  47.061017
                ]
              }
            },
            {
              "type": "Feature",
              "properties": {
                "id": "1492540523",
                "osm_type": "node",
                "lat": 47.0705531,
                "lon": 15.439513,
                "addr:city": "Graz",
                "addr:country": "AT",
                "addr:housenumber": "7",
                "addr:postcode": "8010",
                "addr:street": "Herrengasse",
                "name": "hōgl",
                "opening_hours": "Mo-Fr 10:00-18:30; Sa 10:00-18:00",
                "shop": "shoes",
                "source": "survey"
              },
              "geometry": {
                "type": "Point",
                "coordinates": [
                  15.439513,
                  47.0705531
                ]
              }
            },
            {
              "type": "Feature",
              "properties": {
                "id": "1567937674",
                "osm_type": "node",
                "lat": 47.0684625,
                "lon": 15.4398325,
                "shop": "shoes",
                "source": "survey"
              },
              "geometry": {
                "type": "Point",
                "coordinates": [
                  15.4398325,
                  47.0684625
                ]
              }
            },
            {
              "type": "Feature",
              "properties": {
                "id": "1789077950",
                "osm_type": "node",
                "lat": 47.1002365,
                "lon": 15.4155562,
                "addr:city": "Graz",
                "addr:country": "AT",
                "addr:housenumber": "2",
                "addr:postcode": "8045",
                "addr:street": "Am Arlandgrund",
                "brand": "Deichmann",
                "brand:wikidata": "Q664543",
                "brand:wikipedia": "en:Deichmann SE",
                "check_date": "2024-12-30",
                "name": "Deichmann",
                "shop": "shoes",
                "source": "survey"
              },
              "geometry": {
                "type": "Point",
                "coordinates": [
                  15.4155562,
                  47.1002365
                ]
              }
            },
            {
              "type": "Feature",
              "properties": {
                "id": "2136753476",
                "osm_type": "node",
                "lat": 47.0708059,
                "lon": 15.4330814,
                "addr:city": "Graz",
                "addr:country": "AT",
                "addr:housenumber": "9",
                "addr:postcode": "8020",
                "addr:street": "Südtiroler Platz",
                "contact:website": "https://shop.superbarefoot.com/",
                "name": "superbarefoot",
                "opening_hours": "Mo-Fr 10:00-13:00,13:30-18:00; Sa 10:00-13:00,13:30-17:00",
                "outdoor_seating": "no",
                "shop": "shoes",
                "source": "survey",
                "wheelchair": "limited"
              },
              "geometry": {
                "type": "Point",
                "coordinates": [
                  15.4330814,
                  47.0708059
                ]
              }
            },
            {
              "type": "Feature",
              "properties": {
                "id": "2401290240",
                "osm_type": "node",
                "lat": 47.0663529,
                "lon": 15.4520289,
                "name": "Marx Schuster",
                "opening_hours": "Mo-Th 08:00-12:00",
                "shop": "shoes"
              },
              "geometry": {
                "type": "Point",
                "coordinates": [
                  15.4520289,
                  47.0663529
                ]
              }
            },
            {
              "type": "Feature",
              "properties": {
                "id": "2617062230",
                "osm_type": "node",
                "lat": 47.0705056,
                "lon": 15.4337926,
                "addr:city": "Graz",
                "addr:country": "AT",
                "addr:housenumber": "4",
                "addr:postcode": "8020",
                "addr:street": "Griesgasse",
                "name": "GEA",
                "official_name": "GEA Heinrich Staudinger GmbH",
                "opening_hours": "Mo-Fr 09:30-13:00, 14:00-18:00; Sa 09:30-13:00, 14:00-17:00",
                "shop": "shoes",
                "website": "https://gea-waldviertler.at/shop/filiale/gea-graz",
                "wheelchair": "no"
              },
              "geometry": {
                "type": "Point",
                "coordinates": [
                  15.4337926,
                  47.0705056
                ]
              }
            },
            {
              "type": "Feature",
              "properties": {
                "id": "2977507430",
                "osm_type": "node",
                "lat": 47.0723696,
                "lon": 15.4401327,
                "addr:city": "Graz",
                "addr:country": "AT",
                "addr:housenumber": "10",
                "addr:postcode": "8010",
                "addr:street": "Hofgasse",
                "contact:mobile": "+43 664 914 88 60",
                "contact:phone": "+43 316 67 40 10",
                "last_checked": "2017-12-05",
                "name": "Schuhwerk",
                "opening_hours": "Mo-Fr 10:00-18:00; Sa 10:00-16:00",
                "operator": "Alois Prutsch",
                "shop": "shoes",
                "source": "survey",
                "website": "https://www.schuhwerk.cc"
              },
              "geometry": {
                "type": "Point",
                "coordinates": [
                  15.4401327,
                  47.0723696
                ]
              }
            },
            {
              "type": "Feature",
              "properties": {
                "id": "2990091569",
                "osm_type": "node",
                "lat": 47.0597691,
                "lon": 15.4283435,
                "brand": "CCC",
                "brand:wikidata": "Q11788344",
                "brand:wikipedia": "de:CCC (Unternehmen)",
                "level": "0",
                "loc_ref": "23a",
                "name": "CCC",
                "room": "yes",
                "shop": "shoes"
              },
              "geometry": {
                "type": "Point",
                "coordinates": [
                  15.4283435,
                  47.0597691
                ]
              }
            },
            {
              "type": "Feature",
              "properties": {
                "id": "2990091622",
                "osm_type": "node",
                "lat": 47.0602954,
                "lon": 15.4269818,
                "level": "0",
                "loc_ref": "34",
                "name": "Shoeextra",
                "room": "yes",
                "shop": "shoes"
              },
              "geometry": {
                "type": "Point",
                "coordinates": [
                  15.4269818,
                  47.0602954
                ]
              }
            },
            {
              "type": "Feature",
              "properties": {
                "id": "3034544835",
                "osm_type": "node",
                "lat": 47.0710768,
                "lon": 15.437715,
                "addr:city": "Graz",
                "addr:country": "AT",
                "addr:housenumber": "7",
                "addr:postcode": "8010",
                "addr:street": "Hauptplatz",
                "brand": "ara",
                "brand:wikidata": "Q623598",
                "check_date": "2019-10-06",
                "last_checked": "2016-07-10",
                "name": "ara",
                "opening_hours": "Mo-Sa 09:00-18:00",
                "payment:american_express": "yes",
                "payment:diners_club": "yes",
                "payment:jcb": "yes",
                "payment:maestro": "yes",
                "payment:mastercard": "yes",
                "payment:visa": "yes",
                "shop": "shoes",
                "wheelchair": "yes"
              },
              "geometry": {
                "type": "Point",
                "coordinates": [
                  15.437715,
                  47.0710768
                ]
              }
            },
            {
              "type": "Feature",
              "properties": {
                "id": "3639483722",
                "osm_type": "node",
                "lat": 47.1035257,
                "lon": 15.4012642,
                "name": "KIDS SHOE OUTLET",
                "shop": "shoes",
                "wheelchair": "yes"
              },
              "geometry": {
                "type": "Point",
                "coordinates": [
                  15.4012642,
                  47.1035257
                ]
              }
            },
            {
              "type": "Feature",
              "properties": {
                "id": "3763384981",
                "osm_type": "node",
                "lat": 47.072097,
                "lon": 15.4372217,
                "addr:city": "Graz",
                "addr:country": "AT",
                "addr:housenumber": "12",
                "addr:postcode": "8010",
                "addr:street": "Sackstraße",
                "level": "0",
                "name": "Ludwig Reiter",
                "opening_hours": "Mo,We-Fr 10:00-18:30; Sa 10:00-17:00; Tu off",
                "shop": "shoes",
                "source": "survey",
                "wheelchair": "no",
                "wheelchair:description": "1 Stufe"
              },
              "geometry": {
                "type": "Point",
                "coordinates": [
                  15.4372217,
                  47.072097
                ]
              }
            },
            {
              "type": "Feature",
              "properties": {
                "id": "3799574442",
                "osm_type": "node",
                "lat": 47.0709928,
                "lon": 15.432233,
                "addr:city": "Graz",
                "addr:country": "AT",
                "addr:housenumber": "1",
                "addr:postcode": "8020",
                "addr:street": "Annenstraße",
                "check_date:opening_hours": "2025-06-06",
                "gender": "female",
                "name": "Baumgartner",
                "opening_hours": "Mo-Fr 09:30-18:00; Sa 09:30-17:00",
                "shop": "shoes",
                "wheelchair": "no"
              },
              "geometry": {
                "type": "Point",
                "coordinates": [
                  15.432233,
                  47.0709928
                ]
              }
            },
            {
              "type": "Feature",
              "properties": {
                "id": "3994392558",
                "osm_type": "node",
                "lat": 47.0683372,
                "lon": 15.4481882,
                "addr:city": "Graz",
                "addr:country": "AT",
                "addr:housenumber": "3",
                "addr:postcode": "8010",
                "addr:street": "Mandellstraße",
                "check_date:opening_hours": "2025-07-25",
                "name": "Schwar Orthopädische Schuhe",
                "opening_hours": "Mo-Th 08:00-16:30; Fr 08:00-15:00",
                "phone": "+43 316 826061",
                "shop": "shoes",
                "website": "https://www.orthopaedie-schwar.at/",
                "wheelchair": "no"
              },
              "geometry": {
                "type": "Point",
                "coordinates": [
                  15.4481882,
                  47.0683372
                ]
              }
            },
            {
              "type": "Feature",
              "properties": {
                "id": "4298815834",
                "osm_type": "node",
                "lat": 47.0706428,
                "lon": 15.4398019,
                "addr:city": "Graz",
                "addr:country": "AT",
                "addr:housenumber": "7",
                "addr:postcode": "8010",
                "addr:street": "Herrengasse",
                "brand": "Salamander",
                "brand:wikidata": "Q878354",
                "brand:wikipedia": "de:Salamander (Schuhe)",
                "name": "Salamander",
                "shop": "shoes"
              },
              "geometry": {
                "type": "Point",
                "coordinates": [
                  15.4398019,
                  47.0706428
                ]
              }
            },
            {
              "type": "Feature",
              "properties": {
                "id": "4304587609",
                "osm_type": "node",
                "lat": 47.0705103,
                "lon": 15.4395711,
                "addr:city": "Graz",
                "addr:country": "AT",
                "addr:housenumber": "7",
                "addr:postcode": "8010",
                "addr:street": "Herrengasse",
                "brand": "Salamander",
                "brand:wikidata": "Q878354",
                "brand:wikipedia": "de:Salamander (Schuhe)",
                "name": "Salamander",
                "opening_hours": "Mo-Fr 09:30-18:30; Sa 10:00-17:00",
                "shop": "shoes"
              },
              "geometry": {
                "type": "Point",
                "coordinates": [
                  15.4395711,
                  47.0705103
                ]
              }
            },
            {
              "type": "Feature",
              "properties": {
                "id": "4343162736",
                "osm_type": "node",
                "lat": 47.0667125,
                "lon": 15.4457335,
                "addr:city": "Graz",
                "addr:country": "AT",
                "addr:housenumber": "20",
                "addr:postcode": "8010",
                "addr:street": "Reitschulgasse",
                "brand": "oekosozialmarkt",
                "check_date": "2025-08-25",
                "name": "Casa Selkis",
                "official_name": "Casa Selkis Youssef KG",
                "opening_hours": "Mo-Fr 09:00-17:00; Sa 09:00-13:00",
                "shop": "shoes",
                "source": "webseiten",
                "url": "http://casa-selkis.bosolei.com",
                "website": "http://jakomini.heinzelmaennchen.at/data/18177/",
                "wheelchair": "yes"
              },
              "geometry": {
                "type": "Point",
                "coordinates": [
                  15.4457335,
                  47.0667125
                ]
              }
            },
            {
              "type": "Feature",
              "properties": {
                "id": "6110989870",
                "osm_type": "node",
                "lat": 47.0657219,
                "lon": 15.4638449,
                "addr:city": "Graz",
                "addr:country": "AT",
                "addr:housenumber": "43",
                "addr:postcode": "8010",
                "addr:street": "Plüddemanngasse",
                "check_date:opening_hours": "2023-04-16",
                "contact:phone": "+43316 847 933",
                "contact:website": "https://www.ortho-edelsbrunner.at/",
                "health_facility:type": "center",
                "healthcare": "podiatrist",
                "name": "Edelsbrunner Orthopädie-Schuhe und Fußpflege",
                "old_name": "Austria Video Ring",
                "opening_hours": "Mo-Th 07:00-12:30,14:00-18:00; Fr 07:00-12:30,14:00-17:00; Sa off",
                "parking": "yes",
                "shop": "shoes",
                "start_date": "2018-12-03"
              },
              "geometry": {
                "type": "Point",
                "coordinates": [
                  15.4638449,
                  47.0657219
                ]
              }
            },
            {
              "type": "Feature",
              "properties": {
                "id": "6606029832",
                "osm_type": "node",
                "lat": 47.0826749,
                "lon": 15.4127533,
                "addr:city": "Graz",
                "addr:housenumber": "15",
                "addr:postcode": "8020",
                "addr:street": "Lastenstraße",
                "brand": "Humanic",
                "brand:wikidata": "Q1636668",
                "name": "Humanic Outlet",
                "opening_hours": "Mo-Fr 09:00-18:30; Sa 09:00-18:00; Su,PH off",
                "payment:cards": "yes",
                "payment:cash": "yes",
                "shop": "shoes"
              },
              "geometry": {
                "type": "Point",
                "coordinates": [
                  15.4127533,
                  47.0826749
                ]
              }
            },
            {
              "type": "Feature",
              "properties": {
                "id": "7314175234",
                "osm_type": "node",
                "lat": 47.1038729,
                "lon": 15.4001433,
                "brand": "Deichmann",
                "brand:wikidata": "Q664543",
                "brand:wikipedia": "en:Deichmann SE",
                "name": "Deichmann",
                "shop": "shoes",
                "wheelchair": "yes"
              },
              "geometry": {
                "type": "Point",
                "coordinates": [
                  15.4001433,
                  47.1038729
                ]
              }
            },
            {
              "type": "Feature",
              "properties": {
                "id": "9308874176",
                "osm_type": "node",
                "lat": 47.1048441,
                "lon": 15.3978659,
                "brand": "shoe4you",
                "brand:wikidata": "Q108006445",
                "level": "0",
                "name": "shoe4you",
                "shop": "shoes",
                "wheelchair": "yes"
              },
              "geometry": {
                "type": "Point",
                "coordinates": [
                  15.3978659,
                  47.1048441
                ]
              }
            },
            {
              "type": "Feature",
              "properties": {
                "id": "9714560877",
                "osm_type": "node",
                "lat": 47.0346204,
                "lon": 15.4169156,
                "brand": "Deichmann",
                "brand:wikidata": "Q664543",
                "level": "0",
                "name": "Deichmann",
                "shop": "shoes",
                "wheelchair": "yes"
              },
              "geometry": {
                "type": "Point",
                "coordinates": [
                  15.4169156,
                  47.0346204
                ]
              }
            },
            {
              "type": "Feature",
              "properties": {
                "id": "9714560878",
                "osm_type": "node",
                "lat": 47.0345081,
                "lon": 15.4168847,
                "brand": "shoe4you",
                "brand:wikidata": "Q108006445",
                "level": "0",
                "name": "shoe4you",
                "shop": "shoes",
                "wheelchair": "yes"
              },
              "geometry": {
                "type": "Point",
                "coordinates": [
                  15.4168847,
                  47.0345081
                ]
              }
            },
            {
              "type": "Feature",
              "properties": {
                "id": "12355052933",
                "osm_type": "node",
                "lat": 47.0719921,
                "lon": 15.4244988,
                "addr:city": "Graz",
                "addr:housenumber": "4",
                "addr:postcode": "8020",
                "addr:street": "Hans-Resel-Gasse",
                "name": "Bergfuchs",
                "opening_hours": "Mo-Fr 09:00-18:00",
                "shop": "shoes"
              },
              "geometry": {
                "type": "Point",
                "coordinates": [
                  15.4244988,
                  47.0719921
                ]
              }
            },
            {
              "type": "Feature",
              "properties": {
                "id": "1828913559",
                "osm_type": "node",
                "lat": 47.1052585,
                "lon": 15.7103925,
                "addr:city": "Gleisdorf",
                "addr:country": "AT",
                "addr:housenumber": "12",
                "addr:postcode": "8200",
                "addr:street": "Hauptplatz",
                "email": "office@stibor-schuhe.at",
                "name": "Popcorner",
                "shop": "shoes"
              },
              "geometry": {
                "type": "Point",
                "coordinates": [
                  15.7103925,
                  47.1052585
                ]
              }
            },
            {
              "type": "Feature",
              "properties": {
                "id": "3014110109",
                "osm_type": "node",
                "lat": 47.1047165,
                "lon": 15.7078807,
                "addr:city": "Gleisdorf",
                "addr:country": "AT",
                "addr:housenumber": "23",
                "addr:postcode": "8200",
                "addr:street": "Bürgergasse",
                "contact:email": "office@stibor-schuhe.at",
                "name": "Stibor Damenschuhe & Kinderschuhe",
                "shop": "shoes"
              },
              "geometry": {
                "type": "Point",
                "coordinates": [
                  15.7078807,
                  47.1047165
                ]
              }
            },
            {
              "type": "Feature",
              "properties": {
                "id": "3048508791",
                "osm_type": "node",
                "lat": 47.1047972,
                "lon": 15.7081979,
                "addr:city": "Gleisdorf",
                "addr:country": "AT",
                "addr:housenumber": "16",
                "addr:postcode": "8200",
                "addr:street": "Bürgergasse",
                "contact:email": "office@stibor-schuhe.at",
                "name": "August Stibor Herrenschuhe",
                "shop": "shoes"
              },
              "geometry": {
                "type": "Point",
                "coordinates": [
                  15.7081979,
                  47.1047972
                ]
              }
            },
            {
              "type": "Feature",
              "properties": {
                "id": "3048532393",
                "osm_type": "node",
                "lat": 47.1050919,
                "lon": 15.705617,
                "addr:city": "Gleisdorf",
                "addr:country": "AT",
                "addr:housenumber": "27",
                "addr:postcode": "8200",
                "addr:street": "Ludwig-Binder-Straße",
                "brand": "Deichmann",
                "brand:wikidata": "Q664543",
                "brand:wikipedia": "en:Deichmann SE",
                "name": "Deichmann",
                "phone": "+43 3112 52 00",
                "shop": "shoes",
                "toilets:wheelchair": "no",
                "wheelchair": "yes"
              },
              "geometry": {
                "type": "Point",
                "coordinates": [
                  15.705617,
                  47.1050919
                ]
              }
            },
            {
              "type": "Feature",
              "properties": {
                "id": "6049540937",
                "osm_type": "node",
                "lat": 47.104976,
                "lon": 15.7089338,
                "addr:city": "Gleisdorf",
                "addr:country": "AT",
                "addr:housenumber": "4",
                "addr:postcode": "8200",
                "addr:street": "Bürgergasse",
                "at_bev:addr_date": "2018-10-01",
                "email": "office@ertl-schuhe.at",
                "name": "Schuhhaus Ertl",
                "shop": "shoes",
                "source": "geoimage.at"
              },
              "geometry": {
                "type": "Point",
                "coordinates": [
                  15.7089338,
                  47.104976
                ]
              }
            }
          ],
          "children": []
        },
        {
          "bbox": {
            "south": 47.033758500000005,
            "west": 15.73002475,
            "north": 47.199035125,
            "east": 16.2068765
          },
          "poiCount": 2,
          "leafCount": 2,
          "averagePosition": [
            16.084597950000003,
            47.1007617
          ],
          "data": [
            {
              "type": "Feature",
              "properties": {
                "id": "2667286601",
                "osm_type": "node",
                "lat": 47.0592872,
                "lon": 16.0684578,
                "brand": "Deichmann",
                "brand:wikidata": "Q664543",
                "brand:wikipedia": "en:Deichmann SE",
                "name": "Deichmann",
                "shop": "shoes",
                "wheelchair": "yes"
              },
              "geometry": {
                "type": "Point",
                "coordinates": [
                  16.0684578,
                  47.0592872
                ]
              }
            },
            {
              "type": "Feature",
              "properties": {
                "id": "4036860633",
                "osm_type": "node",
                "lat": 47.1422362,
                "lon": 16.1007381,
                "addr:city": "Burgau",
                "addr:housenumber": "60",
                "addr:postcode": "8291",
                "addr:street": "Bahnhofstraße",
                "name": "Schuhhaus Wurzinger Marianne",
                "shop": "shoes"
              },
              "geometry": {
                "type": "Point",
                "coordinates": [
                  16.1007381,
                  47.1422362
                ]
              }
            }
          ],
          "children": []
        },
        {
          "bbox": {
            "south": 47.199035125,
            "west": 15.253173,
            "north": 47.36431175,
            "east": 15.73002475
          },
          "poiCount": 6,
          "leafCount": 6,
          "averagePosition": [
            15.539236266666668,
            47.247975450000006
          ],
          "data": [
            {
              "type": "Feature",
              "properties": {
                "id": "4159496684",
                "osm_type": "node",
                "lat": 47.2823322,
                "lon": 15.5145339,
                "addr:city": "Passail",
                "addr:country": "AT",
                "addr:housenumber": "18",
                "addr:postcode": "8162",
                "addr:street": "Markt",
                "contact:email": "pieber.schuhe@aon.at",
                "contact:phone": "+433179 23 279",
                "name": "Schuhfachgeschäft Pieber",
                "shop": "shoes"
              },
              "geometry": {
                "type": "Point",
                "coordinates": [
                  15.5145339,
                  47.2823322
                ]
              }
            },
            {
              "type": "Feature",
              "properties": {
                "id": "4159496688",
                "osm_type": "node",
                "lat": 47.2815995,
                "lon": 15.5147357,
                "addr:city": "Passail",
                "addr:country": "AT",
                "addr:housenumber": "12",
                "addr:postcode": "8162",
                "addr:street": "Markt",
                "contact:email": "maria.flicker@aon.at",
                "contact:phone": "+433179 23 517",
                "name": "Schuhhaus Hasenhüttl",
                "opening_hours": "Mo-Fr 08:00-12:00,15:00-18:00",
                "shop": "shoes"
              },
              "geometry": {
                "type": "Point",
                "coordinates": [
                  15.5147357,
                  47.2815995
                ]
              }
            },
            {
              "type": "Feature",
              "properties": {
                "id": "5336449093",
                "osm_type": "node",
                "lat": 47.2710935,
                "lon": 15.3265017,
                "name": "Schiestl",
                "opening_hours": "Mo-Fr 08:30-12:00,15:00-17:15; Sa 08:30-12:00",
                "phone": "+43 3126 2386",
                "shop": "shoes"
              },
              "geometry": {
                "type": "Point",
                "coordinates": [
                  15.3265017,
                  47.2710935
                ]
              }
            },
            {
              "type": "Feature",
              "properties": {
                "id": "5206978930",
                "osm_type": "node",
                "lat": 47.2181341,
                "lon": 15.6240431,
                "addr:city": "Weiz",
                "addr:country": "AT",
                "addr:housenumber": "9a",
                "addr:postcode": "8160",
                "addr:street": "Bismarckgasse",
                "name": "Schuhhaus Nagl",
                "opening_hours": "Mo-Fr 8:30-12:30,14:00-18:00;Sa 8:30-12:30",
                "shop": "shoes"
              },
              "geometry": {
                "type": "Point",
                "coordinates": [
                  15.6240431,
                  47.2181341
                ]
              }
            },
            {
              "type": "Feature",
              "properties": {
                "id": "7561644653",
                "osm_type": "node",
                "lat": 47.2175422,
                "lon": 15.6276073,
                "name": "Baumgartner Schuhe",
                "shop": "shoes"
              },
              "geometry": {
                "type": "Point",
                "coordinates": [
                  15.6276073,
                  47.2175422
                ]
              }
            },
            {
              "type": "Feature",
              "properties": {
                "id": "7625931875",
                "osm_type": "node",
                "lat": 47.2171512,
                "lon": 15.6279959,
                "addr:city": "Weiz",
                "addr:housenumber": "12",
                "addr:postcode": "8160",
                "addr:street": "Birkfelder Straße",
                "name": "Schubidu Kinder- & Jugendschuhe",
                "shop": "shoes"
              },
              "geometry": {
                "type": "Point",
                "coordinates": [
                  15.6279959,
                  47.2171512
                ]
              }
            }
          ],
          "children": []
        },
        {
          "bbox": {
            "south": 47.199035125,
            "west": 15.73002475,
            "north": 47.36431175,
            "east": 16.2068765
          },
          "poiCount": 12,
          "leafCount": 12,
          "averagePosition": [
            16.019354991666667,
            47.28401625
          ],
          "data": [
            {
              "type": "Feature",
              "properties": {
                "id": "1544247690",
                "osm_type": "node",
                "lat": 47.2811871,
                "lon": 15.9947534,
                "addr:city": "Hartberg",
                "addr:country": "AT",
                "addr:housenumber": "12",
                "addr:postcode": "8230",
                "addr:street": "Im Hatric",
                "brand": "Deichmann",
                "brand:wikidata": "Q664543",
                "brand:wikipedia": "en:Deichmann SE",
                "name": "Deichmann",
                "opening_hours": "Mo-Fr 08:30-18:30; Sa 08:30-17:00",
                "phone": "+43 3332 63075",
                "shop": "shoes",
                "website": "https://www.deichmann.com/AT/de/shop"
              },
              "geometry": {
                "type": "Point",
                "coordinates": [
                  15.9947534,
                  47.2811871
                ]
              }
            },
            {
              "type": "Feature",
              "properties": {
                "id": "1550162464",
                "osm_type": "node",
                "lat": 47.2808112,
                "lon": 15.97077,
                "addr:city": "Hartberg",
                "addr:country": "AT",
                "addr:housenumber": "28",
                "addr:postcode": "8230",
                "addr:street": "Michaeligasse",
                "branch": "Ecco Store",
                "brand": "Geox",
                "brand:wikidata": "Q588001",
                "brand:wikipedia": "en:Geox",
                "name": "Geox",
                "shop": "shoes"
              },
              "geometry": {
                "type": "Point",
                "coordinates": [
                  15.97077,
                  47.2808112
                ]
              }
            },
            {
              "type": "Feature",
              "properties": {
                "id": "1550162482",
                "osm_type": "node",
                "lat": 47.2801169,
                "lon": 15.9684134,
                "brand": "Salamander",
                "brand:wikidata": "Q878354",
                "brand:wikipedia": "de:Salamander (Schuhe)",
                "name": "Salamander",
                "shop": "shoes"
              },
              "geometry": {
                "type": "Point",
                "coordinates": [
                  15.9684134,
                  47.2801169
                ]
              }
            },
            {
              "type": "Feature",
              "properties": {
                "id": "1555869819",
                "osm_type": "node",
                "lat": 47.2807728,
                "lon": 15.9719703,
                "name": "Peinsipp Orthopädie",
                "shop": "shoes"
              },
              "geometry": {
                "type": "Point",
                "coordinates": [
                  15.9719703,
                  47.2807728
                ]
              }
            },
            {
              "type": "Feature",
              "properties": {
                "id": "1598988902",
                "osm_type": "node",
                "lat": 47.2904387,
                "lon": 15.978478,
                "addr:city": "Hartberg",
                "addr:country": "AT",
                "addr:housenumber": "55/6",
                "addr:postcode": "8230",
                "addr:street": "Raimund-Obendrauf-Straße",
                "name": "Ortho-Aktiv Orthopädie",
                "shop": "shoes"
              },
              "geometry": {
                "type": "Point",
                "coordinates": [
                  15.978478,
                  47.2904387
                ]
              }
            },
            {
              "type": "Feature",
              "properties": {
                "id": "1598988907",
                "osm_type": "node",
                "lat": 47.2726856,
                "lon": 15.9633379,
                "brand": "Reno",
                "brand:wikidata": "Q2144204",
                "brand:wikipedia": "de:Reno (Schuhhandel)",
                "name": "Reno",
                "shop": "shoes"
              },
              "geometry": {
                "type": "Point",
                "coordinates": [
                  15.9633379,
                  47.2726856
                ]
              }
            },
            {
              "type": "Feature",
              "properties": {
                "id": "8252853749",
                "osm_type": "node",
                "lat": 47.3010197,
                "lon": 15.8336551,
                "name": "Schuhhaus Pöltl",
                "shoes:repair": "yes",
                "shop": "shoes"
              },
              "geometry": {
                "type": "Point",
                "coordinates": [
                  15.8336551,
                  47.3010197
                ]
              }
            },
            {
              "type": "Feature",
              "properties": {
                "id": "9805824839",
                "osm_type": "node",
                "lat": 47.2813594,
                "lon": 15.9947029,
                "addr:city": "Hartberg",
                "addr:housenumber": "12",
                "addr:postcode": "8230",
                "addr:street": "Im Hatric",
                "brand": "CCC",
                "brand:wikidata": "Q11788344",
                "name": "CCC",
                "phone": "+433332 63314",
                "shop": "shoes",
                "website": "https://ccc.eu/at/"
              },
              "geometry": {
                "type": "Point",
                "coordinates": [
                  15.9947029,
                  47.2813594
                ]
              }
            },
            {
              "type": "Feature",
              "properties": {
                "id": "9805824848",
                "osm_type": "node",
                "lat": 47.2809246,
                "lon": 15.9910295,
                "addr:city": "Hartberg",
                "addr:housenumber": "2",
                "addr:postcode": "8230",
                "addr:street": "Im Hatric",
                "brand": "shoe4you",
                "brand:wikidata": "Q108006445",
                "name": "shoe4you",
                "opening_hours": "Mo-Fr 09:00-18:00; Sa 09:00-17:00",
                "phone": "+43 316 78442624",
                "shop": "shoes",
                "website": "https://www.shoe4you.com"
              },
              "geometry": {
                "type": "Point",
                "coordinates": [
                  15.9910295,
                  47.2809246
                ]
              }
            },
            {
              "type": "Feature",
              "properties": {
                "id": "8394711292",
                "osm_type": "node",
                "lat": 47.2857808,
                "lon": 16.1884326,
                "brand": "Deichmann",
                "brand:wikidata": "Q664543",
                "brand:wikipedia": "en:Deichmann SE",
                "name": "Deichmann",
                "shop": "shoes"
              },
              "geometry": {
                "type": "Point",
                "coordinates": [
                  16.1884326,
                  47.2857808
                ]
              }
            },
            {
              "type": "Feature",
              "properties": {
                "id": "8394711295",
                "osm_type": "node",
                "lat": 47.286289,
                "lon": 16.1885105,
                "brand": "shoe4you",
                "brand:wikidata": "Q108006445",
                "name": "shoe4you",
                "shop": "shoes"
              },
              "geometry": {
                "type": "Point",
                "coordinates": [
                  16.1885105,
                  47.286289
                ]
              }
            },
            {
              "type": "Feature",
              "properties": {
                "id": "8394711299",
                "osm_type": "node",
                "lat": 47.2868092,
                "lon": 16.1882063,
                "brand": "Snipes",
                "brand:wikidata": "Q42306166",
                "brand:wikipedia": "de:Snipes (Unternehmen)",
                "name": "Snipes",
                "shop": "shoes"
              },
              "geometry": {
                "type": "Point",
                "coordinates": [
                  16.1882063,
                  47.2868092
                ]
              }
            }
          ],
          "children": []
        }
      ]
    },
    {
      "bbox": {
        "south": 47.033758500000005,
        "west": 16.2068765,
        "north": 47.36431175,
        "east": 17.16058
      },
      "poiCount": 12,
      "leafCount": 12,
      "averagePosition": [
        16.617919975,
        47.206533183333335
      ],
      "data": [
        {
          "type": "Feature",
          "properties": {
            "id": "2414311124",
            "osm_type": "node",
            "lat": 47.2886129,
            "lon": 16.2108133,
            "name": "DELKA",
            "shop": "shoes"
          },
          "geometry": {
            "type": "Point",
            "coordinates": [
              16.2108133,
              47.2886129
            ]
          }
        },
        {
          "type": "Feature",
          "properties": {
            "id": "12731344788",
            "osm_type": "node",
            "lat": 47.0594381,
            "lon": 16.3257339,
            "name": "Trummer",
            "opening_hours": "Mo 08:30-12:30,14:00-17:00, Tu,Th 08:30-12:30, We,Fr 08:30-12:30,14:00-17:30, Sa 09:00-12:00",
            "phone": "+43 664 4332520",
            "shop": "shoes"
          },
          "geometry": {
            "type": "Point",
            "coordinates": [
              16.3257339,
              47.0594381
            ]
          }
        },
        {
          "type": "Feature",
          "properties": {
            "id": "12763028849",
            "osm_type": "node",
            "lat": 47.0705326,
            "lon": 16.3207258,
            "name": "Deichmann",
            "opening_hours": "Mo-Fr 09:00-18:30; Sa 09:00-17:00",
            "shop": "shoes"
          },
          "geometry": {
            "type": "Point",
            "coordinates": [
              16.3207258,
              47.0705326
            ]
          }
        },
        {
          "type": "Feature",
          "properties": {
            "id": "623924622",
            "osm_type": "node",
            "lat": 47.2466118,
            "lon": 16.955771,
            "brand": "Deichmann",
            "name": "Deichmann",
            "shop": "shoes"
          },
          "geometry": {
            "type": "Point",
            "coordinates": [
              16.955771,
              47.2466118
            ]
          }
        },
        {
          "type": "Feature",
          "properties": {
            "id": "834681854",
            "osm_type": "node",
            "lat": 47.2553796,
            "lon": 16.6212418,
            "brand": "Deichmann",
            "brand:wikidata": "Q664543",
            "brand:wikipedia": "en:Deichmann SE",
            "name": "Deichmann",
            "opening_hours": "Mo-Sa 09:00-20:00; Su 10:00-18:00",
            "shop": "shoes",
            "wheelchair": "yes"
          },
          "geometry": {
            "type": "Point",
            "coordinates": [
              16.6212418,
              47.2553796
            ]
          }
        },
        {
          "type": "Feature",
          "properties": {
            "id": "1757122663",
            "osm_type": "node",
            "lat": 47.3104144,
            "lon": 16.9283884,
            "name": "Dr. Lupo",
            "shop": "shoes"
          },
          "geometry": {
            "type": "Point",
            "coordinates": [
              16.9283884,
              47.3104144
            ]
          }
        },
        {
          "type": "Feature",
          "properties": {
            "id": "2936998913",
            "osm_type": "node",
            "lat": 47.2169529,
            "lon": 16.6187494,
            "brand": "Deichmann",
            "brand:wikidata": "Q664543",
            "brand:wikipedia": "en:Deichmann SE",
            "name": "Deichmann",
            "opening_hours": "closed",
            "shop": "shoes"
          },
          "geometry": {
            "type": "Point",
            "coordinates": [
              16.6187494,
              47.2169529
            ]
          }
        },
        {
          "type": "Feature",
          "properties": {
            "id": "3134947402",
            "osm_type": "node",
            "lat": 47.0966498,
            "lon": 16.878024,
            "name": "Meindl cipőbolt",
            "opening_hours": "Mo-Th 06:30-14:30, Fr 06:30-11:30",
            "second_hand": "yes",
            "shop": "shoes"
          },
          "geometry": {
            "type": "Point",
            "coordinates": [
              16.878024,
              47.0966498
            ]
          }
        },
        {
          "type": "Feature",
          "properties": {
            "id": "3384202111",
            "osm_type": "node",
            "lat": 47.2359852,
            "lon": 16.6543409,
            "name": "Humanic",
            "shop": "shoes",
            "website": "https://www.humanic.net/",
            "wheelchair": "yes"
          },
          "geometry": {
            "type": "Point",
            "coordinates": [
              16.6543409,
              47.2359852
            ]
          }
        },
        {
          "type": "Feature",
          "properties": {
            "id": "5696807321",
            "osm_type": "node",
            "lat": 47.2309802,
            "lon": 16.6229576,
            "addr:city": "Szombathely",
            "addr:housenumber": "37",
            "addr:postcode": "9700",
            "addr:street": "Fő tér",
            "check_date:opening_hours": "2022-08-09",
            "name": "Táska centrum",
            "name:en": "Táska centrum Bags",
            "opening_hours:signed": "no",
            "shop": "shoes"
          },
          "geometry": {
            "type": "Point",
            "coordinates": [
              16.6229576,
              47.2309802
            ]
          }
        },
        {
          "type": "Feature",
          "properties": {
            "id": "8503489415",
            "osm_type": "node",
            "lat": 47.2305707,
            "lon": 16.6247036,
            "addr:city": "Szombathely",
            "addr:housenumber": "48",
            "addr:postcode": "9700",
            "addr:street": "Thököly Imre utca",
            "name": "BELLA Cipőbolt",
            "shop": "shoes"
          },
          "geometry": {
            "type": "Point",
            "coordinates": [
              16.6247036,
              47.2305707
            ]
          }
        },
        {
          "type": "Feature",
          "properties": {
            "id": "12920529879",
            "osm_type": "node",
            "lat": 47.23627,
            "lon": 16.65359,
            "addr:city": "Szombathely",
            "addr:housenumber": "1",
            "addr:postcode": "9700",
            "addr:street": "Varasd utca",
            "air_conditioning": "yes",
            "brand": "CCC",
            "brand:wikidata": "Q11788344",
            "brand:wikipedia": "pl:CCC (przedsiębiorstwo)",
            "contact:email": "info.hu@ccc.eu",
            "contact:facebook": "https://www.facebook.com/CCC.Hungary/",
            "contact:instagram": "https://www.instagram.com/cccshoesbags_hu/",
            "contact:linkedin": "https://www.linkedin.com/company/cccsa",
            "contact:phone": "+36 1 445 3701",
            "contact:website": "https://ccc.eu/hu/",
            "contact:youtube": "https://www.youtube.com/channel/UCVscWDmL_2JddDdGuku7f2w",
            "fixme": "Ellenőrizni a meglétét és a pontos helyére tenni;Check its existence and put it in the right place",
            "name": "CCC",
            "operator": "CCC Hungary Shoes Kft.",
            "operator:addr": "1123 Budapest, Alkotás utca 53.",
            "payment:cash": "yes",
            "payment:contactless": "yes",
            "payment:maestro": "yes",
            "payment:mastercard": "yes",
            "payment:mastercard_contactless": "yes",
            "payment:mastercard_electronic": "yes",
            "payment:visa": "yes",
            "payment:visa_electron": "yes",
            "ref:HU:company": "01-09-991763",
            "ref:HU:vatin": "24128296-2-44",
            "ref:vatin": "HU24128296",
            "shop": "shoes",
            "source": "import;website",
            "source:date": "2025-06-15"
          },
          "geometry": {
            "type": "Point",
            "coordinates": [
              16.65359,
              47.23627
            ]
          }
        }
      ],
      "children": []
    },
    {
      "bbox": {
        "south": 47.36431175,
        "west": 15.253173,
        "north": 47.694865,
        "east": 16.2068765
      },
      "poiCount": 9,
      "leafCount": 9,
      "averagePosition": [
        15.547290944444446,
        47.54497852222222
      ],
      "data": [
        {
          "type": "Feature",
          "properties": {
            "id": "1475970375",
            "osm_type": "node",
            "lat": 47.4169547,
            "lon": 15.2736422,
            "brand": "Deichmann",
            "brand:wikidata": "Q664543",
            "brand:wikipedia": "en:Deichmann SE",
            "name": "Deichmann",
            "shop": "shoes"
          },
          "geometry": {
            "type": "Point",
            "coordinates": [
              15.2736422,
              47.4169547
            ]
          }
        },
        {
          "type": "Feature",
          "properties": {
            "id": "7227227644",
            "osm_type": "node",
            "lat": 47.468961,
            "lon": 15.3424629,
            "addr:city": "Sankt Lorenzen im Mürztal",
            "addr:country": "AT",
            "addr:housenumber": "8",
            "addr:postcode": "8642",
            "addr:street": "Dr. Reinhard Machold-Straße",
            "at_bev:addr_date": "2019-10-01",
            "brand": "Deichmann",
            "brand:wikidata": "Q664543",
            "brand:wikipedia": "en:Deichmann SE",
            "name": "Deichmann",
            "shop": "shoes"
          },
          "geometry": {
            "type": "Point",
            "coordinates": [
              15.3424629,
              47.468961
            ]
          }
        },
        {
          "type": "Feature",
          "properties": {
            "id": "7483102428",
            "osm_type": "node",
            "lat": 47.469665,
            "lon": 15.3451903,
            "name": "SHOE 4 YOU",
            "shop": "shoes"
          },
          "geometry": {
            "type": "Point",
            "coordinates": [
              15.3451903,
              47.469665
            ]
          }
        },
        {
          "type": "Feature",
          "properties": {
            "id": "7483117990",
            "osm_type": "node",
            "lat": 47.4667348,
            "lon": 15.342978,
            "brand": "Reno",
            "brand:wikidata": "Q2144204",
            "brand:wikipedia": "de:Reno (Schuhhandel)",
            "name": "Reno",
            "shop": "shoes"
          },
          "geometry": {
            "type": "Point",
            "coordinates": [
              15.342978,
              47.4667348
            ]
          }
        },
        {
          "type": "Feature",
          "properties": {
            "id": "2866145462",
            "osm_type": "node",
            "lat": 47.6059689,
            "lon": 15.671874,
            "addr:city": "Mürzzuschlag",
            "addr:country": "AT",
            "addr:postcode": "8680",
            "check_date": "2023-10-04",
            "contact:phone": "+43 3852 2205",
            "name": "Sommer",
            "shop": "shoes",
            "website": "https://www.orthopaedie-steiermark.at/de/standorte/"
          },
          "geometry": {
            "type": "Point",
            "coordinates": [
              15.671874,
              47.6059689
            ]
          }
        },
        {
          "type": "Feature",
          "properties": {
            "id": "2905554034",
            "osm_type": "node",
            "lat": 47.6065716,
            "lon": 15.6742065,
            "name": "Stolz",
            "shop": "shoes"
          },
          "geometry": {
            "type": "Point",
            "coordinates": [
              15.6742065,
              47.6065716
            ]
          }
        },
        {
          "type": "Feature",
          "properties": {
            "id": "3684585706",
            "osm_type": "node",
            "lat": 47.5885194,
            "lon": 15.6612962,
            "brand": "Deichmann",
            "brand:wikidata": "Q664543",
            "brand:wikipedia": "en:Deichmann SE",
            "name": "Deichmann",
            "shop": "shoes"
          },
          "geometry": {
            "type": "Point",
            "coordinates": [
              15.6612962,
              47.5885194
            ]
          }
        },
        {
          "type": "Feature",
          "properties": {
            "id": "4839696575",
            "osm_type": "node",
            "lat": 47.6751209,
            "lon": 15.9400798,
            "addr:city": "Gloggnitz",
            "addr:country": "AT",
            "addr:housenumber": "6",
            "addr:postcode": "2640",
            "addr:street": "Wiener Straße",
            "email": "office@lassmann-schuhe.at",
            "name": "Lassmann",
            "opening_hours": "Mo-Fr 08:30-12:00,14:00-18:00; Sa 08:30-12:00; Su,PH off",
            "phone": "+43 2662 43366",
            "shop": "shoes",
            "website": "https://www.schuhe-lassmann.at/"
          },
          "geometry": {
            "type": "Point",
            "coordinates": [
              15.9400798,
              47.6751209
            ]
          }
        },
        {
          "type": "Feature",
          "properties": {
            "id": "5927560124",
            "osm_type": "node",
            "lat": 47.6063104,
            "lon": 15.6738886,
            "name": "Stolz",
            "shop": "shoes"
          },
          "geometry": {
            "type": "Point",
            "coordinates": [
              15.6738886,
              47.6063104
            ]
          }
        }
      ],
      "children": []
    },
    {
      "bbox": {
        "south": 47.36431175,
        "west": 16.2068765,
        "north": 47.694865,
        "east": 17.16058
      },
      "poiCount": 4,
      "leafCount": 4,
      "averagePosition": [
        16.58939755,
        47.576181175
      ],
      "data": [
        {
          "type": "Feature",
          "properties": {
            "id": "7329543686",
            "osm_type": "node",
            "lat": 47.5640568,
            "lon": 16.4275479,
            "addr:city": "Markt Sankt Martin",
            "addr:country": "AT",
            "addr:housenumber": "3",
            "addr:street": "Hauptstraße",
            "contact:phone": "+43 2618 2329",
            "name": "Johann Sodoma",
            "shop": "shoes"
          },
          "geometry": {
            "type": "Point",
            "coordinates": [
              16.4275479,
              47.5640568
            ]
          }
        },
        {
          "type": "Feature",
          "properties": {
            "id": "1507187021",
            "osm_type": "node",
            "lat": 47.6691344,
            "lon": 16.6117534,
            "brand": "Deichmann",
            "brand:wikidata": "Q664543",
            "brand:wikipedia": "en:Deichmann SE",
            "name": "Deichmann",
            "shop": "shoes",
            "wheelchair": "yes"
          },
          "geometry": {
            "type": "Point",
            "coordinates": [
              16.6117534,
              47.6691344
            ]
          }
        },
        {
          "type": "Feature",
          "properties": {
            "id": "1507187022",
            "osm_type": "node",
            "lat": 47.6692728,
            "lon": 16.6118309,
            "brand": "CCC",
            "brand:wikidata": "Q11788344",
            "brand:wikipedia": "de:CCC (Unternehmen)",
            "name": "CCC",
            "shop": "shoes"
          },
          "geometry": {
            "type": "Point",
            "coordinates": [
              16.6118309,
              47.6692728
            ]
          }
        },
        {
          "type": "Feature",
          "properties": {
            "id": "7827682221",
            "osm_type": "node",
            "lat": 47.4022607,
            "lon": 16.706458,
            "check_date:opening_hours": "2020-08-15",
            "contact:phone": "+36 20 232 4220",
            "name": "Cipő Mánia",
            "opening_hours": "Mo-Fr 08:00-12:00, 13:30-17:00; Sa 09:00-12:00; Su,PH off",
            "shop": "shoes",
            "source:opening_hours": "entrance",
            "wheelchair": "no"
          },
          "geometry": {
            "type": "Point",
            "coordinates": [
              16.706458,
              47.4022607
            ]
          }
        }
      ],
      "children": []
    }
  ]
}