{
  "bbox": {
    "south": 46.372652,
    "west": 13.345766,
    "north": 47.033758500000005,
    "east": 15.253173
  },
  "poiCount": 73,
  "leafCount": 0,
  "averagePosition": [
    14.214464749315068,
    46.657284216438356
  ],
  "data": [],
  "children": [
    {
      "bbox": {
        "south": 46.372652,
        "west": 13.345766,
        "north": 46.70320525,
        "east": 14.2994695
      },
      "poiCount": 22,
      "leafCount": 22,
      "averagePosition": [
        13.881735472727273,
        46.59814115
      ],
      "data": [
        {
          "type": "Feature",
          "properties": {
            "id": "1145790385",
            "osm_type": "node",
            "lat": 46.6250957,
            "lon": 13.371627,
            "shop": "shoes"
          },
          "geometry": {
            "type": "Point",
            "coordinates": [
              13.371627,
              46.6250957
            ]
          }
        },
        {
          "type": "Feature",
          "properties": {
            "id": "8773804097",
            "osm_type": "node",
            "lat": 46.6240949,
            "lon": 13.3725876,
            "brand": "Deichmann",
            "brand:wikidata": "Q664543",
            "brand:wikipedia": "en:Deichmann SE",
            "name": "Deichmann",
            "shop": "shoes"
          },
          "geometry": {
            "type": "Point",
            "coordinates": [
              13.3725876,
              46.6240949
            ]
          }
        },
        {
          "type": "Feature",
          "properties": {
            "id": "3733173527",
            "osm_type": "node",
            "lat": 46.612376,
            "lon": 13.8460327,
            "addr:country": "AT",
            "addr:housenumber": "1",
            "addr:postcode": "9500",
            "addr:street": "Moritschstraße",
            "name": "Leder Franz",
            "phone": "+43 4242 52662",
            "shop": "shoes",
            "website": "https://www.lederfranz.at/"
          },
          "geometry": {
            "type": "Point",
            "coordinates": [
              13.8460327,
              46.612376
            ]
          }
        },
        {
          "type": "Feature",
          "properties": {
            "id": "4309673213",
            "osm_type": "node",
            "lat": 46.6135347,
            "lon": 13.8463842,
            "name": "Rieder",
            "shop": "shoes"
          },
          "geometry": {
            "type": "Point",
            "coordinates": [
              13.8463842,
              46.6135347
            ]
          }
        },
        {
          "type": "Feature",
          "properties": {
            "id": "4626294953",
            "osm_type": "node",
            "lat": 46.6107541,
            "lon": 13.8433889,
            "name": "GEA",
            "opening_hours": "Mo-Fr 10:00-12:30, 13:30-18:00; Sa 09:00-13:00",
            "shop": "shoes"
          },
          "geometry": {
            "type": "Point",
            "coordinates": [
              13.8433889,
              46.6107541
            ]
          }
        },
        {
          "type": "Feature",
          "properties": {
            "id": "4633163744",
            "osm_type": "node",
            "lat": 46.6121956,
            "lon": 13.8443432,
            "name": "Rieder",
            "shop": "shoes"
          },
          "geometry": {
            "type": "Point",
            "coordinates": [
              13.8443432,
              46.6121956
            ]
          }
        },
        {
          "type": "Feature",
          "properties": {
            "id": "5000237408",
            "osm_type": "node",
            "lat": 46.4847063,
            "lon": 13.7831884,
            "name": "Alpina",
            "shop": "shoes"
          },
          "geometry": {
            "type": "Point",
            "coordinates": [
              13.7831884,
              46.4847063
            ]
          }
        },
        {
          "type": "Feature",
          "properties": {
            "id": "5407114588",
            "osm_type": "node",
            "lat": 46.5955373,
            "lon": 13.8362479,
            "addr:city": "Villach",
            "addr:housenumber": "34",
            "addr:postcode": "9500",
            "addr:street": "Kärntner Straße",
            "brand": "Geox",
            "brand:wikidata": "Q588001",
            "brand:wikipedia": "en:Geox",
            "email": "gs.villach2@geox.com",
            "name": "Geox",
            "opening_hours": "Mo-Fr 09:00-19:30; Sa 09:00-18:00",
            "phone": "+43 4242 34 524",
            "shop": "shoes",
            "website": "https://www.geox.com",
            "wheelchair": "yes"
          },
          "geometry": {
            "type": "Point",
            "coordinates": [
              13.8362479,
              46.5955373
            ]
          }
        },
        {
          "type": "Feature",
          "properties": {
            "id": "5545159535",
            "osm_type": "node",
            "lat": 46.6041233,
            "lon": 13.8592567,
            "addr:city": "Villach",
            "addr:housenumber": "25",
            "addr:postcode": "9500",
            "addr:street": "Bruno-Kreisky-Straße",
            "brand": "Deichmann",
            "brand:wikidata": "Q664543",
            "brand:wikipedia": "en:Deichmann SE",
            "name": "Deichmann",
            "opening_hours": "Mo-Fr 09:00-18:30; Sa 09:00-18:00",
            "shop": "shoes"
          },
          "geometry": {
            "type": "Point",
            "coordinates": [
              13.8592567,
              46.6041233
            ]
          }
        },
        {
          "type": "Feature",
          "properties": {
            "id": "5545159537",
            "osm_type": "node",
            "lat": 46.6042697,
            "lon": 13.8594713,
            "addr:city": "Villach",
            "addr:housenumber": "25",
            "addr:postcode": "9500",
            "addr:street": "Bruno-Kreisky-Straße",
            "check_date:opening_hours": "2023-08-03",
            "name": "Shoe 4 You",
            "opening_hours": "Mo-Fr 09:00-18:30; Sa 09:00-18:00",
            "shop": "shoes",
            "wheelchair": "yes"
          },
          "geometry": {
            "type": "Point",
            "coordinates": [
              13.8594713,
              46.6042697
            ]
          }
        },
        {
          "type": "Feature",
          "properties": {
            "id": "5545159541",
            "osm_type": "node",
            "lat": 46.6045471,
            "lon": 13.8598446,
            "addr:city": "Villach",
            "addr:housenumber": "25",
            "addr:postcode": "9500",
            "addr:street": "Bruno-Kreisky-Straße",
            "name": "Outlet Humanic",
            "opening_hours": "Mo-Fr 09:00-18:30; Sa 09:00-18:00",
            "shop": "shoes"
          },
          "geometry": {
            "type": "Point",
            "coordinates": [
              13.8598446,
              46.6045471
            ]
          }
        },
        {
          "type": "Feature",
          "properties": {
            "id": "8899939540",
            "osm_type": "node",
            "lat": 46.6126927,
            "lon": 13.8446237,
            "name": "Behr",
            "shop": "shoes"
          },
          "geometry": {
            "type": "Point",
            "coordinates": [
              13.8446237,
              46.6126927
            ]
          }
        },
        {
          "type": "Feature",
          "properties": {
            "id": "9920037888",
            "osm_type": "node",
            "lat": 46.5963239,
            "lon": 13.8361977,
            "addr:city": "Villach",
            "addr:housenumber": "34",
            "addr:postcode": "9500",
            "addr:street": "Kärntner Straße",
            "brand": "Humanic",
            "brand:wikidata": "Q1636668",
            "email": "f-h902@lsag.com",
            "name": "Humanic",
            "opening_hours": "Mo-Fr 09:00-19:30; Sa 09:00-18:00",
            "phone": "+43 4242 34 516",
            "shop": "shoes"
          },
          "geometry": {
            "type": "Point",
            "coordinates": [
              13.8361977,
              46.5963239
            ]
          }
        },
        {
          "type": "Feature",
          "properties": {
            "id": "9922508754",
            "osm_type": "node",
            "lat": 46.5956799,
            "lon": 13.8357299,
            "addr:city": "Villach",
            "addr:housenumber": "34",
            "addr:postcode": "9500",
            "addr:street": "Kärntner Straße",
            "brand": "Tamaris",
            "brand:wikidata": "Q61994827",
            "email": "store.villach@tamaris.at",
            "name": "Tamaris",
            "phone": "+43 4242 37 013",
            "shop": "shoes"
          },
          "geometry": {
            "type": "Point",
            "coordinates": [
              13.8357299,
              46.5956799
            ]
          }
        },
        {
          "type": "Feature",
          "properties": {
            "id": "9922508758",
            "osm_type": "node",
            "lat": 46.595975,
            "lon": 13.8359594,
            "addr:city": "Villach",
            "addr:housenumber": "34",
            "addr:postcode": "9500",
            "addr:street": "Kärntner Straße",
            "brand": "Snipes",
            "brand:wikidata": "Q42306166",
            "name": "Snipes",
            "phone": "+43 4242 36 135",
            "shop": "shoes"
          },
          "geometry": {
            "type": "Point",
            "coordinates": [
              13.8359594,
              46.595975
            ]
          }
        },
        {
          "type": "Feature",
          "properties": {
            "id": "11239875117",
            "osm_type": "node",
            "lat": 46.6140315,
            "lon": 13.8440748,
            "name": "Sarny",
            "shop": "shoes"
          },
          "geometry": {
            "type": "Point",
            "coordinates": [
              13.8440748,
              46.6140315
            ]
          }
        },
        {
          "type": "Feature",
          "properties": {
            "id": "1433840821",
            "osm_type": "node",
            "lat": 46.61517,
            "lon": 14.2928035,
            "addr:city": "Klagenfurt am Wörthersee",
            "addr:country": "AT",
            "addr:housenumber": "72",
            "addr:postcode": "9020",
            "addr:street": "Waidmannsdorfer Straße",
            "name": "Schuhmacher",
            "shop": "shoes",
            "wheelchair": "no"
          },
          "geometry": {
            "type": "Point",
            "coordinates": [
              14.2928035,
              46.61517
            ]
          }
        },
        {
          "type": "Feature",
          "properties": {
            "id": "1944498819",
            "osm_type": "node",
            "lat": 46.6399,
            "lon": 14.2933918,
            "brand": "Deichmann",
            "brand:wikidata": "Q664543",
            "brand:wikipedia": "en:Deichmann SE",
            "check_date": "2025-05-24",
            "check_date:opening_hours": "2025-05-24",
            "level": "0",
            "name": "Deichmann",
            "opening_hours": "Mo-Fr 09:00-18:30; Sa 09:00-17:00",
            "shop": "shoes",
            "website": "https://deichmann.com",
            "wheelchair": "yes"
          },
          "geometry": {
            "type": "Point",
            "coordinates": [
              14.2933918,
              46.6399
            ]
          }
        },
        {
          "type": "Feature",
          "properties": {
            "id": "5005118854",
            "osm_type": "node",
            "lat": 46.4321977,
            "lon": 14.0597454,
            "brand": "Deichmann",
            "brand:wikidata": "Q664543",
            "brand:wikipedia": "en:Deichmann SE",
            "name": "Deichmann",
            "shop": "shoes"
          },
          "geometry": {
            "type": "Point",
            "coordinates": [
              14.0597454,
              46.4321977
            ]
          }
        },
        {
          "type": "Feature",
          "properties": {
            "id": "5342736838",
            "osm_type": "node",
            "lat": 46.6160644,
            "lon": 14.0443185,
            "addr:city": "Velden am Wörther See",
            "addr:housenumber": "4",
            "addr:postcode": "9220",
            "addr:street": "Europaplatz",
            "clothes": "women",
            "name": "Vianello",
            "opening_hours": "Mo-Su 09:00-19:00",
            "shop": "shoes"
          },
          "geometry": {
            "type": "Point",
            "coordinates": [
              14.0443185,
              46.6160644
            ]
          }
        },
        {
          "type": "Feature",
          "properties": {
            "id": "5354229393",
            "osm_type": "node",
            "lat": 46.6143734,
            "lon": 14.0426965,
            "addr:city": "Velden am Wörther See",
            "addr:housenumber": "25",
            "addr:postcode": "9220",
            "addr:street": "Am Corso",
            "contact:phone": "+43 4274 2473",
            "contact:website": "https://tschebullmode.at/",
            "name": "Peter Tschebull",
            "opening_hours": "Mo-Sa 10:00-19:00; PH,Su 10:00-18:00",
            "shop": "shoes"
          },
          "geometry": {
            "type": "Point",
            "coordinates": [
              14.0426965,
              46.6143734
            ]
          }
        },
        {
          "type": "Feature",
          "properties": {
            "id": "9658149635",
            "osm_type": "node",
            "lat": 46.6354621,
            "lon": 14.1462667,
            "addr:housenumber": "158",
            "addr:street": "Hauptstrasse",
            "name": "Schuh Malu",
            "shop": "shoes"
          },
          "geometry": {
            "type": "Point",
            "coordinates": [
              14.1462667,
              46.6354621
            ]
          }
        }
      ],
      "children": []
    },
    {
      "bbox": {
        "south": 46.372652,
        "west": 14.2994695,
        "north": 46.70320525,
        "east": 15.253173
      },
      "poiCount": 32,
      "leafCount": 32,
      "averagePosition": [
        14.419319903125,
        46.613504959375
      ],
      "data": [
        {
          "type": "Feature",
          "properties": {
            "id": "3900811978",
            "osm_type": "node",
            "lat": 46.6417234,
            "lon": 14.941774,
            "addr:city": "Lavamünd",
            "addr:country": "AT",
            "addr:housenumber": "48",
            "addr:postcode": "9473",
            "addr:street": "Lavamünd",
            "name": "Schuhe Sarny",
            "phone": "+4343562351",
            "shop": "shoes",
            "website": "http://schuhe-sarny.at"
          },
          "geometry": {
            "type": "Point",
            "coordinates": [
              14.941774,
              46.6417234
            ]
          }
        },
        {
          "type": "Feature",
          "properties": {
            "id": "5011100024",
            "osm_type": "node",
            "lat": 46.6624099,
            "lon": 14.6330435,
            "addr:city": "Völkermarkt",
            "addr:postcode": "9100",
            "name": "Schuhaus Hribernik Gmbh",
            "opening_hours": "Mo-Fr 09:00-18:00; Sa 09:00-17:00",
            "shop": "shoes"
          },
          "geometry": {
            "type": "Point",
            "coordinates": [
              14.6330435,
              46.6624099
            ]
          }
        },
        {
          "type": "Feature",
          "properties": {
            "id": "11630198048",
            "osm_type": "node",
            "lat": 46.4877553,
            "lon": 14.5930826,
            "name": "Schuhhaus Hribernik",
            "shop": "shoes"
          },
          "geometry": {
            "type": "Point",
            "coordinates": [
              14.5930826,
              46.4877553
            ]
          }
        },
        {
          "type": "Feature",
          "properties": {
            "id": "12186096747",
            "osm_type": "node",
            "lat": 46.547263,
            "lon": 14.9208567,
            "addr:housenumber": "10",
            "addr:street": "Polje",
            "brand": "Deichmann",
            "brand:wikidata": "Q664543",
            "check_date": "2024-09-19",
            "internet_access": "no",
            "name": "Deichmann",
            "opening_hours": "Mo-Fr 08:00-20:00; Sa 08:00-17:00",
            "payment:cash": "yes",
            "payment:credit_cards": "yes",
            "payment:debit_cards": "yes",
            "shoes": "women;children;men",
            "shop": "shoes"
          },
          "geometry": {
            "type": "Point",
            "coordinates": [
              14.9208567,
              46.547263
            ]
          }
        },
        {
          "type": "Feature",
          "properties": {
            "id": "4934475382",
            "osm_type": "node",
            "lat": 46.5124535,
            "lon": 15.0834767,
            "name": "Mass",
            "shop": "shoes"
          },
          "geometry": {
            "type": "Point",
            "coordinates": [
              15.0834767,
              46.5124535
            ]
          }
        },
        {
          "type": "Feature",
          "properties": {
            "id": "4934475385",
            "osm_type": "node",
            "lat": 46.5127692,
            "lon": 15.0834187,
            "brand": "Deichmann",
            "brand:wikidata": "Q664543",
            "brand:wikipedia": "en:Deichmann SE",
            "name": "Deichmann",
            "shop": "shoes"
          },
          "geometry": {
            "type": "Point",
            "coordinates": [
              15.0834187,
              46.5127692
            ]
          }
        },
        {
          "type": "Feature",
          "properties": {
            "id": "799295442",
            "osm_type": "node",
            "lat": 46.622704,
            "lon": 14.3046338,
            "addr:city": "Klagenfurt am Wörthersee",
            "addr:country": "AT",
            "addr:housenumber": "6",
            "addr:postcode": "9020",
            "addr:street": "Adolf-Kolping-Gasse",
            "name": "Kleiderladen Caritas",
            "opening_hours": "Mo,Tu,Th,Fr 09:00-13:00,14:00-17:30; We,Sa 09:00-13:00",
            "shop": "shoes",
            "wheelchair:access": "no"
          },
          "geometry": {
            "type": "Point",
            "coordinates": [
              14.3046338,
              46.622704
            ]
          }
        },
        {
          "type": "Feature",
          "properties": {
            "id": "1417227083",
            "osm_type": "node",
            "lat": 46.6235563,
            "lon": 14.310599,
            "addr:city": "Klagenfurt am Wörthersee",
            "addr:country": "AT",
            "addr:housenumber": "12",
            "addr:postcode": "9020",
            "addr:street": "Paradeisergasse",
            "name": "Rex Schuhe",
            "opening_hours": "Mo-Fr 09:00-18:00",
            "shop": "shoes",
            "wheelchair": "yes"
          },
          "geometry": {
            "type": "Point",
            "coordinates": [
              14.310599,
              46.6235563
            ]
          }
        },
        {
          "type": "Feature",
          "properties": {
            "id": "1426229733",
            "osm_type": "node",
            "lat": 46.6242258,
            "lon": 14.3115673,
            "addr:city": "Klagenfurt am Wörthersee",
            "addr:country": "AT",
            "addr:housenumber": "14",
            "addr:street": "Burggasse",
            "name": "H.K. Schuhe Hillebrand",
            "shop": "shoes",
            "wheelchair": "yes"
          },
          "geometry": {
            "type": "Point",
            "coordinates": [
              14.3115673,
              46.6242258
            ]
          }
        },
        {
          "type": "Feature",
          "properties": {
            "id": "1436632399",
            "osm_type": "node",
            "lat": 46.6237509,
            "lon": 14.3095788,
            "addr:city": "Klagenfurt am Wörthersee",
            "addr:country": "AT",
            "addr:housenumber": "5",
            "addr:postcode": "9020",
            "addr:street": "Paradeisergasse",
            "check_date": "2023-11-10",
            "level": "0",
            "name": "Hillebrand",
            "operator": "Schuhe Hillebrand GmbH",
            "shop": "shoes",
            "wheelchair": "yes"
          },
          "geometry": {
            "type": "Point",
            "coordinates": [
              14.3095788,
              46.6237509
            ]
          }
        },
        {
          "type": "Feature",
          "properties": {
            "id": "1445366409",
            "osm_type": "node",
            "lat": 46.6315586,
            "lon": 14.3105499,
            "addr:city": "Klagenfurt am Wörthersee",
            "addr:country": "AT",
            "addr:housenumber": "44",
            "addr:street": "St. Veiter Straße",
            "name": "Orthopädie Bandagen Ranacher",
            "opening_hours": "Mo-Fr 08:30-18:00",
            "shop": "shoes",
            "wheelchair": "yes"
          },
          "geometry": {
            "type": "Point",
            "coordinates": [
              14.3105499,
              46.6315586
            ]
          }
        },
        {
          "type": "Feature",
          "properties": {
            "id": "1445738975",
            "osm_type": "node",
            "lat": 46.6255863,
            "lon": 14.3117243,
            "addr:city": "Klagenfurt am Wörthersee",
            "addr:country": "AT",
            "addr:housenumber": "10",
            "addr:street": "Priesterhausgasse",
            "check_date": "2023-08-02",
            "level": "0",
            "name": "Neuner",
            "opening_hours": "Mo-Fr 09:00-18:00; Sa 09:00-13:00",
            "shop": "shoes",
            "wheelchair": "yes"
          },
          "geometry": {
            "type": "Point",
            "coordinates": [
              14.3117243,
              46.6255863
            ]
          }
        },
        {
          "type": "Feature",
          "properties": {
            "id": "1713022195",
            "osm_type": "node",
            "lat": 46.6230189,
            "lon": 14.3092084,
            "addr:city": "Klagenfurt am Wörthersee",
            "addr:country": "AT",
            "addr:housenumber": "10",
            "addr:street": "8.-Mai-Straße",
            "check_date": "2023-11-10",
            "contact:email": "klagenfurt@gea.at",
            "contact:phone": "+43 463 502681",
            "level": "0",
            "name": "Gea Schuhe",
            "opening_hours": "Mo-Fr 08:30-18:00",
            "payment:cash": "yes",
            "payment:credit_cards": "yes",
            "payment:debit_cards": "yes",
            "shop": "shoes",
            "website": "https://gea-waldviertler.at/shop/filiale/gea-klagenfurt",
            "wheelchair": "no"
          },
          "geometry": {
            "type": "Point",
            "coordinates": [
              14.3092084,
              46.6230189
            ]
          }
        },
        {
          "type": "Feature",
          "properties": {
            "id": "1713022532",
            "osm_type": "node",
            "lat": 46.622794,
            "lon": 14.3072847,
            "addr:city": "Klagenfurt am Wörthersee",
            "addr:country": "AT",
            "check_date": "2023-04-10",
            "level": "0",
            "name": "Albert Pflüger",
            "opening_hours": "Mo-Fr 09:00-12:30,14:30-18:00; Sa 09:00-12:00",
            "shop": "shoes",
            "website": "https://www.pflueger.at/",
            "wheelchair": "no"
          },
          "geometry": {
            "type": "Point",
            "coordinates": [
              14.3072847,
              46.622794
            ]
          }
        },
        {
          "type": "Feature",
          "properties": {
            "id": "1713022859",
            "osm_type": "node",
            "lat": 46.6228251,
            "lon": 14.3087499,
            "addr:city": "Klagenfurt am Wörthersee",
            "addr:country": "AT",
            "addr:housenumber": "7",
            "addr:postcode": "9020",
            "addr:street": "Karfreitstraße",
            "check_date": "2023-02-16",
            "level": "0",
            "name": "Schuhhaus Keiler GmbH",
            "opening_hours": "Mo-Fr 08:30-17:00; Sa 08:30-13:00",
            "shop": "shoes",
            "wheelchair": "yes"
          },
          "geometry": {
            "type": "Point",
            "coordinates": [
              14.3087499,
              46.6228251
            ]
          }
        },
        {
          "type": "Feature",
          "properties": {
            "id": "1746568546",
            "osm_type": "node",
            "lat": 46.6506743,
            "lon": 14.3136753,
            "addr:city": "Klagenfurt am Wörthersee",
            "addr:country": "AT",
            "addr:housenumber": "183",
            "addr:postcode": "9020",
            "addr:street": "St. Veiter Straße",
            "amenity": "doctors",
            "check": "yes",
            "check_date": "2023-11-12",
            "healthcare": "doctor",
            "healthcare:speciality": "orthopaedics",
            "name": "Orthopädie Grübler/Lechner",
            "shop": "shoes",
            "wheelchair": "yes"
          },
          "geometry": {
            "type": "Point",
            "coordinates": [
              14.3136753,
              46.6506743
            ]
          }
        },
        {
          "type": "Feature",
          "properties": {
            "id": "3754957638",
            "osm_type": "node",
            "lat": 46.6250057,
            "lon": 14.3397732,
            "brand": "shoe4you",
            "brand:wikidata": "Q108006445",
            "name": "shoe4you",
            "shop": "shoes"
          },
          "geometry": {
            "type": "Point",
            "coordinates": [
              14.3397732,
              46.6250057
            ]
          }
        },
        {
          "type": "Feature",
          "properties": {
            "id": "3754970312",
            "osm_type": "node",
            "lat": 46.6237141,
            "lon": 14.3054013,
            "addr:city": "Klagenfurt am Wörthersee",
            "addr:country": "AT",
            "addr:housenumber": "8",
            "addr:postcode": "9020",
            "addr:street": "Pernhartgasse",
            "name": "Ranacher",
            "opening_hours": "Mo-Fr 08:30-18:00; Sa off",
            "operator": "Ferdinand Ranacher",
            "shop": "shoes"
          },
          "geometry": {
            "type": "Point",
            "coordinates": [
              14.3054013,
              46.6237141
            ]
          }
        },
        {
          "type": "Feature",
          "properties": {
            "id": "4591492926",
            "osm_type": "node",
            "lat": 46.6262404,
            "lon": 14.3427504,
            "addr:city": "Klagenfurt am Wörthersee",
            "addr:country": "AT",
            "addr:housenumber": "150",
            "addr:postcode": "9020",
            "addr:street": "Völkermarkter Straße",
            "brand": "Deichmann",
            "brand:wikidata": "Q664543",
            "brand:wikipedia": "en:Deichmann SE",
            "name": "Deichmann",
            "shop": "shoes"
          },
          "geometry": {
            "type": "Point",
            "coordinates": [
              14.3427504,
              46.6262404
            ]
          }
        },
        {
          "type": "Feature",
          "properties": {
            "id": "5316319317",
            "osm_type": "node",
            "lat": 46.6273812,
            "lon": 14.3433162,
            "name": "MyShoes",
            "shop": "shoes"
          },
          "geometry": {
            "type": "Point",
            "coordinates": [
              14.3433162,
              46.6273812
            ]
          }
        },
        {
          "type": "Feature",
          "properties": {
            "id": "8012469259",
            "osm_type": "node",
            "lat": 46.6274751,
            "lon": 14.3096121,
            "addr:city": "Klagenfurt am Wörthersee",
            "addr:country": "AT",
            "brand": "Deichmann",
            "brand:wikidata": "Q664543",
            "brand:wikipedia": "en:Deichmann SE",
            "contact:phone": "+43 463 502 189",
            "level": "-1",
            "name": "Deichmann",
            "opening_hours": "Mo-Fr 09:00-19:30; Sa 09:00-18:00",
            "shop": "shoes"
          },
          "geometry": {
            "type": "Point",
            "coordinates": [
              14.3096121,
              46.6274751
            ]
          }
        },
        {
          "type": "Feature",
          "properties": {
            "id": "8729800100",
            "osm_type": "node",
            "lat": 46.625254,
            "lon": 14.3103898,
            "addr:city": "Klagenfurt am Wörthersee",
            "addr:country": "AT",
            "check_date": "2023-08-07",
            "contact:phone": "+43 463 502894",
            "level": "0",
            "name": "passt!",
            "opening_hours": "Mo-Fr 09:00-18:00; Sa 09:00-14:00",
            "shop": "shoes",
            "website": "https://passt-schuhe.com/unsere-filialen/",
            "wheelchair": "no"
          },
          "geometry": {
            "type": "Point",
            "coordinates": [
              14.3103898,
              46.625254
            ]
          }
        },
        {
          "type": "Feature",
          "properties": {
            "id": "8776746784",
            "osm_type": "node",
            "lat": 46.6234002,
            "lon": 14.3098226,
            "addr:city": "Klagenfurt am Wörthersee",
            "addr:country": "AT",
            "name": "Schuhhaus Pichler",
            "shop": "shoes"
          },
          "geometry": {
            "type": "Point",
            "coordinates": [
              14.3098226,
              46.6234002
            ]
          }
        },
        {
          "type": "Feature",
          "properties": {
            "id": "10084870801",
            "osm_type": "node",
            "lat": 46.6274733,
            "lon": 14.3102085,
            "brand": "Snipes",
            "brand:wikidata": "Q42306166",
            "email": "info-snipes@snipes.com",
            "level": "-1",
            "name": "Snipes",
            "opening_hours": "Mo-Fr 09:00-19:30; Sa 09:00-18:00",
            "phone": "0463 511658",
            "shop": "shoes",
            "website": "https://www.snipes.at/storedetails?sid=SAT2"
          },
          "geometry": {
            "type": "Point",
            "coordinates": [
              14.3102085,
              46.6274733
            ]
          }
        },
        {
          "type": "Feature",
          "properties": {
            "id": "10087418791",
            "osm_type": "node",
            "lat": 46.6275175,
            "lon": 14.3099163,
            "brand": "Humanic",
            "brand:wikidata": "Q1636668",
            "level": "0;1",
            "name": "Humanic",
            "phone": "0463502226",
            "shop": "shoes",
            "website": "https://www.humanic.net/"
          },
          "geometry": {
            "type": "Point",
            "coordinates": [
              14.3099163,
              46.6275175
            ]
          }
        },
        {
          "type": "Feature",
          "properties": {
            "id": "10087418805",
            "osm_type": "node",
            "lat": 46.6274636,
            "lon": 14.3089209,
            "level": "0",
            "name": "Neuner",
            "phone": "0463502389",
            "shop": "shoes"
          },
          "geometry": {
            "type": "Point",
            "coordinates": [
              14.3089209,
              46.6274636
            ]
          }
        },
        {
          "type": "Feature",
          "properties": {
            "id": "10087418812",
            "osm_type": "node",
            "lat": 46.6271558,
            "lon": 14.3086967,
            "brand": "Geox",
            "brand:wikidata": "Q588001",
            "check_date:opening_hours": "2023-10-21",
            "level": "0",
            "name": "Geox",
            "opening_hours": "Mo-Fr 09:00-19:30; Sa 09:00-18:00",
            "phone": "+43 463502390",
            "shop": "shoes",
            "website": "https://www.geox.com/en-AT/storedetails?StoreID=104064"
          },
          "geometry": {
            "type": "Point",
            "coordinates": [
              14.3086967,
              46.6271558
            ]
          }
        },
        {
          "type": "Feature",
          "properties": {
            "id": "10088004096",
            "osm_type": "node",
            "lat": 46.6273401,
            "lon": 14.3094014,
            "brand": "Salamander",
            "brand:wikidata": "Q878354",
            "email": "142@salamander.at",
            "level": "1",
            "name": "Salamander",
            "opening_hours": "Mo-Fr 09:00-19:30; Sa 09:00-18:00; Su off",
            "phone": "01/815 85 08 - 1421",
            "shop": "shoes",
            "website": "https://www.salamander.at/filialen/142/salamander-klagenfurt/"
          },
          "geometry": {
            "type": "Point",
            "coordinates": [
              14.3094014,
              46.6273401
            ]
          }
        },
        {
          "type": "Feature",
          "properties": {
            "id": "11083178314",
            "osm_type": "node",
            "lat": 46.62659,
            "lon": 14.3088098,
            "brand": "Ecco",
            "brand:wikidata": "Q1280255",
            "check_date": "2023-08-02",
            "name": "Ecco",
            "shop": "shoes"
          },
          "geometry": {
            "type": "Point",
            "coordinates": [
              14.3088098,
              46.62659
            ]
          }
        },
        {
          "type": "Feature",
          "properties": {
            "id": "11083178318",
            "osm_type": "node",
            "lat": 46.6254298,
            "lon": 14.3086215,
            "check_date": "2023-08-02",
            "level": "0",
            "name": "Oh! My shoes",
            "opening_hours": "Mo-Fr 10:00-13:00,14:00-18:00; Sa 10:00-14:00",
            "shoes": "women",
            "shop": "shoes"
          },
          "geometry": {
            "type": "Point",
            "coordinates": [
              14.3086215,
              46.6254298
            ]
          }
        },
        {
          "type": "Feature",
          "properties": {
            "id": "11809783920",
            "osm_type": "node",
            "lat": 46.6146276,
            "lon": 14.3191767,
            "name": "Deichmann",
            "phone": "0463-310814",
            "shop": "shoes",
            "website": "https://suedpark.at/shop/deichmann/"
          },
          "geometry": {
            "type": "Point",
            "coordinates": [
              14.3191767,
              46.6146276
            ]
          }
        },
        {
          "type": "Feature",
          "properties": {
            "id": "11809811773",
            "osm_type": "node",
            "lat": 46.6150218,
            "lon": 14.3201959,
            "name": "HUMANIC",
            "shop": "shoes",
            "website": "https://suedpark.at/shop/humanic/"
          },
          "geometry": {
            "type": "Point",
            "coordinates": [
              14.3201959,
              46.6150218
            ]
          }
        }
      ],
      "children": []
    },
    {
      "bbox": {
        "south": 46.70320525,
        "west": 13.345766,
        "north": 47.033758500000005,
        "east": 14.2994695
      },
      "poiCount": 11,
      "leafCount": 11,
      "averagePosition": [
        13.737261954545454,
        46.776313145454544
      ],
      "data": [
        {
          "type": "Feature",
          "properties": {
            "id": "3388137223",
            "osm_type": "node",
            "lat": 46.9065038,
            "lon": 13.5350018,
            "name": "Rieder",
            "opening_hours": "Mo-Fr 09:00-12:30,14:30-18:00; Sa 09:00-12:30",
            "shop": "shoes",
            "wheelchair": "no"
          },
          "geometry": {
            "type": "Point",
            "coordinates": [
              13.5350018,
              46.9065038
            ]
          }
        },
        {
          "type": "Feature",
          "properties": {
            "id": "3054364410",
            "osm_type": "node",
            "lat": 46.7917062,
            "lon": 13.5129608,
            "brand": "Deichmann",
            "brand:wikidata": "Q664543",
            "brand:wikipedia": "en:Deichmann SE",
            "name": "Deichmann",
            "shop": "shoes"
          },
          "geometry": {
            "type": "Point",
            "coordinates": [
              13.5129608,
              46.7917062
            ]
          }
        },
        {
          "type": "Feature",
          "properties": {
            "id": "3378037786",
            "osm_type": "node",
            "lat": 46.7902534,
            "lon": 13.5158576,
            "name": "Gabor",
            "shop": "shoes"
          },
          "geometry": {
            "type": "Point",
            "coordinates": [
              13.5158576,
              46.7902534
            ]
          }
        },
        {
          "type": "Feature",
          "properties": {
            "id": "3378430813",
            "osm_type": "node",
            "lat": 46.7981899,
            "lon": 13.4910034,
            "brand": "Vögele Shoes",
            "brand:wikidata": "Q1389021",
            "brand:wikipedia": "de:Karl Vögele AG",
            "name": "Vögele Shoes",
            "shop": "shoes"
          },
          "geometry": {
            "type": "Point",
            "coordinates": [
              13.4910034,
              46.7981899
            ]
          }
        },
        {
          "type": "Feature",
          "properties": {
            "id": "3379980696",
            "osm_type": "node",
            "lat": 46.7921242,
            "lon": 13.5066771,
            "brand": "Rieder",
            "name": "Markenschuhdiskont",
            "shop": "shoes"
          },
          "geometry": {
            "type": "Point",
            "coordinates": [
              13.5066771,
              46.7921242
            ]
          }
        },
        {
          "type": "Feature",
          "properties": {
            "id": "3387772234",
            "osm_type": "node",
            "lat": 46.7899795,
            "lon": 13.516956,
            "name": "Gabor Diskont",
            "shop": "shoes"
          },
          "geometry": {
            "type": "Point",
            "coordinates": [
              13.516956,
              46.7899795
            ]
          }
        },
        {
          "type": "Feature",
          "properties": {
            "id": "3705469162",
            "osm_type": "node",
            "lat": 46.7818813,
            "lon": 13.6579809,
            "name": "Pertl",
            "opening_hours": "Mo-Fr 08:30-12:30,14:30-18:00; Sa 08:30-12:00",
            "phone": "+43 4246 71 20",
            "shop": "shoes",
            "website": "https://www.pertl-schuh.com/"
          },
          "geometry": {
            "type": "Point",
            "coordinates": [
              13.6579809,
              46.7818813
            ]
          }
        },
        {
          "type": "Feature",
          "properties": {
            "id": "6544614148",
            "osm_type": "node",
            "lat": 46.7246561,
            "lon": 14.0937589,
            "contact:phone": "+43 4276 370 81",
            "name": "Hillebrand",
            "shop": "shoes"
          },
          "geometry": {
            "type": "Point",
            "coordinates": [
              14.0937589,
              46.7246561
            ]
          }
        },
        {
          "type": "Feature",
          "properties": {
            "id": "6544614175",
            "osm_type": "node",
            "lat": 46.7181412,
            "lon": 14.1037113,
            "brand": "ara",
            "brand:wikidata": "Q623598",
            "brand:wikipedia": "de:Ara AG",
            "name": "ARA Outlet",
            "opening_hours": "Mo-Fr 09:00-17:00; Sa 09:00-13:00",
            "shop": "shoes",
            "wheelchair": "yes"
          },
          "geometry": {
            "type": "Point",
            "coordinates": [
              14.1037113,
              46.7181412
            ]
          }
        },
        {
          "type": "Feature",
          "properties": {
            "id": "6545266087",
            "osm_type": "node",
            "lat": 46.7243581,
            "lon": 14.0886242,
            "brand": "Deichmann",
            "brand:wikidata": "Q664543",
            "brand:wikipedia": "en:Deichmann SE",
            "level": "0",
            "name": "Deichmann",
            "shop": "shoes"
          },
          "geometry": {
            "type": "Point",
            "coordinates": [
              14.0886242,
              46.7243581
            ]
          }
        },
        {
          "type": "Feature",
          "properties": {
            "id": "8065966920",
            "osm_type": "node",
            "lat": 46.7216509,
            "lon": 14.0873495,
            "addr:city": "Feldkirchen in Kärnten",
            "addr:country": "AT",
            "addr:postcode": "9560",
            "brand": "Deichmann",
            "brand:wikidata": "Q664543",
            "name": "Deichmann",
            "shop": "shoes",
            "wheelchair": "yes"
          },
          "geometry": {
            "type": "Point",
            "coordinates": [
              14.0873495,
              46.7216509
            ]
          }
        }
      ],
      "children": []
    },
    {
      "bbox": {
        "south": 46.70320525,
        "west": 14.2994695,
        "north": 47.033758500000005,
        "east": 15.253173
      },
      "poiCount": 8,
      "leafCount": 8,
      "averagePosition": [
        14.9662034875,
        46.8313799
      ],
      "data": [
        {
          "type": "Feature",
          "properties": {
            "id": "2188818770",
            "osm_type": "node",
            "lat": 46.842326,
            "lon": 14.8395717,
            "brand": "Deichmann",
            "brand:wikidata": "Q664543",
            "brand:wikipedia": "en:Deichmann SE",
            "name": "Deichmann",
            "shop": "shoes",
            "wheelchair": "yes"
          },
          "geometry": {
            "type": "Point",
            "coordinates": [
              14.8395717,
              46.842326
            ]
          }
        },
        {
          "type": "Feature",
          "properties": {
            "id": "2188818826",
            "osm_type": "node",
            "lat": 46.8417333,
            "lon": 14.8395237,
            "brand": "Reno",
            "brand:wikidata": "Q2144204",
            "brand:wikipedia": "de:Reno (Schuhhandel)",
            "name": "Reno",
            "shop": "shoes",
            "wheelchair": "yes"
          },
          "geometry": {
            "type": "Point",
            "coordinates": [
              14.8395237,
              46.8417333
            ]
          }
        },
        {
          "type": "Feature",
          "properties": {
            "id": "2858312505",
            "osm_type": "node",
            "lat": 46.7035793,
            "lon": 14.7315549,
            "contact:email": "j.hribernik@aon.at",
            "contact:fax": "+43 4233 22044",
            "contact:phone": "+43 4233 2204",
            "contact:website": "www.schuhhaus.at",
            "name": "Schuhhaus Hribernik GmbH",
            "shop": "shoes"
          },
          "geometry": {
            "type": "Point",
            "coordinates": [
              14.7315549,
              46.7035793
            ]
          }
        },
        {
          "type": "Feature",
          "properties": {
            "id": "7728560009",
            "osm_type": "node",
            "lat": 46.8401,
            "lon": 14.8423,
            "brand": "Humanic",
            "brand:wikidata": "Q1636668",
            "name": "Humanic",
            "shop": "shoes"
          },
          "geometry": {
            "type": "Point",
            "coordinates": [
              14.8423,
              46.8401
            ]
          }
        },
        {
          "type": "Feature",
          "properties": {
            "id": "5850945615",
            "osm_type": "node",
            "lat": 46.8200694,
            "lon": 15.2278842,
            "addr:city": "Deutschlandsberg",
            "addr:housenumber": "81",
            "addr:postcode": "8530",
            "addr:street": "Frauentaler Straße",
            "name": "Shoe4you",
            "opening_hours": "Mo-Fr 09:00-18:30; Sa 09:00-17:00; PH off",
            "shop": "shoes"
          },
          "geometry": {
            "type": "Point",
            "coordinates": [
              15.2278842,
              46.8200694
            ]
          }
        },
        {
          "type": "Feature",
          "properties": {
            "id": "5850945616",
            "osm_type": "node",
            "lat": 46.8204872,
            "lon": 15.2297599,
            "addr:city": "Deutschlandsberg",
            "addr:housenumber": "85",
            "addr:postcode": "8530",
            "addr:street": "Frauentaler Straße",
            "brand": "Deichmann",
            "brand:wikidata": "Q664543",
            "brand:wikipedia": "en:Deichmann SE",
            "name": "Deichmann",
            "opening_hours": "Mo-Fr 08:30-18:30; Sa 08:30-17:00; PH off",
            "shop": "shoes"
          },
          "geometry": {
            "type": "Point",
            "coordinates": [
              15.2297599,
              46.8204872
            ]
          }
        },
        {
          "type": "Feature",
          "properties": {
            "id": "9031377519",
            "osm_type": "node",
            "lat": 46.8197912,
            "lon": 15.2262695,
            "brand": "CCC",
            "brand:wikidata": "Q11788344",
            "brand:wikipedia": "de:CCC (Unternehmen)",
            "name": "CCC",
            "shop": "shoes"
          },
          "geometry": {
            "type": "Point",
            "coordinates": [
              15.2262695,
              46.8197912
            ]
          }
        },
        {
          "type": "Feature",
          "properties": {
            "id": "2663526396",
            "osm_type": "node",
            "lat": 46.9629528,
            "lon": 14.792764,
            "addr:housenumber": "20",
            "addr:postcode": "9462",
            "addr:street": "Hauptplatz",
            "name": "Schuhe Neuwirth",
            "shop": "shoes",
            "website": "https://www.neuwirth-schuhe.at/"
          },
          "geometry": {
            "type": "Point",
            "coordinates": [
              14.792764,
              46.9629528
            ]
          }
        }
      ],
      "children": []
    }
  ]
}