{
  "bbox": {
    "south": 48.355971499999995,
    "west": 11.438358999999998,
    "north": 49.017078,
    "east": 13.345766
  },
  "poiCount": 104,
  "leafCount": 0,
  "averagePosition": [
    12.376859248076924,
    48.67624145673077
  ],
  "data": [],
  "children": [
    {
      "bbox": {
        "south": 48.355971499999995,
        "west": 11.438358999999998,
        "north": 48.68652475,
        "east": 12.392062499999998
      },
      "poiCount": 37,
      "leafCount": 37,
      "averagePosition": [
        11.943730789189189,
        48.51376684054054
      ],
      "data": [
        {
          "type": "Feature",
          "properties": {
            "id": "309252417",
            "osm_type": "node",
            "lat": 48.5381979,
            "lon": 11.5147129,
            "brand": "Deichmann",
            "brand:wikidata": "Q664543",
            "brand:wikipedia": "en:Deichmann SE",
            "name": "Deichmann",
            "shop": "shoes"
          },
          "geometry": {
            "type": "Point",
            "coordinates": [
              11.5147129,
              48.5381979
            ]
          }
        },
        {
          "type": "Feature",
          "properties": {
            "id": "660684094",
            "osm_type": "node",
            "lat": 48.5294544,
            "lon": 11.5085086,
            "name": "Zirngibl",
            "opening_hours": "Mo-Fr 09:00-18:30; Sa 09:00-17:00",
            "shop": "shoes",
            "wheelchair": "yes"
          },
          "geometry": {
            "type": "Point",
            "coordinates": [
              11.5085086,
              48.5294544
            ]
          }
        },
        {
          "type": "Feature",
          "properties": {
            "id": "701702308",
            "osm_type": "node",
            "lat": 48.5285291,
            "lon": 11.5081188,
            "addr:city": "Pfaffenhofen a.d. Ilm",
            "addr:country": "DE",
            "addr:housenumber": "3",
            "addr:postcode": "85276",
            "addr:street": "Schulstraße",
            "check_date:opening_hours": "2023-01-02",
            "name": "Schuh Lukas",
            "opening_hours": "Mo-Fr 09:00-12:30,14:00-18:30, Sa 09:00-13:00",
            "phone": "+49 8441 2826",
            "shop": "shoes",
            "wheelchair": "no"
          },
          "geometry": {
            "type": "Point",
            "coordinates": [
              11.5081188,
              48.5285291
            ]
          }
        },
        {
          "type": "Feature",
          "properties": {
            "id": "3744113329",
            "osm_type": "node",
            "lat": 48.5333511,
            "lon": 11.5248768,
            "addr:city": "Pfaffenhofen a.d. Ilm",
            "addr:housenumber": "14",
            "addr:postcode": "85276",
            "addr:street": "Zum Annesberg",
            "name": "Irmgard Fink und Gabriele Zagler Schuhe",
            "operator": "Irmgard Fink und Gabriele Zagler",
            "shop": "shoes"
          },
          "geometry": {
            "type": "Point",
            "coordinates": [
              11.5248768,
              48.5333511
            ]
          }
        },
        {
          "type": "Feature",
          "properties": {
            "id": "4934411715",
            "osm_type": "node",
            "lat": 48.5306535,
            "lon": 11.5066887,
            "check_date:opening_hours": "2024-09-28",
            "name": "Holzmann",
            "opening_hours": "Mo-Fr 10:00-12:00, Sa 10:00-13:00, Tu,Th 14:00-16:00",
            "payment:credit_cards": "yes",
            "payment:debit_cards": "yes",
            "shop": "shoes",
            "wheelchair": "yes"
          },
          "geometry": {
            "type": "Point",
            "coordinates": [
              11.5066887,
              48.5306535
            ]
          }
        },
        {
          "type": "Feature",
          "properties": {
            "id": "11556409792",
            "osm_type": "node",
            "lat": 48.5359863,
            "lon": 11.5142201,
            "name": "Herrmann Schuhe und Mode",
            "operator": "Herrmann Schuhe und Mode Gruppe",
            "phone": "+49 8441 8710718",
            "shop": "shoes",
            "website": "https://www.herrmann-schuhe-mode.de/"
          },
          "geometry": {
            "type": "Point",
            "coordinates": [
              11.5142201,
              48.5359863
            ]
          }
        },
        {
          "type": "Feature",
          "properties": {
            "id": "626668642",
            "osm_type": "node",
            "lat": 48.3840025,
            "lon": 11.7635107,
            "name": "Happy Schuh",
            "shop": "shoes",
            "wheelchair": "yes"
          },
          "geometry": {
            "type": "Point",
            "coordinates": [
              11.7635107,
              48.3840025
            ]
          }
        },
        {
          "type": "Feature",
          "properties": {
            "id": "1188877960",
            "osm_type": "node",
            "lat": 48.5372017,
            "lon": 11.8054458,
            "addr:city": "Nandlstadt",
            "addr:country": "DE",
            "addr:housenumber": "2",
            "addr:postcode": "85405",
            "addr:street": "Marktstraße",
            "check_date": "2025-08-12",
            "email": "info@schuhhaus-gebhard.de",
            "name": "Schuhhaus Gebhard",
            "operator": "Anton J. Gebhard",
            "phone": "+49 8756 1225",
            "shop": "shoes",
            "website": "https://www.schuhhaus-gebhard.de/"
          },
          "geometry": {
            "type": "Point",
            "coordinates": [
              11.8054458,
              48.5372017
            ]
          }
        },
        {
          "type": "Feature",
          "properties": {
            "id": "1885553643",
            "osm_type": "node",
            "lat": 48.4655836,
            "lon": 11.9622603,
            "addr:city": "Moosburg a.d. Isar",
            "addr:country": "DE",
            "addr:housenumber": "M 1",
            "addr:postcode": "85368",
            "addr:street": "Degernpoint",
            "brand": "Deichmann",
            "brand:wikidata": "Q664543",
            "brand:wikipedia": "en:Deichmann SE",
            "check_date": "2025-06-24",
            "check_date:opening_hours": "2025-01-25",
            "name": "Deichmann",
            "opening_hours": "Mo-Sa 09:00-20:00",
            "shop": "shoes",
            "wheelchair": "limited"
          },
          "geometry": {
            "type": "Point",
            "coordinates": [
              11.9622603,
              48.4655836
            ]
          }
        },
        {
          "type": "Feature",
          "properties": {
            "id": "2118011804",
            "osm_type": "node",
            "lat": 48.399219,
            "lon": 11.7414287,
            "addr:city": "Freising",
            "addr:country": "DE",
            "addr:housenumber": "33",
            "addr:postcode": "85354",
            "addr:street": "Obere Hauptstraße",
            "check_date": "2025-08-28",
            "email": "info@schuh-roessler.de",
            "level": "0",
            "mapillary": "527762395763192",
            "name": "Laufgut",
            "opening_hours": "Mo-Fr 09:30-13:00,14:00-18:00; Sa 09:30-14:00; Su,PH off",
            "operator": "Herr Rössler",
            "owner": "Sabu",
            "phone": "+49-8161-4017878",
            "shop": "shoes",
            "wheelchair": "yes"
          },
          "geometry": {
            "type": "Point",
            "coordinates": [
              11.7414287,
              48.399219
            ]
          }
        },
        {
          "type": "Feature",
          "properties": {
            "id": "2273179223",
            "osm_type": "node",
            "lat": 48.4678264,
            "lon": 11.9358301,
            "addr:city": "Moosburg a.d. Isar",
            "addr:country": "DE",
            "addr:housename": "Schuhhaus Gerlspeck",
            "addr:housenumber": "11",
            "addr:postcode": "85368",
            "addr:street": "Stadtplatz",
            "check_date": "2025-05-04",
            "email": "josef@gerlspeck.de",
            "name": "Schuhhaus Josef Gerlspeck",
            "opening_hours": "Mo-Fr 09:00-12:30,13:30-18:00; Sa 09:00-16:00",
            "operator": "Josef Gerlspeck",
            "phone": "+49 8761 9504",
            "shop": "shoes",
            "website": "https://www.gerlspeck.de/",
            "wheelchair": "no"
          },
          "geometry": {
            "type": "Point",
            "coordinates": [
              11.9358301,
              48.4678264
            ]
          }
        },
        {
          "type": "Feature",
          "properties": {
            "id": "2922285623",
            "osm_type": "node",
            "lat": 48.6486476,
            "lon": 11.7866875,
            "addr:city": "Mainburg",
            "addr:country": "DE",
            "addr:housenumber": "5a",
            "addr:postcode": "84048",
            "addr:street": "Köglmühle",
            "contact:phone": "+49 8751 8468650",
            "contact:website": "https://happy-schuh.de/filialsuche/filiale-mainburg",
            "name": "Happy Schuh",
            "opening_hours": "Mo-Sa 09:00-19:00; Su,PH off",
            "shop": "shoes"
          },
          "geometry": {
            "type": "Point",
            "coordinates": [
              11.7866875,
              48.6486476
            ]
          }
        },
        {
          "type": "Feature",
          "properties": {
            "id": "3353964721",
            "osm_type": "node",
            "lat": 48.4001612,
            "lon": 11.7433694,
            "addr:city": "Freising",
            "addr:country": "DE",
            "addr:housenumber": "7",
            "addr:postcode": "85354",
            "addr:street": "Obere Hauptstraße",
            "check_date": "2023-11-25",
            "level": "0",
            "mapillary": "423449973161934",
            "name": "Osco",
            "opening_hours": "Mo-Fr 10:00-18:30; Sa 10:00-16:00; Su,PH off",
            "payment:credit_cards": "yes",
            "payment:debit_cards": "yes",
            "phone": "+49-8161-9892114",
            "shop": "shoes",
            "website": "https://osco.shop",
            "wheelchair": "yes"
          },
          "geometry": {
            "type": "Point",
            "coordinates": [
              11.7433694,
              48.4001612
            ]
          }
        },
        {
          "type": "Feature",
          "properties": {
            "id": "3901134334",
            "osm_type": "node",
            "lat": 48.4030578,
            "lon": 11.9846227,
            "email": "info@schuhwerk-wartenberg.de",
            "name": "Das Schuhwerk",
            "opening_hours": "Tu-Fr 10:00-13:00,14:30-17:00; Sa 10:00-13:00",
            "operator": "Franz Wiesheu",
            "phone": "+49 8762 1818",
            "shop": "shoes",
            "website": "https://schuhwerk-wartenberg.de/"
          },
          "geometry": {
            "type": "Point",
            "coordinates": [
              11.9846227,
              48.4030578
            ]
          }
        },
        {
          "type": "Feature",
          "properties": {
            "id": "4345348995",
            "osm_type": "node",
            "lat": 48.6420557,
            "lon": 11.7861529,
            "addr:city": "Mainburg",
            "addr:country": "DE",
            "addr:housenumber": "4",
            "addr:postcode": "84048",
            "addr:street": "Poststraße",
            "name": "Schuh Zirngibl",
            "shop": "shoes"
          },
          "geometry": {
            "type": "Point",
            "coordinates": [
              11.7861529,
              48.6420557
            ]
          }
        },
        {
          "type": "Feature",
          "properties": {
            "id": "4349641919",
            "osm_type": "node",
            "lat": 48.3866335,
            "lon": 11.7354492,
            "addr:city": "Freising",
            "addr:country": "DE",
            "addr:housenumber": "32",
            "addr:postcode": "85354",
            "addr:street": "Münchner Straße",
            "brand": "Deichmann",
            "brand:wikidata": "Q664543",
            "brand:wikipedia": "en:Deichmann SE",
            "check_date": "2025-01-25",
            "check_date:opening_hours": "2025-01-25",
            "name": "Deichmann",
            "opening_hours": "Mo-Sa 09:00-20:00",
            "shop": "shoes",
            "wheelchair": "yes"
          },
          "geometry": {
            "type": "Point",
            "coordinates": [
              11.7354492,
              48.3866335
            ]
          }
        },
        {
          "type": "Feature",
          "properties": {
            "id": "4627964499",
            "osm_type": "node",
            "lat": 48.6028688,
            "lon": 11.6265979,
            "name": "Schuh Galerie Beck",
            "shop": "shoes"
          },
          "geometry": {
            "type": "Point",
            "coordinates": [
              11.6265979,
              48.6028688
            ]
          }
        },
        {
          "type": "Feature",
          "properties": {
            "id": "8485458821",
            "osm_type": "node",
            "lat": 48.4014429,
            "lon": 11.7457303,
            "addr:city": "Freising",
            "addr:country": "DE",
            "addr:housenumber": "15",
            "addr:postcode": "85354",
            "addr:street": "Untere Hauptstraße",
            "brand": "Asics;Brooks;Birkenstock;Caprice;Dolomiti;Geox;Hoka;Lloyd;Meindl;OnRunning;Panama Jack;Pantofolo D'Oro;Paul Green;Rieker;Saucony;Lowa;Skechers;Tamaris",
            "check_date": "2025-08-28",
            "name": "Kampa",
            "opening_date": "2021-03-29",
            "opening_hours": "Mo-Fr 09:30-18:00; Sa 09:00-16:00",
            "shop": "shoes",
            "website": "https://www.kampa-schuhe.de"
          },
          "geometry": {
            "type": "Point",
            "coordinates": [
              11.7457303,
              48.4014429
            ]
          }
        },
        {
          "type": "Feature",
          "properties": {
            "id": "920380912",
            "osm_type": "node",
            "lat": 48.5369995,
            "lon": 12.1528213,
            "addr:city": "Landshut",
            "addr:housenumber": "355",
            "addr:postcode": "84028",
            "addr:street": "Rosengasse",
            "check_date": "2024-12-08",
            "email": "info@schuhhaus-kastl.de",
            "fax": "+49 871 68247",
            "name": "Schuhhaus Kastl",
            "opening_hours": "Mo-We 09:00-18:0; Th, Fr 09:00-19:00; Sa 09:00-18:00; PH off",
            "operator": "Schuhhaus Kastl GmbH",
            "phone": "+49 871 64217",
            "shop": "shoes",
            "website": "https://www.schuhhaus-kastl.de/"
          },
          "geometry": {
            "type": "Point",
            "coordinates": [
              12.1528213,
              48.5369995
            ]
          }
        },
        {
          "type": "Feature",
          "properties": {
            "id": "930705430",
            "osm_type": "node",
            "lat": 48.5580862,
            "lon": 12.154856,
            "addr:city": "Ergolding",
            "addr:country": "DE",
            "addr:housenumber": "40",
            "addr:postcode": "84030",
            "addr:street": "Industriestraße",
            "brand": "Deichmann",
            "brand:wikidata": "Q664543",
            "brand:wikipedia": "en:Deichmann SE",
            "check_date": "2024-06-07",
            "name": "Deichmann",
            "shop": "shoes",
            "wheelchair": "yes"
          },
          "geometry": {
            "type": "Point",
            "coordinates": [
              12.154856,
              48.5580862
            ]
          }
        },
        {
          "type": "Feature",
          "properties": {
            "id": "1435644753",
            "osm_type": "node",
            "lat": 48.5373163,
            "lon": 12.1524502,
            "addr:city": "Landshut",
            "addr:country": "DE",
            "addr:housenumber": "361",
            "addr:postcode": "84028",
            "addr:street": "Altstadt",
            "brand": "Sutor",
            "check_date": "2025-08-08",
            "contact:facebook": "https://fb.com/schuhebysutor",
            "contact:instagram": "https://instagram.com/sutor_schuhe",
            "name": "Schuhe Sutor",
            "opening_hours": "Mo-Sa 09:30-19:00",
            "shop": "shoes",
            "website": "https://sutor.de",
            "wheelchair": "yes"
          },
          "geometry": {
            "type": "Point",
            "coordinates": [
              12.1524502,
              48.5373163
            ]
          }
        },
        {
          "type": "Feature",
          "properties": {
            "id": "2329502331",
            "osm_type": "node",
            "lat": 48.4486034,
            "lon": 12.3520411,
            "name": "Schuhhandlung Lipp",
            "shop": "shoes"
          },
          "geometry": {
            "type": "Point",
            "coordinates": [
              12.3520411,
              48.4486034
            ]
          }
        },
        {
          "type": "Feature",
          "properties": {
            "id": "3007415737",
            "osm_type": "node",
            "lat": 48.5533779,
            "lon": 12.1506977,
            "addr:city": "Landshut",
            "addr:postcode": "84030",
            "check_date": "2024-12-25",
            "name": "Lipp Schuhe",
            "organic": "no",
            "second_hand": "no",
            "shop": "shoes"
          },
          "geometry": {
            "type": "Point",
            "coordinates": [
              12.1506977,
              48.5533779
            ]
          }
        },
        {
          "type": "Feature",
          "properties": {
            "id": "3007415757",
            "osm_type": "node",
            "lat": 48.5561944,
            "lon": 12.1522001,
            "addr:city": "Landshut",
            "addr:country": "DE",
            "addr:housenumber": "17",
            "addr:postcode": "84030",
            "addr:street": "Siemensstraße",
            "brand": "Siemes Schuhcenter",
            "brand:wikidata": "Q2800720",
            "brand:wikipedia": "de:Siemes (Unternehmen)",
            "check_date": "2025-08-03",
            "check_date:opening_hours": "2025-08-03",
            "contact:facebook": "https://fb.com/Schuhcenter.de",
            "contact:instagram": "https://instagram.com/siemes_schuhcenter",
            "name": "Siemes Schuhcenter",
            "opening_hours": "Mo-Fr 09:30-19:00; Sa 09:30-18:00",
            "shop": "shoes",
            "website": "https://schuhcenter.de",
            "wheelchair": "yes"
          },
          "geometry": {
            "type": "Point",
            "coordinates": [
              12.1522001,
              48.5561944
            ]
          }
        },
        {
          "type": "Feature",
          "properties": {
            "id": "3007450119",
            "osm_type": "node",
            "lat": 48.5396992,
            "lon": 12.1562149,
            "addr:city": "Landshut",
            "addr:country": "DE",
            "addr:housenumber": "5",
            "addr:postcode": "84028",
            "addr:street": "Am Alten Viehmarkt",
            "brand": "Deichmann",
            "brand:wikidata": "Q664543",
            "brand:wikipedia": "en:Deichmann SE",
            "check_date": "2024-12-10",
            "contact:facebook": "https://fb.com/Deichmann",
            "contact:instagram": "https://instagram.com/deichmann_schuhe",
            "contact:linkedin": "https://linkedin.com/company/deichmann",
            "contact:xing": "https://xing.com/pages/deichmann",
            "level": "1",
            "name": "Deichmann",
            "shop": "shoes",
            "website": "https://deichmann.de",
            "wheelchair": "yes"
          },
          "geometry": {
            "type": "Point",
            "coordinates": [
              12.1562149,
              48.5396992
            ]
          }
        },
        {
          "type": "Feature",
          "properties": {
            "id": "3660267603",
            "osm_type": "node",
            "lat": 48.5368272,
            "lon": 12.156254,
            "addr:city": "Landshut",
            "addr:country": "DE",
            "addr:housenumber": "570",
            "addr:postcode": "84028",
            "addr:street": "Regierungsstraße",
            "check_date": "2023-11-26",
            "name": "Schuhaus Wegmann",
            "opening_hours": "Mo-Fr 10:00-18:00",
            "shop": "shoes"
          },
          "geometry": {
            "type": "Point",
            "coordinates": [
              12.156254,
              48.5368272
            ]
          }
        },
        {
          "type": "Feature",
          "properties": {
            "id": "3712414310",
            "osm_type": "node",
            "lat": 48.4521987,
            "lon": 12.3343927,
            "addr:city": "Vilsbiburg",
            "addr:country": "DE",
            "addr:housenumber": "8",
            "addr:postcode": "84137",
            "addr:street": "Ohmstraße",
            "brand": "Deichmann",
            "brand:wikidata": "Q664543",
            "brand:wikipedia": "en:Deichmann SE",
            "name": "Deichmann",
            "opening_hours": "Mo-Fr 09:00-19:00, Sa 09:00-17:00",
            "phone": "+49 8741 926389",
            "shop": "shoes",
            "website": "https://www.deichmann.com/"
          },
          "geometry": {
            "type": "Point",
            "coordinates": [
              12.3343927,
              48.4521987
            ]
          }
        },
        {
          "type": "Feature",
          "properties": {
            "id": "3929309366",
            "osm_type": "node",
            "lat": 48.5322357,
            "lon": 12.1489382,
            "addr:city": "Landshut",
            "addr:country": "DE",
            "addr:housenumber": "7",
            "addr:postcode": "84028",
            "addr:street": "Dreifaltigkeitsplatz",
            "check_date": "2024-04-25",
            "email": "info@hochban.de",
            "name": "Orthopädie-Schuhtechnik und Sanitätshaus Hochban",
            "operator": "Rainer Hochban e. K.",
            "phone": "+49 871 29701",
            "shop": "shoes",
            "website": "https://hochban.de/",
            "wheelchair": "yes"
          },
          "geometry": {
            "type": "Point",
            "coordinates": [
              12.1489382,
              48.5322357
            ]
          }
        },
        {
          "type": "Feature",
          "properties": {
            "id": "3949929019",
            "osm_type": "node",
            "lat": 48.5405622,
            "lon": 12.1003835,
            "addr:city": "Landshut",
            "addr:country": "DE",
            "addr:housenumber": "9",
            "addr:postcode": "84034",
            "addr:street": "Ludwig-Erhard-Straße",
            "brand": "Deichmann",
            "brand:wikidata": "Q664543",
            "brand:wikipedia": "en:Deichmann SE",
            "check_date": "2024-04-27",
            "contact:facebook": "https://fb.com/Deichmann",
            "contact:instagram": "https://instagram.com/deichmann_schuhe",
            "contact:linkedin": "https://linkedin.com/company/deichmann",
            "contact:xing": "https://xing.com/pages/deichmann",
            "email": "service-de@deichmann.com",
            "name": "Deichmann",
            "phone": "+49 871 31979312",
            "shop": "shoes",
            "website": "https://stores.deichmann.com/bayern/landshut/ludwig-erhard-strasse-9.html",
            "wheelchair": "yes"
          },
          "geometry": {
            "type": "Point",
            "coordinates": [
              12.1003835,
              48.5405622
            ]
          }
        },
        {
          "type": "Feature",
          "properties": {
            "id": "3969081778",
            "osm_type": "node",
            "lat": 48.5352007,
            "lon": 12.1497474,
            "addr:city": "Landshut",
            "addr:country": "DE",
            "addr:housenumber": "64",
            "addr:postcode": "84028",
            "addr:street": "Theaterstraße",
            "brand": "Sutor",
            "check_date": "2024-12-08",
            "contact:facebook": "https://fb.com/schuhebysutor",
            "contact:instagram": "https://instagram.com/sutor_schuhe",
            "name": "sutor",
            "opening_hours": "Mo-Sa 09:30-19:00",
            "shop": "shoes",
            "website": "https://sutor.de",
            "wheelchair": "yes"
          },
          "geometry": {
            "type": "Point",
            "coordinates": [
              12.1497474,
              48.5352007
            ]
          }
        },
        {
          "type": "Feature",
          "properties": {
            "id": "3969109151",
            "osm_type": "node",
            "lat": 48.5350131,
            "lon": 12.1501952,
            "addr:city": "Landshut",
            "addr:country": "DE",
            "addr:housenumber": "66a",
            "addr:postcode": "84028",
            "addr:street": "Theaterstraße",
            "check_date": "2024-12-08",
            "name": "Lipp",
            "opening_hours": "Mo-We 09:00-18:00; Th,Fr 09:00-19:00; Sa 09:00-18:00",
            "shop": "shoes",
            "wheelchair": "yes"
          },
          "geometry": {
            "type": "Point",
            "coordinates": [
              12.1501952,
              48.5350131
            ]
          }
        },
        {
          "type": "Feature",
          "properties": {
            "id": "3969169606",
            "osm_type": "node",
            "lat": 48.5336502,
            "lon": 12.1504688,
            "addr:city": "Landshut",
            "addr:country": "DE",
            "addr:housenumber": "216",
            "addr:postcode": "84028",
            "addr:street": "Altstadt",
            "check_date": "2024-05-27",
            "name": "Arcade",
            "opening_hours": "Mo-Fr 10:00-18:00; Sa 10:00-16:00",
            "shop": "shoes"
          },
          "geometry": {
            "type": "Point",
            "coordinates": [
              12.1504688,
              48.5336502
            ]
          }
        },
        {
          "type": "Feature",
          "properties": {
            "id": "4081918437",
            "osm_type": "node",
            "lat": 48.5362402,
            "lon": 12.1530485,
            "addr:city": "Landshut",
            "addr:country": "DE",
            "addr:housenumber": "328",
            "addr:postcode": "84028",
            "addr:street": "Grasgasse",
            "check_date": "2023-07-22",
            "name": "Kellermann",
            "operator": "Rudolf Harrer",
            "shop": "shoes"
          },
          "geometry": {
            "type": "Point",
            "coordinates": [
              12.1530485,
              48.5362402
            ]
          }
        },
        {
          "type": "Feature",
          "properties": {
            "id": "5285713198",
            "osm_type": "node",
            "lat": 48.533601,
            "lon": 12.1515951,
            "addr:city": "Landshut",
            "addr:country": "DE",
            "addr:housenumber": "201",
            "addr:postcode": "84028",
            "addr:street": "Spiegelgasse",
            "check_date": "2023-07-22",
            "email": "Info@danzapatos-landshut.de",
            "name": "Danzapatos",
            "opening_hours": "Tu,We,Fr,Sa 10:00-19:00; Th 10:00-20:00",
            "phone": "+49 871 43031883",
            "shop": "shoes",
            "website": "http://danzapatos-landshut.de"
          },
          "geometry": {
            "type": "Point",
            "coordinates": [
              12.1515951,
              48.533601
            ]
          }
        },
        {
          "type": "Feature",
          "properties": {
            "id": "9286345108",
            "osm_type": "node",
            "lat": 48.5368771,
            "lon": 12.1516956,
            "addr:city": "Landshut",
            "addr:housenumber": "88",
            "addr:postcode": "84028",
            "addr:street": "Altstadt",
            "brand": "Snipes",
            "brand:wikidata": "Q42306166",
            "brand:wikipedia": "de:Snipes (Unternehmen)",
            "check_date": "2023-10-27",
            "contact:facebook": "https://fb.com/Snipes.com",
            "contact:instagram": "https://instagram.com/snipes",
            "name": "Snipes",
            "shop": "shoes",
            "website": "https://snipes.com"
          },
          "geometry": {
            "type": "Point",
            "coordinates": [
              12.1516956,
              48.5368771
            ]
          }
        },
        {
          "type": "Feature",
          "properties": {
            "id": "9288145338",
            "osm_type": "node",
            "lat": 48.5346157,
            "lon": 12.1539794,
            "addr:city": "Landshut",
            "addr:country": "DE",
            "addr:housenumber": "496",
            "addr:postcode": "84028",
            "addr:street": "Neustadt",
            "check_date": "2024-12-10",
            "email": "landshut@gea-online.de",
            "fax": "+49 871 43038586",
            "name": "GEA",
            "opening_hours": "Mo-Fr 09:30-13:00, 14:00-18:30; Sa 09:30-16:00",
            "phone": "+49 871 43038585",
            "shop": "shoes",
            "website": "http://www.gea.at/"
          },
          "geometry": {
            "type": "Point",
            "coordinates": [
              12.1539794,
              48.5346157
            ]
          }
        },
        {
          "type": "Feature",
          "properties": {
            "id": "13058172662",
            "osm_type": "node",
            "lat": 48.5372014,
            "lon": 12.1518481,
            "addr:housenumber": "92",
            "addr:street": "Altstadt",
            "check_date": "2025-08-08",
            "name": "Leguano",
            "shop": "shoes"
          },
          "geometry": {
            "type": "Point",
            "coordinates": [
              12.1518481,
              48.5372014
            ]
          }
        }
      ],
      "children": []
    },
    {
      "bbox": {
        "south": 48.355971499999995,
        "west": 12.392062499999998,
        "north": 48.68652475,
        "east": 13.345766
      },
      "poiCount": 23,
      "leafCount": 23,
      "averagePosition": [
        12.846055234782607,
        48.51307912608696
      ],
      "data": [
        {
          "type": "Feature",
          "properties": {
            "id": "611664738",
            "osm_type": "node",
            "lat": 48.6379876,
            "lon": 12.4844685,
            "addr:city": "Dingolfing",
            "addr:country": "DE",
            "addr:housenumber": "5",
            "addr:postcode": "84130",
            "addr:street": "Aitrachstraße",
            "name": "Happy Schuh",
            "opening_hours": "Mo-Fr 09:00-19:00, Sa 09:00-16:00",
            "shop": "shoes",
            "wheelchair": "yes"
          },
          "geometry": {
            "type": "Point",
            "coordinates": [
              12.4844685,
              48.6379876
            ]
          }
        },
        {
          "type": "Feature",
          "properties": {
            "id": "650374976",
            "osm_type": "node",
            "lat": 48.6380601,
            "lon": 12.4851,
            "brand": "Deichmann",
            "brand:wikidata": "Q664543",
            "brand:wikipedia": "en:Deichmann SE",
            "name": "Deichmann",
            "shop": "shoes",
            "wheelchair": "yes"
          },
          "geometry": {
            "type": "Point",
            "coordinates": [
              12.4851,
              48.6380601
            ]
          }
        },
        {
          "type": "Feature",
          "properties": {
            "id": "2500251282",
            "osm_type": "node",
            "lat": 48.6313412,
            "lon": 12.493161,
            "addr:city": "Dingolfing",
            "addr:country": "DE",
            "addr:postcode": "84130",
            "addr:street": "Pappelweg",
            "brand": "shoe4you",
            "brand:wikidata": "Q108006445",
            "name": "shoe4you",
            "opening_hours": "Mo-Sa 09:00-20:00",
            "shop": "shoes",
            "wheelchair": "yes"
          },
          "geometry": {
            "type": "Point",
            "coordinates": [
              12.493161,
              48.6313412
            ]
          }
        },
        {
          "type": "Feature",
          "properties": {
            "id": "3725998229",
            "osm_type": "node",
            "lat": 48.628939,
            "lon": 12.497725,
            "name": "Sandl",
            "official_name": "Schuhhaus Sandl",
            "shop": "shoes"
          },
          "geometry": {
            "type": "Point",
            "coordinates": [
              12.497725,
              48.628939
            ]
          }
        },
        {
          "type": "Feature",
          "properties": {
            "id": "9589403424",
            "osm_type": "node",
            "lat": 48.628314,
            "lon": 12.4975899,
            "addr:city": "Dingolfing",
            "addr:country": "DE",
            "addr:housenumber": "8",
            "addr:postcode": "84130",
            "addr:street": "Griesgasse",
            "name": "Pichler",
            "opening_hours": "Tu 9:00-12:00; Fr 14:00-18:00",
            "shop": "shoes",
            "website": "https://www.orthopaedie-pichler.de"
          },
          "geometry": {
            "type": "Point",
            "coordinates": [
              12.4975899,
              48.628314
            ]
          }
        },
        {
          "type": "Feature",
          "properties": {
            "id": "279737492",
            "osm_type": "node",
            "lat": 48.4193307,
            "lon": 12.9433644,
            "brand": "Deichmann",
            "brand:wikidata": "Q664543",
            "brand:wikipedia": "en:Deichmann SE",
            "name": "Deichmann",
            "opening_hours": "Mo-Sa 09:00-20:00",
            "shop": "shoes",
            "wheelchair": "yes"
          },
          "geometry": {
            "type": "Point",
            "coordinates": [
              12.9433644,
              48.4193307
            ]
          }
        },
        {
          "type": "Feature",
          "properties": {
            "id": "1909751831",
            "osm_type": "node",
            "lat": 48.6806354,
            "lon": 12.6895557,
            "addr:city": "Landau an der Isar",
            "addr:country": "DE",
            "addr:housenumber": "40",
            "addr:postcode": "94405",
            "addr:street": "Straubinger Straße",
            "brand": "Deichmann",
            "brand:wikidata": "Q664543",
            "brand:wikipedia": "en:Deichmann SE",
            "name": "Deichmann",
            "shop": "shoes"
          },
          "geometry": {
            "type": "Point",
            "coordinates": [
              12.6895557,
              48.6806354
            ]
          }
        },
        {
          "type": "Feature",
          "properties": {
            "id": "3234209065",
            "osm_type": "node",
            "lat": 48.5623208,
            "lon": 12.8163782,
            "name": "Schuhaus Forstner",
            "shop": "shoes"
          },
          "geometry": {
            "type": "Point",
            "coordinates": [
              12.8163782,
              48.5623208
            ]
          }
        },
        {
          "type": "Feature",
          "properties": {
            "id": "3503106177",
            "osm_type": "node",
            "lat": 48.418791,
            "lon": 12.9408898,
            "addr:city": "Pfarrkirchen",
            "addr:country": "DE",
            "addr:housenumber": "6",
            "addr:postcode": "84347",
            "addr:street": "Franz-Stelzenberger-Straße",
            "contact:website": "https://happy-schuh.de/filialsuche/filiale-pfarrkirchen",
            "name": "Happy Schuh",
            "opening_hours": "Mo-Sa 09:00-19:00",
            "shop": "shoes",
            "wheelchair": "yes"
          },
          "geometry": {
            "type": "Point",
            "coordinates": [
              12.9408898,
              48.418791
            ]
          }
        },
        {
          "type": "Feature",
          "properties": {
            "id": "3889070130",
            "osm_type": "node",
            "lat": 48.4006649,
            "lon": 12.7488007,
            "check_date": "2016-01-18",
            "name": "Happy Schuh",
            "shop": "shoes",
            "wheelchair": "yes"
          },
          "geometry": {
            "type": "Point",
            "coordinates": [
              12.7488007,
              48.4006649
            ]
          }
        },
        {
          "type": "Feature",
          "properties": {
            "id": "3893436347",
            "osm_type": "node",
            "lat": 48.4003441,
            "lon": 12.7510148,
            "brand": "Deichmann",
            "brand:wikidata": "Q664543",
            "brand:wikipedia": "en:Deichmann SE",
            "check_date": "2016-01-18",
            "name": "Deichmann",
            "shop": "shoes",
            "toilets:wheelchair": "no",
            "wheelchair": "yes"
          },
          "geometry": {
            "type": "Point",
            "coordinates": [
              12.7510148,
              48.4003441
            ]
          }
        },
        {
          "type": "Feature",
          "properties": {
            "id": "3899823174",
            "osm_type": "node",
            "lat": 48.4016513,
            "lon": 12.7500213,
            "brand": "Quick Schuh",
            "brand:wikidata": "Q2123069",
            "brand:wikipedia": "de:Quick Schuh",
            "check_date": "2016-01-18",
            "name": "Quick Schuh",
            "shop": "shoes"
          },
          "geometry": {
            "type": "Point",
            "coordinates": [
              12.7500213,
              48.4016513
            ]
          }
        },
        {
          "type": "Feature",
          "properties": {
            "id": "3915307972",
            "osm_type": "node",
            "lat": 48.4034196,
            "lon": 12.7622146,
            "check_date": "2016-01-18",
            "name": "Mooser Schuhhaus",
            "shop": "shoes"
          },
          "geometry": {
            "type": "Point",
            "coordinates": [
              12.7622146,
              48.4034196
            ]
          }
        },
        {
          "type": "Feature",
          "properties": {
            "id": "5862024387",
            "osm_type": "node",
            "lat": 48.4318291,
            "lon": 12.9387845,
            "addr:city": "Pfarrkirchen",
            "addr:country": "DE",
            "addr:housenumber": "6",
            "addr:postcode": "84347",
            "addr:street": "Stadtplatz",
            "name": "Schweizer",
            "operator": "Schweizer",
            "shop": "shoes",
            "wheelchair": "yes"
          },
          "geometry": {
            "type": "Point",
            "coordinates": [
              12.9387845,
              48.4318291
            ]
          }
        },
        {
          "type": "Feature",
          "properties": {
            "id": "6516351535",
            "osm_type": "node",
            "lat": 48.6741929,
            "lon": 12.6955511,
            "name": "Lipp",
            "opening_hours": "Mo-Th 09:30-18:00; Fr 09:00-19:00; Sa 09:00-18:00",
            "shop": "shoes"
          },
          "geometry": {
            "type": "Point",
            "coordinates": [
              12.6955511,
              48.6741929
            ]
          }
        },
        {
          "type": "Feature",
          "properties": {
            "id": "6612436953",
            "osm_type": "node",
            "lat": 48.5745545,
            "lon": 12.6247804,
            "addr:city": "Reisbach",
            "addr:country": "DE",
            "addr:housenumber": "21a",
            "addr:postcode": "94419",
            "addr:street": "Dingolfinger Straße",
            "name": "Schuh-Jillich",
            "shop": "shoes",
            "website": "https://schuh-worschek.de/"
          },
          "geometry": {
            "type": "Point",
            "coordinates": [
              12.6247804,
              48.5745545
            ]
          }
        },
        {
          "type": "Feature",
          "properties": {
            "id": "6806463036",
            "osm_type": "node",
            "lat": 48.4306001,
            "lon": 12.9404084,
            "name": "Würzlbauer",
            "shop": "shoes"
          },
          "geometry": {
            "type": "Point",
            "coordinates": [
              12.9404084,
              48.4306001
            ]
          }
        },
        {
          "type": "Feature",
          "properties": {
            "id": "613392585",
            "osm_type": "node",
            "lat": 48.401211,
            "lon": 13.3133657,
            "brand": "Quick Schuh",
            "brand:wikidata": "Q2123069",
            "name": "Quick Schuh",
            "shop": "shoes"
          },
          "geometry": {
            "type": "Point",
            "coordinates": [
              13.3133657,
              48.401211
            ]
          }
        },
        {
          "type": "Feature",
          "properties": {
            "id": "1648852453",
            "osm_type": "node",
            "lat": 48.6080754,
            "lon": 13.1718405,
            "addr:city": "Vilshofen an der Donau",
            "addr:country": "DE",
            "addr:housenumber": "3",
            "addr:postcode": "94474",
            "addr:street": "Hösamer Feld",
            "brand": "Deichmann",
            "brand:wikidata": "Q664543",
            "brand:wikipedia": "en:Deichmann SE",
            "check_date": "2025-07-28",
            "name": "Deichmann",
            "opening_hours": "Mo-Fr 09:00-19:00; Sa 09:00-18:00",
            "phone": "00498541912022",
            "shop": "shoes",
            "website": "https://stores.deichmann.com/de-de/de/bayern/vilshofen/hoesamer-feld-3"
          },
          "geometry": {
            "type": "Point",
            "coordinates": [
              13.1718405,
              48.6080754
            ]
          }
        },
        {
          "type": "Feature",
          "properties": {
            "id": "2370409760",
            "osm_type": "node",
            "lat": 48.392897,
            "lon": 13.3086435,
            "brand": "Deichmann",
            "brand:wikidata": "Q664543",
            "brand:wikipedia": "en:Deichmann SE",
            "name": "Deichmann",
            "opening_hours": "Mo-Fr 09:00-19:00; Sa 09:00-18:00",
            "shop": "shoes"
          },
          "geometry": {
            "type": "Point",
            "coordinates": [
              13.3086435,
              48.392897
            ]
          }
        },
        {
          "type": "Feature",
          "properties": {
            "id": "2472479532",
            "osm_type": "node",
            "lat": 48.4402066,
            "lon": 13.1891988,
            "addr:city": "Bad Griesbach i.Rottal",
            "addr:country": "DE",
            "addr:housenumber": "8",
            "addr:postcode": "94086",
            "addr:street": "Weghofstraße",
            "brand": "Quick Schuh",
            "brand:wikidata": "Q2123069",
            "brand:wikipedia": "de:Quick Schuh",
            "name": "Quick Schuh",
            "opening_hours": "Mo-Fr 09:00-18:30; Sa 09:00-18:00",
            "shop": "shoes"
          },
          "geometry": {
            "type": "Point",
            "coordinates": [
              13.1891988,
              48.4402066
            ]
          }
        },
        {
          "type": "Feature",
          "properties": {
            "id": "6389024673",
            "osm_type": "node",
            "lat": 48.544732,
            "lon": 13.2233473,
            "name": "Lätz",
            "shop": "shoes"
          },
          "geometry": {
            "type": "Point",
            "coordinates": [
              13.2233473,
              48.544732
            ]
          }
        },
        {
          "type": "Feature",
          "properties": {
            "id": "9285244822",
            "osm_type": "node",
            "lat": 48.4507216,
            "lon": 13.1930663,
            "addr:city": "Bad Griesbach i.Rottal",
            "addr:country": "DE",
            "addr:housenumber": "5",
            "addr:postcode": "94086",
            "addr:street": "Stadtplatz",
            "shop": "shoes",
            "source": "Bing 2012"
          },
          "geometry": {
            "type": "Point",
            "coordinates": [
              13.1930663,
              48.4507216
            ]
          }
        }
      ],
      "children": []
    },
    {
      "bbox": {
        "south": 48.68652475,
        "west": 11.438358999999998,
        "north": 49.017078,
        "east": 12.392062499999998
      },
      "poiCount": 21,
      "leafCount": 21,
      "averagePosition": [
        12.002597385714285,
        48.91486444761905
      ],
      "data": [
        {
          "type": "Feature",
          "properties": {
            "id": "2291472491",
            "osm_type": "node",
            "lat": 48.7478488,
            "lon": 11.4695765,
            "addr:city": "Ingolstadt",
            "addr:housenumber": "6",
            "addr:postcode": "85053",
            "addr:street": "Eriagstraße",
            "brand": "Deichmann",
            "brand:wikidata": "Q664543",
            "brand:wikipedia": "en:Deichmann SE",
            "email": "service-de@deichmann.com",
            "name": "Deichmann",
            "opening_hours": "Mo-Fr 09:00-19:00; Sa 09:00-18:00",
            "phone": "+49 841 8863764",
            "shop": "shoes",
            "website": "https://stores.deichmann.com/bayern/ingolstadt/eriagstrasse-6.html",
            "wheelchair": "yes"
          },
          "geometry": {
            "type": "Point",
            "coordinates": [
              11.4695765,
              48.7478488
            ]
          }
        },
        {
          "type": "Feature",
          "properties": {
            "id": "3788722466",
            "osm_type": "node",
            "lat": 48.808553,
            "lon": 11.6903547,
            "name": "Henzl",
            "shop": "shoes",
            "toilets:wheelchair": "no",
            "wheelchair": "limited"
          },
          "geometry": {
            "type": "Point",
            "coordinates": [
              11.6903547,
              48.808553
            ]
          }
        },
        {
          "type": "Feature",
          "properties": {
            "id": "6573583713",
            "osm_type": "node",
            "lat": 48.8102325,
            "lon": 11.8586811,
            "brand": "Deichmann",
            "brand:wikidata": "Q664543",
            "brand:wikipedia": "en:Deichmann SE",
            "name": "Deichmann",
            "shop": "shoes"
          },
          "geometry": {
            "type": "Point",
            "coordinates": [
              11.8586811,
              48.8102325
            ]
          }
        },
        {
          "type": "Feature",
          "properties": {
            "id": "6573583717",
            "osm_type": "node",
            "lat": 48.8102792,
            "lon": 11.8589217,
            "shop": "shoes"
          },
          "geometry": {
            "type": "Point",
            "coordinates": [
              11.8589217,
              48.8102792
            ]
          }
        },
        {
          "type": "Feature",
          "properties": {
            "id": "9739824393",
            "osm_type": "node",
            "lat": 48.6952608,
            "lon": 12.0280177,
            "name": "HappySchuh",
            "shop": "shoes"
          },
          "geometry": {
            "type": "Point",
            "coordinates": [
              12.0280177,
              48.6952608
            ]
          }
        },
        {
          "type": "Feature",
          "properties": {
            "id": "9906920776",
            "osm_type": "node",
            "lat": 48.8151087,
            "lon": 11.8450837,
            "name": "Schäffer",
            "shop": "shoes"
          },
          "geometry": {
            "type": "Point",
            "coordinates": [
              11.8450837,
              48.8151087
            ]
          }
        },
        {
          "type": "Feature",
          "properties": {
            "id": "4142699275",
            "osm_type": "node",
            "lat": 48.7690296,
            "lon": 12.2258241,
            "name": "Schuhmode Kammermeier",
            "shop": "shoes"
          },
          "geometry": {
            "type": "Point",
            "coordinates": [
              12.2258241,
              48.7690296
            ]
          }
        },
        {
          "type": "Feature",
          "properties": {
            "id": "6780110343",
            "osm_type": "node",
            "lat": 48.8392658,
            "lon": 12.1258789,
            "addr:city": "Schierling",
            "addr:housenumber": "30",
            "addr:postcode": "84069",
            "addr:street": "Leierndorfer Straße",
            "brand": "K+K Schuh-Center",
            "brand:wikidata": "Q100272258",
            "name": "K+K Schuh-Center",
            "shop": "shoes"
          },
          "geometry": {
            "type": "Point",
            "coordinates": [
              12.1258789,
              48.8392658
            ]
          }
        },
        {
          "type": "Feature",
          "properties": {
            "id": "1477494251",
            "osm_type": "node",
            "lat": 48.9218405,
            "lon": 11.8840216,
            "brand": "Deichmann",
            "brand:wikidata": "Q664543",
            "brand:wikipedia": "en:Deichmann SE",
            "check_date:opening_hours": "2025-08-28",
            "level": "1",
            "name": "Deichmann",
            "opening_hours": "Mo-Fr 09:00-19:00; Sa 09:00-18:00",
            "shop": "shoes",
            "wheelchair": "yes"
          },
          "geometry": {
            "type": "Point",
            "coordinates": [
              11.8840216,
              48.9218405
            ]
          }
        },
        {
          "type": "Feature",
          "properties": {
            "id": "12060243939",
            "osm_type": "node",
            "lat": 48.9177951,
            "lon": 11.8716274,
            "addr:city": "Kelheim",
            "addr:country": "DE",
            "addr:housenumber": "14",
            "addr:postcode": "93309",
            "addr:street": "Donaustraße",
            "name": "Schuhmoden Döllinger",
            "opening_hours": "Mo-Fr 09:00-12:00,14:00-18:00; Sa 09:00-13:00",
            "operator": "Christa Döllinger",
            "payment:cash": "yes",
            "shop": "shoes"
          },
          "geometry": {
            "type": "Point",
            "coordinates": [
              11.8716274,
              48.9177951
            ]
          }
        },
        {
          "type": "Feature",
          "properties": {
            "id": "933702357",
            "osm_type": "node",
            "lat": 48.9804675,
            "lon": 12.1913017,
            "addr:city": "Neutraubling",
            "addr:country": "DE",
            "addr:housenumber": "3",
            "addr:postcode": "93073",
            "addr:street": "Stettiner Straße",
            "name": "Happy Schuh",
            "opening_hours": "Mo-Fr 09:30-19:30; Sa 09:00-18:00",
            "shop": "shoes",
            "wheelchair": "yes"
          },
          "geometry": {
            "type": "Point",
            "coordinates": [
              12.1913017,
              48.9804675
            ]
          }
        },
        {
          "type": "Feature",
          "properties": {
            "id": "1372592898",
            "osm_type": "node",
            "lat": 49.013063,
            "lon": 12.052395,
            "check_date:opening_hours": "2025-04-02",
            "description": "Kinderschuhe",
            "name": "passt KinderSchuhLaden",
            "opening_hours": "Mo-Fr 10:00-18:00; Sa 10:00-13:00",
            "operator": "Ayhan Bazna",
            "shop": "shoes",
            "website": "http://passtkinderschuhe.de/",
            "wheelchair": "yes"
          },
          "geometry": {
            "type": "Point",
            "coordinates": [
              12.052395,
              49.013063
            ]
          }
        },
        {
          "type": "Feature",
          "properties": {
            "id": "1913059376",
            "osm_type": "node",
            "lat": 49.0063663,
            "lon": 12.0621183,
            "level": "1",
            "name": "Schuh Mücke",
            "shop": "shoes",
            "toilets:wheelchair": "no",
            "website": "https://www.schuhmuecke.de/",
            "wheelchair": "yes"
          },
          "geometry": {
            "type": "Point",
            "coordinates": [
              12.0621183,
              49.0063663
            ]
          }
        },
        {
          "type": "Feature",
          "properties": {
            "id": "4086636494",
            "osm_type": "node",
            "lat": 49.01685,
            "lon": 12.1006383,
            "check_date:opening_hours": "2025-08-25",
            "name": "SUTOR",
            "opening_hours": "Mo-Sa 09:30-19:00",
            "shop": "shoes",
            "wheelchair": "no"
          },
          "geometry": {
            "type": "Point",
            "coordinates": [
              12.1006383,
              49.01685
            ]
          }
        },
        {
          "type": "Feature",
          "properties": {
            "id": "4706568106",
            "osm_type": "node",
            "lat": 49.0105533,
            "lon": 12.0979388,
            "brand": "Deichmann",
            "brand:wikidata": "Q664543",
            "brand:wikipedia": "en:Deichmann SE",
            "check_date:opening_hours": "2024-06-26",
            "level": "0",
            "name": "Deichmann",
            "opening_hours": "Mo-Sa 09:30-20:00",
            "phone": "+49 941 5862445",
            "shop": "shoes"
          },
          "geometry": {
            "type": "Point",
            "coordinates": [
              12.0979388,
              49.0105533
            ]
          }
        },
        {
          "type": "Feature",
          "properties": {
            "id": "4706693946",
            "osm_type": "node",
            "lat": 49.0109333,
            "lon": 12.0999223,
            "level": "0",
            "name": "Mengin",
            "opening_hours": "Mo-Sa 09:30-20:00",
            "phone": "+49 941 64660415",
            "shop": "shoes"
          },
          "geometry": {
            "type": "Point",
            "coordinates": [
              12.0999223,
              49.0109333
            ]
          }
        },
        {
          "type": "Feature",
          "properties": {
            "id": "4715252093",
            "osm_type": "node",
            "lat": 49.010716,
            "lon": 12.0988668,
            "brand": "Tamaris",
            "brand:wikidata": "Q61994827",
            "check_date:opening_hours": "2021-08-16",
            "level": "1",
            "name": "Tamaris",
            "opening_hours": "Mo-Sa 09:30-20:00",
            "phone": "+49 941 58612590",
            "shop": "shoes"
          },
          "geometry": {
            "type": "Point",
            "coordinates": [
              12.0988668,
              49.010716
            ]
          }
        },
        {
          "type": "Feature",
          "properties": {
            "id": "6389138644",
            "osm_type": "node",
            "lat": 48.9795926,
            "lon": 12.195155,
            "addr:city": "Neutraubling",
            "brand": "Deichmann",
            "brand:wikidata": "Q664543",
            "brand:wikipedia": "en:Deichmann SE",
            "name": "Deichmann",
            "shop": "shoes"
          },
          "geometry": {
            "type": "Point",
            "coordinates": [
              12.195155,
              48.9795926
            ]
          }
        },
        {
          "type": "Feature",
          "properties": {
            "id": "6610518685",
            "osm_type": "node",
            "lat": 49.0164561,
            "lon": 12.1001587,
            "addr:city": "Regensburg",
            "addr:country": "DE",
            "addr:housenumber": "16",
            "addr:postcode": "93047",
            "addr:street": "Maximilianstraße",
            "brand": "Snipes",
            "brand:wikidata": "Q42306166",
            "brand:wikipedia": "de:Snipes (Unternehmen)",
            "check_date:opening_hours": "2024-04-27",
            "name": "Snipes",
            "opening_hours": "Mo-Sa 10:00-19:00",
            "shop": "shoes",
            "wheelchair": "yes"
          },
          "geometry": {
            "type": "Point",
            "coordinates": [
              12.1001587,
              49.0164561
            ]
          }
        },
        {
          "type": "Feature",
          "properties": {
            "id": "6611537086",
            "osm_type": "node",
            "lat": 49.0163397,
            "lon": 12.0979774,
            "addr:city": "Regensburg",
            "addr:country": "DE",
            "addr:housenumber": "4",
            "addr:postcode": "93047",
            "addr:street": "Fröhliche-Türken-Straße",
            "check_date": "2023-08-27",
            "name": "Bär",
            "opening_hours": "Mo-Fr 10:00-18:30; Sa 10:00-16:00",
            "shop": "shoes"
          },
          "geometry": {
            "type": "Point",
            "coordinates": [
              12.0979774,
              49.0163397
            ]
          }
        },
        {
          "type": "Feature",
          "properties": {
            "id": "9376629021",
            "osm_type": "node",
            "lat": 49.0156016,
            "lon": 12.1000854,
            "addr:city": "Regensburg",
            "addr:housenumber": "24a",
            "addr:postcode": "93047",
            "addr:street": "Maximilianstraße",
            "check_date:opening_hours": "2024-05-11",
            "name": "Crazy 4 you",
            "opening_hours:signed": "no",
            "shop": "shoes"
          },
          "geometry": {
            "type": "Point",
            "coordinates": [
              12.1000854,
              49.0156016
            ]
          }
        }
      ],
      "children": []
    },
    {
      "bbox": {
        "south": 48.68652475,
        "west": 12.392062499999998,
        "north": 49.017078,
        "east": 13.345766
      },
      "poiCount": 23,
      "leafCount": 23,
      "averagePosition": [
        12.946152482608696,
        48.88290283043478
      ],
      "data": [
        {
          "type": "Feature",
          "properties": {
            "id": "1941181644",
            "osm_type": "node",
            "lat": 48.8292973,
            "lon": 12.9592922,
            "addr:city": "Deggendorf",
            "addr:housenumber": "24",
            "addr:postcode": "94469",
            "addr:street": "Hans-Krämer-Straße",
            "brand": "Siemes Schuhcenter",
            "brand:wikidata": "Q2800720",
            "brand:wikipedia": "en:Deichmann SE",
            "name": "Siemes Schuhcenter",
            "shop": "shoes",
            "wheelchair": "yes"
          },
          "geometry": {
            "type": "Point",
            "coordinates": [
              12.9592922,
              48.8292973
            ]
          }
        },
        {
          "type": "Feature",
          "properties": {
            "id": "2329292114",
            "osm_type": "node",
            "lat": 48.8316944,
            "lon": 12.9591057,
            "brand": "Deichmann",
            "brand:wikidata": "Q664543",
            "brand:wikipedia": "en:Deichmann SE",
            "level": "0",
            "name": "Deichmann",
            "opening_hours": "Mo-Sa 09:30-18:00",
            "shop": "shoes"
          },
          "geometry": {
            "type": "Point",
            "coordinates": [
              12.9591057,
              48.8316944
            ]
          }
        },
        {
          "type": "Feature",
          "properties": {
            "id": "2342635270",
            "osm_type": "node",
            "lat": 48.8347419,
            "lon": 12.9618003,
            "addr:city": "Deggendorf",
            "addr:country": "DE",
            "addr:housenumber": "17",
            "addr:postcode": "94469",
            "addr:street": "Oberer Stadtplatz",
            "check_date:opening_hours": "2023-09-01",
            "name": "sutor",
            "opening_hours": "Mo-Fr 09:00-18:30; Sa 09:00-18:00",
            "shop": "shoes",
            "website": "https://sutor.de/",
            "wheelchair": "yes"
          },
          "geometry": {
            "type": "Point",
            "coordinates": [
              12.9618003,
              48.8347419
            ]
          }
        },
        {
          "type": "Feature",
          "properties": {
            "id": "3668589005",
            "osm_type": "node",
            "lat": 48.7037739,
            "lon": 13.0177852,
            "addr:city": "Osterhofen",
            "addr:country": "DE",
            "addr:housenumber": "22",
            "addr:postcode": "94486",
            "addr:street": "Plattlinger Straße",
            "name": "Schuh Liebl",
            "opening_hours": "Mo-Fr 08:30-18:00; Sa 08:30-13:00",
            "shop": "shoes",
            "toilets:wheelchair": "no",
            "wheelchair": "yes"
          },
          "geometry": {
            "type": "Point",
            "coordinates": [
              13.0177852,
              48.7037739
            ]
          }
        },
        {
          "type": "Feature",
          "properties": {
            "id": "3762331537",
            "osm_type": "node",
            "lat": 48.7006394,
            "lon": 13.0218929,
            "name": "Schuhhaus Irber",
            "shop": "shoes",
            "wheelchair": "no"
          },
          "geometry": {
            "type": "Point",
            "coordinates": [
              13.0218929,
              48.7006394
            ]
          }
        },
        {
          "type": "Feature",
          "properties": {
            "id": "3762499286",
            "osm_type": "node",
            "lat": 48.7023423,
            "lon": 13.0198812,
            "addr:city": "Osterhofen",
            "addr:country": "DE",
            "addr:housename": "Highheels",
            "addr:housenumber": "10",
            "addr:postcode": "94486",
            "addr:street": "Stadtplatz",
            "name": "Highheels",
            "shop": "shoes",
            "website": "http://www.highheels-schuhe.de",
            "wheelchair": "no"
          },
          "geometry": {
            "type": "Point",
            "coordinates": [
              13.0198812,
              48.7023423
            ]
          }
        },
        {
          "type": "Feature",
          "properties": {
            "id": "6320735240",
            "osm_type": "node",
            "lat": 48.8521888,
            "lon": 12.9594069,
            "addr:housenumber": "135",
            "addr:street": "Graflinger Straße",
            "brand": "Deichmann",
            "brand:wikidata": "Q664543",
            "brand:wikipedia": "en:Deichmann SE",
            "contact:phone": "+49991 99896840",
            "contact:website": "https://stores.deichmann.com/bayern/deggendorf/graflinger-strasse-135.html",
            "name": "Deichmann",
            "opening_hours": "Mo-Sa 09:00-19:00",
            "shop": "shoes"
          },
          "geometry": {
            "type": "Point",
            "coordinates": [
              12.9594069,
              48.8521888
            ]
          }
        },
        {
          "type": "Feature",
          "properties": {
            "id": "10710890837",
            "osm_type": "node",
            "lat": 48.8609948,
            "lon": 12.882867,
            "addr:housenumber": "65",
            "addr:street": "Fritz-Schäffer-Straße",
            "contact:phone": "+4999191550",
            "name": "Schuhhaus Kilger",
            "opening_hours": "Mo-Fr 09:00-12:00, 13:00-18:00; Sa 09:00-13:00",
            "shop": "shoes"
          },
          "geometry": {
            "type": "Point",
            "coordinates": [
              12.882867,
              48.8609948
            ]
          }
        },
        {
          "type": "Feature",
          "properties": {
            "id": "416659140",
            "osm_type": "node",
            "lat": 48.8401819,
            "lon": 13.3374129,
            "name": "Obermeier",
            "opening_hours": "off",
            "shop": "shoes"
          },
          "geometry": {
            "type": "Point",
            "coordinates": [
              13.3374129,
              48.8401819
            ]
          }
        },
        {
          "type": "Feature",
          "properties": {
            "id": "389001337",
            "osm_type": "node",
            "lat": 48.8859548,
            "lon": 12.6161004,
            "addr:city": "Straubing",
            "addr:country": "DE",
            "addr:housenumber": "6",
            "addr:postcode": "94315",
            "addr:street": "Ratiborstraße",
            "brand": "Deichmann",
            "brand:wikidata": "Q664543",
            "brand:wikipedia": "en:Deichmann SE",
            "name": "Deichmann",
            "shop": "shoes"
          },
          "geometry": {
            "type": "Point",
            "coordinates": [
              12.6161004,
              48.8859548
            ]
          }
        },
        {
          "type": "Feature",
          "properties": {
            "id": "389002468",
            "osm_type": "node",
            "lat": 48.8852037,
            "lon": 12.6137909,
            "addr:city": "Straubing",
            "addr:country": "DE",
            "addr:housenumber": "197",
            "addr:postcode": "94315",
            "addr:street": "Ittlinger Straße",
            "brand": "Siemes Schuhcenter",
            "brand:wikidata": "Q2800720",
            "brand:wikipedia": "de:Siemes (Unternehmen)",
            "check_date": "2023-08-07",
            "name": "Siemes Schuhcenter",
            "opening_hours": "Mo-Fr 09:00-20:00; Sa 09:00-18:00",
            "phone": "+49 9421 183967",
            "shop": "shoes",
            "website": "https://www.schuhcenter.de/",
            "wheelchair": "yes"
          },
          "geometry": {
            "type": "Point",
            "coordinates": [
              12.6137909,
              48.8852037
            ]
          }
        },
        {
          "type": "Feature",
          "properties": {
            "id": "389002709",
            "osm_type": "node",
            "lat": 48.8838611,
            "lon": 12.6082542,
            "addr:city": "Straubing",
            "addr:country": "DE",
            "addr:housenumber": "192",
            "addr:postcode": "94315",
            "addr:street": "Ittlinger Straße",
            "check_date": "2023-08-09",
            "name": "Happy-Schuh und Du",
            "shop": "shoes",
            "wheelchair": "yes"
          },
          "geometry": {
            "type": "Point",
            "coordinates": [
              12.6082542,
              48.8838611
            ]
          }
        },
        {
          "type": "Feature",
          "properties": {
            "id": "413426939",
            "osm_type": "node",
            "lat": 48.8822016,
            "lon": 12.5721607,
            "addr:city": "Straubing",
            "addr:country": "DE",
            "addr:housenumber": "31",
            "addr:postcode": "94315",
            "addr:street": "Ludwigsplatz",
            "brand": "Sutor",
            "contact:facebook": "https://fb.com/schuhebysutor",
            "contact:instagram": "https://instagram.com/sutor_schuhe",
            "name": "sutor",
            "shop": "shoes",
            "website": "https://sutor.de",
            "wheelchair": "limited"
          },
          "geometry": {
            "type": "Point",
            "coordinates": [
              12.5721607,
              48.8822016
            ]
          }
        },
        {
          "type": "Feature",
          "properties": {
            "id": "413435138",
            "osm_type": "node",
            "lat": 48.8817114,
            "lon": 12.5705135,
            "addr:city": "Straubing",
            "addr:country": "DE",
            "addr:housenumber": "14",
            "addr:postcode": "94315",
            "addr:street": "Ludwigsplatz",
            "brand": "Deichmann",
            "brand:wikidata": "Q664543",
            "brand:wikipedia": "en:Deichmann SE",
            "name": "Deichmann",
            "opening_hours": "Mo-Fr 10:00-18:30; Sa 10:00-18:00",
            "shop": "shoes",
            "wheelchair": "limited"
          },
          "geometry": {
            "type": "Point",
            "coordinates": [
              12.5705135,
              48.8817114
            ]
          }
        },
        {
          "type": "Feature",
          "properties": {
            "id": "5321080317",
            "osm_type": "node",
            "lat": 48.9061803,
            "lon": 12.6924192,
            "name": "Zwickl",
            "shop": "shoes",
            "survey:date": "2018-01-04"
          },
          "geometry": {
            "type": "Point",
            "coordinates": [
              12.6924192,
              48.9061803
            ]
          }
        },
        {
          "type": "Feature",
          "properties": {
            "id": "11972298113",
            "osm_type": "node",
            "lat": 48.881746,
            "lon": 12.5708287,
            "name": "Iguano",
            "shop": "shoes"
          },
          "geometry": {
            "type": "Point",
            "coordinates": [
              12.5708287,
              48.881746
            ]
          }
        },
        {
          "type": "Feature",
          "properties": {
            "id": "1370418307",
            "osm_type": "node",
            "lat": 48.9892239,
            "lon": 13.3009331,
            "name": "Berndl-Schuh /Sport & Wanderkleidung",
            "shop": "shoes",
            "wheelchair": "no"
          },
          "geometry": {
            "type": "Point",
            "coordinates": [
              13.3009331,
              48.9892239
            ]
          }
        },
        {
          "type": "Feature",
          "properties": {
            "id": "2428263008",
            "osm_type": "node",
            "lat": 49.0111132,
            "lon": 13.2358683,
            "brand": "Deichmann",
            "brand:wikidata": "Q664543",
            "brand:wikipedia": "en:Deichmann SE",
            "name": "Deichmann",
            "opening_hours": "Mo-Fr 09:00-19:00; Sa 09:00-16:00",
            "shop": "shoes"
          },
          "geometry": {
            "type": "Point",
            "coordinates": [
              13.2358683,
              49.0111132
            ]
          }
        },
        {
          "type": "Feature",
          "properties": {
            "id": "4358048134",
            "osm_type": "node",
            "lat": 48.9687564,
            "lon": 13.1294406,
            "addr:city": "Regen",
            "addr:country": "DE",
            "addr:housenumber": "16",
            "addr:postcode": "94209",
            "addr:street": "Moizerlitzplatz",
            "check_date": "2024-05-17",
            "name": "Oswald Schuhe",
            "shop": "shoes",
            "website": "http://www.schuh-oswald.de"
          },
          "geometry": {
            "type": "Point",
            "coordinates": [
              13.1294406,
              48.9687564
            ]
          }
        },
        {
          "type": "Feature",
          "properties": {
            "id": "5039394765",
            "osm_type": "node",
            "lat": 49.014559,
            "lon": 13.2331797,
            "name": "Schuh Oswald",
            "shop": "shoes"
          },
          "geometry": {
            "type": "Point",
            "coordinates": [
              13.2331797,
              49.014559
            ]
          }
        },
        {
          "type": "Feature",
          "properties": {
            "id": "5843256284",
            "osm_type": "node",
            "lat": 48.9724513,
            "lon": 13.13761,
            "addr:city": "Regen",
            "addr:country": "DE",
            "addr:housenumber": "43",
            "addr:postcode": "94209",
            "addr:street": "Zwieseler Straße",
            "brand": "Deichmann",
            "brand:wikidata": "Q664543",
            "brand:wikipedia": "en:Deichmann SE",
            "name": "Deichmann",
            "phone": "+49-9921-882909",
            "shop": "shoes",
            "url": "https://stores.deichmann.com/bayern/regen/zwieseler-strasse-41.html"
          },
          "geometry": {
            "type": "Point",
            "coordinates": [
              13.13761,
              48.9724513
            ]
          }
        },
        {
          "type": "Feature",
          "properties": {
            "id": "9571014700",
            "osm_type": "node",
            "lat": 49.015801,
            "lon": 13.2273096,
            "addr:city": "Zwiesel",
            "addr:country": "DE",
            "addr:housenumber": "23",
            "addr:postcode": "94227",
            "addr:street": "Dr.-Schott-Straße",
            "name": "Happy Schuh & Du?",
            "shop": "shoes"
          },
          "geometry": {
            "type": "Point",
            "coordinates": [
              13.2273096,
              49.015801
            ]
          }
        },
        {
          "type": "Feature",
          "properties": {
            "id": "12022798581",
            "osm_type": "node",
            "lat": 48.9721467,
            "lon": 13.1336539,
            "level": "0",
            "name": "huber",
            "shop": "shoes"
          },
          "geometry": {
            "type": "Point",
            "coordinates": [
              13.1336539,
              48.9721467
            ]
          }
        }
      ],
      "children": []
    }
  ]
}