{
  "bbox": {
    "south": 46.372652,
    "west": 9.530952,
    "north": 47.033758500000005,
    "east": 11.438358999999998
  },
  "poiCount": 70,
  "leafCount": 0,
  "averagePosition": [
    10.882787095714285,
    46.621751422857145
  ],
  "data": [],
  "children": [
    {
      "bbox": {
        "south": 46.372652,
        "west": 9.530952,
        "north": 46.70320525,
        "east": 10.484655499999999
      },
      "poiCount": 8,
      "leafCount": 8,
      "averagePosition": [
        10.145809325,
        46.50955775
      ],
      "data": [
        {
          "type": "Feature",
          "properties": {
            "id": "8922195939",
            "osm_type": "node",
            "lat": 46.5311173,
            "lon": 9.8736527,
            "addr:city": "Samedan",
            "addr:housenumber": "2",
            "addr:postcode": "7503",
            "addr:street": "Cho d'Punt",
            "level": "0",
            "name": "S-CHARPAS Shoes and Sportswear",
            "opening_hours": "Jul-Aug: Mo-Sa 09:00-19:00; Jul-Aug: Su 09:30-17:30; Sep-Nov: Mo-Fr 09:00-19:00; Sep-Nov: Sa 09:00-18:00; Sep-Nov: Su off; Dec-Mar: Mo-Sa 09:00-19:00; Dec-Mar: Su 09:30-17:30; Apr-Jun: Mo-Fr 09:00-19:00; Apr-Jun: Sa 09:00-18:00; Apr-Jun: Su off",
            "phone": "+41 81 852 33 33",
            "shop": "shoes",
            "website": "https://endersport.com"
          },
          "geometry": {
            "type": "Point",
            "coordinates": [
              9.8736527,
              46.5311173
            ]
          }
        },
        {
          "type": "Feature",
          "properties": {
            "id": "11983685950",
            "osm_type": "node",
            "lat": 46.4983348,
            "lon": 9.8396954,
            "brand": "Bally",
            "brand:wikidata": "Q688195",
            "name": "Bally",
            "shop": "shoes",
            "website": "https://www.bally.ch/"
          },
          "geometry": {
            "type": "Point",
            "coordinates": [
              9.8396954,
              46.4983348
            ]
          }
        },
        {
          "type": "Feature",
          "properties": {
            "id": "4476448787",
            "osm_type": "node",
            "lat": 46.5353338,
            "lon": 10.1341334,
            "name": "Nero Giardini",
            "shop": "shoes",
            "source": "survey"
          },
          "geometry": {
            "type": "Point",
            "coordinates": [
              10.1341334,
              46.5353338
            ]
          }
        },
        {
          "type": "Feature",
          "properties": {
            "id": "4477060236",
            "osm_type": "node",
            "lat": 46.5419791,
            "lon": 10.1381072,
            "shop": "shoes",
            "source": "survey"
          },
          "geometry": {
            "type": "Point",
            "coordinates": [
              10.1381072,
              46.5419791
            ]
          }
        },
        {
          "type": "Feature",
          "properties": {
            "id": "4477485215",
            "osm_type": "node",
            "lat": 46.5450097,
            "lon": 10.138232,
            "name": "Calzature Schuhe",
            "shop": "shoes",
            "source": "survey"
          },
          "geometry": {
            "type": "Point",
            "coordinates": [
              10.138232,
              46.5450097
            ]
          }
        },
        {
          "type": "Feature",
          "properties": {
            "id": "5522631116",
            "osm_type": "node",
            "lat": 46.488945,
            "lon": 10.2939093,
            "shop": "shoes"
          },
          "geometry": {
            "type": "Point",
            "coordinates": [
              10.2939093,
              46.488945
            ]
          }
        },
        {
          "type": "Feature",
          "properties": {
            "id": "13009520461",
            "osm_type": "node",
            "lat": 46.4687512,
            "lon": 10.3763291,
            "check_date": "2025-07-18",
            "name": "Pellerossa",
            "shop": "shoes"
          },
          "geometry": {
            "type": "Point",
            "coordinates": [
              10.3763291,
              46.4687512
            ]
          }
        },
        {
          "type": "Feature",
          "properties": {
            "id": "13009520468",
            "osm_type": "node",
            "lat": 46.4669911,
            "lon": 10.3724155,
            "check_date": "2025-07-17",
            "name": "Trabucchi",
            "shop": "shoes"
          },
          "geometry": {
            "type": "Point",
            "coordinates": [
              10.3724155,
              46.4669911
            ]
          }
        }
      ],
      "children": []
    },
    {
      "bbox": {
        "south": 46.372652,
        "west": 10.484655499999999,
        "north": 46.70320525,
        "east": 11.438358999999998
      },
      "poiCount": 44,
      "leafCount": 44,
      "averagePosition": [
        11.186673784090909,
        46.544231654545456
      ],
      "data": [
        {
          "type": "Feature",
          "properties": {
            "id": "2380347546",
            "osm_type": "node",
            "lat": 46.5488288,
            "lon": 11.0036773,
            "name": "Schuhmacher Berger",
            "shop": "shoes"
          },
          "geometry": {
            "type": "Point",
            "coordinates": [
              11.0036773,
              46.5488288
            ]
          }
        },
        {
          "type": "Feature",
          "properties": {
            "id": "2503251924",
            "osm_type": "node",
            "lat": 46.6288552,
            "lon": 10.7755734,
            "addr:city": "Schlanders",
            "addr:housenumber": "68",
            "addr:postcode": "39028",
            "addr:street": "Hauptstraße",
            "check_date:opening_hours": "2024-06-26",
            "email": "schuhe.oberhofer@yahoo.com",
            "fax": "+39 0473 730290",
            "name": "Schuhhaus Oberhofer",
            "opening_hours": "Mo-Fr 08:00-12:15,15:00-19:00; Su off; Sa 08:00-12:15",
            "phone": "+39 0473 730290",
            "shop": "shoes",
            "website": "http://www.schuhe-oberhofer.schlanders.biz/"
          },
          "geometry": {
            "type": "Point",
            "coordinates": [
              10.7755734,
              46.6288552
            ]
          }
        },
        {
          "type": "Feature",
          "properties": {
            "id": "3481746456",
            "osm_type": "node",
            "lat": 46.616673,
            "lon": 10.7001863,
            "name": "Spechtenhauser",
            "shop": "shoes"
          },
          "geometry": {
            "type": "Point",
            "coordinates": [
              10.7001863,
              46.616673
            ]
          }
        },
        {
          "type": "Feature",
          "properties": {
            "id": "4250147368",
            "osm_type": "node",
            "lat": 46.6497806,
            "lon": 11.0028835,
            "name": "Nova Schuhe",
            "shop": "shoes"
          },
          "geometry": {
            "type": "Point",
            "coordinates": [
              11.0028835,
              46.6497806
            ]
          }
        },
        {
          "type": "Feature",
          "properties": {
            "id": "5030871002",
            "osm_type": "node",
            "lat": 46.689387,
            "lon": 10.5464278,
            "addr:housenumber": "27b",
            "addr:street": "Via generale Ignaz Verdross",
            "name": "Veith sas.",
            "shop": "shoes"
          },
          "geometry": {
            "type": "Point",
            "coordinates": [
              10.5464278,
              46.689387
            ]
          }
        },
        {
          "type": "Feature",
          "properties": {
            "id": "6423401472",
            "osm_type": "node",
            "lat": 46.5102803,
            "lon": 10.924298,
            "name": "Schuhe Berger",
            "shop": "shoes"
          },
          "geometry": {
            "type": "Point",
            "coordinates": [
              10.924298,
              46.5102803
            ]
          }
        },
        {
          "type": "Feature",
          "properties": {
            "id": "11890812250",
            "osm_type": "node",
            "lat": 46.6500557,
            "lon": 11.0055787,
            "name": "Unterholzner",
            "shop": "shoes"
          },
          "geometry": {
            "type": "Point",
            "coordinates": [
              11.0055787,
              46.6500557
            ]
          }
        },
        {
          "type": "Feature",
          "properties": {
            "id": "520092049",
            "osm_type": "node",
            "lat": 46.4726939,
            "lon": 11.261269,
            "addr:city": "Eppan an der Weinstraße - Appiano sulla Strada del Vino",
            "addr:city:de": "Eppan an der Weinstraße",
            "addr:city:it": "Appiano sulla Strada del Vino",
            "addr:country": "IT",
            "addr:hamlet": "St. Pauls - San Paolo",
            "addr:hamlet:de": "St. Pauls",
            "addr:hamlet:it": "San Paolo",
            "addr:housenumber": "5",
            "addr:postcode": "39057",
            "addr:street": "Unterrainer Straße - Strada Riva di Sotto",
            "addr:street:de": "Unterrainer Straße",
            "addr:street:it": "Strada Riva di Sotto",
            "description": "Verleiht auch Klettersteigausrüstung und bietet diesbezüglich Beratung.",
            "email": "info@wegerschuhe.com",
            "fax": "+39 0471 673469",
            "name": "Weger Schuhe und Bergsport",
            "opening_hours": "Mo-Fr 08:00-12:00, 15:00-19:00; Sa 08:00-12:00",
            "operator": "Weger K.G.",
            "phone": "+39 0471 662502",
            "ref:vatin": "IT00737710210",
            "shop": "shoes",
            "website": "https://www.wegerschuhe.com/",
            "wheelchair": "no"
          },
          "geometry": {
            "type": "Point",
            "coordinates": [
              11.261269,
              46.4726939
            ]
          }
        },
        {
          "type": "Feature",
          "properties": {
            "id": "768139385",
            "osm_type": "node",
            "lat": 46.5430094,
            "lon": 11.2037151,
            "name": "Rauch, Schuhe, Lederwaren",
            "shop": "shoes"
          },
          "geometry": {
            "type": "Point",
            "coordinates": [
              11.2037151,
              46.5430094
            ]
          }
        },
        {
          "type": "Feature",
          "properties": {
            "id": "831340664",
            "osm_type": "node",
            "lat": 46.6706887,
            "lon": 11.1640431,
            "name": "Jamaica Shoes & More",
            "shop": "shoes"
          },
          "geometry": {
            "type": "Point",
            "coordinates": [
              11.1640431,
              46.6706887
            ]
          }
        },
        {
          "type": "Feature",
          "properties": {
            "id": "845283619",
            "osm_type": "node",
            "lat": 46.6848603,
            "lon": 11.0743381,
            "contact:phone": "+39 0473 967 050",
            "name": "Schuh-, Bergschuh und Lederwaren Pircher",
            "opening_hours": "Mo-Fr 08:30-12:30, 15:00-19:00; Sa 08:30-12:30, Su off",
            "shop": "shoes",
            "source": "http://www.partschins.com/de/ortsinfo/einkaufen.html"
          },
          "geometry": {
            "type": "Point",
            "coordinates": [
              11.0743381,
              46.6848603
            ]
          }
        },
        {
          "type": "Feature",
          "properties": {
            "id": "2749562856",
            "osm_type": "node",
            "lat": 46.4996194,
            "lon": 11.3558083,
            "addr:city": "Bolzano - Bozen",
            "addr:city:de": "Bozen",
            "addr:city:it": "Bolzano",
            "addr:housenumber": "11",
            "addr:postcode": "39100",
            "addr:street": "Via dei Portici - Laubengasse",
            "addr:street:de": "Laubengasse",
            "addr:street:it": "Via dei Portici",
            "brand": "Foot Locker",
            "brand:wikidata": "Q63335",
            "check_date": "2023-11-26",
            "clothes": "women;men;fashion;sports;children",
            "name": "Foot Locker",
            "shop": "shoes",
            "wheelchair": "yes"
          },
          "geometry": {
            "type": "Point",
            "coordinates": [
              11.3558083,
              46.4996194
            ]
          }
        },
        {
          "type": "Feature",
          "properties": {
            "id": "2749598416",
            "osm_type": "node",
            "lat": 46.4986426,
            "lon": 11.3535387,
            "addr:city": "Bolzano - Bozen",
            "addr:city:de": "Bozen",
            "addr:city:it": "Bolzano",
            "addr:housenumber": "6",
            "addr:postcode": "39100",
            "addr:street": "Via della Mostra - Mustergasse",
            "addr:street:de": "Mustergasse",
            "addr:street:it": "Via della Mostra",
            "brand": "New Balance",
            "brand:wikidata": "Q742988",
            "name": "New Balance",
            "opening_hours": "Mo-Sa 09:30-19:00",
            "shop": "shoes"
          },
          "geometry": {
            "type": "Point",
            "coordinates": [
              11.3535387,
              46.4986426
            ]
          }
        },
        {
          "type": "Feature",
          "properties": {
            "id": "2749775211",
            "osm_type": "node",
            "lat": 46.4165606,
            "lon": 11.2077907,
            "addr:city": "Ruffrè-Mendola",
            "addr:city:de": "Kaltern an der Weinstraße",
            "addr:city:it": "Caldaro sulla Strada del Vino",
            "addr:housenumber": "1",
            "addr:place": "Mendelpass - Passo Mendola",
            "addr:place:de": "Mendelpass",
            "addr:place:it": "Passo Mendola",
            "addr:postcode": "38010",
            "addr:street": "Mendola - Campi di Golf",
            "name": "Schneider",
            "name:de": "Schneider",
            "phone": "+39 0471 632196",
            "seasonal": "spring;summer;autumn",
            "shop": "shoes"
          },
          "geometry": {
            "type": "Point",
            "coordinates": [
              11.2077907,
              46.4165606
            ]
          }
        },
        {
          "type": "Feature",
          "properties": {
            "id": "3023928459",
            "osm_type": "node",
            "lat": 46.4878493,
            "lon": 11.3183975,
            "contact:website": "https://www.buratti.it",
            "name": "Buratti",
            "shop": "shoes"
          },
          "geometry": {
            "type": "Point",
            "coordinates": [
              11.3183975,
              46.4878493
            ]
          }
        },
        {
          "type": "Feature",
          "properties": {
            "id": "3574229490",
            "osm_type": "node",
            "lat": 46.6903299,
            "lon": 11.18731,
            "contact:phone": "+39 0473 945 644",
            "name": "Alber - Schuhgeschäft",
            "opening_hours": "Mo-Fr 08:30-12:30, 15:00-18:30; Sa 08:30-12:30, 15:30-17:30",
            "repair": "yes",
            "shop": "shoes",
            "source": "https://www.merano-suedtirol.it/de/schenna/betrieb/alber-schuhgeschaeft-2141/",
            "source:date": "2017-04-30"
          },
          "geometry": {
            "type": "Point",
            "coordinates": [
              11.18731,
              46.6903299
            ]
          }
        },
        {
          "type": "Feature",
          "properties": {
            "id": "3597774094",
            "osm_type": "node",
            "lat": 46.4764327,
            "lon": 11.3339228,
            "name": "Pittarosso",
            "shop": "shoes"
          },
          "geometry": {
            "type": "Point",
            "coordinates": [
              11.3339228,
              46.4764327
            ]
          }
        },
        {
          "type": "Feature",
          "properties": {
            "id": "4170368371",
            "osm_type": "node",
            "lat": 46.4897755,
            "lon": 11.3355038,
            "addr:city": "Bolzano - Bozen",
            "addr:housenumber": "23",
            "addr:postcode": "39100",
            "addr:street": "Via Milano - Mailandstraße",
            "name": "Spaccio Calzature Italiane",
            "shop": "shoes"
          },
          "geometry": {
            "type": "Point",
            "coordinates": [
              11.3355038,
              46.4897755
            ]
          }
        },
        {
          "type": "Feature",
          "properties": {
            "id": "4181915146",
            "osm_type": "node",
            "lat": 46.4988793,
            "lon": 11.3550087,
            "addr:city": "Bolzano - Bozen",
            "addr:postcode": "39100",
            "addr:street": "Piazza del Grano - Kornplatz",
            "name": "Knoll Junior",
            "name:de": "Knoll Junior",
            "shop": "shoes"
          },
          "geometry": {
            "type": "Point",
            "coordinates": [
              11.3550087,
              46.4988793
            ]
          }
        },
        {
          "type": "Feature",
          "properties": {
            "id": "4220233903",
            "osm_type": "node",
            "lat": 46.4971971,
            "lon": 11.3551766,
            "addr:city": "Bolzano - Bozen",
            "addr:postcode": "39100",
            "addr:street": "Via Alto Adige - Südtiroler Straße",
            "brand": "Ecco",
            "brand:wikidata": "Q1280255",
            "name": "Ecco",
            "shop": "shoes"
          },
          "geometry": {
            "type": "Point",
            "coordinates": [
              11.3551766,
              46.4971971
            ]
          }
        },
        {
          "type": "Feature",
          "properties": {
            "id": "4228999297",
            "osm_type": "node",
            "lat": 46.4551749,
            "lon": 11.258778,
            "addr:housenumber": "15",
            "addr:postcode": "39057",
            "addr:street": "Rathausplatz - Piazza Municipio",
            "name": "Schuhbiduu",
            "opening_hours": "Mo-Fr 08:30-12:00,15:00-18:00; Sa 09:00-12:00",
            "phone": "+39 0471 644066",
            "shop": "shoes",
            "wheelchair": "yes"
          },
          "geometry": {
            "type": "Point",
            "coordinates": [
              11.258778,
              46.4551749
            ]
          }
        },
        {
          "type": "Feature",
          "properties": {
            "id": "4229009889",
            "osm_type": "node",
            "lat": 46.4547547,
            "lon": 11.2590019,
            "addr:housenumber": "18",
            "addr:postcode": "39057",
            "addr:street": "Josef-Innerhofer-Straße - Via Josef Innerhofer",
            "name": "by Anne",
            "opening_hours": "Mo-Fr 08:30-12:00,15:00-18:30; Sa 08:30-12:00; PH off",
            "shop": "shoes"
          },
          "geometry": {
            "type": "Point",
            "coordinates": [
              11.2590019,
              46.4547547
            ]
          }
        },
        {
          "type": "Feature",
          "properties": {
            "id": "4232422374",
            "osm_type": "node",
            "lat": 46.4895113,
            "lon": 11.3322536,
            "addr:city": "Bolzano - Bozen",
            "addr:housenumber": "97b",
            "addr:postcode": "39100",
            "addr:street": "Via Milano - Mailandstraße",
            "name": "Viver Calzature",
            "shop": "shoes"
          },
          "geometry": {
            "type": "Point",
            "coordinates": [
              11.3322536,
              46.4895113
            ]
          }
        },
        {
          "type": "Feature",
          "properties": {
            "id": "4234394542",
            "osm_type": "node",
            "lat": 46.5013548,
            "lon": 11.3423984,
            "addr:city": "Bolzano - Bozen",
            "addr:housenumber": "18",
            "addr:postcode": "39100",
            "addr:street": "Corso della Libertà - Freiheitsstraße",
            "name": "Calzature Gudas",
            "opening_hours": "Mo-Fr 09:00-12:00, 15:00-19:00; Sa 09:00-12:00, 15:00-18:00",
            "operator": "Calzature Due Leoni Srl",
            "payment:credit_cards": "yes",
            "payment:debit_cards": "yes",
            "phone": "+39 0471 260297",
            "shop": "shoes",
            "website": "https://calzaturedueleoni.it/",
            "wheelchair": "no"
          },
          "geometry": {
            "type": "Point",
            "coordinates": [
              11.3423984,
              46.5013548
            ]
          }
        },
        {
          "type": "Feature",
          "properties": {
            "id": "5128608397",
            "osm_type": "node",
            "lat": 46.684722,
            "lon": 11.0742036,
            "name": "Pircher's Garagenverkauf",
            "self_service": "yes",
            "shop": "shoes"
          },
          "geometry": {
            "type": "Point",
            "coordinates": [
              11.0742036,
              46.684722
            ]
          }
        },
        {
          "type": "Feature",
          "properties": {
            "id": "5128608398",
            "osm_type": "node",
            "lat": 46.6847988,
            "lon": 11.0743028,
            "name": "Pircher's Showroom",
            "shop": "shoes"
          },
          "geometry": {
            "type": "Point",
            "coordinates": [
              11.0743028,
              46.6847988
            ]
          }
        },
        {
          "type": "Feature",
          "properties": {
            "id": "5779081766",
            "osm_type": "node",
            "lat": 46.439329,
            "lon": 11.1357182,
            "addr:housenumber": "3",
            "addr:street": "Via Quattro Novembre",
            "name": "Schneider",
            "shop": "shoes"
          },
          "geometry": {
            "type": "Point",
            "coordinates": [
              11.1357182,
              46.439329
            ]
          }
        },
        {
          "type": "Feature",
          "properties": {
            "id": "5803590353",
            "osm_type": "node",
            "lat": 46.4995971,
            "lon": 11.354639,
            "addr:city": "Bolzano - Bozen",
            "addr:city:de": "Bozen",
            "addr:city:it": "Bolzano",
            "addr:housenumber": "31",
            "addr:street": "Via dei Portici - Laubengasse",
            "addr:street:de": "Laubengasse",
            "addr:street:it": "Via dei Portici",
            "brand": "Aldo",
            "brand:wikidata": "Q2832297",
            "name": "Aldo",
            "shop": "shoes"
          },
          "geometry": {
            "type": "Point",
            "coordinates": [
              11.354639,
              46.4995971
            ]
          }
        },
        {
          "type": "Feature",
          "properties": {
            "id": "5803734177",
            "osm_type": "node",
            "lat": 46.4383345,
            "lon": 11.1364367,
            "name": "Battisti",
            "shop": "shoes"
          },
          "geometry": {
            "type": "Point",
            "coordinates": [
              11.1364367,
              46.4383345
            ]
          }
        },
        {
          "type": "Feature",
          "properties": {
            "id": "6648154668",
            "osm_type": "node",
            "lat": 46.6155692,
            "lon": 11.145564,
            "addr:city": "Lana",
            "addr:housenumber": "4",
            "addr:postcode": "39011",
            "addr:street": "Am Gries - Via Gries",
            "name": "Knoll",
            "opening_hours": "Mo-Sa 09:00-12:30, Mo-We,Fr 15:00-18:30, Th 16:00-21:30; Su,PH off",
            "shop": "shoes",
            "website": "http://knollschuhe.com/"
          },
          "geometry": {
            "type": "Point",
            "coordinates": [
              11.145564,
              46.6155692
            ]
          }
        },
        {
          "type": "Feature",
          "properties": {
            "id": "7066049251",
            "osm_type": "node",
            "lat": 46.5002819,
            "lon": 11.3401087,
            "contact:website": "https://elenashoes.it",
            "level": "0",
            "name": "Elena",
            "opening_hours": "Mo-Sa 09:00-19:00",
            "shop": "shoes",
            "wheelchair": "limited"
          },
          "geometry": {
            "type": "Point",
            "coordinates": [
              11.3401087,
              46.5002819
            ]
          }
        },
        {
          "type": "Feature",
          "properties": {
            "id": "7090563413",
            "osm_type": "node",
            "lat": 46.4997671,
            "lon": 11.3513262,
            "addr:city": "Bolzano - Bozen",
            "addr:housenumber": "20",
            "addr:postcode": "39100",
            "addr:street": "Via Museo - Museumstraße",
            "brand": "Deichmann",
            "brand:wikidata": "Q664543",
            "brand:wikipedia": "en:Deichmann SE",
            "check_date:opening_hours": "2024-05-26",
            "name": "Deichmann",
            "opening_hours": "Mo-Sa 09:00-19:00; Su 10:30-18:30",
            "phone": "+390471979471",
            "shop": "shoes"
          },
          "geometry": {
            "type": "Point",
            "coordinates": [
              11.3513262,
              46.4997671
            ]
          }
        },
        {
          "type": "Feature",
          "properties": {
            "id": "7514772859",
            "osm_type": "node",
            "lat": 46.4253144,
            "lon": 11.3354803,
            "name": "Buratti",
            "shop": "shoes",
            "website": "https://www.buratti.it/"
          },
          "geometry": {
            "type": "Point",
            "coordinates": [
              11.3354803,
              46.4253144
            ]
          }
        },
        {
          "type": "Feature",
          "properties": {
            "id": "7726095124",
            "osm_type": "node",
            "lat": 46.6135791,
            "lon": 11.1554382,
            "addr:housenumber": "55",
            "addr:street": "Andreas-Hofer-Straße - Via Andreas Hofer",
            "email": "tobias@spitaler-schuhe.it",
            "name": "Spitaler",
            "opening_hours": "Mo-Fr 09:00-12:00,15:00-18:30; Sa 09:00-12:30",
            "payment:credit_cards": "yes",
            "payment:debit_cards": "yes",
            "phone": "+39 0473 561309",
            "shop": "shoes",
            "website": "https://spitaler-schuhe.it/"
          },
          "geometry": {
            "type": "Point",
            "coordinates": [
              11.1554382,
              46.6135791
            ]
          }
        },
        {
          "type": "Feature",
          "properties": {
            "id": "7872815985",
            "osm_type": "node",
            "lat": 46.4991663,
            "lon": 11.3525315,
            "name": "saldi",
            "shop": "shoes"
          },
          "geometry": {
            "type": "Point",
            "coordinates": [
              11.3525315,
              46.4991663
            ]
          }
        },
        {
          "type": "Feature",
          "properties": {
            "id": "7872915785",
            "osm_type": "node",
            "lat": 46.4979041,
            "lon": 11.3537527,
            "name": "Ara",
            "opening_hours": "Mo-Fr 09:00-12:30,14:15-18:00; Sa 09:15-12:30",
            "shop": "shoes",
            "wheelchair": "no"
          },
          "geometry": {
            "type": "Point",
            "coordinates": [
              11.3537527,
              46.4979041
            ]
          }
        },
        {
          "type": "Feature",
          "properties": {
            "id": "8849119701",
            "osm_type": "node",
            "lat": 46.6706129,
            "lon": 11.164666,
            "name": "Martone",
            "shop": "shoes"
          },
          "geometry": {
            "type": "Point",
            "coordinates": [
              11.164666,
              46.6706129
            ]
          }
        },
        {
          "type": "Feature",
          "properties": {
            "id": "10020658207",
            "osm_type": "node",
            "lat": 46.6715767,
            "lon": 11.162622,
            "addr:housenumber": "147",
            "addr:street": "Laubengasse - Via Portici",
            "check_date": "2022-09-13",
            "name": "Sala Shoes",
            "opening_hours": "Mo-Fr 09:30-13:00,14:30-18:30; Sa 09:30-13:30",
            "payment:credit_cards": "yes",
            "payment:debit_cards": "yes",
            "shop": "shoes",
            "wheelchair": "yes"
          },
          "geometry": {
            "type": "Point",
            "coordinates": [
              11.162622,
              46.6715767
            ]
          }
        },
        {
          "type": "Feature",
          "properties": {
            "id": "10103430907",
            "osm_type": "node",
            "lat": 46.4996993,
            "lon": 11.3534526,
            "brand": "Snipes",
            "brand:wikidata": "Q42306166",
            "name": "Snipes",
            "shop": "shoes"
          },
          "geometry": {
            "type": "Point",
            "coordinates": [
              11.3534526,
              46.4996993
            ]
          }
        },
        {
          "type": "Feature",
          "properties": {
            "id": "10855568131",
            "osm_type": "node",
            "lat": 46.4138552,
            "lon": 11.2460498,
            "name": "Bruni",
            "shop": "shoes"
          },
          "geometry": {
            "type": "Point",
            "coordinates": [
              11.2460498,
              46.4138552
            ]
          }
        },
        {
          "type": "Feature",
          "properties": {
            "id": "10855612346",
            "osm_type": "node",
            "lat": 46.4130378,
            "lon": 11.2463286,
            "name": "Schuhe Taschen Mitterhofer",
            "opening_hours": "Mo-Fr 08:30-12:15,15:00-18:15; Sa 08:30-12:15,15:00-18:00",
            "shop": "shoes"
          },
          "geometry": {
            "type": "Point",
            "coordinates": [
              11.2463286,
              46.4130378
            ]
          }
        },
        {
          "type": "Feature",
          "properties": {
            "id": "10855615947",
            "osm_type": "node",
            "lat": 46.4155328,
            "lon": 11.2473059,
            "name": "Laufwerk",
            "shop": "shoes"
          },
          "geometry": {
            "type": "Point",
            "coordinates": [
              11.2473059,
              46.4155328
            ]
          }
        },
        {
          "type": "Feature",
          "properties": {
            "id": "12077491055",
            "osm_type": "node",
            "lat": 46.6711164,
            "lon": 11.1647758,
            "brand": "Geox",
            "brand:wikidata": "Q588001",
            "name": "Geox",
            "shop": "shoes"
          },
          "geometry": {
            "type": "Point",
            "coordinates": [
              11.1647758,
              46.6711164
            ]
          }
        },
        {
          "type": "Feature",
          "properties": {
            "id": "12829902698",
            "osm_type": "node",
            "lat": 46.6712032,
            "lon": 11.1620646,
            "brand": "Geox",
            "brand:wikidata": "Q588001",
            "name": "Geox",
            "shop": "shoes"
          },
          "geometry": {
            "type": "Point",
            "coordinates": [
              11.1620646,
              46.6712032
            ]
          }
        }
      ],
      "children": []
    },
    {
      "bbox": {
        "south": 46.70320525,
        "west": 9.530952,
        "north": 47.033758500000005,
        "east": 10.484655499999999
      },
      "poiCount": 9,
      "leafCount": 9,
      "averagePosition": [
        9.676924377777778,
        46.9022843
      ],
      "data": [
        {
          "type": "Feature",
          "properties": {
            "id": "5233363775",
            "osm_type": "node",
            "lat": 46.8519218,
            "lon": 9.531698,
            "check_date": "2025-02-24",
            "name": "Botty",
            "opening_hours": "Mo-Th 09:00-18:30;Fr 09:00-20:00;Sa 09:00-18:00",
            "shop": "shoes",
            "wheelchair": "no"
          },
          "geometry": {
            "type": "Point",
            "coordinates": [
              9.531698,
              46.8519218
            ]
          }
        },
        {
          "type": "Feature",
          "properties": {
            "id": "8980581332",
            "osm_type": "node",
            "lat": 46.8492802,
            "lon": 9.5324552,
            "addr:city": "Chur",
            "addr:housenumber": "23",
            "addr:postcode": "7000",
            "addr:street": "Poststrasse",
            "name": "Ecla",
            "opening_hours": "Mo-Th 09:30-18:30; Fr 09:30-19:00; Sa 09:30-17:00",
            "phone": "+41 81 250 07 67",
            "shop": "shoes",
            "website": "https://www.ecla.ch/chur"
          },
          "geometry": {
            "type": "Point",
            "coordinates": [
              9.5324552,
              46.8492802
            ]
          }
        },
        {
          "type": "Feature",
          "properties": {
            "id": "12839278305",
            "osm_type": "node",
            "lat": 46.7988025,
            "lon": 9.823937,
            "addr:city": "Davos",
            "addr:housenumber": "79",
            "addr:postcode": "7270",
            "addr:street": "Promenade",
            "name": "Degiacomi Schuhmode",
            "shop": "shoes",
            "website": "https://www.degiacomi.ch/davos/"
          },
          "geometry": {
            "type": "Point",
            "coordinates": [
              9.823937,
              46.7988025
            ]
          }
        },
        {
          "type": "Feature",
          "properties": {
            "id": "6272114790",
            "osm_type": "node",
            "lat": 46.7979846,
            "lon": 10.3010686,
            "name": "Wergles",
            "opening_hours": "Mo-Fr 08:00-12:00,14:00-18:30; Sa 08:00-12:00,14:00-17:00; PH closed",
            "shop": "shoes",
            "wheelchair": "yes"
          },
          "geometry": {
            "type": "Point",
            "coordinates": [
              10.3010686,
              46.7979846
            ]
          }
        },
        {
          "type": "Feature",
          "properties": {
            "id": "5034044347",
            "osm_type": "node",
            "lat": 46.9692989,
            "lon": 9.6885732,
            "check_date": "2025-06-08",
            "name": "Schuhhaus Joos",
            "shop": "shoes"
          },
          "geometry": {
            "type": "Point",
            "coordinates": [
              9.6885732,
              46.9692989
            ]
          }
        },
        {
          "type": "Feature",
          "properties": {
            "id": "5345546034",
            "osm_type": "node",
            "lat": 46.9619606,
            "lon": 9.5539288,
            "brand": "Geox",
            "brand:wikidata": "Q588001",
            "check_date": "2023-08-11",
            "name": "Geox",
            "opening_hours": "Mo-Su 10:00-19:00",
            "shop": "shoes"
          },
          "geometry": {
            "type": "Point",
            "coordinates": [
              9.5539288,
              46.9619606
            ]
          }
        },
        {
          "type": "Feature",
          "properties": {
            "id": "5345546048",
            "osm_type": "node",
            "lat": 46.9635168,
            "lon": 9.5534223,
            "brand": "New Balance",
            "brand:wikidata": "Q742988",
            "brand:wikipedia": "en:New Balance",
            "check_date": "2023-08-11",
            "name": "New Balance",
            "opening_hours": "Mo-Su 10:00-19:00",
            "shop": "shoes"
          },
          "geometry": {
            "type": "Point",
            "coordinates": [
              9.5534223,
              46.9635168
            ]
          }
        },
        {
          "type": "Feature",
          "properties": {
            "id": "5345546091",
            "osm_type": "node",
            "lat": 46.9642893,
            "lon": 9.5534867,
            "check_date": "2023-08-11",
            "name": "Walder",
            "opening_hours": "Mo-Su 10:00-19:00",
            "shop": "shoes"
          },
          "geometry": {
            "type": "Point",
            "coordinates": [
              9.5534867,
              46.9642893
            ]
          }
        },
        {
          "type": "Feature",
          "properties": {
            "id": "9667337208",
            "osm_type": "node",
            "lat": 46.963504,
            "lon": 9.5537496,
            "brand": "Skechers",
            "brand:wikidata": "Q2945643",
            "brand:wikipedia": "en:Skechers",
            "check_date": "2023-08-11",
            "name": "Skechers",
            "opening_hours": "Mo-Su 10:00-19:00",
            "shop": "shoes"
          },
          "geometry": {
            "type": "Point",
            "coordinates": [
              9.5537496,
              46.963504
            ]
          }
        }
      ],
      "children": []
    },
    {
      "bbox": {
        "south": 46.70320525,
        "west": 10.484655499999999,
        "north": 47.033758500000005,
        "east": 11.438358999999998
      },
      "poiCount": 9,
      "leafCount": 9,
      "averagePosition": [
        11.25807291111111,
        46.81993178888889
      ],
      "data": [
        {
          "type": "Feature",
          "properties": {
            "id": "6843864486",
            "osm_type": "node",
            "lat": 46.896602,
            "lon": 11.432173,
            "addr:street": "Neustadt - Via Città Nuova",
            "check_date": "2024-07-21",
            "name": "Passion",
            "opening_hours": "Mo-Fr 09:00-12:30, 14:30-18:30; Sa 09:00-18:00",
            "shop": "shoes"
          },
          "geometry": {
            "type": "Point",
            "coordinates": [
              11.432173,
              46.896602
            ]
          }
        },
        {
          "type": "Feature",
          "properties": {
            "id": "6843921286",
            "osm_type": "node",
            "lat": 46.8970089,
            "lon": 11.4316717,
            "addr:housenumber": "34a",
            "addr:street": "Neustadt - Via Città Nuova",
            "name": "Sandalis",
            "shop": "shoes"
          },
          "geometry": {
            "type": "Point",
            "coordinates": [
              11.4316717,
              46.8970089
            ]
          }
        },
        {
          "type": "Feature",
          "properties": {
            "id": "6844037685",
            "osm_type": "node",
            "lat": 46.8971958,
            "lon": 11.4317076,
            "addr:housenumber": "30a",
            "addr:street": "Neustadt - Via Città Nuova",
            "check_date": "2023-08-22",
            "name": "Elena",
            "shop": "shoes"
          },
          "geometry": {
            "type": "Point",
            "coordinates": [
              11.4317076,
              46.8971958
            ]
          }
        },
        {
          "type": "Feature",
          "properties": {
            "id": "2755975583",
            "osm_type": "node",
            "lat": 46.7247777,
            "lon": 10.8563408,
            "addr:city": "Schnals - Senales",
            "addr:city:de": "Schnals",
            "addr:city:it": "Senales",
            "addr:housenumber": "90",
            "addr:place": "Unser Frau - Madonna",
            "addr:place:de": "Unser Frau",
            "addr:place:it": "Madonna",
            "addr:postcode": "39020",
            "addr:street": "Unser Frau - Madonna",
            "email": "schuheweithaler@gmail.com",
            "name": "Schuhe Weithaler",
            "opening_hours": "Mo-Fr 09:00-18:30",
            "operator": "Weithaler Reinhard",
            "payment:american_express": "yes",
            "payment:cards": "yes",
            "payment:cash": "yes",
            "payment:credit_cards": "yes",
            "payment:debit_cards": "yes",
            "payment:maestro": "yes",
            "payment:mastercard": "yes",
            "payment:visa": "yes",
            "phone": "+39 0473669680",
            "shop": "shoes"
          },
          "geometry": {
            "type": "Point",
            "coordinates": [
              10.8563408,
              46.7247777
            ]
          }
        },
        {
          "type": "Feature",
          "properties": {
            "id": "2755991952",
            "osm_type": "node",
            "lat": 46.8123657,
            "lon": 11.2466293,
            "addr:city": "St. Leonhard in Passeier - San Leonardo in Passiria",
            "addr:city:de": "St. Leonhard in Passeier",
            "addr:city:it": "San Leonardo in Passiria",
            "addr:postcode": "39015",
            "addr:street": "Passeirer Straße - Via Passiria",
            "addr:street:de": "Passeirer Straße",
            "addr:street:it": "Via Passiria",
            "contact:phone": "+39 0473 656 350",
            "name": "Schuhhaus Pirpamer",
            "shop": "shoes",
            "source": "TV Passeier"
          },
          "geometry": {
            "type": "Point",
            "coordinates": [
              11.2466293,
              46.8123657
            ]
          }
        },
        {
          "type": "Feature",
          "properties": {
            "id": "5034100736",
            "osm_type": "node",
            "lat": 46.8117842,
            "lon": 11.2454572,
            "contact:city": "St. Leonhard in Passeier - San Leonardo in Passiria",
            "contact:city:de": "St. Leonhard in Passeier",
            "contact:city:it": "San Leonardo in Passiria",
            "contact:email": "info@volgger-schuh.it",
            "contact:facebook": "https://www.facebook.com/schuhweltvolgger",
            "contact:housenumber": "31",
            "contact:instagram": "https://www.instagram.com/schuhwelt_volgger_passeiertal/",
            "contact:mobile": "+39 329 2096567",
            "contact:phone": "+39 0473 656684",
            "contact:postcode": "39015",
            "contact:street": "Kohlstatt - Via dei Carbonai",
            "contact:street:de": "Kohlstatt",
            "contact:street:it": "Via dei Carbonai",
            "contact:website": "https://www.schuhwelt.it/",
            "name": "Schuhwelt Volgger",
            "operator": "Pixner Evelyn",
            "ref:vatin": "IT03140320213",
            "shoes": "sport;orthopedic",
            "shop": "shoes"
          },
          "geometry": {
            "type": "Point",
            "coordinates": [
              11.2454572,
              46.8117842
            ]
          }
        },
        {
          "type": "Feature",
          "properties": {
            "id": "5034144309",
            "osm_type": "node",
            "lat": 46.8107542,
            "lon": 11.2459775,
            "contact:phone": "+39 0473 656 258",
            "name": "Schuhe Pfitscher",
            "shop": "shoes",
            "source": "TV Passeier"
          },
          "geometry": {
            "type": "Point",
            "coordinates": [
              11.2459775,
              46.8107542
            ]
          }
        },
        {
          "type": "Feature",
          "properties": {
            "id": "5036256125",
            "osm_type": "node",
            "lat": 46.7843423,
            "lon": 11.2276065,
            "contact:phone": "+39 0473 641 008",
            "name": "Schuhe Roman",
            "shop": "shoes",
            "source": "TV Passeier"
          },
          "geometry": {
            "type": "Point",
            "coordinates": [
              11.2276065,
              46.7843423
            ]
          }
        },
        {
          "type": "Feature",
          "properties": {
            "id": "5036315223",
            "osm_type": "node",
            "lat": 46.7445553,
            "lon": 11.2050926,
            "contact:mobile": "+39 347 936 4975",
            "name": "Active Shoes by Robi",
            "shoes": "sport",
            "shop": "shoes",
            "source": "TV Passeier"
          },
          "geometry": {
            "type": "Point",
            "coordinates": [
              11.2050926,
              46.7445553
            ]
          }
        }
      ],
      "children": []
    }
  ]
}