{
  "bbox": {
    "south": 47.033758500000005,
    "west": 9.530952,
    "north": 47.694865,
    "east": 11.438358999999998
  },
  "poiCount": 165,
  "leafCount": 0,
  "averagePosition": [
    10.417442818181819,
    47.422582535757584
  ],
  "data": [],
  "children": [
    {
      "bbox": {
        "south": 47.033758500000005,
        "west": 9.530952,
        "north": 47.36431175,
        "east": 10.484655499999999
      },
      "poiCount": 21,
      "leafCount": 21,
      "averagePosition": [
        9.768170504761905,
        47.25130754285714
      ],
      "data": [
        {
          "type": "Feature",
          "properties": {
            "id": "2987831982",
            "osm_type": "node",
            "lat": 47.339789,
            "lon": 9.6528418,
            "brand": "Deichmann",
            "brand:wikidata": "Q664543",
            "brand:wikipedia": "en:Deichmann SE",
            "check_date": "2024-10-25",
            "internet_access": "no",
            "name": "Deichmann",
            "opening_hours": "Mo-Fr 08:30-18:30, Sa 08:30-17:00",
            "payment:contactless": "yes",
            "payment:credit_cards": "yes",
            "payment:debit_cards": "yes",
            "payment:girocard": "yes",
            "payment:maestro": "yes",
            "payment:mastercard": "yes",
            "payment:visa": "yes",
            "payment:visa_debit": "yes",
            "shop": "shoes",
            "wheelchair": "yes"
          },
          "geometry": {
            "type": "Point",
            "coordinates": [
              9.6528418,
              47.339789
            ]
          }
        },
        {
          "type": "Feature",
          "properties": {
            "id": "3151772203",
            "osm_type": "node",
            "lat": 47.1558368,
            "lon": 9.8202873,
            "addr:city": "Bludenz",
            "addr:country": "AT",
            "addr:housenumber": "28",
            "addr:postcode": "6700",
            "addr:street": "Werdenbergerstraße",
            "contact:phone": "+43 5552 624702",
            "contact:website": "https://www.reutterer-schuhe.at",
            "name": "Reutterer",
            "opening_hours": "Mo-Fr 08:30-18:00; Sa 08:30-16:00",
            "shop": "shoes"
          },
          "geometry": {
            "type": "Point",
            "coordinates": [
              9.8202873,
              47.1558368
            ]
          }
        },
        {
          "type": "Feature",
          "properties": {
            "id": "3151772204",
            "osm_type": "node",
            "lat": 47.1566496,
            "lon": 9.8195449,
            "addr:city": "Bludenz",
            "addr:country": "AT",
            "addr:housenumber": "2",
            "addr:postcode": "6700",
            "addr:street": "Kirchgasse",
            "contact:phone": "+43 5552 62470",
            "contact:website": "https://www.reutterer-schuhe.at",
            "name": "Reutterer",
            "opening_hours": "Mo-Fr 09:00-18:00; Sa 09:00-16:00",
            "shop": "shoes"
          },
          "geometry": {
            "type": "Point",
            "coordinates": [
              9.8195449,
              47.1566496
            ]
          }
        },
        {
          "type": "Feature",
          "properties": {
            "id": "3622223788",
            "osm_type": "node",
            "lat": 47.2488128,
            "lon": 9.610681,
            "brand": "Deichmann",
            "brand:wikidata": "Q664543",
            "brand:wikipedia": "en:Deichmann SE",
            "name": "Deichmann",
            "opening_hours": "Mo-Fr 09:00-18:00; Sa 09:00-17:00",
            "shop": "shoes"
          },
          "geometry": {
            "type": "Point",
            "coordinates": [
              9.610681,
              47.2488128
            ]
          }
        },
        {
          "type": "Feature",
          "properties": {
            "id": "3632925797",
            "osm_type": "node",
            "lat": 47.2722907,
            "lon": 9.6150123,
            "addr:city": "Rankweil",
            "addr:country": "AT",
            "addr:housenumber": "13",
            "addr:postcode": "6830",
            "addr:street": "Vorarlberger Straße",
            "brand": "shoe4you",
            "brand:wikidata": "Q108006445",
            "contact:website": "http://www.shoe4you.com",
            "name": "Shoe4You",
            "opening_hours": "Mo-Fr 09:00-19:00; Sa 09:00-17:00; PH off",
            "shop": "shoes"
          },
          "geometry": {
            "type": "Point",
            "coordinates": [
              9.6150123,
              47.2722907
            ]
          }
        },
        {
          "type": "Feature",
          "properties": {
            "id": "3645286801",
            "osm_type": "node",
            "lat": 47.2703032,
            "lon": 9.6132277,
            "addr:city": "Feldkirch",
            "addr:country": "AT",
            "addr:housenumber": "79",
            "addr:postcode": "6800",
            "addr:street": "Königshofstraße",
            "brand": "Quick Schuh",
            "brand:wikidata": "Q2123069",
            "brand:wikipedia": "de:Quick Schuh",
            "contact:email": "info@quick-schuh-feldkirch.at",
            "contact:phone": "+43 5522 82762",
            "contact:website": "http://www.quick-schuh-feldkirch.at",
            "level": "1",
            "name": "Quick Schuh",
            "opening_hours": "Mo-Th 09:00-19:00; Fr 08:30-20:00; Sa 08:30-18:00; PH off",
            "operator": "Reutterer Handelsgesellschaft m.b.H.",
            "shop": "shoes",
            "wheelchair": "yes"
          },
          "geometry": {
            "type": "Point",
            "coordinates": [
              9.6132277,
              47.2703032
            ]
          }
        },
        {
          "type": "Feature",
          "properties": {
            "id": "3710943749",
            "osm_type": "node",
            "lat": 47.2727496,
            "lon": 9.6151624,
            "addr:city": "Rankweil",
            "addr:country": "AT",
            "addr:housenumber": "20",
            "addr:postcode": "6830",
            "addr:street": "Vorarlberger Straße",
            "brand": "Deichmann",
            "brand:wikidata": "Q664543",
            "brand:wikipedia": "en:Deichmann SE",
            "contact:website": "http://www.deichmann.com",
            "name": "Deichmann",
            "opening_hours": "Mo-Fr 08:30-18:30; Sa 08:30-18:00",
            "shop": "shoes"
          },
          "geometry": {
            "type": "Point",
            "coordinates": [
              9.6151624,
              47.2727496
            ]
          }
        },
        {
          "type": "Feature",
          "properties": {
            "id": "3790425816",
            "osm_type": "node",
            "lat": 47.1530328,
            "lon": 9.813242,
            "brand": "Deichmann",
            "brand:wikidata": "Q664543",
            "brand:wikipedia": "en:Deichmann SE",
            "name": "Deichmann",
            "shop": "shoes"
          },
          "geometry": {
            "type": "Point",
            "coordinates": [
              9.813242,
              47.1530328
            ]
          }
        },
        {
          "type": "Feature",
          "properties": {
            "id": "3860627603",
            "osm_type": "node",
            "lat": 47.27084,
            "lon": 9.6409421,
            "level": "1",
            "name": "Rosenberger",
            "shop": "shoes"
          },
          "geometry": {
            "type": "Point",
            "coordinates": [
              9.6409421,
              47.27084
            ]
          }
        },
        {
          "type": "Feature",
          "properties": {
            "id": "3900533207",
            "osm_type": "node",
            "lat": 47.2376482,
            "lon": 9.5975952,
            "name": "Rosenberger",
            "shop": "shoes"
          },
          "geometry": {
            "type": "Point",
            "coordinates": [
              9.5975952,
              47.2376482
            ]
          }
        },
        {
          "type": "Feature",
          "properties": {
            "id": "3918045389",
            "osm_type": "node",
            "lat": 47.1506496,
            "lon": 9.8123499,
            "brand": "Humanic",
            "brand:wikidata": "Q1636668",
            "brand:wikipedia": "en:Humanic",
            "name": "Humanic",
            "opening_hours": "Mo-Th 09:00-19:30; Fr 09:00-21:00; Sa 08:30-18:00",
            "shop": "shoes"
          },
          "geometry": {
            "type": "Point",
            "coordinates": [
              9.8123499,
              47.1506496
            ]
          }
        },
        {
          "type": "Feature",
          "properties": {
            "id": "4680272729",
            "osm_type": "node",
            "lat": 47.3620873,
            "lon": 9.6884137,
            "addr:city": "Hohenems",
            "addr:country": "AT",
            "addr:housenumber": "14",
            "addr:postcode": "6845",
            "addr:street": "Schloßplatz",
            "check_date:opening_hours": "2024-06-04",
            "email": "hohenems@rosenberger-schuhe.at",
            "name": "Rosenberger Schuhe",
            "opening_hours": "Mo-Fr 09:00-12:00,14:00-18:00; Sa 09:00-12:00",
            "phone": "+43 5576 42561",
            "shop": "shoes",
            "website": "https://www.rosenberger-schuhe.at/schuhe/filialen/hohenems"
          },
          "geometry": {
            "type": "Point",
            "coordinates": [
              9.6884137,
              47.3620873
            ]
          }
        },
        {
          "type": "Feature",
          "properties": {
            "id": "4830347122",
            "osm_type": "node",
            "lat": 47.2372625,
            "lon": 9.5971091,
            "name": "Reutterer",
            "name:de": "Reutterer",
            "opening_hours": "Mo-Fr 09:00-18:00; Sa 09:00-16:00",
            "shop": "shoes"
          },
          "geometry": {
            "type": "Point",
            "coordinates": [
              9.5971091,
              47.2372625
            ]
          }
        },
        {
          "type": "Feature",
          "properties": {
            "id": "5357735958",
            "osm_type": "node",
            "lat": 47.235285,
            "lon": 9.5972672,
            "addr:city": "Feldkirch",
            "addr:country": "AT",
            "addr:housenumber": "2-4",
            "addr:postcode": "6800",
            "addr:street": "Leonhardsplatz",
            "description": "Barefoot shoes",
            "email": "feldkirch@schuhewiebarfuss.at",
            "name": "Schuhe wie Barfuß",
            "opening_hours": "Mo-Fr 10:00-12:00, 14:00-18:00; Sa 10:00-13:00",
            "operator": "Bruno Kühne",
            "payment:cash": "yes",
            "payment:credit_cards": "yes",
            "payment:debit_cards": "yes",
            "phone": "+43552238149",
            "shop": "shoes",
            "website": "https://www.schuhewiebarfuss.at"
          },
          "geometry": {
            "type": "Point",
            "coordinates": [
              9.5972672,
              47.235285
            ]
          }
        },
        {
          "type": "Feature",
          "properties": {
            "id": "7275487950",
            "osm_type": "node",
            "lat": 47.3576594,
            "lon": 9.6638119,
            "addr:city": "Altach",
            "addr:housenumber": "55",
            "addr:postcode": "6844",
            "addr:street": "Bauern",
            "check_date": "2023-05-25",
            "email": "info@vitaaktiva.at",
            "name": "Vita Aktiva",
            "opening_hours": "Mo 14:30-18:30; Tu-Fr 09:30-12:30, 14:30-18:30; Sa 09:30-12:30",
            "operator": "Karlheinz Schneider",
            "phone": "+43 650 4200047",
            "shop": "shoes",
            "website": "https://www.vitaaktiva.at/"
          },
          "geometry": {
            "type": "Point",
            "coordinates": [
              9.6638119,
              47.3576594
            ]
          }
        },
        {
          "type": "Feature",
          "properties": {
            "id": "7275487953",
            "osm_type": "node",
            "lat": 47.3541849,
            "lon": 9.6557862,
            "addr:city": "Altach",
            "addr:country": "AT",
            "addr:housenumber": "25",
            "addr:postcode": "6844",
            "addr:street": "Achstraße",
            "air_conditioning": "yes",
            "check_date": "2024-08-02",
            "email": "schnetzer@richtigeschuhe.at",
            "internet_access": "wlan",
            "internet_access:fee": "customers",
            "level": "0",
            "name": "Schnetzer - Richtige Schuhe",
            "opening_hours": "Mo-Fr 08:00-12:00, 14:00-18:00; Sa 08:00-12:00",
            "operator": "Schnetzer GmbH & Co KG",
            "payment:credit_cards": "yes",
            "payment:debit_cards": "yes",
            "phone": "+43 5576 72047",
            "second_hand": "no",
            "shop": "shoes",
            "website": "https://www.richtigeschuhe.at/",
            "wheelchair": "limited"
          },
          "geometry": {
            "type": "Point",
            "coordinates": [
              9.6557862,
              47.3541849
            ]
          }
        },
        {
          "type": "Feature",
          "properties": {
            "id": "11018709368",
            "osm_type": "node",
            "lat": 47.3199174,
            "lon": 9.9857818,
            "name": "Schuhhaus Beer",
            "opening_hours": "Mo-Fr 08:00-12:00,14:00-18:00; Sa 08:00-12:00,14:00-16:00",
            "shop": "shoes"
          },
          "geometry": {
            "type": "Point",
            "coordinates": [
              9.9857818,
              47.3199174
            ]
          }
        },
        {
          "type": "Feature",
          "properties": {
            "id": "12243422573",
            "osm_type": "node",
            "lat": 47.2674184,
            "lon": 9.6149676,
            "brand": "Quick Schuh",
            "brand:wikidata": "Q2123069",
            "name": "Quick Schuh",
            "shop": "shoes"
          },
          "geometry": {
            "type": "Point",
            "coordinates": [
              9.6149676,
              47.2674184
            ]
          }
        },
        {
          "type": "Feature",
          "properties": {
            "id": "1039461279",
            "osm_type": "node",
            "lat": 47.1295248,
            "lon": 10.2661886,
            "check_date": "2025-08-30",
            "name": "Alber",
            "shop": "shoes"
          },
          "geometry": {
            "type": "Point",
            "coordinates": [
              10.2661886,
              47.1295248
            ]
          }
        },
        {
          "type": "Feature",
          "properties": {
            "id": "1039461298",
            "osm_type": "node",
            "lat": 47.1283634,
            "lon": 10.2655947,
            "addr:city": "St. Anton am Arlberg",
            "addr:housenumber": "36",
            "addr:postcode": "6580",
            "addr:street": "Dorfstraße",
            "name": "Kurt Hüttl",
            "phone": "+4354463281",
            "shop": "shoes"
          },
          "geometry": {
            "type": "Point",
            "coordinates": [
              10.2655947,
              47.1283634
            ]
          }
        },
        {
          "type": "Feature",
          "properties": {
            "id": "5241643531",
            "osm_type": "node",
            "lat": 47.357153,
            "lon": 10.1857732,
            "name": "Schuster",
            "shop": "shoes",
            "source": "survey"
          },
          "geometry": {
            "type": "Point",
            "coordinates": [
              10.1857732,
              47.357153
            ]
          }
        }
      ],
      "children": []
    },
    {
      "bbox": {
        "south": 47.033758500000005,
        "west": 10.484655499999999,
        "north": 47.36431175,
        "east": 11.438358999999998
      },
      "poiCount": 38,
      "leafCount": 38,
      "averagePosition": [
        11.224493510526315,
        47.24798293947369
      ],
      "data": [
        {
          "type": "Feature",
          "properties": {
            "id": "320353507",
            "osm_type": "node",
            "lat": 47.141056,
            "lon": 10.5486719,
            "addr:city": "Landeck",
            "addr:country": "AT",
            "addr:housenumber": "30a",
            "addr:postcode": "6500",
            "addr:street": "Flirstraße",
            "brand": "Deichmann",
            "brand:wikidata": "Q664543",
            "brand:wikipedia": "en:Deichmann SE",
            "name": "Deichmann",
            "shop": "shoes",
            "wheelchair": "yes"
          },
          "geometry": {
            "type": "Point",
            "coordinates": [
              10.5486719,
              47.141056
            ]
          }
        },
        {
          "type": "Feature",
          "properties": {
            "id": "2114417289",
            "osm_type": "node",
            "lat": 47.0723276,
            "lon": 10.9706596,
            "name": "Grüner",
            "shop": "shoes"
          },
          "geometry": {
            "type": "Point",
            "coordinates": [
              10.9706596,
              47.0723276
            ]
          }
        },
        {
          "type": "Feature",
          "properties": {
            "id": "5126993404",
            "osm_type": "node",
            "lat": 47.2397189,
            "lon": 10.739388,
            "name": "Montevidal Sanitätshaus",
            "shop": "shoes",
            "wheelchair": "yes"
          },
          "geometry": {
            "type": "Point",
            "coordinates": [
              10.739388,
              47.2397189
            ]
          }
        },
        {
          "type": "Feature",
          "properties": {
            "id": "7714144928",
            "osm_type": "node",
            "lat": 47.1381148,
            "lon": 10.5667521,
            "addr:city": "Landeck",
            "addr:country": "AT",
            "addr:housenumber": "28",
            "addr:postcode": "6500",
            "addr:street": "Malserstraße",
            "name": "Schuhhaus Harrer",
            "shop": "shoes"
          },
          "geometry": {
            "type": "Point",
            "coordinates": [
              10.5667521,
              47.1381148
            ]
          }
        },
        {
          "type": "Feature",
          "properties": {
            "id": "8179007943",
            "osm_type": "node",
            "lat": 47.0740945,
            "lon": 10.665075,
            "name": "Schuhhaus Juen/Orthopädieschuhtechnik Patsch",
            "shop": "shoes"
          },
          "geometry": {
            "type": "Point",
            "coordinates": [
              10.665075,
              47.0740945
            ]
          }
        },
        {
          "type": "Feature",
          "properties": {
            "id": "11410857488",
            "osm_type": "node",
            "lat": 47.2189098,
            "lon": 10.7317299,
            "addr:city": "Imst",
            "addr:housenumber": "34a",
            "addr:postcode": "6460",
            "addr:street": "Industriezone",
            "brand": "shoe4you",
            "brand:wikidata": "Q108006445",
            "name": "shoe4you",
            "shop": "shoes"
          },
          "geometry": {
            "type": "Point",
            "coordinates": [
              10.7317299,
              47.2189098
            ]
          }
        },
        {
          "type": "Feature",
          "properties": {
            "id": "12269250935",
            "osm_type": "node",
            "lat": 47.2190502,
            "lon": 10.7350933,
            "level": "1",
            "name": "Nipp Schuh",
            "shop": "shoes"
          },
          "geometry": {
            "type": "Point",
            "coordinates": [
              10.7350933,
              47.2190502
            ]
          }
        },
        {
          "type": "Feature",
          "properties": {
            "id": "373236678",
            "osm_type": "node",
            "lat": 47.2658617,
            "lon": 11.3949054,
            "addr:city": "Innsbruck",
            "addr:country": "AT",
            "addr:housenumber": "2",
            "addr:postcode": "6020",
            "addr:street": "Sparkassenplatz",
            "name": "leguano",
            "shop": "shoes"
          },
          "geometry": {
            "type": "Point",
            "coordinates": [
              11.3949054,
              47.2658617
            ]
          }
        },
        {
          "type": "Feature",
          "properties": {
            "id": "447519599",
            "osm_type": "node",
            "lat": 47.2334387,
            "lon": 11.3733039,
            "addr:city": "Natters",
            "addr:country": "AT",
            "addr:housenumber": "1",
            "addr:postcode": "6161",
            "addr:street": "Mittergasse",
            "email": "info@schuhe-moesl.at",
            "name": "Schuhe Mösl",
            "opening_hours": "Mo-Fr 08:00-12:00,14:30-18:00; Sa 08:00-12:00; PH off",
            "phone": "+43 512 546204",
            "shop": "shoes",
            "start_date": "1955",
            "website": "https://www.schuhe-moesl.at/"
          },
          "geometry": {
            "type": "Point",
            "coordinates": [
              11.3733039,
              47.2334387
            ]
          }
        },
        {
          "type": "Feature",
          "properties": {
            "id": "588884434",
            "osm_type": "node",
            "lat": 47.2623435,
            "lon": 11.3925557,
            "addr:city": "Innsbruck",
            "addr:country": "AT",
            "addr:housenumber": "13",
            "addr:postcode": "6020",
            "addr:street": "Maximilianstraße",
            "addr:suburb": "Wilten",
            "check_date": "2025-08-27",
            "name": "Staudinger",
            "opening_hours": "Mo-Fr 09:00-18:00; PH off",
            "operator": "Schuh Staudinger GmbH",
            "phone": "+43 512 584405",
            "shop": "shoes",
            "source": "website",
            "website": "https://www.staudinger-schuh.com",
            "wheelchair": "yes"
          },
          "geometry": {
            "type": "Point",
            "coordinates": [
              11.3925557,
              47.2623435
            ]
          }
        },
        {
          "type": "Feature",
          "properties": {
            "id": "593725387",
            "osm_type": "node",
            "lat": 47.2666296,
            "lon": 11.3940564,
            "addr:city": "Innsbruck",
            "addr:country": "AT",
            "addr:housenumber": "7",
            "addr:postcode": "6020",
            "addr:street": "Maria-Theresien-Straße",
            "brand": "Humanic",
            "brand:wikidata": "Q1636668",
            "brand:wikipedia": "en:Humanic",
            "check_date": "2025-02-20",
            "name": "Humanic",
            "opening_hours": "Mo-Fr 09:00-18:30; Sa 09:30-18:00; PH off",
            "phone": "+43 512 587474",
            "shop": "shoes",
            "source": "Website",
            "website": "https://www.humanic.net/at/storefinder/%C3%96sterreich/Innsbruck/Maria-Theresienstra%C3%9Fe",
            "wheelchair": "yes"
          },
          "geometry": {
            "type": "Point",
            "coordinates": [
              11.3940564,
              47.2666296
            ]
          }
        },
        {
          "type": "Feature",
          "properties": {
            "id": "593725425",
            "osm_type": "node",
            "lat": 47.2663368,
            "lon": 11.3941378,
            "addr:city": "Innsbruck",
            "addr:country": "AT",
            "addr:housenumber": "13",
            "addr:postcode": "6020",
            "addr:street": "Maria-Theresien-Straße",
            "brand": "Ecco",
            "brand:wikidata": "Q1280255",
            "name": "Ecco",
            "shop": "shoes"
          },
          "geometry": {
            "type": "Point",
            "coordinates": [
              11.3941378,
              47.2663368
            ]
          }
        },
        {
          "type": "Feature",
          "properties": {
            "id": "595350800",
            "osm_type": "node",
            "lat": 47.264548,
            "lon": 11.3907411,
            "addr:city": "Innsbruck",
            "addr:country": "AT",
            "addr:housenumber": "22",
            "addr:postcode": "6020",
            "addr:street": "Anichstraße",
            "check_date": "2025-06-21",
            "check_date:opening_hours": "2025-06-21",
            "name": "Gea",
            "opening_hours": "Mo-Th 10:00-18:00; Fr 09:00-18:00; Sa 09:00-17:00; Su,PH off",
            "operator": "Heinrich Staudinger GmbH",
            "phone": "+43 512 582829",
            "shop": "shoes",
            "website": "https://gea-waldviertler.de/laeden/gea-innsbruck-anichstrasse/",
            "wheelchair": "yes"
          },
          "geometry": {
            "type": "Point",
            "coordinates": [
              11.3907411,
              47.264548
            ]
          }
        },
        {
          "type": "Feature",
          "properties": {
            "id": "595699709",
            "osm_type": "node",
            "lat": 47.2649658,
            "lon": 11.395227,
            "addr:city": "Innsbruck",
            "addr:country": "AT",
            "addr:street": "Meraner Straße",
            "name": "Denkstein",
            "opening_hours": "Mo-Fr 10:00-18:00; Sa 10:00-14:00; PH off",
            "shop": "shoes",
            "wheelchair": "yes"
          },
          "geometry": {
            "type": "Point",
            "coordinates": [
              11.395227,
              47.2649658
            ]
          }
        },
        {
          "type": "Feature",
          "properties": {
            "id": "599186289",
            "osm_type": "node",
            "lat": 47.2648206,
            "lon": 11.3928034,
            "addr:city": "Innsbruck",
            "addr:country": "AT",
            "addr:housenumber": "7",
            "addr:postcode": "6020",
            "addr:street": "Anichstraße",
            "check_date": "2025-08-20",
            "check_date:opening_hours": "2024-08-10",
            "name": "Schuhwerk",
            "opening_hours": "Mo-Fr 10:00-18:00; Sa 10:00-16:00; PH off",
            "phone": "+43 512 552779",
            "shop": "shoes",
            "source": "website",
            "website": "https://www.schuhwerk.cc",
            "wheelchair": "yes"
          },
          "geometry": {
            "type": "Point",
            "coordinates": [
              11.3928034,
              47.2648206
            ]
          }
        },
        {
          "type": "Feature",
          "properties": {
            "id": "617233094",
            "osm_type": "node",
            "lat": 47.2647713,
            "lon": 11.3926892,
            "addr:city": "Innsbruck",
            "addr:country": "AT",
            "addr:housenumber": "9",
            "addr:postcode": "6020",
            "addr:street": "Anichstraße",
            "check_date:opening_hours": "2024-08-10",
            "name": "Corso Italia",
            "opening_hours": "Mo-Fr 10:00-18:00; Sa 10:00-16:00; PH off",
            "phone": "+43 664 1223759",
            "shop": "shoes",
            "source": "website",
            "website": "https://www.corsoitalia.at",
            "wheelchair": "no"
          },
          "geometry": {
            "type": "Point",
            "coordinates": [
              11.3926892,
              47.2647713
            ]
          }
        },
        {
          "type": "Feature",
          "properties": {
            "id": "617233114",
            "osm_type": "node",
            "lat": 47.266811,
            "lon": 11.3930612,
            "addr:city": "Innsbruck",
            "addr:country": "AT",
            "addr:housenumber": "14",
            "addr:postcode": "6020",
            "addr:street": "Marktgraben",
            "check_date:opening_hours": "2025-04-15",
            "email": "info@stiefelkater.at",
            "level": "0",
            "name": "Stiefelkater",
            "opening_hours": "Mo-Fr 09:00-18:30; Sa 09:00-18:00; PH off",
            "operator": "Schuhhaus Stiefelkater Inh. Gerd Sauerwein e.U.",
            "payment:credit_cards": "yes",
            "payment:debit_cards": "yes",
            "phone": "+43 512 583065",
            "ref:vatin": "ATU62239802",
            "shop": "shoes",
            "source": "website",
            "website": "https://www.stiefelkater.at/",
            "wheelchair": "no"
          },
          "geometry": {
            "type": "Point",
            "coordinates": [
              11.3930612,
              47.266811
            ]
          }
        },
        {
          "type": "Feature",
          "properties": {
            "id": "743114334",
            "osm_type": "node",
            "lat": 47.2614786,
            "lon": 11.3936904,
            "addr:city": "Innsbruck",
            "addr:country": "AT",
            "addr:housenumber": "7",
            "addr:postcode": "6020",
            "addr:street": "Müllerstraße",
            "addr:suburb": "Wilten",
            "check_date": "2023-04-14",
            "email": "office@schuster-schuhtechnik.at",
            "fax": "+43 512 580385",
            "name": "Orthopädie Schuhtechnik Schuster",
            "opening_hours": "Mo-Fr 09:00-12:00, 13:00-17:30; Fr 09:00-12:00; PH off",
            "operator": "Orthopädie-Schuhtechnik Schuster GmbH",
            "phone": "+43 512 580385",
            "shop": "shoes",
            "source": "website",
            "website": "https://www.schuster-schuhtechnik.at/filiale-innsbruck",
            "wheelchair": "no"
          },
          "geometry": {
            "type": "Point",
            "coordinates": [
              11.3936904,
              47.2614786
            ]
          }
        },
        {
          "type": "Feature",
          "properties": {
            "id": "2012758282",
            "osm_type": "node",
            "lat": 47.2655651,
            "lon": 11.3930368,
            "brand": "Ecco",
            "brand:wikidata": "Q1280255",
            "brand:wikipedia": "en:ECCO",
            "level": "0",
            "name": "Ecco",
            "opening_hours": "Mo-Fr 09:00-19:00; Sa 09:00-17:00",
            "shop": "shoes",
            "wheelchair": "yes"
          },
          "geometry": {
            "type": "Point",
            "coordinates": [
              11.3930368,
              47.2655651
            ]
          }
        },
        {
          "type": "Feature",
          "properties": {
            "id": "2992094288",
            "osm_type": "node",
            "lat": 47.2630627,
            "lon": 11.4288088,
            "addr:city": "Innsbruck",
            "addr:country": "AT",
            "addr:housenumber": "56b",
            "addr:postcode": "6020",
            "addr:street": "Amraser-See-Straße",
            "addr:suburb": "Amras",
            "brand": "Deichmann",
            "brand:wikidata": "Q664543",
            "brand:wikipedia": "en:Deichmann SE",
            "check_date:opening_hours": "2024-05-29",
            "name": "Deichmann",
            "opening_hours": "Mo-Fr 09:00-19:00; Sa 09:00-18:00; PH off",
            "operator": "Deichmann Schuhvertriebsges. m. b. H.",
            "phone": "+43 512 394194",
            "shoes": "women;men;children",
            "shop": "shoes",
            "website": "https://stores.deichmann.com/at-de/tirol/innsbruck/amraserseestrasse-56-b.html",
            "wheelchair": "yes"
          },
          "geometry": {
            "type": "Point",
            "coordinates": [
              11.4288088,
              47.2630627
            ]
          }
        },
        {
          "type": "Feature",
          "properties": {
            "id": "3509026925",
            "osm_type": "node",
            "lat": 47.2720724,
            "lon": 11.2422645,
            "addr:city": "Zirl",
            "addr:country": "AT",
            "addr:housename": "Studl",
            "addr:housenumber": "17",
            "addr:postcode": "6170",
            "addr:street": "Kirchstraße",
            "name": "Schuhhaus Öfner",
            "opening_hours": "Mo-Fr 08:30-12:00,15:00-18:15; Sa 08:30-12:00; PH off",
            "payment:cash": "yes",
            "payment:maestro": "yes",
            "payment:visa": "yes",
            "phone": "+43 5238 52291",
            "shop": "shoes",
            "toilets:wheelchair": "no",
            "wheelchair": "limited"
          },
          "geometry": {
            "type": "Point",
            "coordinates": [
              11.2422645,
              47.2720724
            ]
          }
        },
        {
          "type": "Feature",
          "properties": {
            "id": "4817847221",
            "osm_type": "node",
            "lat": 47.2653772,
            "lon": 11.3947906,
            "addr:city": "Innsbruck",
            "addr:country": "AT",
            "addr:housenumber": "29-35",
            "addr:postcode": "6020",
            "addr:street": "Maria-Theresien-Straße",
            "brand": "Deichmann",
            "brand:wikidata": "Q664543",
            "brand:wikipedia": "en:Deichmann SE",
            "level": "-1",
            "name": "Deichmann",
            "name:de": "Deichmann",
            "opening_hours": "Mo-Fr 09:00-19:00; Sa 09:00-18:00; PH off",
            "operator": "Deichmann Schuhvertriebsges. m. b. H.",
            "phone": "+43 512 566 974",
            "ref:vatin": "ATU14877203",
            "shop": "shoes",
            "source": "website",
            "website": "https://stores.deichmann.com/at-de/tirol/innsbruck/maria-theresien-stasse-29-35.html",
            "wheelchair": "yes"
          },
          "geometry": {
            "type": "Point",
            "coordinates": [
              11.3947906,
              47.2653772
            ]
          }
        },
        {
          "type": "Feature",
          "properties": {
            "id": "4874073529",
            "osm_type": "node",
            "lat": 47.266485,
            "lon": 11.3920954,
            "addr:city": "Innsbruck",
            "addr:country": "AT",
            "addr:housenumber": "2",
            "addr:postcode": "6020",
            "addr:street": "Adolf-Pichler-Platz",
            "check_date": "2025-05-20",
            "check_date:opening_hours": "2023-04-15",
            "name": "Think!",
            "opening_hours": "Mo-Fr 09:30-18:00; Sa 09:30-17:00; PH off",
            "operator": "Think Schuhwerk GmbH",
            "phone": "+43 512 312330",
            "shop": "shoes",
            "website": "https://www.thinkshoes.com",
            "wheelchair": "no"
          },
          "geometry": {
            "type": "Point",
            "coordinates": [
              11.3920954,
              47.266485
            ]
          }
        },
        {
          "type": "Feature",
          "properties": {
            "id": "4874097738",
            "osm_type": "node",
            "lat": 47.2669977,
            "lon": 11.3983546,
            "addr:city": "Innsbruck",
            "addr:country": "AT",
            "addr:housenumber": "19",
            "addr:postcode": "6020",
            "addr:street": "Museumstraße",
            "brand": "ara",
            "brand:wikidata": "Q623598",
            "name": "ara",
            "opening_hours": "Mo-Fr 09:00-13:00,14:00-18:00",
            "phone": "+43 512 575734",
            "shop": "shoes",
            "website": "https://www.ara-shoes.com",
            "wheelchair": "yes"
          },
          "geometry": {
            "type": "Point",
            "coordinates": [
              11.3983546,
              47.2669977
            ]
          }
        },
        {
          "type": "Feature",
          "properties": {
            "id": "4927636761",
            "osm_type": "node",
            "lat": 47.2655051,
            "lon": 11.3947234,
            "brand": "Tamaris",
            "brand:wikidata": "Q61994827",
            "check_date": "2023-04-12",
            "level": "1",
            "name": "Tamaris",
            "shop": "shoes",
            "wheelchair": "yes"
          },
          "geometry": {
            "type": "Point",
            "coordinates": [
              11.3947234,
              47.2655051
            ]
          }
        },
        {
          "type": "Feature",
          "properties": {
            "id": "5109837847",
            "osm_type": "node",
            "lat": 47.2665592,
            "lon": 11.4046517,
            "addr:city": "Innsbruck",
            "addr:country": "AT",
            "addr:housenumber": "38",
            "addr:postcode": "6020",
            "addr:street": "Museumstraße",
            "brand": "Deichmann",
            "brand:wikidata": "Q664543",
            "brand:wikipedia": "en:Deichmann SE",
            "check_date": "2025-01-09",
            "level": "1",
            "name": "Deichmann",
            "opening_hours": "Mo-We 09:00-19:00; Th-Fr 09:00-20:00; Sa 09:00-18:00; PH off",
            "shop": "shoes",
            "wheelchair": "yes"
          },
          "geometry": {
            "type": "Point",
            "coordinates": [
              11.4046517,
              47.2665592
            ]
          }
        },
        {
          "type": "Feature",
          "properties": {
            "id": "5316392649",
            "osm_type": "node",
            "lat": 47.2591505,
            "lon": 11.32327,
            "addr:city": "Völs",
            "addr:country": "AT",
            "addr:housenumber": "18",
            "addr:postcode": "6176",
            "addr:street": "Cytastraße",
            "brand": "shoe4you",
            "brand:wikidata": "Q108006445",
            "name": "shoe4you",
            "shop": "shoes",
            "source": "website",
            "website": "https://www.shoe4you.com/at/storefinder",
            "wheelchair": "yes"
          },
          "geometry": {
            "type": "Point",
            "coordinates": [
              11.32327,
              47.2591505
            ]
          }
        },
        {
          "type": "Feature",
          "properties": {
            "id": "5486890611",
            "osm_type": "node",
            "lat": 47.2559317,
            "lon": 11.3267111,
            "addr:city": "Völs",
            "addr:country": "AT",
            "addr:housenumber": "1",
            "addr:postcode": "6176",
            "addr:street": "Cytastraße",
            "brand": "Deichmann",
            "brand:wikidata": "Q664543",
            "brand:wikipedia": "en:Deichmann SE",
            "indoor": "yes",
            "level": "0",
            "name": "Deichmann",
            "opening_hours": "Mo-Fr 09:00-19:00; Sa 09:00-18:00; PH off",
            "phone": "+43 512 304194",
            "second_hand": "no",
            "shoes:repair": "no",
            "shop": "shoes",
            "source": "website",
            "website": "https://stores.deichmann.com/at-de/tirol/voels/cytastrasse-1.html"
          },
          "geometry": {
            "type": "Point",
            "coordinates": [
              11.3267111,
              47.2559317
            ]
          }
        },
        {
          "type": "Feature",
          "properties": {
            "id": "5574814743",
            "osm_type": "node",
            "lat": 47.2682699,
            "lon": 11.4275677,
            "addr:city": "Innsbruck",
            "addr:country": "AT",
            "addr:housenumber": "6",
            "addr:postcode": "6020",
            "addr:street": "Valiergasse",
            "brand": "Deichmann",
            "brand:wikidata": "Q664543",
            "brand:wikipedia": "en:Deichmann SE",
            "name": "Deichmann",
            "opening_hours": "Mo-Fr 08:30-18:30; Sa 08:30-17:00; PH off",
            "phone": "+43 512 343121",
            "shop": "shoes",
            "source": "website",
            "website": "https://stores.deichmann.com/at-de/tirol/innsbruck/valiergasse-6.html",
            "wheelchair": "yes"
          },
          "geometry": {
            "type": "Point",
            "coordinates": [
              11.4275677,
              47.2682699
            ]
          }
        },
        {
          "type": "Feature",
          "properties": {
            "id": "5849784902",
            "osm_type": "node",
            "lat": 47.1530569,
            "lon": 11.3489994,
            "name": "Schuhe Oberracher",
            "shop": "shoes"
          },
          "geometry": {
            "type": "Point",
            "coordinates": [
              11.3489994,
              47.1530569
            ]
          }
        },
        {
          "type": "Feature",
          "properties": {
            "id": "6229577954",
            "osm_type": "node",
            "lat": 47.3290375,
            "lon": 11.1847553,
            "addr:city": "Seefeld in Tirol",
            "addr:housenumber": "608",
            "addr:postcode": "6100",
            "addr:street": "Klosterstraße",
            "check_date": "2025-06-18",
            "check_date:opening_hours": "2025-06-18",
            "email": "info@peterschuhe.at",
            "fax": "+43 5212 2037",
            "level": "0",
            "name": "Peterschuhe",
            "opening_hours": "Mo-Sa 10:00-18:00; Su,PH 10:30-17:00",
            "operator": "P.Haid KG",
            "phone": "+43 5212 2037",
            "shop": "shoes",
            "website": "https://www.peterschuhe.com/",
            "wheelchair": "yes"
          },
          "geometry": {
            "type": "Point",
            "coordinates": [
              11.1847553,
              47.3290375
            ]
          }
        },
        {
          "type": "Feature",
          "properties": {
            "id": "7004606833",
            "osm_type": "node",
            "lat": 47.304233,
            "lon": 11.0786665,
            "brand": "Deichmann",
            "brand:wikidata": "Q664543",
            "brand:wikipedia": "en:Deichmann SE",
            "name": "Deichmann",
            "shop": "shoes",
            "website": "https://www.deichmann.com/AT/de/shop/welcome.html"
          },
          "geometry": {
            "type": "Point",
            "coordinates": [
              11.0786665,
              47.304233
            ]
          }
        },
        {
          "type": "Feature",
          "properties": {
            "id": "7004606840",
            "osm_type": "node",
            "lat": 47.3040887,
            "lon": 11.078212,
            "brand": "CCC",
            "brand:wikidata": "Q11788344",
            "brand:wikipedia": "de:CCC (Unternehmen)",
            "name": "CCC",
            "shop": "shoes",
            "website": "https://www.ccc.eu/at/"
          },
          "geometry": {
            "type": "Point",
            "coordinates": [
              11.078212,
              47.3040887
            ]
          }
        },
        {
          "type": "Feature",
          "properties": {
            "id": "7009169888",
            "osm_type": "node",
            "lat": 47.3051219,
            "lon": 11.0702556,
            "brand": "Humanic",
            "brand:wikidata": "Q1636668",
            "brand:wikipedia": "en:Humanic",
            "building:levels": "2",
            "name": "Humanic",
            "shop": "shoes"
          },
          "geometry": {
            "type": "Point",
            "coordinates": [
              11.0702556,
              47.3051219
            ]
          }
        },
        {
          "type": "Feature",
          "properties": {
            "id": "8059268332",
            "osm_type": "node",
            "lat": 47.3277614,
            "lon": 11.1873405,
            "addr:city": "Seefeld in Tirol",
            "addr:housenumber": "19",
            "addr:postcode": "6100",
            "addr:street": "Innsbrucker Straße",
            "check_date": "2023-10-11",
            "email": "alex@schuh-werk.at",
            "name": "Schuhwerk by Alexander",
            "operator": "Alexander Schmid",
            "phone": "+43 5212 20173",
            "shop": "shoes",
            "website": "http://www.schuh-werk.at/"
          },
          "geometry": {
            "type": "Point",
            "coordinates": [
              11.1873405,
              47.3277614
            ]
          }
        },
        {
          "type": "Feature",
          "properties": {
            "id": "12487621228",
            "osm_type": "node",
            "lat": 47.2661958,
            "lon": 11.4044228,
            "addr:city": "Innsbruck",
            "addr:country": "AT",
            "addr:housenumber": "38",
            "addr:postcode": "6020",
            "addr:street": "Museumstraße",
            "check_date": "2025-01-09",
            "level": "1",
            "name": "Laner Schuhe",
            "note": "Shop looks to be closing down",
            "opening_hours": "Mo-We 09:00-19:00; Th-Fr 09:00-20:00; Sa 09:00-18:00; PH off",
            "shop": "shoes",
            "wheelchair": "yes"
          },
          "geometry": {
            "type": "Point",
            "coordinates": [
              11.4044228,
              47.2661958
            ]
          }
        },
        {
          "type": "Feature",
          "properties": {
            "id": "12646032982",
            "osm_type": "node",
            "lat": 47.267957,
            "lon": 11.3926593,
            "addr:housenumber": "7",
            "addr:street": "Seilergasse",
            "check_date": "2025-02-22",
            "name": "Schuhe wie barfuß",
            "shop": "shoes"
          },
          "geometry": {
            "type": "Point",
            "coordinates": [
              11.3926593,
              47.267957
            ]
          }
        },
        {
          "type": "Feature",
          "properties": {
            "id": "12667476458",
            "osm_type": "node",
            "lat": 47.2656456,
            "lon": 11.3946261,
            "level": "2",
            "name": "CUPRUM29",
            "shop": "shoes"
          },
          "geometry": {
            "type": "Point",
            "coordinates": [
              11.3946261,
              47.2656456
            ]
          }
        }
      ],
      "children": []
    },
    {
      "bbox": {
        "south": 47.36431175,
        "west": 9.530952,
        "north": 47.694865,
        "east": 10.484655499999999
      },
      "poiCount": 68,
      "leafCount": 0,
      "averagePosition": [
        9.897779807352942,
        47.50080104852942
      ],
      "data": [],
      "children": [
        {
          "bbox": {
            "south": 47.36431175,
            "west": 9.530952,
            "north": 47.529588375,
            "east": 10.007803749999999
          },
          "poiCount": 29,
          "leafCount": 29,
          "averagePosition": [
            9.711257758620691,
            47.443667010344825
          ],
          "data": [
            {
              "type": "Feature",
              "properties": {
                "id": "789705431",
                "osm_type": "node",
                "lat": 47.4771478,
                "lon": 9.6791487,
                "addr:city": "Hard",
                "addr:country": "AT",
                "addr:housenumber": "99b",
                "addr:postcode": "6971",
                "addr:street": "Rheinstraße",
                "brand": "Deichmann",
                "brand:wikidata": "Q664543",
                "brand:wikipedia": "en:Deichmann SE",
                "name": "Deichmann",
                "shop": "shoes"
              },
              "geometry": {
                "type": "Point",
                "coordinates": [
                  9.6791487,
                  47.4771478
                ]
              }
            },
            {
              "type": "Feature",
              "properties": {
                "id": "794377304",
                "osm_type": "node",
                "lat": 47.4911735,
                "lon": 9.7065208,
                "addr:city": "Hard",
                "addr:country": "AT",
                "addr:housenumber": "4",
                "addr:postcode": "6971",
                "addr:street": "Rheinstraße",
                "brand": "Deichmann",
                "brand:wikidata": "Q664543",
                "brand:wikipedia": "en:Deichmann SE",
                "name": "Deichmann",
                "opening_hours": "Mo-Fr 09:00-19:00; Sa 09:00-17:00",
                "shop": "shoes"
              },
              "geometry": {
                "type": "Point",
                "coordinates": [
                  9.7065208,
                  47.4911735
                ]
              }
            },
            {
              "type": "Feature",
              "properties": {
                "id": "1378009771",
                "osm_type": "node",
                "lat": 47.4313262,
                "lon": 9.7566395,
                "name": "Hopfner",
                "opening_hours": "Mo-Fr 08:30-12:00,14:00-18:30; Sa 09:00-13:00",
                "shop": "shoes"
              },
              "geometry": {
                "type": "Point",
                "coordinates": [
                  9.7566395,
                  47.4313262
                ]
              }
            },
            {
              "type": "Feature",
              "properties": {
                "id": "1930318285",
                "osm_type": "node",
                "lat": 47.4304824,
                "lon": 9.8973942,
                "addr:city": "Egg",
                "addr:country": "AT",
                "addr:housenumber": "511",
                "addr:place": "Loco",
                "addr:postcode": "6863",
                "at_bev:addr_date": "2022-10-01",
                "name": "Schuh Fetz",
                "shop": "shoes"
              },
              "geometry": {
                "type": "Point",
                "coordinates": [
                  9.8973942,
                  47.4304824
                ]
              }
            },
            {
              "type": "Feature",
              "properties": {
                "id": "2429309443",
                "osm_type": "node",
                "lat": 47.4139963,
                "lon": 9.7428093,
                "addr:city": "Dornbirn",
                "addr:country": "AT",
                "addr:housenumber": "1",
                "addr:postcode": "6850",
                "addr:street": "Eisengasse",
                "check_date:opening_hours": "2023-02-03",
                "name": "shu:z",
                "opening_hours": "Mo-Fr 10:00-18:00; Sa 09:00-16:00",
                "shop": "shoes"
              },
              "geometry": {
                "type": "Point",
                "coordinates": [
                  9.7428093,
                  47.4139963
                ]
              }
            },
            {
              "type": "Feature",
              "properties": {
                "id": "2435472736",
                "osm_type": "node",
                "lat": 47.4130843,
                "lon": 9.740762,
                "brand": "Humanic",
                "brand:wikidata": "Q1636668",
                "brand:wikipedia": "en:Humanic",
                "name": "Humanic",
                "shop": "shoes",
                "wheelchair": "yes"
              },
              "geometry": {
                "type": "Point",
                "coordinates": [
                  9.740762,
                  47.4130843
                ]
              }
            },
            {
              "type": "Feature",
              "properties": {
                "id": "2435479662",
                "osm_type": "node",
                "lat": 47.412786,
                "lon": 9.7416161,
                "addr:city": "Dornbirn",
                "addr:country": "AT",
                "addr:postcode": "6850",
                "addr:street": "Schulgasse",
                "contact:email": "dornbirn@reutterer-schuhe.at",
                "level": "0",
                "name": "Reutterer",
                "opening_hours": "Mo-Fr 09:00-18:30; Sa 09:00-17:00",
                "phone": "+43 5572 220 27",
                "shop": "shoes",
                "website": "https://www.reutterer-schuhe.at/filialen/dornbirn-stadtmarkt/"
              },
              "geometry": {
                "type": "Point",
                "coordinates": [
                  9.7416161,
                  47.412786
                ]
              }
            },
            {
              "type": "Feature",
              "properties": {
                "id": "2653456623",
                "osm_type": "node",
                "lat": 47.4123461,
                "lon": 9.7422964,
                "addr:city": "Dornbirn",
                "addr:country": "AT",
                "addr:housenumber": "12a",
                "addr:postcode": "6850",
                "addr:street": "Marktstraße",
                "name": "stiletto",
                "operator": "Dražana Lässer",
                "phone": "+43 5572 201412",
                "shop": "shoes",
                "website": "https://stiletto-schuhmode.at/"
              },
              "geometry": {
                "type": "Point",
                "coordinates": [
                  9.7422964,
                  47.4123461
                ]
              }
            },
            {
              "type": "Feature",
              "properties": {
                "id": "2653475981",
                "osm_type": "node",
                "lat": 47.410742,
                "lon": 9.74235,
                "name": "Rosenberger",
                "shop": "shoes",
                "wheelchair": "yes"
              },
              "geometry": {
                "type": "Point",
                "coordinates": [
                  9.74235,
                  47.410742
                ]
              }
            },
            {
              "type": "Feature",
              "properties": {
                "id": "3084827029",
                "osm_type": "node",
                "lat": 47.4234852,
                "lon": 9.6592891,
                "addr:city": "Lustenau",
                "addr:country": "AT",
                "addr:housenumber": "14",
                "addr:postcode": "6890",
                "addr:street": "Kaiser-Franz-Josef-Straße",
                "at_bev:addr_date": "2017-10-01",
                "name": "Schuh-Service Schuhmacher",
                "shop": "shoes",
                "toilets:wheelchair": "no",
                "wheelchair": "no"
              },
              "geometry": {
                "type": "Point",
                "coordinates": [
                  9.6592891,
                  47.4234852
                ]
              }
            },
            {
              "type": "Feature",
              "properties": {
                "id": "3133961339",
                "osm_type": "node",
                "lat": 47.4150886,
                "lon": 9.7413945,
                "addr:city": "Dornbirn",
                "addr:country": "AT",
                "addr:housenumber": "1",
                "addr:postcode": "6850",
                "addr:street": "Schulgasse",
                "name": "GEA",
                "shop": "shoes"
              },
              "geometry": {
                "type": "Point",
                "coordinates": [
                  9.7413945,
                  47.4150886
                ]
              }
            },
            {
              "type": "Feature",
              "properties": {
                "id": "3798478385",
                "osm_type": "node",
                "lat": 47.5016607,
                "lon": 9.7453753,
                "name": "Valentini",
                "shop": "shoes",
                "website": "https://www.valentini-schuhe.com/"
              },
              "geometry": {
                "type": "Point",
                "coordinates": [
                  9.7453753,
                  47.5016607
                ]
              }
            },
            {
              "type": "Feature",
              "properties": {
                "id": "3912663758",
                "osm_type": "node",
                "lat": 47.5045646,
                "lon": 9.7461367,
                "check_date": "2025-07-10",
                "check_date:opening_hours": "2025-07-10",
                "name": "Passt!",
                "opening_hours": "Mo-Fr 09:00-18:00; Sa 09:00-16:00",
                "shop": "shoes",
                "website": "https://www.passt-schuhe.com/"
              },
              "geometry": {
                "type": "Point",
                "coordinates": [
                  9.7461367,
                  47.5045646
                ]
              }
            },
            {
              "type": "Feature",
              "properties": {
                "id": "3912717552",
                "osm_type": "node",
                "lat": 47.5044964,
                "lon": 9.7461745,
                "check_date": "2025-07-10",
                "check_date:opening_hours": "2025-07-10",
                "name": "Joya Shop Bregenz",
                "opening_hours": "Mo-Fr 09:00-18:00; Sa 09:00-16:00",
                "shop": "shoes",
                "website": "https://www.passt-schuhe.com/"
              },
              "geometry": {
                "type": "Point",
                "coordinates": [
                  9.7461745,
                  47.5044964
                ]
              }
            },
            {
              "type": "Feature",
              "properties": {
                "id": "3913109145",
                "osm_type": "node",
                "lat": 47.5031565,
                "lon": 9.7463007,
                "brand": "Humanic",
                "brand:wikidata": "Q1636668",
                "name": "Humanic",
                "opening_hours": "Mo-Fr 09:00-18:00; Sa 09:00-17:00",
                "shop": "shoes",
                "wheelchair": "no"
              },
              "geometry": {
                "type": "Point",
                "coordinates": [
                  9.7463007,
                  47.5031565
                ]
              }
            },
            {
              "type": "Feature",
              "properties": {
                "id": "4217101950",
                "osm_type": "node",
                "lat": 47.4129352,
                "lon": 9.7418094,
                "brand": "Ecco",
                "brand:wikidata": "Q1280255",
                "brand:wikipedia": "en:ECCO",
                "name": "Ecco",
                "shop": "shoes",
                "wheelchair": "yes"
              },
              "geometry": {
                "type": "Point",
                "coordinates": [
                  9.7418094,
                  47.4129352
                ]
              }
            },
            {
              "type": "Feature",
              "properties": {
                "id": "4437722522",
                "osm_type": "node",
                "lat": 47.4126901,
                "lon": 9.7410232,
                "addr:city": "Dornbirn",
                "addr:country": "AT",
                "addr:housenumber": "11",
                "addr:mall": "Stadtmarkt",
                "addr:postcode": "6850",
                "addr:street": "Schulgasse",
                "brand": "Deichmann",
                "brand:wikidata": "Q664543",
                "brand:wikipedia": "en:Deichmann SE",
                "check_date:opening_hours": "2023-10-17",
                "contact:phone": "+43 5572 22199",
                "level": "0",
                "name": "Deichmann",
                "opening_hours": "Mo-Fr 09:00-19:00; Sa 09:00-18:00",
                "operator": "Deichmann Schuhvertriebsges. m. b. H.",
                "shop": "shoes",
                "website": "https://www.deichmann.com/"
              },
              "geometry": {
                "type": "Point",
                "coordinates": [
                  9.7410232,
                  47.4126901
                ]
              }
            },
            {
              "type": "Feature",
              "properties": {
                "id": "4582640477",
                "osm_type": "node",
                "lat": 47.5025346,
                "lon": 9.7466852,
                "addr:city": "Bregenz",
                "addr:country": "AT",
                "addr:housenumber": "3",
                "addr:postcode": "6900",
                "addr:street": "Kaiserstraße",
                "contact:email": "office@schuhvoegel.at",
                "name": "Schuh Vögel",
                "opening_hours": "Mo-Fr 09:00-18:00; Sa 09:00-16:00",
                "phone": "+43 5574 42846",
                "shop": "shoes",
                "website": "https://www.schuhvoegel.at/",
                "wheelchair": "no"
              },
              "geometry": {
                "type": "Point",
                "coordinates": [
                  9.7466852,
                  47.5025346
                ]
              }
            },
            {
              "type": "Feature",
              "properties": {
                "id": "4620962089",
                "osm_type": "node",
                "lat": 47.5023149,
                "lon": 9.7460384,
                "brand": "Reno",
                "brand:wikidata": "Q2144204",
                "brand:wikipedia": "de:Reno (Schuhhandel)",
                "name": "Reno",
                "old_name": "Charles Vögele",
                "shop": "shoes"
              },
              "geometry": {
                "type": "Point",
                "coordinates": [
                  9.7460384,
                  47.5023149
                ]
              }
            },
            {
              "type": "Feature",
              "properties": {
                "id": "4697740628",
                "osm_type": "node",
                "lat": 47.5025211,
                "lon": 9.7474316,
                "check_date:opening_hours": "2024-08-15",
                "name": "Baxx's",
                "opening_hours": "Mo-Fr 09:30-18:00; Sa 10:00-16:00",
                "operator": "Baxx's Handels GmbH",
                "shop": "shoes"
              },
              "geometry": {
                "type": "Point",
                "coordinates": [
                  9.7474316,
                  47.5025211
                ]
              }
            },
            {
              "type": "Feature",
              "properties": {
                "id": "4727805435",
                "osm_type": "node",
                "lat": 47.4883667,
                "lon": 9.6886949,
                "addr:city": "Hard",
                "addr:country": "AT",
                "addr:housenumber": "13",
                "addr:postcode": "6971",
                "addr:street": "Landstraße",
                "name": "Carina shoes + more",
                "phone": "+43 5574 84222",
                "shop": "shoes",
                "source": "geoimage.at",
                "wheelchair": "limited"
              },
              "geometry": {
                "type": "Point",
                "coordinates": [
                  9.6886949,
                  47.4883667
                ]
              }
            },
            {
              "type": "Feature",
              "properties": {
                "id": "4863689921",
                "osm_type": "node",
                "lat": 47.3757687,
                "lon": 9.6756026,
                "brand": "shoe4you",
                "brand:wikidata": "Q108006445",
                "name": "Shoe4You",
                "name:de": "Shoe4You",
                "shop": "shoes"
              },
              "geometry": {
                "type": "Point",
                "coordinates": [
                  9.6756026,
                  47.3757687
                ]
              }
            },
            {
              "type": "Feature",
              "properties": {
                "id": "6645940076",
                "osm_type": "node",
                "lat": 47.4124727,
                "lon": 9.7110545,
                "brand": "Deichmann",
                "brand:wikidata": "Q664543",
                "brand:wikipedia": "en:Deichmann SE",
                "level": "1",
                "name": "Deichmann",
                "shop": "shoes"
              },
              "geometry": {
                "type": "Point",
                "coordinates": [
                  9.7110545,
                  47.4124727
                ]
              }
            },
            {
              "type": "Feature",
              "properties": {
                "id": "6645958848",
                "osm_type": "node",
                "lat": 47.4118177,
                "lon": 9.7110244,
                "air_conditioning": "yes",
                "brand": "Humanic",
                "brand:wikidata": "Q1636668",
                "brand:wikipedia": "en:Humanic",
                "building:levels": "1",
                "check_date": "2024-11-30",
                "internet_access": "wlan",
                "internet_access:fee": "no",
                "level": "0",
                "name": "Humanic",
                "payment:contactless": "yes",
                "payment:credit_cards": "yes",
                "payment:debit_cards": "yes",
                "payment:girocard": "yes",
                "payment:maestro": "yes",
                "payment:mastercard": "yes",
                "payment:visa": "yes",
                "payment:visa_debit": "yes",
                "second_hand": "no",
                "shop": "shoes",
                "stroller": "yes",
                "wheelchair": "yes"
              },
              "geometry": {
                "type": "Point",
                "coordinates": [
                  9.7110244,
                  47.4118177
                ]
              }
            },
            {
              "type": "Feature",
              "properties": {
                "id": "7235687136",
                "osm_type": "node",
                "lat": 47.4245941,
                "lon": 9.5532876,
                "addr:city": "Oberegg",
                "addr:country": "CH",
                "addr:housenumber": "12",
                "addr:postcode": "9413",
                "addr:street": "Feldlistrasse",
                "name": "Schuh und Textil Klee",
                "shop": "shoes"
              },
              "geometry": {
                "type": "Point",
                "coordinates": [
                  9.5532876,
                  47.4245941
                ]
              }
            },
            {
              "type": "Feature",
              "properties": {
                "id": "8401793422",
                "osm_type": "node",
                "lat": 47.3783306,
                "lon": 9.5401583,
                "addr:city": "Altstätten SG",
                "addr:housenumber": "1",
                "addr:postcode": "9450",
                "addr:street": "Obergasse",
                "check_date:opening_hours": "2025-06-14",
                "name": "Tiefenbacher Schuhe",
                "opening_hours": "Mo 13:30-18:30; Tu-Fr 09:00-12:00,13:30-18:30; Sa 08:30-16:00; Su off",
                "operator": "Schuhhaus Tiefenbacher AG",
                "payment:cards": "yes",
                "payment:cash": "yes",
                "phone": "+41 71 755 76 85",
                "shop": "shoes",
                "website": "https://www.tiefenbacher.ch/filiale.asp?shoid=7224"
              },
              "geometry": {
                "type": "Point",
                "coordinates": [
                  9.5401583,
                  47.3783306
                ]
              }
            },
            {
              "type": "Feature",
              "properties": {
                "id": "8605270714",
                "osm_type": "node",
                "lat": 47.3989508,
                "lon": 9.5848141,
                "addr:city": "Rebstein",
                "addr:housenumber": "86",
                "addr:postcode": "9445",
                "addr:street": "Staatsstrasse",
                "name": "Fussorthopädie Lüchinger",
                "shop": "shoes"
              },
              "geometry": {
                "type": "Point",
                "coordinates": [
                  9.5848141,
                  47.3989508
                ]
              }
            },
            {
              "type": "Feature",
              "properties": {
                "id": "13032281124",
                "osm_type": "node",
                "lat": 47.4472872,
                "lon": 9.6527637,
                "addr:city": "St. Margrethen",
                "addr:housenumber": "2",
                "addr:postcode": "9430",
                "addr:street": "Neugrütlistrasse",
                "branch": "St. Margrethen Neugrütstrasse 2",
                "brand": "Dosenbach",
                "brand:wikidata": "Q2677329",
                "name": "Dosenbach + SPORT",
                "opening_hours": "Mo-Th 09:00-18:30; Fr 09:00-20:00; Sa 09:00-17:00; Su,PH off",
                "phone": "+41 71 740 05 85",
                "shop": "shoes",
                "website": "https://stores.dosenbach.ch/ch-de/ch/sankt-gallen/st-margrethen/neugruetstrasse-2",
                "wheelchair": "yes"
              },
              "geometry": {
                "type": "Point",
                "coordinates": [
                  9.6527637,
                  47.4472872
                ]
              }
            },
            {
              "type": "Feature",
              "properties": {
                "id": "13032287726",
                "osm_type": "node",
                "lat": 47.4502223,
                "lon": 9.6518793,
                "addr:city": "St. Margrethen",
                "addr:housenumber": "60",
                "addr:postcode": "9430",
                "addr:street": "Neudorfstrasse",
                "branch": "St. Margrethen Neudorfstrasse 60",
                "brand": "Dosenbach",
                "brand:wikidata": "Q2677329",
                "name": "Dosenbach",
                "phone": "+41 71 552 02 34",
                "shop": "shoes",
                "website": "https://stores.dosenbach.ch/ch-de/ch/sankt-gallen/st-margrethen/neudorfstrasse-60",
                "wheelchair": "yes"
              },
              "geometry": {
                "type": "Point",
                "coordinates": [
                  9.6518793,
                  47.4502223
                ]
              }
            }
          ],
          "children": []
        },
        {
          "bbox": {
            "south": 47.36431175,
            "west": 10.007803749999999,
            "north": 47.529588375,
            "east": 10.484655499999999
          },
          "poiCount": 16,
          "leafCount": 16,
          "averagePosition": [
            10.2842650875,
            47.4504491125
          ],
          "data": [
            {
              "type": "Feature",
              "properties": {
                "id": "332010173",
                "osm_type": "node",
                "lat": 47.521842,
                "lon": 10.2705577,
                "addr:city": "Sonthofen",
                "addr:country": "DE",
                "addr:postcode": "87527",
                "addr:street": "Rudolf-Diesel-Straße",
                "brand": "MyShoes",
                "brand:wikidata": "Q107091147",
                "name": "MyShoes",
                "shop": "shoes",
                "wheelchair": "yes"
              },
              "geometry": {
                "type": "Point",
                "coordinates": [
                  10.2705577,
                  47.521842
                ]
              }
            },
            {
              "type": "Feature",
              "properties": {
                "id": "332015466",
                "osm_type": "node",
                "lat": 47.5127878,
                "lon": 10.2759555,
                "check_date": "2025-04-17",
                "name": "Lacher",
                "opening_hours": "Mo-Fr 09:00-18:00; Sa 09:00-16:00; Su,PH off",
                "phone": "+49 8321 3319",
                "shop": "shoes",
                "website": "http://www.lacher-schuhe.de",
                "wheelchair": "yes"
              },
              "geometry": {
                "type": "Point",
                "coordinates": [
                  10.2759555,
                  47.5127878
                ]
              }
            },
            {
              "type": "Feature",
              "properties": {
                "id": "895722398",
                "osm_type": "node",
                "lat": 47.409171,
                "lon": 10.2738402,
                "check_date:opening_hours": "2024-09-03",
                "name": "Imminger",
                "opening_hours": "Mo-Fr 09:00-12:30,14:00-18:00",
                "shop": "shoes",
                "wheelchair": "limited"
              },
              "geometry": {
                "type": "Point",
                "coordinates": [
                  10.2738402,
                  47.409171
                ]
              }
            },
            {
              "type": "Feature",
              "properties": {
                "id": "908377693",
                "osm_type": "node",
                "lat": 47.5119719,
                "lon": 10.2794719,
                "addr:city": "Sonthofen",
                "addr:country": "DE",
                "addr:housenumber": "8",
                "addr:postcode": "87527",
                "addr:street": "Hochstraße",
                "name": "Seitensprung",
                "shop": "shoes"
              },
              "geometry": {
                "type": "Point",
                "coordinates": [
                  10.2794719,
                  47.5119719
                ]
              }
            },
            {
              "type": "Feature",
              "properties": {
                "id": "2845384201",
                "osm_type": "node",
                "lat": 47.5183441,
                "lon": 10.2870024,
                "brand": "Deichmann",
                "brand:wikidata": "Q664543",
                "brand:wikipedia": "en:Deichmann SE",
                "check_date:opening_hours": "2023-09-20",
                "name": "Deichmann",
                "opening_hours": "Mo-Fr 09:00-19:00; Sa 09:00-18:00",
                "shop": "shoes"
              },
              "geometry": {
                "type": "Point",
                "coordinates": [
                  10.2870024,
                  47.5183441
                ]
              }
            },
            {
              "type": "Feature",
              "properties": {
                "id": "3716767225",
                "osm_type": "node",
                "lat": 47.457958,
                "lon": 10.271799,
                "name": "Ruppaner",
                "shop": "shoes"
              },
              "geometry": {
                "type": "Point",
                "coordinates": [
                  10.271799,
                  47.457958
                ]
              }
            },
            {
              "type": "Feature",
              "properties": {
                "id": "3909985961",
                "osm_type": "node",
                "lat": 47.4066735,
                "lon": 10.2795637,
                "addr:city": "Oberstdorf",
                "addr:country": "DE",
                "addr:housenumber": "4",
                "addr:postcode": "87561",
                "addr:street": "Oststraße",
                "brand": "Quick Schuh",
                "brand:wikidata": "Q2123069",
                "brand:wikipedia": "de:Quick Schuh",
                "check_date:opening_hours": "2023-04-04",
                "name": "Quick Schuh",
                "opening_hours": "Mo-Fr 10:00-19:00; Sa 10:00-18:00",
                "phone": "+49 8322 96550",
                "shop": "shoes",
                "website": "http://www.quick-schuh-oberstdorf.de",
                "wheelchair": "yes"
              },
              "geometry": {
                "type": "Point",
                "coordinates": [
                  10.2795637,
                  47.4066735
                ]
              }
            },
            {
              "type": "Feature",
              "properties": {
                "id": "4069143392",
                "osm_type": "node",
                "lat": 47.4061517,
                "lon": 10.2803548,
                "addr:city": "Oberstdorf",
                "addr:country": "DE",
                "addr:housenumber": "12",
                "addr:postcode": "87561",
                "addr:street": "Oststraße",
                "name": "Tino",
                "opening_hours": "Mo-Sa 10:00-18:00",
                "shop": "shoes"
              },
              "geometry": {
                "type": "Point",
                "coordinates": [
                  10.2803548,
                  47.4061517
                ]
              }
            },
            {
              "type": "Feature",
              "properties": {
                "id": "4465578829",
                "osm_type": "node",
                "lat": 47.4059694,
                "lon": 10.2820718,
                "check_date": "2024-07-22",
                "name": "Rackl",
                "shop": "shoes"
              },
              "geometry": {
                "type": "Point",
                "coordinates": [
                  10.2820718,
                  47.4059694
                ]
              }
            },
            {
              "type": "Feature",
              "properties": {
                "id": "5219618378",
                "osm_type": "node",
                "lat": 47.5124001,
                "lon": 10.2788311,
                "brand": "Schuh-Mann",
                "brand:wikidata": "Q66133314",
                "check_date": "2025-01-24",
                "name": "Schuh-Mann",
                "opening_hours": "Mo-Fr 09:00-18:00; Sa 09:00-16:00; Su,PH off",
                "phone": "+49 8321 619634",
                "shop": "shoes",
                "website": "https://www.schuh-mann.de/"
              },
              "geometry": {
                "type": "Point",
                "coordinates": [
                  10.2788311,
                  47.5124001
                ]
              }
            },
            {
              "type": "Feature",
              "properties": {
                "id": "5308972662",
                "osm_type": "node",
                "lat": 47.4094798,
                "lon": 10.2770407,
                "brand": "Mephisto",
                "brand:wikidata": "Q822975",
                "brand:wikipedia": "fr:Mephisto (chaussure)",
                "name": "Mephisto",
                "shop": "shoes"
              },
              "geometry": {
                "type": "Point",
                "coordinates": [
                  10.2770407,
                  47.4094798
                ]
              }
            },
            {
              "type": "Feature",
              "properties": {
                "id": "5308972677",
                "osm_type": "node",
                "lat": 47.409368,
                "lon": 10.2786155,
                "level": "0",
                "name": "Amati",
                "opening_hours": "Mo-Fr 10:00-13:00,14:00-17:00; Sa 09:30-13:00",
                "shop": "shoes"
              },
              "geometry": {
                "type": "Point",
                "coordinates": [
                  10.2786155,
                  47.409368
                ]
              }
            },
            {
              "type": "Feature",
              "properties": {
                "id": "6390335443",
                "osm_type": "node",
                "lat": 47.506222,
                "lon": 10.3698564,
                "contact:email": "info@sabine-trendshop.de",
                "contact:phone": "+49 160 99102024",
                "contact:website": "http://www.sabine-trendshop.de",
                "name": "Trend-Shop",
                "opening_hours": "Mo-Fr 10:00-17:00; Sa 10:00-13:00",
                "shop": "shoes",
                "source": "\"Mein Bad Hindelang\" 18/19"
              },
              "geometry": {
                "type": "Point",
                "coordinates": [
                  10.3698564,
                  47.506222
                ]
              }
            },
            {
              "type": "Feature",
              "properties": {
                "id": "9291608107",
                "osm_type": "node",
                "lat": 47.4052348,
                "lon": 10.2833889,
                "check_date": "2024-07-22",
                "name": "Grenzenlos Schuhwerk",
                "shop": "shoes",
                "website": "https://grenzenlos-schuhwerk.de"
              },
              "geometry": {
                "type": "Point",
                "coordinates": [
                  10.2833889,
                  47.4052348
                ]
              }
            },
            {
              "type": "Feature",
              "properties": {
                "id": "11466037771",
                "osm_type": "node",
                "lat": 47.4050206,
                "lon": 10.2838784,
                "name": "Leguano",
                "opening_hours": "Mo-Sa 09:30-13:00,13:30-18:00",
                "shop": "shoes"
              },
              "geometry": {
                "type": "Point",
                "coordinates": [
                  10.2838784,
                  47.4050206
                ]
              }
            },
            {
              "type": "Feature",
              "properties": {
                "id": "11669016138",
                "osm_type": "node",
                "lat": 47.4085911,
                "lon": 10.2760134,
                "name": "Schratt",
                "opening_hours": "Mo-Fr 10:00-19:00; Sa 10:00-18:00",
                "shop": "shoes"
              },
              "geometry": {
                "type": "Point",
                "coordinates": [
                  10.2760134,
                  47.4085911
                ]
              }
            }
          ],
          "children": []
        },
        {
          "bbox": {
            "south": 47.529588375,
            "west": 9.530952,
            "north": 47.694865,
            "east": 10.007803749999999
          },
          "poiCount": 17,
          "leafCount": 17,
          "averagePosition": [
            9.760974547058824,
            47.6128625
          ],
          "data": [
            {
              "type": "Feature",
              "properties": {
                "id": "506755963",
                "osm_type": "node",
                "lat": 47.5953264,
                "lon": 9.6004218,
                "name": "Helmle, Gesunde Schuhe",
                "phone": "+49 7543 6752",
                "shop": "shoes",
                "wheelchair": "yes"
              },
              "geometry": {
                "type": "Point",
                "coordinates": [
                  9.6004218,
                  47.5953264
                ]
              }
            },
            {
              "type": "Feature",
              "properties": {
                "id": "564060709",
                "osm_type": "node",
                "lat": 47.6008185,
                "lon": 9.8885853,
                "name": "Karg",
                "shop": "shoes",
                "wheelchair": "limited"
              },
              "geometry": {
                "type": "Point",
                "coordinates": [
                  9.8885853,
                  47.6008185
                ]
              }
            },
            {
              "type": "Feature",
              "properties": {
                "id": "829903705",
                "osm_type": "node",
                "lat": 47.545586,
                "lon": 9.6815047,
                "check_date": "2025-07-18",
                "check_date:opening_hours": "2025-07-18",
                "email": "shoetown.lindau@werdich.com",
                "name": "ShoeTown Werdich",
                "opening_hours": "Mo-Fr 09:00-18:00; Sa 09:00-16:00",
                "phone": "+49 8382 22848",
                "shop": "shoes",
                "website": "https://www.werdich.com/filialen/shoetown-in-lindau-bodensee-11/",
                "wheelchair": "no"
              },
              "geometry": {
                "type": "Point",
                "coordinates": [
                  9.6815047,
                  47.545586
                ]
              }
            },
            {
              "type": "Feature",
              "properties": {
                "id": "920058965",
                "osm_type": "node",
                "lat": 47.5698848,
                "lon": 9.6374335,
                "addr:city": "Wasserburg (Bodensee)",
                "addr:country": "DE",
                "addr:housenumber": "3",
                "addr:postcode": "88142",
                "addr:street": "Halbinselstraße",
                "contact:email": "info@schuh-schorer.de",
                "contact:fax": "+49 8382 888473",
                "contact:phone": "+49 8382 89819",
                "contact:website": "http://schuh-schorer.de",
                "name": "Schorer",
                "opening_hours": "Mo-Tu,Th-Fr 09:00-12:30,14:30-18:00; We 09:00-12:30; Sa 09:00-13:00; PH off",
                "shop": "shoes",
                "wheelchair": "limited"
              },
              "geometry": {
                "type": "Point",
                "coordinates": [
                  9.6374335,
                  47.5698848
                ]
              }
            },
            {
              "type": "Feature",
              "properties": {
                "id": "2462051450",
                "osm_type": "node",
                "lat": 47.553945,
                "lon": 9.7034895,
                "brand": "Deichmann",
                "brand:wikidata": "Q664543",
                "brand:wikipedia": "en:Deichmann SE",
                "name": "Deichmann",
                "opening_hours": "Mo-Sa 09:00-20:00",
                "shop": "shoes",
                "wheelchair": "yes"
              },
              "geometry": {
                "type": "Point",
                "coordinates": [
                  9.7034895,
                  47.553945
                ]
              }
            },
            {
              "type": "Feature",
              "properties": {
                "id": "2462051465",
                "osm_type": "node",
                "lat": 47.5543342,
                "lon": 9.7025534,
                "name": "Schuhhof",
                "opening_hours": "Mo-Sa 09:00-20:00",
                "shop": "shoes"
              },
              "geometry": {
                "type": "Point",
                "coordinates": [
                  9.7025534,
                  47.5543342
                ]
              }
            },
            {
              "type": "Feature",
              "properties": {
                "id": "2924712901",
                "osm_type": "node",
                "lat": 47.6708847,
                "lon": 9.5889165,
                "addr:city": "Tettnang",
                "addr:country": "DE",
                "addr:housenumber": "24-26",
                "addr:postcode": "88069",
                "addr:street": "Karlstraße",
                "check_date": "2025-05-23",
                "check_date:opening_hours": "2023-08-18",
                "name": "Schuhhaus Jung",
                "opening_hours": "Mo-Fr 09:00-18:00; Sa 09:00-16:00",
                "shop": "shoes",
                "wheelchair": "yes"
              },
              "geometry": {
                "type": "Point",
                "coordinates": [
                  9.5889165,
                  47.6708847
                ]
              }
            },
            {
              "type": "Feature",
              "properties": {
                "id": "3889872442",
                "osm_type": "node",
                "lat": 47.6034995,
                "lon": 9.8896436,
                "name": "Ober Orthopädie Schuh",
                "shop": "shoes"
              },
              "geometry": {
                "type": "Point",
                "coordinates": [
                  9.8896436,
                  47.6034995
                ]
              }
            },
            {
              "type": "Feature",
              "properties": {
                "id": "5676397941",
                "osm_type": "node",
                "lat": 47.6626701,
                "lon": 9.5710029,
                "addr:city": "Tettnang",
                "addr:country": "DE",
                "addr:housenumber": "11",
                "addr:postcode": "88069",
                "addr:street": "Klausenburger Straße",
                "brand": "Quick Schuh",
                "brand:wikidata": "Q2123069",
                "brand:wikipedia": "de:Quick Schuh",
                "name": "Quick Schuh",
                "shop": "shoes",
                "source": "Bing"
              },
              "geometry": {
                "type": "Point",
                "coordinates": [
                  9.5710029,
                  47.6626701
                ]
              }
            },
            {
              "type": "Feature",
              "properties": {
                "id": "6110529288",
                "osm_type": "node",
                "lat": 47.5827923,
                "lon": 9.9155355,
                "name": "Schuhgeschäft und Werkstätte Renate Wetzel",
                "opening_hours": "Mo-Tu, Th-Fr 08:00-12:30, 14:30-18:00; Sa 09:00-12:30",
                "shop": "shoes"
              },
              "geometry": {
                "type": "Point",
                "coordinates": [
                  9.9155355,
                  47.5827923
                ]
              }
            },
            {
              "type": "Feature",
              "properties": {
                "id": "7023299362",
                "osm_type": "node",
                "lat": 47.5808165,
                "lon": 9.8478612,
                "name": "Nenning Schuhhaus",
                "shop": "shoes"
              },
              "geometry": {
                "type": "Point",
                "coordinates": [
                  9.8478612,
                  47.5808165
                ]
              }
            },
            {
              "type": "Feature",
              "properties": {
                "id": "7931177474",
                "osm_type": "node",
                "lat": 47.5461857,
                "lon": 9.6834185,
                "shop": "shoes"
              },
              "geometry": {
                "type": "Point",
                "coordinates": [
                  9.6834185,
                  47.5461857
                ]
              }
            },
            {
              "type": "Feature",
              "properties": {
                "id": "11043927862",
                "osm_type": "node",
                "lat": 47.6866786,
                "lon": 9.8337682,
                "addr:city": "Wangen im Allgäu",
                "addr:country": "DE",
                "addr:housenumber": "10",
                "addr:postcode": "88239",
                "addr:street": "Herrenstraße",
                "contact:facebook": "https://www.facebook.com/people/Karin-Birk-Schuhe-und-Lederwaren/100036846923600/",
                "name": "Karin Birk",
                "shop": "shoes"
              },
              "geometry": {
                "type": "Point",
                "coordinates": [
                  9.8337682,
                  47.6866786
                ]
              }
            },
            {
              "type": "Feature",
              "properties": {
                "id": "11043927864",
                "osm_type": "node",
                "lat": 47.6867996,
                "lon": 9.8337789,
                "addr:city": "Wangen im Allgäu",
                "addr:country": "DE",
                "addr:housenumber": "14",
                "addr:postcode": "88239",
                "addr:street": "Herrenstraße",
                "name": "ShoeTown Werdich",
                "shop": "shoes",
                "website": "https://www.werdich.com/filialen/shoetown-in-wangen-02/"
              },
              "geometry": {
                "type": "Point",
                "coordinates": [
                  9.8337789,
                  47.6867996
                ]
              }
            },
            {
              "type": "Feature",
              "properties": {
                "id": "11044003386",
                "osm_type": "node",
                "lat": 47.6873209,
                "lon": 9.8334704,
                "addr:city": "Wangen im Allgäu",
                "addr:country": "DE",
                "addr:housenumber": "29",
                "addr:postcode": "88239",
                "addr:street": "Herrenstraße",
                "name": "Schuhhaus Werdich",
                "shop": "shoes",
                "website": "https://www.werdich.com/filialen/werdich-das-schuhhaus-in-wangen-01/"
              },
              "geometry": {
                "type": "Point",
                "coordinates": [
                  9.8334704,
                  47.6873209
                ]
              }
            },
            {
              "type": "Feature",
              "properties": {
                "id": "11065385496",
                "osm_type": "node",
                "lat": 47.6874577,
                "lon": 9.835295,
                "addr:city": "Wangen im Allgäu",
                "addr:country": "DE",
                "addr:housenumber": "32",
                "addr:postcode": "88239",
                "addr:street": "Schmiedstraße",
                "name": "Schuhhaus Abler",
                "opening_hours": "Mo-Fr 09:00-18:00; Sa 09:00-14:00; Su closed",
                "phone": "+49 7522 6616",
                "shop": "shoes",
                "website": "http://www.abler-schuhe.de/"
              },
              "geometry": {
                "type": "Point",
                "coordinates": [
                  9.835295,
                  47.6874577
                ]
              }
            },
            {
              "type": "Feature",
              "properties": {
                "id": "11307737221",
                "osm_type": "node",
                "lat": 47.603662,
                "lon": 9.8898884,
                "brand": "Schuh-Mann",
                "brand:wikidata": "Q66133314",
                "name": "Schuh-Mann",
                "shop": "shoes"
              },
              "geometry": {
                "type": "Point",
                "coordinates": [
                  9.8898884,
                  47.603662
                ]
              }
            }
          ],
          "children": []
        },
        {
          "bbox": {
            "south": 47.529588375,
            "west": 10.007803749999999,
            "north": 47.694865,
            "east": 10.484655499999999
          },
          "poiCount": 6,
          "leafCount": 6,
          "averagePosition": [
            10.156290533333333,
            47.59371328333333
          ],
          "data": [
            {
              "type": "Feature",
              "properties": {
                "id": "6702606016",
                "osm_type": "node",
                "lat": 47.5543523,
                "lon": 10.0240064,
                "name": "Hubert Pflug",
                "shop": "shoes"
              },
              "geometry": {
                "type": "Point",
                "coordinates": [
                  10.0240064,
                  47.5543523
                ]
              }
            },
            {
              "type": "Feature",
              "properties": {
                "id": "9856938702",
                "osm_type": "node",
                "lat": 47.5563232,
                "lon": 10.0191398,
                "name": "Edeltraud Burger Schuhhaus Simone",
                "opening_hours": "Mo-Fr 09:30-18:00; Sa 09:30-14:00",
                "shop": "shoes"
              },
              "geometry": {
                "type": "Point",
                "coordinates": [
                  10.0191398,
                  47.5563232
                ]
              }
            },
            {
              "type": "Feature",
              "properties": {
                "id": "1667680104",
                "osm_type": "node",
                "lat": 47.6611898,
                "lon": 10.3500731,
                "name": "Schuhhaus Dietrich",
                "opening_hours": "Mo-Sa 09:00-12:00, Mo,Tu,Th,Fr 14:00-18:00",
                "shop": "shoes"
              },
              "geometry": {
                "type": "Point",
                "coordinates": [
                  10.3500731,
                  47.6611898
                ]
              }
            },
            {
              "type": "Feature",
              "properties": {
                "id": "3022541151",
                "osm_type": "node",
                "lat": 47.5596697,
                "lon": 10.2185415,
                "addr:city": "Immenstadt im Allgäu",
                "addr:country": "DE",
                "addr:housenumber": "13",
                "addr:postcode": "87509",
                "addr:street": "Marienplatz",
                "check_date": "2025-04-26",
                "name": "SCHUH-MANN",
                "opening_hours": "Mo-Fr 09:00-18:00; Sa 09:00-13:00; Su off",
                "operator": "Schuh-Mann GmbH",
                "organic": "no",
                "phone": "+49 8323 987560",
                "second_hand": "no",
                "shop": "shoes",
                "website": "https://www.schuh-mann.de/"
              },
              "geometry": {
                "type": "Point",
                "coordinates": [
                  10.2185415,
                  47.5596697
                ]
              }
            },
            {
              "type": "Feature",
              "properties": {
                "id": "6472981977",
                "osm_type": "node",
                "lat": 47.5375315,
                "lon": 10.2854964,
                "addr:city": "Burgberg i.Allgäu",
                "addr:country": "DE",
                "addr:housenumber": "3",
                "addr:postcode": "87545",
                "addr:street": "Sonthofener Straße",
                "contact:email": "service@o-friction.de",
                "contact:phone": "+49 170 585 0653",
                "description": "Kletterschuh & Bergstiefel Besohlungen",
                "name": "Ofriction",
                "opening_hours": "Mo-Fr 08:00-17:00",
                "repair": "yes",
                "shop": "shoes",
                "source": "survey 05.2019 and DigitalGlobe Imagery"
              },
              "geometry": {
                "type": "Point",
                "coordinates": [
                  10.2854964,
                  47.5375315
                ]
              }
            },
            {
              "type": "Feature",
              "properties": {
                "id": "7279226220",
                "osm_type": "node",
                "lat": 47.6932132,
                "lon": 10.040486,
                "alt_name": "Schuhtechnik Zwerger Gea Isny",
                "name": "GEA Schuhtechnik Zwerger",
                "opening_hours": "Mo-Fr 09:00-12:30,14:00-18:00; Sa off",
                "phone": "+49 7562 8244",
                "shop": "shoes",
                "website": "https://schuhtechnik.net",
                "wheelchair": "no"
              },
              "geometry": {
                "type": "Point",
                "coordinates": [
                  10.040486,
                  47.6932132
                ]
              }
            }
          ],
          "children": []
        }
      ]
    },
    {
      "bbox": {
        "south": 47.36431175,
        "west": 10.484655499999999,
        "north": 47.694865,
        "east": 11.438358999999998
      },
      "poiCount": 38,
      "leafCount": 38,
      "averagePosition": [
        10.899123792105263,
        47.55186413157895
      ],
      "data": [
        {
          "type": "Feature",
          "properties": {
            "id": "7859277364",
            "osm_type": "node",
            "lat": 47.6214373,
            "lon": 10.5015647,
            "name": "Teresa Schuh-Fashion",
            "shop": "shoes"
          },
          "geometry": {
            "type": "Point",
            "coordinates": [
              10.5015647,
              47.6214373
            ]
          }
        },
        {
          "type": "Feature",
          "properties": {
            "id": "7862928999",
            "osm_type": "node",
            "lat": 47.6228876,
            "lon": 10.4997873,
            "name": "Schuhhaus Henkel",
            "shop": "shoes"
          },
          "geometry": {
            "type": "Point",
            "coordinates": [
              10.4997873,
              47.6228876
            ]
          }
        },
        {
          "type": "Feature",
          "properties": {
            "id": "8901179691",
            "osm_type": "node",
            "lat": 47.4993927,
            "lon": 10.5178535,
            "name": "Tannheimer Schuhstad‘l",
            "shop": "shoes"
          },
          "geometry": {
            "type": "Point",
            "coordinates": [
              10.5178535,
              47.4993927
            ]
          }
        },
        {
          "type": "Feature",
          "properties": {
            "id": "957186573",
            "osm_type": "node",
            "lat": 47.4907418,
            "lon": 10.7200596,
            "name": "Zangerl Schuhe",
            "shop": "shoes",
            "website": "https://www.zangerl-schuhe.at/"
          },
          "geometry": {
            "type": "Point",
            "coordinates": [
              10.7200596,
              47.4907418
            ]
          }
        },
        {
          "type": "Feature",
          "properties": {
            "id": "966772194",
            "osm_type": "node",
            "lat": 47.5826633,
            "lon": 10.6999668,
            "addr:city": "Füssen",
            "addr:housenumber": "20",
            "addr:postcode": "87629",
            "addr:street": "Abt-Hafner-Straße",
            "brand": "Deichmann",
            "brand:wikidata": "Q664543",
            "brand:wikipedia": "en:Deichmann SE",
            "name": "Deichmann",
            "opening_hours": "Mo-Fr 09:00-19:00; Sa 09:00-18:00",
            "shop": "shoes",
            "wheelchair": "yes"
          },
          "geometry": {
            "type": "Point",
            "coordinates": [
              10.6999668,
              47.5826633
            ]
          }
        },
        {
          "type": "Feature",
          "properties": {
            "id": "1889760090",
            "osm_type": "node",
            "lat": 47.3988056,
            "lon": 10.9183127,
            "check_date": "2024-07-14",
            "name": "Guem",
            "shop": "shoes"
          },
          "geometry": {
            "type": "Point",
            "coordinates": [
              10.9183127,
              47.3988056
            ]
          }
        },
        {
          "type": "Feature",
          "properties": {
            "id": "3635342825",
            "osm_type": "node",
            "lat": 47.5673013,
            "lon": 10.6993587,
            "addr:city": "Füssen",
            "addr:housenumber": "3",
            "addr:postcode": "87629",
            "addr:street": "Ritterstraße",
            "name": "Leguano Barfußschuhe",
            "shoes": "minimalist",
            "shop": "shoes",
            "website": "https://www.leguano.eu/"
          },
          "geometry": {
            "type": "Point",
            "coordinates": [
              10.6993587,
              47.5673013
            ]
          }
        },
        {
          "type": "Feature",
          "properties": {
            "id": "3721514005",
            "osm_type": "node",
            "lat": 47.5695925,
            "lon": 10.7020609,
            "addr:city": "Füssen",
            "addr:housenumber": "5",
            "addr:postcode": "87629",
            "addr:street": "Kaiser-Maximilian-Platz",
            "name": "Kern Schuhe",
            "opening_hours": "Mo-Fr 09:00-19:00; Sa 09:00-18:00",
            "phone": "+49 8362 9268400",
            "shop": "shoes",
            "website": "https://kernschuhe.de"
          },
          "geometry": {
            "type": "Point",
            "coordinates": [
              10.7020609,
              47.5695925
            ]
          }
        },
        {
          "type": "Feature",
          "properties": {
            "id": "3917159284",
            "osm_type": "node",
            "lat": 47.5736638,
            "lon": 10.5582009,
            "contact:email": "info@gesunde-schuhe-noess.de",
            "contact:fax": "+49 (0) 8363/6383",
            "contact:phone": "+49 (0) 8363/1634",
            "contact:website": "http://www.gesunde-schuhe-noess.de/",
            "name": "Gesunde Schuhe / Bergsport Nöß",
            "opening_hours": "Mo-Fr 08:30-12:30,14:00-18:00; Sa 08:30-12:30",
            "shop": "shoes"
          },
          "geometry": {
            "type": "Point",
            "coordinates": [
              10.5582009,
              47.5736638
            ]
          }
        },
        {
          "type": "Feature",
          "properties": {
            "id": "4710701842",
            "osm_type": "node",
            "lat": 47.5818358,
            "lon": 10.5586309,
            "addr:city": "Pfronten",
            "addr:country": "DE",
            "addr:housenumber": "9",
            "addr:postcode": "87459",
            "addr:street": "Allgäuer Straße",
            "check_date:opening_hours": "2025-05-17",
            "fax": "+49 8363 9289025",
            "name": "Schuh Sport Trenkle",
            "opening_hours": "Mo-Fr 08:30-12:30,14:00-18:00; Sa 08:30-12:30",
            "phone": "+49 8363 6724",
            "shop": "shoes",
            "wheelchair": "no"
          },
          "geometry": {
            "type": "Point",
            "coordinates": [
              10.5586309,
              47.5818358
            ]
          }
        },
        {
          "type": "Feature",
          "properties": {
            "id": "5538107230",
            "osm_type": "node",
            "lat": 47.5688804,
            "lon": 10.6998993,
            "name": "Wolf",
            "opening_hours": "Mo-Fr 09:30-18:00; Sa 09:30-16:00",
            "shop": "shoes",
            "wheelchair": "limited"
          },
          "geometry": {
            "type": "Point",
            "coordinates": [
              10.6998993,
              47.5688804
            ]
          }
        },
        {
          "type": "Feature",
          "properties": {
            "id": "6874863889",
            "osm_type": "node",
            "lat": 47.471814,
            "lon": 11.0258386,
            "email": "info@orthopaedie-schuhmacherei.de",
            "name": "Hochleitner",
            "opening_hours": "Mo,Tu,Th,Fr 09:00-13:00,14:00-18:00",
            "phone": "+49 8821-9081980",
            "shop": "shoes",
            "website": "https://www.orthopaedie-schuhmacherei.de/",
            "wheelchair": "yes"
          },
          "geometry": {
            "type": "Point",
            "coordinates": [
              11.0258386,
              47.471814
            ]
          }
        },
        {
          "type": "Feature",
          "properties": {
            "id": "8039964835",
            "osm_type": "node",
            "lat": 47.4898059,
            "lon": 10.7176199,
            "name": "Orthopädie Leitnerschuh",
            "opening_hours": "Mo-Fr 09:00-18:00",
            "shop": "shoes"
          },
          "geometry": {
            "type": "Point",
            "coordinates": [
              10.7176199,
              47.4898059
            ]
          }
        },
        {
          "type": "Feature",
          "properties": {
            "id": "8592993926",
            "osm_type": "node",
            "lat": 47.5829424,
            "lon": 10.5599719,
            "addr:city": "Pfronten",
            "addr:housenumber": "24",
            "addr:postcode": "87459",
            "addr:street": "Allgäuer Straße",
            "name": "Schuhoase",
            "shop": "shoes"
          },
          "geometry": {
            "type": "Point",
            "coordinates": [
              10.5599719,
              47.5829424
            ]
          }
        },
        {
          "type": "Feature",
          "properties": {
            "id": "9439841816",
            "osm_type": "node",
            "lat": 47.5768157,
            "lon": 10.7347067,
            "addr:city": "Schwangau",
            "addr:country": "DE",
            "addr:housenumber": "28",
            "addr:postcode": "87645",
            "addr:street": "Mitteldorf",
            "craft": "shoemaker",
            "name": "Orthopädie-Schuhtechnik Griesmann",
            "operator": "Felix Griesmann",
            "phone": "+49 8362 8301",
            "shop": "shoes",
            "website": "https://www.schuh-griesmann.de/"
          },
          "geometry": {
            "type": "Point",
            "coordinates": [
              10.7347067,
              47.5768157
            ]
          }
        },
        {
          "type": "Feature",
          "properties": {
            "id": "11565220281",
            "osm_type": "node",
            "lat": 47.5804005,
            "lon": 10.7404769,
            "addr:city": "Schwangau",
            "addr:housenumber": "7",
            "addr:postcode": "87645",
            "addr:street": "Alemannenweg",
            "name": "Original Haferl",
            "opening_hours": "Mo 10:00-12:30; Th 14:00-18:00; Fr 10:00-12:30; Sa 10:00-13:00",
            "phone": "+49 8362 987353",
            "shop": "shoes",
            "website": "https://haferl.com/"
          },
          "geometry": {
            "type": "Point",
            "coordinates": [
              10.7404769,
              47.5804005
            ]
          }
        },
        {
          "type": "Feature",
          "properties": {
            "id": "11595240651",
            "osm_type": "node",
            "lat": 47.653855,
            "lon": 10.71895,
            "addr:city": "Roßhaupten",
            "addr:housenumber": "9",
            "addr:postcode": "87672",
            "addr:street": "Hauptstraße",
            "name": "Schuh Steiner",
            "post_office": "post_partner",
            "post_office:brand": "Hermes PaketShop",
            "post_office:brand:wikidata": "Q105702843",
            "shop": "shoes"
          },
          "geometry": {
            "type": "Point",
            "coordinates": [
              10.71895,
              47.653855
            ]
          }
        },
        {
          "type": "Feature",
          "properties": {
            "id": "12175085392",
            "osm_type": "node",
            "lat": 47.4881513,
            "lon": 10.7118838,
            "brand": "Deichmann",
            "brand:wikidata": "Q664543",
            "name": "Deichmann",
            "shop": "shoes"
          },
          "geometry": {
            "type": "Point",
            "coordinates": [
              10.7118838,
              47.4881513
            ]
          }
        },
        {
          "type": "Feature",
          "properties": {
            "id": "12175085393",
            "osm_type": "node",
            "lat": 47.4881662,
            "lon": 10.7116729,
            "brand": "Quick Schuh",
            "brand:wikidata": "Q2123069",
            "name": "Quick Schuh",
            "shop": "shoes"
          },
          "geometry": {
            "type": "Point",
            "coordinates": [
              10.7116729,
              47.4881662
            ]
          }
        },
        {
          "type": "Feature",
          "properties": {
            "id": "450201827",
            "osm_type": "node",
            "lat": 47.5975394,
            "lon": 11.0641173,
            "addr:city": "Oberammergau",
            "addr:country": "DE",
            "addr:housenumber": "30",
            "addr:postcode": "82487",
            "addr:street": "Dorfstraße",
            "email": "info@der-sanitaetswolf.de",
            "name": "Schuhhaus Hans Wolf",
            "opening_hours": "Mo-Fr 09:00-17:00, Sa \"nach Vereinbarung\"",
            "phone": "+49 8822 923 6470",
            "shop": "shoes",
            "source": "photo",
            "website": "https://der-sanitaetswolf.de",
            "wheelchair": "no"
          },
          "geometry": {
            "type": "Point",
            "coordinates": [
              11.0641173,
              47.5975394
            ]
          }
        },
        {
          "type": "Feature",
          "properties": {
            "id": "2992084237",
            "osm_type": "node",
            "lat": 47.4930442,
            "lon": 11.0874662,
            "check_date:opening_hours": "2023-10-31",
            "name": "Schuh-Wittmann",
            "opening_hours": "Mo-Fr 10:00-18:00; Sa 10:00-14:00",
            "shop": "shoes"
          },
          "geometry": {
            "type": "Point",
            "coordinates": [
              11.0874662,
              47.4930442
            ]
          }
        },
        {
          "type": "Feature",
          "properties": {
            "id": "2992084239",
            "osm_type": "node",
            "lat": 47.4938952,
            "lon": 11.0898402,
            "name": "Buchwieser",
            "shop": "shoes"
          },
          "geometry": {
            "type": "Point",
            "coordinates": [
              11.0898402,
              47.4938952
            ]
          }
        },
        {
          "type": "Feature",
          "properties": {
            "id": "2994008306",
            "osm_type": "node",
            "lat": 47.4918604,
            "lon": 11.1136319,
            "name": "Wittmann",
            "shop": "shoes"
          },
          "geometry": {
            "type": "Point",
            "coordinates": [
              11.1136319,
              47.4918604
            ]
          }
        },
        {
          "type": "Feature",
          "properties": {
            "id": "5348987119",
            "osm_type": "node",
            "lat": 47.5983088,
            "lon": 11.0618929,
            "addr:city": "Oberammergau",
            "addr:country": "DE",
            "addr:housenumber": "2",
            "addr:postcode": "82487",
            "addr:street": "Dorfstraße",
            "email": "anfrage@schuh-wolf-oberammergau.de",
            "name": "Schuhaus Wolf",
            "opening_hours": "Mo-Fr 09:00-18:30; Sa 09:00-16:00",
            "phone": "+498822-6454",
            "shop": "shoes",
            "website": "https://www.schuh-wolf-oberammergau.de/",
            "wheelchair": "yes"
          },
          "geometry": {
            "type": "Point",
            "coordinates": [
              11.0618929,
              47.5983088
            ]
          }
        },
        {
          "type": "Feature",
          "properties": {
            "id": "5398334121",
            "osm_type": "node",
            "lat": 47.6671557,
            "lon": 11.0525874,
            "addr:postcode": "82433",
            "name": "Schuhgeschäft Sailer",
            "opening_hours": "Mo,Tu,Th,Fr 09:00-12:30, Mo-Fr 14:30-18:00, We,Sa 09:00-12:30",
            "shop": "shoes"
          },
          "geometry": {
            "type": "Point",
            "coordinates": [
              11.0525874,
              47.6671557
            ]
          }
        },
        {
          "type": "Feature",
          "properties": {
            "id": "5452028608",
            "osm_type": "node",
            "lat": 47.6745874,
            "lon": 11.2013346,
            "brand": "Schuh-Mann",
            "brand:wikidata": "Q66133314",
            "level": "0",
            "name": "Schuh-Mann",
            "opening_hours": "Mo-Fr 09:00-18:00; Sa 09:00-14:00, Sa[1] 09:00-16:00",
            "shop": "shoes"
          },
          "geometry": {
            "type": "Point",
            "coordinates": [
              11.2013346,
              47.6745874
            ]
          }
        },
        {
          "type": "Feature",
          "properties": {
            "id": "5478943862",
            "osm_type": "node",
            "lat": 47.4936489,
            "lon": 11.0884102,
            "addr:city": "Garmisch-Partenkirchen",
            "addr:country": "DE",
            "addr:housenumber": "24",
            "addr:postcode": "82467",
            "addr:street": "Am Kurpark",
            "check_date": "2024-08-05",
            "name": "Leguano Barfußschuhe",
            "shop": "shoes",
            "wheelchair": "yes"
          },
          "geometry": {
            "type": "Point",
            "coordinates": [
              11.0884102,
              47.4936489
            ]
          }
        },
        {
          "type": "Feature",
          "properties": {
            "id": "6009794548",
            "osm_type": "node",
            "lat": 47.6785053,
            "lon": 11.2010886,
            "name": "Schuh Wolf",
            "shop": "shoes",
            "toilets:wheelchair": "no"
          },
          "geometry": {
            "type": "Point",
            "coordinates": [
              11.2010886,
              47.6785053
            ]
          }
        },
        {
          "type": "Feature",
          "properties": {
            "id": "7312423780",
            "osm_type": "node",
            "lat": 47.4933041,
            "lon": 11.0964397,
            "brand": "Deichmann",
            "brand:wikidata": "Q664543",
            "brand:wikipedia": "en:Deichmann SE",
            "name": "Deichmann",
            "shop": "shoes"
          },
          "geometry": {
            "type": "Point",
            "coordinates": [
              11.0964397,
              47.4933041
            ]
          }
        },
        {
          "type": "Feature",
          "properties": {
            "id": "7741681041",
            "osm_type": "node",
            "lat": 47.4946864,
            "lon": 11.094574,
            "name": "Schuhmuckel",
            "shop": "shoes"
          },
          "geometry": {
            "type": "Point",
            "coordinates": [
              11.094574,
              47.4946864
            ]
          }
        },
        {
          "type": "Feature",
          "properties": {
            "id": "7741681042",
            "osm_type": "node",
            "lat": 47.4944964,
            "lon": 11.0948783,
            "name": "Schuhprofi",
            "shop": "shoes"
          },
          "geometry": {
            "type": "Point",
            "coordinates": [
              11.0948783,
              47.4944964
            ]
          }
        },
        {
          "type": "Feature",
          "properties": {
            "id": "7741681043",
            "osm_type": "node",
            "lat": 47.4944436,
            "lon": 11.0945901,
            "name": "Schuhe Schindl",
            "shop": "shoes"
          },
          "geometry": {
            "type": "Point",
            "coordinates": [
              11.0945901,
              47.4944436
            ]
          }
        },
        {
          "type": "Feature",
          "properties": {
            "id": "9113133752",
            "osm_type": "node",
            "lat": 47.5551044,
            "lon": 11.1369545,
            "brand": "Birkenstock",
            "brand:wikidata": "Q648458",
            "brand:wikipedia": "en:Birkenstock",
            "name": "Birkenstock",
            "shop": "shoes"
          },
          "geometry": {
            "type": "Point",
            "coordinates": [
              11.1369545,
              47.5551044
            ]
          }
        },
        {
          "type": "Feature",
          "properties": {
            "id": "11173771641",
            "osm_type": "node",
            "lat": 47.6804686,
            "lon": 11.1969674,
            "addr:city": "Murnau am Staffelsee",
            "addr:country": "DE",
            "addr:housenumber": "25",
            "addr:postcode": "82418",
            "addr:street": "Bahnhofstraße",
            "name": "Orthopädie-Schuhtechnik Georg Hutter",
            "opening_hours": "Mo-Fr 09:00-12:30, Mo,Tu,Th,Fr 14:30-18:00",
            "phone": "088415103",
            "shoes": "orthopaedic",
            "shop": "shoes",
            "website": "https://orthohutter.de/"
          },
          "geometry": {
            "type": "Point",
            "coordinates": [
              11.1969674,
              47.6804686
            ]
          }
        },
        {
          "type": "Feature",
          "properties": {
            "id": "11981186031",
            "osm_type": "node",
            "lat": 47.4955214,
            "lon": 11.0940121,
            "name": "Schuh Schweizer",
            "shop": "shoes"
          },
          "geometry": {
            "type": "Point",
            "coordinates": [
              11.0940121,
              47.4955214
            ]
          }
        },
        {
          "type": "Feature",
          "properties": {
            "id": "11999169027",
            "osm_type": "node",
            "lat": 47.4938364,
            "lon": 11.090173,
            "addr:postcode": "82467",
            "contact:instagram": "schuhmodeangelika_gap",
            "email": "info@angelika.de",
            "level": "0",
            "name": "Schuhmode-Angelika",
            "phone": "+49 8821 3313",
            "shop": "shoes",
            "website": "https://angelika-schuhmode.de/"
          },
          "geometry": {
            "type": "Point",
            "coordinates": [
              11.090173,
              47.4938364
            ]
          }
        },
        {
          "type": "Feature",
          "properties": {
            "id": "12012791502",
            "osm_type": "node",
            "lat": 47.4922824,
            "lon": 11.1096794,
            "level": "0",
            "name": "Berwein-Schuhe",
            "panoramax": "7f2b9906-2089-45c6-ba2d-5683219d29ba",
            "phone": "+49 8821 3035",
            "shop": "shoes"
          },
          "geometry": {
            "type": "Point",
            "coordinates": [
              11.1096794,
              47.4922824
            ]
          }
        },
        {
          "type": "Feature",
          "properties": {
            "id": "12995360178",
            "osm_type": "node",
            "lat": 47.6789949,
            "lon": 11.2012503,
            "name": "Schuh Mann",
            "shop": "shoes"
          },
          "geometry": {
            "type": "Point",
            "coordinates": [
              11.2012503,
              47.6789949
            ]
          }
        }
      ],
      "children": []
    }
  ]
}