{
  "bbox": {
    "south": 47.033758500000005,
    "west": 11.438358999999998,
    "north": 47.694865,
    "east": 13.345766
  },
  "poiCount": 62,
  "leafCount": 0,
  "averagePosition": [
    12.371287909677418,
    47.47010972096774
  ],
  "data": [],
  "children": [
    {
      "bbox": {
        "south": 47.033758500000005,
        "west": 11.438358999999998,
        "north": 47.36431175,
        "east": 12.392062499999998
      },
      "poiCount": 9,
      "leafCount": 9,
      "averagePosition": [
        11.736373244444444,
        47.279716344444445
      ],
      "data": [
        {
          "type": "Feature",
          "properties": {
            "id": "5031051640",
            "osm_type": "node",
            "lat": 47.282128,
            "lon": 11.5094263,
            "addr:city": "Hall in Tirol",
            "addr:country": "AT",
            "addr:housenumber": "15",
            "addr:postcode": "6060",
            "addr:street": "Schlossergasse",
            "name": "Kaminsky",
            "operator": "Petra Kaminsky",
            "phone": "+43 681 20436364",
            "shop": "jewelry",
            "website": "https://petrakaminsky.at",
            "wheelchair": "limited"
          },
          "geometry": {
            "type": "Point",
            "coordinates": [
              11.5094263,
              47.282128
            ]
          }
        },
        {
          "type": "Feature",
          "properties": {
            "id": "10185420563",
            "osm_type": "node",
            "lat": 47.0912024,
            "lon": 11.4669009,
            "alt_name": "Nice4You",
            "name": "LEA - Schmuck und Uhren",
            "shop": "jewelry"
          },
          "geometry": {
            "type": "Point",
            "coordinates": [
              11.4669009,
              47.0912024
            ]
          }
        },
        {
          "type": "Feature",
          "properties": {
            "id": "11807502078",
            "osm_type": "node",
            "lat": 47.2817862,
            "lon": 11.5068916,
            "name": "Kathrin",
            "opening_hours": "Mo-Fr 09:00-12:00,14:00-18:00; Sa 09:00-17:00",
            "shop": "jewelry"
          },
          "geometry": {
            "type": "Point",
            "coordinates": [
              11.5068916,
              47.2817862
            ]
          }
        },
        {
          "type": "Feature",
          "properties": {
            "id": "7714125473",
            "osm_type": "node",
            "lat": 47.3451635,
            "lon": 11.7083562,
            "name": "Juwelier Atabey",
            "shop": "jewelry"
          },
          "geometry": {
            "type": "Point",
            "coordinates": [
              11.7083562,
              47.3451635
            ]
          }
        },
        {
          "type": "Feature",
          "properties": {
            "id": "7768339210",
            "osm_type": "node",
            "lat": 47.3472471,
            "lon": 11.7072052,
            "addr:city": "Schwaz",
            "addr:housenumber": "10",
            "addr:postcode": "6130",
            "addr:street": "Andreas-Hofer-Straße",
            "brand": "Bijou Brigitte",
            "brand:wikidata": "Q599545",
            "level": "0",
            "name": "Bijou Brigitte",
            "opening_hours": "Mo-Fr 09:00-19:00; Sa 09:00-18:00",
            "phone": "+43 5242 73342",
            "shop": "jewelry",
            "website": "https://www.bijou-brigitte.com/"
          },
          "geometry": {
            "type": "Point",
            "coordinates": [
              11.7072052,
              47.3472471
            ]
          }
        },
        {
          "type": "Feature",
          "properties": {
            "id": "8088436530",
            "osm_type": "node",
            "lat": 47.3457601,
            "lon": 11.7088612,
            "name": "Diadoro",
            "shop": "jewelry"
          },
          "geometry": {
            "type": "Point",
            "coordinates": [
              11.7088612,
              47.3457601
            ]
          }
        },
        {
          "type": "Feature",
          "properties": {
            "id": "8090708099",
            "osm_type": "node",
            "lat": 47.3457918,
            "lon": 11.7077521,
            "name": "Goldschmiede Schneider-Rappel",
            "shop": "jewelry"
          },
          "geometry": {
            "type": "Point",
            "coordinates": [
              11.7077521,
              47.3457918
            ]
          }
        },
        {
          "type": "Feature",
          "properties": {
            "id": "4947760186",
            "osm_type": "node",
            "lat": 47.2524163,
            "lon": 12.2747114,
            "addr:city": "Neukirchen am Großvenediger",
            "addr:country": "AT",
            "addr:housenumber": "199",
            "addr:postcode": "5741",
            "addr:street": "Marktstraße",
            "name": "Franz Martin",
            "phone": "+43 6565 6427",
            "shop": "jewelry"
          },
          "geometry": {
            "type": "Point",
            "coordinates": [
              12.2747114,
              47.2524163
            ]
          }
        },
        {
          "type": "Feature",
          "properties": {
            "id": "11475744378",
            "osm_type": "node",
            "lat": 47.2259517,
            "lon": 12.0372543,
            "addr:city": "Gerlos",
            "addr:housenumber": "171",
            "addr:postcode": "6281",
            "addr:street": "Au",
            "name": "Schmuck Huber",
            "shop": "jewelry"
          },
          "geometry": {
            "type": "Point",
            "coordinates": [
              12.0372543,
              47.2259517
            ]
          }
        }
      ],
      "children": []
    },
    {
      "bbox": {
        "south": 47.033758500000005,
        "west": 12.392062499999998,
        "north": 47.36431175,
        "east": 13.345766
      },
      "poiCount": 10,
      "leafCount": 10,
      "averagePosition": [
        12.96854348,
        47.25512538
      ],
      "data": [
        {
          "type": "Feature",
          "properties": {
            "id": "5344281175",
            "osm_type": "node",
            "lat": 47.2810426,
            "lon": 12.4834614,
            "addr:city": "Mittersill",
            "addr:country": "AT",
            "addr:housenumber": "17",
            "addr:postcode": "5730",
            "addr:street": "Hintergasse",
            "at_bev:addr_date": "2017-10-01",
            "name": "Uhren - Schmuck Schleinzer",
            "opening_hours": "Mo-Fr 08:30-12:00,14:00-18:00, Sa 08:30-12:00",
            "phone": "+4365624588",
            "shop": "jewelry"
          },
          "geometry": {
            "type": "Point",
            "coordinates": [
              12.4834614,
              47.2810426
            ]
          }
        },
        {
          "type": "Feature",
          "properties": {
            "id": "4387442934",
            "osm_type": "node",
            "lat": 47.3241013,
            "lon": 12.7997582,
            "brand": "Swarovski",
            "brand:wikidata": "Q611115",
            "name": "Swarovski",
            "shop": "jewelry"
          },
          "geometry": {
            "type": "Point",
            "coordinates": [
              12.7997582,
              47.3241013
            ]
          }
        },
        {
          "type": "Feature",
          "properties": {
            "id": "4976007950",
            "osm_type": "node",
            "lat": 47.3235862,
            "lon": 12.7978654,
            "addr:city": "Zell am See",
            "addr:country": "AT",
            "addr:housenumber": "8",
            "addr:postcode": "5700",
            "addr:street": "Stadtplatz",
            "check_date:currency:XBT": "2022-12-15",
            "currency:XBT": "yes",
            "description": "Bei einem Innenstadtspaziergang durch Zell am See fällt es einem sofort auf: Das kleine Schmuckgeschäft im historischen Vogtturm der Pinzgauer Bezirkshauptstadt, das seine Besucher zum genauen Hinsehen einlädt.",
            "email": "strauss.elisabeth@sbg.at",
            "name": "Schmuck im Turm",
            "opening_hours": "Mo-Fr 07:00-18:30; Sa 08:00-14:00",
            "operator": "Elisabeth Strauss",
            "payment:cash": "yes",
            "payment:coins": "yes",
            "payment:credit_cards": "yes",
            "payment:lightning": "no",
            "payment:lightning_contactless": "no",
            "payment:maestro": "yes",
            "payment:mastercard": "yes",
            "payment:onchain": "yes",
            "payment:visa": "yes",
            "phone": "+43 6542 73784",
            "shop": "jewelry",
            "website": "https://www.schmuck-im-turm.com"
          },
          "geometry": {
            "type": "Point",
            "coordinates": [
              12.7978654,
              47.3235862
            ]
          }
        },
        {
          "type": "Feature",
          "properties": {
            "id": "8895194318",
            "osm_type": "node",
            "lat": 47.3238887,
            "lon": 12.7965369,
            "name": "Mösslacher",
            "opening_hours": "Mo,Tu,Th,Fr 09:00-12:30,13:30-18:00; We,Sa 09:00-12:30; Su,PH off",
            "shop": "jewelry"
          },
          "geometry": {
            "type": "Point",
            "coordinates": [
              12.7965369,
              47.3238887
            ]
          }
        },
        {
          "type": "Feature",
          "properties": {
            "id": "1247713038",
            "osm_type": "node",
            "lat": 47.3206623,
            "lon": 13.1516878,
            "addr:city": "Schwarzach im Pongau",
            "addr:country": "AT",
            "addr:housenumber": "1",
            "addr:postcode": "5620",
            "addr:street": "Salzleckerstraße",
            "at_bev:addr_date": "2017-10-01",
            "contact:email": "steinberger@aon.at",
            "contact:fax": "+43 6415 20121",
            "contact:phone": "+43 6415 7463",
            "contact:website": "www.hjuweliersteinberger.at",
            "name": "Steinberger - Uhren und Schmuck",
            "opening_hours": "Mo-Fr 08:30-12:00,14:00-18:00; Sa 08:30-12:00",
            "shop": "jewelry",
            "source": "Schwarzach--St. Veit-Goldegg Wirtschaftsführer"
          },
          "geometry": {
            "type": "Point",
            "coordinates": [
              13.1516878,
              47.3206623
            ]
          }
        },
        {
          "type": "Feature",
          "properties": {
            "id": "3761961142",
            "osm_type": "node",
            "lat": 47.3491653,
            "lon": 13.2036932,
            "addr:city": "Sankt Johann im Pongau",
            "addr:country": "AT",
            "addr:housenumber": "25",
            "addr:postcode": "5600",
            "addr:street": "Hauptstraße",
            "name": "M1",
            "shop": "jewelry"
          },
          "geometry": {
            "type": "Point",
            "coordinates": [
              13.2036932,
              47.3491653
            ]
          }
        },
        {
          "type": "Feature",
          "properties": {
            "id": "5641978521",
            "osm_type": "node",
            "lat": 47.1720921,
            "lon": 13.1048984,
            "name": "Goldschmied Gassner",
            "opening_hours": "Tu-Fr 08:30-12:00,15:00-18:00; Sa 09:00-12:00",
            "shop": "jewelry",
            "website": "https://www.goldschmiede-gastein.at/"
          },
          "geometry": {
            "type": "Point",
            "coordinates": [
              13.1048984,
              47.1720921
            ]
          }
        },
        {
          "type": "Feature",
          "properties": {
            "id": "6198895467",
            "osm_type": "node",
            "lat": 47.114522,
            "lon": 13.1342103,
            "name": "Lifestyle Gassner",
            "shop": "jewelry"
          },
          "geometry": {
            "type": "Point",
            "coordinates": [
              13.1342103,
              47.114522
            ]
          }
        },
        {
          "type": "Feature",
          "properties": {
            "id": "10723905463",
            "osm_type": "node",
            "lat": 47.170883,
            "lon": 13.1078212,
            "check_date": "2023-03-09",
            "name": "Nagina Mineralien",
            "opening_hours": "Mo-Fr 09:15-11:30,15:15-17:30; Sa 09:15-12:00",
            "shop": "jewelry"
          },
          "geometry": {
            "type": "Point",
            "coordinates": [
              13.1078212,
              47.170883
            ]
          }
        },
        {
          "type": "Feature",
          "properties": {
            "id": "10726120081",
            "osm_type": "node",
            "lat": 47.1713103,
            "lon": 13.105502,
            "check_date": "2023-03-10",
            "check_date:opening_hours": "2024-06-16",
            "name": "Jones",
            "opening_hours": "Mo-Fr 10:00-17:00; Sa 10:00-12:00",
            "shop": "jewelry"
          },
          "geometry": {
            "type": "Point",
            "coordinates": [
              13.105502,
              47.1713103
            ]
          }
        }
      ],
      "children": []
    },
    {
      "bbox": {
        "south": 47.36431175,
        "west": 11.438358999999998,
        "north": 47.694865,
        "east": 12.392062499999998
      },
      "poiCount": 28,
      "leafCount": 28,
      "averagePosition": [
        12.095935446428571,
        47.549499714285716
      ],
      "data": [
        {
          "type": "Feature",
          "properties": {
            "id": "1738763783",
            "osm_type": "node",
            "lat": 47.6931967,
            "lon": 11.7699052,
            "check_date": "2023-12-10",
            "name": "Manfred Weber Goldschmiedemeister",
            "shop": "jewelry"
          },
          "geometry": {
            "type": "Point",
            "coordinates": [
              11.7699052,
              47.6931967
            ]
          }
        },
        {
          "type": "Feature",
          "properties": {
            "id": "2123464360",
            "osm_type": "node",
            "lat": 47.4287619,
            "lon": 11.8773123,
            "contact:phone": "+43 5337 63537",
            "contact:website": "http://www.goldschmiede-schiessling.at/kontakt/",
            "name": "Schiessling",
            "opening_hours": "Mo-Fr 09:00-12:00,15:00-18:00; Sa 09:00-12:00",
            "shop": "jewelry"
          },
          "geometry": {
            "type": "Point",
            "coordinates": [
              11.8773123,
              47.4287619
            ]
          }
        },
        {
          "type": "Feature",
          "properties": {
            "id": "2368200005",
            "osm_type": "node",
            "lat": 47.6938421,
            "lon": 11.7687802,
            "check_date": "2023-12-10",
            "name": "Leicht",
            "shop": "jewelry",
            "wheelchair": "no"
          },
          "geometry": {
            "type": "Point",
            "coordinates": [
              11.7687802,
              47.6938421
            ]
          }
        },
        {
          "type": "Feature",
          "properties": {
            "id": "2368200023",
            "osm_type": "node",
            "lat": 47.6940637,
            "lon": 11.7687351,
            "check_date": "2023-12-10",
            "name": "It Medaillon",
            "shop": "jewelry"
          },
          "geometry": {
            "type": "Point",
            "coordinates": [
              11.7687351,
              47.6940637
            ]
          }
        },
        {
          "type": "Feature",
          "properties": {
            "id": "8129328414",
            "osm_type": "node",
            "lat": 47.3915725,
            "lon": 11.7737263,
            "name": "Diadoro",
            "shop": "jewelry"
          },
          "geometry": {
            "type": "Point",
            "coordinates": [
              11.7737263,
              47.3915725
            ]
          }
        },
        {
          "type": "Feature",
          "properties": {
            "id": "8471064138",
            "osm_type": "node",
            "lat": 47.6945057,
            "lon": 11.767085,
            "name": "Anna Meier Goldschmiede",
            "shop": "jewelry"
          },
          "geometry": {
            "type": "Point",
            "coordinates": [
              11.767085,
              47.6945057
            ]
          }
        },
        {
          "type": "Feature",
          "properties": {
            "id": "11967529207",
            "osm_type": "node",
            "lat": 47.6898508,
            "lon": 11.7708688,
            "shop": "jewelry"
          },
          "geometry": {
            "type": "Point",
            "coordinates": [
              11.7708688,
              47.6898508
            ]
          }
        },
        {
          "type": "Feature",
          "properties": {
            "id": "12184268062",
            "osm_type": "node",
            "lat": 47.6937002,
            "lon": 11.7690202,
            "name": "Juwelier & Goldschmiedemeister Risch",
            "shop": "jewelry",
            "website": "https://juwelier-risch.de/"
          },
          "geometry": {
            "type": "Point",
            "coordinates": [
              11.7690202,
              47.6937002
            ]
          }
        },
        {
          "type": "Feature",
          "properties": {
            "id": "860176855",
            "osm_type": "node",
            "lat": 47.4867649,
            "lon": 12.0668766,
            "name": "Fischer",
            "opening_hours": "Mo-Fr 08:00-12:00,14:00-18:00",
            "shop": "jewelry"
          },
          "geometry": {
            "type": "Point",
            "coordinates": [
              12.0668766,
              47.4867649
            ]
          }
        },
        {
          "type": "Feature",
          "properties": {
            "id": "1265966777",
            "osm_type": "node",
            "lat": 47.6477229,
            "lon": 12.1723039,
            "name": "Juwelier und Optiker Weißmann",
            "shop": "jewelry",
            "website": "https://www.optik-weissmann.de/"
          },
          "geometry": {
            "type": "Point",
            "coordinates": [
              12.1723039,
              47.6477229
            ]
          }
        },
        {
          "type": "Feature",
          "properties": {
            "id": "1370951032",
            "osm_type": "node",
            "lat": 47.5852547,
            "lon": 12.1720369,
            "check_date": "2024-06-26",
            "name": "Bijou Galerie",
            "opening_hours": "Mo-Fr 09:00-18:00; Sa 09:00-17:00",
            "shop": "jewelry"
          },
          "geometry": {
            "type": "Point",
            "coordinates": [
              12.1720369,
              47.5852547
            ]
          }
        },
        {
          "type": "Feature",
          "properties": {
            "id": "1371016852",
            "osm_type": "node",
            "lat": 47.5837683,
            "lon": 12.1711449,
            "addr:city": "Kufstein",
            "addr:housenumber": "16",
            "addr:postcode": "6330",
            "addr:street": "Hans Reisch-Straße",
            "check_date": "2024-12-14",
            "email": "info@bijouforyou.at",
            "name": "Bijou For You",
            "opening_hours": "Mo-Fr 10:00-18:00; Sa 09:00-14:00",
            "phone": "+43 676 4736257",
            "shop": "jewelry",
            "website": "https://www.bijouforyou.at"
          },
          "geometry": {
            "type": "Point",
            "coordinates": [
              12.1711449,
              47.5837683
            ]
          }
        },
        {
          "type": "Feature",
          "properties": {
            "id": "2693523801",
            "osm_type": "node",
            "lat": 47.5831272,
            "lon": 12.1689913,
            "check_date": "2024-06-27",
            "name": "StadtJuwelier Hüttner",
            "opening_hours": "Mo-Fr 09:00-18:00; Sa 09:00-17:00",
            "phone": "+43 5332 75613",
            "shop": "jewelry",
            "source": "survey",
            "website": "http://www.stadtjuwelier.at/"
          },
          "geometry": {
            "type": "Point",
            "coordinates": [
              12.1689913,
              47.5831272
            ]
          }
        },
        {
          "type": "Feature",
          "properties": {
            "id": "2946159485",
            "osm_type": "node",
            "lat": 47.5828337,
            "lon": 12.1719609,
            "name": "Juwelier Güley",
            "opening_hours": "Mo-Fr 09:30-18:00; Sa 09:00-17:00",
            "phone": "+43 676 5753674",
            "shop": "jewelry"
          },
          "geometry": {
            "type": "Point",
            "coordinates": [
              12.1719609,
              47.5828337
            ]
          }
        },
        {
          "type": "Feature",
          "properties": {
            "id": "3685465108",
            "osm_type": "node",
            "lat": 47.488906,
            "lon": 12.0631806,
            "name": "Stadtjuwelier Hüttner",
            "opening_hours": "Mo-Fr 09:00-18:00; Sa 09:00-13:00",
            "shop": "jewelry",
            "website": "http://stadtjuwelier.at",
            "wheelchair": "yes"
          },
          "geometry": {
            "type": "Point",
            "coordinates": [
              12.0631806,
              47.488906
            ]
          }
        },
        {
          "type": "Feature",
          "properties": {
            "id": "4227781390",
            "osm_type": "node",
            "lat": 47.6509165,
            "lon": 12.2154489,
            "name": "Röck",
            "shop": "jewelry"
          },
          "geometry": {
            "type": "Point",
            "coordinates": [
              12.2154489,
              47.6509165
            ]
          }
        },
        {
          "type": "Feature",
          "properties": {
            "id": "4305633591",
            "osm_type": "node",
            "lat": 47.4496116,
            "lon": 12.2566428,
            "name": "Goldschmiede Ehrensberger",
            "shop": "jewelry"
          },
          "geometry": {
            "type": "Point",
            "coordinates": [
              12.2566428,
              47.4496116
            ]
          }
        },
        {
          "type": "Feature",
          "properties": {
            "id": "5551400998",
            "osm_type": "node",
            "lat": 47.489958,
            "lon": 12.0619837,
            "check_date": "2025-09-14",
            "contact:phone": "+43 5332 73961",
            "contact:website": "http://www.puchwald.at",
            "name": "Puchwald",
            "opening_hours": "Mo-Fr 08:30-18:00; Sa 09:00-16:00; PH off",
            "shop": "jewelry"
          },
          "geometry": {
            "type": "Point",
            "coordinates": [
              12.0619837,
              47.489958
            ]
          }
        },
        {
          "type": "Feature",
          "properties": {
            "id": "5572065401",
            "osm_type": "node",
            "lat": 47.4903173,
            "lon": 12.0616785,
            "contact:phone": "+43533276435",
            "contact:website": "http://www.goldschmied-gruenbichler.at/",
            "name": "Grünbichler",
            "opening_hours": "Mo-Fr 09:00-12:30, 14:00-18:00; Sa 09:00-12:30",
            "shop": "jewelry",
            "wheelchair": "no"
          },
          "geometry": {
            "type": "Point",
            "coordinates": [
              12.0616785,
              47.4903173
            ]
          }
        },
        {
          "type": "Feature",
          "properties": {
            "id": "5766697476",
            "osm_type": "node",
            "lat": 47.5131628,
            "lon": 12.3015068,
            "name": "Dahoam",
            "opening_hours": "Mo-Fr 08:00-12:00, 14:00-18:00; Sa 09:00-12:00",
            "shop": "jewelry"
          },
          "geometry": {
            "type": "Point",
            "coordinates": [
              12.3015068,
              47.5131628
            ]
          }
        },
        {
          "type": "Feature",
          "properties": {
            "id": "6322975042",
            "osm_type": "node",
            "lat": 47.4477066,
            "lon": 12.3147367,
            "check_date": "2024-05-26",
            "name": "Goldschmiede Ehrensberger",
            "opening_hours": "Mo-Fr 09:00-12:00,15:00-18:00; Sa 09:00-12:00",
            "shop": "jewelry"
          },
          "geometry": {
            "type": "Point",
            "coordinates": [
              12.3147367,
              47.4477066
            ]
          }
        },
        {
          "type": "Feature",
          "properties": {
            "id": "6322979023",
            "osm_type": "node",
            "lat": 47.4478372,
            "lon": 12.3146547,
            "name": "Fräulein Veffi",
            "shop": "jewelry"
          },
          "geometry": {
            "type": "Point",
            "coordinates": [
              12.3146547,
              47.4478372
            ]
          }
        },
        {
          "type": "Feature",
          "properties": {
            "id": "8853084511",
            "osm_type": "node",
            "lat": 47.4469215,
            "lon": 12.3909302,
            "alt_name": "Swarovski Shop",
            "check_date": "2025-07-13",
            "check_date:opening_hours": "2025-07-13",
            "name": "Messner",
            "opening_hours": "Mo-Fr 09:30-18:00; Sa,Su,PH off",
            "shop": "jewelry"
          },
          "geometry": {
            "type": "Point",
            "coordinates": [
              12.3909302,
              47.4469215
            ]
          }
        },
        {
          "type": "Feature",
          "properties": {
            "id": "8853104123",
            "osm_type": "node",
            "lat": 47.4463956,
            "lon": 12.3913484,
            "check_date": "2025-07-13",
            "check_date:opening_hours": "2025-07-13",
            "name": "Schroll",
            "opening_hours": "Mo-Fr 09:30-18:00; Sa 09:30-13:00; Su,PH off",
            "shop": "jewelry"
          },
          "geometry": {
            "type": "Point",
            "coordinates": [
              12.3913484,
              47.4463956
            ]
          }
        },
        {
          "type": "Feature",
          "properties": {
            "id": "9330270625",
            "osm_type": "node",
            "lat": 47.5835115,
            "lon": 12.1710669,
            "check_date": "2024-12-14",
            "contact:email": "mail@uhren-egger.at",
            "contact:phone": "+43 5372 62989",
            "contact:website": "http://www.uhren-egger.at/",
            "name": "Uhren Schmuck Egger",
            "opening_hours": "mo-fr 09:00-18:00; sa 09:00-12:00",
            "shop": "jewelry"
          },
          "geometry": {
            "type": "Point",
            "coordinates": [
              12.1710669,
              47.5835115
            ]
          }
        },
        {
          "type": "Feature",
          "properties": {
            "id": "11444021189",
            "osm_type": "node",
            "lat": 47.5845516,
            "lon": 12.1711198,
            "level": "0",
            "shop": "jewelry"
          },
          "geometry": {
            "type": "Point",
            "coordinates": [
              12.1711198,
              47.5845516
            ]
          }
        },
        {
          "type": "Feature",
          "properties": {
            "id": "12478652600",
            "osm_type": "node",
            "lat": 47.448311,
            "lon": 12.3915324,
            "check_date": "2025-01-06",
            "name": "Nathal Epren",
            "opening_hours": "Mo-Fr 09:00-12:00,15:00-18:00; Sa 10:00-13:00; Su,PH off",
            "shop": "jewelry"
          },
          "geometry": {
            "type": "Point",
            "coordinates": [
              12.3915324,
              47.448311
            ]
          }
        },
        {
          "type": "Feature",
          "properties": {
            "id": "12987278519",
            "osm_type": "node",
            "lat": 47.4489195,
            "lon": 12.3916145,
            "addr:city": "Kitzbühel",
            "addr:country": "AT",
            "addr:housenumber": "5",
            "addr:postcode": "6370",
            "addr:street": "Hornweg",
            "name": "Goldschmiede Margarete Klingler",
            "opening_hours": "Mo-Fr 10:00-13:00,15:00-18:00; Sa 10:00-13:00",
            "shop": "jewelry",
            "website": "https://margarete-klingler.gold-kids.at/index.php"
          },
          "geometry": {
            "type": "Point",
            "coordinates": [
              12.3916145,
              47.4489195
            ]
          }
        }
      ],
      "children": []
    },
    {
      "bbox": {
        "south": 47.36431175,
        "west": 12.392062499999998,
        "north": 47.694865,
        "east": 13.345766
      },
      "poiCount": 15,
      "leafCount": 15,
      "averagePosition": [
        12.868057593333333,
        47.57947398666667
      ],
      "data": [
        {
          "type": "Feature",
          "properties": {
            "id": "1332130969",
            "osm_type": "node",
            "lat": 47.5220394,
            "lon": 12.4265307,
            "addr:city": "St. Johann in Tirol",
            "addr:country": "AT",
            "addr:housenumber": "7",
            "addr:postcode": "6380",
            "addr:street": "Kaiserstraße",
            "craft": "jeweller",
            "email": "enjoy.st.johann@gmail.com",
            "man_made": "works",
            "name": "EnjoyArt",
            "opening_hours": "Mo-Fr 09:00-18:00; Sa 09:00-17:00",
            "operator": "EnjoyArt GmbH",
            "phone": "+436644216187",
            "shop": "jewelry",
            "source": "Lokalerhebung 2012-2019",
            "website": "https://www.enjoyart.at"
          },
          "geometry": {
            "type": "Point",
            "coordinates": [
              12.4265307,
              47.5220394
            ]
          }
        },
        {
          "type": "Feature",
          "properties": {
            "id": "2552788598",
            "osm_type": "node",
            "lat": 47.521336,
            "lon": 12.427418,
            "addr:city": "St. Johann in Tirol",
            "addr:country": "AT",
            "addr:housenumber": "13",
            "addr:postcode": "6380",
            "addr:street": "Speckbacherstraße",
            "craft": "jeweller",
            "man_made": "works",
            "name": "Foidl",
            "opening_hours": "Mo-Fr 09:00-12:00,14:30-18:00; Sa 08:30-12:00",
            "phone": "+43535262580",
            "shop": "jewelry",
            "source": "Lokalerhebung 2012-2019"
          },
          "geometry": {
            "type": "Point",
            "coordinates": [
              12.427418,
              47.521336
            ]
          }
        },
        {
          "type": "Feature",
          "properties": {
            "id": "4712917142",
            "osm_type": "node",
            "lat": 47.522073,
            "lon": 12.4267483,
            "addr:city": "St. Johann in Tirol",
            "addr:country": "AT",
            "addr:housenumber": "5",
            "addr:postcode": "6380",
            "addr:street": "Kaiserstraße",
            "email": "info@schmuckuhren.at",
            "name": "Goldschmiede WIMMER",
            "opening_hours": "Mo-Fr 08:30-12:30,14:00-18:00; Sa 09:00-12:30,13:30-16:00",
            "phone": "+43535262528",
            "shop": "jewelry",
            "source": "Lokalerhebung 2012-2019"
          },
          "geometry": {
            "type": "Point",
            "coordinates": [
              12.4267483,
              47.522073
            ]
          }
        },
        {
          "type": "Feature",
          "properties": {
            "id": "8193030072",
            "osm_type": "node",
            "lat": 47.5216488,
            "lon": 12.4269382,
            "addr:city": "St. Johann in Tirol",
            "addr:housenumber": "3",
            "addr:postcode": "6380",
            "addr:street": "Poststraße",
            "craft": "jeweller",
            "level": "0",
            "name": "1064°",
            "opening_hours": "Tu-Fr 08:00-12:30,14:00-18:30; Sa 08:00-16:00; PH closed",
            "shop": "jewelry",
            "wheelchair": "yes"
          },
          "geometry": {
            "type": "Point",
            "coordinates": [
              12.4269382,
              47.5216488
            ]
          }
        },
        {
          "type": "Feature",
          "properties": {
            "id": "802511223",
            "osm_type": "node",
            "lat": 47.5868639,
            "lon": 12.6928058,
            "opening_hours": "Mo-Fr 08:30-12:00,14:30-18:00; Sa 08:30-12:00",
            "shop": "jewelry"
          },
          "geometry": {
            "type": "Point",
            "coordinates": [
              12.6928058,
              47.5868639
            ]
          }
        },
        {
          "type": "Feature",
          "properties": {
            "id": "1703146486",
            "osm_type": "node",
            "lat": 47.4273107,
            "lon": 12.8473703,
            "addr:city": "Saalfelden am Steinernen Meer",
            "addr:country": "AT",
            "addr:housenumber": "4",
            "addr:postcode": "5760",
            "addr:street": "Mittergasse",
            "check_date": "2024-09-15",
            "name": "Juwelier Uhrmacher Fichtl",
            "shop": "jewelry"
          },
          "geometry": {
            "type": "Point",
            "coordinates": [
              12.8473703,
              47.4273107
            ]
          }
        },
        {
          "type": "Feature",
          "properties": {
            "id": "2097769481",
            "osm_type": "node",
            "lat": 47.6311798,
            "lon": 13.001224,
            "addr:city": "Berchtesgaden",
            "addr:country": "DE",
            "addr:housenumber": "6",
            "addr:postcode": "83471",
            "addr:street": "Maximilianstraße",
            "check_date": "2023-10-10",
            "name": "Goldschmiede Goettgen",
            "opening_hours": "Mo-Fr 09:00-18:00; Sa 09:00-12:30",
            "shop": "jewelry",
            "website": "https://www.schmuck-goettgen.de/",
            "wheelchair": "limited"
          },
          "geometry": {
            "type": "Point",
            "coordinates": [
              13.001224,
              47.6311798
            ]
          }
        },
        {
          "type": "Feature",
          "properties": {
            "id": "2122830883",
            "osm_type": "node",
            "lat": 47.6319593,
            "lon": 13.0000366,
            "addr:city": "Berchtesgaden",
            "addr:country": "DE",
            "addr:housenumber": "6",
            "addr:postcode": "83471",
            "addr:street": "Dr.-Imhof-Straße",
            "name": "Uhren Schmuck",
            "opening_hours": "Mo,Tu,Th,Fr 09:00-18:00; We,Sa 09:00-12:00",
            "owner": "Stefan Ammon",
            "phone": "+49 8652 3325",
            "shop": "jewelry"
          },
          "geometry": {
            "type": "Point",
            "coordinates": [
              13.0000366,
              47.6319593
            ]
          }
        },
        {
          "type": "Feature",
          "properties": {
            "id": "7992547111",
            "osm_type": "node",
            "lat": 47.6106198,
            "lon": 12.9784953,
            "check_date": "2023-07-31",
            "level": "0",
            "name": "Uhren Mayer Schmuck",
            "opening_hours": "Mo-Fr 09:00-12:00,14:30-18:00; Sa 09:00-12:00; PH closed",
            "operator": "Susanne Mayer",
            "shop": "jewelry",
            "wheelchair": "yes"
          },
          "geometry": {
            "type": "Point",
            "coordinates": [
              12.9784953,
              47.6106198
            ]
          }
        },
        {
          "type": "Feature",
          "properties": {
            "id": "1080513360",
            "osm_type": "node",
            "lat": 47.684228,
            "lon": 13.0984384,
            "addr:city": "Hallein",
            "addr:country": "AT",
            "addr:housenumber": "4",
            "addr:postcode": "5400",
            "addr:street": "Bahnhofstraße",
            "name": "Uhrenmacher Engel",
            "shop": "jewelry"
          },
          "geometry": {
            "type": "Point",
            "coordinates": [
              13.0984384,
              47.684228
            ]
          }
        },
        {
          "type": "Feature",
          "properties": {
            "id": "3535000242",
            "osm_type": "node",
            "lat": 47.6265676,
            "lon": 13.1450786,
            "shop": "jewelry"
          },
          "geometry": {
            "type": "Point",
            "coordinates": [
              13.1450786,
              47.6265676
            ]
          }
        },
        {
          "type": "Feature",
          "properties": {
            "id": "6794605986",
            "osm_type": "node",
            "lat": 47.6827531,
            "lon": 13.0924551,
            "addr:city": "Hallein",
            "addr:country": "AT",
            "addr:housenumber": "2",
            "addr:postcode": "5400",
            "addr:street": "Wichtlhuberstraße",
            "contact:email": "e.s.finejewelry@gmail.com",
            "contact:phone": "+43 650 57021330",
            "contact:website": "https://www.finejewelry.at/",
            "name": "Stöllner Elfriede - fine jewelry",
            "opening_hours": "Mo-Fr 10:00-13:00, 14:30-18:00; Sa 09:00-13:00",
            "shop": "jewelry"
          },
          "geometry": {
            "type": "Point",
            "coordinates": [
              13.0924551,
              47.6827531
            ]
          }
        },
        {
          "type": "Feature",
          "properties": {
            "id": "7218371538",
            "osm_type": "node",
            "lat": 47.6818542,
            "lon": 13.0946758,
            "addr:city": "Hallein",
            "addr:country": "AT",
            "addr:housenumber": "2",
            "addr:postcode": "5400",
            "addr:street": "Raitenaustraße",
            "at_bev:addr_date": "2018-10-01",
            "check_date:opening_hours": "2021-12-25",
            "contact:email": "canan@juwelier-canan.at",
            "contact:phone": "+43 6245 73593",
            "name": "C4 Canan",
            "opening_hours": "Mo-Fr 09:00-12:00,14:00-18:00; Sa 09:00-12:00",
            "operator": "Juwelier Canan",
            "operator:website": "http://www.juwelier-canan.at/",
            "shop": "jewelry"
          },
          "geometry": {
            "type": "Point",
            "coordinates": [
              13.0946758,
              47.6818542
            ]
          }
        },
        {
          "type": "Feature",
          "properties": {
            "id": "8857644377",
            "osm_type": "node",
            "lat": 47.6258028,
            "lon": 13.1443002,
            "addr:city": "Kuchl",
            "addr:housenumber": "4",
            "addr:postcode": "5431",
            "addr:street": "Markt",
            "name": "Goldschmiede Karin Ramsl",
            "shop": "jewelry"
          },
          "geometry": {
            "type": "Point",
            "coordinates": [
              13.1443002,
              47.6258028
            ]
          }
        },
        {
          "type": "Feature",
          "properties": {
            "id": "8875556117",
            "osm_type": "node",
            "lat": 47.4158734,
            "lon": 13.2183486,
            "name": "Schmuck Teufel",
            "shop": "jewelry"
          },
          "geometry": {
            "type": "Point",
            "coordinates": [
              13.2183486,
              47.4158734
            ]
          }
        }
      ],
      "children": []
    }
  ]
}