{
  "bbox": {
    "south": 48.355971499999995,
    "west": 15.253173,
    "north": 49.017078,
    "east": 17.16058
  },
  "poiCount": 33,
  "leafCount": 33,
  "averagePosition": [
    16.38811982121212,
    48.616920936363634
  ],
  "data": [
    {
      "type": "Feature",
      "properties": {
        "id": "393884889",
        "osm_type": "node",
        "lat": 48.4353307,
        "lon": 15.8969953,
        "addr:city": "Kirchberg am Wagram",
        "addr:housenumber": "21",
        "addr:postcode": "3470",
        "addr:street": "Marktplatz",
        "email": "firma@ilse-fandl.at",
        "name": "Fandl",
        "phone": "+43 2279 2247",
        "shop": "jewelry",
        "url": "http://www.ilse-fandl.at/"
      },
      "geometry": {
        "type": "Point",
        "coordinates": [
          15.8969953,
          48.4353307
        ]
      }
    },
    {
      "type": "Feature",
      "properties": {
        "id": "3866057061",
        "osm_type": "node",
        "lat": 48.6630352,
        "lon": 15.6557208,
        "addr:city": "Horn",
        "addr:housenumber": "4",
        "addr:postcode": "3580",
        "addr:street": "Prager Straße",
        "name": "Juwelier Mieke",
        "opening_hours": "Mo-Fr 08:30-12:00,14:00-18:00; Sa 08:45-12:00",
        "phone": "+43298220682",
        "shop": "jewelry",
        "wheelchair": "limited"
      },
      "geometry": {
        "type": "Point",
        "coordinates": [
          15.6557208,
          48.6630352
        ]
      }
    },
    {
      "type": "Feature",
      "properties": {
        "id": "6410948289",
        "osm_type": "node",
        "lat": 48.4092241,
        "lon": 15.5968697,
        "addr:city": "Krems an der Donau",
        "addr:country": "AT",
        "addr:housenumber": "1",
        "addr:postcode": "3500",
        "addr:street": "Utzstraße",
        "level": "0",
        "name": "Waiglein",
        "shop": "jewelry",
        "wheelchair": "yes"
      },
      "geometry": {
        "type": "Point",
        "coordinates": [
          15.5968697,
          48.4092241
        ]
      }
    },
    {
      "type": "Feature",
      "properties": {
        "id": "8734306814",
        "osm_type": "node",
        "lat": 48.4162722,
        "lon": 15.6219111,
        "addr:city": "Krems an der Donau",
        "addr:country": "AT",
        "addr:housenumber": "96-102",
        "addr:postcode": "3500",
        "addr:street": "Wiener Straße",
        "addr:unit": "Ebene 2 - Top 15",
        "check_date": "2024-07-27",
        "contact:phone": "+43 2732 788 15",
        "contact:website": "https://www.leclou.at/",
        "level": "2",
        "name": "GioiaPura",
        "shop": "jewelry"
      },
      "geometry": {
        "type": "Point",
        "coordinates": [
          15.6219111,
          48.4162722
        ]
      }
    },
    {
      "type": "Feature",
      "properties": {
        "id": "10184706458",
        "osm_type": "node",
        "lat": 48.4102968,
        "lon": 15.5978325,
        "addr:city": "Krems an der Donau",
        "addr:country": "AT",
        "addr:housenumber": "21",
        "addr:postcode": "3500",
        "addr:street": "Obere Landstraße",
        "description": "Schmuck,Uhren,Trauringe, Goldschmiedmeister, Diamandgutachter",
        "name": "Juwelier Kalteis",
        "opening_hours": "Tu-Fr 10:00-13:00; Th,Fr 15:30-18:00; Sa 09:30-13:00; PH off",
        "operator": "Walter Kalteis",
        "phone": "+43 2732 70 647",
        "shop": "jewelry",
        "website": "http://www.kalteis-21.at/"
      },
      "geometry": {
        "type": "Point",
        "coordinates": [
          15.5978325,
          48.4102968
        ]
      }
    },
    {
      "type": "Feature",
      "properties": {
        "id": "10727611152",
        "osm_type": "node",
        "lat": 48.4118668,
        "lon": 15.6036196,
        "addr:city": "Krems an der Donau",
        "addr:housenumber": "49",
        "addr:postcode": "3500",
        "addr:street": "Untere Landstraße",
        "name": "Juwelier Göschl",
        "opening_hours": "Mo-Fr 08:30-12:30,14:00-18:00; Sa 08:30-12:30; PH off",
        "phone": "+43 2732 83605",
        "shop": "jewelry",
        "website": "https://juwelier-goeschl.at/"
      },
      "geometry": {
        "type": "Point",
        "coordinates": [
          15.6036196,
          48.4118668
        ]
      }
    },
    {
      "type": "Feature",
      "properties": {
        "id": "12076954781",
        "osm_type": "node",
        "lat": 48.4160149,
        "lon": 15.6209991,
        "addr:city": "Krems an der Donau",
        "addr:country": "AT",
        "addr:housenumber": "96-102",
        "addr:postcode": "3500",
        "addr:street": "Wiener Straße",
        "brand": "Bijou Brigitte",
        "brand:wikidata": "Q599545",
        "check_date": "2024-07-27",
        "level": "2",
        "name": "Bijou Brigitte",
        "shop": "jewelry"
      },
      "geometry": {
        "type": "Point",
        "coordinates": [
          15.6209991,
          48.4160149
        ]
      }
    },
    {
      "type": "Feature",
      "properties": {
        "id": "12076954792",
        "osm_type": "node",
        "lat": 48.4164206,
        "lon": 15.621303,
        "addr:city": "Krems an der Donau",
        "addr:country": "AT",
        "addr:housenumber": "96-102",
        "addr:postcode": "3500",
        "addr:street": "Wiener Straße",
        "check_date": "2024-07-27",
        "level": "1",
        "name": "Jurtschitsch",
        "shop": "jewelry"
      },
      "geometry": {
        "type": "Point",
        "coordinates": [
          15.621303,
          48.4164206
        ]
      }
    },
    {
      "type": "Feature",
      "properties": {
        "id": "12302038572",
        "osm_type": "node",
        "lat": 48.4110891,
        "lon": 15.5994775,
        "addr:city": "Krems an der Donau",
        "addr:country": "AT",
        "addr:housenumber": "1",
        "addr:postcode": "3500",
        "addr:street": "Kirchengasse",
        "alt_name": "J. Raderer",
        "mobile": "+43 676 33 05 81 2",
        "name": "Juwelier Raderer",
        "opening_hours": "Mo-Fr 09:00-12:00,14:00-18:00; Sa 09:00-12:30",
        "phone": "+43 2732 85619",
        "shop": "jewelry",
        "website": "https://raderer.at/"
      },
      "geometry": {
        "type": "Point",
        "coordinates": [
          15.5994775,
          48.4110891
        ]
      }
    },
    {
      "type": "Feature",
      "properties": {
        "id": "12636084313",
        "osm_type": "node",
        "lat": 48.4107251,
        "lon": 15.5985321,
        "addr:city": "Krems an der Donau",
        "addr:country": "AT",
        "addr:housenumber": "14",
        "addr:postcode": "3500",
        "addr:street": "Obere Landstraße",
        "alt_name": "Juwelier Jurtschitsch",
        "name": "Jurtschitsch",
        "phone": "+43 2732 72538",
        "shop": "jewelry",
        "website": "https://www.juwelier-jurtschitsch.com/"
      },
      "geometry": {
        "type": "Point",
        "coordinates": [
          15.5985321,
          48.4107251
        ]
      }
    },
    {
      "type": "Feature",
      "properties": {
        "id": "1145506285",
        "osm_type": "node",
        "lat": 48.8540682,
        "lon": 16.0507921,
        "name": "Moderní šperk",
        "opening_hours": "Mo-Fr 09:00-17:00; Sa 09:00-12:00",
        "shop": "jewelry"
      },
      "geometry": {
        "type": "Point",
        "coordinates": [
          16.0507921,
          48.8540682
        ]
      }
    },
    {
      "type": "Feature",
      "properties": {
        "id": "1944970374",
        "osm_type": "node",
        "lat": 48.5655401,
        "lon": 16.0799725,
        "addr:housenumber": "32",
        "addr:postcode": "2020",
        "addr:street": "Sparkassegasse",
        "shop": "jewelry",
        "wheelchair": "no"
      },
      "geometry": {
        "type": "Point",
        "coordinates": [
          16.0799725,
          48.5655401
        ]
      }
    },
    {
      "type": "Feature",
      "properties": {
        "id": "2190968048",
        "osm_type": "node",
        "lat": 48.5641741,
        "lon": 16.079186,
        "addr:housenumber": "5",
        "addr:postcode": "2020",
        "addr:street": "Sparkassegasse",
        "name": "Juwelier Mayerhofer",
        "shop": "jewelry"
      },
      "geometry": {
        "type": "Point",
        "coordinates": [
          16.079186,
          48.5641741
        ]
      }
    },
    {
      "type": "Feature",
      "properties": {
        "id": "10762026152",
        "osm_type": "node",
        "lat": 48.8546609,
        "lon": 16.0499623,
        "check_date": "2025-04-12",
        "check_date:opening_hours": "2024-06-23",
        "name": "Reich",
        "opening_hours": "Mo-Fr 08:30-17:15; Sa 09:00-11:30",
        "shop": "jewelry",
        "website": "https://www.hodinky-zlato.cz",
        "wheelchair": "no"
      },
      "geometry": {
        "type": "Point",
        "coordinates": [
          16.0499623,
          48.8546609
        ]
      }
    },
    {
      "type": "Feature",
      "properties": {
        "id": "12260888653",
        "osm_type": "node",
        "lat": 48.8551226,
        "lon": 16.0494396,
        "name": "Klenoty",
        "opening_hours": "Mo-Fr 08:30-17:30; Sa 08:30-12:00",
        "operator": "Tom a Beni s.r.o.",
        "shop": "jewelry"
      },
      "geometry": {
        "type": "Point",
        "coordinates": [
          16.0494396,
          48.8551226
        ]
      }
    },
    {
      "type": "Feature",
      "properties": {
        "id": "544505564",
        "osm_type": "node",
        "lat": 48.5683941,
        "lon": 16.5723435,
        "addr:city": "Mistelbach",
        "addr:housenumber": "1",
        "addr:postcode": "2130",
        "addr:street": "Hafnerstraße",
        "disused:shop": "yes",
        "email": "office@onemoretime.at",
        "name": "Juwelier One More Time",
        "opening_hours": "Mo-Fr 08:30-13:00,13:30-18:00, Sa 08:30-13:00,13:30-17:00; PH off",
        "phone": "+43 2572 20337",
        "shop": "jewelry",
        "website": "https://onemoretime.at/"
      },
      "geometry": {
        "type": "Point",
        "coordinates": [
          16.5723435,
          48.5683941
        ]
      }
    },
    {
      "type": "Feature",
      "properties": {
        "id": "1368955897",
        "osm_type": "node",
        "lat": 48.5621673,
        "lon": 16.5574054,
        "name": "LeClou",
        "shop": "jewelry"
      },
      "geometry": {
        "type": "Point",
        "coordinates": [
          16.5574054,
          48.5621673
        ]
      }
    },
    {
      "type": "Feature",
      "properties": {
        "id": "1520988956",
        "osm_type": "node",
        "lat": 48.4387718,
        "lon": 17.0156164,
        "contact:phone": "+421 903 431 134",
        "level": "0",
        "name": "Ebner",
        "opening_hours": "Mo-Fr 10:00-17:30;Sa 9:00-12:00",
        "shop": "jewelry",
        "website": "https://www.ebner.sk"
      },
      "geometry": {
        "type": "Point",
        "coordinates": [
          17.0156164,
          48.4387718
        ]
      }
    },
    {
      "type": "Feature",
      "properties": {
        "id": "1520988967",
        "osm_type": "node",
        "lat": 48.4386144,
        "lon": 17.0150159,
        "check_date": "2025-02-03",
        "contact:phone": "+421 34 7722936",
        "name": "Zlatokov",
        "opening_hours": "Mo-Fr 9:30-12:00,13:00-17:00",
        "operator": "Zlatokov SK a.s. Trenčín",
        "shop": "jewelry",
        "wheelchair": "yes"
      },
      "geometry": {
        "type": "Point",
        "coordinates": [
          17.0150159,
          48.4386144
        ]
      }
    },
    {
      "type": "Feature",
      "properties": {
        "id": "1802057087",
        "osm_type": "node",
        "lat": 48.8447452,
        "lon": 16.8969305,
        "name": "Klenoty Opluštil",
        "opening_hours": "Mo-Fr 08:00-17:00; Sa 08:00-11:00",
        "shop": "jewelry"
      },
      "geometry": {
        "type": "Point",
        "coordinates": [
          16.8969305,
          48.8447452
        ]
      }
    },
    {
      "type": "Feature",
      "properties": {
        "id": "3187658777",
        "osm_type": "node",
        "lat": 48.5452665,
        "lon": 16.7638354,
        "shop": "jewelry"
      },
      "geometry": {
        "type": "Point",
        "coordinates": [
          16.7638354,
          48.5452665
        ]
      }
    },
    {
      "type": "Feature",
      "properties": {
        "id": "3750729539",
        "osm_type": "node",
        "lat": 48.7602561,
        "lon": 16.8805731,
        "name": "Jantar",
        "shop": "jewelry"
      },
      "geometry": {
        "type": "Point",
        "coordinates": [
          16.8805731,
          48.7602561
        ]
      }
    },
    {
      "type": "Feature",
      "properties": {
        "id": "3869467678",
        "osm_type": "node",
        "lat": 48.5676839,
        "lon": 16.5722018,
        "addr:city": "Mistelbach",
        "addr:country": "AT",
        "addr:housenumber": "8",
        "addr:postcode": "2130",
        "addr:street": "Hafnerstraße",
        "name": "Robert Zahradnik",
        "phone": "+43 2572 20320",
        "shop": "jewelry"
      },
      "geometry": {
        "type": "Point",
        "coordinates": [
          16.5722018,
          48.5676839
        ]
      }
    },
    {
      "type": "Feature",
      "properties": {
        "id": "4045415696",
        "osm_type": "node",
        "lat": 48.8054684,
        "lon": 16.6377477,
        "name": "Jarabi",
        "shop": "jewelry"
      },
      "geometry": {
        "type": "Point",
        "coordinates": [
          16.6377477,
          48.8054684
        ]
      }
    },
    {
      "type": "Feature",
      "properties": {
        "id": "7605314656",
        "osm_type": "node",
        "lat": 48.6065403,
        "lon": 16.9050658,
        "addr:city": "Hohenau an der March",
        "addr:country": "AT",
        "addr:housenumber": "1",
        "addr:postcode": "2273",
        "addr:street": "Rathausplatz",
        "contact:phone": "+43 2535 2371",
        "name": "Uhren-Schmuck Fiedler",
        "opening_hours": "Mo-Fr 08:00-12:00, 15:00-18:00; Sa 08:00-12:00",
        "shop": "jewelry"
      },
      "geometry": {
        "type": "Point",
        "coordinates": [
          16.9050658,
          48.6065403
        ]
      }
    },
    {
      "type": "Feature",
      "properties": {
        "id": "9748725124",
        "osm_type": "node",
        "lat": 48.4370358,
        "lon": 17.0192298,
        "check_date": "2022-05-16",
        "level": "0",
        "name": "Klenoty H+H",
        "note": "last Saturday in month off",
        "opening_hours": "Mo-Fr 9:00-16:30;Sa 9:30-11:30",
        "shop": "jewelry",
        "wheelchair": "yes"
      },
      "geometry": {
        "type": "Point",
        "coordinates": [
          17.0192298,
          48.4370358
        ]
      }
    },
    {
      "type": "Feature",
      "properties": {
        "id": "10860319442",
        "osm_type": "node",
        "lat": 48.7804815,
        "lon": 16.901709,
        "name": "Andox",
        "shop": "jewelry",
        "wheelchair": "yes"
      },
      "geometry": {
        "type": "Point",
        "coordinates": [
          16.901709,
          48.7804815
        ]
      }
    },
    {
      "type": "Feature",
      "properties": {
        "id": "10863683164",
        "osm_type": "node",
        "lat": 48.8002834,
        "lon": 16.7990631,
        "name": "Zlatnictví",
        "opening_hours": "Mo-Fr 13:00-17:00; Sa 09:00-12:00",
        "shop": "jewelry"
      },
      "geometry": {
        "type": "Point",
        "coordinates": [
          16.7990631,
          48.8002834
        ]
      }
    },
    {
      "type": "Feature",
      "properties": {
        "id": "12840842532",
        "osm_type": "node",
        "lat": 48.4368937,
        "lon": 17.0203258,
        "check_date": "2025-05-08",
        "level": "1",
        "opening_hours": "Mo-Fr 8:00-17:00;Sa 8:00-12:00",
        "shop": "jewelry",
        "wheelchair": "yes"
      },
      "geometry": {
        "type": "Point",
        "coordinates": [
          17.0203258,
          48.4368937
        ]
      }
    },
    {
      "type": "Feature",
      "properties": {
        "id": "6859030057",
        "osm_type": "node",
        "lat": 48.6373116,
        "lon": 17.1537935,
        "opening_hours": "Mo-Fr 8:00-12:00,13:00-17:00; Sa 8:00-12:00",
        "shop": "jewelry",
        "wheelchair": "no",
        "wheelchair:description": "3 steps"
      },
      "geometry": {
        "type": "Point",
        "coordinates": [
          17.1537935,
          48.6373116
        ]
      }
    },
    {
      "type": "Feature",
      "properties": {
        "id": "1929499991",
        "osm_type": "node",
        "lat": 49.0095307,
        "lon": 17.1250994,
        "name": "Klenoty",
        "shop": "jewelry"
      },
      "geometry": {
        "type": "Point",
        "coordinates": [
          17.1250994,
          49.0095307
        ]
      }
    },
    {
      "type": "Feature",
      "properties": {
        "id": "1929499996",
        "osm_type": "node",
        "lat": 49.0101555,
        "lon": 17.1237051,
        "name": "Lazurit zlatnictví",
        "shop": "jewelry",
        "website": "https://www.zlatnictvilazurit.cz/"
      },
      "geometry": {
        "type": "Point",
        "coordinates": [
          17.1237051,
          49.0101555
        ]
      }
    },
    {
      "type": "Feature",
      "properties": {
        "id": "2232392462",
        "osm_type": "node",
        "lat": 49.0149493,
        "lon": 17.1256797,
        "addr:housename": "Zlatnictví Hanáček",
        "addr:housenumber": "632/52",
        "addr:postcode": "69701",
        "addr:street": "třída Komenského",
        "name": "Zlatnictví Hanáček",
        "shop": "jewelry",
        "source": "local knowledge"
      },
      "geometry": {
        "type": "Point",
        "coordinates": [
          17.1256797,
          49.0149493
        ]
      }
    }
  ],
  "children": []
}