{
  "bbox": {
    "south": 48.355971499999995,
    "west": 13.345766,
    "north": 49.017078,
    "east": 15.253173
  },
  "poiCount": 66,
  "leafCount": 0,
  "averagePosition": [
    14.076571134848486,
    48.73879628636364
  ],
  "data": [],
  "children": [
    {
      "bbox": {
        "south": 48.355971499999995,
        "west": 13.345766,
        "north": 48.68652475,
        "east": 14.2994695
      },
      "poiCount": 26,
      "leafCount": 26,
      "averagePosition": [
        13.515455380769232,
        48.55707261923077
      ],
      "data": [
        {
          "type": "Feature",
          "properties": {
            "id": "1546433813",
            "osm_type": "node",
            "lat": 48.3712969,
            "lon": 13.5777118,
            "name": "Juwelier Redl",
            "shop": "jewelry"
          },
          "geometry": {
            "type": "Point",
            "coordinates": [
              13.5777118,
              48.3712969
            ]
          }
        },
        {
          "type": "Feature",
          "properties": {
            "id": "776445157",
            "osm_type": "node",
            "lat": 48.5742098,
            "lon": 13.4679674,
            "addr:city": "Passau",
            "addr:country": "DE",
            "addr:housenumber": "2",
            "addr:postcode": "94032",
            "addr:street": "Residenzplatz",
            "name": "Julia Zanella Schmuckwerkstatt",
            "opening_hours": "Mo-Fr 10:00-13:00,14:00-18:00; Sa 10:00-13:00",
            "shop": "jewelry",
            "wheelchair": "yes"
          },
          "geometry": {
            "type": "Point",
            "coordinates": [
              13.4679674,
              48.5742098
            ]
          }
        },
        {
          "type": "Feature",
          "properties": {
            "id": "1812804324",
            "osm_type": "node",
            "lat": 48.5746225,
            "lon": 13.460609,
            "addr:city": "Passau",
            "addr:country": "DE",
            "addr:housenumber": "4",
            "addr:postcode": "94032",
            "addr:street": "Grabengasse",
            "check_date": "2024-02-27",
            "contact:email": "info@passauer-goldschmiede.de",
            "contact:fax": "+49 851 32309",
            "contact:phone": "+49 851 34560",
            "contact:website": "http://www.passauer-goldschmiede.de/",
            "name": "Passauer Goldschmiede",
            "opening_hours": "Tu-Fr 09:00-12:00,14:00-18:00; Sa 09:00-16:00",
            "operator": "Christian Buchner",
            "shop": "jewelry",
            "wheelchair": "yes"
          },
          "geometry": {
            "type": "Point",
            "coordinates": [
              13.460609,
              48.5746225
            ]
          }
        },
        {
          "type": "Feature",
          "properties": {
            "id": "2413642572",
            "osm_type": "node",
            "lat": 48.5751938,
            "lon": 13.4596076,
            "addr:city": "Passau",
            "addr:country": "DE",
            "addr:postcode": "94032",
            "addr:street": "Wittgasse",
            "email": "info@schmuckberger.de",
            "name": "Schmuck Berger",
            "opening_hours": "Mo-Fr 09:00-17:30, Sa 09:00-13:45",
            "operator": "Patricia Hutstein",
            "phone": "+49 851 34660",
            "shop": "jewelry",
            "website": "https://www.schmuckberger.de/"
          },
          "geometry": {
            "type": "Point",
            "coordinates": [
              13.4596076,
              48.5751938
            ]
          }
        },
        {
          "type": "Feature",
          "properties": {
            "id": "2413642573",
            "osm_type": "node",
            "lat": 48.5751539,
            "lon": 13.4597932,
            "addr:city": "Passau",
            "addr:country": "DE",
            "addr:postcode": "94032",
            "addr:street": "Wittgasse",
            "email": "schmuck-schubert@t-online.de",
            "name": "Schmuck Katharina Schubert",
            "opening_hours": "Mo-Fr 10:00-18:00; Sa 10:00-17:00",
            "operator": "Katharina Schubert-Oswald",
            "phone": "+49 851 98819998",
            "shop": "jewelry",
            "website": "https://schmuck-schubert.de/"
          },
          "geometry": {
            "type": "Point",
            "coordinates": [
              13.4597932,
              48.5751539
            ]
          }
        },
        {
          "type": "Feature",
          "properties": {
            "id": "3006977662",
            "osm_type": "node",
            "lat": 48.5746331,
            "lon": 13.4607024,
            "check_date": "2023-10-01",
            "entrance": "yes",
            "name": "Brunner Beppo",
            "opening_hours": "Mo-Fr 09:30-13:00,14:00-18:00; Su 10:00-16:00",
            "shop": "jewelry",
            "wheelchair": "limited"
          },
          "geometry": {
            "type": "Point",
            "coordinates": [
              13.4607024,
              48.5746331
            ]
          }
        },
        {
          "type": "Feature",
          "properties": {
            "id": "3006977666",
            "osm_type": "node",
            "lat": 48.5747424,
            "lon": 13.4606142,
            "entrance": "yes",
            "name": "Zeitlos Uhren & Schmuck",
            "opening_hours": "Mo-Fr 10:00-17:00; Sa 10:00-14:00",
            "shop": "jewelry",
            "website": "http://www.zeitlos-uhren-schmuck.de",
            "wheelchair": "yes"
          },
          "geometry": {
            "type": "Point",
            "coordinates": [
              13.4606142,
              48.5747424
            ]
          }
        },
        {
          "type": "Feature",
          "properties": {
            "id": "3006985022",
            "osm_type": "node",
            "lat": 48.5742398,
            "lon": 13.4613781,
            "email": "unikat-passau@t-online.de",
            "fixme": "removed website \"http://www.unikat-passau.de/\" as domain is for sale. Is this shop still existing?",
            "name": "Unikat Schmuckgalerie",
            "opening_hours": "Mo-Fr 09:00-13:00, 14:00-18:00; Sa 10:00-16:00",
            "phone": "+49 851 31441",
            "shop": "jewelry",
            "wheelchair": "yes"
          },
          "geometry": {
            "type": "Point",
            "coordinates": [
              13.4613781,
              48.5742398
            ]
          }
        },
        {
          "type": "Feature",
          "properties": {
            "id": "3007018938",
            "osm_type": "node",
            "lat": 48.574043,
            "lon": 13.4621155,
            "check_date:opening_hours": "2024-07-16",
            "entrance": "yes",
            "name": "Goldschmiede Gaspar",
            "opening_hours": "Tu-Fr 10:30-13:00,14:00-17:00",
            "phone": "+49 851 35912",
            "shop": "jewelry",
            "wheelchair": "no"
          },
          "geometry": {
            "type": "Point",
            "coordinates": [
              13.4621155,
              48.574043
            ]
          }
        },
        {
          "type": "Feature",
          "properties": {
            "id": "3007035981",
            "osm_type": "node",
            "lat": 48.5740812,
            "lon": 13.4619053,
            "email": "info@beatesuhr.de",
            "entrance": "yes",
            "fax": "+49 851 93466 19",
            "name": "Schmuck Accsessoires - Goldschmiede Beate Suhr",
            "opening_hours": "Mo-Fr 10:00-13:00, 14:00-18:00; Sa 10:00-16:00",
            "phone": "+49 851 93466 19",
            "shop": "jewelry",
            "website": "http://www.beatesuhr.de/",
            "wheelchair": "no"
          },
          "geometry": {
            "type": "Point",
            "coordinates": [
              13.4619053,
              48.5740812
            ]
          }
        },
        {
          "type": "Feature",
          "properties": {
            "id": "3007081087",
            "osm_type": "node",
            "lat": 48.5741512,
            "lon": 13.4614601,
            "entrance": "yes",
            "name": "Bruno Munding Edelmetallrecycling GmbH",
            "shop": "jewelry"
          },
          "geometry": {
            "type": "Point",
            "coordinates": [
              13.4614601,
              48.5741512
            ]
          }
        },
        {
          "type": "Feature",
          "properties": {
            "id": "3273270530",
            "osm_type": "node",
            "lat": 48.5722836,
            "lon": 13.4570722,
            "addr:city": "Passau",
            "addr:country": "DE",
            "addr:housenumber": "5",
            "addr:postcode": "94032",
            "addr:street": "Nibelungenplatz",
            "name": "Trauring Galerie Passau",
            "opening_hours": "Mo-Fr 10:00-18:00; Sa 10:00-16:00",
            "phone": "+4985175638829",
            "shop": "jewelry",
            "website": "http://trauringgalerie-passau.de/"
          },
          "geometry": {
            "type": "Point",
            "coordinates": [
              13.4570722,
              48.5722836
            ]
          }
        },
        {
          "type": "Feature",
          "properties": {
            "id": "3520464140",
            "osm_type": "node",
            "lat": 48.5735402,
            "lon": 13.4619993,
            "name": "Wolfgang Seifarth Juwelier",
            "phone": "+49 851 34183",
            "shop": "jewelry"
          },
          "geometry": {
            "type": "Point",
            "coordinates": [
              13.4619993,
              48.5735402
            ]
          }
        },
        {
          "type": "Feature",
          "properties": {
            "id": "3522195801",
            "osm_type": "node",
            "lat": 48.5749763,
            "lon": 13.4607918,
            "addr:city": "Passau",
            "addr:country": "DE",
            "addr:housenumber": "1",
            "addr:postcode": "94032",
            "addr:street": "Ludwigstraße",
            "name": "Cash Juwelier",
            "opening_hours": "Mo-Fr 09:30-18:00; Sa 09:30-16:00",
            "phone": "+49 851 9885105",
            "shop": "jewelry"
          },
          "geometry": {
            "type": "Point",
            "coordinates": [
              13.4607918,
              48.5749763
            ]
          }
        },
        {
          "type": "Feature",
          "properties": {
            "id": "3536743588",
            "osm_type": "node",
            "lat": 48.5739356,
            "lon": 13.4579869,
            "addr:city": "Passau",
            "addr:country": "DE",
            "addr:housenumber": "26",
            "addr:postcode": "94032",
            "addr:street": "Ludwigstraße",
            "email": "info@juwelier-scherr.de",
            "fax": "+49 851 34922",
            "name": "Scherr Juwelier",
            "opening_hours": "Mo-Fr 09:00-18:00; Sa 09:00-14:00",
            "phone": "+49 851 36285",
            "shop": "jewelry",
            "website": "http://www.juwelier-scherr.de/"
          },
          "geometry": {
            "type": "Point",
            "coordinates": [
              13.4579869,
              48.5739356
            ]
          }
        },
        {
          "type": "Feature",
          "properties": {
            "id": "3559450307",
            "osm_type": "node",
            "lat": 48.5734152,
            "lon": 13.4555308,
            "addr:city": "Passau",
            "addr:country": "DE",
            "addr:housenumber": "1",
            "addr:postcode": "94032",
            "addr:street": "Bahnhofstraße",
            "brand": "Bijou Brigitte",
            "brand:wikidata": "Q599545",
            "brand:wikipedia": "de:Bijou Brigitte",
            "check_date": "2024-07-12",
            "level": "0",
            "name": "Bijou Brigitte",
            "shop": "jewelry"
          },
          "geometry": {
            "type": "Point",
            "coordinates": [
              13.4555308,
              48.5734152
            ]
          }
        },
        {
          "type": "Feature",
          "properties": {
            "id": "3559450313",
            "osm_type": "node",
            "lat": 48.573481,
            "lon": 13.4554367,
            "brand": "Christ",
            "brand:wikidata": "Q1077957",
            "brand:wikipedia": "de:Christ (Juwelier)",
            "level": "0",
            "name": "Christ",
            "shop": "jewelry",
            "wheelchair": "yes"
          },
          "geometry": {
            "type": "Point",
            "coordinates": [
              13.4554367,
              48.573481
            ]
          }
        },
        {
          "type": "Feature",
          "properties": {
            "id": "3559450334",
            "osm_type": "node",
            "lat": 48.5731137,
            "lon": 13.4561691,
            "level": "1",
            "name": "Goldwelt",
            "shop": "jewelry",
            "wheelchair": "yes"
          },
          "geometry": {
            "type": "Point",
            "coordinates": [
              13.4561691,
              48.5731137
            ]
          }
        },
        {
          "type": "Feature",
          "properties": {
            "id": "3559450355",
            "osm_type": "node",
            "lat": 48.5736697,
            "lon": 13.4551628,
            "addr:city": "Passau",
            "addr:country": "DE",
            "addr:housenumber": "1",
            "addr:postcode": "94032",
            "addr:street": "Bahnhofstraße",
            "brand": "OROVIVO",
            "brand:wikidata": "Q107064745",
            "level": "1",
            "name": "OROVIVO",
            "shop": "jewelry"
          },
          "geometry": {
            "type": "Point",
            "coordinates": [
              13.4551628,
              48.5736697
            ]
          }
        },
        {
          "type": "Feature",
          "properties": {
            "id": "3559450359",
            "osm_type": "node",
            "lat": 48.5733392,
            "lon": 13.4556285,
            "addr:city": "Passau",
            "addr:country": "DE",
            "addr:housenumber": "1",
            "addr:postcode": "94032",
            "addr:street": "Bahnhofstraße",
            "brand": "Pandora",
            "brand:wikidata": "Q2241604",
            "brand:wikipedia": "en:Pandora (jewelry)",
            "level": "0",
            "name": "Pandora",
            "shop": "jewelry",
            "wheelchair": "yes"
          },
          "geometry": {
            "type": "Point",
            "coordinates": [
              13.4556285,
              48.5733392
            ]
          }
        },
        {
          "type": "Feature",
          "properties": {
            "id": "4754897124",
            "osm_type": "node",
            "lat": 48.5748763,
            "lon": 13.4601279,
            "brand": "Bijou Brigitte",
            "brand:wikidata": "Q599545",
            "brand:wikipedia": "de:Bijou Brigitte",
            "name": "Bijou Brigitte",
            "opening_hours": "Mo-Fr 09:30-18:30; Sa 09:30-18:00",
            "shop": "jewelry"
          },
          "geometry": {
            "type": "Point",
            "coordinates": [
              13.4601279,
              48.5748763
            ]
          }
        },
        {
          "type": "Feature",
          "properties": {
            "id": "4754897128",
            "osm_type": "node",
            "lat": 48.574164,
            "lon": 13.4607895,
            "check_date": "2024-02-27",
            "name": "Goldkontor in der Rosengasse",
            "shop": "jewelry"
          },
          "geometry": {
            "type": "Point",
            "coordinates": [
              13.4607895,
              48.574164
            ]
          }
        },
        {
          "type": "Feature",
          "properties": {
            "id": "4754897133",
            "osm_type": "node",
            "lat": 48.5739675,
            "lon": 13.4605444,
            "check_date": "2024-02-27",
            "name": "Schmuckschmiede",
            "shop": "jewelry"
          },
          "geometry": {
            "type": "Point",
            "coordinates": [
              13.4605444,
              48.5739675
            ]
          }
        },
        {
          "type": "Feature",
          "properties": {
            "id": "8985447955",
            "osm_type": "node",
            "lat": 48.47314,
            "lon": 13.4497279,
            "addr:city": "Brunnenthal",
            "addr:housenumber": "70",
            "addr:postcode": "4786",
            "addr:street": "Passauer Straße",
            "image": "https://lh5.googleusercontent.com/p/AF1QipMUxsLJ1QZ7O9GYf-zrJdBIE3xCI38VsONXmrZr=w438-h240-k-no",
            "name": "City Juwelier Scherbauer Ges.m.b.H",
            "phone": "+4377122641",
            "shop": "jewelry",
            "website": "https://www.cityjuwelier.de/"
          },
          "geometry": {
            "type": "Point",
            "coordinates": [
              13.4497279,
              48.47314
            ]
          }
        },
        {
          "type": "Feature",
          "properties": {
            "id": "9226880700",
            "osm_type": "node",
            "lat": 48.4869144,
            "lon": 13.9677366,
            "addr:city": "Altenfelden",
            "addr:housenumber": "9",
            "addr:postcode": "4121",
            "addr:street": "Böhmerwaldstraße",
            "name": "Juwelier Adoro",
            "opening_hours": "Mo,Tu,Th,Fr,Sa 8:30-12:00,13:30-18:00",
            "operator": "Petra Kotbauer",
            "payment:cash": "yes",
            "payment:credit_cards": "yes",
            "phone": "0728270200",
            "shop": "jewelry",
            "website": "https://www.adoro.at/"
          },
          "geometry": {
            "type": "Point",
            "coordinates": [
              13.9677366,
              48.4869144
            ]
          }
        },
        {
          "type": "Feature",
          "properties": {
            "id": "3797781123",
            "osm_type": "node",
            "lat": 48.5227038,
            "lon": 14.2932709,
            "name": "Schnürch Rudolf",
            "shop": "jewelry"
          },
          "geometry": {
            "type": "Point",
            "coordinates": [
              14.2932709,
              48.5227038
            ]
          }
        }
      ],
      "children": []
    },
    {
      "bbox": {
        "south": 48.355971499999995,
        "west": 14.2994695,
        "north": 48.68652475,
        "east": 15.253173
      },
      "poiCount": 3,
      "leafCount": 3,
      "averagePosition": [
        14.743657366666667,
        48.48216816666667
      ],
      "data": [
        {
          "type": "Feature",
          "properties": {
            "id": "5112698617",
            "osm_type": "node",
            "lat": 48.5109433,
            "lon": 14.5043804,
            "addr:city": "Freistadt",
            "addr:street": "Pfarrgasse",
            "name": "Fleischanderl",
            "shop": "jewelry"
          },
          "geometry": {
            "type": "Point",
            "coordinates": [
              14.5043804,
              48.5109433
            ]
          }
        },
        {
          "type": "Feature",
          "properties": {
            "id": "13130460789",
            "osm_type": "node",
            "lat": 48.5120587,
            "lon": 14.50485,
            "name": "Stadtjuwelier",
            "shop": "jewelry"
          },
          "geometry": {
            "type": "Point",
            "coordinates": [
              14.50485,
              48.5120587
            ]
          }
        },
        {
          "type": "Feature",
          "properties": {
            "id": "4335565368",
            "osm_type": "node",
            "lat": 48.4235025,
            "lon": 15.2217417,
            "check_date": "2023-05-07",
            "name": "Kristen",
            "opening_hours": "Tu-Fr 08:30-12:00,14:00-18:00",
            "shop": "jewelry",
            "wheelchair": "limited"
          },
          "geometry": {
            "type": "Point",
            "coordinates": [
              15.2217417,
              48.4235025
            ]
          }
        }
      ],
      "children": []
    },
    {
      "bbox": {
        "south": 48.68652475,
        "west": 13.345766,
        "north": 49.017078,
        "east": 14.2994695
      },
      "poiCount": 1,
      "leafCount": 1,
      "averagePosition": [
        13.3810046,
        48.72729
      ],
      "data": [
        {
          "type": "Feature",
          "properties": {
            "id": "3423779451",
            "osm_type": "node",
            "lat": 48.72729,
            "lon": 13.3810046,
            "addr:city": "Tittling",
            "addr:country": "DE",
            "addr:housenumber": "23",
            "addr:postcode": "94104",
            "addr:street": "Marktplatz",
            "name": "A. Ben Dhraou",
            "opening_hours": "Mo-Fr 09:00-12:00,14:00-18:00;Sa 09:00-12:00",
            "shop": "jewelry"
          },
          "geometry": {
            "type": "Point",
            "coordinates": [
              13.3810046,
              48.72729
            ]
          }
        }
      ],
      "children": []
    },
    {
      "bbox": {
        "south": 48.68652475,
        "west": 14.2994695,
        "north": 49.017078,
        "east": 15.253173
      },
      "poiCount": 36,
      "leafCount": 36,
      "averagePosition": [
        14.445552175000001,
        48.891746452777774
      ],
      "data": [
        {
          "type": "Feature",
          "properties": {
            "id": "4946968931",
            "osm_type": "node",
            "lat": 48.8120329,
            "lon": 14.3173208,
            "check_date:opening_hours": "2024-07-07",
            "name": "S&A",
            "name:cs": "S&A",
            "opening_hours:signed": "no",
            "payment:credit_cards": "yes",
            "shop": "jewelry",
            "wheelchair": "limited"
          },
          "geometry": {
            "type": "Point",
            "coordinates": [
              14.3173208,
              48.8120329
            ]
          }
        },
        {
          "type": "Feature",
          "properties": {
            "id": "4947006327",
            "osm_type": "node",
            "lat": 48.8115517,
            "lon": 14.3152838,
            "addr:city": "Český Krumlov",
            "addr:postcode": "381 01",
            "addr:street": "Radniční",
            "currency:CZK": "yes",
            "currency:EUR": "yes",
            "name": "S&A",
            "name:cs": "S&A",
            "payment:cash": "yes",
            "payment:credit_cards": "yes",
            "shop": "jewelry",
            "wheelchair": "limited"
          },
          "geometry": {
            "type": "Point",
            "coordinates": [
              14.3152838,
              48.8115517
            ]
          }
        },
        {
          "type": "Feature",
          "properties": {
            "id": "6995631894",
            "osm_type": "node",
            "lat": 48.8105405,
            "lon": 14.3163705,
            "addr:city": "Český Krumlov",
            "addr:housenumber": "147",
            "addr:postcode": "381 01",
            "addr:street": "Horní",
            "currency:CZK": "yes",
            "currency:EUR": "yes",
            "name": "MOY",
            "opening_hours": "Mo-Su 10:00-18:00",
            "payment:cash": "yes",
            "payment:credit_cards": "yes",
            "shop": "jewelry",
            "website": "https://www.instagram.com/mooyyy_jewelry/?hl=cs"
          },
          "geometry": {
            "type": "Point",
            "coordinates": [
              14.3163705,
              48.8105405
            ]
          }
        },
        {
          "type": "Feature",
          "properties": {
            "id": "7020271528",
            "osm_type": "node",
            "lat": 48.8099688,
            "lon": 14.3149786,
            "addr:city": "Český Krumlov",
            "addr:housenumber": "168",
            "addr:postcode": "381 01",
            "addr:street": "Kostelní",
            "name": "MAHAKAM",
            "opening_hours": "Mo-Su 10:00-16:00",
            "operator": "Batavia s.r.o.",
            "payment:cash": "yes",
            "payment:credit_cards": "yes",
            "shop": "jewelry",
            "website": "https://www.batavia.cz/"
          },
          "geometry": {
            "type": "Point",
            "coordinates": [
              14.3149786,
              48.8099688
            ]
          }
        },
        {
          "type": "Feature",
          "properties": {
            "id": "7026430621",
            "osm_type": "node",
            "lat": 48.8139061,
            "lon": 14.3171177,
            "addr:city": "Český Krumlov",
            "addr:postcode": "381 01",
            "addr:street": "Latrán",
            "name": "AMETYST",
            "payment:cash": "yes",
            "payment:credit_cards": "yes",
            "shop": "jewelry"
          },
          "geometry": {
            "type": "Point",
            "coordinates": [
              14.3171177,
              48.8139061
            ]
          }
        },
        {
          "type": "Feature",
          "properties": {
            "id": "7026430633",
            "osm_type": "node",
            "lat": 48.8127674,
            "lon": 14.3178469,
            "addr:city": "Český Krumlov",
            "addr:housenumber": "53",
            "addr:postcode": "381 01",
            "addr:street": "Latrán",
            "description": "podniková prodejna",
            "name": "Granát Turnov",
            "opening_hours": "Mo-Su 10:00-17:00",
            "operator": "Granát Turnov",
            "payment:cash": "yes",
            "payment:credit_cards": "yes",
            "shop": "jewelry"
          },
          "geometry": {
            "type": "Point",
            "coordinates": [
              14.3178469,
              48.8127674
            ]
          }
        },
        {
          "type": "Feature",
          "properties": {
            "id": "7031549980",
            "osm_type": "node",
            "lat": 48.8124503,
            "lon": 14.3177701,
            "addr:city": "Český Krumlov",
            "addr:housenumber": "45",
            "addr:postcode": "381 01",
            "addr:street": "Latrán",
            "changing_table": "no",
            "currency:CZK": "yes",
            "currency:EUR": "yes",
            "description": "Jantar",
            "level": "0",
            "name": "Praha Collection",
            "opening_hours": "closed",
            "payment:cash": "yes",
            "payment:credit_cards": "yes",
            "second_hand": "no",
            "shop": "jewelry",
            "stroller": "no",
            "toilets": "no"
          },
          "geometry": {
            "type": "Point",
            "coordinates": [
              14.3177701,
              48.8124503
            ]
          }
        },
        {
          "type": "Feature",
          "properties": {
            "id": "7035594824",
            "osm_type": "node",
            "lat": 48.8119443,
            "lon": 14.3164302,
            "addr:city": "Český Krumlov",
            "addr:housenumber": "6",
            "addr:postcode": "381 01",
            "addr:street": "Latrán",
            "check_date:opening_hours": "2024-07-07",
            "name": "Vltavín Moldavite",
            "opening_hours:signed": "no",
            "payment:cash": "yes",
            "payment:credit_cards": "yes",
            "shop": "jewelry"
          },
          "geometry": {
            "type": "Point",
            "coordinates": [
              14.3164302,
              48.8119443
            ]
          }
        },
        {
          "type": "Feature",
          "properties": {
            "id": "7035905882",
            "osm_type": "node",
            "lat": 48.8119993,
            "lon": 14.3167617,
            "addr:city": "Český Krumlov",
            "addr:housenumber": "15",
            "addr:postcode": "381 01",
            "addr:street": "Latrán",
            "level": "0",
            "name": "Mozart Collection",
            "payment:cash": "yes",
            "payment:credit_cards": "yes",
            "shop": "jewelry"
          },
          "geometry": {
            "type": "Point",
            "coordinates": [
              14.3167617,
              48.8119993
            ]
          }
        },
        {
          "type": "Feature",
          "properties": {
            "id": "7035905884",
            "osm_type": "node",
            "lat": 48.8119059,
            "lon": 14.3169163,
            "addr:city": "Český Krumlov",
            "addr:housenumber": "13",
            "addr:postcode": "381 01",
            "addr:street": "Latrán",
            "check_date:opening_hours": "2024-07-07",
            "currency:CZK": "yes",
            "currency:EUR": "yes",
            "level": "0",
            "name": "TONI Zlatnictví",
            "opening_hours:signed": "no",
            "payment:cash": "yes",
            "payment:credit_cards": "yes",
            "second_hand": "no",
            "shop": "jewelry",
            "stroller": "no",
            "wheelchair": "no"
          },
          "geometry": {
            "type": "Point",
            "coordinates": [
              14.3169163,
              48.8119059
            ]
          }
        },
        {
          "type": "Feature",
          "properties": {
            "id": "7040783195",
            "osm_type": "node",
            "lat": 48.8109828,
            "lon": 14.3147918,
            "addr:city": "Český Krumlov",
            "addr:housenumber": "16",
            "addr:postcode": "381 01",
            "addr:street": "náměstí Svornosti",
            "currency:CZK": "yes",
            "currency:EUR": "yes",
            "level": "0",
            "name": "Toni Zlatnictví Jewellery",
            "payment:cash": "yes",
            "payment:credit_cards": "yes",
            "shop": "jewelry"
          },
          "geometry": {
            "type": "Point",
            "coordinates": [
              14.3147918,
              48.8109828
            ]
          }
        },
        {
          "type": "Feature",
          "properties": {
            "id": "7069629798",
            "osm_type": "node",
            "lat": 48.8235765,
            "lon": 14.3350382,
            "addr:city": "Český Krumlov",
            "addr:housenumber": "299",
            "addr:postcode": "38101",
            "addr:street": "Domoradická",
            "name": "Zlatnictví",
            "opening_hours": "Mo-Su 09:00-19:00",
            "payment:cash": "yes",
            "payment:credit_cards": "yes",
            "shop": "jewelry",
            "wheelchair": "yes"
          },
          "geometry": {
            "type": "Point",
            "coordinates": [
              14.3350382,
              48.8235765
            ]
          }
        },
        {
          "type": "Feature",
          "properties": {
            "id": "7572515897",
            "osm_type": "node",
            "lat": 48.8115155,
            "lon": 14.3154175,
            "addr:city": "Český Krumlov",
            "addr:housenumber": "127",
            "addr:postcode": "381 01",
            "addr:street": "Radniční",
            "check_date:opening_hours": "2024-07-07",
            "cuisine": "regional",
            "drive_through": "no",
            "name": "Dodo",
            "opening_hours:signed": "no",
            "payment:cash": "yes",
            "payment:credit_cards": "yes",
            "shop": "jewelry",
            "wheelchair": "no"
          },
          "geometry": {
            "type": "Point",
            "coordinates": [
              14.3154175,
              48.8115155
            ]
          }
        },
        {
          "type": "Feature",
          "properties": {
            "id": "7630461528",
            "osm_type": "node",
            "lat": 48.8113654,
            "lon": 14.3152914,
            "addr:city": "Český Krumlov",
            "addr:housenumber": "129",
            "addr:postcode": "381 01",
            "addr:street": "Radniční",
            "cuisine": "regional",
            "currency:CZK": "yes",
            "currency:EUR": "yes",
            "level": "0",
            "name": "Aniquites",
            "payment:cash": "yes",
            "payment:credit_cards": "yes",
            "second_hand": "yes",
            "shop": "jewelry"
          },
          "geometry": {
            "type": "Point",
            "coordinates": [
              14.3152914,
              48.8113654
            ]
          }
        },
        {
          "type": "Feature",
          "properties": {
            "id": "12355488378",
            "osm_type": "node",
            "lat": 48.8112844,
            "lon": 14.3137237,
            "name": "Galerie Mozart Collection",
            "opening_hours": "Tu-Su 10:00-18:00",
            "shop": "jewelry"
          },
          "geometry": {
            "type": "Point",
            "coordinates": [
              14.3137237,
              48.8112844
            ]
          }
        },
        {
          "type": "Feature",
          "properties": {
            "id": "12355605080",
            "osm_type": "node",
            "lat": 48.8106451,
            "lon": 14.3141637,
            "check_date:opening_hours": "2024-11-19",
            "name": "Jewellery - Boutique Kanevsky",
            "opening_hours:signed": "no",
            "shop": "jewelry"
          },
          "geometry": {
            "type": "Point",
            "coordinates": [
              14.3141637,
              48.8106451
            ]
          }
        },
        {
          "type": "Feature",
          "properties": {
            "id": "2477816864",
            "osm_type": "node",
            "lat": 48.7729099,
            "lon": 14.9840829,
            "addr:city": "Gmünd",
            "addr:country": "AT",
            "addr:housenumber": "13",
            "addr:postcode": "3950",
            "addr:street": "Stadtplatz",
            "at_bev:addr_date": "2021-04-01",
            "contact:phone": "+43 2852 542 25",
            "name": "Juwelier PÖHN e.U.",
            "shop": "jewelry",
            "website": "https://www.juwelier-poehn.at/"
          },
          "geometry": {
            "type": "Point",
            "coordinates": [
              14.9840829,
              48.7729099
            ]
          }
        },
        {
          "type": "Feature",
          "properties": {
            "id": "9677568953",
            "osm_type": "node",
            "lat": 48.7004468,
            "lon": 14.8938004,
            "addr:city": "Weitra",
            "addr:housenumber": "18",
            "addr:postcode": "3970",
            "addr:street": "Rathausplatz",
            "name": "Schmuck & Uhren Reinhart Kartusch",
            "phone": "+432856 2331",
            "shop": "jewelry",
            "website": "https://www.granitschmuck.at/"
          },
          "geometry": {
            "type": "Point",
            "coordinates": [
              14.8938004,
              48.7004468
            ]
          }
        },
        {
          "type": "Feature",
          "properties": {
            "id": "2485151357",
            "osm_type": "node",
            "lat": 48.9743324,
            "lon": 14.4793752,
            "name": "Enya",
            "shop": "jewelry",
            "source": "survey",
            "was:name": "Klenoty Aurum"
          },
          "geometry": {
            "type": "Point",
            "coordinates": [
              14.4793752,
              48.9743324
            ]
          }
        },
        {
          "type": "Feature",
          "properties": {
            "id": "4553849314",
            "osm_type": "node",
            "lat": 48.9749832,
            "lon": 14.4754881,
            "check_date:opening_hours": "2024-12-23",
            "name": "Klenotnictví Mocková",
            "name:cs": "Klenotnictví Mocková",
            "opening_hours": "Mo-Fr 09:00-17:00; Sa 09:00-12:00",
            "shop": "jewelry"
          },
          "geometry": {
            "type": "Point",
            "coordinates": [
              14.4754881,
              48.9749832
            ]
          }
        },
        {
          "type": "Feature",
          "properties": {
            "id": "9423661931",
            "osm_type": "node",
            "lat": 48.975264,
            "lon": 14.473887,
            "level": "0",
            "name": "Zlatnictví Rendo",
            "shop": "jewelry",
            "wheelchair": "no"
          },
          "geometry": {
            "type": "Point",
            "coordinates": [
              14.473887,
              48.975264
            ]
          }
        },
        {
          "type": "Feature",
          "properties": {
            "id": "9423661938",
            "osm_type": "node",
            "lat": 48.9754039,
            "lon": 14.4746119,
            "name": "Fábera",
            "shop": "jewelry",
            "was:name": "Em Studio",
            "wheelchair": "no"
          },
          "geometry": {
            "type": "Point",
            "coordinates": [
              14.4746119,
              48.9754039
            ]
          }
        },
        {
          "type": "Feature",
          "properties": {
            "id": "9885006042",
            "osm_type": "node",
            "lat": 48.9769697,
            "lon": 14.4740469,
            "name": "Zlatnictví",
            "opening_hours": "Mo-Fr 09:30-13:00,13:30-17:00; Sa 09:30-12:00",
            "shop": "jewelry",
            "wheelchair": "no"
          },
          "geometry": {
            "type": "Point",
            "coordinates": [
              14.4740469,
              48.9769697
            ]
          }
        },
        {
          "type": "Feature",
          "properties": {
            "id": "9885006045",
            "osm_type": "node",
            "lat": 48.9755005,
            "lon": 14.4737467,
            "name": "Klenoty KP",
            "shop": "jewelry"
          },
          "geometry": {
            "type": "Point",
            "coordinates": [
              14.4737467,
              48.9755005
            ]
          }
        },
        {
          "type": "Feature",
          "properties": {
            "id": "9885006047",
            "osm_type": "node",
            "lat": 48.9767573,
            "lon": 14.4740166,
            "name": "Vegashop",
            "shop": "jewelry"
          },
          "geometry": {
            "type": "Point",
            "coordinates": [
              14.4740166,
              48.9767573
            ]
          }
        },
        {
          "type": "Feature",
          "properties": {
            "id": "9885006057",
            "osm_type": "node",
            "lat": 48.975653,
            "lon": 14.4737883,
            "brand": "Pandora",
            "brand:wikidata": "Q2241604",
            "name": "Pandora",
            "shop": "jewelry",
            "wheelchair": "no"
          },
          "geometry": {
            "type": "Point",
            "coordinates": [
              14.4737883,
              48.975653
            ]
          }
        },
        {
          "type": "Feature",
          "properties": {
            "id": "9885006061",
            "osm_type": "node",
            "lat": 48.976529,
            "lon": 14.4742886,
            "name": "Zakázkové zlatnictví",
            "shop": "jewelry"
          },
          "geometry": {
            "type": "Point",
            "coordinates": [
              14.4742886,
              48.976529
            ]
          }
        },
        {
          "type": "Feature",
          "properties": {
            "id": "9885006078",
            "osm_type": "node",
            "lat": 48.9757047,
            "lon": 14.4735591,
            "name": "Hodiny & Klenoty",
            "shop": "jewelry"
          },
          "geometry": {
            "type": "Point",
            "coordinates": [
              14.4735591,
              48.9757047
            ]
          }
        },
        {
          "type": "Feature",
          "properties": {
            "id": "9885006085",
            "osm_type": "node",
            "lat": 48.9765603,
            "lon": 14.4739659,
            "name": "Zlatnictví Oldřich",
            "shop": "jewelry",
            "wheelchair": "no"
          },
          "geometry": {
            "type": "Point",
            "coordinates": [
              14.4739659,
              48.9765603
            ]
          }
        },
        {
          "type": "Feature",
          "properties": {
            "id": "9885532858",
            "osm_type": "node",
            "lat": 48.9741646,
            "lon": 14.4752389,
            "level": "0",
            "name": "Mozart Melody",
            "opening_hours": "Mo-Fr 09:30-17:00; Sa 09:00-12:00",
            "shop": "jewelry",
            "wheelchair": "no"
          },
          "geometry": {
            "type": "Point",
            "coordinates": [
              14.4752389,
              48.9741646
            ]
          }
        },
        {
          "type": "Feature",
          "properties": {
            "id": "9887636466",
            "osm_type": "node",
            "lat": 48.973347,
            "lon": 14.4749787,
            "name": "Granát",
            "opening_hours": "Mo-Fr 09:00-17:00; Sa 09:00-12:00",
            "shop": "jewelry",
            "wheelchair": "yes"
          },
          "geometry": {
            "type": "Point",
            "coordinates": [
              14.4749787,
              48.973347
            ]
          }
        },
        {
          "type": "Feature",
          "properties": {
            "id": "9907674407",
            "osm_type": "node",
            "lat": 48.9825561,
            "lon": 14.4555696,
            "name": "Zlatnictví",
            "shop": "jewelry"
          },
          "geometry": {
            "type": "Point",
            "coordinates": [
              14.4555696,
              48.9825561
            ]
          }
        },
        {
          "type": "Feature",
          "properties": {
            "id": "9918675004",
            "osm_type": "node",
            "lat": 48.974231,
            "lon": 14.4816382,
            "name": "La Gold",
            "shop": "jewelry"
          },
          "geometry": {
            "type": "Point",
            "coordinates": [
              14.4816382,
              48.974231
            ]
          }
        },
        {
          "type": "Feature",
          "properties": {
            "id": "10880791317",
            "osm_type": "node",
            "lat": 48.9863622,
            "lon": 14.4594214,
            "name": "Zlatnictví",
            "shop": "jewelry",
            "wheelchair": "yes"
          },
          "geometry": {
            "type": "Point",
            "coordinates": [
              14.4594214,
              48.9863622
            ]
          }
        },
        {
          "type": "Feature",
          "properties": {
            "id": "2404901804",
            "osm_type": "node",
            "lat": 49.0035856,
            "lon": 14.7641515,
            "name": "Zlatnictví",
            "shop": "jewelry"
          },
          "geometry": {
            "type": "Point",
            "coordinates": [
              14.7641515,
              49.0035856
            ]
          }
        },
        {
          "type": "Feature",
          "properties": {
            "id": "2490069085",
            "osm_type": "node",
            "lat": 49.0031742,
            "lon": 14.7549995,
            "name": "Swarowski",
            "shop": "jewelry"
          },
          "geometry": {
            "type": "Point",
            "coordinates": [
              14.7549995,
              49.0031742
            ]
          }
        }
      ],
      "children": []
    }
  ]
}