{
  "bbox": {
    "south": 46.372652,
    "west": 9.530952,
    "north": 47.033758500000005,
    "east": 11.438358999999998
  },
  "poiCount": 73,
  "leafCount": 0,
  "averagePosition": [
    10.745992339726026,
    46.62228101369863
  ],
  "data": [],
  "children": [
    {
      "bbox": {
        "south": 46.372652,
        "west": 9.530952,
        "north": 46.70320525,
        "east": 10.484655499999999
      },
      "poiCount": 16,
      "leafCount": 16,
      "averagePosition": [
        9.9900903,
        46.52125538125
      ],
      "data": [
        {
          "type": "Feature",
          "properties": {
            "id": "5533201667",
            "osm_type": "node",
            "lat": 46.4972268,
            "lon": 9.8398382,
            "name": "Rebecca Ardessi",
            "shop": "jewelry",
            "website": "https://www.rebecca-ardessi.ch/"
          },
          "geometry": {
            "type": "Point",
            "coordinates": [
              9.8398382,
              46.4972268
            ]
          }
        },
        {
          "type": "Feature",
          "properties": {
            "id": "5533244240",
            "osm_type": "node",
            "lat": 46.4971995,
            "lon": 9.8397615,
            "name": "Gübelin",
            "shop": "jewelry"
          },
          "geometry": {
            "type": "Point",
            "coordinates": [
              9.8397615,
              46.4971995
            ]
          }
        },
        {
          "type": "Feature",
          "properties": {
            "id": "5533244242",
            "osm_type": "node",
            "lat": 46.4972555,
            "lon": 9.8399226,
            "name": "Les Ambassadeurs",
            "shop": "jewelry"
          },
          "geometry": {
            "type": "Point",
            "coordinates": [
              9.8399226,
              46.4972555
            ]
          }
        },
        {
          "type": "Feature",
          "properties": {
            "id": "5533244244",
            "osm_type": "node",
            "lat": 46.4973128,
            "lon": 9.8400766,
            "brand": "Cartier",
            "brand:wikidata": "Q538587",
            "name": "Cartier",
            "shop": "jewelry"
          },
          "geometry": {
            "type": "Point",
            "coordinates": [
              9.8400766,
              46.4973128
            ]
          }
        },
        {
          "type": "Feature",
          "properties": {
            "id": "5533244260",
            "osm_type": "node",
            "lat": 46.4976363,
            "lon": 9.840362,
            "name": "Bulgari",
            "shop": "jewelry",
            "website": "https://www.bulgari.com/"
          },
          "geometry": {
            "type": "Point",
            "coordinates": [
              9.840362,
              46.4976363
            ]
          }
        },
        {
          "type": "Feature",
          "properties": {
            "id": "5539950239",
            "osm_type": "node",
            "lat": 46.4976144,
            "lon": 9.8386439,
            "name": "Spremberg",
            "shop": "jewelry",
            "website": "Kriemler"
          },
          "geometry": {
            "type": "Point",
            "coordinates": [
              9.8386439,
              46.4976144
            ]
          }
        },
        {
          "type": "Feature",
          "properties": {
            "id": "5540593756",
            "osm_type": "node",
            "lat": 46.4984717,
            "lon": 9.8396509,
            "addr:city": "St. Moritz",
            "addr:housenumber": "17",
            "addr:postcode": "7500",
            "addr:street": "Via Maistra",
            "name": "Bucherer",
            "shop": "jewelry",
            "website": "https://www.bucherer.com/"
          },
          "geometry": {
            "type": "Point",
            "coordinates": [
              9.8396509,
              46.4984717
            ]
          }
        },
        {
          "type": "Feature",
          "properties": {
            "id": "8491910029",
            "osm_type": "node",
            "lat": 46.5346781,
            "lon": 9.8710949,
            "name": "Butia d'or",
            "phone": "+41 81 852 52 50",
            "shop": "jewelry",
            "website": "https://www.butia.ch"
          },
          "geometry": {
            "type": "Point",
            "coordinates": [
              9.8710949,
              46.5346781
            ]
          }
        },
        {
          "type": "Feature",
          "properties": {
            "id": "3801637652",
            "osm_type": "node",
            "lat": 46.5475557,
            "lon": 10.1386864,
            "highway": "street_lamp",
            "name": "Confortola",
            "shop": "jewelry"
          },
          "geometry": {
            "type": "Point",
            "coordinates": [
              10.1386864,
              46.5475557
            ]
          }
        },
        {
          "type": "Feature",
          "properties": {
            "id": "4476639815",
            "osm_type": "node",
            "lat": 46.5363215,
            "lon": 10.1347693,
            "shop": "jewelry",
            "source": "survey"
          },
          "geometry": {
            "type": "Point",
            "coordinates": [
              10.1347693,
              46.5363215
            ]
          }
        },
        {
          "type": "Feature",
          "properties": {
            "id": "4476639826",
            "osm_type": "node",
            "lat": 46.5367643,
            "lon": 10.1349732,
            "shop": "jewelry",
            "source": "survey"
          },
          "geometry": {
            "type": "Point",
            "coordinates": [
              10.1349732,
              46.5367643
            ]
          }
        },
        {
          "type": "Feature",
          "properties": {
            "id": "4476657082",
            "osm_type": "node",
            "lat": 46.5380904,
            "lon": 10.1354742,
            "name": "Galli",
            "shop": "jewelry",
            "source": "survey"
          },
          "geometry": {
            "type": "Point",
            "coordinates": [
              10.1354742,
              46.5380904
            ]
          }
        },
        {
          "type": "Feature",
          "properties": {
            "id": "4477017670",
            "osm_type": "node",
            "lat": 46.5386685,
            "lon": 10.1354091,
            "name": "Thun",
            "shop": "jewelry",
            "source": "survey"
          },
          "geometry": {
            "type": "Point",
            "coordinates": [
              10.1354091,
              46.5386685
            ]
          }
        },
        {
          "type": "Feature",
          "properties": {
            "id": "4477017801",
            "osm_type": "node",
            "lat": 46.5405714,
            "lon": 10.137227,
            "name": "Talacci",
            "shop": "jewelry",
            "source": "survey"
          },
          "geometry": {
            "type": "Point",
            "coordinates": [
              10.137227,
              46.5405714
            ]
          }
        },
        {
          "type": "Feature",
          "properties": {
            "id": "4477060227",
            "osm_type": "node",
            "lat": 46.5409846,
            "lon": 10.1375328,
            "name": "Golden Clock",
            "opening_hours": "Mo-Sa 08:00-18:00",
            "shop": "jewelry",
            "source": "survey"
          },
          "geometry": {
            "type": "Point",
            "coordinates": [
              10.1375328,
              46.5409846
            ]
          }
        },
        {
          "type": "Feature",
          "properties": {
            "id": "4477465728",
            "osm_type": "node",
            "lat": 46.5437346,
            "lon": 10.1380222,
            "brand": "Swarovski",
            "brand:wikidata": "Q611115",
            "brand:wikipedia": "en:Swarovski",
            "name": "Swarovski",
            "shop": "jewelry",
            "source": "survey"
          },
          "geometry": {
            "type": "Point",
            "coordinates": [
              10.1380222,
              46.5437346
            ]
          }
        }
      ],
      "children": []
    },
    {
      "bbox": {
        "south": 46.372652,
        "west": 10.484655499999999,
        "north": 46.70320525,
        "east": 11.438358999999998
      },
      "poiCount": 42,
      "leafCount": 42,
      "averagePosition": [
        11.171475869047619,
        46.562699461904764
      ],
      "data": [
        {
          "type": "Feature",
          "properties": {
            "id": "1941749446",
            "osm_type": "node",
            "lat": 46.6480278,
            "lon": 11.0039286,
            "addr:city": "Naturns - Naturno",
            "addr:city:de": "Naturns",
            "addr:city:it": "Naturno",
            "addr:housenumber": "18",
            "addr:postcode": "39025",
            "addr:street": "Bahnhofstraße - Via Stazione",
            "addr:street:de": "Bahnhofstraße",
            "addr:street:it": "Via Stazione",
            "email": "info@juwelier-gruber.com",
            "fax": "+39 0473 667267",
            "name": "Gruber",
            "opening_hours": "Mo-Fr 09:00-12:30,15:00-18:00; Sa 09:00-12:30; Su off",
            "operator": "Reinhard Gruber",
            "phone": "+39 0473 667267",
            "shop": "jewelry",
            "website": "https://www.juwelier-gruber.com/"
          },
          "geometry": {
            "type": "Point",
            "coordinates": [
              11.0039286,
              46.6480278
            ]
          }
        },
        {
          "type": "Feature",
          "properties": {
            "id": "2503251427",
            "osm_type": "node",
            "lat": 46.6288163,
            "lon": 10.7753787,
            "addr:city": "Schlanders - Silandro",
            "addr:city:de": "Schlanders",
            "addr:city:it": "Silandro",
            "addr:housenumber": "82",
            "addr:postcode": "39028",
            "addr:street": "Hauptstraße - Via Principale",
            "addr:street:de": "Hauptstraße",
            "addr:street:it": "Via Principale",
            "email": "info@goldschmied-gamper.com",
            "fax": "+39 0473 620350",
            "name": "Goldschmied Gamper",
            "opening_hours": "Mo-Fr 09:00-12:00,15:00-19:00; Sa 09:00-12:00; Su off",
            "operator": "Gamper Hannes und Martina KG",
            "phone": "+39 0473 620350",
            "shop": "jewelry",
            "website": "http://www.goldschmied-gamper.com/"
          },
          "geometry": {
            "type": "Point",
            "coordinates": [
              10.7753787,
              46.6288163
            ]
          }
        },
        {
          "type": "Feature",
          "properties": {
            "id": "3168672666",
            "osm_type": "node",
            "lat": 46.6182302,
            "lon": 10.859588,
            "addr:city": "Latsch - Laces",
            "addr:city:de": "Latsch",
            "addr:city:it": "Laces",
            "addr:housenumber": "14",
            "addr:postcode": "39021",
            "addr:street": "Bahnhofstraße - Via Stazione",
            "addr:street:de": "Bahnhofstraße",
            "addr:street:it": "Via Stazione",
            "email": "info@goldschmied-gamper.com",
            "name": "Gamper",
            "phone": "+39 0473.623288",
            "shop": "jewelry",
            "website": "http://www.goldschmied-gamper.com/"
          },
          "geometry": {
            "type": "Point",
            "coordinates": [
              10.859588,
              46.6182302
            ]
          }
        },
        {
          "type": "Feature",
          "properties": {
            "id": "4233956890",
            "osm_type": "node",
            "lat": 46.6266788,
            "lon": 10.7766764,
            "name": "Goldschmied",
            "shop": "jewelry"
          },
          "geometry": {
            "type": "Point",
            "coordinates": [
              10.7766764,
              46.6266788
            ]
          }
        },
        {
          "type": "Feature",
          "properties": {
            "id": "4234022389",
            "osm_type": "node",
            "lat": 46.6278707,
            "lon": 10.7743893,
            "name": "Gunsch",
            "opening_hours": "Mo-Fr 08:30-12:00,15:00-18:30; Sa 08:30-12:00",
            "shop": "jewelry"
          },
          "geometry": {
            "type": "Point",
            "coordinates": [
              10.7743893,
              46.6278707
            ]
          }
        },
        {
          "type": "Feature",
          "properties": {
            "id": "6879147768",
            "osm_type": "node",
            "lat": 46.6906729,
            "lon": 10.544533,
            "name": "Goldschmiede Zwick",
            "phone": "+39 0473 831936",
            "shop": "jewelry",
            "website": "https://www.goldschmiede-zwick.com/"
          },
          "geometry": {
            "type": "Point",
            "coordinates": [
              10.544533,
              46.6906729
            ]
          }
        },
        {
          "type": "Feature",
          "properties": {
            "id": "2749576490",
            "osm_type": "node",
            "lat": 46.5002445,
            "lon": 11.3563894,
            "addr:city": "Bolzano - Bozen",
            "addr:city:de": "Bozen",
            "addr:city:it": "Bolzano",
            "addr:housenumber": "2c",
            "addr:postcode": "39100",
            "addr:street": "Via Dr. Josef Streiter - Dr.-Josef-Streiter-Gasse",
            "addr:street:de": "Dr.-Josef-Streiter-Gasse",
            "addr:street:it": "Via Dr. Josef Streiter",
            "air_conditioning": "yes",
            "brand": "Kompatscher",
            "description": "Juwelier - Gioielleria - Jewelry",
            "name": "Atelier Kompatscher",
            "operator": "Waltraud Kompatscher & Lisa Schönheinz",
            "shop": "jewelry",
            "stroller": "yes",
            "wheelchair": "yes"
          },
          "geometry": {
            "type": "Point",
            "coordinates": [
              11.3563894,
              46.5002445
            ]
          }
        },
        {
          "type": "Feature",
          "properties": {
            "id": "2749698145",
            "osm_type": "node",
            "lat": 46.4563318,
            "lon": 11.2589489,
            "addr:city": "Eppan an der Weinstraße - Appiano sulla Strada del Vino",
            "addr:city:de": "Eppan an der Weinstraße",
            "addr:city:it": "Appiano sulla Strada del Vino",
            "addr:hamlet": "St. Michael - San Michele",
            "addr:hamlet:de": "St. Michael",
            "addr:hamlet:it": "San Michele",
            "addr:housenumber": "26",
            "addr:postcode": "39057",
            "addr:street": "J.-G.-Plazer-Straße - Via J. G. Plazer",
            "addr:street:de": "J.-G.-Plazer-Straße",
            "addr:street:it": "Via J. G. Plazer",
            "name": "Atelier Alex",
            "opening_hours": "Mo-Fr 09:00-11:45,15:15-18:00; Sa 09:00-11:45",
            "shop": "jewelry"
          },
          "geometry": {
            "type": "Point",
            "coordinates": [
              11.2589489,
              46.4563318
            ]
          }
        },
        {
          "type": "Feature",
          "properties": {
            "id": "2755815291",
            "osm_type": "node",
            "lat": 46.6707345,
            "lon": 11.1588298,
            "addr:city": "Meran - Merano",
            "addr:city:de": "Meran",
            "addr:city:it": "Merano",
            "addr:housenumber": "89a",
            "addr:postcode": "39012",
            "addr:street": "Freiheitsstraße - Corso della Libertà",
            "addr:street:de": "Freiheitsstraße",
            "addr:street:it": "Corso della Libertà",
            "email": "sabine@unikate.it",
            "name": "Rettenbacher",
            "opening_hours": "Mo-Fr 09:00-12:30",
            "phone": "+39 0473 230609",
            "shop": "jewelry",
            "website": "https://www.unikate.it/"
          },
          "geometry": {
            "type": "Point",
            "coordinates": [
              11.1588298,
              46.6707345
            ]
          }
        },
        {
          "type": "Feature",
          "properties": {
            "id": "2953808903",
            "osm_type": "node",
            "lat": 46.6874,
            "lon": 11.1889032,
            "contact:phone": "+39 0473 943 175",
            "craft": "jeweller",
            "name": "Tiroler Goldschmied",
            "opening_hours": "Mo-Fr 09:00-12:30, 15:00-18:30; Sa 09:00-12:30; Su off",
            "shop": "jewelry",
            "source": "TV Schenna",
            "url": "http://www.tirolergoldschmied.it/",
            "website": "http://www.tirolergoldschmied.it/"
          },
          "geometry": {
            "type": "Point",
            "coordinates": [
              11.1889032,
              46.6874
            ]
          }
        },
        {
          "type": "Feature",
          "properties": {
            "id": "3507849393",
            "osm_type": "node",
            "lat": 46.686069,
            "lon": 11.1889231,
            "contact:email": "goldstube@goldstubefurlan.it",
            "contact:phone": "+39 0473 945 991",
            "name": "Goldstube Furlan",
            "shop": "jewelry",
            "website": "https://www.goldstubefurlan.it/"
          },
          "geometry": {
            "type": "Point",
            "coordinates": [
              11.1889231,
              46.686069
            ]
          }
        },
        {
          "type": "Feature",
          "properties": {
            "id": "3610675243",
            "osm_type": "node",
            "lat": 46.6830859,
            "lon": 11.1228327,
            "name": "Schmuckwerkstatt",
            "shop": "jewelry"
          },
          "geometry": {
            "type": "Point",
            "coordinates": [
              11.1228327,
              46.6830859
            ]
          }
        },
        {
          "type": "Feature",
          "properties": {
            "id": "4170368370",
            "osm_type": "node",
            "lat": 46.4900028,
            "lon": 11.3362858,
            "addr:city": "Bolzano - Bozen",
            "addr:housenumber": "1",
            "addr:postcode": "39100",
            "addr:street": "Via Milano - Mailandstraße",
            "shop": "jewelry"
          },
          "geometry": {
            "type": "Point",
            "coordinates": [
              11.3362858,
              46.4900028
            ]
          }
        },
        {
          "type": "Feature",
          "properties": {
            "id": "4170391730",
            "osm_type": "node",
            "lat": 46.4987411,
            "lon": 11.3569935,
            "name": "Ranzi & Knapp",
            "shop": "jewelry",
            "wheelchair": "no"
          },
          "geometry": {
            "type": "Point",
            "coordinates": [
              11.3569935,
              46.4987411
            ]
          }
        },
        {
          "type": "Feature",
          "properties": {
            "id": "4220233904",
            "osm_type": "node",
            "lat": 46.4971668,
            "lon": 11.3551848,
            "addr:city": "Bolzano - Bozen",
            "addr:postcode": "39100",
            "addr:street": "Via Alto Adige - Südtiroler Straße",
            "shop": "jewelry"
          },
          "geometry": {
            "type": "Point",
            "coordinates": [
              11.3551848,
              46.4971668
            ]
          }
        },
        {
          "type": "Feature",
          "properties": {
            "id": "4228974145",
            "osm_type": "node",
            "lat": 46.4545994,
            "lon": 11.2593261,
            "addr:housenumber": "19",
            "addr:postcode": "39057",
            "addr:street": "Josef-Innerhofer-Straße - Via Josef Innerhofer",
            "check_date:opening_hours": "2024-07-15",
            "email": "goldschmiede.bernard@gmail.com",
            "fax": "+39 0471 662277",
            "name": "Bernard",
            "opening_hours": "Mo-Sa 09:00-12:00, Mo-Fr 15:00-19:00",
            "phone": "+39 0471 662277",
            "shop": "jewelry",
            "wheelchair": "limited"
          },
          "geometry": {
            "type": "Point",
            "coordinates": [
              11.2593261,
              46.4545994
            ]
          }
        },
        {
          "type": "Feature",
          "properties": {
            "id": "4228989810",
            "osm_type": "node",
            "lat": 46.4553266,
            "lon": 11.258397,
            "addr:housenumber": "7",
            "addr:postcode": "39057",
            "addr:street": "Kapuzinerstraße - Via Cappuccini",
            "name": "Goldschmied Kerschbaumer",
            "opening_hours": "Mo-Fr 08:30-12:00,15:30-19:00; Sa 08:30-12:00",
            "operator": "Kerschbaumer Hansjörg",
            "phone": "+39 0471 660336",
            "ref:vatin": "IT00574250213",
            "shop": "jewelry",
            "website": "http://www.goldschmied-kerschbaumer.it"
          },
          "geometry": {
            "type": "Point",
            "coordinates": [
              11.258397,
              46.4553266
            ]
          }
        },
        {
          "type": "Feature",
          "properties": {
            "id": "4234342028",
            "osm_type": "node",
            "lat": 46.4979388,
            "lon": 11.352807,
            "addr:city": "Bolzano - Bozen",
            "addr:housenumber": "10",
            "addr:postcode": "39100",
            "addr:street": "Via della Posta - Postgasse",
            "name": "Rinner",
            "operator": "Rinner Peter",
            "phone": "+39 0471 977629",
            "ref:vatin": "IT00728700212",
            "shop": "jewelry"
          },
          "geometry": {
            "type": "Point",
            "coordinates": [
              11.352807,
              46.4979388
            ]
          }
        },
        {
          "type": "Feature",
          "properties": {
            "id": "5059599025",
            "osm_type": "node",
            "lat": 46.5436998,
            "lon": 11.2089542,
            "name": "Goldschmiede Laurins",
            "shop": "jewelry"
          },
          "geometry": {
            "type": "Point",
            "coordinates": [
              11.2089542,
              46.5436998
            ]
          }
        },
        {
          "type": "Feature",
          "properties": {
            "id": "5086217728",
            "osm_type": "node",
            "lat": 46.426574,
            "lon": 11.3365661,
            "addr:city": "Laives - Leifers",
            "addr:housenumber": "154",
            "addr:postcode": "39055",
            "addr:street": "Via Kennedy - Kennedystraße",
            "name": "Juwelier Pernter",
            "opening_hours": "Mo-Fr 08:30-12:00,15:00-18:30; Sa 09:00-12:00",
            "shop": "jewelry"
          },
          "geometry": {
            "type": "Point",
            "coordinates": [
              11.3365661,
              46.426574
            ]
          }
        },
        {
          "type": "Feature",
          "properties": {
            "id": "5260543615",
            "osm_type": "node",
            "lat": 46.669912,
            "lon": 11.1580805,
            "shop": "jewelry"
          },
          "geometry": {
            "type": "Point",
            "coordinates": [
              11.1580805,
              46.669912
            ]
          }
        },
        {
          "type": "Feature",
          "properties": {
            "id": "5549830916",
            "osm_type": "node",
            "lat": 46.6718812,
            "lon": 11.1621029,
            "addr:city": "Meran - Merano",
            "addr:housenumber": "6",
            "addr:street": "Galileo-Galilei-Straße - Via Galileo Galilei",
            "check_date": "2022-09-13",
            "name": "Konplott",
            "opening_hours": "Mo-Fr 09:30-18:30; Sa,Su 09:30-17:00",
            "payment:credit_cards": "yes",
            "payment:debit_cards": "yes",
            "shop": "jewelry",
            "wheelchair": "yes"
          },
          "geometry": {
            "type": "Point",
            "coordinates": [
              11.1621029,
              46.6718812
            ]
          }
        },
        {
          "type": "Feature",
          "properties": {
            "id": "6177212466",
            "osm_type": "node",
            "lat": 46.5290857,
            "lon": 11.2485186,
            "addr:city": "Terlan - Terlano",
            "addr:city:de": "Terlan",
            "addr:city:it": "Terlano",
            "addr:housenumber": "3",
            "addr:place": "Dr.-Weiser-Platz - Piazza Dott. Weiser",
            "addr:place:de": "Dr.-Weiser-Platz",
            "addr:place:it": "Piazza Dott. Weiser",
            "addr:postcode": "39018",
            "email": "info@goldschmied-kerschbaumer.it",
            "name": "Kerschbaumer",
            "payment:mastercard": "yes",
            "payment:visa": "yes",
            "phone": "+39 0471 257203",
            "shop": "jewelry",
            "website": "http://www.goldschmied-kerschbaumer.it"
          },
          "geometry": {
            "type": "Point",
            "coordinates": [
              11.2485186,
              46.5290857
            ]
          }
        },
        {
          "type": "Feature",
          "properties": {
            "id": "6399579215",
            "osm_type": "node",
            "lat": 46.4987957,
            "lon": 11.3573892,
            "addr:city": "Bolzano - Bozen",
            "addr:housenumber": "10",
            "addr:postcode": "39100",
            "addr:street": "Via dei Conciapelli - Gerbergasse",
            "fax": "+39 0471 978569",
            "name": "Studio Helmut",
            "opening_hours": "Mo-Fr 08:30-12:00,15:00-18:45; Sa 09:00-12:00",
            "phone": "+39 0471 978569",
            "ref:vatin": "IT02441440217",
            "shop": "jewelry",
            "website": "http://www.studiohelmut.it"
          },
          "geometry": {
            "type": "Point",
            "coordinates": [
              11.3573892,
              46.4987957
            ]
          }
        },
        {
          "type": "Feature",
          "properties": {
            "id": "6416453612",
            "osm_type": "node",
            "lat": 46.6131076,
            "lon": 11.1603298,
            "addr:city": "Lana",
            "addr:housenumber": "11",
            "addr:postcode": "39011",
            "addr:street": "Bozner Straße - Via Bolzano",
            "name": "Rosengold",
            "opening_hours": "Mo-Fr 09:00-12:00,12:00-18:00; Sa 09:00-12:00",
            "shop": "jewelry"
          },
          "geometry": {
            "type": "Point",
            "coordinates": [
              11.1603298,
              46.6131076
            ]
          }
        },
        {
          "type": "Feature",
          "properties": {
            "id": "7726276816",
            "osm_type": "node",
            "lat": 46.6153427,
            "lon": 11.1436815,
            "name": "Goldschmied Kerschbamer",
            "shop": "jewelry"
          },
          "geometry": {
            "type": "Point",
            "coordinates": [
              11.1436815,
              46.6153427
            ]
          }
        },
        {
          "type": "Feature",
          "properties": {
            "id": "7726289585",
            "osm_type": "node",
            "lat": 46.6153812,
            "lon": 11.1449113,
            "name": "Plunger",
            "shop": "jewelry",
            "website": "https://www.juwelier-plunger.it/"
          },
          "geometry": {
            "type": "Point",
            "coordinates": [
              11.1449113,
              46.6153812
            ]
          }
        },
        {
          "type": "Feature",
          "properties": {
            "id": "7992687246",
            "osm_type": "node",
            "lat": 46.6164589,
            "lon": 11.1441459,
            "check_date": "2023-11-04",
            "email": "info@diegoldwaage.it",
            "name": "Die Goldwaage Edelmetallhandel",
            "opening_hours": "Mo-Fr 10:00-12:30, 15:00-18:30; Sa 10:00-12:30",
            "phone": "+39 348 8156805",
            "shop": "jewelry",
            "website": "https://diegoldwaage.it/"
          },
          "geometry": {
            "type": "Point",
            "coordinates": [
              11.1441459,
              46.6164589
            ]
          }
        },
        {
          "type": "Feature",
          "properties": {
            "id": "8042930826",
            "osm_type": "node",
            "lat": 46.6162289,
            "lon": 11.1430334,
            "addr:housenumber": "2",
            "addr:street": "Gampenstraße - Via Palade",
            "email": "o.holznergoldschmied@gmail.com",
            "name": "Otmar Holzner Goldschmied",
            "opening_hours": "Mo-Fr 08:00-12:00, 15:00-19:00; Sa 08:00-12:00",
            "phone": "+39 0473 562134",
            "shop": "jewelry"
          },
          "geometry": {
            "type": "Point",
            "coordinates": [
              11.1430334,
              46.6162289
            ]
          }
        },
        {
          "type": "Feature",
          "properties": {
            "id": "8069270885",
            "osm_type": "node",
            "lat": 46.6131383,
            "lon": 11.1570493,
            "addr:housenumber": "2",
            "addr:street": "Bozner Straße - Via Bolzano",
            "check_date": "2023-08-25",
            "email": "horst.fischnaller@hotmail.de",
            "name": "Fischnaller Horst",
            "opening_hours": "Tu 08:45-12:30; Mo,We-Fr 08:45-12:30,15:00-18:15",
            "phone": "+39 0473 565153",
            "shop": "jewelry",
            "website": "https://juwelier-fischnaller.it/"
          },
          "geometry": {
            "type": "Point",
            "coordinates": [
              11.1570493,
              46.6131383
            ]
          }
        },
        {
          "type": "Feature",
          "properties": {
            "id": "8420326667",
            "osm_type": "node",
            "lat": 46.4884347,
            "lon": 11.3179026,
            "name": "Gold & Cash",
            "shop": "jewelry"
          },
          "geometry": {
            "type": "Point",
            "coordinates": [
              11.3179026,
              46.4884347
            ]
          }
        },
        {
          "type": "Feature",
          "properties": {
            "id": "9891904018",
            "osm_type": "node",
            "lat": 46.4997339,
            "lon": 11.3566292,
            "name": "Goldschmied Orefice",
            "shop": "jewelry"
          },
          "geometry": {
            "type": "Point",
            "coordinates": [
              11.3566292,
              46.4997339
            ]
          }
        },
        {
          "type": "Feature",
          "properties": {
            "id": "10020658191",
            "osm_type": "node",
            "lat": 46.6708478,
            "lon": 11.1646365,
            "addr:housenumber": "17",
            "addr:street": "Leonardo-da-Vinci-Straße - Via Leonardo da Vinci",
            "check_date": "2022-09-13",
            "name": "Posthaus",
            "shop": "jewelry"
          },
          "geometry": {
            "type": "Point",
            "coordinates": [
              11.1646365,
              46.6708478
            ]
          }
        },
        {
          "type": "Feature",
          "properties": {
            "id": "10020658203",
            "osm_type": "node",
            "lat": 46.6717615,
            "lon": 11.1622128,
            "addr:housenumber": "186",
            "addr:street": "Laubengasse",
            "check_date": "2022-09-13",
            "name": "Ceska",
            "shop": "jewelry"
          },
          "geometry": {
            "type": "Point",
            "coordinates": [
              11.1622128,
              46.6717615
            ]
          }
        },
        {
          "type": "Feature",
          "properties": {
            "id": "10103438051",
            "osm_type": "node",
            "lat": 46.4996357,
            "lon": 11.3562433,
            "name": "Parth",
            "shop": "jewelry",
            "wheelchair": "yes"
          },
          "geometry": {
            "type": "Point",
            "coordinates": [
              11.3562433,
              46.4996357
            ]
          }
        },
        {
          "type": "Feature",
          "properties": {
            "id": "10855557983",
            "osm_type": "node",
            "lat": 46.4144955,
            "lon": 11.2461311,
            "name": "Gebrüder Gratt",
            "shop": "jewelry"
          },
          "geometry": {
            "type": "Point",
            "coordinates": [
              11.2461311,
              46.4144955
            ]
          }
        },
        {
          "type": "Feature",
          "properties": {
            "id": "10855612084",
            "osm_type": "node",
            "lat": 46.4138002,
            "lon": 11.2462028,
            "addr:housenumber": "16c",
            "addr:street": "Andreas-Hofer-Straße - Via Andreas Hofer",
            "check_date:opening_hours": "2024-09-24",
            "name": "m!ne",
            "opening_hours:signed": "no",
            "shop": "jewelry"
          },
          "geometry": {
            "type": "Point",
            "coordinates": [
              11.2462028,
              46.4138002
            ]
          }
        },
        {
          "type": "Feature",
          "properties": {
            "id": "10855612345",
            "osm_type": "node",
            "lat": 46.4142509,
            "lon": 11.2460535,
            "addr:housenumber": "20a",
            "addr:street": "Andreas-Hofer-Straße - Via Andreas Hofer",
            "name": "Schullian",
            "shop": "jewelry"
          },
          "geometry": {
            "type": "Point",
            "coordinates": [
              11.2460535,
              46.4142509
            ]
          }
        },
        {
          "type": "Feature",
          "properties": {
            "id": "10855616035",
            "osm_type": "node",
            "lat": 46.4128694,
            "lon": 11.2459866,
            "name": "Aurea",
            "shop": "jewelry"
          },
          "geometry": {
            "type": "Point",
            "coordinates": [
              11.2459866,
              46.4128694
            ]
          }
        },
        {
          "type": "Feature",
          "properties": {
            "id": "10855623307",
            "osm_type": "node",
            "lat": 46.4158044,
            "lon": 11.2480437,
            "addr:housenumber": "19",
            "name": "Aurea",
            "shop": "jewelry"
          },
          "geometry": {
            "type": "Point",
            "coordinates": [
              11.2480437,
              46.4158044
            ]
          }
        },
        {
          "type": "Feature",
          "properties": {
            "id": "12708369021",
            "osm_type": "node",
            "lat": 46.6133192,
            "lon": 11.1580312,
            "name": "Sciliar Jewels",
            "shop": "jewelry"
          },
          "geometry": {
            "type": "Point",
            "coordinates": [
              11.1580312,
              46.6133192
            ]
          }
        },
        {
          "type": "Feature",
          "properties": {
            "id": "12747891538",
            "osm_type": "node",
            "lat": 46.6708803,
            "lon": 11.1608352,
            "name": "Biasini - Jewelry & Lab",
            "name:de": "Biasini - Jewelry & Lab",
            "name:it": "Biasini - Jewelry & Lab",
            "opening_hours": "Mo-Fr 09:30-13:00,14:00-18:30; Sa 09:30-16:00",
            "shop": "jewelry",
            "wheelchair": "limited"
          },
          "geometry": {
            "type": "Point",
            "coordinates": [
              11.1608352,
              46.6708803
            ]
          }
        }
      ],
      "children": []
    },
    {
      "bbox": {
        "south": 46.70320525,
        "west": 9.530952,
        "north": 47.033758500000005,
        "east": 10.484655499999999
      },
      "poiCount": 10,
      "leafCount": 10,
      "averagePosition": [
        9.84413928,
        46.90520338
      ],
      "data": [
        {
          "type": "Feature",
          "properties": {
            "id": "3991004795",
            "osm_type": "node",
            "lat": 46.8481822,
            "lon": 9.5312519,
            "email": "info@goldschmiedeatelier-chur.ch",
            "fax": "+41 (0)81 252 35 39",
            "name": "Goldschmiedeatelier Phasouk Xayaboun",
            "phone": "+41 (0)81 252 35 39",
            "shop": "jewelry",
            "website": "https://www.goldschmiedeatelier-chur.ch/"
          },
          "geometry": {
            "type": "Point",
            "coordinates": [
              9.5312519,
              46.8481822
            ]
          }
        },
        {
          "type": "Feature",
          "properties": {
            "id": "3993618447",
            "osm_type": "node",
            "lat": 46.8483263,
            "lon": 9.5324086,
            "addr:city": "Chur",
            "addr:housenumber": "1",
            "addr:postcode": "7000",
            "addr:street": "St. Martinsplatz",
            "name": "Zoppi Juwelier",
            "shop": "jewelry",
            "website": "https://zoppijuwelier.ch/"
          },
          "geometry": {
            "type": "Point",
            "coordinates": [
              9.5324086,
              46.8483263
            ]
          }
        },
        {
          "type": "Feature",
          "properties": {
            "id": "6169081635",
            "osm_type": "node",
            "lat": 46.8503006,
            "lon": 9.5322047,
            "brand": "Christ",
            "brand:wikidata": "Q1077957",
            "name": "Christ",
            "shop": "jewelry"
          },
          "geometry": {
            "type": "Point",
            "coordinates": [
              9.5322047,
              46.8503006
            ]
          }
        },
        {
          "type": "Feature",
          "properties": {
            "id": "6269770550",
            "osm_type": "node",
            "lat": 46.7964506,
            "lon": 10.2962231,
            "level": "0",
            "name": "Jewel & Watch",
            "shop": "jewelry",
            "wheelchair": "limited"
          },
          "geometry": {
            "type": "Point",
            "coordinates": [
              10.2962231,
              46.7964506
            ]
          }
        },
        {
          "type": "Feature",
          "properties": {
            "id": "7685500485",
            "osm_type": "node",
            "lat": 46.7987244,
            "lon": 10.303135,
            "name": "Grotta da Mineralias",
            "shop": "jewelry"
          },
          "geometry": {
            "type": "Point",
            "coordinates": [
              10.303135,
              46.7987244
            ]
          }
        },
        {
          "type": "Feature",
          "properties": {
            "id": "5345546067",
            "osm_type": "node",
            "lat": 46.9614962,
            "lon": 9.5542619,
            "check_date": "2023-08-11",
            "name": "Swarovski",
            "opening_hours": "Mo-Su 10:00-19:00",
            "shop": "jewelry"
          },
          "geometry": {
            "type": "Point",
            "coordinates": [
              9.5542619,
              46.9614962
            ]
          }
        },
        {
          "type": "Feature",
          "properties": {
            "id": "5345546068",
            "osm_type": "node",
            "lat": 46.9613244,
            "lon": 9.5542981,
            "alt_name": "Simone Pérèle",
            "check_date": "2023-08-11",
            "name": "Huber",
            "opening_hours": "Mo-Su 10:00-19:00",
            "shop": "jewelry"
          },
          "geometry": {
            "type": "Point",
            "coordinates": [
              9.5542981,
              46.9613244
            ]
          }
        },
        {
          "type": "Feature",
          "properties": {
            "id": "6867847236",
            "osm_type": "node",
            "lat": 46.9679385,
            "lon": 9.5606892,
            "check_date": "2025-07-20",
            "name": "Mazenauer Uhren Bijouterie",
            "shop": "jewelry"
          },
          "geometry": {
            "type": "Point",
            "coordinates": [
              9.5606892,
              46.9679385
            ]
          }
        },
        {
          "type": "Feature",
          "properties": {
            "id": "8543457361",
            "osm_type": "node",
            "lat": 47.0105912,
            "lon": 10.2903069,
            "name": "Zegg & Gerlati",
            "opening_hours": "Mo-Sa 10:00-13:00,14:00-18:30; Su off",
            "shop": "jewelry"
          },
          "geometry": {
            "type": "Point",
            "coordinates": [
              10.2903069,
              47.0105912
            ]
          }
        },
        {
          "type": "Feature",
          "properties": {
            "id": "9016839653",
            "osm_type": "node",
            "lat": 47.0086994,
            "lon": 10.2866134,
            "check_date:opening_hours": "2024-12-20",
            "name": "Hangl",
            "opening_hours": "Mo-Su 09:00-19:00",
            "shop": "jewelry"
          },
          "geometry": {
            "type": "Point",
            "coordinates": [
              10.2866134,
              47.0086994
            ]
          }
        }
      ],
      "children": []
    },
    {
      "bbox": {
        "south": 46.70320525,
        "west": 10.484655499999999,
        "north": 47.033758500000005,
        "east": 11.438358999999998
      },
      "poiCount": 5,
      "leafCount": 5,
      "averagePosition": [
        11.394523340000001,
        46.88020334
      ],
      "data": [
        {
          "type": "Feature",
          "properties": {
            "id": "6843912890",
            "osm_type": "node",
            "lat": 46.8968377,
            "lon": 11.4318324,
            "addr:housenumber": "40",
            "addr:street": "Neustadt - Via Città Nuova",
            "check_date": "2023-08-22",
            "name": "Oberretl",
            "opening_hours": "Mo-Sa 08:30-12:00, Mo-We,Fr 15:00-18:30, Sa 15:00-18:00; Su off",
            "payment:credit_cards": "yes",
            "payment:debit_cards": "yes",
            "shop": "jewelry",
            "wheelchair": "yes"
          },
          "geometry": {
            "type": "Point",
            "coordinates": [
              11.4318324,
              46.8968377
            ]
          }
        },
        {
          "type": "Feature",
          "properties": {
            "id": "6843921285",
            "osm_type": "node",
            "lat": 46.8970212,
            "lon": 11.4317514,
            "addr:housenumber": "34",
            "addr:street": "Neustadt - Via Città Nuova",
            "check_date": "2023-08-22",
            "name": "Aster",
            "shop": "jewelry"
          },
          "geometry": {
            "type": "Point",
            "coordinates": [
              11.4317514,
              46.8970212
            ]
          }
        },
        {
          "type": "Feature",
          "properties": {
            "id": "6844025596",
            "osm_type": "node",
            "lat": 46.897104,
            "lon": 11.4317393,
            "addr:housenumber": "32b",
            "addr:street": "Neustadt - Via Città Nuova",
            "check_date": "2023-08-22",
            "name": "Valerie",
            "shop": "jewelry"
          },
          "geometry": {
            "type": "Point",
            "coordinates": [
              11.4317393,
              46.897104
            ]
          }
        },
        {
          "type": "Feature",
          "properties": {
            "id": "11903600358",
            "osm_type": "node",
            "lat": 46.8979866,
            "lon": 11.4317227,
            "name": "By Bettina",
            "shop": "jewelry"
          },
          "geometry": {
            "type": "Point",
            "coordinates": [
              11.4317227,
              46.8979866
            ]
          }
        },
        {
          "type": "Feature",
          "properties": {
            "id": "5035854654",
            "osm_type": "node",
            "lat": 46.8120672,
            "lon": 11.2455709,
            "contact:phone": "+39 0473 656 184",
            "name": "Juwelier Foto Staschitz",
            "shop": "jewelry",
            "source": "TV Passeier"
          },
          "geometry": {
            "type": "Point",
            "coordinates": [
              11.2455709,
              46.8120672
            ]
          }
        }
      ],
      "children": []
    }
  ]
}