{
  "bbox": {
    "south": 46.372652,
    "west": 11.438358999999998,
    "north": 47.033758500000005,
    "east": 13.345766
  },
  "poiCount": 28,
  "leafCount": 28,
  "averagePosition": [
    12.020652400000001,
    46.61208462142857
  ],
  "data": [
    {
      "type": "Feature",
      "properties": {
        "id": "12294499321",
        "osm_type": "node",
        "lat": 47.0048814,
        "lon": 11.5057354,
        "brand": "Swarovski",
        "brand:wikidata": "Q611115",
        "name": "Swarovski",
        "shop": "jewelry"
      },
      "geometry": {
        "type": "Point",
        "coordinates": [
          11.5057354,
          47.0048814
        ]
      }
    },
    {
      "type": "Feature",
      "properties": {
        "id": "7752740148",
        "osm_type": "node",
        "lat": 46.5173377,
        "lon": 11.5014812,
        "email": "info@goldschmiede-wallnoefer.com",
        "name": "Goldschmiede Wallnöfer",
        "phone": "+39 0471 725272",
        "shop": "jewelry",
        "website": "https://www.goldschmiede-wallnoefer.com",
        "wheelchair": "no"
      },
      "geometry": {
        "type": "Point",
        "coordinates": [
          11.5014812,
          46.5173377
        ]
      }
    },
    {
      "type": "Feature",
      "properties": {
        "id": "722789348",
        "osm_type": "node",
        "lat": 46.4301152,
        "lon": 11.6888442,
        "addr:city": "Pozza di Fassa",
        "addr:country": "IT",
        "addr:housenumber": "34",
        "addr:postcode": "38036",
        "addr:street": "Strada de Meida",
        "opening_hours": "Mo-Sa 09:00-12:00,15:30-19:00; We off; Th off",
        "shop": "jewelry"
      },
      "geometry": {
        "type": "Point",
        "coordinates": [
          11.6888442,
          46.4301152
        ]
      }
    },
    {
      "type": "Feature",
      "properties": {
        "id": "946047244",
        "osm_type": "node",
        "lat": 46.4298556,
        "lon": 11.6918244,
        "addr:city": "Pozza di Fassa",
        "addr:country": "IT",
        "addr:housenumber": "100",
        "addr:postcode": "38036",
        "addr:street": "Strada de Meida",
        "name": "Obletter Monili",
        "shop": "jewelry"
      },
      "geometry": {
        "type": "Point",
        "coordinates": [
          11.6918244,
          46.4298556
        ]
      }
    },
    {
      "type": "Feature",
      "properties": {
        "id": "1930805818",
        "osm_type": "node",
        "lat": 46.7166158,
        "lon": 11.6571209,
        "addr:city": "Brixen - Bressanone",
        "addr:city:de": "Brixen",
        "addr:city:it": "Bressanone",
        "addr:housenumber": "1",
        "addr:postcode": "39042",
        "addr:street": "Pfarrplatz - Piazza Parrocchia",
        "addr:street:de": "Pfarrplatz",
        "addr:street:it": "Piazza Parrocchia",
        "name": "Hummel",
        "opening_hours": "Mo-Fr 09:00-12:30,14:45-18:45",
        "shop": "jewelry",
        "wheelchair": "yes"
      },
      "geometry": {
        "type": "Point",
        "coordinates": [
          11.6571209,
          46.7166158
        ]
      }
    },
    {
      "type": "Feature",
      "properties": {
        "id": "2755698890",
        "osm_type": "node",
        "lat": 46.573079,
        "lon": 11.672099,
        "addr:city": "Kastelruth - Castelrotto",
        "addr:city:de": "Kastelruth",
        "addr:city:it": "Castelrotto",
        "addr:hamlet": "Überwasser - Oltretorrente",
        "addr:hamlet:de": "Überwasser",
        "addr:hamlet:it": "Oltretorrente",
        "addr:housenumber": "5/1",
        "addr:postcode": "39046",
        "addr:street": "Setilstraße - Via Setil",
        "addr:street:de": "Setilstraße",
        "addr:street:it": "Via Setil",
        "email": "goldform-marita@gmx.com",
        "name": "Goldform Marita",
        "phone": "+39 348 6109959",
        "shop": "jewelry",
        "website": "https://www.valgardena.it/en/addresses/detail/base/poi/ortisei-val-gardena/goldform-marita/0C0856BA60D6419E934EC8DAC6EC9F6A/"
      },
      "geometry": {
        "type": "Point",
        "coordinates": [
          11.672099,
          46.573079
        ]
      }
    },
    {
      "type": "Feature",
      "properties": {
        "id": "2756043491",
        "osm_type": "node",
        "lat": 46.5743215,
        "lon": 11.6717655,
        "addr:city": "Urtijëi - St.Ulrich - Ortisei",
        "addr:city:de": "St.Ulrich",
        "addr:city:it": "Ortisei",
        "addr:city:lld": "Urtijëi",
        "addr:housenumber": "11",
        "addr:postcode": "39046",
        "addr:street": "Streda Rezia",
        "addr:street:de": "Rezia-Straße",
        "addr:street:it": "Via Rezia",
        "addr:street:lld": "Streda Rezia",
        "email": "michiave@hotmail.com",
        "name": "Antlaries",
        "phone": "+39 0471 797533",
        "shop": "jewelry",
        "website": "https://www.valgardena.it/en/addresses/detail/base/poi/ortisei-val-gardena/antlaries/0BB107526E3C42358B741405AB928C2A/"
      },
      "geometry": {
        "type": "Point",
        "coordinates": [
          11.6717655,
          46.5743215
        ]
      }
    },
    {
      "type": "Feature",
      "properties": {
        "id": "3692463614",
        "osm_type": "node",
        "lat": 46.7173336,
        "lon": 11.6573769,
        "check_date:opening_hours": "2023-01-02",
        "name": "Gstader",
        "opening_hours:signed": "no",
        "shop": "jewelry",
        "wheelchair": "no"
      },
      "geometry": {
        "type": "Point",
        "coordinates": [
          11.6573769,
          46.7173336
        ]
      }
    },
    {
      "type": "Feature",
      "properties": {
        "id": "3787696094",
        "osm_type": "node",
        "lat": 46.3761413,
        "lon": 11.6616139,
        "name": "Gioielleria Croce",
        "shop": "jewelry"
      },
      "geometry": {
        "type": "Point",
        "coordinates": [
          11.6616139,
          46.3761413
        ]
      }
    },
    {
      "type": "Feature",
      "properties": {
        "id": "4326514538",
        "osm_type": "node",
        "lat": 46.4204576,
        "lon": 11.6747208,
        "name": "Juwelier Pollam",
        "shop": "jewelry"
      },
      "geometry": {
        "type": "Point",
        "coordinates": [
          11.6747208,
          46.4204576
        ]
      }
    },
    {
      "type": "Feature",
      "properties": {
        "id": "4654363991",
        "osm_type": "node",
        "lat": 46.5488964,
        "lon": 11.8746489,
        "check_date": "2023-09-21",
        "entrance": "yes",
        "name": "Oreficeria Wilhelmine",
        "shop": "jewelry"
      },
      "geometry": {
        "type": "Point",
        "coordinates": [
          11.8746489,
          46.5488964
        ]
      }
    },
    {
      "type": "Feature",
      "properties": {
        "id": "4865953979",
        "osm_type": "node",
        "lat": 46.7158564,
        "lon": 11.6542196,
        "name": "Renate",
        "shop": "jewelry"
      },
      "geometry": {
        "type": "Point",
        "coordinates": [
          11.6542196,
          46.7158564
        ]
      }
    },
    {
      "type": "Feature",
      "properties": {
        "id": "7756967683",
        "osm_type": "node",
        "lat": 46.5559209,
        "lon": 11.7556031,
        "shop": "jewelry"
      },
      "geometry": {
        "type": "Point",
        "coordinates": [
          11.7556031,
          46.5559209
        ]
      }
    },
    {
      "type": "Feature",
      "properties": {
        "id": "8022911841",
        "osm_type": "node",
        "lat": 46.7164678,
        "lon": 11.6554708,
        "name": "Karat",
        "opening_hours": "Mo-Fr 09:00-13:00,15:00-19:00; Sa 09:00-13:00",
        "shop": "jewelry",
        "website": "http://www.karat2.com/"
      },
      "geometry": {
        "type": "Point",
        "coordinates": [
          11.6554708,
          46.7164678
        ]
      }
    },
    {
      "type": "Feature",
      "properties": {
        "id": "8022911843",
        "osm_type": "node",
        "lat": 46.7164844,
        "lon": 11.6556539,
        "name": "Adore",
        "shop": "jewelry"
      },
      "geometry": {
        "type": "Point",
        "coordinates": [
          11.6556539,
          46.7164844
        ]
      }
    },
    {
      "type": "Feature",
      "properties": {
        "id": "9151291242",
        "osm_type": "node",
        "lat": 46.573681,
        "lon": 11.6732976,
        "addr:city": "Urtijëi - St.Ulrich - Ortisei",
        "addr:housenumber": "92",
        "addr:postcode": "39046",
        "addr:street": "Streda Rezia",
        "email": "shop@runggaldier.info",
        "name": "Juwelier Runggaldier M. & Co.",
        "phone": "+39 0471 796149",
        "shop": "jewelry",
        "website": "https://www.valgardena.it/en/addresses/detail/base/poi/ortisei-val-gardena/juwellery-runggaldier-m-co/7CDD48BC46A1436BA69612A72795BEEA/"
      },
      "geometry": {
        "type": "Point",
        "coordinates": [
          11.6732976,
          46.573681
        ]
      }
    },
    {
      "type": "Feature",
      "properties": {
        "id": "10106633290",
        "osm_type": "node",
        "lat": 46.5670297,
        "lon": 11.5605027,
        "name": "Zemmer",
        "opening_hours": "Mo-Sa 08:00-12:00, Mo-Fr 15:00-19:00",
        "payment:credit_cards": "yes",
        "payment:debit_cards": "yes",
        "shop": "jewelry",
        "wheelchair": "no"
      },
      "geometry": {
        "type": "Point",
        "coordinates": [
          11.5605027,
          46.5670297
        ]
      }
    },
    {
      "type": "Feature",
      "properties": {
        "id": "11078726929",
        "osm_type": "node",
        "lat": 46.7955668,
        "lon": 11.9402061,
        "check_date": "2025-08-10",
        "name": "Gabrielli",
        "opening_hours": "Mo-Fr 09:00-12:00,15:00-18:00; Sa 09:30-12:00",
        "shop": "jewelry",
        "wheelchair": "no"
      },
      "geometry": {
        "type": "Point",
        "coordinates": [
          11.9402061,
          46.7955668
        ]
      }
    },
    {
      "type": "Feature",
      "properties": {
        "id": "13096519405",
        "osm_type": "node",
        "lat": 46.4760338,
        "lon": 11.771608,
        "name": "Dolomiti Gioielli",
        "shop": "jewelry"
      },
      "geometry": {
        "type": "Point",
        "coordinates": [
          11.771608,
          46.4760338
        ]
      }
    },
    {
      "type": "Feature",
      "properties": {
        "id": "2333490921",
        "osm_type": "node",
        "lat": 46.7324444,
        "lon": 12.2812538,
        "name": "Lercher",
        "shop": "jewelry"
      },
      "geometry": {
        "type": "Point",
        "coordinates": [
          12.2812538,
          46.7324444
        ]
      }
    },
    {
      "type": "Feature",
      "properties": {
        "id": "5722932831",
        "osm_type": "node",
        "lat": 46.5367011,
        "lon": 12.1400038,
        "addr:city": "Cortina d'Ampezzo",
        "addr:housenumber": "8",
        "addr:postcode": "32043",
        "addr:street": "Corso Italia",
        "check_date": "2025-06-16",
        "name": "Gioielleria De Zanna",
        "shop": "jewelry"
      },
      "geometry": {
        "type": "Point",
        "coordinates": [
          12.1400038,
          46.5367011
        ]
      }
    },
    {
      "type": "Feature",
      "properties": {
        "id": "1928645201",
        "osm_type": "node",
        "lat": 46.4165981,
        "lon": 12.7950049,
        "name": "Benedetti",
        "shop": "jewelry"
      },
      "geometry": {
        "type": "Point",
        "coordinates": [
          12.7950049,
          46.4165981
        ]
      }
    },
    {
      "type": "Feature",
      "properties": {
        "id": "3826588572",
        "osm_type": "node",
        "lat": 46.4158505,
        "lon": 12.9242261,
        "addr:city": "Villa Santina",
        "addr:housenumber": "19",
        "addr:postcode": "33029",
        "addr:street": "Piazza Italia",
        "check_date": "2024-10-24",
        "check_date:currency:XBT": "2024-10-24",
        "contact:facebook": "https://www.facebook.com/Boriasrls/",
        "contact:instagram": "https://www.instagram.com/boria_jewels/",
        "currency:XBT": "yes",
        "description": "Artigiano orafo dal 1987",
        "email": "info@boriasrls.it",
        "name": "BORIA passioni d'oro",
        "payment:lightning": "yes",
        "payment:onchain": "yes",
        "phone": "+39 320 307 4483",
        "shop": "jewelry",
        "survey:date": "2023-11-30",
        "website": "http://www.boriasrls.it/"
      },
      "geometry": {
        "type": "Point",
        "coordinates": [
          12.9242261,
          46.4158505
        ]
      }
    },
    {
      "type": "Feature",
      "properties": {
        "id": "5073099118",
        "osm_type": "node",
        "lat": 46.566103,
        "lon": 12.6857432,
        "name": "Gold and Silver",
        "shop": "jewelry"
      },
      "geometry": {
        "type": "Point",
        "coordinates": [
          12.6857432,
          46.566103
        ]
      }
    },
    {
      "type": "Feature",
      "properties": {
        "id": "11097236778",
        "osm_type": "node",
        "lat": 46.8294763,
        "lon": 12.76548,
        "name": "Leiher",
        "shop": "jewelry"
      },
      "geometry": {
        "type": "Point",
        "coordinates": [
          12.76548,
          46.8294763
        ]
      }
    },
    {
      "type": "Feature",
      "properties": {
        "id": "11414687472",
        "osm_type": "node",
        "lat": 46.8294813,
        "lon": 12.7680648,
        "name": "Juwelier Steiner",
        "shop": "jewelry"
      },
      "geometry": {
        "type": "Point",
        "coordinates": [
          12.7680648,
          46.8294813
        ]
      }
    },
    {
      "type": "Feature",
      "properties": {
        "id": "12636236708",
        "osm_type": "node",
        "lat": 46.6715324,
        "lon": 13.0003214,
        "name": "Karin Steiner",
        "operator": "Karin Steiner",
        "payment:cash": "yes",
        "shop": "jewelry"
      },
      "geometry": {
        "type": "Point",
        "coordinates": [
          13.0003214,
          46.6715324
        ]
      }
    },
    {
      "type": "Feature",
      "properties": {
        "id": "2418727908",
        "osm_type": "node",
        "lat": 46.7141064,
        "lon": 13.2943763,
        "name": "Alois Ebenberger",
        "shop": "jewelry"
      },
      "geometry": {
        "type": "Point",
        "coordinates": [
          13.2943763,
          46.7141064
        ]
      }
    }
  ],
  "children": []
}