{
  "bbox": {
    "south": 48.355971499999995,
    "west": 11.438358999999998,
    "north": 49.017078,
    "east": 13.345766
  },
  "poiCount": 84,
  "leafCount": 0,
  "averagePosition": [
    12.259709247619046,
    48.68958725357143
  ],
  "data": [],
  "children": [
    {
      "bbox": {
        "south": 48.355971499999995,
        "west": 11.438358999999998,
        "north": 48.68652475,
        "east": 12.392062499999998
      },
      "poiCount": 38,
      "leafCount": 38,
      "averagePosition": [
        11.958407507894737,
        48.507223384210526
      ],
      "data": [
        {
          "type": "Feature",
          "properties": {
            "id": "660684089",
            "osm_type": "node",
            "lat": 48.5295352,
            "lon": 11.5077481,
            "check_date:opening_hours": "2021-10-04",
            "name": "isensi",
            "opening_hours": "Mo-Fr 09:30-18:30; Sa 09:30-16:00",
            "shop": "jewelry",
            "wheelchair": "no"
          },
          "geometry": {
            "type": "Point",
            "coordinates": [
              11.5077481,
              48.5295352
            ]
          }
        },
        {
          "type": "Feature",
          "properties": {
            "id": "690495606",
            "osm_type": "node",
            "lat": 48.5318282,
            "lon": 11.5075661,
            "name": "Grabmair",
            "phone": "+49 8441 2592",
            "shop": "jewelry"
          },
          "geometry": {
            "type": "Point",
            "coordinates": [
              11.5075661,
              48.5318282
            ]
          }
        },
        {
          "type": "Feature",
          "properties": {
            "id": "6013300926",
            "osm_type": "node",
            "lat": 48.5300251,
            "lon": 11.5072473,
            "name": "Oh Wunderbar",
            "opening_hours": "We 10:00-14:00; Th,Fr 10:00-18:00",
            "operator": "Sabine Schwarze",
            "shop": "jewelry"
          },
          "geometry": {
            "type": "Point",
            "coordinates": [
              11.5072473,
              48.5300251
            ]
          }
        },
        {
          "type": "Feature",
          "properties": {
            "id": "806344434",
            "osm_type": "node",
            "lat": 48.4978286,
            "lon": 11.8034658,
            "name": "Top Design",
            "shop": "jewelry"
          },
          "geometry": {
            "type": "Point",
            "coordinates": [
              11.8034658,
              48.4978286
            ]
          }
        },
        {
          "type": "Feature",
          "properties": {
            "id": "2118176509",
            "osm_type": "node",
            "lat": 48.4011698,
            "lon": 11.7448245,
            "addr:city": "Freising",
            "addr:country": "DE",
            "addr:housename": "Bayerischer Hof",
            "addr:housenumber": "3",
            "addr:postcode": "85354",
            "addr:street": "Untere Hauptstraße",
            "check_date": "2025-08-28",
            "name": "Hinner",
            "opening_hours": "Mo-Fr 09:00-12:30,14:00-18:00, Sa 09:00-13:00",
            "payment:credit_cards": "yes",
            "payment:debit_cards": "yes",
            "shop": "jewelry",
            "wheelchair": "yes"
          },
          "geometry": {
            "type": "Point",
            "coordinates": [
              11.7448245,
              48.4011698
            ]
          }
        },
        {
          "type": "Feature",
          "properties": {
            "id": "2118291854",
            "osm_type": "node",
            "lat": 48.4013658,
            "lon": 11.7464922,
            "addr:city": "Freising",
            "addr:country": "DE",
            "addr:housenumber": "26",
            "addr:postcode": "85354",
            "addr:street": "Untere Hauptstraße",
            "check_date": "2024-12-17",
            "email": "juwelier.boretzky@gmail.com",
            "name": "Boretzky",
            "opening_hours": "Tu-Fr 09:30-13:00,14:00-18:00; Sa 09:30-13:00; Su,Mo,PH off",
            "operator": "Benjamin Boretzky",
            "phone": "+49-8161-8853800",
            "shop": "jewelry",
            "start_date": "2015-10-11",
            "website": "https://www.juwelier-boretzky.de/freising/",
            "wheelchair": "limited"
          },
          "geometry": {
            "type": "Point",
            "coordinates": [
              11.7464922,
              48.4013658
            ]
          }
        },
        {
          "type": "Feature",
          "properties": {
            "id": "2118291889",
            "osm_type": "node",
            "lat": 48.4013416,
            "lon": 11.7454909,
            "check_date": "2025-08-28",
            "name": "Widmann",
            "opening_hours": "Mo-Fr 09:30-18:30; Sa 09:30-18:00",
            "shop": "jewelry",
            "website": "https://www.widmann-uhren.de/",
            "wheelchair": "yes"
          },
          "geometry": {
            "type": "Point",
            "coordinates": [
              11.7454909,
              48.4013416
            ]
          }
        },
        {
          "type": "Feature",
          "properties": {
            "id": "2331686333",
            "osm_type": "node",
            "lat": 48.6645508,
            "lon": 11.9648599,
            "name": "Optik-Uhren-Schmuck Zankl",
            "shop": "jewelry"
          },
          "geometry": {
            "type": "Point",
            "coordinates": [
              11.9648599,
              48.6645508
            ]
          }
        },
        {
          "type": "Feature",
          "properties": {
            "id": "2384317894",
            "osm_type": "node",
            "lat": 48.68576,
            "lon": 11.6127497,
            "shop": "jewelry",
            "wheelchair": "no"
          },
          "geometry": {
            "type": "Point",
            "coordinates": [
              11.6127497,
              48.68576
            ]
          }
        },
        {
          "type": "Feature",
          "properties": {
            "id": "4008179082",
            "osm_type": "node",
            "lat": 48.55679,
            "lon": 11.7423551,
            "name": "Schmuck Zankl",
            "shop": "jewelry"
          },
          "geometry": {
            "type": "Point",
            "coordinates": [
              11.7423551,
              48.55679
            ]
          }
        },
        {
          "type": "Feature",
          "properties": {
            "id": "6660679086",
            "osm_type": "node",
            "lat": 48.4002062,
            "lon": 11.7463957,
            "addr:city": "Freising",
            "addr:country": "DE",
            "addr:housenumber": "12",
            "addr:postcode": "85354",
            "addr:street": "Fischergasse",
            "craft": "goldsmith",
            "email": "post@goldschmiede-michael-beer.de",
            "name": "Michael Beer",
            "operator": "Michael Beer",
            "phone": "+49-8161-2011098",
            "shop": "jewelry",
            "website": "https://goldschmiede-michael-beer.de"
          },
          "geometry": {
            "type": "Point",
            "coordinates": [
              11.7463957,
              48.4002062
            ]
          }
        },
        {
          "type": "Feature",
          "properties": {
            "id": "6769462992",
            "osm_type": "node",
            "lat": 48.4022394,
            "lon": 11.7492219,
            "addr:city": "Freising",
            "addr:country": "DE",
            "addr:housenumber": "14",
            "addr:postcode": "85354",
            "addr:street": "General-von-Nagel-Straße",
            "check_date": "2024-12-19",
            "craft": "jeweller",
            "description": "Therapiesteine und Schmuck",
            "mapillary": "623744008696520",
            "name": "Art of Stone",
            "opening_hours": "Tu-Fr 10:00-18:30; Sa 10:00-14:00; Su,Mo,PH off",
            "operator": "Edeltraut Kratzl-Schmidt",
            "phone": "+49-8161-233760",
            "shop": "jewelry",
            "wheelchair": "no"
          },
          "geometry": {
            "type": "Point",
            "coordinates": [
              11.7492219,
              48.4022394
            ]
          }
        },
        {
          "type": "Feature",
          "properties": {
            "id": "8284261317",
            "osm_type": "node",
            "lat": 48.4681236,
            "lon": 11.9357046,
            "addr:city": "Moosburg a.d. Isar",
            "addr:country": "DE",
            "addr:housenumber": "6",
            "addr:postcode": "85368",
            "addr:street": "Stadtplatz",
            "check_date": "2025-02-12",
            "email": "info@fetzer-moosburg.de",
            "name": "Fetzer Schmuck",
            "opening_hours": "Mo-Fr 09:00-18:00; Sa 09:00-13:00",
            "operator": "Robert Fetzer e.K.",
            "phone": "+49 8761 2428",
            "shop": "jewelry",
            "website": "https://www.fetzer-moosburg.de/schmuck/",
            "wheelchair": "no"
          },
          "geometry": {
            "type": "Point",
            "coordinates": [
              11.9357046,
              48.4681236
            ]
          }
        },
        {
          "type": "Feature",
          "properties": {
            "id": "8284581417",
            "osm_type": "node",
            "lat": 48.4675901,
            "lon": 11.9369717,
            "addr:city": "Moosburg a.d. Isar",
            "addr:country": "DE",
            "addr:housenumber": "14",
            "addr:postcode": "85368",
            "addr:street": "Herrnstraße",
            "check_date": "2025-07-26",
            "email": "team@lida-moosburg.de",
            "name": "LIDA Sehen und Aussehen",
            "old_name": "K. M. Seidel",
            "opening_hours": "Mo-Fr 09:00-13:00,14:00-18:00; Sa 09:00-13:00",
            "operator": "Lydia Krutsch",
            "phone": "+49 8761 2311",
            "shop": "jewelry",
            "website": "https://lida-moosburg.de/",
            "wheelchair": "no"
          },
          "geometry": {
            "type": "Point",
            "coordinates": [
              11.9369717,
              48.4675901
            ]
          }
        },
        {
          "type": "Feature",
          "properties": {
            "id": "8383243036",
            "osm_type": "node",
            "lat": 48.4115676,
            "lon": 11.7369549,
            "addr:city": "Freising",
            "addr:country": "DE",
            "addr:housenumber": "1",
            "addr:postcode": "85354",
            "addr:street": "Johann-Braun-Straße",
            "alt_name": "Trauring-Center",
            "brand": "Newline",
            "check_date": "2023-12-16",
            "email": "info@schmuckdepot-newline.de",
            "name": "Schmuckdepot NewLine",
            "operator": "Richard Horwath",
            "phone": "+49-8161-21060",
            "shop": "jewelry",
            "website": "https://www.schmuckdepot-newline.de/"
          },
          "geometry": {
            "type": "Point",
            "coordinates": [
              11.7369549,
              48.4115676
            ]
          }
        },
        {
          "type": "Feature",
          "properties": {
            "id": "8676632039",
            "osm_type": "node",
            "lat": 48.4048804,
            "lon": 11.9891686,
            "addr:city": "Wartenberg",
            "addr:country": "DE",
            "addr:housenumber": "6",
            "addr:postcode": "85456",
            "addr:street": "Marktplatz",
            "check_date": "2024-11-03",
            "name": "Ring - Uhren und Schmuck",
            "opening_hours": "Mo-Sa 09:00-12:30, Mo-Fr 14:00-18:00",
            "shop": "jewelry"
          },
          "geometry": {
            "type": "Point",
            "coordinates": [
              11.9891686,
              48.4048804
            ]
          }
        },
        {
          "type": "Feature",
          "properties": {
            "id": "9382267517",
            "osm_type": "node",
            "lat": 48.4669846,
            "lon": 11.9357091,
            "addr:city": "Moosburg a.d. Isar",
            "addr:country": "DE",
            "addr:housenumber": "1",
            "addr:postcode": "85368",
            "addr:street": "Weingraben",
            "check_date": "2024-12-06",
            "email": "info@sternschmuck.com",
            "name": "N's Goldschmied & Juwelier",
            "opening_hours": "Mo-Fr 09:00-12:00,14:00-18:00; Sa 09:00-12:00",
            "operator": "Necmi Özonur",
            "phone": "+49 8761 7266690",
            "shop": "jewelry"
          },
          "geometry": {
            "type": "Point",
            "coordinates": [
              11.9357091,
              48.4669846
            ]
          }
        },
        {
          "type": "Feature",
          "properties": {
            "id": "9951592352",
            "osm_type": "node",
            "lat": 48.6105565,
            "lon": 11.6127753,
            "addr:city": "Wolnzach",
            "addr:country": "DE",
            "addr:housenumber": "4",
            "addr:postcode": "85283",
            "addr:street": "Hubensteinerstraße",
            "contact:email": "koehler@hopfenschmuck.de",
            "contact:phone": "+49 8442 9682-19",
            "contact:website": "https://www.hopfenschmuck.de/",
            "operator": "Christian Köhler",
            "shop": "jewelry"
          },
          "geometry": {
            "type": "Point",
            "coordinates": [
              11.6127753,
              48.6105565
            ]
          }
        },
        {
          "type": "Feature",
          "properties": {
            "id": "10020290434",
            "osm_type": "node",
            "lat": 48.4023429,
            "lon": 11.7452682,
            "addr:city": "Freising",
            "addr:country": "DE",
            "addr:housenumber": "8",
            "addr:postcode": "85354",
            "addr:street": "Amtsgerichtsgasse",
            "name": "Die Goldschmiedemeisterei",
            "name:de": "Die Goldschmiedemeisterei",
            "shop": "jewelry",
            "start_date": "2022",
            "strapline": "Trauringstudio",
            "strapline:de": "Trauringstudio",
            "survey:date": "2022-09-11"
          },
          "geometry": {
            "type": "Point",
            "coordinates": [
              11.7452682,
              48.4023429
            ]
          }
        },
        {
          "type": "Feature",
          "properties": {
            "id": "866920802",
            "osm_type": "node",
            "lat": 48.5365112,
            "lon": 12.1520799,
            "addr:city": "Landshut",
            "addr:country": "DE",
            "addr:housenumber": "334",
            "addr:postcode": "84028",
            "addr:street": "Altstadt",
            "check_date": "2025-08-08",
            "email": "info@weinmayr.com",
            "name": "Juweliere Weinmayr",
            "opening_hours": "Mo-Fr 09:00-18:15; Sa 10:00-15:00; PH off",
            "operator": "Uli Weinmayr",
            "phone": "+49 871 923560",
            "shop": "jewelry",
            "website": "https://weinmayr.com/",
            "wheelchair": "no"
          },
          "geometry": {
            "type": "Point",
            "coordinates": [
              12.1520799,
              48.5365112
            ]
          }
        },
        {
          "type": "Feature",
          "properties": {
            "id": "1435644722",
            "osm_type": "node",
            "lat": 48.5378797,
            "lon": 12.1521457,
            "addr:city": "Landshut",
            "addr:country": "DE",
            "addr:housenumber": "104",
            "addr:postcode": "84028",
            "addr:street": "Altstadt",
            "check_date": "2025-06-06",
            "name": "Kortmann Meisterschmuck",
            "phone": "+49 871 273516",
            "shop": "jewelry",
            "website": "https://www.kortmann-meisterschmuck.de/"
          },
          "geometry": {
            "type": "Point",
            "coordinates": [
              12.1521457,
              48.5378797
            ]
          }
        },
        {
          "type": "Feature",
          "properties": {
            "id": "1489818007",
            "osm_type": "node",
            "lat": 48.5349228,
            "lon": 12.150625,
            "addr:city": "Landshut",
            "addr:country": "DE",
            "addr:housenumber": "67",
            "addr:postcode": "84028",
            "addr:street": "Altstadt",
            "check_date": "2024-05-02",
            "name": "Oro Vivo",
            "shop": "jewelry",
            "wheelchair": "yes"
          },
          "geometry": {
            "type": "Point",
            "coordinates": [
              12.150625,
              48.5349228
            ]
          }
        },
        {
          "type": "Feature",
          "properties": {
            "id": "1489818014",
            "osm_type": "node",
            "lat": 48.5345922,
            "lon": 12.1509376,
            "addr:city": "Landshut",
            "addr:country": "DE",
            "addr:housenumber": "253",
            "addr:postcode": "84028",
            "addr:street": "Altstadt",
            "check_date": "2024-12-10",
            "name": "Richter+Ellinger",
            "opening_hours": "Mo-Fr 10:00-13:00,14:00-18:30; Sa 10:00-16:00",
            "shop": "jewelry",
            "wheelchair": "yes"
          },
          "geometry": {
            "type": "Point",
            "coordinates": [
              12.1509376,
              48.5345922
            ]
          }
        },
        {
          "type": "Feature",
          "properties": {
            "id": "1788487618",
            "osm_type": "node",
            "lat": 48.5345475,
            "lon": 12.1493996,
            "addr:city": "Landshut",
            "addr:country": "DE",
            "addr:housenumber": "50",
            "addr:postcode": "84028",
            "addr:street": "Ländgasse",
            "check_date": "2023-07-22",
            "contact:facebook": "https://www.facebook.com/Taxcoschmuckdesign",
            "contact:instagram": "https://www.instagram.com/taxcoschmuckdesign/",
            "email": "info@taxcos.com",
            "name": "Taxco's Schmuckdesign",
            "opening_hours": "Mo-Fr 10:00-15:00; PH off",
            "operator": "Sandra Niedermeier",
            "phone": "+49 871 2764874",
            "shop": "jewelry",
            "website": "https://taxcos.com/",
            "wheelchair": "yes"
          },
          "geometry": {
            "type": "Point",
            "coordinates": [
              12.1493996,
              48.5345475
            ]
          }
        },
        {
          "type": "Feature",
          "properties": {
            "id": "2396216824",
            "osm_type": "node",
            "lat": 48.540429,
            "lon": 12.1004116,
            "addr:city": "Landshut",
            "addr:country": "DE",
            "addr:housenumber": "9",
            "addr:postcode": "84034",
            "addr:street": "Ludwig-Erhard-Straße",
            "check_date": "2024-06-04",
            "name": "LE CLOU",
            "shop": "jewelry",
            "wheelchair": "yes"
          },
          "geometry": {
            "type": "Point",
            "coordinates": [
              12.1004116,
              48.540429
            ]
          }
        },
        {
          "type": "Feature",
          "properties": {
            "id": "2506655925",
            "osm_type": "node",
            "lat": 48.5396416,
            "lon": 12.1510141,
            "addr:city": "Landshut",
            "addr:country": "DE",
            "addr:housenumber": "674",
            "addr:postcode": "84028",
            "addr:street": "Zweibrückenstraße",
            "check_date": "2023-06-11",
            "name": "Juwelier W. Herzer",
            "shop": "jewelry"
          },
          "geometry": {
            "type": "Point",
            "coordinates": [
              12.1510141,
              48.5396416
            ]
          }
        },
        {
          "type": "Feature",
          "properties": {
            "id": "3273270529",
            "osm_type": "node",
            "lat": 48.5364138,
            "lon": 12.1538987,
            "addr:city": "Landshut",
            "addr:country": "DE",
            "addr:housenumber": "455",
            "addr:postcode": "84028",
            "addr:street": "Neustadt",
            "check_date": "2023-05-12",
            "name": "Trauring Galerie Landshut",
            "opening_hours": "Mo-Fr 10:00-18:00; Sa 10:00-14:00",
            "phone": "+4987197407637",
            "shop": "jewelry",
            "website": "http://trauringgalerie-landshut.de/"
          },
          "geometry": {
            "type": "Point",
            "coordinates": [
              12.1538987,
              48.5364138
            ]
          }
        },
        {
          "type": "Feature",
          "properties": {
            "id": "3727951263",
            "osm_type": "node",
            "lat": 48.4742015,
            "lon": 12.2572579,
            "addr:city": "Geisenhausen",
            "addr:country": "DE",
            "addr:housenumber": "3",
            "addr:postcode": "84144",
            "addr:street": "Hauptstraße",
            "email": "erdenreich@emailn.de",
            "name": "Erdenreich",
            "opening_hours": "Th-Fr 10:00-12:30,15:00-18:00",
            "phone": "+49 176 70 80 45 28",
            "shop": "jewelry"
          },
          "geometry": {
            "type": "Point",
            "coordinates": [
              12.2572579,
              48.4742015
            ]
          }
        },
        {
          "type": "Feature",
          "properties": {
            "id": "3893829781",
            "osm_type": "node",
            "lat": 48.5351465,
            "lon": 12.151222,
            "addr:city": "Landshut",
            "addr:housenumber": "261",
            "addr:postcode": "84028",
            "addr:street": "Altstadt",
            "brand": "Pandora",
            "brand:wikidata": "Q2241604",
            "brand:wikipedia": "en:Pandora (jewelry)",
            "check_date": "2023-10-27",
            "contact:facebook": "https://fb.com/pandorajewelry",
            "contact:instagram": "https://instagram.com/theofficialpandora",
            "contact:twitter": "https://twitter.com/Pandora_UK",
            "name": "Pandora",
            "shop": "jewelry",
            "website": "https://pandora.net",
            "wheelchair": "yes"
          },
          "geometry": {
            "type": "Point",
            "coordinates": [
              12.151222,
              48.5351465
            ]
          }
        },
        {
          "type": "Feature",
          "properties": {
            "id": "3899913863",
            "osm_type": "node",
            "lat": 48.5349456,
            "lon": 12.1535773,
            "addr:city": "Landshut",
            "addr:country": "DE",
            "addr:housenumber": "469",
            "addr:postcode": "84028",
            "addr:street": "Neustadt",
            "check_date": "2025-08-06",
            "name": "Füssl Schmuck & Zeit",
            "shop": "jewelry"
          },
          "geometry": {
            "type": "Point",
            "coordinates": [
              12.1535773,
              48.5349456
            ]
          }
        },
        {
          "type": "Feature",
          "properties": {
            "id": "3900698928",
            "osm_type": "node",
            "lat": 48.5351654,
            "lon": 12.1520264,
            "addr:city": "Landshut",
            "addr:country": "DE",
            "addr:housenumber": "294",
            "addr:postcode": "84028",
            "addr:street": "Schirmgasse",
            "check_date": "2025-06-18",
            "name": "Goldschmiede Heidi Wolf",
            "shop": "jewelry"
          },
          "geometry": {
            "type": "Point",
            "coordinates": [
              12.1520264,
              48.5351654
            ]
          }
        },
        {
          "type": "Feature",
          "properties": {
            "id": "3916951560",
            "osm_type": "node",
            "lat": 48.4500578,
            "lon": 12.3532595,
            "contact:email": "info@optic-aschenbrenner.de",
            "contact:fax": "+49 8741 8521",
            "contact:phone": "+49 8741 7013",
            "contact:website": "https://www.optic-aschenbrenner.de/",
            "name": "Optic Aschenbrenner",
            "opening_hours": "Mo-Fr 09:00-18:00; Sa 09:00-12:30; PH off",
            "operator": "Hans Aschenbrenner",
            "shop": "jewelry"
          },
          "geometry": {
            "type": "Point",
            "coordinates": [
              12.3532595,
              48.4500578
            ]
          }
        },
        {
          "type": "Feature",
          "properties": {
            "id": "3966738149",
            "osm_type": "node",
            "lat": 48.5350649,
            "lon": 12.1520697,
            "addr:city": "Landshut",
            "addr:housenumber": "267",
            "addr:postcode": "84028",
            "addr:street": "Schirmgasse",
            "check_date": "2025-06-18",
            "name": "Susita",
            "shop": "jewelry"
          },
          "geometry": {
            "type": "Point",
            "coordinates": [
              12.1520697,
              48.5350649
            ]
          }
        },
        {
          "type": "Feature",
          "properties": {
            "id": "4887949384",
            "osm_type": "node",
            "lat": 48.5357483,
            "lon": 12.1572405,
            "addr:city": "Landshut",
            "addr:country": "DE",
            "addr:housenumber": "626a",
            "addr:postcode": "84028",
            "addr:street": "Freyung",
            "check_date": "2024-06-25",
            "craft": "jeweller",
            "email": "look@corpusart.de",
            "name": "CorpusArt – Vera Bosdorf",
            "opening_hours": "We,Th 13:00-18:00, Fr 10:00-18:00, Sa \"auf gut Glück\" || \"nach Vereinbarung\"; PH off",
            "operator": "Vera Bosdorf",
            "shop": "jewelry",
            "website": "https://vera-bosdorf.de/"
          },
          "geometry": {
            "type": "Point",
            "coordinates": [
              12.1572405,
              48.5357483
            ]
          }
        },
        {
          "type": "Feature",
          "properties": {
            "id": "8441008077",
            "osm_type": "node",
            "lat": 48.5361414,
            "lon": 12.1527812,
            "addr:city": "Landshut",
            "addr:country": "DE",
            "addr:housenumber": "317",
            "addr:postcode": "84028",
            "addr:street": "Grasgasse",
            "check_date": "2024-12-08",
            "name": "Schiessl",
            "shop": "jewelry"
          },
          "geometry": {
            "type": "Point",
            "coordinates": [
              12.1527812,
              48.5361414
            ]
          }
        },
        {
          "type": "Feature",
          "properties": {
            "id": "8441008085",
            "osm_type": "node",
            "lat": 48.5362687,
            "lon": 12.1529486,
            "addr:city": "Landshut",
            "addr:country": "DE",
            "addr:housenumber": "329",
            "addr:postcode": "84028",
            "addr:street": "Grasgasse",
            "check_date": "2023-07-22",
            "email": "info@rathmayer.la",
            "name": "Julius Rathmayer Goldschmied",
            "opening_hours": "Tu-Fr 10:00-13:00,14:00-18:00; Sa 10:00-13:00",
            "operator": "Julius Rathmayer",
            "phone": "+49 871 97507245",
            "shop": "jewelry",
            "website": "https://www.rathmayer.la"
          },
          "geometry": {
            "type": "Point",
            "coordinates": [
              12.1529486,
              48.5362687
            ]
          }
        },
        {
          "type": "Feature",
          "properties": {
            "id": "8971381850",
            "osm_type": "node",
            "lat": 48.5349647,
            "lon": 12.1532353,
            "addr:city": "Landshut",
            "addr:country": "DE",
            "addr:housenumber": "277",
            "addr:postcode": "84028",
            "addr:street": "Schirmgasse",
            "check_date": "2025-08-20",
            "name": "Salome Goldschmiede",
            "opening_hours": "Tu,We,Fr 09:00-12:30; Th 15:00-18:00; Sa 11:00-14:00",
            "shop": "jewelry"
          },
          "geometry": {
            "type": "Point",
            "coordinates": [
              12.1532353,
              48.5349647
            ]
          }
        },
        {
          "type": "Feature",
          "properties": {
            "id": "13058172663",
            "osm_type": "node",
            "lat": 48.5371596,
            "lon": 12.1523851,
            "addr:housenumber": "357",
            "addr:street": "Altstadt",
            "check_date": "2025-08-08",
            "name": "Die Perle",
            "shop": "jewelry"
          },
          "geometry": {
            "type": "Point",
            "coordinates": [
              12.1523851,
              48.5371596
            ]
          }
        }
      ],
      "children": []
    },
    {
      "bbox": {
        "south": 48.355971499999995,
        "west": 12.392062499999998,
        "north": 48.68652475,
        "east": 13.345766
      },
      "poiCount": 9,
      "leafCount": 9,
      "averagePosition": [
        12.940886266666666,
        48.546843555555554
      ],
      "data": [
        {
          "type": "Feature",
          "properties": {
            "id": "1861321016",
            "osm_type": "node",
            "lat": 48.630609,
            "lon": 12.494658,
            "created_by": "iLOE 1.9",
            "name": "Beiderbeck",
            "shop": "jewelry"
          },
          "geometry": {
            "type": "Point",
            "coordinates": [
              12.494658,
              48.630609
            ]
          }
        },
        {
          "type": "Feature",
          "properties": {
            "id": "11404217430",
            "osm_type": "node",
            "lat": 48.6298885,
            "lon": 12.497459,
            "addr:city": "Dingolfing",
            "addr:country": "DE",
            "addr:housenumber": "8",
            "addr:postcode": "84130",
            "addr:street": "Lederergasse",
            "name": "Rauschegger",
            "shop": "jewelry",
            "website": "https://www.juwelier-rauschegger.de"
          },
          "geometry": {
            "type": "Point",
            "coordinates": [
              12.497459,
              48.6298885
            ]
          }
        },
        {
          "type": "Feature",
          "properties": {
            "id": "3233305803",
            "osm_type": "node",
            "lat": 48.5629056,
            "lon": 12.8158253,
            "name": "Kronwinkler",
            "shop": "jewelry"
          },
          "geometry": {
            "type": "Point",
            "coordinates": [
              12.8158253,
              48.5629056
            ]
          }
        },
        {
          "type": "Feature",
          "properties": {
            "id": "5888246484",
            "osm_type": "node",
            "lat": 48.4323245,
            "lon": 12.9389691,
            "addr:city": "Pfarrkirchen",
            "addr:country": "DE",
            "addr:housenumber": "19",
            "addr:postcode": "84347",
            "addr:street": "Stadtplatz",
            "name": "Maibaum",
            "opening_hours": "Mo-Fr 09:00-12:30,14:00-18:00; Sa 09:00-12:30",
            "operator": "Juwelier",
            "shop": "jewelry",
            "wheelchair": "yes"
          },
          "geometry": {
            "type": "Point",
            "coordinates": [
              12.9389691,
              48.4323245
            ]
          }
        },
        {
          "type": "Feature",
          "properties": {
            "id": "9994083020",
            "osm_type": "node",
            "lat": 48.4322187,
            "lon": 12.9397547,
            "addr:city": "Pfarrkirchen",
            "addr:country": "DE",
            "addr:housenumber": "24",
            "addr:postcode": "84347",
            "addr:street": "Stadtplatz",
            "name": "zier.de",
            "opening_hours": "We-Fr 10:00-18:00",
            "operator": "Petra Widermann",
            "shop": "jewelry"
          },
          "geometry": {
            "type": "Point",
            "coordinates": [
              12.9397547,
              48.4322187
            ]
          }
        },
        {
          "type": "Feature",
          "properties": {
            "id": "2391625371",
            "osm_type": "node",
            "lat": 48.6339677,
            "lon": 13.1861219,
            "check_date": "2023-09-22",
            "name": "Grätzer",
            "shop": "jewelry",
            "wheelchair": "yes"
          },
          "geometry": {
            "type": "Point",
            "coordinates": [
              13.1861219,
              48.6339677
            ]
          }
        },
        {
          "type": "Feature",
          "properties": {
            "id": "3358184102",
            "osm_type": "node",
            "lat": 48.633846,
            "lon": 13.1869867,
            "addr:city": "Vilshofen an der Donau",
            "addr:country": "DE",
            "addr:housenumber": "25",
            "addr:postcode": "94474",
            "addr:street": "Stadtplatz",
            "check_date": "2023-05-27",
            "name": "Luis Blank",
            "opening_hours": "Mo-Fr 09:00-12:30, 13:30-18:00; Sa 09:00-12:00",
            "shop": "jewelry",
            "website": "https://www.juwelier-blank.de/"
          },
          "geometry": {
            "type": "Point",
            "coordinates": [
              13.1869867,
              48.633846
            ]
          }
        },
        {
          "type": "Feature",
          "properties": {
            "id": "11603111796",
            "osm_type": "node",
            "lat": 48.5218871,
            "lon": 13.3173877,
            "name": "Hatzmann",
            "opening_hours": "Mo-Fr 08:30-12:00,13:30-18:00;Sa 08:30-12:30",
            "phone": "+94 8502 284",
            "shop": "jewelry",
            "website": "https://www.hatzmann.de/"
          },
          "geometry": {
            "type": "Point",
            "coordinates": [
              13.3173877,
              48.5218871
            ]
          }
        },
        {
          "type": "Feature",
          "properties": {
            "id": "12224085008",
            "osm_type": "node",
            "lat": 48.4439449,
            "lon": 13.090814,
            "addr:housenumber": "30",
            "addr:street": "Hofmark",
            "name": "Klemmeier",
            "opening_hours": "Mo-Fr 09:00-12:30; Mo, Tu, Th, Fr 14:00-17:00; Sa 09:00-12:00",
            "shop": "jewelry"
          },
          "geometry": {
            "type": "Point",
            "coordinates": [
              13.090814,
              48.4439449
            ]
          }
        }
      ],
      "children": []
    },
    {
      "bbox": {
        "south": 48.68652475,
        "west": 11.438358999999998,
        "north": 49.017078,
        "east": 12.392062499999998
      },
      "poiCount": 19,
      "leafCount": 19,
      "averagePosition": [
        12.03076092105263,
        48.945097789473685
      ],
      "data": [
        {
          "type": "Feature",
          "properties": {
            "id": "6926160340",
            "osm_type": "node",
            "lat": 48.8193214,
            "lon": 11.458637,
            "description": "Mineralien, Edelsteine, Schmuck",
            "name": "Gisela Brückl",
            "shop": "jewelry"
          },
          "geometry": {
            "type": "Point",
            "coordinates": [
              11.458637,
              48.8193214
            ]
          }
        },
        {
          "type": "Feature",
          "properties": {
            "id": "6988209991",
            "osm_type": "node",
            "lat": 48.7801504,
            "lon": 11.4385644,
            "addr:city": "Ingolstadt",
            "addr:housenumber": "2c",
            "addr:postcode": "85055",
            "addr:street": "Lena-Christ-Straße",
            "contact:phone": "+49 841 52990",
            "name": "Elfinger-Zellner",
            "shop": "jewelry",
            "wheelchair": "yes"
          },
          "geometry": {
            "type": "Point",
            "coordinates": [
              11.4385644,
              48.7801504
            ]
          }
        },
        {
          "type": "Feature",
          "properties": {
            "id": "8954863568",
            "osm_type": "node",
            "lat": 48.7838276,
            "lon": 11.4759579,
            "brand": "Swarovski",
            "brand:wikidata": "Q611115",
            "brand:wikipedia": "en:Swarovski",
            "name": "Swarovski",
            "opening_hours": "Mo-Sa 10:00-20:00; PH,Su off",
            "shop": "jewelry"
          },
          "geometry": {
            "type": "Point",
            "coordinates": [
              11.4759579,
              48.7838276
            ]
          }
        },
        {
          "type": "Feature",
          "properties": {
            "id": "4950379415",
            "osm_type": "node",
            "lat": 48.6935459,
            "lon": 12.2034213,
            "addr:city": "Ergoldsbach",
            "addr:country": "DE",
            "addr:housenumber": "43",
            "addr:postcode": "84061",
            "addr:street": "Hauptstraße",
            "disused:amenity": "pharmacy",
            "name": "Juwelier Brunner",
            "opening_hours": "Mo-Fr 09:30-17:00; Sa 09:30-12:00",
            "phone": "+49 8771 40 82 444",
            "shop": "jewelry",
            "website": "https://juwelier-brunner.de/"
          },
          "geometry": {
            "type": "Point",
            "coordinates": [
              12.2034213,
              48.6935459
            ]
          }
        },
        {
          "type": "Feature",
          "properties": {
            "id": "10543730309",
            "osm_type": "node",
            "lat": 48.795677,
            "lon": 12.3158248,
            "addr:housenumber": "13",
            "addr:street": "Landshuter Straße",
            "name": "Kronwitter GbR",
            "shop": "jewelry"
          },
          "geometry": {
            "type": "Point",
            "coordinates": [
              12.3158248,
              48.795677
            ]
          }
        },
        {
          "type": "Feature",
          "properties": {
            "id": "1393724050",
            "osm_type": "node",
            "lat": 49.0071263,
            "lon": 12.0621179,
            "addr:city": "Regensburg",
            "addr:country": "DE",
            "addr:housenumber": "45",
            "addr:postcode": "93051",
            "addr:street": "Dr.-Gessler-Straße",
            "layer": "1",
            "name": "Schmuckkasterl",
            "opening_hours": "Mo-Sa 9:30-20:00",
            "operator": "Josef Stahl",
            "phone": "+49 941 2 80 66 80",
            "shop": "jewelry"
          },
          "geometry": {
            "type": "Point",
            "coordinates": [
              12.0621179,
              49.0071263
            ]
          }
        },
        {
          "type": "Feature",
          "properties": {
            "id": "3072432560",
            "osm_type": "node",
            "lat": 48.9930112,
            "lon": 12.196531,
            "addr:city": "Neutraubling",
            "addr:country": "DE",
            "addr:housenumber": "43",
            "addr:postcode": "93073",
            "addr:street": "Sudetenstraße",
            "check_date": "2025-08-19",
            "name": "Trapp",
            "operator": "Joachim Trapp",
            "shop": "jewelry"
          },
          "geometry": {
            "type": "Point",
            "coordinates": [
              12.196531,
              48.9930112
            ]
          }
        },
        {
          "type": "Feature",
          "properties": {
            "id": "3770232326",
            "osm_type": "node",
            "lat": 49.0155807,
            "lon": 12.0980856,
            "name": "Eleganz Juwelier",
            "shop": "jewelry"
          },
          "geometry": {
            "type": "Point",
            "coordinates": [
              12.0980856,
              49.0155807
            ]
          }
        },
        {
          "type": "Feature",
          "properties": {
            "id": "4706568094",
            "osm_type": "node",
            "lat": 49.0107191,
            "lon": 12.0995643,
            "brand": "Bijou Brigitte",
            "brand:wikidata": "Q599545",
            "brand:wikipedia": "de:Bijou Brigitte",
            "check_date:opening_hours": "2021-08-16",
            "level": "0",
            "name": "Bijou Brigitte",
            "opening_hours": "Mo-Sa 09:30-20:00",
            "phone": "+49 941 5999231",
            "shop": "jewelry",
            "wheelchair": "yes"
          },
          "geometry": {
            "type": "Point",
            "coordinates": [
              12.0995643,
              49.0107191
            ]
          }
        },
        {
          "type": "Feature",
          "properties": {
            "id": "4706568104",
            "osm_type": "node",
            "lat": 49.0107217,
            "lon": 12.0987287,
            "check_date:opening_hours": "2021-08-16",
            "level": "0",
            "name": "Silver Moments",
            "opening_hours": "Mo-Sa 09:30-20:00",
            "phone": "+49 941 5840880",
            "shop": "jewelry"
          },
          "geometry": {
            "type": "Point",
            "coordinates": [
              12.0987287,
              49.0107217
            ]
          }
        },
        {
          "type": "Feature",
          "properties": {
            "id": "4706693938",
            "osm_type": "node",
            "lat": 49.010915,
            "lon": 12.0989433,
            "brand": "Christ",
            "brand:wikidata": "Q1077957",
            "brand:wikipedia": "de:Christ (Juwelier)",
            "level": "0",
            "name": "Christ",
            "opening_hours": "Mo-Sa 09:30-20:00",
            "phone": "+49 941 5676351",
            "shop": "jewelry"
          },
          "geometry": {
            "type": "Point",
            "coordinates": [
              12.0989433,
              49.010915
            ]
          }
        },
        {
          "type": "Feature",
          "properties": {
            "id": "4706693939",
            "osm_type": "node",
            "lat": 49.0109194,
            "lon": 12.0991418,
            "level": "0",
            "name": "Accessorize",
            "opening_hours": "Mo-Sa 09:30-20:00",
            "phone": "+49 941 58437703",
            "shop": "jewelry"
          },
          "geometry": {
            "type": "Point",
            "coordinates": [
              12.0991418,
              49.0109194
            ]
          }
        },
        {
          "type": "Feature",
          "properties": {
            "id": "6255728404",
            "osm_type": "node",
            "lat": 48.979981,
            "lon": 12.0650256,
            "contact:website": "https://goldstar-online.de/",
            "name": "Gold Star Schmuck und Uhren e.K.",
            "opening_hours": "Mo-Fr 09:00-18:30; Sa 09:00-18:00; PH off",
            "post_office": "post_partner",
            "post_office:brand": "Deutsche Post",
            "post_office:opening_hours": "Mo-Fr 09:00-17:00; Sa 09:00-15:00; PH off",
            "post_office:service_provider": "Deutsche Post",
            "post_office:service_provider:wikidata": "Q157645",
            "ref:DeutschePost": "506",
            "shop": "jewelry",
            "wheelchair": "yes"
          },
          "geometry": {
            "type": "Point",
            "coordinates": [
              12.0650256,
              48.979981
            ]
          }
        },
        {
          "type": "Feature",
          "properties": {
            "id": "6311208785",
            "osm_type": "node",
            "lat": 49.0167836,
            "lon": 12.0987911,
            "addr:city": "Regensburg",
            "addr:country": "DE",
            "addr:housenumber": "1",
            "addr:postcode": "93047",
            "addr:street": "Königsstraße",
            "check_date:opening_hours": "2025-04-03",
            "name": "Kommode",
            "opening_hours:signed": "no",
            "shop": "jewelry"
          },
          "geometry": {
            "type": "Point",
            "coordinates": [
              12.0987911,
              49.0167836
            ]
          }
        },
        {
          "type": "Feature",
          "properties": {
            "id": "6605655085",
            "osm_type": "node",
            "lat": 49.0167086,
            "lon": 12.0982846,
            "addr:housenumber": "2",
            "addr:street": "Königsstraße",
            "brand": "OROVIVO",
            "brand:wikidata": "Q107064745",
            "check_date:opening_hours": "2025-04-03",
            "name": "OROVIVO",
            "opening_hours": "Mo-Fr 09:30-19:00; Sa 09:30-18:00",
            "phone": "+49 941 55049",
            "shop": "jewelry",
            "website": "https://www.orovivo.de/",
            "wheelchair": "yes"
          },
          "geometry": {
            "type": "Point",
            "coordinates": [
              12.0982846,
              49.0167086
            ]
          }
        },
        {
          "type": "Feature",
          "properties": {
            "id": "6610558287",
            "osm_type": "node",
            "lat": 49.016584,
            "lon": 12.0991162,
            "addr:city": "Regensburg",
            "addr:country": "DE",
            "addr:housenumber": "8",
            "addr:postcode": "93047",
            "addr:street": "Königsstraße",
            "brand": "Pandora",
            "brand:wikidata": "Q2241604",
            "brand:wikipedia": "en:Pandora (jewelry)",
            "check_date:opening_hours": "2025-04-01",
            "name": "Pandora",
            "opening_hours": "Mo-Sa 10:00-19:00",
            "shop": "jewelry",
            "wheelchair": "yes"
          },
          "geometry": {
            "type": "Point",
            "coordinates": [
              12.0991162,
              49.016584
            ]
          }
        },
        {
          "type": "Feature",
          "properties": {
            "id": "9040876918",
            "osm_type": "node",
            "lat": 49.0168015,
            "lon": 12.0946094,
            "name": "Goldkistl Gold Silber Ankauf",
            "opening_hours": "\"nach Vereinbarung\"",
            "shop": "jewelry"
          },
          "geometry": {
            "type": "Point",
            "coordinates": [
              12.0946094,
              49.0168015
            ]
          }
        },
        {
          "type": "Feature",
          "properties": {
            "id": "9376629024",
            "osm_type": "node",
            "lat": 49.0165245,
            "lon": 12.0993623,
            "addr:city": "Regensburg",
            "addr:country": "DE",
            "addr:housenumber": "8",
            "addr:postcode": "93047",
            "addr:street": "Königsstraße",
            "brand": "Christ",
            "brand:wikidata": "Q1077957",
            "brand:wikipedia": "de:Christ (Juwelier)",
            "name": "Christ",
            "opening_hours": "Mo-Sa 09:30-18:30",
            "shop": "jewelry"
          },
          "geometry": {
            "type": "Point",
            "coordinates": [
              12.0993623,
              49.0165245
            ]
          }
        },
        {
          "type": "Feature",
          "properties": {
            "id": "12387348937",
            "osm_type": "node",
            "lat": 48.9619591,
            "lon": 12.3837503,
            "addr:city": "Pfatter",
            "addr:country": "DE",
            "addr:housenumber": "27",
            "addr:postcode": "93102",
            "addr:street": "Ringstraße",
            "name": "Zäch Feinste Juwelen GmbH",
            "phone": "+49 9481 240",
            "shop": "jewelry",
            "website": "https://www.zaech-juwelen.de/"
          },
          "geometry": {
            "type": "Point",
            "coordinates": [
              12.3837503,
              48.9619591
            ]
          }
        }
      ],
      "children": []
    },
    {
      "bbox": {
        "south": 48.68652475,
        "west": 12.392062499999998,
        "north": 49.017078,
        "east": 13.345766
      },
      "poiCount": 18,
      "leafCount": 18,
      "averagePosition": [
        12.796869866666666,
        48.87624392777778
      ],
      "data": [
        {
          "type": "Feature",
          "properties": {
            "id": "2341228511",
            "osm_type": "node",
            "lat": 48.8336495,
            "lon": 12.961247,
            "addr:city": "Deggendorf",
            "addr:housenumber": "8",
            "addr:street": "Bahnhofstraße",
            "contact:email": "juwelierkunz24@gmail.com",
            "contact:website": "https://www.juwelierkunz.de/",
            "name": "Juwelier Kunz",
            "old_name": "Juwelier Harant",
            "opening_hours": "Mo-Fr 09:00-18:00; Sa 09:00-13:00",
            "shop": "jewelry",
            "wheelchair": "limited"
          },
          "geometry": {
            "type": "Point",
            "coordinates": [
              12.961247,
              48.8336495
            ]
          }
        },
        {
          "type": "Feature",
          "properties": {
            "id": "2386586649",
            "osm_type": "node",
            "lat": 48.8336859,
            "lon": 12.9607735,
            "addr:city": "Deggendorf",
            "addr:country": "DE",
            "addr:housenumber": "16",
            "addr:postcode": "94469",
            "addr:street": "Bahnhofstraße",
            "name": "Uhren - Georg Meyer - Schmuck",
            "opening_hours": "Mo-Sa 08:30-12:30; Mo, Tu, Th, Fr 13:30-18:00",
            "shop": "jewelry"
          },
          "geometry": {
            "type": "Point",
            "coordinates": [
              12.9607735,
              48.8336859
            ]
          }
        },
        {
          "type": "Feature",
          "properties": {
            "id": "3170531884",
            "osm_type": "node",
            "lat": 48.8302891,
            "lon": 12.9624291,
            "addr:city": "Deggendorf",
            "addr:country": "DE",
            "addr:housenumber": "10",
            "addr:postcode": "94469",
            "addr:street": "Pferdemarkt",
            "check_date:opening_hours": "2024-07-11",
            "name": "Taepper Goldschmiedekunst",
            "opening_hours": "Mo-Sa 10:00-12:00, Mo,Tu,Th,Fr 15:00-17:00",
            "shop": "jewelry",
            "wheelchair": "limited"
          },
          "geometry": {
            "type": "Point",
            "coordinates": [
              12.9624291,
              48.8302891
            ]
          }
        },
        {
          "type": "Feature",
          "properties": {
            "id": "5896708675",
            "osm_type": "node",
            "lat": 48.8333466,
            "lon": 12.9623999,
            "addr:city": "Deggendorf",
            "addr:housenumber": "3",
            "addr:postcode": "94469",
            "addr:street": "Luitpoldplatz",
            "brand": "Bijou Brigitte",
            "brand:wikidata": "Q599545",
            "contact:website": "https://www.bijou-brigitte.com",
            "name": "Bijou Brigitte",
            "old:name": "Lipp",
            "payment:credit_cards": "yes",
            "payment:debit_cards": "yes",
            "shop": "jewelry",
            "wheelchair": "yes"
          },
          "geometry": {
            "type": "Point",
            "coordinates": [
              12.9623999,
              48.8333466
            ]
          }
        },
        {
          "type": "Feature",
          "properties": {
            "id": "6114073885",
            "osm_type": "node",
            "lat": 48.8308027,
            "lon": 12.9630227,
            "addr:housenumber": "35",
            "addr:postcode": "94469",
            "addr:street": "Östlicher Stadtgraben",
            "email": "info@bms-schmuck.de",
            "name": "BMS Schmuck & kunstobjekte",
            "opening_hours": "Tu-Fr 10:00-18:00; Sa 10:00-13:00",
            "operator": "Barbara Murauer Schadenfroh",
            "phone": "+491631744421",
            "shop": "jewelry",
            "website": "https://www.bms-schmuck.de/"
          },
          "geometry": {
            "type": "Point",
            "coordinates": [
              12.9630227,
              48.8308027
            ]
          }
        },
        {
          "type": "Feature",
          "properties": {
            "id": "6750276860",
            "osm_type": "node",
            "lat": 48.8333095,
            "lon": 12.9647254,
            "addr:housenumber": "30",
            "addr:street": "Pfleggasse",
            "contact:website": "http://ke-schmuck.de/",
            "name": "KE Schmuck",
            "opening_hours": "Tu-Fr 10:00-18:00; Sa 10:00-13:00",
            "operator": "Kirsten Plank",
            "shop": "jewelry",
            "wheelchair": "yes"
          },
          "geometry": {
            "type": "Point",
            "coordinates": [
              12.9647254,
              48.8333095
            ]
          }
        },
        {
          "type": "Feature",
          "properties": {
            "id": "11362558124",
            "osm_type": "node",
            "lat": 48.8361569,
            "lon": 12.9618868,
            "addr:housenumber": "4",
            "addr:street": "Graflinger Straße",
            "contact:phone": "+4999137921500",
            "craft": "jeweller",
            "name": "Galerie Böckman",
            "shop": "jewelry"
          },
          "geometry": {
            "type": "Point",
            "coordinates": [
              12.9618868,
              48.8361569
            ]
          }
        },
        {
          "type": "Feature",
          "properties": {
            "id": "413435918",
            "osm_type": "node",
            "lat": 48.8818216,
            "lon": 12.5698296,
            "addr:city": "Straubing",
            "addr:postcode": "94315",
            "description": "Juwelier",
            "name": "Goldschmiede Hrubey",
            "shop": "jewelry"
          },
          "geometry": {
            "type": "Point",
            "coordinates": [
              12.5698296,
              48.8818216
            ]
          }
        },
        {
          "type": "Feature",
          "properties": {
            "id": "413436188",
            "osm_type": "node",
            "lat": 48.8820797,
            "lon": 12.569735,
            "addr:city": "Straubing",
            "addr:country": "DE",
            "addr:housenumber": "1",
            "addr:postcode": "94315",
            "addr:street": "Ludwigsplatz",
            "brand": "OROVIVO",
            "brand:wikidata": "Q107064745",
            "name": "OROVIVO",
            "shop": "jewelry"
          },
          "geometry": {
            "type": "Point",
            "coordinates": [
              12.569735,
              48.8820797
            ]
          }
        },
        {
          "type": "Feature",
          "properties": {
            "id": "413451691",
            "osm_type": "node",
            "lat": 48.8819262,
            "lon": 12.568566,
            "addr:city": "Straubing",
            "addr:postcode": "94315",
            "check_date": "2024-09-21",
            "name": "Jacob Leser",
            "shop": "jewelry"
          },
          "geometry": {
            "type": "Point",
            "coordinates": [
              12.568566,
              48.8819262
            ]
          }
        },
        {
          "type": "Feature",
          "properties": {
            "id": "2373898318",
            "osm_type": "node",
            "lat": 48.88125,
            "lon": 12.566401,
            "addr:city": "Straubing",
            "addr:country": "DE",
            "addr:housenumber": "41",
            "addr:postcode": "94315",
            "addr:street": "Theresienplatz",
            "name": "Schmuch & design",
            "shop": "jewelry"
          },
          "geometry": {
            "type": "Point",
            "coordinates": [
              12.566401,
              48.88125
            ]
          }
        },
        {
          "type": "Feature",
          "properties": {
            "id": "3597925085",
            "osm_type": "node",
            "lat": 48.8756141,
            "lon": 12.5745988,
            "addr:city": "Straubing",
            "addr:country": "DE",
            "addr:housenumber": "14",
            "addr:postcode": "94315",
            "addr:street": "Hebbelstraße",
            "email": "info@schmuckdepot-newline.de",
            "fax": "+49 9421 3483",
            "name": "Schmuckdepot Newline",
            "opening_hours": "Mo-Sa 09:00-19:00",
            "phone": "+49 9421 3481",
            "ref": "B11",
            "shop": "jewelry"
          },
          "geometry": {
            "type": "Point",
            "coordinates": [
              12.5745988,
              48.8756141
            ]
          }
        },
        {
          "type": "Feature",
          "properties": {
            "id": "3598116020",
            "osm_type": "node",
            "lat": 48.8808461,
            "lon": 12.5639491,
            "addr:city": "Straubing",
            "addr:postcode": "94315",
            "brand": "Christ",
            "brand:wikidata": "Q1077957",
            "brand:wikipedia": "de:Christ (Juwelier)",
            "check_date": "2025-04-21",
            "contact:facebook": "https://fb.com/juwelierchrist",
            "contact:instagram": "https://instagram.com/christ_juweliere",
            "name": "Christ",
            "shop": "jewelry",
            "website": "https://christ.de"
          },
          "geometry": {
            "type": "Point",
            "coordinates": [
              12.5639491,
              48.8808461
            ]
          }
        },
        {
          "type": "Feature",
          "properties": {
            "id": "3623890109",
            "osm_type": "node",
            "lat": 48.8818552,
            "lon": 12.569415,
            "addr:city": "Straubing",
            "addr:postcode": "94315",
            "check_date": "2024-09-21",
            "name": "Andreas Seemann Uhrmachermeister",
            "shop": "jewelry"
          },
          "geometry": {
            "type": "Point",
            "coordinates": [
              12.569415,
              48.8818552
            ]
          }
        },
        {
          "type": "Feature",
          "properties": {
            "id": "5321080305",
            "osm_type": "node",
            "lat": 48.9067693,
            "lon": 12.6920534,
            "name": "Allessandro Nagelstudio, Schmuckatelier",
            "shop": "jewelry",
            "survey:date": "2018-01-04"
          },
          "geometry": {
            "type": "Point",
            "coordinates": [
              12.6920534,
              48.9067693
            ]
          }
        },
        {
          "type": "Feature",
          "properties": {
            "id": "9212288975",
            "osm_type": "node",
            "lat": 48.8821614,
            "lon": 12.5716132,
            "addr:city": "Straubing",
            "addr:postcode": "94315",
            "brand": "123GOLD",
            "contact:facebook": "https://fb.com/123gold.de",
            "contact:instagram": "https://instagram.com/123gold_official",
            "name": "123gold.de Trauringzentrum",
            "shop": "jewelry",
            "website": "https://123gold.de"
          },
          "geometry": {
            "type": "Point",
            "coordinates": [
              12.5716132,
              48.8821614
            ]
          }
        },
        {
          "type": "Feature",
          "properties": {
            "id": "3049029195",
            "osm_type": "node",
            "lat": 49.0149634,
            "lon": 13.2273638,
            "addr:city": "Zwiesel",
            "addr:country": "DE",
            "addr:housenumber": "15",
            "addr:postcode": "94227",
            "addr:street": "Dr.-Schott-Straße",
            "check_date:opening_hours": "2021-09-20",
            "name": "Schierer",
            "note": "Uhren/Optik",
            "opening_hours": "Mo-Fr 09:00-12:30,14:00-18:00; Sa 09:00-12:00",
            "shop": "jewelry",
            "wheelchair": "limited"
          },
          "geometry": {
            "type": "Point",
            "coordinates": [
              13.2273638,
              49.0149634
            ]
          }
        },
        {
          "type": "Feature",
          "properties": {
            "id": "13087096347",
            "osm_type": "node",
            "lat": 48.9718635,
            "lon": 13.1336483,
            "level": "0",
            "name": "Der Juwelier",
            "shop": "jewelry"
          },
          "geometry": {
            "type": "Point",
            "coordinates": [
              13.1336483,
              48.9718635
            ]
          }
        }
      ],
      "children": []
    }
  ]
}