{
  "bbox": {
    "south": 47.033758500000005,
    "west": 15.253173,
    "north": 47.694865,
    "east": 17.16058
  },
  "poiCount": 75,
  "leafCount": 0,
  "averagePosition": [
    15.676068872,
    47.18557065866666
  ],
  "data": [],
  "children": [
    {
      "bbox": {
        "south": 47.033758500000005,
        "west": 15.253173,
        "north": 47.36431175,
        "east": 16.2068765
      },
      "poiCount": 59,
      "leafCount": 0,
      "averagePosition": [
        15.531710840677965,
        47.10832645254237
      ],
      "data": [],
      "children": [
        {
          "bbox": {
            "south": 47.033758500000005,
            "west": 15.253173,
            "north": 47.199035125,
            "east": 15.73002475
          },
          "poiCount": 47,
          "leafCount": 47,
          "averagePosition": [
            15.461009276595744,
            47.07386586808511
          ],
          "data": [
            {
              "type": "Feature",
              "properties": {
                "id": "852798091",
                "osm_type": "node",
                "lat": 47.0714089,
                "lon": 15.4383223,
                "addr:city": "Graz",
                "addr:country": "AT",
                "addr:housenumber": "13",
                "addr:postcode": "8010",
                "addr:street": "Hauptplatz",
                "check_date": "2023-10-05",
                "contact:email": "office@weikhard.at",
                "contact:phone": "+43 316 822182",
                "name": "Weikhard",
                "opening_hours": "Mo-Fr 09:30-18:00; Sa 09:30-13:00",
                "payment:credit_cards": "yes",
                "payment:debit_cards": "yes",
                "shop": "jewelry",
                "website": "https://weikhard.at/pages/kontakt",
                "wheelchair": "limited"
              },
              "geometry": {
                "type": "Point",
                "coordinates": [
                  15.4383223,
                  47.0714089
                ]
              }
            },
            {
              "type": "Feature",
              "properties": {
                "id": "885451455",
                "osm_type": "node",
                "lat": 47.0701669,
                "lon": 15.4380219,
                "addr:city": "Graz",
                "addr:housenumber": "2",
                "addr:postcode": "8010",
                "addr:street": "Schmiedgasse",
                "name": "Löschnigg Gold- & Silberschmiede - Juwelier Evangelist",
                "opening_hours": "Mo-Fr 10:00-13:00,14:00-17:00",
                "shop": "jewelry"
              },
              "geometry": {
                "type": "Point",
                "coordinates": [
                  15.4380219,
                  47.0701669
                ]
              }
            },
            {
              "type": "Feature",
              "properties": {
                "id": "1099712258",
                "osm_type": "node",
                "lat": 47.0685423,
                "lon": 15.4403165,
                "addr:city": "Graz",
                "addr:country": "AT",
                "addr:housenumber": "6",
                "addr:postcode": "8010",
                "addr:street": "Stubenberggasse",
                "check_date": "2024-03-21",
                "contact:email": "uhren.amberger@inode.at",
                "contact:fax": "+43 316 811786",
                "contact:phone": "+43 316 829827",
                "description": "Uhren - Schmuck",
                "name": "Amberger",
                "opening_hours": "Mo-Fr 08:00-18:00; Sa 08:30-12:00",
                "operator": "Friedrich Amberger",
                "shop": "jewelry",
                "source": "survey",
                "website": "https://www.uhren-amberger.at/",
                "wheelchair": "no"
              },
              "geometry": {
                "type": "Point",
                "coordinates": [
                  15.4403165,
                  47.0685423
                ]
              }
            },
            {
              "type": "Feature",
              "properties": {
                "id": "1133927849",
                "osm_type": "node",
                "lat": 47.0690533,
                "lon": 15.4412793,
                "addr:city": "Graz",
                "addr:country": "AT",
                "addr:housenumber": "23",
                "addr:postcode": "8010",
                "addr:street": "Herrengasse",
                "check_date:opening_hours": "2022-11-12",
                "name": "Juwelier Schreiner",
                "opening_hours": "Mo-Sa 09:30-18:00",
                "shop": "jewelry",
                "source": "survey"
              },
              "geometry": {
                "type": "Point",
                "coordinates": [
                  15.4412793,
                  47.0690533
                ]
              }
            },
            {
              "type": "Feature",
              "properties": {
                "id": "1552832128",
                "osm_type": "node",
                "lat": 47.0715635,
                "lon": 15.4380585,
                "addr:city": "Graz",
                "addr:country": "AT",
                "addr:housenumber": "11",
                "addr:postcode": "8010",
                "addr:street": "Hauptplatz",
                "brand": "Swarovski",
                "brand:wikidata": "Q611115",
                "brand:wikipedia": "en:Swarovski",
                "name": "Swarovski",
                "opening_hours": "Mo-Fr 10:00-18:30; Sa 10:00-18:00",
                "shop": "jewelry",
                "wheelchair": "limited"
              },
              "geometry": {
                "type": "Point",
                "coordinates": [
                  15.4380585,
                  47.0715635
                ]
              }
            },
            {
              "type": "Feature",
              "properties": {
                "id": "1682110734",
                "osm_type": "node",
                "lat": 47.0716778,
                "lon": 15.4382708,
                "addr:city": "Graz",
                "addr:country": "AT",
                "addr:housenumber": "2",
                "addr:postcode": "8010",
                "addr:street": "Sporgasse",
                "description": "Uhren - Juwelen",
                "last_checked": "2016-07-10",
                "name": "Täubel",
                "opening_hours": "Mo-Fr 09:00-16:00; Sa 09:00-14:00",
                "shop": "jewelry",
                "source": "survey"
              },
              "geometry": {
                "type": "Point",
                "coordinates": [
                  15.4382708,
                  47.0716778
                ]
              }
            },
            {
              "type": "Feature",
              "properties": {
                "id": "1682110736",
                "osm_type": "node",
                "lat": 47.068491,
                "lon": 15.4407754,
                "addr:city": "Graz",
                "addr:country": "AT",
                "addr:housenumber": "5",
                "addr:postcode": "8010",
                "addr:street": "Stubenberggasse",
                "last_checked": "2016-07-10",
                "name": "h. künegger",
                "shop": "jewelry",
                "source": "survey",
                "wheelchair": "no"
              },
              "geometry": {
                "type": "Point",
                "coordinates": [
                  15.4407754,
                  47.068491
                ]
              }
            },
            {
              "type": "Feature",
              "properties": {
                "id": "1684698862",
                "osm_type": "node",
                "lat": 47.071764,
                "lon": 15.4380936,
                "addr:city": "Graz",
                "addr:country": "AT",
                "addr:housenumber": "3",
                "addr:postcode": "8010",
                "addr:street": "Sporgasse",
                "check_date": "2025-09-03",
                "check_date:opening_hours": "2022-07-09",
                "contact:phone": "+43 316 844000",
                "level": "0",
                "name": "newone",
                "opening_hours": "Mo-Fr 09:30-18:00; Sa 09:30-17:00",
                "operator": "Schullin",
                "shop": "jewelry",
                "source": "survey",
                "website": "www.newone.at",
                "wheelchair": "yes"
              },
              "geometry": {
                "type": "Point",
                "coordinates": [
                  15.4380936,
                  47.071764
                ]
              }
            },
            {
              "type": "Feature",
              "properties": {
                "id": "1684699149",
                "osm_type": "node",
                "lat": 47.0723652,
                "lon": 15.4389818,
                "addr:city": "Graz",
                "addr:country": "AT",
                "addr:housenumber": "18",
                "addr:postcode": "8010",
                "addr:street": "Sporgasse",
                "check_date:opening_hours": "2025-09-10",
                "contact:email": "office@tiktakgraz.at",
                "contact:website": "https://tiktakgraz.at/",
                "description": "Uhren - Schmuckfachhandel Reparaturservice",
                "name": "tik tak",
                "opening_hours": "Mo-Fr 10:00-13:30,14:00-18:00; Sa 10:00-17:00",
                "phone": "+43 316 822250",
                "shop": "jewelry",
                "source": "survey",
                "wheelchair": "no"
              },
              "geometry": {
                "type": "Point",
                "coordinates": [
                  15.4389818,
                  47.0723652
                ]
              }
            },
            {
              "type": "Feature",
              "properties": {
                "id": "1878440544",
                "osm_type": "node",
                "lat": 47.0727535,
                "lon": 15.439411,
                "addr:city": "Graz",
                "addr:country": "AT",
                "addr:housenumber": "26",
                "addr:postcode": "8010",
                "addr:street": "Sporgasse",
                "name": "il Bijoux",
                "old_name": "amea",
                "opening_hours": "Tu-Fr 11:00-18:00; Sa 11:00-17:00; PH,Su,Mo off",
                "shop": "jewelry",
                "source": "survey"
              },
              "geometry": {
                "type": "Point",
                "coordinates": [
                  15.439411,
                  47.0727535
                ]
              }
            },
            {
              "type": "Feature",
              "properties": {
                "id": "1978233064",
                "osm_type": "node",
                "lat": 47.0709285,
                "lon": 15.4291523,
                "addr:city": "Graz",
                "addr:country": "AT",
                "addr:housenumber": "19",
                "addr:postcode": "8020",
                "addr:street": "Annenstraße",
                "check_date": "2025-09-03",
                "contact:phone": "+43 316 71 44 38",
                "name": "Uhren Miksche",
                "opening_hours": "Mo-Fr 08:30-18:00; Sa 08:30-13:00",
                "shop": "jewelry",
                "wheelchair": "no"
              },
              "geometry": {
                "type": "Point",
                "coordinates": [
                  15.4291523,
                  47.0709285
                ]
              }
            },
            {
              "type": "Feature",
              "properties": {
                "id": "1978233074",
                "osm_type": "node",
                "lat": 47.0685599,
                "lon": 15.4396069,
                "addr:city": "Graz",
                "addr:country": "AT",
                "addr:housenumber": "23",
                "addr:postcode": "8010",
                "addr:street": "Schmiedgasse",
                "name": "Ethnothek",
                "opening_hours": "Mo-Fr 09:30-13:30,14:00-18:00; Sa 10:00-18:00",
                "payment:credit_cards": "yes",
                "payment:debit_cards": "yes",
                "shop": "jewelry",
                "source": "data.graz.gv.at",
                "surveillance": "indoor",
                "wheelchair": "yes"
              },
              "geometry": {
                "type": "Point",
                "coordinates": [
                  15.4396069,
                  47.0685599
                ]
              }
            },
            {
              "type": "Feature",
              "properties": {
                "id": "2387608617",
                "osm_type": "node",
                "lat": 47.0719305,
                "lon": 15.4337093,
                "addr:city": "Graz",
                "addr:country": "AT",
                "addr:housenumber": "12",
                "addr:postcode": "8020",
                "addr:street": "Mariahilferstraße",
                "description": "antikes",
                "name": "Mesitz",
                "opening_hours": "Mo-Th 08:00-12:00,14:00-17:00; Fr 08:00-12:00",
                "shop": "jewelry",
                "source": "survey"
              },
              "geometry": {
                "type": "Point",
                "coordinates": [
                  15.4337093,
                  47.0719305
                ]
              }
            },
            {
              "type": "Feature",
              "properties": {
                "id": "2798759892",
                "osm_type": "node",
                "lat": 47.0548982,
                "lon": 15.4738791,
                "addr:city": "Graz",
                "addr:housenumber": "83a",
                "addr:postcode": "8042",
                "addr:street": "Sankt-Peter-Hauptstraße",
                "name": "Gold- & Silberankauf Graz-Linz",
                "shop": "jewelry"
              },
              "geometry": {
                "type": "Point",
                "coordinates": [
                  15.4738791,
                  47.0548982
                ]
              }
            },
            {
              "type": "Feature",
              "properties": {
                "id": "2930097698",
                "osm_type": "node",
                "lat": 47.0724901,
                "lon": 15.4392692,
                "name": "Hofring",
                "shop": "jewelry",
                "website": "https://www.hofring.at/",
                "wheelchair": "yes"
              },
              "geometry": {
                "type": "Point",
                "coordinates": [
                  15.4392692,
                  47.0724901
                ]
              }
            },
            {
              "type": "Feature",
              "properties": {
                "id": "2934254099",
                "osm_type": "node",
                "lat": 47.0686265,
                "lon": 15.4395522,
                "addr:city": "Graz",
                "addr:country": "AT",
                "addr:housenumber": "21",
                "addr:postcode": "8010",
                "addr:street": "Schmiedgasse",
                "check_date:opening_hours": "2022-04-27",
                "description": "Antiquitäten, Schmuck",
                "name": "Bobik",
                "old_name": "Dr. Bobik",
                "opening_hours": "We 15:00-18:00, Th,Fr 10:00-13:00,15:00-18:00, Sa 11:00-14:00",
                "operator": "Maria Wagner-Sark",
                "shop": "jewelry",
                "source": "survey",
                "wheelchair": "yes"
              },
              "geometry": {
                "type": "Point",
                "coordinates": [
                  15.4395522,
                  47.0686265
                ]
              }
            },
            {
              "type": "Feature",
              "properties": {
                "id": "2980071613",
                "osm_type": "node",
                "lat": 47.0706535,
                "lon": 15.4375503,
                "addr:city": "Graz",
                "addr:country": "AT",
                "addr:housenumber": "4",
                "addr:postcode": "8010",
                "addr:street": "Neue-Welt-Gasse",
                "description": "Trauring Lounge",
                "name": "123gold Trauring-Lounge Graz",
                "opening_hours": "Mo-Fr 10:00-18:00; Sa 10:00-16:00",
                "shop": "jewelry",
                "website": "https://www.123gold.at/trauringe-graz.html",
                "wheelchair": "limited"
              },
              "geometry": {
                "type": "Point",
                "coordinates": [
                  15.4375503,
                  47.0706535
                ]
              }
            },
            {
              "type": "Feature",
              "properties": {
                "id": "3048134040",
                "osm_type": "node",
                "lat": 47.0713161,
                "lon": 15.4394871,
                "addr:city": "Graz",
                "addr:country": "AT",
                "addr:housenumber": "2",
                "addr:postcode": "8010",
                "addr:street": "Prokopigasse",
                "name": "Koss",
                "shop": "jewelry"
              },
              "geometry": {
                "type": "Point",
                "coordinates": [
                  15.4394871,
                  47.0713161
                ]
              }
            },
            {
              "type": "Feature",
              "properties": {
                "id": "3048134051",
                "osm_type": "node",
                "lat": 47.0718329,
                "lon": 15.4396176,
                "addr:city": "Graz",
                "addr:country": "AT",
                "addr:housenumber": "11",
                "addr:postcode": "8010",
                "addr:street": "Färbergasse",
                "name": "Richter",
                "opening_hours": "Mo-Fr 10:00-13:00,15:00-18:00; Sa 10:00-13:00",
                "shop": "jewelry",
                "source": "survey"
              },
              "geometry": {
                "type": "Point",
                "coordinates": [
                  15.4396176,
                  47.0718329
                ]
              }
            },
            {
              "type": "Feature",
              "properties": {
                "id": "3191379801",
                "osm_type": "node",
                "lat": 47.0739347,
                "lon": 15.4313718,
                "addr:city": "Graz",
                "addr:country": "AT",
                "addr:housenumber": "7",
                "addr:postcode": "8020",
                "addr:street": "Josefigasse",
                "contact:email": "office@feichtinger.biz",
                "contact:phone": "+43 5 9887-0",
                "name": "Feichtinger Schmuckhandel",
                "opening_hours": "Mo-Fr 09:00-18:00; Sa 09:00-13:00",
                "operator": "Feichtinger Schmuckhandels GmbH",
                "shop": "jewelry",
                "website": "https://www.feichtinger.biz/",
                "wheelchair": "yes"
              },
              "geometry": {
                "type": "Point",
                "coordinates": [
                  15.4313718,
                  47.0739347
                ]
              }
            },
            {
              "type": "Feature",
              "properties": {
                "id": "3534219915",
                "osm_type": "node",
                "lat": 47.0707373,
                "lon": 15.4392976,
                "addr:city": "Graz",
                "addr:country": "AT",
                "addr:housenumber": "3",
                "addr:postcode": "8010",
                "addr:street": "Herrengasse",
                "name": "Schullin",
                "opening_hours": "Mo-Fr 09:30-13:00,14:00-18:00; Sa 09:30-17:00",
                "payment:credit_cards": "yes",
                "payment:debit_cards": "yes",
                "shop": "jewelry",
                "wheelchair": "yes"
              },
              "geometry": {
                "type": "Point",
                "coordinates": [
                  15.4392976,
                  47.0707373
                ]
              }
            },
            {
              "type": "Feature",
              "properties": {
                "id": "3931240207",
                "osm_type": "node",
                "lat": 47.0719505,
                "lon": 15.4499389,
                "check_date": "2023-08-13",
                "contact:phone": "+43 316 34 89 81",
                "contact:website": "www.muehlbauer-uhren.at",
                "full_name": "Mühlbauer Uhren und Schmuck, Goldschmied",
                "level": "0",
                "name": "Uhren Goldschmied",
                "opening_hours": "Mo-Fr 09:00-12:30,14:30-18:00; Sa off",
                "shop": "jewelry",
                "wheelchair": "no"
              },
              "geometry": {
                "type": "Point",
                "coordinates": [
                  15.4499389,
                  47.0719505
                ]
              }
            },
            {
              "type": "Feature",
              "properties": {
                "id": "3951499242",
                "osm_type": "node",
                "lat": 47.0735416,
                "lon": 15.4363013,
                "addr:city": "Graz",
                "addr:country": "AT",
                "addr:housenumber": "26",
                "addr:postcode": "8010",
                "addr:street": "Sackstraße",
                "name": "GOLDZANDER - Juwelier im Zanderhof",
                "opening_hours": "Tu-Th 09:00-12:00; Fr 09:00-12:00,15:00-18:00; Sa 09:30-13:30",
                "operator": "Renate Winkler",
                "phone": "+43 669 17140570",
                "shop": "jewelry",
                "website": "https://www.goldzander.at/"
              },
              "geometry": {
                "type": "Point",
                "coordinates": [
                  15.4363013,
                  47.0735416
                ]
              }
            },
            {
              "type": "Feature",
              "properties": {
                "id": "4026956499",
                "osm_type": "node",
                "lat": 47.067638,
                "lon": 15.4466632,
                "addr:city": "Graz",
                "addr:country": "AT",
                "addr:housenumber": "3",
                "addr:postcode": "8010",
                "addr:street": "Schlögelgasse",
                "name": "Zechner",
                "opening_hours": "Mo,Tu,Fr 09:00-16:00; We,Th 09:00-14:00",
                "shop": "jewelry",
                "source": "survey",
                "wheelchair": "no"
              },
              "geometry": {
                "type": "Point",
                "coordinates": [
                  15.4466632,
                  47.067638
                ]
              }
            },
            {
              "type": "Feature",
              "properties": {
                "id": "4221673492",
                "osm_type": "node",
                "lat": 47.0718862,
                "lon": 15.4390334,
                "name": "Richter",
                "shop": "jewelry",
                "wheelchair": "limited"
              },
              "geometry": {
                "type": "Point",
                "coordinates": [
                  15.4390334,
                  47.0718862
                ]
              }
            },
            {
              "type": "Feature",
              "properties": {
                "id": "4232500122",
                "osm_type": "node",
                "lat": 47.0672763,
                "lon": 15.4394246,
                "name": "Zaim",
                "shop": "jewelry"
              },
              "geometry": {
                "type": "Point",
                "coordinates": [
                  15.4394246,
                  47.0672763
                ]
              }
            },
            {
              "type": "Feature",
              "properties": {
                "id": "4241461901",
                "osm_type": "node",
                "lat": 47.0573937,
                "lon": 15.4714604,
                "name": "Kummer",
                "opening_hours": "Mo-Fr 09:00-18:00; Sa 08:00-12:00",
                "shop": "jewelry"
              },
              "geometry": {
                "type": "Point",
                "coordinates": [
                  15.4714604,
                  47.0573937
                ]
              }
            },
            {
              "type": "Feature",
              "properties": {
                "id": "4297207302",
                "osm_type": "node",
                "lat": 47.0740199,
                "lon": 15.435283,
                "addr:city": "Graz",
                "addr:country": "AT",
                "addr:housenumber": "29",
                "addr:postcode": "8010",
                "addr:street": "Sackstraße",
                "name": "Goldway",
                "shop": "jewelry",
                "source": "survey",
                "wheelchair": "yes"
              },
              "geometry": {
                "type": "Point",
                "coordinates": [
                  15.435283,
                  47.0740199
                ]
              }
            },
            {
              "type": "Feature",
              "properties": {
                "id": "4297207385",
                "osm_type": "node",
                "lat": 47.073044,
                "lon": 15.4358667,
                "addr:city": "Graz",
                "addr:country": "AT",
                "addr:housenumber": "19",
                "addr:postcode": "8010",
                "addr:street": "Sackstraße",
                "name": "123 GOLD Trauring Lounge",
                "opening_hours": "Tu-Fr 10:00-18:00; Sa 10:00-16:00",
                "shop": "jewelry"
              },
              "geometry": {
                "type": "Point",
                "coordinates": [
                  15.4358667,
                  47.073044
                ]
              }
            },
            {
              "type": "Feature",
              "properties": {
                "id": "4298812386",
                "osm_type": "node",
                "lat": 47.0704955,
                "lon": 15.4415952,
                "addr:city": "Graz",
                "addr:country": "AT",
                "addr:housenumber": "5",
                "addr:postcode": "8010",
                "addr:street": "Bischofplatz",
                "name": "Hadler",
                "shop": "jewelry"
              },
              "geometry": {
                "type": "Point",
                "coordinates": [
                  15.4415952,
                  47.0704955
                ]
              }
            },
            {
              "type": "Feature",
              "properties": {
                "id": "4298815829",
                "osm_type": "node",
                "lat": 47.0714325,
                "lon": 15.4371539,
                "name": "NUB Schmuckwerkstatt",
                "outdoor_seating": "no",
                "shop": "jewelry"
              },
              "geometry": {
                "type": "Point",
                "coordinates": [
                  15.4371539,
                  47.0714325
                ]
              }
            },
            {
              "type": "Feature",
              "properties": {
                "id": "4298815831",
                "osm_type": "node",
                "lat": 47.070171,
                "lon": 15.4429197,
                "name": "R. Leykauf",
                "opening_hours": "Mo-Fr 08:00-13:00,14:00-18:00; Sa 09:30-13:00",
                "shop": "jewelry",
                "wheelchair": "no"
              },
              "geometry": {
                "type": "Point",
                "coordinates": [
                  15.4429197,
                  47.070171
                ]
              }
            },
            {
              "type": "Feature",
              "properties": {
                "id": "5114886974",
                "osm_type": "node",
                "lat": 47.0702817,
                "lon": 15.440073,
                "addr:city": "Graz",
                "addr:country": "AT",
                "addr:housenumber": "11",
                "addr:postcode": "8010",
                "addr:street": "Stempfergasse",
                "contact:phone": "+43 316 832229",
                "last_checked": "2017-09-19",
                "name": "Juwelier Gressl",
                "opening_hours": "Mo-Fr 09:30-13:00, 14:00-18:00; Sa 10:00-17:00",
                "shop": "jewelry",
                "website": "https://www.gressl.com/",
                "wheelchair": "no"
              },
              "geometry": {
                "type": "Point",
                "coordinates": [
                  15.440073,
                  47.0702817
                ]
              }
            },
            {
              "type": "Feature",
              "properties": {
                "id": "5255323344",
                "osm_type": "node",
                "lat": 47.0725547,
                "lon": 15.439386,
                "name": "Hofring",
                "shop": "jewelry",
                "wheelchair": "yes"
              },
              "geometry": {
                "type": "Point",
                "coordinates": [
                  15.439386,
                  47.0725547
                ]
              }
            },
            {
              "type": "Feature",
              "properties": {
                "id": "6441574610",
                "osm_type": "node",
                "lat": 47.0720221,
                "lon": 15.4483087,
                "addr:city": "Graz",
                "addr:country": "AT",
                "addr:housenumber": "6",
                "addr:postcode": "8010",
                "addr:street": "Leonhardstraße",
                "contact:phone": "+43 316 372 233",
                "full_name": "Mühlbauer Uhren & Schmuck",
                "name": "Mühlbauer",
                "opening_hours": "Tu-We 08:00-12:30,15:00-17:00",
                "operator": "Robert Mühlbauer; Fritz Mühlbauer",
                "shop": "jewelry",
                "start_date": "1864",
                "website": "https://muehlbauer-uhren.at/"
              },
              "geometry": {
                "type": "Point",
                "coordinates": [
                  15.4483087,
                  47.0720221
                ]
              }
            },
            {
              "type": "Feature",
              "properties": {
                "id": "6697376780",
                "osm_type": "node",
                "lat": 47.0713611,
                "lon": 15.4368224,
                "addr:city": "Graz",
                "addr:country": "AT",
                "addr:housenumber": "8",
                "addr:postcode": "8010",
                "addr:street": "Murgasse",
                "contact:email": "juwelier@kreuzig.at",
                "contact:phone": "+43 316 82 60 32",
                "contact:website": "www.kreuzig.at",
                "level": "0",
                "name": "Goldschmiede Kreuzig",
                "opening_hours": "Mo-Fr 09:00-13:00,14:30-18:00; Sa 09:00-12:30",
                "operator": "Rudolf Kreuzig",
                "shop": "jewelry",
                "start_date": "1905",
                "wheelchair": "limited"
              },
              "geometry": {
                "type": "Point",
                "coordinates": [
                  15.4368224,
                  47.0713611
                ]
              }
            },
            {
              "type": "Feature",
              "properties": {
                "id": "9204654947",
                "osm_type": "node",
                "lat": 47.0714113,
                "lon": 15.4335782,
                "check_date:opening_hours": "2024-08-03",
                "level": "0",
                "name": "Ethnothek",
                "opening_hours": "Mo-Fr 10:00-13:00,14:00-18:00; Sa 10:00-13:00; PH closed",
                "shop": "jewelry",
                "wheelchair": "yes"
              },
              "geometry": {
                "type": "Point",
                "coordinates": [
                  15.4335782,
                  47.0714113
                ]
              }
            },
            {
              "type": "Feature",
              "properties": {
                "id": "9308874169",
                "osm_type": "node",
                "lat": 47.1050112,
                "lon": 15.3982243,
                "brand": "Bijou Brigitte",
                "brand:wikidata": "Q599545",
                "brand:wikipedia": "de:Bijou Brigitte",
                "level": "0",
                "name": "Bijou Brigitte",
                "shop": "jewelry",
                "wheelchair": "yes"
              },
              "geometry": {
                "type": "Point",
                "coordinates": [
                  15.3982243,
                  47.1050112
                ]
              }
            },
            {
              "type": "Feature",
              "properties": {
                "id": "9956925637",
                "osm_type": "node",
                "lat": 47.0676592,
                "lon": 15.4434328,
                "addr:city": "Graz",
                "addr:country": "AT",
                "addr:housenumber": "8",
                "addr:postcode": "8010",
                "addr:street": "Jakominiplatz",
                "brand": "Dorotheum Juwelier",
                "brand:wikidata": "Q668545",
                "email": "graz@dorotheum.at",
                "level": "0",
                "name": "Dorotheum Juwelier",
                "opening_hours": "Mo-Fr 09:00-18:00; Sa 09:00-13:00",
                "phone": "+43 800 924533",
                "shop": "jewelry"
              },
              "geometry": {
                "type": "Point",
                "coordinates": [
                  15.4434328,
                  47.0676592
                ]
              }
            },
            {
              "type": "Feature",
              "properties": {
                "id": "10758339190",
                "osm_type": "node",
                "lat": 47.0344026,
                "lon": 15.4168504,
                "level": "1",
                "name": "Schmuckdesign Melcher",
                "shop": "jewelry"
              },
              "geometry": {
                "type": "Point",
                "coordinates": [
                  15.4168504,
                  47.0344026
                ]
              }
            },
            {
              "type": "Feature",
              "properties": {
                "id": "11343140206",
                "osm_type": "node",
                "lat": 47.0672525,
                "lon": 15.4263078,
                "addr:city": "Graz",
                "addr:housenumber": "6",
                "addr:postcode": "8020",
                "addr:street": "Ungergasse",
                "name": "Akpolat Juwelier",
                "opening_hours": "Mo-Fr 09:00-17:00, Sa 09:00-1400",
                "operator": "Kemal Akpolat",
                "phone": "+43 316 948739",
                "shop": "jewelry"
              },
              "geometry": {
                "type": "Point",
                "coordinates": [
                  15.4263078,
                  47.0672525
                ]
              }
            },
            {
              "type": "Feature",
              "properties": {
                "id": "13110695427",
                "osm_type": "node",
                "lat": 47.0702524,
                "lon": 15.4428753,
                "check_date": "2025-08-31",
                "contact:website": "https://barbara-edlinger.com",
                "name": "Showroom Barbara Edlinger",
                "opening_hours": "Tu-Fr 10:00-12:30,13:30-18:00",
                "shop": "jewelry"
              },
              "geometry": {
                "type": "Point",
                "coordinates": [
                  15.4428753,
                  47.0702524
                ]
              }
            },
            {
              "type": "Feature",
              "properties": {
                "id": "13121378799",
                "osm_type": "node",
                "lat": 47.1047722,
                "lon": 15.3979818,
                "level": "0",
                "name": "Simon",
                "shop": "jewelry",
                "wheelchair": "yes"
              },
              "geometry": {
                "type": "Point",
                "coordinates": [
                  15.3979818,
                  47.1047722
                ]
              }
            },
            {
              "type": "Feature",
              "properties": {
                "id": "1828915218",
                "osm_type": "node",
                "lat": 47.105228,
                "lon": 15.710261,
                "addr:city": "Gleisdorf",
                "addr:country": "AT",
                "addr:housenumber": "12",
                "addr:postcode": "8200",
                "addr:street": "Hauptplatz",
                "contact:email": "anita@juwelier-tieber.at",
                "name": "Goldwelt Anita Tieber",
                "shop": "jewelry"
              },
              "geometry": {
                "type": "Point",
                "coordinates": [
                  15.710261,
                  47.105228
                ]
              }
            },
            {
              "type": "Feature",
              "properties": {
                "id": "2345701487",
                "osm_type": "node",
                "lat": 47.104656,
                "lon": 15.7085823,
                "addr:city": "Gleisdorf",
                "addr:country": "AT",
                "addr:housenumber": "13",
                "addr:postcode": "8200",
                "addr:street": "Bürgergasse",
                "contact:email": "Schmuck-koller@aon.at",
                "name": "Koller Uhren & Schmuck",
                "shop": "jewelry"
              },
              "geometry": {
                "type": "Point",
                "coordinates": [
                  15.7085823,
                  47.104656
                ]
              }
            },
            {
              "type": "Feature",
              "properties": {
                "id": "3048577306",
                "osm_type": "node",
                "lat": 47.1058614,
                "lon": 15.7087768,
                "addr:city": "Gleisdorf",
                "addr:country": "AT",
                "addr:housenumber": "5",
                "addr:postcode": "8200",
                "addr:street": "Weizer Straße",
                "contact:email": "uklamminger@gmail.com",
                "name": "Juwelier Klamminger",
                "shop": "jewelry"
              },
              "geometry": {
                "type": "Point",
                "coordinates": [
                  15.7087768,
                  47.1058614
                ]
              }
            },
            {
              "type": "Feature",
              "properties": {
                "id": "3065106221",
                "osm_type": "node",
                "lat": 47.1064256,
                "lon": 15.7063104,
                "addr:city": "Gleisdorf",
                "addr:postcode": "8200",
                "addr:street": "Ludwig-Binder-Straße",
                "contact:email": "schmuck-koller@aon.at",
                "name": "Uhren-Schmuck Koller",
                "shop": "jewelry"
              },
              "geometry": {
                "type": "Point",
                "coordinates": [
                  15.7063104,
                  47.1064256
                ]
              }
            }
          ],
          "children": []
        },
        {
          "bbox": {
            "south": 47.033758500000005,
            "west": 15.73002475,
            "north": 47.199035125,
            "east": 16.2068765
          },
          "poiCount": 2,
          "leafCount": 2,
          "averagePosition": [
            16.054661250000002,
            47.15593535
          ],
          "data": [
            {
              "type": "Feature",
              "properties": {
                "id": "7388676222",
                "osm_type": "node",
                "lat": 47.169584,
                "lon": 16.0081774,
                "name": "Bernstein23",
                "shop": "jewelry"
              },
              "geometry": {
                "type": "Point",
                "coordinates": [
                  16.0081774,
                  47.169584
                ]
              }
            },
            {
              "type": "Feature",
              "properties": {
                "id": "4036860589",
                "osm_type": "node",
                "lat": 47.1422867,
                "lon": 16.1011451,
                "addr:city": "Burgau",
                "addr:housenumber": "57",
                "addr:postcode": "8291",
                "addr:street": "Bahnhofstraße",
                "name": "Uhren Schmuck Graf Siegmund",
                "shop": "jewelry"
              },
              "geometry": {
                "type": "Point",
                "coordinates": [
                  16.1011451,
                  47.1422867
                ]
              }
            }
          ],
          "children": []
        },
        {
          "bbox": {
            "south": 47.199035125,
            "west": 15.253173,
            "north": 47.36431175,
            "east": 15.73002475
          },
          "poiCount": 5,
          "leafCount": 5,
          "averagePosition": [
            15.5040703,
            47.23869896
          ],
          "data": [
            {
              "type": "Feature",
              "properties": {
                "id": "5333596487",
                "osm_type": "node",
                "lat": 47.270533,
                "lon": 15.3258272,
                "addr:city": "Frohnleiten",
                "addr:country": "AT",
                "addr:housenumber": "16",
                "addr:postcode": "8130",
                "addr:street": "Hauptplatz",
                "at_bev:addr_date": "2017-10-01",
                "check_date": "2025-07-27",
                "name": "Griessl Uhren",
                "opening_hours": "Mo-Fr 08:30-12:00,14:30-18:00; Sa 08:30-12:00",
                "phone": "+43 3126 2276",
                "shop": "jewelry"
              },
              "geometry": {
                "type": "Point",
                "coordinates": [
                  15.3258272,
                  47.270533
                ]
              }
            },
            {
              "type": "Feature",
              "properties": {
                "id": "5333635789",
                "osm_type": "node",
                "lat": 47.2710379,
                "lon": 15.3262912,
                "addr:city": "Frohnleiten",
                "addr:country": "AT",
                "addr:housenumber": "27",
                "addr:postcode": "8130",
                "addr:street": "Hauptplatz",
                "at_bev:addr_date": "2017-10-01",
                "name": "Eva Dietrich Schmuckdesign",
                "opening_hours": "Mo-We 08:30-12:00; Fr 08:30-12:00,14:30-18:00",
                "phone": "+433126 2313",
                "shop": "jewelry",
                "website": "http://www.ed-schmuckdesign.at/"
              },
              "geometry": {
                "type": "Point",
                "coordinates": [
                  15.3262912,
                  47.2710379
                ]
              }
            },
            {
              "type": "Feature",
              "properties": {
                "id": "1951436682",
                "osm_type": "node",
                "lat": 47.2176254,
                "lon": 15.6246496,
                "addr:city": "Weiz",
                "addr:housenumber": "1",
                "addr:postcode": "8160",
                "addr:street": "Lederergasse",
                "contact:phone": "+43 3172 2745",
                "name": "Zieser",
                "opening_hours": "Mo-Fr 8:30-12:15,14:30-18:00;Sa 9:00-12:30",
                "shop": "jewelry",
                "website": "https://www.diadoro.at/filiale/014-1/juwelier-zieser-weiz/sortiment"
              },
              "geometry": {
                "type": "Point",
                "coordinates": [
                  15.6246496,
                  47.2176254
                ]
              }
            },
            {
              "type": "Feature",
              "properties": {
                "id": "7625892403",
                "osm_type": "node",
                "lat": 47.217453,
                "lon": 15.6218928,
                "addr:city": "Weiz",
                "addr:housenumber": "8",
                "addr:postcode": "8160",
                "addr:street": "Hauptplatz",
                "name": "Kungl Mineralien",
                "shop": "jewelry"
              },
              "geometry": {
                "type": "Point",
                "coordinates": [
                  15.6218928,
                  47.217453
                ]
              }
            },
            {
              "type": "Feature",
              "properties": {
                "id": "7625892404",
                "osm_type": "node",
                "lat": 47.2168455,
                "lon": 15.6216907,
                "addr:city": "Weiz",
                "addr:housenumber": "20",
                "addr:postcode": "8160",
                "addr:street": "Hauptplatz",
                "name": "Feichtinger Schmuckhandels GmbH",
                "shop": "jewelry"
              },
              "geometry": {
                "type": "Point",
                "coordinates": [
                  15.6216907,
                  47.2168455
                ]
              }
            }
          ],
          "children": []
        },
        {
          "bbox": {
            "south": 47.199035125,
            "west": 15.73002475,
            "north": 47.36431175,
            "east": 16.2068765
          },
          "poiCount": 5,
          "leafCount": 5,
          "averagePosition": [
            16.01476592,
            47.28283988
          ],
          "data": [
            {
              "type": "Feature",
              "properties": {
                "id": "1550162457",
                "osm_type": "node",
                "lat": 47.2823734,
                "lon": 15.9721706,
                "name": "Almandin Edle Steine",
                "opening_hours": "Mo-Fr 09:00-12:00,14:00-18:00; Sa 09:00-12:30; Sa[1] 09:00-12:00,14:00-17:00",
                "shop": "jewelry"
              },
              "geometry": {
                "type": "Point",
                "coordinates": [
                  15.9721706,
                  47.2823734
                ]
              }
            },
            {
              "type": "Feature",
              "properties": {
                "id": "1550162469",
                "osm_type": "node",
                "lat": 47.2820106,
                "lon": 15.9717817,
                "name": "Igler",
                "opening_hours": "Mo-Fr 08:30-12:00,14:30-18:00; Sa 08:30-12:00",
                "shop": "jewelry",
                "wheelchair": "limited"
              },
              "geometry": {
                "type": "Point",
                "coordinates": [
                  15.9717817,
                  47.2820106
                ]
              }
            },
            {
              "type": "Feature",
              "properties": {
                "id": "1550162480",
                "osm_type": "node",
                "lat": 47.2814743,
                "lon": 15.9702176,
                "name": "Rindler",
                "opening_hours": "Mo-Fr 08:30-12:30,14:00-18:00; Sa[1] 08:30-12:30,14:00-18:00",
                "shop": "jewelry"
              },
              "geometry": {
                "type": "Point",
                "coordinates": [
                  15.9702176,
                  47.2814743
                ]
              }
            },
            {
              "type": "Feature",
              "properties": {
                "id": "1555869798",
                "osm_type": "node",
                "lat": 47.2808565,
                "lon": 15.9721322,
                "name": "Kremser",
                "opening_hours": "Mo-Fr 08:30-12:00,15:00-18:00; Sa 08:30-12:00",
                "shop": "jewelry"
              },
              "geometry": {
                "type": "Point",
                "coordinates": [
                  15.9721322,
                  47.2808565
                ]
              }
            },
            {
              "type": "Feature",
              "properties": {
                "id": "8394711303",
                "osm_type": "node",
                "lat": 47.2874846,
                "lon": 16.1875275,
                "brand": "Bijou Brigitte",
                "brand:wikidata": "Q599545",
                "brand:wikipedia": "de:Bijou Brigitte",
                "name": "Bijou Brigitte",
                "shop": "jewelry"
              },
              "geometry": {
                "type": "Point",
                "coordinates": [
                  16.1875275,
                  47.2874846
                ]
              }
            }
          ],
          "children": []
        }
      ]
    },
    {
      "bbox": {
        "south": 47.033758500000005,
        "west": 16.2068765,
        "north": 47.36431175,
        "east": 17.16058
      },
      "poiCount": 5,
      "leafCount": 5,
      "averagePosition": [
        16.406293220000002,
        47.237607100000005
      ],
      "data": [
        {
          "type": "Feature",
          "properties": {
            "id": "2328008929",
            "osm_type": "node",
            "lat": 47.3323578,
            "lon": 16.2300539,
            "name": "Uhren Juwelen Wagner",
            "shop": "jewelry"
          },
          "geometry": {
            "type": "Point",
            "coordinates": [
              16.2300539,
              47.3323578
            ]
          }
        },
        {
          "type": "Feature",
          "properties": {
            "id": "2328032477",
            "osm_type": "node",
            "lat": 47.3340195,
            "lon": 16.2302252,
            "name": "Mittermann",
            "shop": "jewelry"
          },
          "geometry": {
            "type": "Point",
            "coordinates": [
              16.2302252,
              47.3340195
            ]
          }
        },
        {
          "type": "Feature",
          "properties": {
            "id": "12731344790",
            "osm_type": "node",
            "lat": 47.0590534,
            "lon": 16.3256481,
            "addr:city": "Güssing",
            "addr:postcode": "7540",
            "addr:street": "Manliusgasse",
            "name": "Juwelier Nikitscher",
            "opening_hours": "Mo,Tu,Th,Fr 08:00-12:00,15:00-18:00; We 08:00-12:00; Sa 09:00-12:00",
            "shop": "jewelry"
          },
          "geometry": {
            "type": "Point",
            "coordinates": [
              16.3256481,
              47.0590534
            ]
          }
        },
        {
          "type": "Feature",
          "properties": {
            "id": "2692654154",
            "osm_type": "node",
            "lat": 47.2313472,
            "lon": 16.6236701,
            "addr:city": "Szombathely",
            "addr:housenumber": "27",
            "addr:postcode": "9700",
            "addr:street": "Fő tér",
            "name": "Balogh Óra-Ékszer",
            "phone": "+36 30 474 7409",
            "shop": "jewelry",
            "website": "http://ora-ekszer.hu"
          },
          "geometry": {
            "type": "Point",
            "coordinates": [
              16.6236701,
              47.2313472
            ]
          }
        },
        {
          "type": "Feature",
          "properties": {
            "id": "4991288424",
            "osm_type": "node",
            "lat": 47.2312576,
            "lon": 16.6218688,
            "addr:city": "Szombathely",
            "addr:housenumber": "17",
            "addr:postcode": "9700",
            "addr:street": "Fő tér",
            "check_date": "2024-01-02",
            "description": "Óra és ékszerbolt.. Jegygyűrű, karikagyűrű",
            "email": "rendeles@ora-ekszer.hu",
            "name": "Balogh Ékszer",
            "opening_hours": "Mo-Fr 09:00-17:45; Sa 09:00-13:00",
            "operator": "Balogh Óra-Ékszer Kft.",
            "payment:american_express": "yes",
            "payment:cash": "yes",
            "payment:coins": "yes",
            "payment:credit_cards": "yes",
            "payment:mastercard": "yes",
            "payment:visa": "yes",
            "payment:visa_debit": "yes",
            "payment:visa_electron": "yes",
            "phone": "+36 30 474 7500",
            "shop": "jewelry",
            "website": "https://ora-ekszer.hu",
            "wheelchair": "yes"
          },
          "geometry": {
            "type": "Point",
            "coordinates": [
              16.6218688,
              47.2312576
            ]
          }
        }
      ],
      "children": []
    },
    {
      "bbox": {
        "south": 47.36431175,
        "west": 15.253173,
        "north": 47.694865,
        "east": 16.2068765
      },
      "poiCount": 4,
      "leafCount": 4,
      "averagePosition": [
        15.437909300000001,
        47.476820525
      ],
      "data": [
        {
          "type": "Feature",
          "properties": {
            "id": "1347063037",
            "osm_type": "node",
            "lat": 47.410952,
            "lon": 15.2707297,
            "addr:city": "Bruck an der Mur",
            "addr:country": "AT",
            "addr:housenumber": "5",
            "addr:postcode": "8600",
            "addr:street": "Burggasse",
            "at_bev:addr_date": "2019-10-01",
            "name": "Thomas",
            "shop": "jewelry",
            "website": "https://juwelier-thomas.at/"
          },
          "geometry": {
            "type": "Point",
            "coordinates": [
              15.2707297,
              47.410952
            ]
          }
        },
        {
          "type": "Feature",
          "properties": {
            "id": "1637880448",
            "osm_type": "node",
            "lat": 47.4103063,
            "lon": 15.2710369,
            "addr:housenumber": "12",
            "addr:street": "Mittergasse",
            "name": "Juwelier Neubauer",
            "shop": "jewelry"
          },
          "geometry": {
            "type": "Point",
            "coordinates": [
              15.2710369,
              47.4103063
            ]
          }
        },
        {
          "type": "Feature",
          "properties": {
            "id": "1637880449",
            "osm_type": "node",
            "lat": 47.4103472,
            "lon": 15.270579,
            "name": "Juwelier Schweiger",
            "shop": "jewelry"
          },
          "geometry": {
            "type": "Point",
            "coordinates": [
              15.270579,
              47.4103472
            ]
          }
        },
        {
          "type": "Feature",
          "properties": {
            "id": "4081165080",
            "osm_type": "node",
            "lat": 47.6756766,
            "lon": 15.9392916,
            "addr:city": "Gloggnitz",
            "addr:country": "AT",
            "addr:housenumber": "4",
            "addr:postcode": "2640",
            "addr:street": "Hauptstraße",
            "craft": "watchmaker",
            "email": "info@uhren-heissenberger.com",
            "name": "Heissenberger",
            "opening_hours": "Mo-We 08:30-12:00,14:00-18:00; Th 08:30-12:00; Fr 08:30-12:00,14:00-18:00; Sa 08:30-12:00; Su,PH off",
            "phone": "+43 800 400171193",
            "shop": "jewelry",
            "website": "https://www.uhren-heissenberger.com/",
            "wheelchair": "no"
          },
          "geometry": {
            "type": "Point",
            "coordinates": [
              15.9392916,
              47.6756766
            ]
          }
        }
      ],
      "children": []
    },
    {
      "bbox": {
        "south": 47.36431175,
        "west": 16.2068765,
        "north": 47.694865,
        "east": 17.16058
      },
      "poiCount": 7,
      "leafCount": 7,
      "averagePosition": [
        16.507303214285713,
        47.633031585714285
      ],
      "data": [
        {
          "type": "Feature",
          "properties": {
            "id": "1365334742",
            "osm_type": "node",
            "lat": 47.5019152,
            "lon": 16.2952894,
            "addr:city": "Kirchschlag in der Buckligen Welt",
            "addr:housenumber": "8",
            "addr:postcode": "2860",
            "addr:street": "Hauptplatz",
            "branch": "Baueregger, Bad Schönau",
            "description": "Blühend schön mit Baueregger! Exklusiver Schmuck, Uhren, Eheringel und Pokale, italienische Mode, Accessoires und Schuhe mit Stil.",
            "name": "Baueregger - Juwelier & Boutique",
            "opening_hours": "Mo-Fr 08:30-12:00,14:30-18:00; Sa 08:30-12:00",
            "operator": "Baueregger GmbH",
            "phone": "02646 20102",
            "shop": "jewelry"
          },
          "geometry": {
            "type": "Point",
            "coordinates": [
              16.2952894,
              47.5019152
            ]
          }
        },
        {
          "type": "Feature",
          "properties": {
            "id": "1365334744",
            "osm_type": "node",
            "lat": 47.5016734,
            "lon": 16.2941532,
            "name": "Juwelier Schlögl",
            "shop": "jewelry"
          },
          "geometry": {
            "type": "Point",
            "coordinates": [
              16.2941532,
              47.5016734
            ]
          }
        },
        {
          "type": "Feature",
          "properties": {
            "id": "1448843938",
            "osm_type": "node",
            "lat": 47.6867035,
            "lon": 16.5924958,
            "name": "Róma ékszer",
            "shop": "jewelry"
          },
          "geometry": {
            "type": "Point",
            "coordinates": [
              16.5924958,
              47.6867035
            ]
          }
        },
        {
          "type": "Feature",
          "properties": {
            "id": "1449409607",
            "osm_type": "node",
            "lat": 47.6830282,
            "lon": 16.5911509,
            "addr:city": "Sopron",
            "addr:housenumber": "112",
            "addr:postcode": "9400",
            "addr:street": "Várkerület",
            "name": "Princess ékszer",
            "shop": "jewelry"
          },
          "geometry": {
            "type": "Point",
            "coordinates": [
              16.5911509,
              47.6830282
            ]
          }
        },
        {
          "type": "Feature",
          "properties": {
            "id": "1449409608",
            "osm_type": "node",
            "lat": 47.6859162,
            "lon": 16.5926722,
            "name": "Princess ékszer",
            "shop": "jewelry"
          },
          "geometry": {
            "type": "Point",
            "coordinates": [
              16.5926722,
              47.6859162
            ]
          }
        },
        {
          "type": "Feature",
          "properties": {
            "id": "1449409611",
            "osm_type": "node",
            "lat": 47.6862168,
            "lon": 16.5926957,
            "name": "Zafír óra-ékszer",
            "shop": "jewelry"
          },
          "geometry": {
            "type": "Point",
            "coordinates": [
              16.5926957,
              47.6862168
            ]
          }
        },
        {
          "type": "Feature",
          "properties": {
            "id": "1449409613",
            "osm_type": "node",
            "lat": 47.6857678,
            "lon": 16.5926653,
            "name": "Óra-ékszer",
            "shop": "jewelry"
          },
          "geometry": {
            "type": "Point",
            "coordinates": [
              16.5926653,
              47.6857678
            ]
          }
        }
      ],
      "children": []
    }
  ]
}