{
  "bbox": {
    "south": 46.372652,
    "west": 13.345766,
    "north": 47.033758500000005,
    "east": 15.253173
  },
  "poiCount": 76,
  "leafCount": 0,
  "averagePosition": [
    14.125613776315792,
    46.655542701315795
  ],
  "data": [],
  "children": [
    {
      "bbox": {
        "south": 46.372652,
        "west": 13.345766,
        "north": 46.70320525,
        "east": 14.2994695
      },
      "poiCount": 24,
      "leafCount": 24,
      "averagePosition": [
        13.893582916666666,
        46.598781691666666
      ],
      "data": [
        {
          "type": "Feature",
          "properties": {
            "id": "2289117374",
            "osm_type": "node",
            "lat": 46.6274178,
            "lon": 13.3700534,
            "addr:city": "Hermagor",
            "addr:country": "AT",
            "addr:housenumber": "6",
            "addr:postcode": "9620",
            "addr:street": "Hauptstraße",
            "ele": "600",
            "full_name": "Kury Schmuck und Uhren",
            "name": "Kury Uhren Schmuck",
            "opening_hours": "08:30-12:30,14:30-19:30",
            "phone": "+43676841584400",
            "shop": "jewelry",
            "website": "https://www.kury.eu/",
            "wheelchair": "yes"
          },
          "geometry": {
            "type": "Point",
            "coordinates": [
              13.3700534,
              46.6274178
            ]
          }
        },
        {
          "type": "Feature",
          "properties": {
            "id": "2211443882",
            "osm_type": "node",
            "lat": 46.503885,
            "lon": 13.5848373,
            "addr:city": "Tarvisio",
            "addr:country": "IT",
            "addr:housenumber": "300",
            "addr:postcode": "33018",
            "addr:street": "Via Vittorio Veneto",
            "contact:fax": "+39 0428 2555",
            "contact:phone": "+39 0428 2555",
            "name": "Gioielleria Berti",
            "shop": "jewelry"
          },
          "geometry": {
            "type": "Point",
            "coordinates": [
              13.5848373,
              46.503885
            ]
          }
        },
        {
          "type": "Feature",
          "properties": {
            "id": "4395969428",
            "osm_type": "node",
            "lat": 46.6141344,
            "lon": 13.8470052,
            "name": "Uhren Walter Gaggl",
            "shop": "jewelry"
          },
          "geometry": {
            "type": "Point",
            "coordinates": [
              13.8470052,
              46.6141344
            ]
          }
        },
        {
          "type": "Feature",
          "properties": {
            "id": "4396071508",
            "osm_type": "node",
            "lat": 46.6175513,
            "lon": 13.8474417,
            "name": "Fessl",
            "shop": "jewelry"
          },
          "geometry": {
            "type": "Point",
            "coordinates": [
              13.8474417,
              46.6175513
            ]
          }
        },
        {
          "type": "Feature",
          "properties": {
            "id": "4626295434",
            "osm_type": "node",
            "lat": 46.6126685,
            "lon": 13.8443275,
            "addr:city": "Villach",
            "addr:country": "AT",
            "addr:housenumber": "44",
            "addr:postcode": "9500",
            "addr:street": "Widmanngasse",
            "name": "123gold.at",
            "opening_hours": "Mo-Fr 10:00-18:00; Sa 09:00-13:00",
            "shop": "jewelry",
            "website": "https://www.123gold.at/"
          },
          "geometry": {
            "type": "Point",
            "coordinates": [
              13.8443275,
              46.6126685
            ]
          }
        },
        {
          "type": "Feature",
          "properties": {
            "id": "4633163742",
            "osm_type": "node",
            "lat": 46.6156015,
            "lon": 13.8494815,
            "addr:city": "Villach",
            "addr:country": "AT",
            "addr:housenumber": "5",
            "addr:postcode": "9500",
            "addr:street": "Nikolaigasse",
            "email": "cl@leeb-leschanz.at",
            "name": "Leeb & Leschanz GmbH",
            "phone": "+43/4242/26026",
            "shop": "jewelry",
            "website": "https://www.leeb-leschanz.at/"
          },
          "geometry": {
            "type": "Point",
            "coordinates": [
              13.8494815,
              46.6156015
            ]
          }
        },
        {
          "type": "Feature",
          "properties": {
            "id": "4633163743",
            "osm_type": "node",
            "lat": 46.6128402,
            "lon": 13.8444405,
            "addr:city": "Villach",
            "addr:country": "AT",
            "addr:housenumber": "42",
            "addr:postcode": "9500",
            "addr:street": "Widmanngasse",
            "email": "juwelier@schuetzlhoffer.at",
            "name": "Juwelier Schützlhoffer",
            "opening_hours": "Mo-Fr 10:00-12:30, 14:30-18:00; Sa 09:00-12:30",
            "phone": "+43 4242 2374713",
            "shop": "jewelry",
            "website": "https://schuetzlhoffer.at/"
          },
          "geometry": {
            "type": "Point",
            "coordinates": [
              13.8444405,
              46.6128402
            ]
          }
        },
        {
          "type": "Feature",
          "properties": {
            "id": "4939909999",
            "osm_type": "node",
            "lat": 46.6156863,
            "lon": 13.8449569,
            "addr:city": "Villach",
            "addr:country": "AT",
            "addr:housenumber": "4",
            "addr:postcode": "9500",
            "addr:street": "Widmanngasse",
            "email": "office@uhren-schmuck-wachter.at",
            "name": "Uhren-Schmuck Wachter",
            "phone": "+43 4242 29106",
            "shop": "jewelry",
            "website": "http://www.uhren-schmuck-wachter.at/"
          },
          "geometry": {
            "type": "Point",
            "coordinates": [
              13.8449569,
              46.6156863
            ]
          }
        },
        {
          "type": "Feature",
          "properties": {
            "id": "5132331626",
            "osm_type": "node",
            "lat": 46.5040665,
            "lon": 13.585155,
            "name": "Pirker incisioni",
            "shop": "jewelry"
          },
          "geometry": {
            "type": "Point",
            "coordinates": [
              13.585155,
              46.5040665
            ]
          }
        },
        {
          "type": "Feature",
          "properties": {
            "id": "5706259421",
            "osm_type": "node",
            "lat": 46.6133755,
            "lon": 13.8462699,
            "check_date": "2023-04-08",
            "name": "Friessnegg",
            "shop": "jewelry"
          },
          "geometry": {
            "type": "Point",
            "coordinates": [
              13.8462699,
              46.6133755
            ]
          }
        },
        {
          "type": "Feature",
          "properties": {
            "id": "8718504690",
            "osm_type": "node",
            "lat": 46.5038356,
            "lon": 13.5832581,
            "addr:city": "Tarvisio",
            "addr:housenumber": "268",
            "addr:postcode": "33018",
            "addr:street": "Via Vittorio Veneto",
            "name": "Piussi",
            "shop": "jewelry"
          },
          "geometry": {
            "type": "Point",
            "coordinates": [
              13.5832581,
              46.5038356
            ]
          }
        },
        {
          "type": "Feature",
          "properties": {
            "id": "9920037883",
            "osm_type": "node",
            "lat": 46.595841,
            "lon": 13.836198,
            "addr:city": "Villach",
            "addr:housenumber": "34",
            "addr:postcode": "9500",
            "addr:street": "Kärntner Straße",
            "brand": "Pandora",
            "brand:wikidata": "Q2241604",
            "email": "at.villach@pandorastores.net",
            "name": "Pandora",
            "phone": "+43 4242 32105",
            "shop": "jewelry"
          },
          "geometry": {
            "type": "Point",
            "coordinates": [
              13.836198,
              46.595841
            ]
          }
        },
        {
          "type": "Feature",
          "properties": {
            "id": "9920037884",
            "osm_type": "node",
            "lat": 46.5959402,
            "lon": 13.8361196,
            "addr:city": "Villach",
            "addr:housenumber": "34",
            "addr:postcode": "9500",
            "addr:street": "Kärntner Straße",
            "email": "atrio@jacques-lemans.com",
            "name": "Jacques Lemans",
            "phone": "+43 4242 33 569",
            "shop": "jewelry"
          },
          "geometry": {
            "type": "Point",
            "coordinates": [
              13.8361196,
              46.5959402
            ]
          }
        },
        {
          "type": "Feature",
          "properties": {
            "id": "9920037890",
            "osm_type": "node",
            "lat": 46.5962533,
            "lon": 13.8367117,
            "addr:city": "Villach",
            "addr:housenumber": "34",
            "addr:postcode": "9500",
            "addr:street": "Kärntner Straße",
            "brand": "Dorotheum Juwelier",
            "brand:wikidata": "Q668545",
            "name": "Dorotheum Juwelier",
            "opening_hours": "Mo-Fr 09:00-19:30; Sa 09:00-18:00",
            "phone": "+43 4242 37 299",
            "shop": "jewelry"
          },
          "geometry": {
            "type": "Point",
            "coordinates": [
              13.8367117,
              46.5962533
            ]
          }
        },
        {
          "type": "Feature",
          "properties": {
            "id": "9920037891",
            "osm_type": "node",
            "lat": 46.5960288,
            "lon": 13.8367651,
            "addr:city": "Villach",
            "addr:housenumber": "34",
            "addr:postcode": "9500",
            "addr:street": "Kärntner Straße",
            "email": "office@goldwelt.at",
            "name": "Goldwelt",
            "phone": "+43 4242/37373",
            "shop": "jewelry"
          },
          "geometry": {
            "type": "Point",
            "coordinates": [
              13.8367651,
              46.5960288
            ]
          }
        },
        {
          "type": "Feature",
          "properties": {
            "id": "10169756563",
            "osm_type": "node",
            "lat": 46.6122838,
            "lon": 13.8560808,
            "addr:city": "Villach",
            "addr:housenumber": "47",
            "addr:postcode": "9500",
            "addr:street": "Ossiacher Zeile",
            "name": "Feichtinger Schmuckhandels GmbH",
            "phone": "+43598877200",
            "shop": "jewelry",
            "website": "http://www.feichtinger.biz/"
          },
          "geometry": {
            "type": "Point",
            "coordinates": [
              13.8560808,
              46.6122838
            ]
          }
        },
        {
          "type": "Feature",
          "properties": {
            "id": "1432693876",
            "osm_type": "node",
            "lat": 46.6209458,
            "lon": 14.2966428,
            "addr:city": "Klagenfurt am Wörthersee",
            "addr:country": "AT",
            "addr:housenumber": "12",
            "addr:postcode": "9020",
            "addr:street": "Waidmannsdorfer Straße",
            "name": "Juwelier",
            "shop": "jewelry",
            "wheelchair": "no"
          },
          "geometry": {
            "type": "Point",
            "coordinates": [
              14.2966428,
              46.6209458
            ]
          }
        },
        {
          "type": "Feature",
          "properties": {
            "id": "1606187535",
            "osm_type": "node",
            "lat": 46.6130189,
            "lon": 14.0415732,
            "addr:city": "Velden am Wörther See",
            "addr:housenumber": "3",
            "addr:postcode": "9220",
            "addr:street": "Rosentaler Straße",
            "description": "Handel und Reparatur von Uhren und Schmuck",
            "designation": "Uhren Schmuck Filafer-Reichmann",
            "email": "reichmannuhren@aon.at",
            "name": "Uhren Schmuck Fillafer-Reichmann",
            "opening_hours": "Mo-Fr 08:30-12:30,14:30-18:00, Sa 08:30-12:30,14:30-18:00",
            "shop": "jewelry",
            "source": "GPS",
            "website": "https://www.facebook.com/pg/Uhren-und-Juwelen-Fillafer-Reichmann-285879291505099",
            "wheelchair": "limited"
          },
          "geometry": {
            "type": "Point",
            "coordinates": [
              14.0415732,
              46.6130189
            ]
          }
        },
        {
          "type": "Feature",
          "properties": {
            "id": "4489086519",
            "osm_type": "node",
            "lat": 46.613267,
            "lon": 14.2882212,
            "addr:city": "Klagenfurt am Wörthersee",
            "addr:country": "AT",
            "check_date": "2022-10-07",
            "name": "Ute Habenicht",
            "opening_hours": "Mo-Fr 08:30-13:00,14:00-18:00; Sa 08:30-12:00",
            "payment:mastercard": "yes",
            "payment:visa": "yes",
            "shop": "jewelry",
            "wheelchair": "no"
          },
          "geometry": {
            "type": "Point",
            "coordinates": [
              14.2882212,
              46.613267
            ]
          }
        },
        {
          "type": "Feature",
          "properties": {
            "id": "5310701101",
            "osm_type": "node",
            "lat": 46.613195,
            "lon": 14.0422397,
            "addr:city": "Velden am Wörther See",
            "addr:housenumber": "1",
            "addr:postcode": "9220",
            "addr:street": "Seecorso",
            "email": "office@galerie-am-see.at",
            "fax": "+43 4274 5225522",
            "mobile": "+43 664 4375043",
            "name": "Galerie am See",
            "opening_hours": "We-Fr 14:00-18:00; Sa 10:00-14:00",
            "phone": "+43 4274 52255",
            "shop": "jewelry",
            "website": "https://www.galerie-am-see.at"
          },
          "geometry": {
            "type": "Point",
            "coordinates": [
              14.0422397,
              46.613195
            ]
          }
        },
        {
          "type": "Feature",
          "properties": {
            "id": "5329521158",
            "osm_type": "node",
            "lat": 46.6146028,
            "lon": 14.0428034,
            "addr:city": "Velden am Wörther See",
            "addr:housenumber": "21",
            "addr:postcode": "9220",
            "addr:street": "Am Corso",
            "email": "info@schullin.at",
            "name": "Schullin",
            "shop": "jewelry",
            "website": "https://schullin.at/"
          },
          "geometry": {
            "type": "Point",
            "coordinates": [
              14.0428034,
              46.6146028
            ]
          }
        },
        {
          "type": "Feature",
          "properties": {
            "id": "5745602941",
            "osm_type": "node",
            "lat": 46.6355842,
            "lon": 14.1438883,
            "name": "Schatzinsel",
            "shop": "jewelry"
          },
          "geometry": {
            "type": "Point",
            "coordinates": [
              14.1438883,
              46.6355842
            ]
          }
        },
        {
          "type": "Feature",
          "properties": {
            "id": "11482349984",
            "osm_type": "node",
            "lat": 46.6099047,
            "lon": 14.2994407,
            "check_date": "2024-01-03",
            "name": "M&H",
            "shop": "jewelry"
          },
          "geometry": {
            "type": "Point",
            "coordinates": [
              14.2994407,
              46.6099047
            ]
          }
        },
        {
          "type": "Feature",
          "properties": {
            "id": "12080254997",
            "osm_type": "node",
            "lat": 46.6128325,
            "lon": 14.0420785,
            "addr:city": "Velden am Wörther See",
            "addr:housenumber": "4",
            "addr:postcode": "9220",
            "addr:street": "Seecorso",
            "email": "info@steel2silver.com",
            "name": "S2S",
            "phone": "0664 3571207",
            "shop": "jewelry",
            "website": "https://silver2silver.com/"
          },
          "geometry": {
            "type": "Point",
            "coordinates": [
              14.0420785,
              46.6128325
            ]
          }
        }
      ],
      "children": []
    },
    {
      "bbox": {
        "south": 46.372652,
        "west": 14.2994695,
        "north": 46.70320525,
        "east": 15.253173
      },
      "poiCount": 36,
      "leafCount": 36,
      "averagePosition": [
        14.317773813888888,
        46.62569193611111
      ],
      "data": [
        {
          "type": "Feature",
          "properties": {
            "id": "5011679121",
            "osm_type": "node",
            "lat": 46.6622019,
            "lon": 14.6332025,
            "name": "Lorafo Uhren Schmuck",
            "opening_hours": "Mo-Fr 09:00-12:30, 14:30-18:00; Sa 08:30-12:30",
            "shop": "jewelry"
          },
          "geometry": {
            "type": "Point",
            "coordinates": [
              14.6332025,
              46.6622019
            ]
          }
        },
        {
          "type": "Feature",
          "properties": {
            "id": "764934434",
            "osm_type": "node",
            "lat": 46.6237349,
            "lon": 14.3035099,
            "addr:city": "Klagenfurt am Wörthersee",
            "addr:country": "AT",
            "addr:housenumber": "6",
            "addr:street": "Villacher Straße",
            "check_date": "2025-04-25",
            "level": "0",
            "name": "Goldrausch",
            "opening_hours": "Mo-Fr 09:00-12:00,13:00-17:00",
            "phone": "0664 3881534",
            "shop": "jewelry",
            "wheelchair": "yes"
          },
          "geometry": {
            "type": "Point",
            "coordinates": [
              14.3035099,
              46.6237349
            ]
          }
        },
        {
          "type": "Feature",
          "properties": {
            "id": "809514753",
            "osm_type": "node",
            "lat": 46.6250195,
            "lon": 14.3079289,
            "addr:city": "Klagenfurt am Wörthersee",
            "addr:country": "AT",
            "addr:housenumber": "10",
            "addr:postcode": "9020",
            "addr:street": "Kramergasse",
            "check_date:opening_hours": "2023-11-12",
            "name": "Feichtinger",
            "opening_hours": "Tu-Fr 10:00-18:00; Sa 09:00-13:00",
            "shop": "jewelry"
          },
          "geometry": {
            "type": "Point",
            "coordinates": [
              14.3079289,
              46.6250195
            ]
          }
        },
        {
          "type": "Feature",
          "properties": {
            "id": "809516236",
            "osm_type": "node",
            "lat": 46.625078,
            "lon": 14.3079426,
            "addr:city": "Klagenfurt am Wörthersee",
            "addr:country": "AT",
            "addr:housenumber": "12",
            "addr:postcode": "9020",
            "addr:street": "Kramergasse",
            "check_date:opening_hours": "2023-11-12",
            "name": "UTE Habenicht",
            "opening_hours": "Mo-Fr 09:00-18:00; Sa 09:00-13:00",
            "shop": "jewelry",
            "wheelchair": "yes",
            "wheelchair:access": "limited"
          },
          "geometry": {
            "type": "Point",
            "coordinates": [
              14.3079426,
              46.625078
            ]
          }
        },
        {
          "type": "Feature",
          "properties": {
            "id": "809516720",
            "osm_type": "node",
            "lat": 46.6251763,
            "lon": 14.3079948,
            "addr:city": "Klagenfurt am Wörthersee",
            "addr:country": "AT",
            "addr:housenumber": "12",
            "addr:postcode": "9020",
            "addr:street": "Kramergasse",
            "check_date:opening_hours": "2023-11-12",
            "name": "Schullin",
            "opening_hours": "Mo-Fr 09:30-13:00,14:00-18:00; Sa 09:00-12:00",
            "shop": "jewelry",
            "wheelchair": "no"
          },
          "geometry": {
            "type": "Point",
            "coordinates": [
              14.3079948,
              46.6251763
            ]
          }
        },
        {
          "type": "Feature",
          "properties": {
            "id": "809583191",
            "osm_type": "node",
            "lat": 46.624531,
            "lon": 14.3078499,
            "addr:city": "Klagenfurt am Wörthersee",
            "addr:country": "AT",
            "name": "Mont Blank",
            "opening_hours": "Tu-Fr 09:00-13:00,14:00-18:00; Sa 09:00-13:00",
            "shop": "jewelry",
            "wheelchair": "no"
          },
          "geometry": {
            "type": "Point",
            "coordinates": [
              14.3078499,
              46.624531
            ]
          }
        },
        {
          "type": "Feature",
          "properties": {
            "id": "835901352",
            "osm_type": "node",
            "lat": 46.6247493,
            "lon": 14.3075777,
            "addr:city": "Klagenfurt am Wörthersee",
            "addr:country": "AT",
            "addr:housenumber": "7",
            "addr:postcode": "9020",
            "addr:street": "Kramergasse",
            "name": "Kern Schmuckgeschäft",
            "opening_hours": "Mo-Fr 09:00-12:30,14:30-17:00; Sa 09:00-12:00",
            "shop": "jewelry",
            "wheelchair": "no",
            "wheelchair:access": "yes"
          },
          "geometry": {
            "type": "Point",
            "coordinates": [
              14.3075777,
              46.6247493
            ]
          }
        },
        {
          "type": "Feature",
          "properties": {
            "id": "835901363",
            "osm_type": "node",
            "lat": 46.6251762,
            "lon": 14.3074864,
            "addr:city": "Klagenfurt am Wörthersee",
            "addr:country": "AT",
            "addr:housenumber": "29",
            "addr:street": "Alter Platz",
            "name": "miramira",
            "shop": "jewelry"
          },
          "geometry": {
            "type": "Point",
            "coordinates": [
              14.3074864,
              46.6251762
            ]
          }
        },
        {
          "type": "Feature",
          "properties": {
            "id": "835901681",
            "osm_type": "node",
            "lat": 46.6256048,
            "lon": 14.3077845,
            "addr:city": "Klagenfurt am Wörthersee",
            "addr:country": "AT",
            "name": "Schaller",
            "opening_hours": "Mo-Fr 09:30-18:00; Sa 09:30-12:30",
            "shop": "jewelry",
            "wheelchair:access": "yes"
          },
          "geometry": {
            "type": "Point",
            "coordinates": [
              14.3077845,
              46.6256048
            ]
          }
        },
        {
          "type": "Feature",
          "properties": {
            "id": "835901702",
            "osm_type": "node",
            "lat": 46.6251824,
            "lon": 14.3087433,
            "addr:city": "Klagenfurt am Wörthersee",
            "addr:country": "AT",
            "name": "Schmuck. Daniela",
            "shop": "jewelry",
            "wheelchair:access": "limited"
          },
          "geometry": {
            "type": "Point",
            "coordinates": [
              14.3087433,
              46.6251824
            ]
          }
        },
        {
          "type": "Feature",
          "properties": {
            "id": "1417290963",
            "osm_type": "node",
            "lat": 46.6228391,
            "lon": 14.3108622,
            "addr:city": "Klagenfurt am Wörthersee",
            "addr:country": "AT",
            "addr:housenumber": "27",
            "addr:postcode": "9020",
            "addr:street": "Bahnhofstraße",
            "check_date:opening_hours": "2023-08-18",
            "name": "Habenicht",
            "opening_hours": "Mo-Fr 09:00-17:00; Sa 09:00-12:00",
            "shop": "jewelry",
            "wheelchair": "no"
          },
          "geometry": {
            "type": "Point",
            "coordinates": [
              14.3108622,
              46.6228391
            ]
          }
        },
        {
          "type": "Feature",
          "properties": {
            "id": "1426217405",
            "osm_type": "node",
            "lat": 46.6232319,
            "lon": 14.3064723,
            "addr:city": "Klagenfurt am Wörthersee",
            "addr:country": "AT",
            "addr:housenumber": "4",
            "addr:postcode": "9020",
            "addr:street": "Benediktinerplatz",
            "check_date": "2023-01-11",
            "level": "0",
            "name": "Mairinger",
            "opening_hours": "Mo,Tu,Th,Fr 08:30-17:30; We 08:30-12:00; Sa 09:00-12:00",
            "shop": "jewelry",
            "wheelchair": "yes"
          },
          "geometry": {
            "type": "Point",
            "coordinates": [
              14.3064723,
              46.6232319
            ]
          }
        },
        {
          "type": "Feature",
          "properties": {
            "id": "1426254996",
            "osm_type": "node",
            "lat": 46.6245461,
            "lon": 14.3095555,
            "addr:city": "Klagenfurt am Wörthersee",
            "addr:country": "AT",
            "addr:housenumber": "2",
            "addr:postcode": "9020",
            "addr:street": "Jacques-Lemans-Platz",
            "name": "Juwelen und Uhren seit 1880",
            "shop": "jewelry",
            "wheelchair": "yes"
          },
          "geometry": {
            "type": "Point",
            "coordinates": [
              14.3095555,
              46.6245461
            ]
          }
        },
        {
          "type": "Feature",
          "properties": {
            "id": "1428053417",
            "osm_type": "node",
            "lat": 46.6258688,
            "lon": 14.3015545,
            "addr:city": "Klagenfurt am Wörthersee",
            "addr:country": "AT",
            "addr:housenumber": "6",
            "addr:postcode": "9020",
            "addr:street": "Koschatstraße",
            "name": "Stevco Dimitrovski",
            "shop": "jewelry",
            "wheelchair": "limited"
          },
          "geometry": {
            "type": "Point",
            "coordinates": [
              14.3015545,
              46.6258688
            ]
          }
        },
        {
          "type": "Feature",
          "properties": {
            "id": "1443428476",
            "osm_type": "node",
            "lat": 46.6252069,
            "lon": 14.3086758,
            "addr:city": "Klagenfurt am Wörthersee",
            "addr:country": "AT",
            "addr:housenumber": "23",
            "addr:street": "Alter Platz",
            "name": "Schmucktruhe",
            "shop": "jewelry"
          },
          "geometry": {
            "type": "Point",
            "coordinates": [
              14.3086758,
              46.6252069
            ]
          }
        },
        {
          "type": "Feature",
          "properties": {
            "id": "1444245216",
            "osm_type": "node",
            "lat": 46.6235642,
            "lon": 14.3089248,
            "addr:city": "Klagenfurt am Wörthersee",
            "addr:country": "AT",
            "name": "Arnulf Engelhardt",
            "opening_hours": "Mo-Fr 09:00-18:00; Sa 09:00-12:30",
            "shop": "jewelry",
            "wheelchair": "yes"
          },
          "geometry": {
            "type": "Point",
            "coordinates": [
              14.3089248,
              46.6235642
            ]
          }
        },
        {
          "type": "Feature",
          "properties": {
            "id": "1444249121",
            "osm_type": "node",
            "lat": 46.6235552,
            "lon": 14.3098912,
            "addr:city": "Klagenfurt am Wörthersee",
            "addr:country": "AT",
            "addr:housenumber": "6",
            "addr:postcode": "9020",
            "addr:street": "Paradeisergasse",
            "name": "Heller Juwelier",
            "opening_hours": "Tu-Fr 09:30-13:00,14:00-18:00; Sa 09:00-13:00; Su,Mo off",
            "shop": "jewelry",
            "wheelchair": "yes"
          },
          "geometry": {
            "type": "Point",
            "coordinates": [
              14.3098912,
              46.6235552
            ]
          }
        },
        {
          "type": "Feature",
          "properties": {
            "id": "1746891857",
            "osm_type": "node",
            "lat": 46.6249801,
            "lon": 14.307709,
            "addr:city": "Klagenfurt am Wörthersee",
            "addr:country": "AT",
            "addr:housenumber": "11",
            "addr:postcode": "9020",
            "addr:street": "Kramergasse",
            "name": "Schullin",
            "opening_hours": "Mo-Fr 09:30-13:00,14:00-18:00; Sa 09:30-13:00",
            "shop": "jewelry",
            "wheelchair": "no",
            "wheelchair:access": "limited"
          },
          "geometry": {
            "type": "Point",
            "coordinates": [
              14.307709,
              46.6249801
            ]
          }
        },
        {
          "type": "Feature",
          "properties": {
            "id": "8776855931",
            "osm_type": "node",
            "lat": 46.6229377,
            "lon": 14.3095988,
            "addr:city": "Klagenfurt am Wörthersee",
            "addr:country": "AT",
            "addr:housenumber": "16",
            "addr:street": "Domgasse",
            "check_date": "2023-02-16",
            "level": "0",
            "name": "Die Schmuckschmiede",
            "opening_hours": "Mo-Sa 09:00-14:00,15:00-19:00",
            "phone": "06508301013",
            "shop": "jewelry"
          },
          "geometry": {
            "type": "Point",
            "coordinates": [
              14.3095988,
              46.6229377
            ]
          }
        },
        {
          "type": "Feature",
          "properties": {
            "id": "9523651728",
            "osm_type": "node",
            "lat": 46.6254312,
            "lon": 14.3093917,
            "name": "Glamour",
            "opening_hours": "Mo-Fr 09:00-18:00; Sa 09:00-17:00",
            "shop": "jewelry"
          },
          "geometry": {
            "type": "Point",
            "coordinates": [
              14.3093917,
              46.6254312
            ]
          }
        },
        {
          "type": "Feature",
          "properties": {
            "id": "9534199270",
            "osm_type": "node",
            "lat": 46.6354827,
            "lon": 14.313495,
            "check_date": "2023-12-16",
            "description": "Schmuck & Uhren",
            "level": "0",
            "name": "Doris Falk",
            "shop": "jewelry",
            "wheelchair": "yes"
          },
          "geometry": {
            "type": "Point",
            "coordinates": [
              14.313495,
              46.6354827
            ]
          }
        },
        {
          "type": "Feature",
          "properties": {
            "id": "9705295767",
            "osm_type": "node",
            "lat": 46.6246547,
            "lon": 14.3080752,
            "name": "Obersteiner",
            "shop": "jewelry"
          },
          "geometry": {
            "type": "Point",
            "coordinates": [
              14.3080752,
              46.6246547
            ]
          }
        },
        {
          "type": "Feature",
          "properties": {
            "id": "9705331020",
            "osm_type": "node",
            "lat": 46.6254928,
            "lon": 14.3085024,
            "check_date": "2022-11-03",
            "level": "2",
            "name": "Franz Wiederschwinger",
            "shop": "jewelry"
          },
          "geometry": {
            "type": "Point",
            "coordinates": [
              14.3085024,
              46.6254928
            ]
          }
        },
        {
          "type": "Feature",
          "properties": {
            "id": "10087418783",
            "osm_type": "node",
            "lat": 46.6273555,
            "lon": 14.3102079,
            "brand": "Pandora",
            "brand:wikidata": "Q2241604",
            "level": "0",
            "name": "Pandora",
            "phone": "0463504007",
            "shop": "jewelry",
            "website": "https://de.pandora.net/de/"
          },
          "geometry": {
            "type": "Point",
            "coordinates": [
              14.3102079,
              46.6273555
            ]
          }
        },
        {
          "type": "Feature",
          "properties": {
            "id": "10087418792",
            "osm_type": "node",
            "lat": 46.6274919,
            "lon": 14.3092237,
            "email": "service@bijou-brigitte.com",
            "level": "0",
            "name": "Bijou Brigette",
            "phone": "0463-514213",
            "shop": "jewelry"
          },
          "geometry": {
            "type": "Point",
            "coordinates": [
              14.3092237,
              46.6274919
            ]
          }
        },
        {
          "type": "Feature",
          "properties": {
            "id": "10087418793",
            "osm_type": "node",
            "lat": 46.6274914,
            "lon": 14.3092921,
            "brand": "Swarovski",
            "brand:wikidata": "Q611115",
            "level": "0",
            "name": "Swarovski",
            "opening_hours": "Mo-Fr 09:00-19:30; Sa 09:00-18:00",
            "phone": "0463/51 24 95",
            "shop": "jewelry",
            "website": "https://www.swarovski.com/en-AT/store/0000292708/crystal-sw-gmbh-klagenfurt-klagenfurt/"
          },
          "geometry": {
            "type": "Point",
            "coordinates": [
              14.3092921,
              46.6274914
            ]
          }
        },
        {
          "type": "Feature",
          "properties": {
            "id": "10087418804",
            "osm_type": "node",
            "lat": 46.6273832,
            "lon": 14.3089168,
            "level": "0",
            "name": "Goldwelt",
            "opening_hours": "Mo-Fr 09:00-19:30; Sa 09:00-18:00",
            "phone": "+43 463 501977",
            "shop": "jewelry",
            "website": "https://www.goldwelt.at/"
          },
          "geometry": {
            "type": "Point",
            "coordinates": [
              14.3089168,
              46.6273832
            ]
          }
        },
        {
          "type": "Feature",
          "properties": {
            "id": "10087418807",
            "osm_type": "node",
            "lat": 46.6271556,
            "lon": 14.3088057,
            "level": "0",
            "name": "Kranzelbinder",
            "shop": "jewelry",
            "website": "https://kranzelbinder.at/"
          },
          "geometry": {
            "type": "Point",
            "coordinates": [
              14.3088057,
              46.6271556
            ]
          }
        },
        {
          "type": "Feature",
          "properties": {
            "id": "10087418811",
            "osm_type": "node",
            "lat": 46.6271962,
            "lon": 14.308742,
            "brand": "Lovisa",
            "brand:wikidata": "Q106298409",
            "level": "0",
            "name": "Lovisa",
            "opening_hours": "Mo-Fr 09:00-19:30; Sa 09:00-18:00",
            "phone": "0720-143788",
            "shop": "jewelry"
          },
          "geometry": {
            "type": "Point",
            "coordinates": [
              14.308742,
              46.6271962
            ]
          }
        },
        {
          "type": "Feature",
          "properties": {
            "id": "10748079234",
            "osm_type": "node",
            "lat": 46.6230287,
            "lon": 14.3036154,
            "check_date": "2023-03-20",
            "level": "0",
            "name": "Höfinger Gosireco",
            "shop": "jewelry"
          },
          "geometry": {
            "type": "Point",
            "coordinates": [
              14.3036154,
              46.6230287
            ]
          }
        },
        {
          "type": "Feature",
          "properties": {
            "id": "11215168021",
            "osm_type": "node",
            "lat": 46.6216758,
            "lon": 14.3080632,
            "check_date": "2023-09-24",
            "level": "0",
            "name": "Grote",
            "opening_hours": "Mo-Fr 09:00-16:00",
            "payment:credit_cards": "yes",
            "payment:debit_cards": "yes",
            "shop": "jewelry",
            "wheelchair": "no"
          },
          "geometry": {
            "type": "Point",
            "coordinates": [
              14.3080632,
              46.6216758
            ]
          }
        },
        {
          "type": "Feature",
          "properties": {
            "id": "11338901738",
            "osm_type": "node",
            "lat": 46.6242237,
            "lon": 14.3100097,
            "check_date": "2023-11-10",
            "level": "0",
            "name": "Reichör",
            "shop": "jewelry"
          },
          "geometry": {
            "type": "Point",
            "coordinates": [
              14.3100097,
              46.6242237
            ]
          }
        },
        {
          "type": "Feature",
          "properties": {
            "id": "11809783919",
            "osm_type": "node",
            "lat": 46.6145576,
            "lon": 14.319284,
            "name": "Claire’s",
            "shop": "jewelry"
          },
          "geometry": {
            "type": "Point",
            "coordinates": [
              14.319284,
              46.6145576
            ]
          }
        },
        {
          "type": "Feature",
          "properties": {
            "id": "11809783945",
            "osm_type": "node",
            "lat": 46.6146257,
            "lon": 14.3201315,
            "name": "Le Clou",
            "shop": "jewelry",
            "website": "https://suedpark.at/shop/le-clou/"
          },
          "geometry": {
            "type": "Point",
            "coordinates": [
              14.3201315,
              46.6146257
            ]
          }
        },
        {
          "type": "Feature",
          "properties": {
            "id": "12073023505",
            "osm_type": "node",
            "lat": 46.6236456,
            "lon": 14.3032107,
            "brand": "Dorotheum Juwelier",
            "brand:wikidata": "Q668545",
            "name": "Dorotheum Juwelier",
            "opening_hours": "Mo-Fr 09:00-18:00; Sa 09:00-12:00",
            "shop": "jewelry"
          },
          "geometry": {
            "type": "Point",
            "coordinates": [
              14.3032107,
              46.6236456
            ]
          }
        },
        {
          "type": "Feature",
          "properties": {
            "id": "12997560489",
            "osm_type": "node",
            "lat": 46.6248331,
            "lon": 14.3076257,
            "check_date": "2025-07-13",
            "name": "Rabl",
            "opening_hours": "Mo-Fr 10:00-18:00; Sa-Su 10:00-13:00",
            "shop": "jewelry"
          },
          "geometry": {
            "type": "Point",
            "coordinates": [
              14.3076257,
              46.6248331
            ]
          }
        }
      ],
      "children": []
    },
    {
      "bbox": {
        "south": 46.70320525,
        "west": 13.345766,
        "north": 47.033758500000005,
        "east": 14.2994695
      },
      "poiCount": 11,
      "leafCount": 11,
      "averagePosition": [
        13.720059090909091,
        46.80021567272727
      ],
      "data": [
        {
          "type": "Feature",
          "properties": {
            "id": "9599272311",
            "osm_type": "node",
            "lat": 46.9076635,
            "lon": 13.5358959,
            "addr:city": "Gmünd in Kärnten",
            "addr:country": "AT",
            "addr:housenumber": "30a",
            "addr:postcode": "9853",
            "addr:street": "Hintere Gasse",
            "craft": "goldsmith",
            "name": "Schmuckwerkstatt Astrid Perauer",
            "shop": "jewelry",
            "website": "https://astridperauer.com"
          },
          "geometry": {
            "type": "Point",
            "coordinates": [
              13.5358959,
              46.9076635
            ]
          }
        },
        {
          "type": "Feature",
          "properties": {
            "id": "11541110368",
            "osm_type": "node",
            "lat": 46.9081404,
            "lon": 13.5354815,
            "craft": "goldsmith",
            "name": "Goldschmiedekunst Andres",
            "shop": "jewelry",
            "website": "https://goldschmiedekunst.at"
          },
          "geometry": {
            "type": "Point",
            "coordinates": [
              13.5354815,
              46.9081404
            ]
          }
        },
        {
          "type": "Feature",
          "properties": {
            "id": "3054364413",
            "osm_type": "node",
            "lat": 46.7917802,
            "lon": 13.5135503,
            "name": "Le Clou",
            "shop": "jewelry"
          },
          "geometry": {
            "type": "Point",
            "coordinates": [
              13.5135503,
              46.7917802
            ]
          }
        },
        {
          "type": "Feature",
          "properties": {
            "id": "3378430786",
            "osm_type": "node",
            "lat": 46.798332,
            "lon": 13.4902334,
            "brand": "Bijou Brigitte",
            "brand:wikidata": "Q599545",
            "brand:wikipedia": "de:Bijou Brigitte",
            "name": "Bijou Brigitte",
            "shop": "jewelry"
          },
          "geometry": {
            "type": "Point",
            "coordinates": [
              13.4902334,
              46.798332
            ]
          }
        },
        {
          "type": "Feature",
          "properties": {
            "id": "3378430804",
            "osm_type": "node",
            "lat": 46.7978956,
            "lon": 13.4910559,
            "name": "Pasano by Schützelhoffer",
            "shop": "jewelry"
          },
          "geometry": {
            "type": "Point",
            "coordinates": [
              13.4910559,
              46.7978956
            ]
          }
        },
        {
          "type": "Feature",
          "properties": {
            "id": "7058395510",
            "osm_type": "node",
            "lat": 46.7974514,
            "lon": 13.4986887,
            "name": "Brigola",
            "shop": "jewelry"
          },
          "geometry": {
            "type": "Point",
            "coordinates": [
              13.4986887,
              46.7974514
            ]
          }
        },
        {
          "type": "Feature",
          "properties": {
            "id": "3611133859",
            "osm_type": "node",
            "lat": 46.8142027,
            "lon": 13.7994003,
            "check_date:opening_hours": "2025-08-24",
            "contact:website": "http://www.kranzelbinder.at",
            "name": "Kranzelbinder",
            "opening_hours": "Mo-Fr 10:00-18:00; Sa 09:00-13:00",
            "shop": "jewelry",
            "wheelchair": "yes"
          },
          "geometry": {
            "type": "Point",
            "coordinates": [
              13.7994003,
              46.8142027
            ]
          }
        },
        {
          "type": "Feature",
          "properties": {
            "id": "5000613936",
            "osm_type": "node",
            "lat": 46.8127812,
            "lon": 13.7780423,
            "name": "Woschank",
            "shop": "jewelry"
          },
          "geometry": {
            "type": "Point",
            "coordinates": [
              13.7780423,
              46.8127812
            ]
          }
        },
        {
          "type": "Feature",
          "properties": {
            "id": "6479055879",
            "osm_type": "node",
            "lat": 46.7248703,
            "lon": 14.0932731,
            "addr:city": "Feldkirchen in Kärnten",
            "addr:country": "AT",
            "addr:housenumber": "3",
            "addr:postcode": "9560",
            "addr:street": "Schillerplatz",
            "contact:phone": "+43 4276 244 30",
            "name": "Zechner",
            "opening_hours": "Mo-Fr 08:30-18:00; Sa 09:00-12:30",
            "operator": "Zechner",
            "shop": "jewelry",
            "website": "https://www.juwelier-zechner.at/"
          },
          "geometry": {
            "type": "Point",
            "coordinates": [
              14.0932731,
              46.7248703
            ]
          }
        },
        {
          "type": "Feature",
          "properties": {
            "id": "6544817181",
            "osm_type": "node",
            "lat": 46.7250298,
            "lon": 14.0926679,
            "addr:city": "Feldkirchen in Kärnten",
            "addr:country": "AT",
            "addr:housenumber": "8",
            "addr:postcode": "9560",
            "addr:street": "Kirchgasse",
            "contact:phone": "+43 4276 2198",
            "name": "Kniewasser",
            "shop": "jewelry"
          },
          "geometry": {
            "type": "Point",
            "coordinates": [
              14.0926679,
              46.7250298
            ]
          }
        },
        {
          "type": "Feature",
          "properties": {
            "id": "6544867217",
            "osm_type": "node",
            "lat": 46.7242253,
            "lon": 14.0923607,
            "check_date": "2025-04-12",
            "name": "Juwelier Sommer",
            "shop": "jewelry"
          },
          "geometry": {
            "type": "Point",
            "coordinates": [
              14.0923607,
              46.7242253
            ]
          }
        }
      ],
      "children": []
    },
    {
      "bbox": {
        "south": 46.70320525,
        "west": 14.2994695,
        "north": 47.033758500000005,
        "east": 15.253173
      },
      "poiCount": 5,
      "leafCount": 5,
      "averagePosition": [
        14.74802994,
        46.82464052
      ],
      "data": [
        {
          "type": "Feature",
          "properties": {
            "id": "7728544876",
            "osm_type": "node",
            "lat": 46.8395,
            "lon": 14.8445,
            "name": "Weisshaupt",
            "shop": "jewelry"
          },
          "geometry": {
            "type": "Point",
            "coordinates": [
              14.8445,
              46.8395
            ]
          }
        },
        {
          "type": "Feature",
          "properties": {
            "id": "7728547162",
            "osm_type": "node",
            "lat": 46.839,
            "lon": 14.8451,
            "name": "Juwelier Waschier",
            "shop": "jewelry"
          },
          "geometry": {
            "type": "Point",
            "coordinates": [
              14.8451,
              46.839
            ]
          }
        },
        {
          "type": "Feature",
          "properties": {
            "id": "7728560919",
            "osm_type": "node",
            "lat": 46.8391,
            "lon": 14.8454,
            "name": "Juwelier A. Kudrinka",
            "shop": "jewelry"
          },
          "geometry": {
            "type": "Point",
            "coordinates": [
              14.8454,
              46.8391
            ]
          }
        },
        {
          "type": "Feature",
          "properties": {
            "id": "7728562476",
            "osm_type": "node",
            "lat": 46.8391,
            "lon": 14.8454,
            "name": "Juwelier Roth",
            "shop": "jewelry"
          },
          "geometry": {
            "type": "Point",
            "coordinates": [
              14.8454,
              46.8391
            ]
          }
        },
        {
          "type": "Feature",
          "properties": {
            "id": "4280804677",
            "osm_type": "node",
            "lat": 46.7665026,
            "lon": 14.3597497,
            "shop": "jewelry"
          },
          "geometry": {
            "type": "Point",
            "coordinates": [
              14.3597497,
              46.7665026
            ]
          }
        }
      ],
      "children": []
    }
  ]
}