{
  "bbox": {
    "south": 47.033758500000005,
    "west": 13.345766,
    "north": 47.694865,
    "east": 15.253173
  },
  "poiCount": 29,
  "leafCount": 29,
  "averagePosition": [
    14.560181537931033,
    47.281613265517244
  ],
  "data": [
    {
      "type": "Feature",
      "properties": {
        "id": "3051013849",
        "osm_type": "node",
        "lat": 47.0985375,
        "lon": 13.6373686,
        "addr:city": "Sankt Michael im Lungau",
        "addr:housenumber": "2",
        "addr:street": "Marktstraße",
        "name": "Trausnitz",
        "operator": "Robert Trausnitz",
        "shop": "jewelry"
      },
      "geometry": {
        "type": "Point",
        "coordinates": [
          13.6373686,
          47.0985375
        ]
      }
    },
    {
      "type": "Feature",
      "properties": {
        "id": "993837954",
        "osm_type": "node",
        "lat": 47.0722654,
        "lon": 14.4261174,
        "name": "Sitzmann GesmbH",
        "opening_hours": "Mo-Fr 08:00-12:00,14:30-18:00; Sa 08:00-12:00",
        "shop": "jewelry"
      },
      "geometry": {
        "type": "Point",
        "coordinates": [
          14.4261174,
          47.0722654
        ]
      }
    },
    {
      "type": "Feature",
      "properties": {
        "id": "1670163995",
        "osm_type": "node",
        "lat": 47.2141503,
        "lon": 14.8296605,
        "name": "Wölle",
        "shop": "jewelry"
      },
      "geometry": {
        "type": "Point",
        "coordinates": [
          14.8296605,
          47.2141503
        ]
      }
    },
    {
      "type": "Feature",
      "properties": {
        "id": "4876546221",
        "osm_type": "node",
        "lat": 47.2200001,
        "lon": 14.5813924,
        "addr:city": "Pöls-Oberkurzheim",
        "addr:country": "AT",
        "addr:housenumber": "8",
        "addr:postcode": "8761",
        "addr:street": "Fohnsdorfer Straße",
        "at_bev:addr_date": "2019-10-01",
        "name": "Dieter Zwirntner",
        "opening_hours": "Mo-Fr 08:00-12:00,15:00-18:00",
        "shop": "jewelry"
      },
      "geometry": {
        "type": "Point",
        "coordinates": [
          14.5813924,
          47.2200001
        ]
      }
    },
    {
      "type": "Feature",
      "properties": {
        "id": "5188027823",
        "osm_type": "node",
        "lat": 47.1688691,
        "lon": 14.6537782,
        "addr:city": "Judenburg",
        "addr:country": "AT",
        "addr:housenumber": "44",
        "addr:postcode": "8750",
        "addr:street": "Burggasse",
        "email": "gold-silberhandlung@ainet.at",
        "name": "Gold- und Silberhandlung",
        "opening_hours": "Mo-Fr 08:30-12:30,14:30-17:45",
        "phone": "+43 6645188030",
        "shop": "jewelry",
        "website": "https://www.judenburger-gold.at/"
      },
      "geometry": {
        "type": "Point",
        "coordinates": [
          14.6537782,
          47.1688691
        ]
      }
    },
    {
      "type": "Feature",
      "properties": {
        "id": "5465060422",
        "osm_type": "node",
        "lat": 47.183718,
        "lon": 14.6807063,
        "addr:city": "Fohnsdorf",
        "addr:country": "AT",
        "addr:housenumber": "7",
        "addr:postcode": "8753",
        "addr:street": "Arena am Waldfeld",
        "name": "Eder Ausim Juwelier",
        "opening_hours": "Mo-Fr 09:00-18:30; Sa 09:00-18:00",
        "phone": "+43 03572 46677",
        "shop": "jewelry",
        "website": "https://www.eder-ausim.at/",
        "wheelchair": "yes"
      },
      "geometry": {
        "type": "Point",
        "coordinates": [
          14.6807063,
          47.183718
        ]
      }
    },
    {
      "type": "Feature",
      "properties": {
        "id": "5585754108",
        "osm_type": "node",
        "lat": 47.207598,
        "lon": 14.7969505,
        "addr:city": "Spielberg",
        "addr:country": "AT",
        "addr:housenumber": "1 D9",
        "addr:postcode": "8724",
        "addr:street": "Marktpassage",
        "email": "info@ihrgoldschmied.at",
        "name": "Karin's Goldschmiede",
        "opening_hours": "Mo-Fr 08:30-12:30,13:30-17:30; Th 08:30-12:30",
        "operator": "Karin Breuer",
        "phone": "+43 6649280506",
        "shop": "jewelry",
        "website": "https://www.ihrgoldschmied.at/"
      },
      "geometry": {
        "type": "Point",
        "coordinates": [
          14.7969505,
          47.207598
        ]
      }
    },
    {
      "type": "Feature",
      "properties": {
        "id": "5600025910",
        "osm_type": "node",
        "lat": 47.1689436,
        "lon": 14.6593505,
        "addr:city": "Judenburg",
        "addr:country": "AT",
        "addr:housenumber": "5",
        "addr:postcode": "8750",
        "addr:street": "Herrengasse",
        "name": "Schiller",
        "phone": "+43 3572 82623",
        "shop": "jewelry"
      },
      "geometry": {
        "type": "Point",
        "coordinates": [
          14.6593505,
          47.1689436
        ]
      }
    },
    {
      "type": "Feature",
      "properties": {
        "id": "5600198278",
        "osm_type": "node",
        "lat": 47.1680045,
        "lon": 14.6600774,
        "addr:city": "Judenburg",
        "addr:country": "AT",
        "addr:housenumber": "10",
        "addr:postcode": "8750",
        "addr:street": "Burggasse",
        "email": "office@schicho-schmuck.at",
        "name": "Schicho",
        "phone": "+43 3572 82491",
        "shop": "jewelry"
      },
      "geometry": {
        "type": "Point",
        "coordinates": [
          14.6600774,
          47.1680045
        ]
      }
    },
    {
      "type": "Feature",
      "properties": {
        "id": "5600439891",
        "osm_type": "node",
        "lat": 47.168743,
        "lon": 14.661279,
        "addr:city": "Judenburg",
        "addr:country": "AT",
        "addr:housenumber": "8",
        "addr:postcode": "8750",
        "addr:street": "Hauptplatz",
        "name": "Moser",
        "opening_hours": "Mo-Fr 08:30-12:00,15:00-18:00; Sa 08:30-12:00",
        "phone": "+43(0)664/ 43 94 394",
        "shop": "jewelry",
        "website": "http://www.goldschmiedemoser.at/"
      },
      "geometry": {
        "type": "Point",
        "coordinates": [
          14.661279,
          47.168743
        ]
      }
    },
    {
      "type": "Feature",
      "properties": {
        "id": "5611024295",
        "osm_type": "node",
        "lat": 47.207813,
        "lon": 14.6755698,
        "addr:city": "Fohnsdorf",
        "addr:country": "AT",
        "addr:housenumber": "10",
        "addr:postcode": "8753",
        "addr:street": "Hauptstraße",
        "name": "Fritz",
        "phone": "+43 3573/2281",
        "shop": "jewelry"
      },
      "geometry": {
        "type": "Point",
        "coordinates": [
          14.6755698,
          47.207813
        ]
      }
    },
    {
      "type": "Feature",
      "properties": {
        "id": "5619962350",
        "osm_type": "node",
        "lat": 47.2153853,
        "lon": 14.8279394,
        "name": "Berger",
        "shop": "jewelry",
        "website": "http://www.goldschmiede-berger.at/"
      },
      "geometry": {
        "type": "Point",
        "coordinates": [
          14.8279394,
          47.2153853
        ]
      }
    },
    {
      "type": "Feature",
      "properties": {
        "id": "5619962353",
        "osm_type": "node",
        "lat": 47.2153862,
        "lon": 14.8283793,
        "addr:city": "Knittelfeld",
        "addr:country": "AT",
        "addr:housenumber": "16",
        "addr:postcode": "8720",
        "addr:street": "Frauengasse",
        "name": "Ebner",
        "shop": "jewelry"
      },
      "geometry": {
        "type": "Point",
        "coordinates": [
          14.8283793,
          47.2153862
        ]
      }
    },
    {
      "type": "Feature",
      "properties": {
        "id": "5621334588",
        "osm_type": "node",
        "lat": 47.21372,
        "lon": 14.8277678,
        "addr:city": "Knittelfeld",
        "addr:country": "AT",
        "addr:housenumber": "15",
        "addr:postcode": "8720",
        "addr:street": "Schmittstraße",
        "name": "Iwinjak",
        "shop": "jewelry"
      },
      "geometry": {
        "type": "Point",
        "coordinates": [
          14.8277678,
          47.21372
        ]
      }
    },
    {
      "type": "Feature",
      "properties": {
        "id": "6383227933",
        "osm_type": "node",
        "lat": 47.192976,
        "lon": 14.6845029,
        "addr:city": "Hetzendorf",
        "addr:country": "AT",
        "addr:housenumber": "1",
        "addr:postcode": "8753",
        "addr:street": "Weitfeldgasse",
        "at_bev:addr_date": "2017-04-07",
        "email": "alexandra@artsofwoman.at",
        "name": "arts of woman",
        "phone": "+43 (0)664 54 16 685",
        "shop": "jewelry",
        "website": "https://www.artsofwoman.at/"
      },
      "geometry": {
        "type": "Point",
        "coordinates": [
          14.6845029,
          47.192976
        ]
      }
    },
    {
      "type": "Feature",
      "properties": {
        "id": "1918570875",
        "osm_type": "node",
        "lat": 47.0500132,
        "lon": 15.149158,
        "addr:city": "Voitsberg",
        "addr:country": "AT",
        "addr:housenumber": "27",
        "addr:postcode": "8570",
        "addr:street": "Hauptplatz",
        "contact:phone": "+43 3142 22736",
        "lastcheck": "2017-07-17",
        "name": "Juwelier Hafner",
        "opening_hours": "Mo-Fr 08:30-12:15, 14:30-18:00; Sa 08:30-12:15",
        "shop": "jewelry",
        "website": "https://www.uhrenhafner.at/",
        "wheelchair": "no"
      },
      "geometry": {
        "type": "Point",
        "coordinates": [
          15.149158,
          47.0500132
        ]
      }
    },
    {
      "type": "Feature",
      "properties": {
        "id": "1918571061",
        "osm_type": "node",
        "lat": 47.0498303,
        "lon": 15.148246,
        "addr:city": "Voitsberg",
        "addr:country": "AT",
        "addr:housenumber": "8",
        "addr:postcode": "8570",
        "addr:street": "Hauptplatz",
        "name": "Freisitzer",
        "shop": "jewelry",
        "wheelchair": "no"
      },
      "geometry": {
        "type": "Point",
        "coordinates": [
          15.148246,
          47.0498303
        ]
      }
    },
    {
      "type": "Feature",
      "properties": {
        "id": "1919074890",
        "osm_type": "node",
        "lat": 47.0642118,
        "lon": 15.0841813,
        "addr:city": "Köflach",
        "addr:country": "AT",
        "addr:housenumber": "17A",
        "addr:postcode": "8580",
        "addr:street": "Hauptplatz",
        "name": "Gressl",
        "shop": "jewelry"
      },
      "geometry": {
        "type": "Point",
        "coordinates": [
          15.0841813,
          47.0642118
        ]
      }
    },
    {
      "type": "Feature",
      "properties": {
        "id": "4656688570",
        "osm_type": "node",
        "lat": 47.5641164,
        "lon": 13.3460243,
        "addr:city": "Abtenau",
        "addr:country": "AT",
        "addr:housenumber": "284",
        "addr:postcode": "5441",
        "addr:street": "Markt",
        "name": "Uhren & Schmuck Andreas Schützinger",
        "shop": "jewelry"
      },
      "geometry": {
        "type": "Point",
        "coordinates": [
          13.3460243,
          47.5641164
        ]
      }
    },
    {
      "type": "Feature",
      "properties": {
        "id": "1044741518",
        "osm_type": "node",
        "lat": 47.4177215,
        "lon": 13.6713911,
        "addr:city": "Ramsau am Dachstein",
        "addr:postcode": "8972",
        "name": "Kunstschmiede",
        "shop": "jewelry"
      },
      "geometry": {
        "type": "Point",
        "coordinates": [
          13.6713911,
          47.4177215
        ]
      }
    },
    {
      "type": "Feature",
      "properties": {
        "id": "9034290261",
        "osm_type": "node",
        "lat": 47.6092689,
        "lon": 13.781992,
        "name": "Juwelier Pleiner",
        "shop": "jewelry",
        "wheelchair": "no"
      },
      "geometry": {
        "type": "Point",
        "coordinates": [
          13.781992,
          47.6092689
        ]
      }
    },
    {
      "type": "Feature",
      "properties": {
        "id": "9433345687",
        "osm_type": "node",
        "lat": 47.3918957,
        "lon": 13.6899989,
        "name": "Angerer",
        "shop": "jewelry"
      },
      "geometry": {
        "type": "Point",
        "coordinates": [
          13.6899989,
          47.3918957
        ]
      }
    },
    {
      "type": "Feature",
      "properties": {
        "id": "11260092750",
        "osm_type": "node",
        "lat": 47.6087466,
        "lon": 13.7831828,
        "building": "retail",
        "name": "Goldschmiede Steiner",
        "shop": "jewelry"
      },
      "geometry": {
        "type": "Point",
        "coordinates": [
          13.7831828,
          47.6087466
        ]
      }
    },
    {
      "type": "Feature",
      "properties": {
        "id": "11260122278",
        "osm_type": "node",
        "lat": 47.6105934,
        "lon": 13.7843409,
        "addr:city": "Bad Aussee",
        "addr:country": "AT",
        "addr:housenumber": "50",
        "addr:postcode": "8990",
        "addr:street": "Hauptstraße",
        "building": "retail",
        "name": "Elssenwenger Goldschmiede",
        "shop": "jewelry"
      },
      "geometry": {
        "type": "Point",
        "coordinates": [
          13.7843409,
          47.6105934
        ]
      }
    },
    {
      "type": "Feature",
      "properties": {
        "id": "1344333037",
        "osm_type": "node",
        "lat": 47.5412204,
        "lon": 14.8875003,
        "addr:city": "Eisenerz",
        "addr:country": "AT",
        "addr:housenumber": "3",
        "addr:postcode": "8790",
        "addr:street": "Hieflauer Straße",
        "name": "Uhren Wutscher",
        "shop": "jewelry",
        "website": "http://www.wutscher.at/kontakt.html"
      },
      "geometry": {
        "type": "Point",
        "coordinates": [
          14.8875003,
          47.5412204
        ]
      }
    },
    {
      "type": "Feature",
      "properties": {
        "id": "1431776622",
        "osm_type": "node",
        "lat": 47.3819099,
        "lon": 15.0949208,
        "addr:city": "Leoben",
        "addr:housenumber": "19",
        "addr:postcode": "8700",
        "addr:street": "Hauptplatz",
        "addr:suburb": "Leoben",
        "contact:email": "office@payer.at",
        "contact:website": "http://www.payer.at/",
        "name": "Juwelier Heike Payer",
        "opening_hours": "Mo-Fr 09:00-19:00; Sa 09:00-18:00",
        "operator": "Heike Payer",
        "phone": "+43 3842 43111",
        "shop": "jewelry"
      },
      "geometry": {
        "type": "Point",
        "coordinates": [
          15.0949208,
          47.3819099
        ]
      }
    },
    {
      "type": "Feature",
      "properties": {
        "id": "1492560479",
        "osm_type": "node",
        "lat": 47.3804451,
        "lon": 15.0944677,
        "addr:city": "Leoben",
        "addr:country": "AT",
        "addr:housenumber": "12",
        "addr:postcode": "8700",
        "addr:street": "Hauptplatz",
        "addr:suburb": "Leoben",
        "contact:email": "uhren@arnberger.at",
        "contact:fax": "+43 3842 42483",
        "contact:phone": "+43 3842 42483",
        "name": "Uhrenfachgeschäft Amberger",
        "opening_hours": "Mo-Fr 08:00-12:00,14:30-18:00",
        "operator": "M. Frosch",
        "shop": "jewelry",
        "source": "survey",
        "website": "https://www.arnberger.at/"
      },
      "geometry": {
        "type": "Point",
        "coordinates": [
          15.0944677,
          47.3804451
        ]
      }
    },
    {
      "type": "Feature",
      "properties": {
        "id": "4412045193",
        "osm_type": "node",
        "lat": 47.399607,
        "lon": 15.2051317,
        "email": "gregor.wechselberger@dergoldschmied.at",
        "name": "Goldschmiede Wechselberger",
        "opening_hours": "Mo-Fr 08:00-12:00",
        "operator": "Gregor Wechselberger",
        "phone": "+43 650 9205313",
        "shop": "jewelry",
        "website": "https://www.dergoldschmied.at/"
      },
      "geometry": {
        "type": "Point",
        "coordinates": [
          15.2051317,
          47.399607
        ]
      }
    },
    {
      "type": "Feature",
      "properties": {
        "id": "4643239217",
        "osm_type": "node",
        "lat": 47.3810945,
        "lon": 15.0938888,
        "addr:city": "Leoben",
        "addr:country": "AT",
        "addr:housenumber": "1",
        "addr:postcode": "8700",
        "addr:street": "Timmersdorfergasse",
        "addr:suburb": "Leoben",
        "name": "Goldschmiede Wieser",
        "opening_hours": "Mo-Fr 08:30-12:30,13:30-18:00; Sa 09:00-12:30",
        "shop": "jewelry",
        "source": "survey",
        "website": "https://www.goldschmiede-wieser.at/"
      },
      "geometry": {
        "type": "Point",
        "coordinates": [
          15.0938888,
          47.3810945
        ]
      }
    }
  ],
  "children": []
}