{
  "bbox": {
    "south": 48.355971499999995,
    "west": 9.530952,
    "north": 49.017078,
    "east": 11.438358999999998
  },
  "poiCount": 175,
  "leafCount": 0,
  "averagePosition": [
    10.492964409714284,
    48.54225916800001
  ],
  "data": [],
  "children": [
    {
      "bbox": {
        "south": 48.355971499999995,
        "west": 9.530952,
        "north": 48.68652475,
        "east": 10.484655499999999
      },
      "poiCount": 49,
      "leafCount": 49,
      "averagePosition": [
        10.006043918367347,
        48.46846444081633
      ],
      "data": [
        {
          "type": "Feature",
          "properties": {
            "id": "768585220",
            "osm_type": "node",
            "lat": 48.3952449,
            "lon": 9.9963576,
            "addr:city": "Neu-Ulm",
            "addr:country": "DE",
            "addr:housenumber": "5",
            "addr:postcode": "89231",
            "addr:street": "Insel",
            "fax": "+49 731 1753142",
            "name": "Danubius Goldschmiede",
            "phone": "+49 731 1753143",
            "shop": "jewelry"
          },
          "geometry": {
            "type": "Point",
            "coordinates": [
              9.9963576,
              48.3952449
            ]
          }
        },
        {
          "type": "Feature",
          "properties": {
            "id": "801060835",
            "osm_type": "node",
            "lat": 48.3977402,
            "lon": 9.9917119,
            "check_date": "2024-01-29",
            "name": "Ehinger-Schwarz",
            "shop": "jewelry",
            "toilets:wheelchair": "no",
            "wheelchair": "limited"
          },
          "geometry": {
            "type": "Point",
            "coordinates": [
              9.9917119,
              48.3977402
            ]
          }
        },
        {
          "type": "Feature",
          "properties": {
            "id": "801060839",
            "osm_type": "node",
            "lat": 48.3979914,
            "lon": 9.9908402,
            "check_date": "2024-01-29",
            "name": "Ehinger-Schwarz 1876",
            "opening_hours": "Mo-Fr 10:00-19:00; Sa 10:00-18:00",
            "shop": "jewelry",
            "wheelchair": "yes"
          },
          "geometry": {
            "type": "Point",
            "coordinates": [
              9.9908402,
              48.3979914
            ]
          }
        },
        {
          "type": "Feature",
          "properties": {
            "id": "804416840",
            "osm_type": "node",
            "lat": 48.3974964,
            "lon": 9.9942469,
            "name": "Tu Ego",
            "shop": "jewelry"
          },
          "geometry": {
            "type": "Point",
            "coordinates": [
              9.9942469,
              48.3974964
            ]
          }
        },
        {
          "type": "Feature",
          "properties": {
            "id": "1095058665",
            "osm_type": "node",
            "lat": 48.396773,
            "lon": 9.9884635,
            "name": "Goldschmiede Dentler",
            "shop": "jewelry"
          },
          "geometry": {
            "type": "Point",
            "coordinates": [
              9.9884635,
              48.396773
            ]
          }
        },
        {
          "type": "Feature",
          "properties": {
            "id": "1437422130",
            "osm_type": "node",
            "lat": 48.3993376,
            "lon": 9.9910101,
            "addr:city": "Ulm",
            "addr:housenumber": "3",
            "addr:postcode": "89073",
            "addr:street": "Platzgasse",
            "email": "info@juwelier-roth.de",
            "fax": "+49 731 15189637",
            "name": "Juwelier Roth",
            "opening_hours": "Mo-Fr 10:00-18:30; Sa 10:00-17:00; PH closed",
            "phone": "+49 731 1518960",
            "shop": "jewelry"
          },
          "geometry": {
            "type": "Point",
            "coordinates": [
              9.9910101,
              48.3993376
            ]
          }
        },
        {
          "type": "Feature",
          "properties": {
            "id": "1437422157",
            "osm_type": "node",
            "lat": 48.3990387,
            "lon": 9.9911751,
            "check_date": "2024-01-03",
            "name": "Scheuble",
            "opening_hours": "Mo-Sa 10:00-18:00",
            "shop": "jewelry",
            "url": "www.scheuble.de"
          },
          "geometry": {
            "type": "Point",
            "coordinates": [
              9.9911751,
              48.3990387
            ]
          }
        },
        {
          "type": "Feature",
          "properties": {
            "id": "1454659239",
            "osm_type": "node",
            "lat": 48.3991438,
            "lon": 9.9926,
            "addr:housename": "Juweliergeschäft seit 1884",
            "addr:housenumber": "17",
            "addr:postcode": "89073",
            "addr:street": "Münsterplatz",
            "check_date": "2024-01-03",
            "name": "Juwelier - Julius Kerner GmbH",
            "shop": "jewelry",
            "source": "www.juwelier-kerner.de",
            "website": "https://www.juwelier-kerner.de/"
          },
          "geometry": {
            "type": "Point",
            "coordinates": [
              9.9926,
              48.3991438
            ]
          }
        },
        {
          "type": "Feature",
          "properties": {
            "id": "1490294921",
            "osm_type": "node",
            "lat": 48.6175184,
            "lon": 9.8366381,
            "addr:city": "Geislingen an der Steige",
            "name": "amor",
            "opening_hours": "Mo-Sa 09:30-18:30",
            "shop": "jewelry",
            "wheelchair": "yes"
          },
          "geometry": {
            "type": "Point",
            "coordinates": [
              9.8366381,
              48.6175184
            ]
          }
        },
        {
          "type": "Feature",
          "properties": {
            "id": "1637132330",
            "osm_type": "node",
            "lat": 48.3989282,
            "lon": 9.9929463,
            "addr:city": "Ulm",
            "addr:housename": "Trauringstudio Ulm",
            "addr:housenumber": "90",
            "addr:postcode": "89073",
            "addr:street": "Münsterplatz",
            "check_date": "2024-03-29",
            "email": "ulm@123gold.de",
            "fax": "+49 731 8802338",
            "name": "123Gold.de Trauringstore Ulm",
            "opening_hours": "Mo-Fr 10:00-18:00; Sa 09:30-16:00",
            "phone": "+49 731 8802333",
            "shop": "jewelry",
            "website": "http://trau-dich-ringe.de",
            "wheelchair": "yes"
          },
          "geometry": {
            "type": "Point",
            "coordinates": [
              9.9929463,
              48.3989282
            ]
          }
        },
        {
          "type": "Feature",
          "properties": {
            "id": "1933575798",
            "osm_type": "node",
            "lat": 48.4004191,
            "lon": 9.9924088,
            "name": "Coma Schmuckdesign",
            "old_name": "Sibylle Glowania, Schmuck in Form (bis 2024)",
            "shop": "jewelry",
            "website": "https://coma-schmuckdesign.de",
            "wheelchair": "limited"
          },
          "geometry": {
            "type": "Point",
            "coordinates": [
              9.9924088,
              48.4004191
            ]
          }
        },
        {
          "type": "Feature",
          "properties": {
            "id": "2337834490",
            "osm_type": "node",
            "lat": 48.4426142,
            "lon": 9.660748,
            "addr:city": "Heroldstatt",
            "addr:country": "DE",
            "addr:housenumber": "9/3",
            "addr:postcode": "72535",
            "addr:street": "Am Berg",
            "addr:suburb": "Sontheim",
            "name": "Mayer",
            "shop": "jewelry"
          },
          "geometry": {
            "type": "Point",
            "coordinates": [
              9.660748,
              48.4426142
            ]
          }
        },
        {
          "type": "Feature",
          "properties": {
            "id": "2486648262",
            "osm_type": "node",
            "lat": 48.3952351,
            "lon": 9.9545285,
            "name": "fabbris Uhren und Schmuck",
            "opening_hours": "Mo-Fr 09:00-12:30, Fr 14:00-17:00",
            "phone": "+497313799016",
            "shop": "jewelry",
            "website": "https://www.fabbris.de/"
          },
          "geometry": {
            "type": "Point",
            "coordinates": [
              9.9545285,
              48.3952351
            ]
          }
        },
        {
          "type": "Feature",
          "properties": {
            "id": "2589207821",
            "osm_type": "node",
            "lat": 48.4156049,
            "lon": 9.9195035,
            "name": "Schwaibold",
            "shop": "jewelry",
            "website": "https://schwaibold.de/"
          },
          "geometry": {
            "type": "Point",
            "coordinates": [
              9.9195035,
              48.4156049
            ]
          }
        },
        {
          "type": "Feature",
          "properties": {
            "id": "2622222501",
            "osm_type": "node",
            "lat": 48.3994831,
            "lon": 9.9934347,
            "check_date": "2025-04-30",
            "name": "Ulmer Pfandkredit-Institut",
            "shop": "jewelry",
            "url": "www.ulmer-pfandkredit.de"
          },
          "geometry": {
            "type": "Point",
            "coordinates": [
              9.9934347,
              48.3994831
            ]
          }
        },
        {
          "type": "Feature",
          "properties": {
            "id": "2663977333",
            "osm_type": "node",
            "lat": 48.4001598,
            "lon": 9.9902059,
            "name": "Atelier Gasparotto",
            "opening_hours": "Sa 10:00-15:00; Tu-Fr 10:00-13:00,14:00-18:00",
            "shop": "jewelry"
          },
          "geometry": {
            "type": "Point",
            "coordinates": [
              9.9902059,
              48.4001598
            ]
          }
        },
        {
          "type": "Feature",
          "properties": {
            "id": "2672282895",
            "osm_type": "node",
            "lat": 48.400534,
            "lon": 9.988508,
            "check_date": "2024-04-20",
            "name": "Juwelier Stern Altinbas",
            "opening_hours": "Mo-Fr 10:00-18:30; Sa 10:00-16:00",
            "shop": "jewelry"
          },
          "geometry": {
            "type": "Point",
            "coordinates": [
              9.988508,
              48.400534
            ]
          }
        },
        {
          "type": "Feature",
          "properties": {
            "id": "2675917163",
            "osm_type": "node",
            "lat": 48.40027,
            "lon": 9.9891262,
            "name": "Goldcenter",
            "opening_hours": "Mo,Tu,Th,Fr 09:00-17:30; We 09:00-13:00; Sa off",
            "shop": "jewelry"
          },
          "geometry": {
            "type": "Point",
            "coordinates": [
              9.9891262,
              48.40027
            ]
          }
        },
        {
          "type": "Feature",
          "properties": {
            "id": "2698021365",
            "osm_type": "node",
            "lat": 48.4003937,
            "lon": 9.9919104,
            "check_date": "2025-07-21",
            "check_date:opening_hours": "2025-07-21",
            "name": "Boemans Goldschmied",
            "opening_hours": "Mo-Fr 10:00-13:30,14:30-18:00; Sa 09:00-16:00",
            "shop": "jewelry"
          },
          "geometry": {
            "type": "Point",
            "coordinates": [
              9.9919104,
              48.4003937
            ]
          }
        },
        {
          "type": "Feature",
          "properties": {
            "id": "2698021377",
            "osm_type": "node",
            "lat": 48.4002518,
            "lon": 9.991276,
            "name": "Schmuckstücke Beatrix Maier",
            "old_name": "Schmuck+Kunst Erlewein",
            "shop": "jewelry",
            "website": "https://www.schmuckstuecke-beatrix-maier.de"
          },
          "geometry": {
            "type": "Point",
            "coordinates": [
              9.991276,
              48.4002518
            ]
          }
        },
        {
          "type": "Feature",
          "properties": {
            "id": "3080105165",
            "osm_type": "node",
            "lat": 48.3982623,
            "lon": 9.9887599,
            "brand": "Bijou Brigitte",
            "brand:wikidata": "Q599545",
            "brand:wikipedia": "de:Bijou Brigitte",
            "check_date:opening_hours": "2025-05-30",
            "name": "Bijou Brigitte",
            "opening_hours": "Mo-Sa 09:30-19:00",
            "shop": "jewelry"
          },
          "geometry": {
            "type": "Point",
            "coordinates": [
              9.9887599,
              48.3982623
            ]
          }
        },
        {
          "type": "Feature",
          "properties": {
            "id": "3084752650",
            "osm_type": "node",
            "lat": 48.3984379,
            "lon": 9.9866679,
            "addr:city": "Ulm",
            "addr:housenumber": "4-6",
            "addr:postcode": "89073",
            "addr:street": "Bahnhofstraße",
            "brand": "Lovisa",
            "brand:wikidata": "Q106298409",
            "name": "Lovisa",
            "opening_hours": "Mo-Sa 09:30-20:00",
            "shop": "jewelry",
            "wheelchair": "yes"
          },
          "geometry": {
            "type": "Point",
            "coordinates": [
              9.9866679,
              48.3984379
            ]
          }
        },
        {
          "type": "Feature",
          "properties": {
            "id": "3152519557",
            "osm_type": "node",
            "lat": 48.3934825,
            "lon": 10.0027445,
            "name": "Schmuck-Truhe Rehe",
            "opening_hours": "Tu,Th 10:00-12:30,14:00-18:00; We 09:00-12:00; Fr 10:00-16:00; Sa 09:00-12:00",
            "shop": "jewelry",
            "website": "https://www.schmuck-truhe-reh.de",
            "wheelchair": "limited",
            "wheelchair:description": "Keine elektrische (Schiebe-)Tür"
          },
          "geometry": {
            "type": "Point",
            "coordinates": [
              10.0027445,
              48.3934825
            ]
          }
        },
        {
          "type": "Feature",
          "properties": {
            "id": "3168585169",
            "osm_type": "node",
            "lat": 48.3989079,
            "lon": 9.9957715,
            "check_date": "2023-10-30",
            "name": "Meister Walter",
            "shop": "jewelry",
            "wheelchair": "no"
          },
          "geometry": {
            "type": "Point",
            "coordinates": [
              9.9957715,
              48.3989079
            ]
          }
        },
        {
          "type": "Feature",
          "properties": {
            "id": "3168585175",
            "osm_type": "node",
            "lat": 48.3989346,
            "lon": 9.9954135,
            "check_date": "2023-10-30",
            "name": "Goldschmiede Lahl",
            "shop": "jewelry"
          },
          "geometry": {
            "type": "Point",
            "coordinates": [
              9.9954135,
              48.3989346
            ]
          }
        },
        {
          "type": "Feature",
          "properties": {
            "id": "3724737934",
            "osm_type": "node",
            "lat": 48.396334,
            "lon": 9.9942749,
            "check_date": "2023-10-30",
            "name": "Uhren+Schmuck Kölle",
            "opening_hours": "Mo-Fr 10:00-12:30,14:00-18:00; Sa 11:00-13:00",
            "shop": "jewelry",
            "website": "http://www.juwelier-koelle.de"
          },
          "geometry": {
            "type": "Point",
            "coordinates": [
              9.9942749,
              48.396334
            ]
          }
        },
        {
          "type": "Feature",
          "properties": {
            "id": "3724737940",
            "osm_type": "node",
            "lat": 48.3963838,
            "lon": 9.9941328,
            "check_date": "2023-10-30",
            "name": "Goldschmiedewerkstatt Sieben Rosen",
            "opening_hours": "Mo-Tu,Th-Fr 10:00-18:00; We off; Sa 10:00-14:00",
            "shop": "jewelry"
          },
          "geometry": {
            "type": "Point",
            "coordinates": [
              9.9941328,
              48.3963838
            ]
          }
        },
        {
          "type": "Feature",
          "properties": {
            "id": "5758098712",
            "osm_type": "node",
            "lat": 48.3924105,
            "lon": 9.9557042,
            "addr:city": "Ulm",
            "addr:housenumber": "19",
            "addr:postcode": "89077",
            "addr:street": "Krausstraße",
            "name": "Atelier AvanTa",
            "operator": "Tamara Brötzler",
            "shop": "jewelry",
            "website": "https://www.atelier-avanta.de/"
          },
          "geometry": {
            "type": "Point",
            "coordinates": [
              9.9557042,
              48.3924105
            ]
          }
        },
        {
          "type": "Feature",
          "properties": {
            "id": "7250632969",
            "osm_type": "node",
            "lat": 48.6135536,
            "lon": 9.8439394,
            "name": "isi times",
            "shop": "jewelry"
          },
          "geometry": {
            "type": "Point",
            "coordinates": [
              9.8439394,
              48.6135536
            ]
          }
        },
        {
          "type": "Feature",
          "properties": {
            "id": "7760022560",
            "osm_type": "node",
            "lat": 48.6176729,
            "lon": 9.8418484,
            "name": "Grüb",
            "shop": "jewelry"
          },
          "geometry": {
            "type": "Point",
            "coordinates": [
              9.8418484,
              48.6176729
            ]
          }
        },
        {
          "type": "Feature",
          "properties": {
            "id": "8137627364",
            "osm_type": "node",
            "lat": 48.3945385,
            "lon": 9.9970872,
            "addr:city": "Neu-Ulm",
            "addr:housenumber": "1",
            "addr:postcode": "89231",
            "addr:street": "Marienstraße",
            "contact:phone": "+49 731 9726675",
            "name": "Juwelier Hangül",
            "opening_hours": "Mo-Fr 09:30-18:00; Sa 09:30-15:00",
            "payment:cash": "yes",
            "payment:debit_cards": "yes",
            "payment:ep_geldkarte": "yes",
            "payment:girocard": "yes",
            "payment:maestro": "yes",
            "payment:mastercard": "yes",
            "payment:visa": "yes",
            "shop": "jewelry",
            "website": "https://juwelier-hangul.business.site/"
          },
          "geometry": {
            "type": "Point",
            "coordinates": [
              9.9970872,
              48.3945385
            ]
          }
        },
        {
          "type": "Feature",
          "properties": {
            "id": "10092450689",
            "osm_type": "node",
            "lat": 48.6176422,
            "lon": 9.5347032,
            "addr:city": "Weilheim an der Teck",
            "addr:country": "DE",
            "addr:housenumber": "36",
            "addr:postcode": "73235",
            "addr:street": "Kirchheimer Straße",
            "name": "Schmuckbar",
            "opening_hours": "Fr 9:30-12:30, 14:30-17:30;Sa 9:30-12:30;",
            "shop": "jewelry"
          },
          "geometry": {
            "type": "Point",
            "coordinates": [
              9.5347032,
              48.6176422
            ]
          }
        },
        {
          "type": "Feature",
          "properties": {
            "id": "11173632974",
            "osm_type": "node",
            "lat": 48.4001796,
            "lon": 9.987329,
            "check_date": "2023-09-07",
            "name": "CNY Mein Juwelier",
            "opening_hours": "Mo-Fr 10:00-19:00; Sa 10:00-18:00",
            "shop": "jewelry",
            "website": "https://www.mein-juwelier.eu"
          },
          "geometry": {
            "type": "Point",
            "coordinates": [
              9.987329,
              48.4001796
            ]
          }
        },
        {
          "type": "Feature",
          "properties": {
            "id": "11234580807",
            "osm_type": "node",
            "lat": 48.41165,
            "lon": 9.7846068,
            "name": "Schwaibold",
            "opening_hours": "Mo-Fr 09:00-12:30,14:00-18:00; Sa 09:00-12:30; PH off",
            "shop": "jewelry",
            "website": "https://schwaibold.de/"
          },
          "geometry": {
            "type": "Point",
            "coordinates": [
              9.7846068,
              48.41165
            ]
          }
        },
        {
          "type": "Feature",
          "properties": {
            "id": "11357883954",
            "osm_type": "node",
            "lat": 48.3987707,
            "lon": 9.9879741,
            "check_date": "2023-11-17",
            "name": "Soybir",
            "shop": "jewelry"
          },
          "geometry": {
            "type": "Point",
            "coordinates": [
              9.9879741,
              48.3987707
            ]
          }
        },
        {
          "type": "Feature",
          "properties": {
            "id": "11357922517",
            "osm_type": "node",
            "lat": 48.3991623,
            "lon": 9.9847171,
            "addr:housenumber": "7",
            "addr:street": "Bahnhofplatz",
            "brand": "Lovisa",
            "brand:wikidata": "Q106298409",
            "check_date": "2023-11-17",
            "name": "Lovisa",
            "shop": "jewelry"
          },
          "geometry": {
            "type": "Point",
            "coordinates": [
              9.9847171,
              48.3991623
            ]
          }
        },
        {
          "type": "Feature",
          "properties": {
            "id": "11427462630",
            "osm_type": "node",
            "lat": 48.399195,
            "lon": 9.9942055,
            "name": "Schmuck & Accessoires Brigitte Matthes-Uetz",
            "shop": "jewelry",
            "website": "https://www.schmueckdich-ulm.de",
            "wheelchair": "no"
          },
          "geometry": {
            "type": "Point",
            "coordinates": [
              9.9942055,
              48.399195
            ]
          }
        },
        {
          "type": "Feature",
          "properties": {
            "id": "839925771",
            "osm_type": "node",
            "lat": 48.6769506,
            "lon": 10.1516443,
            "name": "Kopp",
            "shop": "jewelry",
            "wheelchair": "limited"
          },
          "geometry": {
            "type": "Point",
            "coordinates": [
              10.1516443,
              48.6769506
            ]
          }
        },
        {
          "type": "Feature",
          "properties": {
            "id": "1351465210",
            "osm_type": "node",
            "lat": 48.6760952,
            "lon": 10.1514324,
            "addr:city": "Heidenheim an der Brenz",
            "addr:country": "DE",
            "addr:housenumber": "40",
            "addr:postcode": "89522",
            "addr:street": "Hauptstraße",
            "name": "Trendshop H40",
            "shop": "jewelry",
            "wheelchair": "yes"
          },
          "geometry": {
            "type": "Point",
            "coordinates": [
              10.1514324,
              48.6760952
            ]
          }
        },
        {
          "type": "Feature",
          "properties": {
            "id": "1351467829",
            "osm_type": "node",
            "lat": 48.6759765,
            "lon": 10.1513439,
            "name": "Karl Seydtle",
            "shop": "jewelry",
            "wheelchair": "limited"
          },
          "geometry": {
            "type": "Point",
            "coordinates": [
              10.1513439,
              48.6759765
            ]
          }
        },
        {
          "type": "Feature",
          "properties": {
            "id": "1351650941",
            "osm_type": "node",
            "lat": 48.6761436,
            "lon": 10.1514392,
            "addr:city": "Heidenheim an der Brenz",
            "addr:country": "DE",
            "addr:housenumber": "40",
            "addr:postcode": "89522",
            "addr:street": "Hauptstraße",
            "name": "Goldschmiede Weichert",
            "shop": "jewelry",
            "website": "https://www.goldschmied-weichert.de/",
            "wheelchair": "no"
          },
          "geometry": {
            "type": "Point",
            "coordinates": [
              10.1514392,
              48.6761436
            ]
          }
        },
        {
          "type": "Feature",
          "properties": {
            "id": "3055035148",
            "osm_type": "node",
            "lat": 48.6216166,
            "lon": 10.1763765,
            "description": "bitte aktualisieren: neues Geschäft",
            "entrance": "yes",
            "shop": "jewelry"
          },
          "geometry": {
            "type": "Point",
            "coordinates": [
              10.1763765,
              48.6216166
            ]
          }
        },
        {
          "type": "Feature",
          "properties": {
            "id": "3663223673",
            "osm_type": "node",
            "lat": 48.6230393,
            "lon": 10.1739284,
            "entrance": "yes",
            "name": "Kolb",
            "opening_hours": "Tu-Fr 09:00-12:30, Tu,Th,Fr 14:00-18:00, Sa 09:00-12:00",
            "shop": "jewelry",
            "wheelchair": "yes"
          },
          "geometry": {
            "type": "Point",
            "coordinates": [
              10.1739284,
              48.6230393
            ]
          }
        },
        {
          "type": "Feature",
          "properties": {
            "id": "3916842974",
            "osm_type": "node",
            "lat": 48.6204985,
            "lon": 10.2466972,
            "contact:phone": "+49 7322 933547",
            "name": "Weichert",
            "opening_hours": "Jan-Dec: Mo-Fr 08:00-18:00",
            "shop": "jewelry"
          },
          "geometry": {
            "type": "Point",
            "coordinates": [
              10.2466972,
              48.6204985
            ]
          }
        },
        {
          "type": "Feature",
          "properties": {
            "id": "5909299334",
            "osm_type": "node",
            "lat": 48.6218091,
            "lon": 10.24474,
            "addr:city": "Giengen an der Brenz",
            "addr:housenumber": "6",
            "addr:postcode": "89537",
            "addr:street": "Kirchplatz",
            "email": "ugneufischer@gmx.de",
            "name": "Uhmann",
            "opening_hours": "Mo, Tu, Th, Fr 09:00-12:30, 14:00-18:00; We, Sa 09:00-12:30",
            "operator": "Ulrike Neufischer",
            "phone": "+49 7322 7523",
            "shop": "jewelry",
            "website": "https://uhren-uhmann.de/"
          },
          "geometry": {
            "type": "Point",
            "coordinates": [
              10.24474,
              48.6218091
            ]
          }
        },
        {
          "type": "Feature",
          "properties": {
            "id": "6071348597",
            "osm_type": "node",
            "lat": 48.4283503,
            "lon": 10.1262915,
            "contact:phone": "+49 171 4548605",
            "name": "Jagd und Trachtenschmuck Fuchs",
            "opening_hours": "Mo 14:30-18:00, Th 09:00-12:00",
            "shop": "jewelry",
            "wheelchair": "no"
          },
          "geometry": {
            "type": "Point",
            "coordinates": [
              10.1262915,
              48.4283503
            ]
          }
        },
        {
          "type": "Feature",
          "properties": {
            "id": "7721761269",
            "osm_type": "node",
            "lat": 48.5700252,
            "lon": 10.4295196,
            "name": "Juwelier Zenetti",
            "shop": "jewelry"
          },
          "geometry": {
            "type": "Point",
            "coordinates": [
              10.4295196,
              48.5700252
            ]
          }
        },
        {
          "type": "Feature",
          "properties": {
            "id": "9596720141",
            "osm_type": "node",
            "lat": 48.6777615,
            "lon": 10.15183,
            "addr:city": "Heidenheim an der Brenz",
            "addr:country": "DE",
            "addr:housenumber": "2",
            "addr:postcode": "89522",
            "addr:street": "Hauptstraße",
            "craft": "goldsmith",
            "email": "goldschmiede.haas@gmx.de",
            "fax": "+49 7321 20183",
            "name": "Goldschmiede Haas",
            "opening_hours:covid19": "Mo-Tu off; We-Fr 10:00-13:00, 13:45-17:30; Sa 10:00-13:00",
            "operator": "Hans Haas",
            "phone": "+49 7321 24598",
            "phone:mobile": "+49 151 2879 2188",
            "shop": "jewelry",
            "website": "https://www.goldschmiede-haas.de/"
          },
          "geometry": {
            "type": "Point",
            "coordinates": [
              10.15183,
              48.6777615
            ]
          }
        },
        {
          "type": "Feature",
          "properties": {
            "id": "12652516564",
            "osm_type": "node",
            "lat": 48.4067946,
            "lon": 10.0333894,
            "addr:housenumber": "12",
            "addr:street": "Hauptstraße",
            "check_date": "2025-03-11",
            "email": "info@casa-perla.de",
            "name": "Casa Perla",
            "opening_hours": "We-Fr 10:00-12:30,15:00-18:00; Sa 10:00-13:30; Mo,Tu off",
            "phone": "+49 731 3784460",
            "shop": "jewelry",
            "website": "https://casa-perla.de/"
          },
          "geometry": {
            "type": "Point",
            "coordinates": [
              10.0333894,
              48.4067946
            ]
          }
        }
      ],
      "children": []
    },
    {
      "bbox": {
        "south": 48.355971499999995,
        "west": 10.484655499999999,
        "north": 48.68652475,
        "east": 11.438358999999998
      },
      "poiCount": 72,
      "leafCount": 0,
      "averagePosition": [
        10.891962224999999,
        48.39443029444445
      ],
      "data": [],
      "children": [
        {
          "bbox": {
            "south": 48.355971499999995,
            "west": 10.484655499999999,
            "north": 48.521248125,
            "east": 10.961507249999999
          },
          "poiCount": 60,
          "leafCount": 0,
          "averagePosition": [
            10.891838385,
            48.36836387666666
          ],
          "data": [],
          "children": [
            {
              "bbox": {
                "south": 48.355971499999995,
                "west": 10.723081375,
                "north": 48.4386098125,
                "east": 10.961507249999999
              },
              "poiCount": 60,
              "leafCount": 0,
              "averagePosition": [
                10.891838385,
                48.36836387666666
              ],
              "data": [],
              "children": [
                {
                  "bbox": {
                    "south": 48.355971499999995,
                    "west": 10.723081375,
                    "north": 48.39729065624999,
                    "east": 10.842294312499998
                  },
                  "poiCount": 3,
                  "leafCount": 3,
                  "averagePosition": [
                    10.8328374,
                    48.38841083333333
                  ],
                  "data": [
                    {
                      "type": "Feature",
                      "properties": {
                        "id": "3176196961",
                        "osm_type": "node",
                        "lat": 48.3914993,
                        "lon": 10.8364815,
                        "addr:city": "Neusäß",
                        "addr:housenumber": "14",
                        "addr:postcode": "86356",
                        "addr:street": "Hauptstraße",
                        "level": "0",
                        "name": "Goldschmiede",
                        "opening_hours": "Mo-Fr 09:30-12:30, 14:30-18:30",
                        "phone": "+49 821 467732",
                        "shop": "jewelry",
                        "toilets:wheelchair": "no",
                        "website": "https://www.silberschmiede.de/oeffnungszeiten-filialen/goldschmiede-im-schloessle-neusaess/",
                        "wheelchair": "yes"
                      },
                      "geometry": {
                        "type": "Point",
                        "coordinates": [
                          10.8364815,
                          48.3914993
                        ]
                      }
                    },
                    {
                      "type": "Feature",
                      "properties": {
                        "id": "8026260394",
                        "osm_type": "node",
                        "lat": 48.3874106,
                        "lon": 10.8413536,
                        "addr:city": "Neusäß",
                        "addr:housenumber": "4",
                        "addr:postcode": "86356",
                        "addr:street": "Augsburger Straße",
                        "name": "Kreuz",
                        "shop": "jewelry"
                      },
                      "geometry": {
                        "type": "Point",
                        "coordinates": [
                          10.8413536,
                          48.3874106
                        ]
                      }
                    },
                    {
                      "type": "Feature",
                      "properties": {
                        "id": "12478520589",
                        "osm_type": "node",
                        "lat": 48.3863226,
                        "lon": 10.8206771,
                        "name:signed": "no",
                        "operator": "Isabel Ringeisen",
                        "shop": "jewelry"
                      },
                      "geometry": {
                        "type": "Point",
                        "coordinates": [
                          10.8206771,
                          48.3863226
                        ]
                      }
                    }
                  ],
                  "children": []
                },
                {
                  "bbox": {
                    "south": 48.355971499999995,
                    "west": 10.842294312499998,
                    "north": 48.39729065624999,
                    "east": 10.961507249999999
                  },
                  "poiCount": 57,
                  "leafCount": 0,
                  "averagePosition": [
                    10.894943699999999,
                    48.36730877368421
                  ],
                  "data": [],
                  "children": [
                    {
                      "bbox": {
                        "south": 48.355971499999995,
                        "west": 10.842294312499998,
                        "north": 48.376631078124994,
                        "east": 10.90190078125
                      },
                      "poiCount": 46,
                      "leafCount": 46,
                      "averagePosition": [
                        10.893284736956522,
                        48.36676175869565
                      ],
                      "data": [
                        {
                          "type": "Feature",
                          "properties": {
                            "id": "415789215",
                            "osm_type": "node",
                            "lat": 48.3658805,
                            "lon": 10.8814235,
                            "addr:city": "Augsburg",
                            "addr:country": "DE",
                            "addr:housenumber": "12",
                            "addr:postcode": "86150",
                            "addr:street": "Pferseer Straße",
                            "name": "Juwelier Herbert Mayer",
                            "opening_hours": "Mo-Fr 10:00-18:30 || \"sowie nach Vereinbarung\"",
                            "phone": "+49 821 509750",
                            "shop": "jewelry",
                            "website": "https://www.juwelier-mayer.de/",
                            "wheelchair": "no"
                          },
                          "geometry": {
                            "type": "Point",
                            "coordinates": [
                              10.8814235,
                              48.3658805
                            ]
                          }
                        },
                        {
                          "type": "Feature",
                          "properties": {
                            "id": "485057692",
                            "osm_type": "node",
                            "lat": 48.3657664,
                            "lon": 10.8887983,
                            "addr:city": "Augsburg",
                            "addr:country": "DE",
                            "addr:housenumber": "29",
                            "addr:postcode": "86150",
                            "addr:street": "Bahnhofstraße",
                            "name": "Cem Juwelier",
                            "shop": "jewelry",
                            "wheelchair": "yes"
                          },
                          "geometry": {
                            "type": "Point",
                            "coordinates": [
                              10.8887983,
                              48.3657664
                            ]
                          }
                        },
                        {
                          "type": "Feature",
                          "properties": {
                            "id": "611875631",
                            "osm_type": "node",
                            "lat": 48.3636916,
                            "lon": 10.8931404,
                            "addr:city": "Augsburg",
                            "addr:country": "DE",
                            "addr:housenumber": "13",
                            "addr:postcode": "86150",
                            "addr:street": "Hermanstraße",
                            "check_date:opening_hours": "2023-11-11",
                            "name": "Gök",
                            "opening_hours:signed": "no",
                            "payment:credit_cards": "yes",
                            "payment:debit_cards": "yes",
                            "shop": "jewelry",
                            "wheelchair": "limited"
                          },
                          "geometry": {
                            "type": "Point",
                            "coordinates": [
                              10.8931404,
                              48.3636916
                            ]
                          }
                        },
                        {
                          "type": "Feature",
                          "properties": {
                            "id": "611875646",
                            "osm_type": "node",
                            "lat": 48.3660794,
                            "lon": 10.8889726,
                            "addr:city": "Augsburg",
                            "addr:country": "DE",
                            "addr:housenumber": "22",
                            "addr:postcode": "86150",
                            "addr:street": "Bahnhofstraße",
                            "check_date:opening_hours": "2023-06-19",
                            "name": "RS Juwelier",
                            "opening_hours": "Mo-Fr 10:00-18:30; Sa 10:00-16:00",
                            "shop": "jewelry",
                            "wheelchair": "no"
                          },
                          "geometry": {
                            "type": "Point",
                            "coordinates": [
                              10.8889726,
                              48.3660794
                            ]
                          }
                        },
                        {
                          "type": "Feature",
                          "properties": {
                            "id": "611875660",
                            "osm_type": "node",
                            "lat": 48.3662527,
                            "lon": 10.8902408,
                            "addr:city": "Augsburg",
                            "addr:country": "DE",
                            "addr:housenumber": "18 1/4",
                            "addr:postcode": "86150",
                            "addr:street": "Bahnhofstraße",
                            "brand": "OROVIVO",
                            "brand:wikidata": "Q107064745",
                            "name": "OROVIVO",
                            "opening_hours": "Mo-Fr 09:30-18:30; Sa 09:30-18:00; Su off",
                            "shop": "jewelry",
                            "url:official": "www.orovivo.com",
                            "wheelchair": "limited"
                          },
                          "geometry": {
                            "type": "Point",
                            "coordinates": [
                              10.8902408,
                              48.3662527
                            ]
                          }
                        },
                        {
                          "type": "Feature",
                          "properties": {
                            "id": "611875708",
                            "osm_type": "node",
                            "lat": 48.3665942,
                            "lon": 10.8925019,
                            "addr:city": "Augsburg",
                            "addr:country": "DE",
                            "addr:housenumber": "4",
                            "addr:postcode": "86150",
                            "addr:street": "Bahnhofstraße",
                            "brand": "Christ",
                            "brand:wikidata": "Q1077957",
                            "brand:wikipedia": "de:Christ (Juwelier)",
                            "check_date:opening_hours": "2024-07-16",
                            "name": "Christ",
                            "opening_hours": "Mo-Fr 10:00-19:00; Sa 10:00-18:00; Su off",
                            "phone": "+49 821 155047",
                            "shop": "jewelry",
                            "website": "https://www.christ.de/filiale/144/augsburg-bahnhofstr-4",
                            "wheelchair": "no"
                          },
                          "geometry": {
                            "type": "Point",
                            "coordinates": [
                              10.8925019,
                              48.3665942
                            ]
                          }
                        },
                        {
                          "type": "Feature",
                          "properties": {
                            "id": "622354246",
                            "osm_type": "node",
                            "lat": 48.3669316,
                            "lon": 10.8967024,
                            "addr:city": "Augsburg",
                            "addr:country": "DE",
                            "addr:housenumber": "4",
                            "addr:postcode": "86150",
                            "addr:street": "Bürgermeister-Fischer-Straße",
                            "check_date": "2024-01-16",
                            "name": "Goldschmiedehaus Schmedding",
                            "opening_hours": "Mo-Fr 10:00-18:00; Sa 10:00-15:00; Su off",
                            "phone": "+49 821 518327",
                            "shop": "jewelry",
                            "website": "https://www.schmedding1834.de",
                            "wheelchair": "yes"
                          },
                          "geometry": {
                            "type": "Point",
                            "coordinates": [
                              10.8967024,
                              48.3669316
                            ]
                          }
                        },
                        {
                          "type": "Feature",
                          "properties": {
                            "id": "622354262",
                            "osm_type": "node",
                            "lat": 48.3673995,
                            "lon": 10.8995492,
                            "addr:city": "Augsburg",
                            "addr:country": "DE",
                            "addr:housenumber": "13",
                            "addr:postcode": "86150",
                            "addr:street": "Judenberg",
                            "email": "sme.opale@gmail.com",
                            "name": "Schmuck- u. Mineralien-Ecke",
                            "opening_hours": "\"bewegliche Öffnungszeiten nach Vereinbarung per Telefon oder Email\"",
                            "operator": "Ignaz Specken",
                            "phone": "+49 821 156861",
                            "shop": "jewelry",
                            "stroller": "no",
                            "wheelchair": "no"
                          },
                          "geometry": {
                            "type": "Point",
                            "coordinates": [
                              10.8995492,
                              48.3673995
                            ]
                          }
                        },
                        {
                          "type": "Feature",
                          "properties": {
                            "id": "622354271",
                            "osm_type": "node",
                            "lat": 48.3679386,
                            "lon": 10.8997688,
                            "check_date": "2024-05-26",
                            "name": "Trauringschmiede",
                            "shop": "jewelry",
                            "wheelchair": "no"
                          },
                          "geometry": {
                            "type": "Point",
                            "coordinates": [
                              10.8997688,
                              48.3679386
                            ]
                          }
                        },
                        {
                          "type": "Feature",
                          "properties": {
                            "id": "622354276",
                            "osm_type": "node",
                            "lat": 48.3680401,
                            "lon": 10.8997185,
                            "name": "Die alte Silberschmiede",
                            "opening_hours": "Mo-We 10:00-18:00; Th,Fr 10:00-19:00; Sa 10:00-14:00",
                            "shop": "jewelry",
                            "url:official": "http://www.silberschmiede.de/"
                          },
                          "geometry": {
                            "type": "Point",
                            "coordinates": [
                              10.8997185,
                              48.3680401
                            ]
                          }
                        },
                        {
                          "type": "Feature",
                          "properties": {
                            "id": "622354286",
                            "osm_type": "node",
                            "lat": 48.3675803,
                            "lon": 10.9000343,
                            "addr:city": "Augsburg",
                            "addr:country": "DE",
                            "addr:housenumber": "7a",
                            "addr:postcode": "86150",
                            "addr:street": "Weiße Gasse",
                            "name": "Martin Larsen Goldschmied",
                            "opening_hours": "Mo off; Tu-Fr 10:00-19:00; Sa 10:00-16:00; Su off",
                            "phone": "+49 821 38444",
                            "shop": "jewelry",
                            "website": "https://www.schmuck-augsburg.de/"
                          },
                          "geometry": {
                            "type": "Point",
                            "coordinates": [
                              10.9000343,
                              48.3675803
                            ]
                          }
                        },
                        {
                          "type": "Feature",
                          "properties": {
                            "id": "629530911",
                            "osm_type": "node",
                            "lat": 48.3647865,
                            "lon": 10.8940734,
                            "addr:city": "Augsburg",
                            "addr:country": "DE",
                            "addr:housenumber": "1",
                            "addr:postcode": "86150",
                            "addr:street": "Hermanstraße",
                            "check_date:opening_hours": "2023-07-31",
                            "name": "Juwelier Gök",
                            "opening_hours:signed": "no",
                            "shop": "jewelry",
                            "wheelchair": "yes"
                          },
                          "geometry": {
                            "type": "Point",
                            "coordinates": [
                              10.8940734,
                              48.3647865
                            ]
                          }
                        },
                        {
                          "type": "Feature",
                          "properties": {
                            "id": "687951437",
                            "osm_type": "node",
                            "lat": 48.3655015,
                            "lon": 10.8990709,
                            "addr:city": "Augsburg",
                            "addr:country": "DE",
                            "addr:housenumber": "40",
                            "addr:postcode": "86150",
                            "addr:street": "Maximilianstraße",
                            "check_date": "2024-10-30",
                            "name": "Goldschmiede Werner",
                            "shop": "jewelry"
                          },
                          "geometry": {
                            "type": "Point",
                            "coordinates": [
                              10.8990709,
                              48.3655015
                            ]
                          }
                        },
                        {
                          "type": "Feature",
                          "properties": {
                            "id": "687951440",
                            "osm_type": "node",
                            "lat": 48.3661836,
                            "lon": 10.8987767,
                            "addr:city": "Augsburg",
                            "addr:country": "DE",
                            "addr:housenumber": "36",
                            "addr:postcode": "86150",
                            "addr:street": "Maximilianstraße",
                            "name": "Schmuck Schroll",
                            "opening_hours": "Mo-Fr 09:30-12:30; Sa 10:00-13:00",
                            "shop": "jewelry",
                            "wheelchair": "yes"
                          },
                          "geometry": {
                            "type": "Point",
                            "coordinates": [
                              10.8987767,
                              48.3661836
                            ]
                          }
                        },
                        {
                          "type": "Feature",
                          "properties": {
                            "id": "748443960",
                            "osm_type": "node",
                            "lat": 48.3570325,
                            "lon": 10.8865669,
                            "addr:city": "Augsburg",
                            "addr:country": "DE",
                            "addr:housenumber": "34",
                            "addr:postcode": "86159",
                            "addr:street": "Gögginger Straße",
                            "name": "Obelisk",
                            "opening_hours": "May-Sep: Mo,Tu,Th,Fr 10:00-18:00; May-Sep: Sa 10:00-13:00",
                            "operator": "Manuela Wunderle",
                            "phone": "+49 821 583690",
                            "shop": "jewelry",
                            "website": "https://www.obelisk.de",
                            "wheelchair": "no"
                          },
                          "geometry": {
                            "type": "Point",
                            "coordinates": [
                              10.8865669,
                              48.3570325
                            ]
                          }
                        },
                        {
                          "type": "Feature",
                          "properties": {
                            "id": "794697069",
                            "osm_type": "node",
                            "lat": 48.3677587,
                            "lon": 10.8999862,
                            "fixme": "Scheint es nicht mehr zu geben?",
                            "name": "Goldschmied Julia Pattak",
                            "shop": "jewelry",
                            "wheelchair": "no"
                          },
                          "geometry": {
                            "type": "Point",
                            "coordinates": [
                              10.8999862,
                              48.3677587
                            ]
                          }
                        },
                        {
                          "type": "Feature",
                          "properties": {
                            "id": "824233232",
                            "osm_type": "node",
                            "lat": 48.369444,
                            "lon": 10.89801,
                            "addr:city": "Augsburg",
                            "addr:country": "DE",
                            "addr:housenumber": "1-3",
                            "addr:postcode": "86150",
                            "addr:street": "Karolinenstraße",
                            "check_date": "2024-10-25",
                            "name": "Hörl",
                            "opening_hours": "Mo-Fr 10:00-18:00; Sa 10:00-15:00; Su,PH off",
                            "shop": "jewelry",
                            "website": "https://juwelier-hoerl.de/"
                          },
                          "geometry": {
                            "type": "Point",
                            "coordinates": [
                              10.89801,
                              48.369444
                            ]
                          }
                        },
                        {
                          "type": "Feature",
                          "properties": {
                            "id": "845696277",
                            "osm_type": "node",
                            "lat": 48.3636205,
                            "lon": 10.9002744,
                            "addr:city": "Augsburg",
                            "addr:country": "DE",
                            "addr:housenumber": "83",
                            "addr:postcode": "86150",
                            "addr:street": "Maximilianstraße",
                            "name": "Thomas Pohl - Schmuck",
                            "shop": "jewelry",
                            "website": "https://www.thomaspohl-schmuck.de",
                            "wheelchair": "no"
                          },
                          "geometry": {
                            "type": "Point",
                            "coordinates": [
                              10.9002744,
                              48.3636205
                            ]
                          }
                        },
                        {
                          "type": "Feature",
                          "properties": {
                            "id": "1152652053",
                            "osm_type": "node",
                            "lat": 48.3694853,
                            "lon": 10.8982708,
                            "addr:city": "Augsburg",
                            "addr:country": "DE",
                            "addr:housenumber": "2",
                            "addr:postcode": "86150",
                            "addr:street": "Karolinenstraße",
                            "name": "Atelier Eidel",
                            "opening_hours": "Mo-We 10:00-18:00; Th,Fr 10:00-19:00; Jan-May Sa 10:00-16:00, Jun-Sep Sa 10:00-14:00, Oct-Dec Sa 10:00-18:00; Su,PH off",
                            "shop": "jewelry",
                            "website": "https://www.goldschmiede-eidel.de/"
                          },
                          "geometry": {
                            "type": "Point",
                            "coordinates": [
                              10.8982708,
                              48.3694853
                            ]
                          }
                        },
                        {
                          "type": "Feature",
                          "properties": {
                            "id": "1160733212",
                            "osm_type": "node",
                            "lat": 48.3696311,
                            "lon": 10.8979635,
                            "addr:city": "Augsburg",
                            "addr:country": "DE",
                            "addr:housenumber": "9",
                            "addr:postcode": "86150",
                            "addr:street": "Karolinenstraße",
                            "name": "Gold Uhlenbrock",
                            "opening_hours": "Mo-Fr 10:00-18:00; Sa 10:00-16:00; Su,PH off",
                            "shop": "jewelry",
                            "website": "https://golduhlenbrock.wordpress.com/"
                          },
                          "geometry": {
                            "type": "Point",
                            "coordinates": [
                              10.8979635,
                              48.3696311
                            ]
                          }
                        },
                        {
                          "type": "Feature",
                          "properties": {
                            "id": "1700624642",
                            "osm_type": "node",
                            "lat": 48.3640023,
                            "lon": 10.8744648,
                            "addr:city": "Augsburg",
                            "addr:country": "DE",
                            "addr:housenumber": "8",
                            "addr:postcode": "86157",
                            "addr:street": "Augsburger Straße",
                            "name": "Juwelier Rach",
                            "opening_hours": "Mo-Fr 09:00-12:30,14:30-18:00; Sa 09:00-12:00",
                            "phone": "+49821525937",
                            "shop": "jewelry",
                            "website": "https://uhren-schmuck-rach.de/"
                          },
                          "geometry": {
                            "type": "Point",
                            "coordinates": [
                              10.8744648,
                              48.3640023
                            ]
                          }
                        },
                        {
                          "type": "Feature",
                          "properties": {
                            "id": "2511571317",
                            "osm_type": "node",
                            "lat": 48.3671248,
                            "lon": 10.8988296,
                            "addr:city": "Augsburg",
                            "addr:housenumber": "33",
                            "addr:postcode": "86150",
                            "addr:street": "Maximilianstraße",
                            "entrance": "yes",
                            "name": "Karin Bauer Schmuckgalerie",
                            "opening_hours": "Mo-Fr 10:00-18:30; Sa 10:00-16:00",
                            "phone": "+49 821 4507590",
                            "shop": "jewelry",
                            "website": "https://karinbauerschmuck.de",
                            "wheelchair": "no",
                            "wheelchair:description": "Mehr als zwei Stufen. Aber sehr hilfsbereite Mitarbeiter, die gerne weiterhelfen."
                          },
                          "geometry": {
                            "type": "Point",
                            "coordinates": [
                              10.8988296,
                              48.3671248
                            ]
                          }
                        },
                        {
                          "type": "Feature",
                          "properties": {
                            "id": "2511571354",
                            "osm_type": "node",
                            "lat": 48.3664558,
                            "lon": 10.8991472,
                            "addr:city": "Augsburg",
                            "addr:country": "DE",
                            "addr:housenumber": "43",
                            "addr:postcode": "86150",
                            "addr:street": "Maximilianstraße",
                            "entrance": "yes",
                            "name": "Robert Rehm",
                            "opening_hours": "Mo-Fr 10:00-18:00; Sa 10:00-14:00",
                            "shop": "jewelry",
                            "wheelchair": "limited"
                          },
                          "geometry": {
                            "type": "Point",
                            "coordinates": [
                              10.8991472,
                              48.3664558
                            ]
                          }
                        },
                        {
                          "type": "Feature",
                          "properties": {
                            "id": "3139952202",
                            "osm_type": "node",
                            "lat": 48.3672285,
                            "lon": 10.8952563,
                            "addr:city": "Augsburg",
                            "addr:country": "DE",
                            "addr:housenumber": "35",
                            "addr:postcode": "86150",
                            "addr:street": "Annastraße",
                            "check_date:opening_hours": "2024-11-18",
                            "name": "Juwelier Herbert Mayer",
                            "opening_hours": "Mo-Fr 10:00-18:30; Sa 10:00-18:00",
                            "phone": "+49 821 509750",
                            "shop": "jewelry",
                            "website": "https://www.juwelier-mayer.de/",
                            "wheelchair": "yes"
                          },
                          "geometry": {
                            "type": "Point",
                            "coordinates": [
                              10.8952563,
                              48.3672285
                            ]
                          }
                        },
                        {
                          "type": "Feature",
                          "properties": {
                            "id": "4025553066",
                            "osm_type": "node",
                            "lat": 48.367418,
                            "lon": 10.8951832,
                            "addr:city": "Augsburg",
                            "addr:country": "DE",
                            "addr:housenumber": "3",
                            "addr:postcode": "86150",
                            "addr:street": "Im Annahof",
                            "brand": "Bijou Brigitte",
                            "brand:wikidata": "Q599545",
                            "brand:wikipedia": "de:Bijou Brigitte",
                            "name": "Bijou Brigitte",
                            "opening_hours": "Mo-Sa 09:30-20:00; Su off",
                            "shop": "jewelry",
                            "website": "https://www.bijou-brigitte.com"
                          },
                          "geometry": {
                            "type": "Point",
                            "coordinates": [
                              10.8951832,
                              48.367418
                            ]
                          }
                        },
                        {
                          "type": "Feature",
                          "properties": {
                            "id": "4500884802",
                            "osm_type": "node",
                            "lat": 48.3658143,
                            "lon": 10.8997352,
                            "addr:city": "Augsburg",
                            "addr:housenumber": "57",
                            "addr:postcode": "86150",
                            "addr:street": "Maximilianstraße",
                            "name": "Schmuck mal",
                            "operator": "Anna Sue Lorenz",
                            "shop": "jewelry",
                            "website": "https://www.schmuckmal.de/"
                          },
                          "geometry": {
                            "type": "Point",
                            "coordinates": [
                              10.8997352,
                              48.3658143
                            ]
                          }
                        },
                        {
                          "type": "Feature",
                          "properties": {
                            "id": "4500884812",
                            "osm_type": "node",
                            "lat": 48.3669684,
                            "lon": 10.8984248,
                            "addr:city": "Augsburg",
                            "addr:housenumber": "24",
                            "addr:postcode": "86150",
                            "addr:street": "Maximilianstraße",
                            "name": "Rathgeber",
                            "opening_hours": "Mo-Fr 10:00-18:00, 09:00-18:00; Sa 10:00-16:00",
                            "shop": "jewelry",
                            "website": "https://www.trauringe-rathgeber.de/"
                          },
                          "geometry": {
                            "type": "Point",
                            "coordinates": [
                              10.8984248,
                              48.3669684
                            ]
                          }
                        },
                        {
                          "type": "Feature",
                          "properties": {
                            "id": "5218345400",
                            "osm_type": "node",
                            "lat": 48.3699393,
                            "lon": 10.8966805,
                            "name": "Moreen",
                            "shop": "jewelry",
                            "website": "https://moreen.de/"
                          },
                          "geometry": {
                            "type": "Point",
                            "coordinates": [
                              10.8966805,
                              48.3699393
                            ]
                          }
                        },
                        {
                          "type": "Feature",
                          "properties": {
                            "id": "5218345402",
                            "osm_type": "node",
                            "lat": 48.3689052,
                            "lon": 10.8970906,
                            "check_date": "2024-02-14",
                            "name": "Weber",
                            "shop": "jewelry"
                          },
                          "geometry": {
                            "type": "Point",
                            "coordinates": [
                              10.8970906,
                              48.3689052
                            ]
                          }
                        },
                        {
                          "type": "Feature",
                          "properties": {
                            "id": "5320228889",
                            "osm_type": "node",
                            "lat": 48.362736,
                            "lon": 10.8698432,
                            "addr:city": "Augsburg",
                            "addr:housenumber": "32",
                            "addr:postcode": "86157",
                            "addr:street": "Augsburger Straße",
                            "name": "Uzi Jewels",
                            "opening_hours": "Mo off; Tu-Fr 10:00-18:00; Sa 10:00-14:00; Su off",
                            "phone": "+49 176 62676911",
                            "shop": "jewelry",
                            "website": "https://www.uzijewels.de/",
                            "wheelchair": "limited"
                          },
                          "geometry": {
                            "type": "Point",
                            "coordinates": [
                              10.8698432,
                              48.362736
                            ]
                          }
                        },
                        {
                          "type": "Feature",
                          "properties": {
                            "id": "5343689389",
                            "osm_type": "node",
                            "lat": 48.365537,
                            "lon": 10.888241,
                            "addr:city": "Augsburg",
                            "addr:housenumber": "29",
                            "addr:postcode": "86150",
                            "addr:street": "Bahnhofstraße",
                            "name": "Cem Juwelier",
                            "opening_hours": "Mo-Fr 09:00-19:00; Sa 09:00-18:00",
                            "phone": "+49 821 58921224",
                            "shop": "jewelry"
                          },
                          "geometry": {
                            "type": "Point",
                            "coordinates": [
                              10.888241,
                              48.365537
                            ]
                          }
                        },
                        {
                          "type": "Feature",
                          "properties": {
                            "id": "5879311570",
                            "osm_type": "node",
                            "lat": 48.3707463,
                            "lon": 10.8976023,
                            "name": "Istanbul Juwelier",
                            "opening_hours": "Mo-Fr 10:00-18:00; Sa 10:00-16:30",
                            "shop": "jewelry"
                          },
                          "geometry": {
                            "type": "Point",
                            "coordinates": [
                              10.8976023,
                              48.3707463
                            ]
                          }
                        },
                        {
                          "type": "Feature",
                          "properties": {
                            "id": "8948248970",
                            "osm_type": "node",
                            "lat": 48.3695998,
                            "lon": 10.9013096,
                            "addr:city": "Augsburg",
                            "addr:housenumber": "10",
                            "addr:postcode": "86150",
                            "addr:street": "Barfüßerstraße",
                            "name": "Juwelier Tezel",
                            "phone": "+49 821 517899",
                            "shop": "jewelry",
                            "website": "https://www.juwelier-tezel.com"
                          },
                          "geometry": {
                            "type": "Point",
                            "coordinates": [
                              10.9013096,
                              48.3695998
                            ]
                          }
                        },
                        {
                          "type": "Feature",
                          "properties": {
                            "id": "9309724756",
                            "osm_type": "node",
                            "lat": 48.3664389,
                            "lon": 10.8917119,
                            "addr:city": "Augsburg",
                            "addr:housenumber": "10",
                            "addr:postcode": "86150",
                            "addr:street": "Bahnhofstraße",
                            "check_date": "2024-05-04",
                            "name": "Juwelier Dubai",
                            "shop": "jewelry"
                          },
                          "geometry": {
                            "type": "Point",
                            "coordinates": [
                              10.8917119,
                              48.3664389
                            ]
                          }
                        },
                        {
                          "type": "Feature",
                          "properties": {
                            "id": "10586510046",
                            "osm_type": "node",
                            "lat": 48.3675998,
                            "lon": 10.8455736,
                            "addr:city": "Stadtbergen",
                            "addr:housenumber": "1",
                            "addr:postcode": "86391",
                            "addr:street": "Hagenmähderstraße",
                            "name": "Goldzentrale Stadtbergen",
                            "shop": "jewelry",
                            "website": "https://www.goldzentrale-stadtbergen.de/"
                          },
                          "geometry": {
                            "type": "Point",
                            "coordinates": [
                              10.8455736,
                              48.3675998
                            ]
                          }
                        },
                        {
                          "type": "Feature",
                          "properties": {
                            "id": "10989478516",
                            "osm_type": "node",
                            "lat": 48.3671159,
                            "lon": 10.8943286,
                            "addr:city": "Augsburg",
                            "addr:country": "DE",
                            "addr:housenumber": "4",
                            "addr:postcode": "86150",
                            "addr:street": "Fuggerstraße",
                            "level": "0",
                            "name": "Goldhaus Augsburg",
                            "opening_hours": "Mo-Fr 10:00-18:00; Sa 10:00-12:00",
                            "shop": "jewelry",
                            "wheelchair": "no"
                          },
                          "geometry": {
                            "type": "Point",
                            "coordinates": [
                              10.8943286,
                              48.3671159
                            ]
                          }
                        },
                        {
                          "type": "Feature",
                          "properties": {
                            "id": "11934833757",
                            "osm_type": "node",
                            "lat": 48.3670498,
                            "lon": 10.9011513,
                            "name": "Grünwald",
                            "opening_hours": "Di-Fr 11:00-13:00,14:00-18:00; Sa 10:00-16:00",
                            "shop": "jewelry",
                            "wheelchair": "no"
                          },
                          "geometry": {
                            "type": "Point",
                            "coordinates": [
                              10.9011513,
                              48.3670498
                            ]
                          }
                        },
                        {
                          "type": "Feature",
                          "properties": {
                            "id": "11934882754",
                            "osm_type": "node",
                            "lat": 48.3669383,
                            "lon": 10.9011254,
                            "name": "Patricia Ganzenmüller",
                            "opening_hours": "Mo-Mi 09:30-18:30; Do-Fr 09:30-19:00; Sa 09:30-17:00",
                            "operator": "Patricia Ganzenmüller",
                            "phone": "+49 821 2461694",
                            "shop": "jewelry"
                          },
                          "geometry": {
                            "type": "Point",
                            "coordinates": [
                              10.9011254,
                              48.3669383
                            ]
                          }
                        },
                        {
                          "type": "Feature",
                          "properties": {
                            "id": "11934916117",
                            "osm_type": "node",
                            "lat": 48.3677289,
                            "lon": 10.9000049,
                            "name": "Neue Goldschmiede",
                            "opening_hours": "call for it",
                            "phone": "+49 175 5014832",
                            "shop": "jewelry"
                          },
                          "geometry": {
                            "type": "Point",
                            "coordinates": [
                              10.9000049,
                              48.3677289
                            ]
                          }
                        },
                        {
                          "type": "Feature",
                          "properties": {
                            "id": "12022630947",
                            "osm_type": "node",
                            "lat": 48.3660113,
                            "lon": 10.9013665,
                            "addr:city": "Augsburg",
                            "addr:housenumber": "31",
                            "addr:postcode": "86150",
                            "addr:street": "Vorderer Lech",
                            "email": "info@luxus-schmuckwerkstatt.de",
                            "name": "Luxus Schmuckwerkstatt",
                            "opening_hours": "Th,Fr 13:00-18:30, Sa 11:00-16:00",
                            "operator": "Hanni Weber",
                            "phone": "+49 1520 6164241",
                            "shop": "jewelry",
                            "website": "https://www.luxus-schmuckwerkstatt.de/"
                          },
                          "geometry": {
                            "type": "Point",
                            "coordinates": [
                              10.9013665,
                              48.3660113
                            ]
                          }
                        },
                        {
                          "type": "Feature",
                          "properties": {
                            "id": "12022630948",
                            "osm_type": "node",
                            "lat": 48.3664134,
                            "lon": 10.9014933,
                            "addr:city": "Augsburg",
                            "addr:housenumber": "21",
                            "addr:postcode": "86150",
                            "addr:street": "Vorderer Lech",
                            "email": "gold.schweizer@icloud.com",
                            "name": "Goldschmiede Schweizer",
                            "opening_hours": "Tu-Fr 12:00-18:00; Sa 11:00-16:00",
                            "operator": "Franziska Schweizer",
                            "phone": "+491775315104",
                            "shop": "jewelry",
                            "website": "https://www.goldschmiede-schweizer.de/"
                          },
                          "geometry": {
                            "type": "Point",
                            "coordinates": [
                              10.9014933,
                              48.3664134
                            ]
                          }
                        },
                        {
                          "type": "Feature",
                          "properties": {
                            "id": "12354117069",
                            "osm_type": "node",
                            "lat": 48.3668945,
                            "lon": 10.8950005,
                            "name": "Orovivo",
                            "shop": "jewelry"
                          },
                          "geometry": {
                            "type": "Point",
                            "coordinates": [
                              10.8950005,
                              48.3668945
                            ]
                          }
                        },
                        {
                          "type": "Feature",
                          "properties": {
                            "id": "12471043776",
                            "osm_type": "node",
                            "lat": 48.3703101,
                            "lon": 10.8959634,
                            "addr:city": "Augsburg",
                            "addr:housenumber": "12",
                            "addr:postcode": "86150",
                            "addr:street": "Karlstraße",
                            "name": "Haeger Juwelier",
                            "opening_hours": "Mo-Fr 10:00-14:00,15:00-18:00; Sa 10:00-14:00; So,PH off",
                            "phone": "+49 82145442359",
                            "shop": "jewelry",
                            "website": "https://juwelier-haeger.de/juwelier-augsburg/"
                          },
                          "geometry": {
                            "type": "Point",
                            "coordinates": [
                              10.8959634,
                              48.3703101
                            ]
                          }
                        },
                        {
                          "type": "Feature",
                          "properties": {
                            "id": "12919137403",
                            "osm_type": "node",
                            "lat": 48.3629871,
                            "lon": 10.9004821,
                            "name": "Gök",
                            "opening_hours": "Mo-Fr 10:00-18:00; Sa 10:00-16:00",
                            "shop": "jewelry"
                          },
                          "geometry": {
                            "type": "Point",
                            "coordinates": [
                              10.9004821,
                              48.3629871
                            ]
                          }
                        },
                        {
                          "type": "Feature",
                          "properties": {
                            "id": "12919217221",
                            "osm_type": "node",
                            "lat": 48.3637605,
                            "lon": 10.8995261,
                            "name": "Katja Auracher Wertsachen",
                            "opening_hours": "Fr 11:00-18:00",
                            "phone": "+49 821 157770",
                            "shop": "jewelry",
                            "website": "https://www.wertsachen.de"
                          },
                          "geometry": {
                            "type": "Point",
                            "coordinates": [
                              10.8995261,
                              48.3637605
                            ]
                          }
                        },
                        {
                          "type": "Feature",
                          "properties": {
                            "id": "5119435762",
                            "osm_type": "node",
                            "lat": 48.3737181,
                            "lon": 10.8477185,
                            "name": "Motiv Juwelier",
                            "shop": "jewelry"
                          },
                          "geometry": {
                            "type": "Point",
                            "coordinates": [
                              10.8477185,
                              48.3737181
                            ]
                          }
                        }
                      ],
                      "children": []
                    },
                    {
                      "bbox": {
                        "south": 48.355971499999995,
                        "west": 10.90190078125,
                        "north": 48.376631078124994,
                        "east": 10.961507249999999
                      },
                      "poiCount": 8,
                      "leafCount": 8,
                      "averagePosition": [
                        10.90563515,
                        48.3656179125
                      ],
                      "data": [
                        {
                          "type": "Feature",
                          "properties": {
                            "id": "705633104",
                            "osm_type": "node",
                            "lat": 48.3609644,
                            "lon": 10.9028629,
                            "addr:city": "Augsburg",
                            "addr:country": "DE",
                            "addr:housenumber": "26",
                            "addr:postcode": "86150",
                            "addr:street": "Kirchgasse",
                            "check_date:opening_hours": "2023-09-15",
                            "name": "Eigenhaendig",
                            "opening_hours": "We-Fr 13:00-19:00, Sa 11:00-14:00",
                            "shop": "jewelry",
                            "wheelchair": "no"
                          },
                          "geometry": {
                            "type": "Point",
                            "coordinates": [
                              10.9028629,
                              48.3609644
                            ]
                          }
                        },
                        {
                          "type": "Feature",
                          "properties": {
                            "id": "1813855878",
                            "osm_type": "node",
                            "lat": 48.3702917,
                            "lon": 10.9063359,
                            "addr:city": "Augsburg",
                            "addr:housenumber": "51-53",
                            "addr:postcode": "86152",
                            "addr:street": "Jakoberstraße",
                            "name": "Designer Diamonds Trauringe & Verlobungsringe",
                            "opening_hours": "Tu-Fr 11:30-18:30; Sa 11:00-16:00",
                            "phone": "+49 821 159021",
                            "shop": "jewelry",
                            "website": "https://www.designer-diamonds.de/",
                            "wheelchair": "yes",
                            "wheelchair:description": "Ebenerdiger Seiteneingang"
                          },
                          "geometry": {
                            "type": "Point",
                            "coordinates": [
                              10.9063359,
                              48.3702917
                            ]
                          }
                        },
                        {
                          "type": "Feature",
                          "properties": {
                            "id": "1813864478",
                            "osm_type": "node",
                            "lat": 48.365926,
                            "lon": 10.9061736,
                            "addr:city": "Augsburg",
                            "addr:housenumber": "1",
                            "addr:postcode": "86153",
                            "addr:street": "Willy-Brandt-Platz",
                            "brand": "Thomas Sabo",
                            "brand:wikidata": "Q13415716",
                            "check_date": "2023-05-09",
                            "description": "Trauringe & Verlobungsringe",
                            "level": "1",
                            "name": "Thomas Sabo",
                            "shop": "jewelry",
                            "source": "survey",
                            "wheelchair": "yes",
                            "wheelchair:description": "Ebenerdiger Seiteneingang"
                          },
                          "geometry": {
                            "type": "Point",
                            "coordinates": [
                              10.9061736,
                              48.365926
                            ]
                          }
                        },
                        {
                          "type": "Feature",
                          "properties": {
                            "id": "3584242121",
                            "osm_type": "node",
                            "lat": 48.365525,
                            "lon": 10.9081276,
                            "addr:city": "Augsburg",
                            "brand": "Pandora",
                            "brand:wikidata": "Q2241604",
                            "brand:wikipedia": "en:Pandora (jewelry)",
                            "level": "0",
                            "name": "Pandora",
                            "opening_hours": "Mo-Sa 09:30-20:00; Su,PH off",
                            "shop": "jewelry"
                          },
                          "geometry": {
                            "type": "Point",
                            "coordinates": [
                              10.9081276,
                              48.365525
                            ]
                          }
                        },
                        {
                          "type": "Feature",
                          "properties": {
                            "id": "3584258649",
                            "osm_type": "node",
                            "lat": 48.3656192,
                            "lon": 10.9063982,
                            "brand": "Christ",
                            "brand:wikidata": "Q1077957",
                            "brand:wikipedia": "de:Christ (Juwelier)",
                            "check_date": "2023-04-22",
                            "level": "0",
                            "name": "Christ",
                            "shop": "jewelry"
                          },
                          "geometry": {
                            "type": "Point",
                            "coordinates": [
                              10.9063982,
                              48.3656192
                            ]
                          }
                        },
                        {
                          "type": "Feature",
                          "properties": {
                            "id": "3584258651",
                            "osm_type": "node",
                            "lat": 48.3656363,
                            "lon": 10.9062951,
                            "brand": "Bijou Brigitte",
                            "brand:wikidata": "Q599545",
                            "brand:wikipedia": "de:Bijou Brigitte",
                            "check_date": "2023-04-22",
                            "level": "0",
                            "name": "Bijou Brigitte",
                            "shop": "jewelry",
                            "wheelchair": "yes"
                          },
                          "geometry": {
                            "type": "Point",
                            "coordinates": [
                              10.9062951,
                              48.3656363
                            ]
                          }
                        },
                        {
                          "type": "Feature",
                          "properties": {
                            "id": "3584276956",
                            "osm_type": "node",
                            "lat": 48.3659066,
                            "lon": 10.9063309,
                            "brand": "Swarovski",
                            "brand:wikidata": "Q611115",
                            "brand:wikipedia": "en:Swarovski",
                            "check_date": "2023-04-22",
                            "level": "1",
                            "name": "Swarovski",
                            "shop": "jewelry"
                          },
                          "geometry": {
                            "type": "Point",
                            "coordinates": [
                              10.9063309,
                              48.3659066
                            ]
                          }
                        },
                        {
                          "type": "Feature",
                          "properties": {
                            "id": "9651936666",
                            "osm_type": "node",
                            "lat": 48.3650741,
                            "lon": 10.902557,
                            "addr:city": "Augsburg",
                            "addr:housenumber": "8",
                            "addr:postcode": "86150",
                            "addr:street": "Findelgäßchen",
                            "name": "Herzblut",
                            "opening_hours": "\"by appointment\"",
                            "phone": "+49 821 4508632",
                            "shop": "jewelry",
                            "website": "https://herzblut-augsburg.de/"
                          },
                          "geometry": {
                            "type": "Point",
                            "coordinates": [
                              10.902557,
                              48.3650741
                            ]
                          }
                        }
                      ],
                      "children": []
                    },
                    {
                      "bbox": {
                        "south": 48.376631078124994,
                        "west": 10.842294312499998,
                        "north": 48.39729065624999,
                        "east": 10.90190078125
                      },
                      "poiCount": 2,
                      "leafCount": 2,
                      "averagePosition": [
                        10.87998675,
                        48.3797482
                      ],
                      "data": [
                        {
                          "type": "Feature",
                          "properties": {
                            "id": "4512909316",
                            "osm_type": "node",
                            "lat": 48.3782974,
                            "lon": 10.8852538,
                            "check_date:opening_hours": "2024-12-23",
                            "name": "Juwelier Oya",
                            "opening_hours": "Mo-Fr 11:00-18:00; Sa 11:00-15:00",
                            "shop": "jewelry",
                            "wheelchair": "no"
                          },
                          "geometry": {
                            "type": "Point",
                            "coordinates": [
                              10.8852538,
                              48.3782974
                            ]
                          }
                        },
                        {
                          "type": "Feature",
                          "properties": {
                            "id": "4868073095",
                            "osm_type": "node",
                            "lat": 48.381199,
                            "lon": 10.8747197,
                            "addr:city": "Augsburg",
                            "addr:country": "DE",
                            "addr:housenumber": "41",
                            "addr:postcode": "86154",
                            "addr:street": "Ulmer Straße",
                            "craft": "jeweller",
                            "name": "Uhren Durnberger",
                            "opening_hours": "Mo-Fr 09:00-12:30, Mo,Tu,Th,Fr 14:00-18:00, Sa 09:00-13:00",
                            "operator": "Die Alte Silberschmiede Bartel & Sohn",
                            "shop": "jewelry",
                            "website": "https://www.silberschmiede.de/oeffnungszeiten-filialen/uhren-durnberger-augsburg-oberhausen/"
                          },
                          "geometry": {
                            "type": "Point",
                            "coordinates": [
                              10.8747197,
                              48.381199
                            ]
                          }
                        }
                      ],
                      "children": []
                    },
                    {
                      "bbox": {
                        "south": 48.376631078124994,
                        "west": 10.90190078125,
                        "north": 48.39729065624999,
                        "east": 10.961507249999999
                      },
                      "poiCount": 1,
                      "leafCount": 1,
                      "averagePosition": [
                        10.9156383,
                        48.3811195
                      ],
                      "data": [
                        {
                          "type": "Feature",
                          "properties": {
                            "id": "8063051523",
                            "osm_type": "node",
                            "lat": 48.3811195,
                            "lon": 10.9156383,
                            "contact:facebook": "https://www.facebook.com/Cumhurjuwelier/",
                            "contact:phone": "+49 176 28697261",
                            "craft": "jeweller",
                            "name": "Cumhur",
                            "opening_hours": "Mo-Fr 10:00-19:00; Sa 10:00-18:00; PH off",
                            "operator": "Ucaroglu Cumhur",
                            "shop": "jewelry"
                          },
                          "geometry": {
                            "type": "Point",
                            "coordinates": [
                              10.9156383,
                              48.3811195
                            ]
                          }
                        }
                      ],
                      "children": []
                    }
                  ]
                }
              ]
            }
          ]
        },
        {
          "bbox": {
            "south": 48.355971499999995,
            "west": 10.961507249999999,
            "north": 48.521248125,
            "east": 11.438358999999998
          },
          "poiCount": 5,
          "leafCount": 5,
          "averagePosition": [
            11.1798216,
            48.44016972
          ],
          "data": [
            {
              "type": "Feature",
              "properties": {
                "id": "13052317829",
                "osm_type": "node",
                "lat": 48.3627383,
                "lon": 11.3761283,
                "addr:city": "Markt Indersdorf",
                "addr:country": "DE",
                "addr:housenumber": "21",
                "addr:postcode": "85229",
                "addr:street": "Freisinger Straße",
                "building": "yes",
                "name": "Uhren Leber",
                "office": "yes",
                "shop": "jewelry"
              },
              "geometry": {
                "type": "Point",
                "coordinates": [
                  11.3761283,
                  48.3627383
                ]
              }
            },
            {
              "type": "Feature",
              "properties": {
                "id": "944546969",
                "osm_type": "node",
                "lat": 48.4598501,
                "lon": 11.1316449,
                "check_date": "2022-01-14",
                "name": "Juwelier Jung",
                "phone": "+49 8251 4577",
                "shop": "jewelry"
              },
              "geometry": {
                "type": "Point",
                "coordinates": [
                  11.1316449,
                  48.4598501
                ]
              }
            },
            {
              "type": "Feature",
              "properties": {
                "id": "963736080",
                "osm_type": "node",
                "lat": 48.4582788,
                "lon": 11.1306213,
                "addr:city": "Aichach",
                "addr:country": "DE",
                "addr:housenumber": "37",
                "addr:postcode": "86551",
                "addr:street": "Stadtplatz",
                "entrance": "yes",
                "name": "Bluepoint",
                "shop": "jewelry",
                "website": "https://www.bluepointaic.de/"
              },
              "geometry": {
                "type": "Point",
                "coordinates": [
                  11.1306213,
                  48.4582788
                ]
              }
            },
            {
              "type": "Feature",
              "properties": {
                "id": "5330980281",
                "osm_type": "node",
                "lat": 48.4598179,
                "lon": 11.1302596,
                "craft": "jeweller",
                "name": "Werkstatt Galerie Schiele",
                "shop": "jewelry",
                "website": "https://www.werkstatt-galerie-schiele.de/"
              },
              "geometry": {
                "type": "Point",
                "coordinates": [
                  11.1302596,
                  48.4598179
                ]
              }
            },
            {
              "type": "Feature",
              "properties": {
                "id": "12209942092",
                "osm_type": "node",
                "lat": 48.4601635,
                "lon": 11.1304539,
                "description": "Concept Store mit Möbeln, Accessoirs, Designgegenständen",
                "name": "Evita Schmuck",
                "opening_hours": "Th,Fr 10:00-18:00; Sa 10:00-14:00; \"nach Vereinbarung\"",
                "operator": "Eva Ullrich",
                "shop": "jewelry"
              },
              "geometry": {
                "type": "Point",
                "coordinates": [
                  11.1304539,
                  48.4601635
                ]
              }
            }
          ],
          "children": []
        },
        {
          "bbox": {
            "south": 48.521248125,
            "west": 10.484655499999999,
            "north": 48.68652475,
            "east": 10.961507249999999
          },
          "poiCount": 6,
          "leafCount": 6,
          "averagePosition": [
            10.591179683333333,
            48.58894288333334
          ],
          "data": [
            {
              "type": "Feature",
              "properties": {
                "id": "4253059006",
                "osm_type": "node",
                "lat": 48.5774115,
                "lon": 10.4955376,
                "name": "Jacob",
                "opening_hours": "Mo-Fr 09:30-18:30; Sa 09:30-14:30",
                "shop": "jewelry",
                "website": "http://www.jacob-schmuck.de/",
                "wheelchair": "no"
              },
              "geometry": {
                "type": "Point",
                "coordinates": [
                  10.4955376,
                  48.5774115
                ]
              }
            },
            {
              "type": "Feature",
              "properties": {
                "id": "4253059015",
                "osm_type": "node",
                "lat": 48.5775268,
                "lon": 10.4959492,
                "name": "Theo Steur",
                "shop": "jewelry",
                "website": "http://www.steur-uhren-schmuck.de/"
              },
              "geometry": {
                "type": "Point",
                "coordinates": [
                  10.4959492,
                  48.5775268
                ]
              }
            },
            {
              "type": "Feature",
              "properties": {
                "id": "4396698244",
                "osm_type": "node",
                "lat": 48.5772028,
                "lon": 10.4960804,
                "name": "Barthelmess",
                "opening_hours": "Tu-Fr 09:00-18:00; Sa 09:00-13:00",
                "shop": "jewelry",
                "website": "http://www.juwelier-barthelmess.de/",
                "wheelchair": "yes"
              },
              "geometry": {
                "type": "Point",
                "coordinates": [
                  10.4960804,
                  48.5772028
                ]
              }
            },
            {
              "type": "Feature",
              "properties": {
                "id": "1439652148",
                "osm_type": "node",
                "lat": 48.5610507,
                "lon": 10.6827226,
                "addr:city": "Wertingen",
                "addr:country": "DE",
                "addr:postcode": "86637",
                "addr:street": "Hauptstraße",
                "name": "Kolb",
                "operator": "Kolb",
                "shop": "jewelry"
              },
              "geometry": {
                "type": "Point",
                "coordinates": [
                  10.6827226,
                  48.5610507
                ]
              }
            },
            {
              "type": "Feature",
              "properties": {
                "id": "1439652149",
                "osm_type": "node",
                "lat": 48.5614341,
                "lon": 10.6825724,
                "addr:city": "Wertingen",
                "addr:country": "DE",
                "addr:housenumber": "7",
                "addr:postcode": "86637",
                "addr:street": "Hauptstraße",
                "name": "Hirn",
                "shop": "jewelry"
              },
              "geometry": {
                "type": "Point",
                "coordinates": [
                  10.6825724,
                  48.5614341
                ]
              }
            },
            {
              "type": "Feature",
              "properties": {
                "id": "11057575252",
                "osm_type": "node",
                "lat": 48.6790314,
                "lon": 10.6942159,
                "name": "Schmuckmanufaktur Failer",
                "shop": "jewelry",
                "website": "https://www.failer-schmuck.de/"
              },
              "geometry": {
                "type": "Point",
                "coordinates": [
                  10.6942159,
                  48.6790314
                ]
              }
            }
          ],
          "children": []
        },
        {
          "bbox": {
            "south": 48.521248125,
            "west": 10.961507249999999,
            "north": 48.68652475,
            "east": 11.438358999999998
          },
          "poiCount": 1,
          "leafCount": 1,
          "averagePosition": [
            11.264791,
            48.5626427
          ],
          "data": [
            {
              "type": "Feature",
              "properties": {
                "id": "12496983068",
                "osm_type": "node",
                "lat": 48.5626427,
                "lon": 11.264791,
                "addr:city": "Schrobenhausen",
                "addr:country": "DE",
                "addr:housenumber": "9",
                "addr:postcode": "86529",
                "addr:street": "Lenbachstraße",
                "contact:facebook": "https://www.facebook.com/people/Wager-UhrenSchmuck/100063516462233/",
                "name": "Uhren Schmuck Wager",
                "phone": "+49 8252 7677",
                "shop": "jewelry",
                "website": "https://sob-city.de/de/uhren-schmuck-accessoires/2146-wager-uhren-schmuck-Telefon-082527677.html",
                "wheelchair": "yes"
              },
              "geometry": {
                "type": "Point",
                "coordinates": [
                  11.264791,
                  48.5626427
                ]
              }
            }
          ],
          "children": []
        }
      ]
    },
    {
      "bbox": {
        "south": 48.68652475,
        "west": 9.530952,
        "north": 49.017078,
        "east": 10.484655499999999
      },
      "poiCount": 32,
      "leafCount": 32,
      "averagePosition": [
        9.9000310875,
        48.808946871875
      ],
      "data": [
        {
          "type": "Feature",
          "properties": {
            "id": "573424076",
            "osm_type": "node",
            "lat": 48.7998011,
            "lon": 9.7975032,
            "entrance": "yes",
            "name": "Kennen",
            "shop": "jewelry"
          },
          "geometry": {
            "type": "Point",
            "coordinates": [
              9.7975032,
              48.7998011
            ]
          }
        },
        {
          "type": "Feature",
          "properties": {
            "id": "667443005",
            "osm_type": "node",
            "lat": 48.6995218,
            "lon": 9.7070641,
            "addr:city": "Eislingen/Fils",
            "addr:housenumber": "55",
            "addr:postcode": "73054",
            "addr:street": "Hauptstraße",
            "name": "CHRISTY ANNA CONCEPT STORE",
            "opening_hours": "Mo-Fr 10:00-13:00, 14:00-18:00; Sa 10:00-13:00",
            "phone": "+49 7161 4011360",
            "shop": "jewelry",
            "website": "https://christy-anna.de/"
          },
          "geometry": {
            "type": "Point",
            "coordinates": [
              9.7070641,
              48.6995218
            ]
          }
        },
        {
          "type": "Feature",
          "properties": {
            "id": "1091702899",
            "osm_type": "node",
            "lat": 48.8017001,
            "lon": 9.7959551,
            "addr:city": "Schwäbisch Gmünd",
            "addr:country": "DE",
            "addr:housenumber": "2/3",
            "addr:postcode": "73525",
            "addr:street": "Ledergasse",
            "entrance": "yes",
            "name": "almandin",
            "shop": "jewelry",
            "website": "http://www.almandin-online.de/",
            "wheelchair": "yes"
          },
          "geometry": {
            "type": "Point",
            "coordinates": [
              9.7959551,
              48.8017001
            ]
          }
        },
        {
          "type": "Feature",
          "properties": {
            "id": "1588979447",
            "osm_type": "node",
            "lat": 48.7028538,
            "lon": 9.6541126,
            "addr:city": "Göppingen",
            "addr:country": "DE",
            "addr:housenumber": "17",
            "addr:postcode": "73033",
            "addr:street": "Marktstraße",
            "check_date": "2024-09-16",
            "name": "Uhrwerk",
            "opening_hours": "Mo-Fr 10:00-18:30; Sa 09:30-16:00",
            "phone": "+49 7161 684685",
            "shop": "jewelry",
            "wheelchair": "yes"
          },
          "geometry": {
            "type": "Point",
            "coordinates": [
              9.6541126,
              48.7028538
            ]
          }
        },
        {
          "type": "Feature",
          "properties": {
            "id": "2088826153",
            "osm_type": "node",
            "lat": 48.8428278,
            "lon": 9.7207646,
            "shop": "jewelry"
          },
          "geometry": {
            "type": "Point",
            "coordinates": [
              9.7207646,
              48.8428278
            ]
          }
        },
        {
          "type": "Feature",
          "properties": {
            "id": "2429275370",
            "osm_type": "node",
            "lat": 48.695321,
            "lon": 9.7060007,
            "addr:city": "Eislingen/Fils",
            "addr:housenumber": "4",
            "addr:postcode": "73054",
            "addr:street": "Bahnhofstraße",
            "name": "Das Goldhaus",
            "opening_hours": "Mo-Fr 10:00-18:00",
            "phone": "+49 7161 9245431",
            "shop": "jewelry",
            "wheelchair": "no"
          },
          "geometry": {
            "type": "Point",
            "coordinates": [
              9.7060007,
              48.695321
            ]
          }
        },
        {
          "type": "Feature",
          "properties": {
            "id": "3866975528",
            "osm_type": "node",
            "lat": 48.7938036,
            "lon": 9.8042032,
            "addr:city": "Schwäbisch Gmünd",
            "addr:country": "DE",
            "addr:housenumber": "23",
            "addr:postcode": "73525",
            "addr:street": "Gutenbergstraße",
            "name": "Quinn Schmuck Outlet",
            "old_name": "Franz Scheurle",
            "operator": "Quinn Scheurle GmbH",
            "shop": "jewelry",
            "source": "Maps4BW, LGL, www.lgl-bw.de",
            "website": "https://www.quinn.de/"
          },
          "geometry": {
            "type": "Point",
            "coordinates": [
              9.8042032,
              48.7938036
            ]
          }
        },
        {
          "type": "Feature",
          "properties": {
            "id": "4866700063",
            "osm_type": "node",
            "lat": 48.7032038,
            "lon": 9.6521437,
            "addr:city": "Göppingen",
            "addr:housenumber": "25",
            "addr:postcode": "73033",
            "addr:street": "Lange Straße",
            "name": "Goldschmiede Stübe",
            "opening_hours": "Mo off; Tu-Fr 10:00-13:00,14:00-18:00; Sa 10:00-14:00",
            "shop": "jewelry",
            "website": "https://www.stuebe-gp.de/"
          },
          "geometry": {
            "type": "Point",
            "coordinates": [
              9.6521437,
              48.7032038
            ]
          }
        },
        {
          "type": "Feature",
          "properties": {
            "id": "6897759686",
            "osm_type": "node",
            "lat": 48.702509,
            "lon": 9.6565902,
            "addr:city": "Göppingen",
            "addr:country": "DE",
            "addr:housenumber": "28",
            "addr:postcode": "73033",
            "addr:street": "Poststraße",
            "name": "Uhren Abel",
            "opening_hours": "Mo-Fr 10:00-12:30,14:00-18:00; Sa 10:00-15:00",
            "shop": "jewelry"
          },
          "geometry": {
            "type": "Point",
            "coordinates": [
              9.6565902,
              48.702509
            ]
          }
        },
        {
          "type": "Feature",
          "properties": {
            "id": "7286049639",
            "osm_type": "node",
            "lat": 48.7991887,
            "lon": 9.7945646,
            "entrance": "yes",
            "name": "Baur",
            "shop": "jewelry"
          },
          "geometry": {
            "type": "Point",
            "coordinates": [
              9.7945646,
              48.7991887
            ]
          }
        },
        {
          "type": "Feature",
          "properties": {
            "id": "7286089095",
            "osm_type": "node",
            "lat": 48.7992007,
            "lon": 9.795548,
            "addr:city": "Schwäbisch Gmünd",
            "addr:housenumber": "23",
            "addr:postcode": "73525",
            "addr:street": "Bocksgasse",
            "email": "info@baritli-gold.de",
            "name": "Baritli Edelmetallhandel",
            "opening_hours": "Mo-Fr 10:00-17:30; Sa, Su, PH off",
            "operator": "Baritli Edelmetallhandel GmbH",
            "phone": "+49 7171 8743145",
            "shop": "jewelry",
            "website": "http://baritli-gold.de"
          },
          "geometry": {
            "type": "Point",
            "coordinates": [
              9.795548,
              48.7992007
            ]
          }
        },
        {
          "type": "Feature",
          "properties": {
            "id": "9468854465",
            "osm_type": "node",
            "lat": 48.7013274,
            "lon": 9.65645,
            "level": "1",
            "name": "Aslan",
            "opening_hours": "Mo-Fr 10:00-18:00; Sa:10:00-15:00",
            "shop": "jewelry"
          },
          "geometry": {
            "type": "Point",
            "coordinates": [
              9.65645,
              48.7013274
            ]
          }
        },
        {
          "type": "Feature",
          "properties": {
            "id": "9837932632",
            "osm_type": "node",
            "lat": 48.7992178,
            "lon": 9.7987761,
            "addr:city": "Schwäbisch Gmünd",
            "addr:country": "DE",
            "addr:housenumber": "9",
            "addr:postcode": "73525",
            "addr:street": "Kornhausstraße",
            "contact:email": "beyer-mannhardt@email.de",
            "contact:fax": "+49 7171 181313",
            "contact:phone": "+49 7171 181283",
            "contact:website": "https://beyer-mannhardt.de",
            "name": "Mannhardt",
            "opening_hours": "Mo-Fr 10:00-18:00; We, Sa 10:00-14:00; Su, PH off",
            "shop": "jewelry",
            "source": "Maps4BW, LGL, www.lgl-bw.de"
          },
          "geometry": {
            "type": "Point",
            "coordinates": [
              9.7987761,
              48.7992178
            ]
          }
        },
        {
          "type": "Feature",
          "properties": {
            "id": "9843495666",
            "osm_type": "node",
            "lat": 48.7991392,
            "lon": 9.7988149,
            "addr:city": "Schwäbisch Gmünd",
            "addr:housenumber": "11",
            "addr:postcode": "73525",
            "addr:street": "Kornhausstraße",
            "email": "info@delta-schmuckgestaltung.de",
            "name": "Goldschmiede Delta Schmuckgestaltung",
            "opening_hours": "Tu-Fr 09:00-13:00,14:00-18:00; Sa 09:00-14:00; Mo,Su,PH off",
            "phone": "+49 7171 30468",
            "shop": "jewelry",
            "website": "https://delta-schmuckgestaltung.de"
          },
          "geometry": {
            "type": "Point",
            "coordinates": [
              9.7988149,
              48.7991392
            ]
          }
        },
        {
          "type": "Feature",
          "properties": {
            "id": "11853059678",
            "osm_type": "node",
            "lat": 48.7020584,
            "lon": 9.6530384,
            "email": "zerda.gold@outlook.de",
            "name": "Zerda",
            "opening_hours": "Mo-Fr 09:30-18:30; Sa 09:30-17:00",
            "phone": "+49 7161 4063985",
            "shop": "jewelry"
          },
          "geometry": {
            "type": "Point",
            "coordinates": [
              9.6530384,
              48.7020584
            ]
          }
        },
        {
          "type": "Feature",
          "properties": {
            "id": "11862227807",
            "osm_type": "node",
            "lat": 48.703969,
            "lon": 9.6544856,
            "name": "Zoller",
            "shop": "jewelry"
          },
          "geometry": {
            "type": "Point",
            "coordinates": [
              9.6544856,
              48.703969
            ]
          }
        },
        {
          "type": "Feature",
          "properties": {
            "id": "2938720408",
            "osm_type": "node",
            "lat": 48.8380516,
            "lon": 10.0930142,
            "addr:city": "Aalen",
            "addr:housenumber": "1a",
            "addr:postcode": "73430",
            "addr:street": "Mittelbachstraße",
            "name": "Juwelier Schön",
            "opening_hours": "Mo-Fr 10:00-18:00; Sa 10:00-16:00",
            "phone": "+4973619244787",
            "shop": "jewelry",
            "website": "https://www.kristalleleganz.de/",
            "wheelchair": "yes"
          },
          "geometry": {
            "type": "Point",
            "coordinates": [
              10.0930142,
              48.8380516
            ]
          }
        },
        {
          "type": "Feature",
          "properties": {
            "id": "2938741339",
            "osm_type": "node",
            "lat": 48.8370539,
            "lon": 10.0915134,
            "contact:phone": "+49 7361 66133",
            "name": "Eiro Uhren und Schmuck",
            "opening_hours": "Mo-Fr 09:00-18:00; Sa 09:00-12:30; Su,PH off",
            "shop": "jewelry",
            "wheelchair": "limited"
          },
          "geometry": {
            "type": "Point",
            "coordinates": [
              10.0915134,
              48.8370539
            ]
          }
        },
        {
          "type": "Feature",
          "properties": {
            "id": "3093860253",
            "osm_type": "node",
            "lat": 48.8378955,
            "lon": 10.0931582,
            "addr:city": "Aalen",
            "addr:postcode": "73430",
            "brand": "Bijou Brigitte",
            "brand:wikidata": "Q599545",
            "check_date": "2025-04-12",
            "name": "Bijou Brigitte",
            "shop": "jewelry"
          },
          "geometry": {
            "type": "Point",
            "coordinates": [
              10.0931582,
              48.8378955
            ]
          }
        },
        {
          "type": "Feature",
          "properties": {
            "id": "3400932077",
            "osm_type": "node",
            "lat": 48.8393076,
            "lon": 10.0923266,
            "name": "Alain Le Mondial Schmuck",
            "opening_hours": "Mo,Tu,Th,Fr 10:00-18:00; We 09:00-18:00; Sa 09:00-16:00",
            "shop": "jewelry"
          },
          "geometry": {
            "type": "Point",
            "coordinates": [
              10.0923266,
              48.8393076
            ]
          }
        },
        {
          "type": "Feature",
          "properties": {
            "id": "3566595930",
            "osm_type": "node",
            "lat": 48.8390699,
            "lon": 10.0944925,
            "name": "IJ Juwelier Aalen Traungsringstudio",
            "opening_hours": "Mo-Fr 09:00-18:00; Sa 09:30-14:00; PH,Su off",
            "shop": "jewelry"
          },
          "geometry": {
            "type": "Point",
            "coordinates": [
              10.0944925,
              48.8390699
            ]
          }
        },
        {
          "type": "Feature",
          "properties": {
            "id": "4068243091",
            "osm_type": "node",
            "lat": 48.8375343,
            "lon": 10.0926195,
            "addr:city": "Aalen",
            "addr:housenumber": "2",
            "addr:postcode": "73430",
            "addr:street": "Gmünder Straße",
            "check_date": "2023-04-04",
            "contact:phone": "+49 7361 9750796",
            "contact:website": "http://steineladen-larimar.de",
            "level": "0",
            "name": "Steineladen Larimar",
            "opening_hours": "Mo-Th 10:00-13:00, 14:00-18:00; We 10:00-13:00; Fr 10:00-18:00; Sa 10:00-14:00; Su, PH off",
            "shop": "jewelry",
            "wheelchair": "limited",
            "wheelchair:description": "Rampe ist vorhanden"
          },
          "geometry": {
            "type": "Point",
            "coordinates": [
              10.0926195,
              48.8375343
            ]
          }
        },
        {
          "type": "Feature",
          "properties": {
            "id": "4093222192",
            "osm_type": "node",
            "lat": 48.8592493,
            "lon": 10.3505683,
            "name": "Uhren Nille",
            "shop": "jewelry"
          },
          "geometry": {
            "type": "Point",
            "coordinates": [
              10.3505683,
              48.8592493
            ]
          }
        },
        {
          "type": "Feature",
          "properties": {
            "id": "4193545587",
            "osm_type": "node",
            "lat": 48.8391738,
            "lon": 10.093414,
            "contact:email": "info@goldschmiede-ifju.de",
            "contact:phone": "+49 7361 64650",
            "contact:website": "http://goldschmiede-ifju.de",
            "name": "D.IFJU Goldschmiede",
            "opening_hours": "Mo-Fr 09:30-13:00,14:00-18:00; Sa 09:30-16:00; Su,PH off",
            "shop": "jewelry",
            "wheelchair": "no"
          },
          "geometry": {
            "type": "Point",
            "coordinates": [
              10.093414,
              48.8391738
            ]
          }
        },
        {
          "type": "Feature",
          "properties": {
            "id": "4193547309",
            "osm_type": "node",
            "lat": 48.8398173,
            "lon": 10.0936937,
            "check_date:opening_hours": "2024-10-27",
            "name": "Schmuck Rall",
            "opening_hours": "Mo-Fr 10:00-12:30,13:30-17:30; Sa 10:00-13:00; PH off",
            "shop": "jewelry",
            "wheelchair": "yes"
          },
          "geometry": {
            "type": "Point",
            "coordinates": [
              10.0936937,
              48.8398173
            ]
          }
        },
        {
          "type": "Feature",
          "properties": {
            "id": "5413848654",
            "osm_type": "node",
            "lat": 48.8374089,
            "lon": 10.0926644,
            "addr:city": "Aalen",
            "addr:housenumber": "3",
            "addr:postcode": "73430",
            "addr:street": "Gmünder Straße",
            "contact:phone": "+49 7361 62411",
            "name": "Eiro Geschenkideen",
            "opening_hours": "Mo-Fr 09:00-12:00,13:00-18:00; Sa 09:00-13:00",
            "shop": "jewelry"
          },
          "geometry": {
            "type": "Point",
            "coordinates": [
              10.0926644,
              48.8374089
            ]
          }
        },
        {
          "type": "Feature",
          "properties": {
            "id": "10574598157",
            "osm_type": "node",
            "lat": 48.6908082,
            "lon": 10.0668417,
            "addr:city": "Steinheim am Albuch",
            "addr:country": "DE",
            "addr:housenumber": "1",
            "addr:postcode": "89555",
            "addr:street": "Hirschstraße",
            "name": "Niederberger",
            "shop": "jewelry"
          },
          "geometry": {
            "type": "Point",
            "coordinates": [
              10.0668417,
              48.6908082
            ]
          }
        },
        {
          "type": "Feature",
          "properties": {
            "id": "12304721305",
            "osm_type": "node",
            "lat": 48.8380582,
            "lon": 10.0942652,
            "check_date": "2024-11-01",
            "check_date:opening_hours": "2024-11-01",
            "name": "Tilo Treuter",
            "opening_hours": "Tu-Fr 10:00-18:00; Sa 10:00-16:00",
            "shop": "jewelry"
          },
          "geometry": {
            "type": "Point",
            "coordinates": [
              10.0942652,
              48.8380582
            ]
          }
        },
        {
          "type": "Feature",
          "properties": {
            "id": "5987209461",
            "osm_type": "node",
            "lat": 48.9989598,
            "lon": 9.7696634,
            "addr:city": "Gaildorf",
            "addr:country": "DE",
            "addr:housenumber": "6",
            "addr:postcode": "74405",
            "addr:street": "Fraschstraße",
            "name": "Diamant Juwelier",
            "opening_hours": "Mo-Fr 09:00-12:00,14:00-18:00; Sa 09:00-12:00",
            "shop": "jewelry",
            "website": "https://www.diamant-hr.de"
          },
          "geometry": {
            "type": "Point",
            "coordinates": [
              9.7696634,
              48.9989598
            ]
          }
        },
        {
          "type": "Feature",
          "properties": {
            "id": "10706266474",
            "osm_type": "node",
            "lat": 48.9866302,
            "lon": 9.7751456,
            "addr:city": "Gaildorf",
            "addr:country": "DE",
            "addr:housenumber": "8",
            "addr:postcode": "74405",
            "addr:street": "Steinbeisstraße",
            "name": "Designerkette",
            "shop": "jewelry",
            "website": "https://designerkette.de"
          },
          "geometry": {
            "type": "Point",
            "coordinates": [
              9.7751456,
              48.9866302
            ]
          }
        },
        {
          "type": "Feature",
          "properties": {
            "id": "283914712",
            "osm_type": "node",
            "lat": 48.960488,
            "lon": 10.1306623,
            "name": "Juwelier Hunke",
            "phone": "+49 7961 3636",
            "shop": "jewelry",
            "toilets:wheelchair": "no",
            "website": "https://juwelier-hunke.de/",
            "wheelchair": "yes"
          },
          "geometry": {
            "type": "Point",
            "coordinates": [
              10.1306623,
              48.960488
            ]
          }
        },
        {
          "type": "Feature",
          "properties": {
            "id": "3860481859",
            "osm_type": "node",
            "lat": 48.9611502,
            "lon": 10.1309368,
            "name": "Juwelier Werkmann",
            "opening_hours": "Mo-Fr 09:00-18:00; Sa 09:00-13:00",
            "phone": "+49 7961 3501",
            "shop": "jewelry",
            "toilets:wheelchair": "no",
            "website": "https://juwelier-werkmann.de/",
            "wheelchair": "yes"
          },
          "geometry": {
            "type": "Point",
            "coordinates": [
              10.1309368,
              48.9611502
            ]
          }
        }
      ],
      "children": []
    },
    {
      "bbox": {
        "south": 48.68652475,
        "west": 10.484655499999999,
        "north": 49.017078,
        "east": 11.438358999999998
      },
      "poiCount": 22,
      "leafCount": 22,
      "averagePosition": [
        11.134106577272727,
        48.80251435
      ],
      "data": [
        {
          "type": "Feature",
          "properties": {
            "id": "4041812846",
            "osm_type": "node",
            "lat": 48.8524899,
            "lon": 10.4875521,
            "addr:city": "Nördlingen",
            "addr:country": "DE",
            "addr:housenumber": "9",
            "addr:postcode": "86720",
            "addr:street": "Baldinger Straße",
            "contact:email": "info@herrle-schweda.de",
            "contact:fax": "+49 9081 24831",
            "contact:instagram": "https://instagram.com/goldschmiede_herrle_schweda",
            "contact:phone": "+49 9081 9349",
            "contact:website": "http://herrle-schweda.de",
            "name": "Goldschmiede Herrle & Schweda",
            "opening_hours": "Mo-Fr 09:00-12:30,14:00-18:00; Sa 09:00-14:00; PH off",
            "shop": "jewelry",
            "wheelchair": "limited"
          },
          "geometry": {
            "type": "Point",
            "coordinates": [
              10.4875521,
              48.8524899
            ]
          }
        },
        {
          "type": "Feature",
          "properties": {
            "id": "4044013147",
            "osm_type": "node",
            "lat": 48.8515823,
            "lon": 10.4933812,
            "name": "Goldschmiede Schäffler",
            "shop": "jewelry"
          },
          "geometry": {
            "type": "Point",
            "coordinates": [
              10.4933812,
              48.8515823
            ]
          }
        },
        {
          "type": "Feature",
          "properties": {
            "id": "1428936865",
            "osm_type": "node",
            "lat": 48.7158433,
            "lon": 10.7758615,
            "entrance": "yes",
            "name": "Die Goldmaus",
            "opening_hours": "Mo-Tu 10:00-13:30,14:00-17:30; Th-Fr 10:00-13:30,14:00-17:30",
            "shop": "jewelry",
            "wheelchair": "no"
          },
          "geometry": {
            "type": "Point",
            "coordinates": [
              10.7758615,
              48.7158433
            ]
          }
        },
        {
          "type": "Feature",
          "properties": {
            "id": "6312416250",
            "osm_type": "node",
            "lat": 48.7182732,
            "lon": 10.7800036,
            "name": "Glanzpunkt",
            "shop": "jewelry",
            "website": "https://glanzpunkt-shop.de/",
            "wheelchair": "yes"
          },
          "geometry": {
            "type": "Point",
            "coordinates": [
              10.7800036,
              48.7182732
            ]
          }
        },
        {
          "type": "Feature",
          "properties": {
            "id": "6312416260",
            "osm_type": "node",
            "lat": 48.7182297,
            "lon": 10.7805075,
            "name": "Juwelier Achner",
            "shop": "jewelry",
            "wheelchair": "no"
          },
          "geometry": {
            "type": "Point",
            "coordinates": [
              10.7805075,
              48.7182297
            ]
          }
        },
        {
          "type": "Feature",
          "properties": {
            "id": "362390788",
            "osm_type": "node",
            "lat": 48.7647946,
            "lon": 11.4290923,
            "addr:city": "Ingolstadt",
            "addr:country": "DE",
            "addr:housenumber": "43",
            "addr:postcode": "85049",
            "addr:street": "Ludwigstraße",
            "name": "Geschw. Elfinger",
            "shop": "jewelry"
          },
          "geometry": {
            "type": "Point",
            "coordinates": [
              11.4290923,
              48.7647946
            ]
          }
        },
        {
          "type": "Feature",
          "properties": {
            "id": "705573528",
            "osm_type": "node",
            "lat": 48.764473,
            "lon": 11.4240671,
            "name": "Sino",
            "shop": "jewelry",
            "wheelchair": "yes"
          },
          "geometry": {
            "type": "Point",
            "coordinates": [
              11.4240671,
              48.764473
            ]
          }
        },
        {
          "type": "Feature",
          "properties": {
            "id": "2134259870",
            "osm_type": "node",
            "lat": 48.7651581,
            "lon": 11.4266677,
            "shop": "jewelry"
          },
          "geometry": {
            "type": "Point",
            "coordinates": [
              11.4266677,
              48.7651581
            ]
          }
        },
        {
          "type": "Feature",
          "properties": {
            "id": "2197804893",
            "osm_type": "node",
            "lat": 48.7624246,
            "lon": 11.4250723,
            "name": "Juwelier Dührkoop",
            "shop": "jewelry"
          },
          "geometry": {
            "type": "Point",
            "coordinates": [
              11.4250723,
              48.7624246
            ]
          }
        },
        {
          "type": "Feature",
          "properties": {
            "id": "2617904298",
            "osm_type": "node",
            "lat": 48.7632033,
            "lon": 11.423509,
            "addr:city": "Ingolstadt",
            "addr:housenumber": "8",
            "addr:postcode": "85049",
            "addr:street": "Dollstraße",
            "description": "An- und Verkauf",
            "name": "Goldkistl",
            "shop": "jewelry"
          },
          "geometry": {
            "type": "Point",
            "coordinates": [
              11.423509,
              48.7632033
            ]
          }
        },
        {
          "type": "Feature",
          "properties": {
            "id": "2892631934",
            "osm_type": "node",
            "lat": 48.7351254,
            "lon": 11.1821504,
            "shop": "jewelry"
          },
          "geometry": {
            "type": "Point",
            "coordinates": [
              11.1821504,
              48.7351254
            ]
          }
        },
        {
          "type": "Feature",
          "properties": {
            "id": "5480534048",
            "osm_type": "node",
            "lat": 48.762776,
            "lon": 11.4238414,
            "addr:city": "Ingolstadt",
            "addr:country": "DE",
            "addr:housenumber": "7",
            "addr:postcode": "85049",
            "addr:street": "Sauerstraße",
            "name": "Goldschmiede Pitzl",
            "opening_hours": "Mo-Fr 10:00-18:00; Sa 10:00-14:00",
            "phone": "+49 841 33811",
            "shop": "jewelry",
            "website": "https://www.goldschmiede-pitzl.de/"
          },
          "geometry": {
            "type": "Point",
            "coordinates": [
              11.4238414,
              48.762776
            ]
          }
        },
        {
          "type": "Feature",
          "properties": {
            "id": "6011133448",
            "osm_type": "node",
            "lat": 48.766228,
            "lon": 11.4228011,
            "addr:housenumber": "9",
            "addr:street": "Harderstraße",
            "name": "Elaa",
            "shop": "jewelry",
            "wheelchair": "no"
          },
          "geometry": {
            "type": "Point",
            "coordinates": [
              11.4228011,
              48.766228
            ]
          }
        },
        {
          "type": "Feature",
          "properties": {
            "id": "7311423172",
            "osm_type": "node",
            "lat": 48.7613323,
            "lon": 11.4225972,
            "contact:website": "http://123gold.de",
            "level": "0",
            "name": "Berg",
            "shop": "jewelry",
            "wheelchair": "no"
          },
          "geometry": {
            "type": "Point",
            "coordinates": [
              11.4225972,
              48.7613323
            ]
          }
        },
        {
          "type": "Feature",
          "properties": {
            "id": "7826983199",
            "osm_type": "node",
            "lat": 48.7637888,
            "lon": 11.4215737,
            "addr:city": "Ingolstadt",
            "addr:country": "DE",
            "addr:housenumber": "28",
            "addr:postcode": "85049",
            "addr:street": "Theresienstraße",
            "email": "kontakt@trauringhimmel.de",
            "fax": "+49 841 3707784",
            "name": "Trauring-Himmel Ingolstadt",
            "phone": "+49 841 3707782",
            "shop": "jewelry",
            "website": "https://www.trauringhimmel.de/"
          },
          "geometry": {
            "type": "Point",
            "coordinates": [
              11.4215737,
              48.7637888
            ]
          }
        },
        {
          "type": "Feature",
          "properties": {
            "id": "11181619637",
            "osm_type": "node",
            "lat": 48.7638221,
            "lon": 11.4263784,
            "addr:housenumber": "5",
            "addr:street": "Mauthstraße",
            "name": "atelier 2000",
            "opening_hours": "Tu-Fr 10:00-13:00, 14:30-18:00; Sa 10:00-16:00",
            "phone": "+49 841 33212",
            "shop": "jewelry"
          },
          "geometry": {
            "type": "Point",
            "coordinates": [
              11.4263784,
              48.7638221
            ]
          }
        },
        {
          "type": "Feature",
          "properties": {
            "id": "8809522052",
            "osm_type": "node",
            "lat": 48.8741202,
            "lon": 10.7235387,
            "fax": "+49 (0)9092 5520",
            "name": "Dürk",
            "opening_hours": "Mo - Fr 08:30 - 12:30 14:00 - 18:00, Sa 09:00 - 12:30",
            "phone": "+49 (0)9092 252",
            "shop": "jewelry",
            "website": "https://www.optik-duerk.de"
          },
          "geometry": {
            "type": "Point",
            "coordinates": [
              10.7235387,
              48.8741202
            ]
          }
        },
        {
          "type": "Feature",
          "properties": {
            "id": "9763956116",
            "osm_type": "node",
            "lat": 48.8750402,
            "lon": 10.7224296,
            "name": "Rieser Schatztruhe",
            "shop": "jewelry"
          },
          "geometry": {
            "type": "Point",
            "coordinates": [
              10.7224296,
              48.8750402
            ]
          }
        },
        {
          "type": "Feature",
          "properties": {
            "id": "2388624617",
            "osm_type": "node",
            "lat": 48.8923442,
            "lon": 11.1836779,
            "addr:city": "Eichstätt",
            "addr:country": "DE",
            "addr:housenumber": "2",
            "addr:postcode": "85072",
            "addr:street": "Domplatz",
            "check_date": "2025-07-10",
            "name": "F.X. Bilz Goldschmiede",
            "phone": "+49 8421 2642",
            "shop": "jewelry",
            "toilets:wheelchair": "no",
            "website": "http://www.bilz-goldschmiede.de/",
            "wheelchair": "limited"
          },
          "geometry": {
            "type": "Point",
            "coordinates": [
              11.1836779,
              48.8923442
            ]
          }
        },
        {
          "type": "Feature",
          "properties": {
            "id": "4976278297",
            "osm_type": "node",
            "lat": 48.9970074,
            "lon": 11.2088053,
            "addr:housenumber": "3a",
            "addr:street": "Kehrweg",
            "description": "Öffnungszeiten spontan (klingeln)",
            "name": "Erdenlicht",
            "shop": "jewelry"
          },
          "geometry": {
            "type": "Point",
            "coordinates": [
              11.2088053,
              48.9970074
            ]
          }
        },
        {
          "type": "Feature",
          "properties": {
            "id": "8533369097",
            "osm_type": "node",
            "lat": 48.8939759,
            "lon": 11.1834274,
            "addr:city": "Eichstätt",
            "addr:housenumber": "3",
            "addr:postcode": "85072",
            "addr:street": "Westenstraße",
            "check_date": "2025-07-11",
            "contact:email": "service@uhren-schmuck-holst.de",
            "contact:phone": "+49 8421 1666",
            "contact:website": "https://www.uhren-schmuck-holst.de/",
            "name": "Holst",
            "operator": "Wolfram Holst",
            "shop": "jewelry"
          },
          "geometry": {
            "type": "Point",
            "coordinates": [
              11.1834274,
              48.8939759
            ]
          }
        },
        {
          "type": "Feature",
          "properties": {
            "id": "12190062361",
            "osm_type": "node",
            "lat": 48.8932832,
            "lon": 11.1834093,
            "name": "Goldschmiede Berger GbR",
            "opening_hours": "Mo off; Tu-Fr 09:00-12:30,14:00-18:00; Sa 09:00-12:30",
            "shop": "jewelry"
          },
          "geometry": {
            "type": "Point",
            "coordinates": [
              11.1834093,
              48.8932832
            ]
          }
        }
      ],
      "children": []
    }
  ]
}