{
  "bbox": {
    "south": 46.372652,
    "west": 15.253173,
    "north": 47.033758500000005,
    "east": 17.16058
  },
  "poiCount": 54,
  "leafCount": 0,
  "averagePosition": [
    16.04458827037037,
    46.626496872222226
  ],
  "data": [],
  "children": [
    {
      "bbox": {
        "south": 46.372652,
        "west": 15.253173,
        "north": 46.70320525,
        "east": 16.2068765
      },
      "poiCount": 15,
      "leafCount": 15,
      "averagePosition": [
        15.743703833333333,
        46.526174340000004
      ],
      "data": [
        {
          "type": "Feature",
          "properties": {
            "id": "5012440749",
            "osm_type": "node",
            "lat": 46.5609138,
            "lon": 15.6465186,
            "addr:city": "Maribor",
            "addr:housenumber": "7",
            "addr:postcode": "2000",
            "addr:street": "Tyrševa ulica",
            "name": "Zlatarstvo Grabušnik",
            "opening_hours": "Mo-Fr 9:00-18:00; Sa 9:00-12:30",
            "operator": "Robert Grabušnik s.p.",
            "phone": "+386 2 251 9122",
            "shop": "jewelry",
            "website": "https://www.zlatarstvo-grabusnik.si/index.php"
          },
          "geometry": {
            "type": "Point",
            "coordinates": [
              15.6465186,
              46.5609138
            ]
          }
        },
        {
          "type": "Feature",
          "properties": {
            "id": "5178974874",
            "osm_type": "node",
            "lat": 46.5534931,
            "lon": 15.6531519,
            "level": "0",
            "name": "six",
            "shop": "jewelry"
          },
          "geometry": {
            "type": "Point",
            "coordinates": [
              15.6531519,
              46.5534931
            ]
          }
        },
        {
          "type": "Feature",
          "properties": {
            "id": "5215138784",
            "osm_type": "node",
            "lat": 46.5540704,
            "lon": 15.6517437,
            "level": "1",
            "name": "Zlatarna Celje",
            "shop": "jewelry"
          },
          "geometry": {
            "type": "Point",
            "coordinates": [
              15.6517437,
              46.5540704
            ]
          }
        },
        {
          "type": "Feature",
          "properties": {
            "id": "5225490209",
            "osm_type": "node",
            "lat": 46.5582608,
            "lon": 15.6448722,
            "addr:housenumber": "6",
            "addr:street": "Poštna ulica",
            "name": "Zlatarstvo Šeligo",
            "shop": "jewelry"
          },
          "geometry": {
            "type": "Point",
            "coordinates": [
              15.6448722,
              46.5582608
            ]
          }
        },
        {
          "type": "Feature",
          "properties": {
            "id": "5248619948",
            "osm_type": "node",
            "lat": 46.5537476,
            "lon": 15.6526208,
            "level": "1",
            "name": "Zlatarstvo Tonko",
            "shop": "jewelry"
          },
          "geometry": {
            "type": "Point",
            "coordinates": [
              15.6526208,
              46.5537476
            ]
          }
        },
        {
          "type": "Feature",
          "properties": {
            "id": "5299972819",
            "osm_type": "node",
            "lat": 46.560285,
            "lon": 15.6475957,
            "addr:city": "Maribor",
            "addr:housenumber": "3",
            "addr:street": "Slovenska ulica",
            "name": "Ahat - kristali in poldragi kamni",
            "opening_hours": "Mo-Fr 9:00-19:00; Sa 9:00-13:00",
            "phone": "+386 2 252 6117",
            "shop": "jewelry",
            "website": "https://www.ahat.si/"
          },
          "geometry": {
            "type": "Point",
            "coordinates": [
              15.6475957,
              46.560285
            ]
          }
        },
        {
          "type": "Feature",
          "properties": {
            "id": "5299972820",
            "osm_type": "node",
            "lat": 46.5588373,
            "lon": 15.6479819,
            "addr:city": "Maribor",
            "addr:housenumber": "20",
            "addr:street": "Vetrinjska ulica",
            "name": "Ahat - kristali in poldragi kamni",
            "opening_hours": "Mo-Fr 10:00-18:00",
            "phone": "+386 2 252 5535",
            "shop": "jewelry",
            "website": "https://www.ahat.si/"
          },
          "geometry": {
            "type": "Point",
            "coordinates": [
              15.6479819,
              46.5588373
            ]
          }
        },
        {
          "type": "Feature",
          "properties": {
            "id": "5305463588",
            "osm_type": "node",
            "lat": 46.5395285,
            "lon": 15.6407574,
            "email": "six.MercatorCenter.mb@sportina.si",
            "name": "six",
            "shop": "jewelry"
          },
          "geometry": {
            "type": "Point",
            "coordinates": [
              15.6407574,
              46.5395285
            ]
          }
        },
        {
          "type": "Feature",
          "properties": {
            "id": "5309314220",
            "osm_type": "node",
            "lat": 46.5587763,
            "lon": 15.6433815,
            "addr:city": "Maribor",
            "addr:housenumber": "14",
            "addr:postcode": "2000",
            "addr:street": "Slomškov Trg",
            "email": "sm@zlatarnica14k.si",
            "name": "Zlatarnica 14K",
            "opening_hours": "Mo-Fr 9:00-16:00",
            "phone": "+386 2 252 3636",
            "shop": "jewelry",
            "website": "http://www.zlatarnica14k.si/"
          },
          "geometry": {
            "type": "Point",
            "coordinates": [
              15.6433815,
              46.5587763
            ]
          }
        },
        {
          "type": "Feature",
          "properties": {
            "id": "5699202676",
            "osm_type": "node",
            "lat": 46.5598996,
            "lon": 15.6465684,
            "addr:city": "Maribor",
            "addr:housenumber": "27",
            "addr:postcode": "2000",
            "addr:street": "Gosposka ulica",
            "check_date": "2025-08-13",
            "email": "info@spletna-zlatarna.si",
            "name": "Zlatarne Holc",
            "opening_hours": "Mo-Fr 9:00-18:00; Sa 9:00-13:00",
            "phone": "+386 2 251 5123",
            "shop": "jewelry",
            "website": "https://www.spletna-zlatarna.si/"
          },
          "geometry": {
            "type": "Point",
            "coordinates": [
              15.6465684,
              46.5598996
            ]
          }
        },
        {
          "type": "Feature",
          "properties": {
            "id": "10862120156",
            "osm_type": "node",
            "lat": 46.4162668,
            "lon": 15.8840873,
            "addr:city": "Ptuj",
            "addr:housenumber": "30",
            "addr:postcode": "2250",
            "addr:street": "Ormoška cesta",
            "name": "Zlatarna Celje, Ptuj Supermesto",
            "opening_hours": "Mo-Fr 08:00-19:00; Su 09:00-21:00",
            "operator": "Zlatarna Celje",
            "shop": "jewelry",
            "website": "https://zlatarnacelje.com/si/"
          },
          "geometry": {
            "type": "Point",
            "coordinates": [
              15.8840873,
              46.4162668
            ]
          }
        },
        {
          "type": "Feature",
          "properties": {
            "id": "10921826583",
            "osm_type": "node",
            "lat": 46.4210239,
            "lon": 15.873994,
            "addr:city": "Ptuj",
            "addr:housenumber": "5",
            "addr:postcode": "2250",
            "addr:street": "Trstenjakova ulica",
            "name": "ZLATARNA DIVJAK",
            "operator": "ZLATARNA DIVJAK DARKO DIVJAK s.p.",
            "shop": "jewelry"
          },
          "geometry": {
            "type": "Point",
            "coordinates": [
              15.873994,
              46.4210239
            ]
          }
        },
        {
          "type": "Feature",
          "properties": {
            "id": "11711007375",
            "osm_type": "node",
            "lat": 46.4185243,
            "lon": 15.8790231,
            "addr:city": "Ptuj",
            "addr:housenumber": "15",
            "addr:postcode": "2250",
            "addr:street": "Ormoška cesta",
            "email": "pt.supernova@zlatarnacelje.si",
            "name": "Zlatarna Celje - PE Supernova Ptuj",
            "opening_hours": "Mo-Sa 08:00-20:00",
            "operator": "Zlatarna Celje d.o.o.",
            "phone": "+386 2 74 93 390",
            "shop": "jewelry",
            "website": "https://zlatarnacelje.com/"
          },
          "geometry": {
            "type": "Point",
            "coordinates": [
              15.8790231,
              46.4185243
            ]
          }
        },
        {
          "type": "Feature",
          "properties": {
            "id": "11711026334",
            "osm_type": "node",
            "lat": 46.4184214,
            "lon": 15.8789202,
            "addr:city": "Ptuj",
            "addr:housenumber": "15",
            "addr:postcode": "2250",
            "addr:street": "Ormoška cesta",
            "email": "info@zlatarstvotofant.com",
            "name": "Zlatarstvo Tofant - PE Supernova Ptuj",
            "opening_hours": "Mo-Sa 08:00-20:00",
            "operator": "Graver-zlatar,Bojan Tofant, s.p.",
            "phone": "+386 59 08 12 00",
            "shop": "jewelry",
            "website": "https://www.zlatarstvotofant.com/"
          },
          "geometry": {
            "type": "Point",
            "coordinates": [
              15.8789202,
              46.4184214
            ]
          }
        },
        {
          "type": "Feature",
          "properties": {
            "id": "6745907930",
            "osm_type": "node",
            "lat": 46.6605663,
            "lon": 16.1643408,
            "check_date": "2025-01-26",
            "craft": "goldsmith",
            "name": "Zlatarna Mari",
            "opening_hours": "Tu-Fr 09:00-15:00; Sa 09:00-12:00",
            "shop": "jewelry"
          },
          "geometry": {
            "type": "Point",
            "coordinates": [
              16.1643408,
              46.6605663
            ]
          }
        }
      ],
      "children": []
    },
    {
      "bbox": {
        "south": 46.372652,
        "west": 16.2068765,
        "north": 46.70320525,
        "east": 17.16058
      },
      "poiCount": 19,
      "leafCount": 19,
      "averagePosition": [
        16.667082289473683,
        46.44839162631579
      ],
      "data": [
        {
          "type": "Feature",
          "properties": {
            "id": "3887520587",
            "osm_type": "node",
            "lat": 46.3901779,
            "lon": 16.4363982,
            "addr:city": "Čakovec",
            "addr:housenumber": "3",
            "addr:postcode": "40000",
            "addr:street": "Ulica kralja Tomislava",
            "name": "ZAKS",
            "opening_hours": "Mo-Fr 08:00-20:00; Sa 08:00-13:00",
            "shop": "jewelry",
            "website": "https://zaks.hr/"
          },
          "geometry": {
            "type": "Point",
            "coordinates": [
              16.4363982,
              46.3901779
            ]
          }
        },
        {
          "type": "Feature",
          "properties": {
            "id": "4684658897",
            "osm_type": "node",
            "lat": 46.6084298,
            "lon": 16.235206,
            "addr:city": "Beltinci",
            "addr:postcode": "9231",
            "addr:street": "Ulica Štefana Kovača",
            "fixme": "This node was inside building but didn't match any of its addresses.",
            "name": "Zlatarstvo",
            "operator": "Viktor Tkales s.p.",
            "shop": "jewelry"
          },
          "geometry": {
            "type": "Point",
            "coordinates": [
              16.235206,
              46.6084298
            ]
          }
        },
        {
          "type": "Feature",
          "properties": {
            "id": "4879880902",
            "osm_type": "node",
            "lat": 46.3958373,
            "lon": 16.4275271,
            "addr:city": "Čakovec",
            "addr:country": "HR",
            "addr:housenumber": "25",
            "addr:postcode": "40000",
            "addr:street": "Svetojelenska cesta",
            "name": "Dominik",
            "opening_hours": "Mo-Sa 08:00-21:00; Su 08:00-14:00",
            "operator": "DOMINIK zlatarnice i srebrnarnice",
            "payment:american_express": "yes",
            "payment:cash": "yes",
            "payment:diners_club": "yes",
            "payment:maestro": "yes",
            "payment:mastercard": "yes",
            "payment:visa": "yes",
            "payment:visa_debit": "yes",
            "payment:visa_electron": "yes",
            "phone": "+385 91 331 15 99",
            "shop": "jewelry",
            "website": "https://www.dominik.hr/",
            "wheelchair": "yes"
          },
          "geometry": {
            "type": "Point",
            "coordinates": [
              16.4275271,
              46.3958373
            ]
          }
        },
        {
          "type": "Feature",
          "properties": {
            "id": "5048682838",
            "osm_type": "node",
            "lat": 46.513104,
            "lon": 16.4391249,
            "name": "Zlatar",
            "shop": "jewelry"
          },
          "geometry": {
            "type": "Point",
            "coordinates": [
              16.4391249,
              46.513104
            ]
          }
        },
        {
          "type": "Feature",
          "properties": {
            "id": "6470797650",
            "osm_type": "node",
            "lat": 46.390038,
            "lon": 16.4364093,
            "addr:city": "Čakovec",
            "addr:housenumber": "4",
            "addr:postcode": "40000",
            "addr:street": "Ulica kralja Tomislava",
            "name": "Solid Gold",
            "opening_hours": "Mo-Sa 08:00-19:30",
            "shop": "jewelry"
          },
          "geometry": {
            "type": "Point",
            "coordinates": [
              16.4364093,
              46.390038
            ]
          }
        },
        {
          "type": "Feature",
          "properties": {
            "id": "6485789536",
            "osm_type": "node",
            "lat": 46.389399,
            "lon": 16.438359,
            "addr:city": "Čakovec",
            "addr:housenumber": "4",
            "addr:postcode": "40000",
            "addr:street": "Ulica Josipa Jurja Strossmayera",
            "name": "Dominik",
            "opening_hours": "Mo-Fr 08:30-19:00; Sa 08:00-13:00",
            "operator": "DIAS d.o.o.",
            "shop": "jewelry",
            "website": "https://www.dominik.hr/"
          },
          "geometry": {
            "type": "Point",
            "coordinates": [
              16.438359,
              46.389399
            ]
          }
        },
        {
          "type": "Feature",
          "properties": {
            "id": "6486416395",
            "osm_type": "node",
            "lat": 46.3890293,
            "lon": 16.4384637,
            "addr:city": "Čakovec",
            "addr:housenumber": "6",
            "addr:postcode": "40000",
            "addr:street": "Ulica Josipa Jurja Strossmayera",
            "name": "Zlatar Robert",
            "shop": "jewelry"
          },
          "geometry": {
            "type": "Point",
            "coordinates": [
              16.4384637,
              46.3890293
            ]
          }
        },
        {
          "type": "Feature",
          "properties": {
            "id": "6486416397",
            "osm_type": "node",
            "lat": 46.3893392,
            "lon": 16.4383779,
            "addr:city": "Čakovec",
            "addr:housenumber": "4",
            "addr:postcode": "40000",
            "addr:street": "Ulica Josipa Jurja Strossmayera",
            "name": "Zlatarna A&L",
            "shop": "jewelry",
            "website": "http://www.zlatarna-al.hr/"
          },
          "geometry": {
            "type": "Point",
            "coordinates": [
              16.4383779,
              46.3893392
            ]
          }
        },
        {
          "type": "Feature",
          "properties": {
            "id": "6495223139",
            "osm_type": "node",
            "lat": 46.3902535,
            "lon": 16.4370373,
            "addr:city": "Čakovec",
            "addr:housenumber": "7",
            "addr:postcode": "40000",
            "addr:street": "Ulica kralja Tomislava",
            "name": "Zlatarna Toni",
            "shop": "jewelry"
          },
          "geometry": {
            "type": "Point",
            "coordinates": [
              16.4370373,
              46.3902535
            ]
          }
        },
        {
          "type": "Feature",
          "properties": {
            "id": "6495223141",
            "osm_type": "node",
            "lat": 46.3903016,
            "lon": 16.4371982,
            "addr:city": "Čakovec",
            "addr:housenumber": "7",
            "addr:postcode": "40000",
            "addr:street": "Ulica kralja Tomislava",
            "name": "Benjamin",
            "shop": "jewelry"
          },
          "geometry": {
            "type": "Point",
            "coordinates": [
              16.4371982,
              46.3903016
            ]
          }
        },
        {
          "type": "Feature",
          "properties": {
            "id": "2279290636",
            "osm_type": "node",
            "lat": 46.4553209,
            "lon": 16.9945668,
            "name": "Petró Ékszer és Galéria",
            "opening_hours": "Mo-Fr 10:00-17:00; Sa 09:00-12:00",
            "shop": "jewelry"
          },
          "geometry": {
            "type": "Point",
            "coordinates": [
              16.9945668,
              46.4553209
            ]
          }
        },
        {
          "type": "Feature",
          "properties": {
            "id": "2366239585",
            "osm_type": "node",
            "lat": 46.4556446,
            "lon": 16.9892634,
            "name": "Corner ékszer- és zálogház",
            "shop": "jewelry"
          },
          "geometry": {
            "type": "Point",
            "coordinates": [
              16.9892634,
              46.4556446
            ]
          }
        },
        {
          "type": "Feature",
          "properties": {
            "id": "2366239653",
            "osm_type": "node",
            "lat": 46.4551429,
            "lon": 16.9927388,
            "name": "Karát ékszerüzlet",
            "shop": "jewelry"
          },
          "geometry": {
            "type": "Point",
            "coordinates": [
              16.9927388,
              46.4551429
            ]
          }
        },
        {
          "type": "Feature",
          "properties": {
            "id": "2366239951",
            "osm_type": "node",
            "lat": 46.4553401,
            "lon": 16.9877405,
            "opening_hours": "Mo-Fr 09:00-17:00; Sa 09:00-12:00",
            "shop": "jewelry"
          },
          "geometry": {
            "type": "Point",
            "coordinates": [
              16.9877405,
              46.4553401
            ]
          }
        },
        {
          "type": "Feature",
          "properties": {
            "id": "2468836267",
            "osm_type": "node",
            "lat": 46.4534839,
            "lon": 16.9979645,
            "shop": "jewelry"
          },
          "geometry": {
            "type": "Point",
            "coordinates": [
              16.9979645,
              46.4534839
            ]
          }
        },
        {
          "type": "Feature",
          "properties": {
            "id": "2504386863",
            "osm_type": "node",
            "lat": 46.4643621,
            "lon": 17.0132759,
            "name": "Alaszka ékszer",
            "shop": "jewelry",
            "wheelchair": "yes"
          },
          "geometry": {
            "type": "Point",
            "coordinates": [
              17.0132759,
              46.4643621
            ]
          }
        },
        {
          "type": "Feature",
          "properties": {
            "id": "2539898118",
            "osm_type": "node",
            "lat": 46.4533898,
            "lon": 17.0125417,
            "shop": "jewelry"
          },
          "geometry": {
            "type": "Point",
            "coordinates": [
              17.0125417,
              46.4533898
            ]
          }
        },
        {
          "type": "Feature",
          "properties": {
            "id": "2663163334",
            "osm_type": "node",
            "lat": 46.4577683,
            "lon": 16.98327,
            "name": "Parfüm-Swarovski ékszer",
            "shop": "jewelry"
          },
          "geometry": {
            "type": "Point",
            "coordinates": [
              16.98327,
              46.4577683
            ]
          }
        },
        {
          "type": "Feature",
          "properties": {
            "id": "12100186365",
            "osm_type": "node",
            "lat": 46.6230787,
            "lon": 16.5391003,
            "name": "Aranyműves",
            "shop": "jewelry"
          },
          "geometry": {
            "type": "Point",
            "coordinates": [
              16.5391003,
              46.6230787
            ]
          }
        }
      ],
      "children": []
    },
    {
      "bbox": {
        "south": 46.70320525,
        "west": 15.253173,
        "north": 47.033758500000005,
        "east": 16.2068765
      },
      "poiCount": 19,
      "leafCount": 19,
      "averagePosition": [
        15.617434447368419,
        46.872321810526316
      ],
      "data": [
        {
          "type": "Feature",
          "properties": {
            "id": "1720252448",
            "osm_type": "node",
            "lat": 46.7573372,
            "lon": 15.3738324,
            "addr:city": "Gleinstätten",
            "addr:country": "AT",
            "addr:housenumber": "193",
            "addr:place": "Pistorf",
            "addr:postcode": "8443",
            "designation": "EKZ Pistorf",
            "name": "Uhren Laber",
            "shop": "jewelry"
          },
          "geometry": {
            "type": "Point",
            "coordinates": [
              15.3738324,
              46.7573372
            ]
          }
        },
        {
          "type": "Feature",
          "properties": {
            "id": "7375540305",
            "osm_type": "node",
            "lat": 46.71777,
            "lon": 15.2688728,
            "addr:city": "Wies",
            "addr:country": "AT",
            "addr:housenumber": "15",
            "addr:postcode": "8551",
            "addr:street": "Oberer Markt",
            "name": "Grubmüller Thomas - Uhren und Schmuck",
            "shop": "jewelry"
          },
          "geometry": {
            "type": "Point",
            "coordinates": [
              15.2688728,
              46.71777
            ]
          }
        },
        {
          "type": "Feature",
          "properties": {
            "id": "1643189103",
            "osm_type": "node",
            "lat": 46.7813599,
            "lon": 15.5378794,
            "name": "Goldschmied Pennitz",
            "shop": "jewelry",
            "wheelchair": "limited"
          },
          "geometry": {
            "type": "Point",
            "coordinates": [
              15.5378794,
              46.7813599
            ]
          }
        },
        {
          "type": "Feature",
          "properties": {
            "id": "1643402186",
            "osm_type": "node",
            "lat": 46.7814913,
            "lon": 15.5390516,
            "addr:city": "Leibnitz",
            "addr:country": "AT",
            "addr:housenumber": "19",
            "addr:postcode": "8430",
            "addr:street": "Hauptplatz",
            "name": "Uhren Schmuck Ulli",
            "note": "„Leibnitz lädt ein“-Gutschein",
            "opening_hours": "Mo-Fr 08:30-12:30,15:00-18:00,Sa 8:30-12:30",
            "shop": "jewelry"
          },
          "geometry": {
            "type": "Point",
            "coordinates": [
              15.5390516,
              46.7814913
            ]
          }
        },
        {
          "type": "Feature",
          "properties": {
            "id": "1643455903",
            "osm_type": "node",
            "lat": 46.7826395,
            "lon": 15.5388059,
            "name": "Uhren Schmuck Dringo",
            "shop": "jewelry"
          },
          "geometry": {
            "type": "Point",
            "coordinates": [
              15.5388059,
              46.7826395
            ]
          }
        },
        {
          "type": "Feature",
          "properties": {
            "id": "4341815310",
            "osm_type": "node",
            "lat": 46.7947188,
            "lon": 15.5563679,
            "addr:housenumber": "30d",
            "addr:postcode": "8430",
            "addr:street": "Wasserwerkstraße",
            "brand": "Bijou Brigitte",
            "brand:wikidata": "Q599545",
            "brand:wikipedia": "de:Bijou Brigitte",
            "level": "1",
            "name": "Bijou Brigitte",
            "opening_hours": "Mo-Fr 09:00-18:00; Sa 09:00-17:00; Su,PH off",
            "shop": "jewelry"
          },
          "geometry": {
            "type": "Point",
            "coordinates": [
              15.5563679,
              46.7947188
            ]
          }
        },
        {
          "type": "Feature",
          "properties": {
            "id": "4441164488",
            "osm_type": "node",
            "lat": 46.707861,
            "lon": 15.7756777,
            "shop": "jewelry"
          },
          "geometry": {
            "type": "Point",
            "coordinates": [
              15.7756777,
              46.707861
            ]
          }
        },
        {
          "type": "Feature",
          "properties": {
            "id": "4975680606",
            "osm_type": "node",
            "lat": 46.794843,
            "lon": 15.5564303,
            "addr:city": "Leibnitz",
            "addr:housenumber": "30d",
            "addr:postcode": "8430",
            "addr:street": "Wasserwerkstraße",
            "level": "1",
            "name": "Dringo",
            "opening_hours": "Mo-Fr 09:00-18:00; Sa 09:00-17:00; Su,PH off",
            "operator": "Juwelier Harald Dringo",
            "shop": "jewelry",
            "website": "https://www.juwelier-dringo.at/"
          },
          "geometry": {
            "type": "Point",
            "coordinates": [
              15.5564303,
              46.794843
            ]
          }
        },
        {
          "type": "Feature",
          "properties": {
            "id": "5716314569",
            "osm_type": "node",
            "lat": 46.7878883,
            "lon": 15.5388197,
            "addr:city": "Leibnitz",
            "addr:country": "AT",
            "addr:housenumber": "60",
            "addr:postcode": "8430",
            "addr:street": "Grazergasse",
            "craft": "jeweller",
            "name": "time & style",
            "opening_hours": "Mo 08:00-16:00; Tu-Th 07:00-15:00; Fr 08:00-12:00; Sa,Su,PH off",
            "operator": "time & style goldschmiede gmbh",
            "shop": "jewelry",
            "website": "https://timestyle.at/"
          },
          "geometry": {
            "type": "Point",
            "coordinates": [
              15.5388197,
              46.7878883
            ]
          }
        },
        {
          "type": "Feature",
          "properties": {
            "id": "7256336326",
            "osm_type": "node",
            "lat": 46.9748172,
            "lon": 15.3340548,
            "addr:city": "Lieboch",
            "addr:country": "AT",
            "addr:housenumber": "122",
            "addr:postcode": "8501",
            "addr:street": "Packer Straße",
            "contact:phone": "+43 3136 62 186",
            "contact:website": "www.juwelier-ableitner.at",
            "name": "Ableitner",
            "opening_hours": "Mo-Fr 08:00-12:00,15:00-18:00; Sa 08:00-12:00; Su,PH off",
            "phone": "+43 3136 62186",
            "shop": "jewelry",
            "website": "https://www.juwelier-ableitner.at/"
          },
          "geometry": {
            "type": "Point",
            "coordinates": [
              15.3340548,
              46.9748172
            ]
          }
        },
        {
          "type": "Feature",
          "properties": {
            "id": "9750235354",
            "osm_type": "node",
            "lat": 47.012208,
            "lon": 15.4128577,
            "brand": "Bijou Brigitte",
            "brand:wikidata": "Q599545",
            "level": "0",
            "name": "Bijou Brigitte",
            "shop": "jewelry"
          },
          "geometry": {
            "type": "Point",
            "coordinates": [
              15.4128577,
              47.012208
            ]
          }
        },
        {
          "type": "Feature",
          "properties": {
            "id": "9750235419",
            "osm_type": "node",
            "lat": 47.0121335,
            "lon": 15.4118915,
            "brand": "Swarovski",
            "brand:wikidata": "Q611115",
            "level": "1",
            "name": "Swarovski",
            "shop": "jewelry",
            "wheelchair": "yes"
          },
          "geometry": {
            "type": "Point",
            "coordinates": [
              15.4118915,
              47.0121335
            ]
          }
        },
        {
          "type": "Feature",
          "properties": {
            "id": "317374103",
            "osm_type": "node",
            "lat": 46.9490556,
            "lon": 15.9145725,
            "addr:city": "Feldbach",
            "addr:housenumber": "1a",
            "addr:postcode": "8330",
            "addr:street": "Gewerbepark",
            "name": "Koller & Koller",
            "shop": "jewelry"
          },
          "geometry": {
            "type": "Point",
            "coordinates": [
              15.9145725,
              46.9490556
            ]
          }
        },
        {
          "type": "Feature",
          "properties": {
            "id": "1259903820",
            "osm_type": "node",
            "lat": 46.9312969,
            "lon": 15.6620008,
            "addr:housenumber": "115",
            "addr:place": "Kirchbach in Steiermark",
            "addr:postcode": "8082",
            "name": "Doppan",
            "shop": "jewelry"
          },
          "geometry": {
            "type": "Point",
            "coordinates": [
              15.6620008,
              46.9312969
            ]
          }
        },
        {
          "type": "Feature",
          "properties": {
            "id": "3696386051",
            "osm_type": "node",
            "lat": 46.9916063,
            "lon": 15.8662915,
            "addr:city": "Feldbach",
            "addr:housenumber": "130",
            "addr:place": "Wetzelsdorf",
            "addr:postcode": "8330",
            "name": "Goldschmiede Reindl",
            "phone": "+43 660 7684622",
            "shop": "jewelry",
            "website": "http://www.reindl-exclusiv.at"
          },
          "geometry": {
            "type": "Point",
            "coordinates": [
              15.8662915,
              46.9916063
            ]
          }
        },
        {
          "type": "Feature",
          "properties": {
            "id": "3940471082",
            "osm_type": "node",
            "lat": 46.9525969,
            "lon": 15.8886125,
            "addr:city": "Feldbach",
            "addr:housenumber": "14",
            "addr:postcode": "8330",
            "addr:street": "Hauptplatz",
            "name": "Koller & Koller",
            "operator": "Juwelier Koller GmbH",
            "phone": "+43 3152 6340",
            "shop": "jewelry"
          },
          "geometry": {
            "type": "Point",
            "coordinates": [
              15.8886125,
              46.9525969
            ]
          }
        },
        {
          "type": "Feature",
          "properties": {
            "id": "4706195684",
            "osm_type": "node",
            "lat": 46.9523676,
            "lon": 15.8898623,
            "addr:city": "Feldbach",
            "addr:housenumber": "7",
            "addr:postcode": "8330",
            "addr:street": "Bürgergasse",
            "name": "Juwelier Eder",
            "phone": "+43 3152 4511",
            "shop": "jewelry"
          },
          "geometry": {
            "type": "Point",
            "coordinates": [
              15.8898623,
              46.9523676
            ]
          }
        },
        {
          "type": "Feature",
          "properties": {
            "id": "4706195685",
            "osm_type": "node",
            "lat": 46.9529222,
            "lon": 15.8879,
            "addr:city": "Feldbach",
            "addr:housenumber": "20",
            "addr:postcode": "8330",
            "addr:street": "Hauptplatz",
            "name": "Goldschmiede Feldgitscher",
            "phone": "+43 3152 2324",
            "shop": "jewelry"
          },
          "geometry": {
            "type": "Point",
            "coordinates": [
              15.8879,
              46.9529222
            ]
          }
        },
        {
          "type": "Feature",
          "properties": {
            "id": "4816413917",
            "osm_type": "node",
            "lat": 46.9392012,
            "lon": 15.7774732,
            "addr:city": "Paldau",
            "addr:housenumber": "62",
            "addr:place": "Puch",
            "addr:postcode": "8341",
            "name": "Das Goldschmiede Atelier",
            "opening_hours": "\"Nach Vereinbarung\"",
            "operator": "Barbara Hofmeister",
            "phone": "+43 667 62 110 662",
            "shop": "jewelry"
          },
          "geometry": {
            "type": "Point",
            "coordinates": [
              15.7774732,
              46.9392012
            ]
          }
        }
      ],
      "children": []
    },
    {
      "bbox": {
        "south": 46.70320525,
        "west": 16.2068765,
        "north": 47.033758500000005,
        "east": 17.16058
      },
      "poiCount": 1,
      "leafCount": 1,
      "averagePosition": [
        16.8463911,
        46.8446607
      ],
      "data": [
        {
          "type": "Feature",
          "properties": {
            "id": "9175189025",
            "osm_type": "node",
            "lat": 46.8446607,
            "lon": 16.8463911,
            "name": "Óra - Ékszer",
            "opening_hours": "Mo-Fr 09:00-17:00; Sa 08:30-12:00",
            "shop": "jewelry"
          },
          "geometry": {
            "type": "Point",
            "coordinates": [
              16.8463911,
              46.8446607
            ]
          }
        }
      ],
      "children": []
    }
  ]
}