{
  "bbox": {
    "south": 47.694865,
    "west": 9.530952,
    "north": 48.355971499999995,
    "east": 11.438358999999998
  },
  "poiCount": 154,
  "leafCount": 0,
  "averagePosition": [
    10.643998524675325,
    48.02663071558442
  ],
  "data": [],
  "children": [
    {
      "bbox": {
        "south": 47.694865,
        "west": 9.530952,
        "north": 48.02541825,
        "east": 10.484655499999999
      },
      "poiCount": 36,
      "leafCount": 36,
      "averagePosition": [
        9.959599588888889,
        47.80373024722222
      ],
      "data": [
        {
          "type": "Feature",
          "properties": {
            "id": "2720743134",
            "osm_type": "node",
            "lat": 47.7824362,
            "lon": 9.614129,
            "addr:city": "Ravensburg",
            "addr:housenumber": "8",
            "addr:postcode": "88212",
            "addr:street": "Kirchstraße",
            "contact:facebook": "https://facebook.com/juwelierbuchmueller",
            "contact:instagram": "https://instagram.com/juwelier_buchmueller",
            "contact:phone": "+49 751 23939",
            "contact:website": "https://juwelier-buchmueller.de",
            "name": "Buchmüller",
            "opening_hours": "Mo-Fr 10:00-18:00; Sa 09:00-15:00",
            "shop": "jewelry"
          },
          "geometry": {
            "type": "Point",
            "coordinates": [
              9.614129,
              47.7824362
            ]
          }
        },
        {
          "type": "Feature",
          "properties": {
            "id": "5077618975",
            "osm_type": "node",
            "lat": 47.807563,
            "lon": 9.6418203,
            "addr:city": "Weingarten",
            "addr:housenumber": "2",
            "addr:postcode": "88250",
            "addr:street": "Wilhelmstraße",
            "check_date:opening_hours": "2024-03-02",
            "name": "Juwelier Rambadt",
            "opening_hours": "Mo-Fr 09:00-18:00, Sa 09:00-14:00",
            "phone": "+49 751 41419",
            "shop": "jewelry",
            "wheelchair": "yes"
          },
          "geometry": {
            "type": "Point",
            "coordinates": [
              9.6418203,
              47.807563
            ]
          }
        },
        {
          "type": "Feature",
          "properties": {
            "id": "5156135095",
            "osm_type": "node",
            "lat": 47.7810711,
            "lon": 9.6134535,
            "name": "Carl Schultes",
            "opening_hours": "Mo-We 09:00-12:30,13:30-18:00; Th,Fr 09:00-12:30,13:30-18:30; Sa 08:30-16:00",
            "phone": "+49 751 25483",
            "shop": "jewelry",
            "website": "https://www.carl-schultes.de/",
            "wheelchair": "yes"
          },
          "geometry": {
            "type": "Point",
            "coordinates": [
              9.6134535,
              47.7810711
            ]
          }
        },
        {
          "type": "Feature",
          "properties": {
            "id": "5180723770",
            "osm_type": "node",
            "lat": 47.7808257,
            "lon": 9.615417,
            "name": "Höflmeier Goldschmied",
            "shop": "jewelry"
          },
          "geometry": {
            "type": "Point",
            "coordinates": [
              9.615417,
              47.7808257
            ]
          }
        },
        {
          "type": "Feature",
          "properties": {
            "id": "5180750931",
            "osm_type": "node",
            "lat": 47.7825326,
            "lon": 9.6138953,
            "name": "Binder",
            "opening_hours": "Mo-Fr 09:30-13:00,14:00-18:00; Sa 09:30-13:00",
            "shop": "jewelry"
          },
          "geometry": {
            "type": "Point",
            "coordinates": [
              9.6138953,
              47.7825326
            ]
          }
        },
        {
          "type": "Feature",
          "properties": {
            "id": "5180815822",
            "osm_type": "node",
            "lat": 47.7817891,
            "lon": 9.6154833,
            "shop": "jewelry"
          },
          "geometry": {
            "type": "Point",
            "coordinates": [
              9.6154833,
              47.7817891
            ]
          }
        },
        {
          "type": "Feature",
          "properties": {
            "id": "5252517422",
            "osm_type": "node",
            "lat": 47.7818157,
            "lon": 9.6102324,
            "addr:city": "Ravensburg",
            "addr:housenumber": "5",
            "addr:postcode": "88212",
            "addr:street": "Untere Breite Straße",
            "contact:phone": "+49 751 3524444",
            "contact:website": "http://golden-haus.de",
            "name": "Juwelier Golden Haus",
            "opening_hours": "Mo-We,Fr 10:00-18:00; Th 10:00-19:00; Sa 09:30-17:00; PH off",
            "shop": "jewelry",
            "wheelchair": "yes"
          },
          "geometry": {
            "type": "Point",
            "coordinates": [
              9.6102324,
              47.7818157
            ]
          }
        },
        {
          "type": "Feature",
          "properties": {
            "id": "5252517423",
            "osm_type": "node",
            "lat": 47.782746,
            "lon": 9.6103485,
            "addr:city": "Ravensburg",
            "addr:country": "DE",
            "addr:housenumber": "27",
            "addr:postcode": "88212",
            "addr:street": "Untere Breite Straße",
            "contact:email": "info@juwelier-schoelzel.de",
            "contact:fax": "+49 751 18440",
            "contact:phone": "+49 751 24401",
            "contact:website": "http://juwelier-schoelzel.de",
            "name": "Juwelier Schölzel",
            "opening_hours": "Mo-Fr 09:30-12:30,14:00-18:00; Sa 09:30-14:00; PH off",
            "shop": "jewelry"
          },
          "geometry": {
            "type": "Point",
            "coordinates": [
              9.6103485,
              47.782746
            ]
          }
        },
        {
          "type": "Feature",
          "properties": {
            "id": "5830762828",
            "osm_type": "node",
            "lat": 47.7816571,
            "lon": 9.6109061,
            "name": "Bartels Trauringe",
            "shop": "jewelry",
            "wheelchair": "yes"
          },
          "geometry": {
            "type": "Point",
            "coordinates": [
              9.6109061,
              47.7816571
            ]
          }
        },
        {
          "type": "Feature",
          "properties": {
            "id": "5830762829",
            "osm_type": "node",
            "lat": 47.7814322,
            "lon": 9.6106526,
            "addr:city": "Ravensburg",
            "addr:housenumber": "44",
            "addr:postcode": "88214",
            "addr:street": "Bachstraße",
            "contact:email": "info@juwelier-bartels.de",
            "contact:facebook": "https://facebook.com/Juwelier-Bartels-621710701504424",
            "contact:fax": "+49 751 14664",
            "contact:phone": "+49 751 22995",
            "contact:website": "https://juwelier-bartels.de",
            "name": "Bartels",
            "opening_hours": "Mo-Fr 10:00-18:00; Th 10:00-19:00; Sa 09:30-17:00",
            "payment:credit_cards": "yes",
            "payment:debit_cards": "yes",
            "shop": "jewelry",
            "wheelchair": "yes"
          },
          "geometry": {
            "type": "Point",
            "coordinates": [
              9.6106526,
              47.7814322
            ]
          }
        },
        {
          "type": "Feature",
          "properties": {
            "id": "5830762830",
            "osm_type": "node",
            "lat": 47.7809609,
            "lon": 9.6134448,
            "name": "Bareis",
            "opening_hours": "Mo-Fr 09:00-12:30, Mo,Tu,Th,Fr 14:30-18:00, Sa 09:00-13:00",
            "shop": "jewelry",
            "wheelchair": "yes"
          },
          "geometry": {
            "type": "Point",
            "coordinates": [
              9.6134448,
              47.7809609
            ]
          }
        },
        {
          "type": "Feature",
          "properties": {
            "id": "5837033090",
            "osm_type": "node",
            "lat": 47.7813824,
            "lon": 9.6108586,
            "brand": "Bijou Brigitte",
            "brand:wikidata": "Q599545",
            "brand:wikipedia": "de:Bijou Brigitte",
            "check_date:opening_hours": "2025-07-12",
            "contact:website": "https://www.bijou-brigitte.com",
            "name": "Bijou Brigitte",
            "opening_hours": "Mo-Fr 09:30-19:00; Sa 09:30-18:00",
            "shop": "jewelry",
            "wheelchair": "yes"
          },
          "geometry": {
            "type": "Point",
            "coordinates": [
              9.6108586,
              47.7813824
            ]
          }
        },
        {
          "type": "Feature",
          "properties": {
            "id": "6637635836",
            "osm_type": "node",
            "lat": 47.783002,
            "lon": 9.6121463,
            "addr:city": "Ravensburg",
            "addr:housenumber": "10",
            "addr:postcode": "88212",
            "addr:street": "Eisenbahnstraße",
            "contact:phone": "+49 751 23047",
            "entrance": "yes",
            "name": "Juwelier Kesenheimer",
            "shop": "jewelry"
          },
          "geometry": {
            "type": "Point",
            "coordinates": [
              9.6121463,
              47.783002
            ]
          }
        },
        {
          "type": "Feature",
          "properties": {
            "id": "7109320134",
            "osm_type": "node",
            "lat": 47.8076316,
            "lon": 9.6408483,
            "addr:city": "Weingarten",
            "addr:housenumber": "10",
            "addr:postcode": "88250",
            "addr:street": "Karlstraße",
            "contact:email": "info@Ruth-Design.de",
            "contact:fax": "+49 751 7645166",
            "contact:phone": "+49 751 7645165",
            "contact:website": "http://ruth-design.de",
            "name": "Ruth-Design",
            "opening_hours": "Tu,Th,Fr 09:30-13:00,14:30-18:00; We,Sa 09:30-13:00; PH,Mo off",
            "shop": "jewelry",
            "wheelchair": "no"
          },
          "geometry": {
            "type": "Point",
            "coordinates": [
              9.6408483,
              47.8076316
            ]
          }
        },
        {
          "type": "Feature",
          "properties": {
            "id": "11476903890",
            "osm_type": "node",
            "lat": 47.7815941,
            "lon": 9.6158167,
            "name": "Schatztruhe",
            "shop": "jewelry",
            "wheelchair": "no"
          },
          "geometry": {
            "type": "Point",
            "coordinates": [
              9.6158167,
              47.7815941
            ]
          }
        },
        {
          "type": "Feature",
          "properties": {
            "id": "671492059",
            "osm_type": "node",
            "lat": 47.7249716,
            "lon": 10.3209424,
            "addr:city": "Kempten (Allgäu)",
            "addr:country": "DE",
            "addr:housenumber": "22",
            "addr:postcode": "87435",
            "addr:street": "Bäckerstraße",
            "craft": "jeweller",
            "name": "Goldschmiede Appel & Wichelhaus",
            "shop": "jewelry",
            "website": "http://www.appelundwichelhaus.de"
          },
          "geometry": {
            "type": "Point",
            "coordinates": [
              10.3209424,
              47.7249716
            ]
          }
        },
        {
          "type": "Feature",
          "properties": {
            "id": "677589138",
            "osm_type": "node",
            "lat": 47.7244817,
            "lon": 10.3156292,
            "addr:city": "Kempten (Allgäu)",
            "addr:postcode": "87435",
            "check_date:opening_hours": "2025-03-14",
            "contact:website": "http://www.uhren-schmuck-optiker-trauringe-kempten.de/",
            "name": "Albert Ade",
            "opening_hours": "Mo-Fr 09:30-18:00; Sa 09:30-16:00",
            "shop": "jewelry",
            "wheelchair": "yes"
          },
          "geometry": {
            "type": "Point",
            "coordinates": [
              10.3156292,
              47.7244817
            ]
          }
        },
        {
          "type": "Feature",
          "properties": {
            "id": "864735043",
            "osm_type": "node",
            "lat": 47.7277601,
            "lon": 10.3100656,
            "name": "Kinzel & Rall",
            "opening_hours": "Tu-Fr 09:00-12:30,14:30-18:00; Sa 09:00-13:00",
            "shop": "jewelry"
          },
          "geometry": {
            "type": "Point",
            "coordinates": [
              10.3100656,
              47.7277601
            ]
          }
        },
        {
          "type": "Feature",
          "properties": {
            "id": "976494318",
            "osm_type": "node",
            "lat": 47.7268185,
            "lon": 10.3144596,
            "name": "Goldhaus",
            "shop": "jewelry"
          },
          "geometry": {
            "type": "Point",
            "coordinates": [
              10.3144596,
              47.7268185
            ]
          }
        },
        {
          "type": "Feature",
          "properties": {
            "id": "977466513",
            "osm_type": "node",
            "lat": 47.7262271,
            "lon": 10.31505,
            "name": "Juwelier Müller",
            "shop": "jewelry",
            "website": "https://www.juwelier-mueller.de/",
            "wheelchair": "limited"
          },
          "geometry": {
            "type": "Point",
            "coordinates": [
              10.31505,
              47.7262271
            ]
          }
        },
        {
          "type": "Feature",
          "properties": {
            "id": "981314400",
            "osm_type": "node",
            "lat": 47.7277169,
            "lon": 10.3147772,
            "name": "Star-Juwelier",
            "shop": "jewelry"
          },
          "geometry": {
            "type": "Point",
            "coordinates": [
              10.3147772,
              47.7277169
            ]
          }
        },
        {
          "type": "Feature",
          "properties": {
            "id": "981314547",
            "osm_type": "node",
            "lat": 47.7261738,
            "lon": 10.3154731,
            "check_date:opening_hours": "2024-06-09",
            "name": "Allgäuer Steinreich",
            "opening_hours": "Mo-Fr 10:00-18:00; Sa 10:00-16:00",
            "shop": "jewelry",
            "wheelchair": "no"
          },
          "geometry": {
            "type": "Point",
            "coordinates": [
              10.3154731,
              47.7261738
            ]
          }
        },
        {
          "type": "Feature",
          "properties": {
            "id": "981314558",
            "osm_type": "node",
            "lat": 47.7275143,
            "lon": 10.3141729,
            "addr:city": "Kempten (Allgäu)",
            "addr:country": "DE",
            "addr:housenumber": "49",
            "addr:postcode": "87435",
            "addr:street": "Gerberstraße",
            "brand": "OROVIVO",
            "brand:wikidata": "Q107064745",
            "name": "OROVIVO",
            "opening_hours": "Mo-Fr 09:30-18:00; Sa 09:30-16:00",
            "shop": "jewelry",
            "wheelchair": "no"
          },
          "geometry": {
            "type": "Point",
            "coordinates": [
              10.3141729,
              47.7275143
            ]
          }
        },
        {
          "type": "Feature",
          "properties": {
            "id": "981314568",
            "osm_type": "node",
            "lat": 47.7269611,
            "lon": 10.3137758,
            "name": "Juwelier Sara",
            "shop": "jewelry"
          },
          "geometry": {
            "type": "Point",
            "coordinates": [
              10.3137758,
              47.7269611
            ]
          }
        },
        {
          "type": "Feature",
          "properties": {
            "id": "4996138128",
            "osm_type": "node",
            "lat": 47.7223131,
            "lon": 10.3155579,
            "addr:city": "Kempten (Allgäu)",
            "addr:country": "DE",
            "addr:housenumber": "14",
            "addr:postcode": "87435",
            "addr:street": "Bahnhofstraße",
            "name": "Glanz Punkt Uhren und Schmuck Hollfelder",
            "shop": "jewelry",
            "wheelchair": "yes"
          },
          "geometry": {
            "type": "Point",
            "coordinates": [
              10.3155579,
              47.7223131
            ]
          }
        },
        {
          "type": "Feature",
          "properties": {
            "id": "5010041731",
            "osm_type": "node",
            "lat": 47.8455646,
            "lon": 10.4193355,
            "contact:email": "info@aumann-juwelier.de",
            "contact:fax": "+49 8372 980344",
            "contact:phone": "+49 8372 7777",
            "contact:website": "https://www.juwelier-aumann.de/",
            "name": "Juwelier & Uhrmachermeister Aumann",
            "opening_hours": "Mo,Tu,Th,Fr 09:00-12:30,14:00-18:00; We,Sa 09:00-12:30; Su,PH off",
            "operator": "Uhrmachermeister Urban Aumann",
            "shop": "jewelry"
          },
          "geometry": {
            "type": "Point",
            "coordinates": [
              10.4193355,
              47.8455646
            ]
          }
        },
        {
          "type": "Feature",
          "properties": {
            "id": "13120951793",
            "osm_type": "node",
            "lat": 47.7204054,
            "lon": 10.314947,
            "brand": "Christ",
            "brand:wikidata": "Q1077957",
            "name": "Christ",
            "opening_hours": "Mo-Sa 09:30-19:00",
            "shop": "jewelry"
          },
          "geometry": {
            "type": "Point",
            "coordinates": [
              10.314947,
              47.7204054
            ]
          }
        },
        {
          "type": "Feature",
          "properties": {
            "id": "13121018338",
            "osm_type": "node",
            "lat": 47.7203678,
            "lon": 10.3154692,
            "brand": "Bijou Brigitte",
            "brand:wikidata": "Q599545",
            "name": "Bijou Brigitte",
            "shop": "jewelry"
          },
          "geometry": {
            "type": "Point",
            "coordinates": [
              10.3154692,
              47.7203678
            ]
          }
        },
        {
          "type": "Feature",
          "properties": {
            "id": "1449632809",
            "osm_type": "node",
            "lat": 47.9207199,
            "lon": 9.7553404,
            "addr:city": "Bad Waldsee",
            "addr:country": "DE",
            "addr:housenumber": "20",
            "addr:postcode": "88339",
            "addr:street": "Hauptstraße",
            "email": "info@staerk-uhren.de",
            "fax": "+49 7524 48121",
            "name": "Stärk Schmuck",
            "phone": "+49 7524 1619",
            "shop": "jewelry",
            "wheelchair": "yes"
          },
          "geometry": {
            "type": "Point",
            "coordinates": [
              9.7553404,
              47.9207199
            ]
          }
        },
        {
          "type": "Feature",
          "properties": {
            "id": "2180088155",
            "osm_type": "node",
            "lat": 47.9536302,
            "lon": 9.6374332,
            "addr:city": "Aulendorf",
            "addr:housenumber": "40",
            "addr:postcode": "88326",
            "addr:street": "Hauptstraße",
            "name": "Uhren Beck",
            "shop": "jewelry"
          },
          "geometry": {
            "type": "Point",
            "coordinates": [
              9.6374332,
              47.9536302
            ]
          }
        },
        {
          "type": "Feature",
          "properties": {
            "id": "5155167719",
            "osm_type": "node",
            "lat": 47.9195746,
            "lon": 9.756766,
            "addr:city": "Bad Waldsee",
            "addr:country": "DE",
            "addr:housenumber": "11",
            "addr:postcode": "88339",
            "addr:street": "Wurzacher Straße",
            "check_date": "2025-09-12",
            "name": "Schmuck Zehrer",
            "phone": "+49 75 24 9 75 66 20",
            "shop": "jewelry",
            "website": "https://www.uhren-schmuck.de/store/juwelier-zehrer-88339-bad-waldsee",
            "wheelchair": "limited"
          },
          "geometry": {
            "type": "Point",
            "coordinates": [
              9.756766,
              47.9195746
            ]
          }
        },
        {
          "type": "Feature",
          "properties": {
            "id": "1243877429",
            "osm_type": "node",
            "lat": 47.9867372,
            "lon": 10.179364,
            "addr:city": "Memmingen",
            "addr:housenumber": "7",
            "addr:postcode": "87700",
            "addr:street": "Zwinggasse",
            "check_date:opening_hours": "2024-01-14",
            "craft": "goldsmith",
            "description": "Goldschmiede & Altelier",
            "email": "atelier69@msn.com",
            "name": "Ulrich Buhmann",
            "opening_hours:signed": "no",
            "operator": "Ulrich Buhmann",
            "phone": "+49 8331 48747",
            "shop": "jewelry",
            "website": "https://schmuck-kraftwerk.de/"
          },
          "geometry": {
            "type": "Point",
            "coordinates": [
              10.179364,
              47.9867372
            ]
          }
        },
        {
          "type": "Feature",
          "properties": {
            "id": "1902737491",
            "osm_type": "node",
            "lat": 47.8742022,
            "lon": 10.2226249,
            "addr:city": "Bad Grönenbach",
            "addr:country": "DE",
            "addr:housenumber": "1",
            "addr:postcode": "87730",
            "addr:street": "Kemptener Straße",
            "name": "Juwelier Dreier",
            "shop": "jewelry"
          },
          "geometry": {
            "type": "Point",
            "coordinates": [
              10.2226249,
              47.8742022
            ]
          }
        },
        {
          "type": "Feature",
          "properties": {
            "id": "6531564694",
            "osm_type": "node",
            "lat": 47.9860115,
            "lon": 10.1808165,
            "check_date": "2023-11-17",
            "name": "Kuhl",
            "opening_hours": "Mo-Fr 09:00-18:00; Sa 09:00-14:00",
            "shop": "jewelry"
          },
          "geometry": {
            "type": "Point",
            "coordinates": [
              10.1808165,
              47.9860115
            ]
          }
        },
        {
          "type": "Feature",
          "properties": {
            "id": "7413379358",
            "osm_type": "node",
            "lat": 47.9841373,
            "lon": 10.1820964,
            "brand": "Bijou Brigitte",
            "brand:wikidata": "Q599545",
            "brand:wikipedia": "de:Bijou Brigitte",
            "check_date": "2023-12-02",
            "name": "Bijou Brigitte",
            "opening_hours": "Mo-Fr 09:30-19:00; Sa 09:30-18:00",
            "shop": "jewelry"
          },
          "geometry": {
            "type": "Point",
            "coordinates": [
              10.1820964,
              47.9841373
            ]
          }
        },
        {
          "type": "Feature",
          "properties": {
            "id": "7413379369",
            "osm_type": "node",
            "lat": 47.9835603,
            "lon": 10.1820357,
            "check_date:opening_hours": "2024-01-13",
            "name": "Ebenhoch Honner",
            "opening_hours": "Mo-Fr 09:30-18:00; Sa 09:30-13:00; PH,Su off",
            "shop": "jewelry",
            "wheelchair": "yes"
          },
          "geometry": {
            "type": "Point",
            "coordinates": [
              10.1820357,
              47.9835603
            ]
          }
        }
      ],
      "children": []
    },
    {
      "bbox": {
        "south": 47.694865,
        "west": 10.484655499999999,
        "north": 48.02541825,
        "east": 11.438358999999998
      },
      "poiCount": 36,
      "leafCount": 36,
      "averagePosition": [
        10.952588561111112,
        47.88200940833333
      ],
      "data": [
        {
          "type": "Feature",
          "properties": {
            "id": "817274646",
            "osm_type": "node",
            "lat": 47.7786334,
            "lon": 10.6190126,
            "name": "Hansen Uhren & Schmuck",
            "shop": "jewelry",
            "wheelchair": "no"
          },
          "geometry": {
            "type": "Point",
            "coordinates": [
              10.6190126,
              47.7786334
            ]
          }
        },
        {
          "type": "Feature",
          "properties": {
            "id": "4179363766",
            "osm_type": "node",
            "lat": 47.7011373,
            "lon": 10.6052291,
            "name": "Schmuck Huber",
            "shop": "jewelry"
          },
          "geometry": {
            "type": "Point",
            "coordinates": [
              10.6052291,
              47.7011373
            ]
          }
        },
        {
          "type": "Feature",
          "properties": {
            "id": "11950270671",
            "osm_type": "node",
            "lat": 47.6966813,
            "lon": 10.7946655,
            "name": "Kugle",
            "shop": "jewelry"
          },
          "geometry": {
            "type": "Point",
            "coordinates": [
              10.7946655,
              47.6966813
            ]
          }
        },
        {
          "type": "Feature",
          "properties": {
            "id": "1982905917",
            "osm_type": "node",
            "lat": 47.7498434,
            "lon": 11.3739975,
            "addr:city": "Penzberg",
            "addr:country": "DE",
            "addr:housenumber": "16",
            "addr:postcode": "82377",
            "addr:street": "Bahnhofstraße",
            "craft": "watchmaker",
            "name": "Marksteiner",
            "opening_hours": "Mo-Fr 09:00-12:30,14:00-18:15, Sa 09:00-14:00; PH off",
            "phone": "+49 8856 9017340",
            "shop": "jewelry",
            "toilets:wheelchair": "no",
            "wheelchair": "no"
          },
          "geometry": {
            "type": "Point",
            "coordinates": [
              11.3739975,
              47.7498434
            ]
          }
        },
        {
          "type": "Feature",
          "properties": {
            "id": "2604930790",
            "osm_type": "node",
            "lat": 47.83991,
            "lon": 11.1415705,
            "addr:city": "Weilheim in Oberbayern",
            "addr:housenumber": "4",
            "addr:postcode": "82362",
            "addr:street": "Schmiedstraße",
            "name": "Perchermeier Goldschmiedemeister",
            "opening_hours": "Mo-Fr 09:00-18:00; Sa 09:30-14:00; PH off",
            "operator": "Anton Perchmeier",
            "phone": "+49 881 2616",
            "shop": "jewelry",
            "website": "https://perchermeier-weilheim.de/"
          },
          "geometry": {
            "type": "Point",
            "coordinates": [
              11.1415705,
              47.83991
            ]
          }
        },
        {
          "type": "Feature",
          "properties": {
            "id": "4338842104",
            "osm_type": "node",
            "lat": 47.7509325,
            "lon": 11.3749567,
            "addr:city": "Penzberg",
            "addr:country": "DE",
            "addr:housenumber": "23",
            "addr:postcode": "82377",
            "addr:street": "Bahnhofstraße",
            "name": "Juwelier Bach",
            "opening_hours": "Mo-Fr 09:00-18:00; Sa 09:00-14:00; PH off",
            "operator": "Nina Bach",
            "phone": "+49 8856 2512",
            "shop": "jewelry",
            "website": "http://www.juwelier-bach.de/",
            "wheelchair": "yes"
          },
          "geometry": {
            "type": "Point",
            "coordinates": [
              11.3749567,
              47.7509325
            ]
          }
        },
        {
          "type": "Feature",
          "properties": {
            "id": "5568761896",
            "osm_type": "node",
            "lat": 47.8383773,
            "lon": 11.1451562,
            "addr:city": "Weilheim in Oberbayern",
            "addr:country": "DE",
            "addr:housenumber": "16",
            "addr:postcode": "82362",
            "addr:street": "Rathausplatz",
            "name": "Uhren Lutz",
            "opening_hours": "Mo-Fr 09:00-13:00,14:00-18:00; Sa 09:00-13:00; PH off",
            "shop": "jewelry",
            "wheelchair": "no"
          },
          "geometry": {
            "type": "Point",
            "coordinates": [
              11.1451562,
              47.8383773
            ]
          }
        },
        {
          "type": "Feature",
          "properties": {
            "id": "6985352393",
            "osm_type": "node",
            "lat": 47.7534127,
            "lon": 11.3776879,
            "name": "Schmuckatelier Christa Kratzer",
            "opening_hours": "Mo-Fr 10:00-18:00;Sa 10:00-14:00;PH off",
            "shop": "jewelry",
            "wheelchair": "yes"
          },
          "geometry": {
            "type": "Point",
            "coordinates": [
              11.3776879,
              47.7534127
            ]
          }
        },
        {
          "type": "Feature",
          "properties": {
            "id": "7960532334",
            "osm_type": "node",
            "lat": 47.7915978,
            "lon": 11.0624158,
            "addr:city": "Peißenberg",
            "addr:country": "DE",
            "addr:housenumber": "39",
            "addr:postcode": "82380",
            "addr:street": "Schongauer Straße",
            "name": "Hubert Nold Uhren und Schmuck",
            "shop": "jewelry"
          },
          "geometry": {
            "type": "Point",
            "coordinates": [
              11.0624158,
              47.7915978
            ]
          }
        },
        {
          "type": "Feature",
          "properties": {
            "id": "7960842055",
            "osm_type": "node",
            "lat": 47.7993744,
            "lon": 11.0640404,
            "addr:city": "Peißenberg",
            "addr:country": "DE",
            "addr:housenumber": "110",
            "addr:postcode": "82380",
            "addr:street": "Hauptstraße",
            "name": "Optik Weiß",
            "opening_hours": "Tu-Th 08:00-12:30,14:00-18:00; Fr 08:30-18:00; Sa 08:30-12:00",
            "shop": "jewelry"
          },
          "geometry": {
            "type": "Point",
            "coordinates": [
              11.0640404,
              47.7993744
            ]
          }
        },
        {
          "type": "Feature",
          "properties": {
            "id": "847893174",
            "osm_type": "node",
            "lat": 47.8795612,
            "lon": 10.6217482,
            "name": "Dahlmann Juweliere",
            "note": "Umzug Gutenbergstr. 5 - April 2019",
            "shop": "jewelry"
          },
          "geometry": {
            "type": "Point",
            "coordinates": [
              10.6217482,
              47.8795612
            ]
          }
        },
        {
          "type": "Feature",
          "properties": {
            "id": "847893193",
            "osm_type": "node",
            "lat": 47.8793262,
            "lon": 10.6206413,
            "name": "La Bella",
            "shop": "jewelry",
            "wheelchair": "yes"
          },
          "geometry": {
            "type": "Point",
            "coordinates": [
              10.6206413,
              47.8793262
            ]
          }
        },
        {
          "type": "Feature",
          "properties": {
            "id": "1061545506",
            "osm_type": "node",
            "lat": 47.8802652,
            "lon": 10.6194366,
            "name": "Hoheisel",
            "shop": "jewelry",
            "wheelchair": "no"
          },
          "geometry": {
            "type": "Point",
            "coordinates": [
              10.6194366,
              47.8802652
            ]
          }
        },
        {
          "type": "Feature",
          "properties": {
            "id": "3314734502",
            "osm_type": "node",
            "lat": 47.8792542,
            "lon": 10.6210316,
            "description": "In der Goldschmiede goldmund entstehen sowohl zeitgenössische als auch klassische Unikate, Kleinserien und Trauringe – auf Wunsch auch in Fair Trade Gold. Weitere Leistungen sind Reparaturen und Umarbeitungen von alten Stücken.",
            "fixed": "Genaue Lage in der Passage ???",
            "name": "goldmund - Goldschmiede Atelier",
            "opening_hours": "We-Fr 10:00-13:00,14:00-18:00, Sa 10:00-14:00",
            "operator": "Christine Grigat",
            "shop": "jewelry",
            "website": "https://www.atelier-goldmund.de/"
          },
          "geometry": {
            "type": "Point",
            "coordinates": [
              10.6210316,
              47.8792542
            ]
          }
        },
        {
          "type": "Feature",
          "properties": {
            "id": "3958350629",
            "osm_type": "node",
            "lat": 47.8795536,
            "lon": 10.6207066,
            "name": "Goldstein Gold Buy",
            "shop": "jewelry"
          },
          "geometry": {
            "type": "Point",
            "coordinates": [
              10.6207066,
              47.8795536
            ]
          }
        },
        {
          "type": "Feature",
          "properties": {
            "id": "4672612882",
            "osm_type": "node",
            "lat": 47.8789114,
            "lon": 10.6201901,
            "name": "Goldschmiede Friedrich",
            "shop": "jewelry",
            "website": "http://www.goldschmiede-friedrich.de/"
          },
          "geometry": {
            "type": "Point",
            "coordinates": [
              10.6201901,
              47.8789114
            ]
          }
        },
        {
          "type": "Feature",
          "properties": {
            "id": "4720043386",
            "osm_type": "node",
            "lat": 47.8803562,
            "lon": 10.6199705,
            "name": "Rustika Schmuck",
            "opening_hours": "Mo-Fr 08:00-18:00; Sa 09:00-16:00",
            "shop": "jewelry",
            "website": "https://www.rustika-schmuck.de/",
            "wheelchair": "no"
          },
          "geometry": {
            "type": "Point",
            "coordinates": [
              10.6199705,
              47.8803562
            ]
          }
        },
        {
          "type": "Feature",
          "properties": {
            "id": "5174115023",
            "osm_type": "node",
            "lat": 47.8809098,
            "lon": 10.6188724,
            "brand": "Bijou Brigitte",
            "brand:wikidata": "Q599545",
            "brand:wikipedia": "de:Bijou Brigitte",
            "name": "Bijou Brigitte",
            "shop": "jewelry",
            "wheelchair": "yes"
          },
          "geometry": {
            "type": "Point",
            "coordinates": [
              10.6188724,
              47.8809098
            ]
          }
        },
        {
          "type": "Feature",
          "properties": {
            "id": "6389288556",
            "osm_type": "node",
            "lat": 47.8816609,
            "lon": 10.6207687,
            "email": "klaus@goldschmiede-blumberg.de",
            "name": "Goldschmiede Blumberg",
            "phone": "+49 (0)8341 18274",
            "shop": "jewelry",
            "wheelchair": "yes"
          },
          "geometry": {
            "type": "Point",
            "coordinates": [
              10.6207687,
              47.8816609
            ]
          }
        },
        {
          "type": "Feature",
          "properties": {
            "id": "9331959654",
            "osm_type": "node",
            "lat": 47.8801656,
            "lon": 10.6197028,
            "name": "Le Bijou",
            "opening_hours": "Mo 10:00-18:00; Tu-Fr 09:30-18:00; Sa 10:00-15:00",
            "phone": "+49 8341 2359",
            "shop": "jewelry",
            "website": "https://le-bijou-kaufbeuren.com/"
          },
          "geometry": {
            "type": "Point",
            "coordinates": [
              10.6197028,
              47.8801656
            ]
          }
        },
        {
          "type": "Feature",
          "properties": {
            "id": "9502124683",
            "osm_type": "node",
            "lat": 47.9115416,
            "lon": 10.6350189,
            "name": "Kleinert",
            "opening_hours": "Mo-Fr 08:30-12:30,14:00-18:00; Sa 08:30-12:30",
            "shop": "jewelry"
          },
          "geometry": {
            "type": "Point",
            "coordinates": [
              10.6350189,
              47.9115416
            ]
          }
        },
        {
          "type": "Feature",
          "properties": {
            "id": "9967306298",
            "osm_type": "node",
            "lat": 47.9054318,
            "lon": 10.6666075,
            "craft": "jeweller",
            "name": "Streitstones",
            "shop": "jewelry"
          },
          "geometry": {
            "type": "Point",
            "coordinates": [
              10.6666075,
              47.9054318
            ]
          }
        },
        {
          "type": "Feature",
          "properties": {
            "id": "10157487981",
            "osm_type": "node",
            "lat": 47.8800138,
            "lon": 10.6199064,
            "name": "Schmuckdesign Karin Geisler",
            "note": "Lt. AZ Pilotprojekt vorerst bis Mitte Ende Dez. 2022",
            "operator": "Karin Geisler",
            "shop": "jewelry"
          },
          "geometry": {
            "type": "Point",
            "coordinates": [
              10.6199064,
              47.8800138
            ]
          }
        },
        {
          "type": "Feature",
          "properties": {
            "id": "12102807035",
            "osm_type": "node",
            "lat": 48.0046127,
            "lon": 10.5924974,
            "name": "Hollfelder",
            "shop": "jewelry"
          },
          "geometry": {
            "type": "Point",
            "coordinates": [
              10.5924974,
              48.0046127
            ]
          }
        },
        {
          "type": "Feature",
          "properties": {
            "id": "12102807049",
            "osm_type": "node",
            "lat": 48.0043567,
            "lon": 10.5923264,
            "addr:city": "Bad Wörishofen",
            "addr:country": "DE",
            "addr:housenumber": "14",
            "addr:postcode": "86825",
            "addr:street": "Kneippstraße",
            "name": "CARAT",
            "shop": "jewelry"
          },
          "geometry": {
            "type": "Point",
            "coordinates": [
              10.5923264,
              48.0043567
            ]
          }
        },
        {
          "type": "Feature",
          "properties": {
            "id": "1889447927",
            "osm_type": "node",
            "lat": 47.9959223,
            "lon": 11.1729377,
            "addr:city": "Herrsching am Ammersee",
            "addr:country": "DE",
            "addr:housenumber": "28",
            "addr:postcode": "82211",
            "addr:street": "Seestraße",
            "name": "Ihr Juwelier am See",
            "opening_hours": "Mo, Tu, Th, Fr 09:00-12:30, 14:30-18:00; We, Sa 09:00-12:00",
            "phone": "+4981526562",
            "shop": "jewelry",
            "website": "https://ihr-juwelier-am-see.de/"
          },
          "geometry": {
            "type": "Point",
            "coordinates": [
              11.1729377,
              47.9959223
            ]
          }
        },
        {
          "type": "Feature",
          "properties": {
            "id": "5692637901",
            "osm_type": "node",
            "lat": 47.9493688,
            "lon": 11.1033323,
            "addr:city": "Dießen am Ammersee",
            "addr:country": "DE",
            "addr:housenumber": "17",
            "addr:postcode": "86911",
            "addr:street": "Prinz-Ludwig-Straße",
            "name": "Goldschmiede Michael Saupe",
            "opening_hours": "Tu-Fr 10:00-12:30, Sa 10:00-12:30; PH off, Tu-Fr 16:00-18:00",
            "phone": "+49 8807 214831",
            "shop": "jewelry",
            "website": "https://goldschmiede-ammersee.de",
            "wheelchair": "limited"
          },
          "geometry": {
            "type": "Point",
            "coordinates": [
              11.1033323,
              47.9493688
            ]
          }
        },
        {
          "type": "Feature",
          "properties": {
            "id": "6587693652",
            "osm_type": "node",
            "lat": 47.912953,
            "lon": 11.4233373,
            "addr:city": "Wolfratshausen",
            "addr:country": "DE",
            "addr:housenumber": "7-9",
            "addr:postcode": "82515",
            "addr:street": "Sauerlacher Straße",
            "name": "Uhren und Schmuck Thanner",
            "opening_hours": "Mo-Fr 09:00-12:30, 14:30-18:00; Sa 10:00-13:00; PH off",
            "opening_hours:covid19": "restricted",
            "operator": "Gabriele Thanner",
            "phone": "+49 8171 7458",
            "shop": "jewelry",
            "website": "https://www.uhren-thanner.com/"
          },
          "geometry": {
            "type": "Point",
            "coordinates": [
              11.4233373,
              47.912953
            ]
          }
        },
        {
          "type": "Feature",
          "properties": {
            "id": "6616568475",
            "osm_type": "node",
            "lat": 47.9480088,
            "lon": 11.102002,
            "addr:city": "Dießen am Ammersee",
            "addr:country": "DE",
            "addr:housenumber": "6",
            "addr:postcode": "86911",
            "addr:street": "Herrenstraße",
            "name": "Adebar",
            "old_name": "Ammersee Assekuranz",
            "opening_hours": "Mo-Fr 10:00-18:00; Sa 10:00-14:00; PH off",
            "operator": "Andrea Frahm",
            "phone": "+49 8807 9478200",
            "shop": "jewelry",
            "website": "https://www.andreafrahm.de/pages/adebar"
          },
          "geometry": {
            "type": "Point",
            "coordinates": [
              11.102002,
              47.9480088
            ]
          }
        },
        {
          "type": "Feature",
          "properties": {
            "id": "9050835238",
            "osm_type": "node",
            "lat": 47.9153753,
            "lon": 11.4191632,
            "addr:city": "Wolfratshausen",
            "addr:country": "DE",
            "addr:housenumber": "18",
            "addr:postcode": "82515",
            "addr:street": "Untermarkt",
            "name": "Goldschmied Fritz Koch",
            "opening_hours": "Mo-Fr 09:00-12:30, Mo-Fr 14:30-18:30, Sa 09:00-13:00",
            "opening_hours:covid19": "restricted",
            "operator": "Fritz Koch",
            "phone": "+49 8171 21141",
            "shop": "jewelry"
          },
          "geometry": {
            "type": "Point",
            "coordinates": [
              11.4191632,
              47.9153753
            ]
          }
        },
        {
          "type": "Feature",
          "properties": {
            "id": "9945373808",
            "osm_type": "node",
            "lat": 47.9966546,
            "lon": 11.3425577,
            "addr:city": "Starnberg",
            "addr:housenumber": "2",
            "addr:postcode": "82319",
            "addr:street": "Wittelsbacherstraße",
            "contact:phone": "+49 8151 911122",
            "name": "Juwelier Mayer",
            "opening_hours": "Mo-Fr 09:30-13:00, 14:00-18:00; Sa 09:30-13:30",
            "payment:credit_cards": "yes",
            "payment:debit_cards": "yes",
            "shop": "jewelry",
            "website": "https://juweliermayer.de",
            "wheelchair": "yes"
          },
          "geometry": {
            "type": "Point",
            "coordinates": [
              11.3425577,
              47.9966546
            ]
          }
        },
        {
          "type": "Feature",
          "properties": {
            "id": "11262692902",
            "osm_type": "node",
            "lat": 47.9137236,
            "lon": 11.4180602,
            "check_date": "2023-10-14",
            "name": "Conny Broenner",
            "opening_hours": "Mo-Fr 09:30-18:00; Sa 09:00-14:00; Su off",
            "operator": "Brigitte Deger",
            "phone": "+49 8171 217714",
            "shop": "jewelry",
            "wheelchair": "limited"
          },
          "geometry": {
            "type": "Point",
            "coordinates": [
              11.4180602,
              47.9137236
            ]
          }
        },
        {
          "type": "Feature",
          "properties": {
            "id": "11262692904",
            "osm_type": "node",
            "lat": 47.9138328,
            "lon": 11.4181063,
            "addr:city": "Wolfratshausen",
            "addr:country": "DE",
            "addr:housenumber": "5",
            "addr:postcode": "82515",
            "addr:street": "Obermarkt",
            "check_date": "2023-10-14",
            "name": "Juwelier Meuser",
            "shop": "jewelry"
          },
          "geometry": {
            "type": "Point",
            "coordinates": [
              11.4181063,
              47.9138328
            ]
          }
        },
        {
          "type": "Feature",
          "properties": {
            "id": "12066373591",
            "osm_type": "node",
            "lat": 48.0021175,
            "lon": 11.3409343,
            "addr:city": "Starnberg",
            "addr:housenumber": "12",
            "addr:postcode": "82319",
            "addr:street": "Hanfelder Straße",
            "opening_hours": "Mo,Tue,Thu,Fr 10:30-14:00,15:00-18:30; We,Sa 10:30-14:00",
            "operator": "Friederike Suppin",
            "phone": "+49 8151 16273",
            "shop": "jewelry",
            "website": "https://friederikesuppin.de/"
          },
          "geometry": {
            "type": "Point",
            "coordinates": [
              11.3409343,
              48.0021175
            ]
          }
        },
        {
          "type": "Feature",
          "properties": {
            "id": "12066512686",
            "osm_type": "node",
            "lat": 47.9989732,
            "lon": 11.3418444,
            "name": "Jäger",
            "shop": "jewelry"
          },
          "geometry": {
            "type": "Point",
            "coordinates": [
              11.3418444,
              47.9989732
            ]
          }
        },
        {
          "type": "Feature",
          "properties": {
            "id": "13136656826",
            "osm_type": "node",
            "lat": 47.9995878,
            "lon": 11.3427552,
            "name": "ARNTZ",
            "shop": "jewelry"
          },
          "geometry": {
            "type": "Point",
            "coordinates": [
              11.3427552,
              47.9995878
            ]
          }
        }
      ],
      "children": []
    },
    {
      "bbox": {
        "south": 48.02541825,
        "west": 9.530952,
        "north": 48.355971499999995,
        "east": 10.484655499999999
      },
      "poiCount": 20,
      "leafCount": 20,
      "averagePosition": [
        10.037156245,
        48.254566755
      ],
      "data": [
        {
          "type": "Feature",
          "properties": {
            "id": "1998397761",
            "osm_type": "node",
            "lat": 48.3518992,
            "lon": 9.9742731,
            "name": "Jobi Schmuck&Uhren",
            "shop": "jewelry",
            "wheelchair": "yes"
          },
          "geometry": {
            "type": "Point",
            "coordinates": [
              9.9742731,
              48.3518992
            ]
          }
        },
        {
          "type": "Feature",
          "properties": {
            "id": "2255975671",
            "osm_type": "node",
            "lat": 48.0707781,
            "lon": 9.9517638,
            "entrance": "yes",
            "name": "Van-Geffen",
            "shop": "jewelry"
          },
          "geometry": {
            "type": "Point",
            "coordinates": [
              9.9517638,
              48.0707781
            ]
          }
        },
        {
          "type": "Feature",
          "properties": {
            "id": "3871308998",
            "osm_type": "node",
            "lat": 48.2293207,
            "lon": 9.8845789,
            "addr:city": "Laupheim",
            "addr:housenumber": "8",
            "addr:postcode": "88471",
            "addr:street": "Marktplatz",
            "contact:email": "info@herrmann-uhren.de",
            "contact:fax": "+49 7392 964220",
            "contact:phone": "+49 7392 96420",
            "contact:website": "http://herrmann-uhren.de",
            "name": "Juwelier Herrmann",
            "shop": "jewelry",
            "source": "Datenübernahme von Gebäude & Website",
            "wheelchair": "no"
          },
          "geometry": {
            "type": "Point",
            "coordinates": [
              9.8845789,
              48.2293207
            ]
          }
        },
        {
          "type": "Feature",
          "properties": {
            "id": "7036704699",
            "osm_type": "node",
            "lat": 48.2835152,
            "lon": 9.7286499,
            "addr:city": "Ehingen (Donau)",
            "addr:housenumber": "14",
            "addr:postcode": "89584",
            "addr:street": "Gymnasiumstraße",
            "brand": "\"Epos\" mechnische Schweizer Uhren + \"LeTemps\" Schweizer Quarz-Uhren",
            "currency:EUR": "yes",
            "description": "Uhren und Schmuck Geschäft mit Uhrmachermeisterwerkstatt",
            "email": "will-i-trotzdem@web.de",
            "name": "Will I. Trotzdem GmbH",
            "opening_hours": "We-Sa 11:00-17:00",
            "operator": "Will I. Trotzdem GmbH",
            "payment:cash": "yes",
            "payment:debit_cards": "yes",
            "phone": "+49 73914661",
            "shop": "jewelry",
            "stroller": "yes",
            "website": "http://www.will-i-trotzdem.eu5.net",
            "wheelchair": "yes"
          },
          "geometry": {
            "type": "Point",
            "coordinates": [
              9.7286499,
              48.2835152
            ]
          }
        },
        {
          "type": "Feature",
          "properties": {
            "id": "7846577105",
            "osm_type": "node",
            "lat": 48.0991391,
            "lon": 9.7906114,
            "contact:email": "biberach@juwelier-gross.de",
            "contact:facebook": "juweliergrossbc",
            "contact:instagram": "juwelier_gross",
            "contact:phone": "+49 7351 5779212",
            "contact:website": "https://juwelier-gross.de/",
            "name": "Gross",
            "opening_hours": "Mo-Fr 9:30-12:30, 13:30-18:00; Sa 09:30-13:00; Su off",
            "shop": "jewelry"
          },
          "geometry": {
            "type": "Point",
            "coordinates": [
              9.7906114,
              48.0991391
            ]
          }
        },
        {
          "type": "Feature",
          "properties": {
            "id": "9022270164",
            "osm_type": "node",
            "lat": 48.2832509,
            "lon": 9.7242519,
            "email": "info@fischer-ries.de",
            "fax": "+49 7391 72345",
            "name": "Fischer-Ries",
            "opening_hours": "Mo-Fr 09:00-12:30,14:00-18:00; Sa 09:00-13:00",
            "phone": "+49 7391 6286",
            "shop": "jewelry",
            "website": "https://www.fischer-ries.de/"
          },
          "geometry": {
            "type": "Point",
            "coordinates": [
              9.7242519,
              48.2832509
            ]
          }
        },
        {
          "type": "Feature",
          "properties": {
            "id": "9079420669",
            "osm_type": "node",
            "lat": 48.2834646,
            "lon": 9.7267762,
            "name": "Augenweide Trauringe Uhren Schmuck",
            "opening_hours": "Mo-Fr 09:00-13:00,14:00-18:00; Sa 09:00-13:00",
            "shop": "jewelry"
          },
          "geometry": {
            "type": "Point",
            "coordinates": [
              9.7267762,
              48.2834646
            ]
          }
        },
        {
          "type": "Feature",
          "properties": {
            "id": "9508971394",
            "osm_type": "node",
            "lat": 48.2288333,
            "lon": 9.8834963,
            "email": "info@wunder-laupheim.de",
            "name": "Juwlier Wunder",
            "opening_hours": "Mo-Sa 09:00-12:30; Mo,Tu,Th,Fr 14:00-18:00",
            "phone": "+49 7392 8349",
            "shop": "jewelry",
            "website": "https://www.wunder-laupheim.de/"
          },
          "geometry": {
            "type": "Point",
            "coordinates": [
              9.8834963,
              48.2288333
            ]
          }
        },
        {
          "type": "Feature",
          "properties": {
            "id": "12649995335",
            "osm_type": "node",
            "lat": 48.283868,
            "lon": 9.727316,
            "name": "goldschmiede bayrl.mittl",
            "shop": "jewelry",
            "website": "http://www.bayrl-mittl.de/"
          },
          "geometry": {
            "type": "Point",
            "coordinates": [
              9.727316,
              48.283868
            ]
          }
        },
        {
          "type": "Feature",
          "properties": {
            "id": "621964426",
            "osm_type": "node",
            "lat": 48.2447763,
            "lon": 10.3612383,
            "name": "Uhren, Schmuck Ganz",
            "opening_hours": "Mo-Fr 08:30-12:30,14:00-18:00; Sa 08:30-12:30",
            "shop": "jewelry",
            "wheelchair": "limited"
          },
          "geometry": {
            "type": "Point",
            "coordinates": [
              10.3612383,
              48.2447763
            ]
          }
        },
        {
          "type": "Feature",
          "properties": {
            "id": "622680812",
            "osm_type": "node",
            "lat": 48.2828145,
            "lon": 10.4696021,
            "addr:city": "Thannhausen",
            "addr:country": "DE",
            "addr:housenumber": "5",
            "addr:postcode": "86470",
            "addr:street": "Bahnhofstraße",
            "email": "info@uhrenschmuckjoas.de",
            "fax": "+49 8281 5850",
            "name": "Joas Uhren + Schmuck",
            "opening_hours": "Mo-Fr 08:00-12:30,14:00-18:00; Sa 08:00-12:00",
            "phone": "+49 8281 4802",
            "shop": "jewelry",
            "website": "https://www.uhrenschmuckjoas.de/"
          },
          "geometry": {
            "type": "Point",
            "coordinates": [
              10.4696021,
              48.2828145
            ]
          }
        },
        {
          "type": "Feature",
          "properties": {
            "id": "1000900591",
            "osm_type": "node",
            "lat": 48.1429612,
            "lon": 10.252086,
            "addr:city": "Babenhausen",
            "addr:country": "DE",
            "addr:housenumber": "18",
            "addr:postcode": "87727",
            "addr:street": "Stadtgasse",
            "description": "jeweller´s shop",
            "name": "Uhren & Schmuck Rupp",
            "operator": "Kai Rupp",
            "phone": "+49 8333 95142",
            "shop": "jewelry",
            "website": "https://www.uhren-rupp.de/",
            "wheelchair": "no"
          },
          "geometry": {
            "type": "Point",
            "coordinates": [
              10.252086,
              48.1429612
            ]
          }
        },
        {
          "type": "Feature",
          "properties": {
            "id": "1177476455",
            "osm_type": "node",
            "lat": 48.2446208,
            "lon": 10.3646834,
            "addr:city": "Krumbach (Schwaben)",
            "addr:country": "DE",
            "addr:housenumber": "29",
            "addr:postcode": "86381",
            "addr:street": "Karl-Mantel-Straße",
            "fax": "+49 8282 81869",
            "name": "Rosenberger",
            "phone": "+49 8282 81868",
            "shop": "jewelry",
            "website": "https://www.ideenschmuck.de/"
          },
          "geometry": {
            "type": "Point",
            "coordinates": [
              10.3646834,
              48.2446208
            ]
          }
        },
        {
          "type": "Feature",
          "properties": {
            "id": "2276183166",
            "osm_type": "node",
            "lat": 48.3060663,
            "lon": 10.1568469,
            "name": "Martin",
            "shop": "jewelry",
            "wheelchair": "no"
          },
          "geometry": {
            "type": "Point",
            "coordinates": [
              10.1568469,
              48.3060663
            ]
          }
        },
        {
          "type": "Feature",
          "properties": {
            "id": "3103281849",
            "osm_type": "node",
            "lat": 48.222654,
            "lon": 10.1017644,
            "name": "Schmuckwerkstatt Ulrike Kasper",
            "shop": "jewelry"
          },
          "geometry": {
            "type": "Point",
            "coordinates": [
              10.1017644,
              48.222654
            ]
          }
        },
        {
          "type": "Feature",
          "properties": {
            "id": "3564323224",
            "osm_type": "node",
            "lat": 48.3244787,
            "lon": 10.0459877,
            "name": "Goldschmiede Pichl",
            "shop": "jewelry",
            "website": "https://www.pichlschmuck.de/"
          },
          "geometry": {
            "type": "Point",
            "coordinates": [
              10.0459877,
              48.3244787
            ]
          }
        },
        {
          "type": "Feature",
          "properties": {
            "id": "4578743157",
            "osm_type": "node",
            "lat": 48.3319061,
            "lon": 10.038136,
            "name": "Juwelier Gold Bazar Ugur",
            "shop": "jewelry"
          },
          "geometry": {
            "type": "Point",
            "coordinates": [
              10.038136,
              48.3319061
            ]
          }
        },
        {
          "type": "Feature",
          "properties": {
            "id": "5602667225",
            "osm_type": "node",
            "lat": 48.245015,
            "lon": 10.3609569,
            "addr:city": "Krumbach (Schwaben)",
            "addr:country": "DE",
            "addr:housenumber": "28",
            "addr:postcode": "86381",
            "addr:street": "Bahnhofstraße",
            "name": "Steineland",
            "opening_hours": "Mo-Fr 09:00-12:00,14:00-16:30; Sa 09:30-12:00; We off",
            "shop": "jewelry"
          },
          "geometry": {
            "type": "Point",
            "coordinates": [
              10.3609569,
              48.245015
            ]
          }
        },
        {
          "type": "Feature",
          "properties": {
            "id": "10779287157",
            "osm_type": "node",
            "lat": 48.3299068,
            "lon": 10.0399534,
            "contact:email": "info@juwelier-reck.de",
            "contact:facebook": "https://www.facebook.com/juwelierreck/",
            "contact:fax": "+49 7307 938324",
            "contact:phone": "+49 7307 938323",
            "name": "Juwelier Reck",
            "opening_hours": "Tu-Fr 09:30-18:00; Sa 09:30-14:00; Su,PH off",
            "operator": "Joachim Reck Uhren Schmuck Creationen",
            "shop": "jewelry",
            "website": "https://www.juwelier-reck.de/",
            "wheelchair": "limited"
          },
          "geometry": {
            "type": "Point",
            "coordinates": [
              10.0399534,
              48.3299068
            ]
          }
        },
        {
          "type": "Feature",
          "properties": {
            "id": "11866893447",
            "osm_type": "node",
            "lat": 48.3020663,
            "lon": 10.1601523,
            "name": "Evelyn Bühler",
            "shop": "jewelry"
          },
          "geometry": {
            "type": "Point",
            "coordinates": [
              10.1601523,
              48.3020663
            ]
          }
        }
      ],
      "children": []
    },
    {
      "bbox": {
        "south": 48.02541825,
        "west": 10.484655499999999,
        "north": 48.355971499999995,
        "east": 11.438358999999998
      },
      "poiCount": 62,
      "leafCount": 0,
      "averagePosition": [
        11.057965717741935,
        48.166502701612906
      ],
      "data": [],
      "children": [
        {
          "bbox": {
            "south": 48.02541825,
            "west": 10.484655499999999,
            "north": 48.190694875,
            "east": 10.961507249999999
          },
          "poiCount": 19,
          "leafCount": 19,
          "averagePosition": [
            10.766760505263159,
            48.06179355789474
          ],
          "data": [
            {
              "type": "Feature",
              "properties": {
                "id": "1439609309",
                "osm_type": "node",
                "lat": 48.0419372,
                "lon": 10.4928066,
                "addr:city": "Mindelheim",
                "addr:housenumber": "9",
                "addr:postcode": "87719",
                "addr:street": "Krankenhausstraße",
                "name": "Uhren Pienle",
                "opening_hours": "Tu-Fr 09:00-18:00, Fr 09:00-13:00; Mo off",
                "operator": "Miller Heidi-Marie",
                "shop": "jewelry",
                "website": "http://pienle.de/"
              },
              "geometry": {
                "type": "Point",
                "coordinates": [
                  10.4928066,
                  48.0419372
                ]
              }
            },
            {
              "type": "Feature",
              "properties": {
                "id": "1483908003",
                "osm_type": "node",
                "lat": 48.0465163,
                "lon": 10.489462,
                "name": "Goldschmiede Frick",
                "opening_hours": "Mo,Tu,Th,Fr 10:00-17:30; Sa 09:00-12:00",
                "shop": "jewelry",
                "wheelchair": "no"
              },
              "geometry": {
                "type": "Point",
                "coordinates": [
                  10.489462,
                  48.0465163
                ]
              }
            },
            {
              "type": "Feature",
              "properties": {
                "id": "1491626322",
                "osm_type": "node",
                "lat": 48.0460795,
                "lon": 10.48675,
                "name": "Goldschmiedehaus Bergmiller",
                "opening_hours": "Mo,Tu,Th,Fr 09:30-12:00,14:30-18:00; Sa 09:30-12:30; We 09:30-12:30",
                "operator": "Gottfried Bergmiller",
                "shop": "jewelry",
                "wheelchair": "yes"
              },
              "geometry": {
                "type": "Point",
                "coordinates": [
                  10.48675,
                  48.0460795
                ]
              }
            },
            {
              "type": "Feature",
              "properties": {
                "id": "1491626684",
                "osm_type": "node",
                "lat": 48.0463015,
                "lon": 10.4877204,
                "check_date:opening_hours": "2025-06-10",
                "name": "Rinkenburger Uhren Schmuck",
                "opening_hours": "Mo-Fr 09:00-12:30,14:00-18:00; Sa 09:00-12:30",
                "operator": "Bernadette Rinkenburger",
                "shop": "jewelry",
                "wheelchair": "yes"
              },
              "geometry": {
                "type": "Point",
                "coordinates": [
                  10.4877204,
                  48.0463015
                ]
              }
            },
            {
              "type": "Feature",
              "properties": {
                "id": "399116572",
                "osm_type": "node",
                "lat": 48.1795825,
                "lon": 10.758253,
                "addr:city": "Schwabmünchen",
                "addr:country": "DE",
                "addr:housenumber": "4",
                "addr:postcode": "86830",
                "addr:street": "Fuggerstraße",
                "name": "Keppeler",
                "opening_hours": "Mo-Fr 08:00-12:00,14:00-18:00; Sa 08:30-12:30",
                "shop": "jewelry",
                "wheelchair": "no"
              },
              "geometry": {
                "type": "Point",
                "coordinates": [
                  10.758253,
                  48.1795825
                ]
              }
            },
            {
              "type": "Feature",
              "properties": {
                "id": "399116580",
                "osm_type": "node",
                "lat": 48.1792838,
                "lon": 10.7578232,
                "name": "Winter",
                "opening_hours": "Mo-Fr 09:00-12:30,14:00-18:00; Sa 09:00-13:30",
                "shop": "jewelry",
                "wheelchair": "limited"
              },
              "geometry": {
                "type": "Point",
                "coordinates": [
                  10.7578232,
                  48.1792838
                ]
              }
            },
            {
              "type": "Feature",
              "properties": {
                "id": "1235825018",
                "osm_type": "node",
                "lat": 48.0352302,
                "lon": 10.7242895,
                "name": "Goldschmiede Zinth",
                "opening_hours": "Mo-Fr 09:00-12:00, 14:00-18:00; Sa 09:00-12:30",
                "shop": "jewelry"
              },
              "geometry": {
                "type": "Point",
                "coordinates": [
                  10.7242895,
                  48.0352302
                ]
              }
            },
            {
              "type": "Feature",
              "properties": {
                "id": "4080183512",
                "osm_type": "node",
                "lat": 48.0530527,
                "lon": 10.8777596,
                "addr:city": "Landsberg am Lech",
                "addr:country": "DE",
                "addr:housenumber": "326",
                "addr:postcode": "86899",
                "addr:street": "Hinterer Anger",
                "name": "Stikulorum",
                "shop": "jewelry",
                "wheelchair": "no"
              },
              "geometry": {
                "type": "Point",
                "coordinates": [
                  10.8777596,
                  48.0530527
                ]
              }
            },
            {
              "type": "Feature",
              "properties": {
                "id": "5111214276",
                "osm_type": "node",
                "lat": 48.0493376,
                "lon": 10.8784308,
                "addr:city": "Landsberg am Lech",
                "addr:country": "DE",
                "addr:housenumber": "403",
                "addr:postcode": "86899",
                "addr:street": "Alte Bergstraße",
                "craft": "goldsmith",
                "email": "bianca@biancakazor.de",
                "name": "Goldschmiede bior",
                "opening_hours": "We-Fr 11:00-13:00,14:00-18:00; Sa 10:00-13:00",
                "operator": "Bianca Zor",
                "phone": "+49 8191 9855185",
                "shop": "jewelry",
                "website": "https://www.biancakazor.de/"
              },
              "geometry": {
                "type": "Point",
                "coordinates": [
                  10.8784308,
                  48.0493376
                ]
              }
            },
            {
              "type": "Feature",
              "properties": {
                "id": "5356359778",
                "osm_type": "node",
                "lat": 48.0490692,
                "lon": 10.8763638,
                "name": "Gallo & Vincenti",
                "shop": "jewelry",
                "source": "local knowledge",
                "website": "https://www.gallo-vincenti.de"
              },
              "geometry": {
                "type": "Point",
                "coordinates": [
                  10.8763638,
                  48.0490692
                ]
              }
            },
            {
              "type": "Feature",
              "properties": {
                "id": "5358601820",
                "osm_type": "node",
                "lat": 48.0498416,
                "lon": 10.8776976,
                "addr:city": "Landsberg am Lech",
                "addr:country": "DE",
                "addr:housenumber": "183",
                "addr:postcode": "86899",
                "addr:street": "Hauptplatz",
                "craft": "clockmaker",
                "fax": "+49 8191 / 29959",
                "name": "Johann Wittmann",
                "opening_hours": "Mo,Tu,Th,Fr 09:00-17:00; We 09:00-12:30; Sa 09:00-12:30",
                "operator": "Andrea Kugelmann",
                "phone": "+49 8191/1410",
                "shop": "jewelry",
                "source": "local knowledge"
              },
              "geometry": {
                "type": "Point",
                "coordinates": [
                  10.8776976,
                  48.0498416
                ]
              }
            },
            {
              "type": "Feature",
              "properties": {
                "id": "5358623037",
                "osm_type": "node",
                "lat": 48.0501504,
                "lon": 10.8767146,
                "check_date": "2024-05-10",
                "name": "Kahmke",
                "opening_hours": "Tu-Fr 10:00-18:00; Sa 10:00-13:00",
                "shop": "jewelry",
                "wheelchair": "no"
              },
              "geometry": {
                "type": "Point",
                "coordinates": [
                  10.8767146,
                  48.0501504
                ]
              }
            },
            {
              "type": "Feature",
              "properties": {
                "id": "5359291334",
                "osm_type": "node",
                "lat": 48.051304,
                "lon": 10.8765946,
                "shop": "jewelry",
                "wheelchair": "limited"
              },
              "geometry": {
                "type": "Point",
                "coordinates": [
                  10.8765946,
                  48.051304
                ]
              }
            },
            {
              "type": "Feature",
              "properties": {
                "id": "5364033084",
                "osm_type": "node",
                "lat": 48.0528517,
                "lon": 10.8771676,
                "name": "Schmuck Ambiente",
                "shop": "jewelry",
                "wheelchair": "limited"
              },
              "geometry": {
                "type": "Point",
                "coordinates": [
                  10.8771676,
                  48.0528517
                ]
              }
            },
            {
              "type": "Feature",
              "properties": {
                "id": "5364033091",
                "osm_type": "node",
                "lat": 48.052303,
                "lon": 10.87682,
                "name": "Juwelier Miller",
                "shop": "jewelry"
              },
              "geometry": {
                "type": "Point",
                "coordinates": [
                  10.87682,
                  48.052303
                ]
              }
            },
            {
              "type": "Feature",
              "properties": {
                "id": "5365682821",
                "osm_type": "node",
                "lat": 48.05134,
                "lon": 10.877591,
                "name": "Goldene Zeiten Juweliere GbR",
                "phone": "+4981916474348",
                "shop": "jewelry",
                "smoking": "no",
                "website": "https://www.goldene-zeiten.info/",
                "wheelchair": "no"
              },
              "geometry": {
                "type": "Point",
                "coordinates": [
                  10.877591,
                  48.05134
                ]
              }
            },
            {
              "type": "Feature",
              "properties": {
                "id": "5365682826",
                "osm_type": "node",
                "lat": 48.0521753,
                "lon": 10.87753,
                "addr:city": "Landsberg am Lech",
                "addr:country": "DE",
                "addr:housenumber": "307",
                "addr:postcode": "86899",
                "addr:street": "Hinterer Anger",
                "craft": "jeweller",
                "email": "info@helleis.de",
                "fax": "+49 8191 921875",
                "name": "Werkstatt Barbara Helleis",
                "phone": "+49 8191 921875",
                "shop": "jewelry",
                "source": "local knowledge",
                "website": "https://helleis.de/"
              },
              "geometry": {
                "type": "Point",
                "coordinates": [
                  10.87753,
                  48.0521753
                ]
              }
            },
            {
              "type": "Feature",
              "properties": {
                "id": "5365682835",
                "osm_type": "node",
                "lat": 48.0527173,
                "lon": 10.8773172,
                "name": "GlanzPunkte",
                "phone": "+49 8191 305884",
                "shop": "jewelry",
                "wheelchair": "no"
              },
              "geometry": {
                "type": "Point",
                "coordinates": [
                  10.8773172,
                  48.0527173
                ]
              }
            },
            {
              "type": "Feature",
              "properties": {
                "id": "9014427151",
                "osm_type": "node",
                "lat": 48.0350038,
                "lon": 10.7213581,
                "name": "horak",
                "shop": "jewelry",
                "website": "https://optikhorak.de/"
              },
              "geometry": {
                "type": "Point",
                "coordinates": [
                  10.7213581,
                  48.0350038
                ]
              }
            }
          ],
          "children": []
        },
        {
          "bbox": {
            "south": 48.02541825,
            "west": 10.961507249999999,
            "north": 48.190694875,
            "east": 11.438358999999998
          },
          "poiCount": 24,
          "leafCount": 24,
          "averagePosition": [
            11.329440791666668,
            48.146089716666665
          ],
          "data": [
            {
              "type": "Feature",
              "properties": {
                "id": "433827395",
                "osm_type": "node",
                "lat": 48.1801801,
                "lon": 11.2548753,
                "addr:city": "Fürstenfeldbruck",
                "addr:country": "DE",
                "addr:housenumber": "8",
                "addr:postcode": "82256",
                "addr:street": "Augsburger Straße",
                "check_date:opening_hours": "2024-10-13",
                "name": "Schön Uhren und Schmuck",
                "opening_hours": "Mo-Sa 10:00-12:00, Mo,Tu,Th,Fr 15:00-17:00",
                "phone": "+49 8141 41800",
                "shop": "jewelry"
              },
              "geometry": {
                "type": "Point",
                "coordinates": [
                  11.2548753,
                  48.1801801
                ]
              }
            },
            {
              "type": "Feature",
              "properties": {
                "id": "470928747",
                "osm_type": "node",
                "lat": 48.1282732,
                "lon": 11.3655949,
                "addr:city": "Germering",
                "addr:country": "DE",
                "addr:housenumber": "52",
                "addr:postcode": "82110",
                "addr:street": "Untere Bahnhofstraße",
                "name": "Juwelier Luboss",
                "opening_hours": "Mo-Fr 10:00-18:30; Sa 10:00-16:00",
                "shop": "jewelry",
                "website": "https://www.juwelier-luboss.de/"
              },
              "geometry": {
                "type": "Point",
                "coordinates": [
                  11.3655949,
                  48.1282732
                ]
              }
            },
            {
              "type": "Feature",
              "properties": {
                "id": "540870419",
                "osm_type": "node",
                "lat": 48.1342823,
                "lon": 11.3629701,
                "name": "Juwelier Huber",
                "opening_hours": "Tu-Sa 08:30-12:30, Tu-Fr 14:30-18:00",
                "shop": "jewelry"
              },
              "geometry": {
                "type": "Point",
                "coordinates": [
                  11.3629701,
                  48.1342823
                ]
              }
            },
            {
              "type": "Feature",
              "properties": {
                "id": "559732017",
                "osm_type": "node",
                "lat": 48.1793423,
                "lon": 11.2541942,
                "addr:city": "Fürstenfeldbruck",
                "addr:country": "DE",
                "addr:housenumber": "6",
                "addr:postcode": "82256",
                "addr:street": "Pucher Straße",
                "email": "info@dietruhe.de",
                "name": "Die Truhe",
                "opening_hours": "Tu-Fr 10:00-13:00,15:00-18:00; Sa 10:00-13:00",
                "phone": "+49 8141 91065",
                "shop": "jewelry",
                "website": "https://dietruhe.de/index.php"
              },
              "geometry": {
                "type": "Point",
                "coordinates": [
                  11.2541942,
                  48.1793423
                ]
              }
            },
            {
              "type": "Feature",
              "properties": {
                "id": "565633285",
                "osm_type": "node",
                "lat": 48.1787902,
                "lon": 11.2551419,
                "addr:city": "Fürstenfeldbruck",
                "addr:country": "DE",
                "addr:housenumber": "24",
                "addr:postcode": "82256",
                "addr:street": "Hauptstraße",
                "check_date": "2025-04-18",
                "name": "Schmuckland",
                "opening_hours": "Mo-Fr 10:00-18:30; Sa 10:00-16:00",
                "shop": "jewelry",
                "website": "https://www.schmuckland.de/",
                "wheelchair": "yes"
              },
              "geometry": {
                "type": "Point",
                "coordinates": [
                  11.2551419,
                  48.1787902
                ]
              }
            },
            {
              "type": "Feature",
              "properties": {
                "id": "565633295",
                "osm_type": "node",
                "lat": 48.1771658,
                "lon": 11.2557551,
                "addr:city": "Fürstenfeldbruck",
                "addr:country": "DE",
                "addr:housenumber": "2a",
                "addr:postcode": "82256",
                "addr:street": "Hauptstraße",
                "check_date:opening_hours": "2024-10-13",
                "email": "info@juwelier-baermann.de",
                "name": "Bärmann",
                "opening_hours": "Th,Fr 09:00-12:30,14:00-18:00; Sa 09:00-13:00; Mo-We 09:00-12:00",
                "phone": "+49 8141 5553",
                "shop": "jewelry",
                "website": "https://www.juwelier-baermann.de/",
                "wheelchair": "yes"
              },
              "geometry": {
                "type": "Point",
                "coordinates": [
                  11.2557551,
                  48.1771658
                ]
              }
            },
            {
              "type": "Feature",
              "properties": {
                "id": "570694156",
                "osm_type": "node",
                "lat": 48.1777825,
                "lon": 11.2559956,
                "addr:city": "Fürstenfeldbruck",
                "addr:country": "DE",
                "addr:housenumber": "8",
                "addr:postcode": "82256",
                "addr:street": "Hauptstraße",
                "check_date": "2024-03-20",
                "name": "Motiv Juwelier",
                "opening_hours": "Mo-Fr 09:30-12:30,14:15-18:00, Sa 09:30-13:00",
                "shop": "jewelry",
                "wheelchair": "yes"
              },
              "geometry": {
                "type": "Point",
                "coordinates": [
                  11.2559956,
                  48.1777825
                ]
              }
            },
            {
              "type": "Feature",
              "properties": {
                "id": "655140937",
                "osm_type": "node",
                "lat": 48.149366,
                "lon": 11.434781,
                "contact:fax": "+49 89 89689558",
                "contact:phone": "+49 89 89689559",
                "name": "Der Goldschmied",
                "opening_hours": "Mo-Fr 09:00-18:00; Sa 09:00-12:00; PH off",
                "operator": "Stefan Müller",
                "shop": "jewelry"
              },
              "geometry": {
                "type": "Point",
                "coordinates": [
                  11.434781,
                  48.149366
                ]
              }
            },
            {
              "type": "Feature",
              "properties": {
                "id": "850876800",
                "osm_type": "node",
                "lat": 48.1772942,
                "lon": 11.2532538,
                "addr:city": "Fürstenfeldbruck",
                "addr:country": "DE",
                "addr:housenumber": "18",
                "addr:postcode": "82256",
                "addr:street": "Schöngeisinger Straße",
                "name": "Ruby Aurelia",
                "opening_hours": "Mo-Fr 09:30-18:00; Sa 09:30-14:00",
                "shop": "jewelry"
              },
              "geometry": {
                "type": "Point",
                "coordinates": [
                  11.2532538,
                  48.1772942
                ]
              }
            },
            {
              "type": "Feature",
              "properties": {
                "id": "892190830",
                "osm_type": "node",
                "lat": 48.1372187,
                "lon": 11.3633883,
                "addr:city": "Germering",
                "addr:country": "DE",
                "addr:housenumber": "16a",
                "addr:postcode": "82110",
                "addr:street": "Augsburger Straße",
                "check_date": "2024-10-01",
                "name": "Goldschmied Herrmann",
                "opening_hours": "Mo-Fr 09:00-19:00; Sa 09:00-13:00",
                "shop": "jewelry"
              },
              "geometry": {
                "type": "Point",
                "coordinates": [
                  11.3633883,
                  48.1372187
                ]
              }
            },
            {
              "type": "Feature",
              "properties": {
                "id": "933515376",
                "osm_type": "node",
                "lat": 48.1252863,
                "lon": 11.3660767,
                "name": "Uhren Schmuck Weinberger",
                "shop": "jewelry"
              },
              "geometry": {
                "type": "Point",
                "coordinates": [
                  11.3660767,
                  48.1252863
                ]
              }
            },
            {
              "type": "Feature",
              "properties": {
                "id": "1373711502",
                "osm_type": "node",
                "lat": 48.1588182,
                "lon": 11.4151164,
                "check_date": "2025-05-28",
                "name": "Heckner",
                "opening_hours": "Mo-Fr 09:00-12:30,14:30-18:00; We off",
                "shop": "jewelry",
                "wheelchair": "limited"
              },
              "geometry": {
                "type": "Point",
                "coordinates": [
                  11.4151164,
                  48.1588182
                ]
              }
            },
            {
              "type": "Feature",
              "properties": {
                "id": "3222883361",
                "osm_type": "node",
                "lat": 48.0528578,
                "lon": 11.092283,
                "contact:phone": "+49 8192 1003",
                "name": "Hahn Juwelier",
                "shop": "jewelry"
              },
              "geometry": {
                "type": "Point",
                "coordinates": [
                  11.092283,
                  48.0528578
                ]
              }
            },
            {
              "type": "Feature",
              "properties": {
                "id": "3719592425",
                "osm_type": "node",
                "lat": 48.1197902,
                "lon": 11.4277366,
                "level": "0",
                "name": "Erich Maria Egger",
                "opening_hours": "Mo-Fr 10:00-18:00; Sa 10:00-13:00",
                "shop": "jewelry"
              },
              "geometry": {
                "type": "Point",
                "coordinates": [
                  11.4277366,
                  48.1197902
                ]
              }
            },
            {
              "type": "Feature",
              "properties": {
                "id": "3719602225",
                "osm_type": "node",
                "lat": 48.1194862,
                "lon": 11.4274036,
                "description": "formerly interior_decoration",
                "name": "Saskia Deiters Schmuck",
                "old_name": "Stefanie Ludwig Intérieur",
                "opening_hours": "Tu-Fr 10:00-13:00,14:30-18:00;Sa 10:00-13:00;Su,Mo off",
                "shop": "jewelry"
              },
              "geometry": {
                "type": "Point",
                "coordinates": [
                  11.4274036,
                  48.1194862
                ]
              }
            },
            {
              "type": "Feature",
              "properties": {
                "id": "3719942725",
                "osm_type": "node",
                "lat": 48.1049312,
                "lon": 11.4158031,
                "check_date": "2017-04-09",
                "name": "Goldschmiede Anubis",
                "opening_hours": "Mo-Fr 09:00-12:30, 14:30-18:30; Sa 09:30-13:00; PH off",
                "operator": "Markus Prokisch",
                "shop": "jewelry"
              },
              "geometry": {
                "type": "Point",
                "coordinates": [
                  11.4158031,
                  48.1049312
                ]
              }
            },
            {
              "type": "Feature",
              "properties": {
                "id": "4109718792",
                "osm_type": "node",
                "lat": 48.1261044,
                "lon": 11.436634,
                "name": "Schmuckgoldschmiede Elstner",
                "operator": "Susanne Elstner",
                "shop": "jewelry",
                "website": "https://www.schmuckgoldschmiede.de/"
              },
              "geometry": {
                "type": "Point",
                "coordinates": [
                  11.436634,
                  48.1261044
                ]
              }
            },
            {
              "type": "Feature",
              "properties": {
                "id": "4767570416",
                "osm_type": "node",
                "lat": 48.1770279,
                "lon": 11.2531606,
                "addr:city": "Fürstenfeldbruck",
                "addr:housenumber": "19",
                "addr:postcode": "82256",
                "addr:street": "Schöngeisinger Straße",
                "email": "info@goldschmiede-atrium.de",
                "fax": "+49 8141 535104",
                "name": "Goldschmiede Atrium",
                "opening_hours": "We-Fr 10:00-18:00; Sa 10:00-13:00",
                "operator": "Peter Rieger",
                "phone": "+49 8141 535104",
                "shop": "jewelry",
                "website": "http://www.goldschmiede-atrium.de/"
              },
              "geometry": {
                "type": "Point",
                "coordinates": [
                  11.2531606,
                  48.1770279
                ]
              }
            },
            {
              "type": "Feature",
              "properties": {
                "id": "5047790248",
                "osm_type": "node",
                "lat": 48.09717,
                "lon": 11.4115737,
                "name": "Sanftl Schmuck & Uhren",
                "opening_hours": "Mo,Tu,Th,Fr 09:00-12:30, 14:00-18:00; We,Sa 09:00-12:30; PH off",
                "shop": "jewelry",
                "website": "https://www.juwelier-sanftl.de/"
              },
              "geometry": {
                "type": "Point",
                "coordinates": [
                  11.4115737,
                  48.09717
                ]
              }
            },
            {
              "type": "Feature",
              "properties": {
                "id": "6123576558",
                "osm_type": "node",
                "lat": 48.1763713,
                "lon": 11.2579834,
                "addr:city": "Fürstenfeldbruck",
                "addr:housenumber": "11",
                "addr:postcode": "82256",
                "addr:street": "Münchner Straße",
                "check_date": "2024-05-19",
                "email": "info@rubyaurelia.de",
                "name": "Ruby Aurelia",
                "opening_hours": "Mo-Fr 10:00-17:00;Sa off",
                "phone": "+49 8141 6251333",
                "shop": "jewelry",
                "website": "https://www.ruby-aurelia.de/"
              },
              "geometry": {
                "type": "Point",
                "coordinates": [
                  11.2579834,
                  48.1763713
                ]
              }
            },
            {
              "type": "Feature",
              "properties": {
                "id": "7181175326",
                "osm_type": "node",
                "lat": 48.1755128,
                "lon": 11.3625649,
                "name": "Watch Club",
                "opening_hours": "\"Termine nur nach Vereinbarung\"",
                "shop": "jewelry",
                "website": "https://www.ebay.de/str/Juwelier-Stahl",
                "wheelchair": "no"
              },
              "geometry": {
                "type": "Point",
                "coordinates": [
                  11.3625649,
                  48.1755128
                ]
              }
            },
            {
              "type": "Feature",
              "properties": {
                "id": "7450399850",
                "osm_type": "node",
                "lat": 48.1703895,
                "lon": 11.3223817,
                "addr:city": "Eichenau",
                "addr:housenumber": "16",
                "addr:postcode": "82223",
                "addr:street": "Hauptstraße",
                "name": "Die Goldschmiederei",
                "opening_hours": "Mo-We 10:00-13:00,14:00-18:00; Th-Sa 10:00-13:00",
                "shop": "jewelry",
                "website": "https://www.diegoldschmiederei.de"
              },
              "geometry": {
                "type": "Point",
                "coordinates": [
                  11.3223817,
                  48.1703895
                ]
              }
            },
            {
              "type": "Feature",
              "properties": {
                "id": "9351489868",
                "osm_type": "node",
                "lat": 48.1757462,
                "lon": 11.3619528,
                "addr:city": "Puchheim",
                "addr:country": "DE",
                "addr:housenumber": "57",
                "addr:postcode": "82178",
                "addr:street": "Lochhauser Straße",
                "email": "service@lovelyrings.de",
                "image": "https://www.lovelyrings.de/flmngr/files/verlobungsringe-mobile.jpg",
                "name": "Lovelyrings Onlineshop",
                "opening_hours": "Mo-Fr 09:00-17:00",
                "operator": "Andreas Nitsche",
                "payment:credit_cards": "yes",
                "payment:mastercard": "yes",
                "payment:visa": "yes",
                "phone": "+49 800 8989123",
                "shop": "jewelry",
                "website": "https://www.lovelyrings.de/"
              },
              "geometry": {
                "type": "Point",
                "coordinates": [
                  11.3619528,
                  48.1757462
                ]
              }
            },
            {
              "type": "Feature",
              "properties": {
                "id": "11270487116",
                "osm_type": "node",
                "lat": 48.1069659,
                "lon": 11.2999583,
                "addr:housenumber": "23",
                "addr:street": "Pollinger Straße",
                "check_date": "2025-08-23",
                "name": "Die Meister-Goldschmiede",
                "opening_hours": "Tu-Fr 08:30-12:30, Tu,Th,Fr 14:30-18:00, Sa 09:30-12:00",
                "shop": "jewelry"
              },
              "geometry": {
                "type": "Point",
                "coordinates": [
                  11.2999583,
                  48.1069659
                ]
              }
            }
          ],
          "children": []
        },
        {
          "bbox": {
            "south": 48.190694875,
            "west": 10.484655499999999,
            "north": 48.355971499999995,
            "east": 10.961507249999999
          },
          "poiCount": 8,
          "leafCount": 8,
          "averagePosition": [
            10.8504116375,
            48.318912125
          ],
          "data": [
            {
              "type": "Feature",
              "properties": {
                "id": "833164348",
                "osm_type": "node",
                "lat": 48.3420527,
                "lon": 10.8695515,
                "addr:city": "Augsburg",
                "addr:country": "DE",
                "addr:housenumber": "4",
                "addr:postcode": "86199",
                "addr:street": "Klausenberg",
                "description": "Bendixen-Braun in Augsburg Göggingen – seit 1997 Fachgeschäft für Schmuck, Uhren, Spirituosen und Zigarren.",
                "image": "https://cdn.shopify.com/s/files/1/0786/5827/3547/files/Laden_vorne.jpg?v=1741373747",
                "instagram": "https://www.instagram.com/bendixenbraun",
                "name": "Bendixen-Braun Schmuck, Zeit & Genuss",
                "official_name": "Claudia Bendixen-Braun Schmuck, Zeit & Genuss",
                "opening_hours": "Mo-Fr 09:00-17:00",
                "operator": "Claudia Bendixen-Braun",
                "payment:cards": "yes",
                "payment:cash": "yes",
                "payment:coins": "yes",
                "payment:contactless": "yes",
                "payment:credit_cards": "yes",
                "payment:debit_cards": "yes",
                "payment:maestro": "yes",
                "payment:mastercard": "yes",
                "payment:notes": "yes",
                "payment:visa": "yes",
                "phone": "+49 821 991788",
                "shop": "jewelry",
                "website": "https://bendixen-braun.de/",
                "wheelchair": "limited"
              },
              "geometry": {
                "type": "Point",
                "coordinates": [
                  10.8695515,
                  48.3420527
                ]
              }
            },
            {
              "type": "Feature",
              "properties": {
                "id": "1119777462",
                "osm_type": "node",
                "lat": 48.312008,
                "lon": 10.9064006,
                "addr:city": "Augsburg",
                "addr:housenumber": "9",
                "addr:postcode": "86179",
                "addr:street": "Hofackerstraße",
                "check_date:opening_hours": "2023-04-15",
                "name": "Goldschmiede Haunstetten",
                "opening_hours": "Mo-Fr 09:30-13:00, Mo,We-Fr 14:30-18:00, Sa 09:30-13:00",
                "shop": "jewelry",
                "website": "https://silberschmiede.de/filialen"
              },
              "geometry": {
                "type": "Point",
                "coordinates": [
                  10.9064006,
                  48.312008
                ]
              }
            },
            {
              "type": "Feature",
              "properties": {
                "id": "1185743147",
                "osm_type": "node",
                "lat": 48.3550742,
                "lon": 10.9419819,
                "addr:city": "Augsburg",
                "addr:country": "DE",
                "addr:housenumber": "117",
                "addr:postcode": "86163",
                "addr:street": "Friedberger Straße",
                "email": "goldschmiedewe@aol.com",
                "fax": "+49 821 2639384",
                "name": "werner - Goldschmiede",
                "phone": "+49 821 62102",
                "shop": "jewelry",
                "website": "https://www.augsburger-goldschmiede.de/",
                "wheelchair": "yes"
              },
              "geometry": {
                "type": "Point",
                "coordinates": [
                  10.9419819,
                  48.3550742
                ]
              }
            },
            {
              "type": "Feature",
              "properties": {
                "id": "2141849173",
                "osm_type": "node",
                "lat": 48.3405466,
                "lon": 10.8679846,
                "addr:city": "Augsburg",
                "addr:country": "DE",
                "addr:housenumber": "10",
                "addr:postcode": "86199",
                "addr:street": "Bürgermeister-Aurnhammer-Straße",
                "entrance": "yes",
                "name": "Juwelier Saphir",
                "opening_hours": "Mo-Fr 09:00-12:30, 13:30-18:00, Sa 09:00-15:00",
                "shop": "jewelry",
                "website": "http://www.juwelier-saphir.com",
                "wheelchair": "no"
              },
              "geometry": {
                "type": "Point",
                "coordinates": [
                  10.8679846,
                  48.3405466
                ]
              }
            },
            {
              "type": "Feature",
              "properties": {
                "id": "3036613815",
                "osm_type": "node",
                "lat": 48.2941285,
                "lon": 10.5329548,
                "addr:city": "Ziemetshausen",
                "addr:country": "DE",
                "addr:housenumber": "3",
                "addr:postcode": "86473",
                "addr:street": "Bahnhofstraße",
                "contact:phone": "+49 8284 287",
                "contact:website": "http://seethaler-optik.de/",
                "name": "Seethaler",
                "opening_hours": "Mo-Fr 08:30-12:00,14:00-18:00; We,Sa 08:30-12:00",
                "shop": "jewelry"
              },
              "geometry": {
                "type": "Point",
                "coordinates": [
                  10.5329548,
                  48.2941285
                ]
              }
            },
            {
              "type": "Feature",
              "properties": {
                "id": "4519614734",
                "osm_type": "node",
                "lat": 48.3331895,
                "lon": 10.9006732,
                "addr:city": "Augsburg",
                "addr:housenumber": "24a",
                "addr:postcode": "86159",
                "addr:street": "Salomon-Idler-Straße",
                "check_date:opening_hours": "2025-09-02",
                "contact:website": "https://www.kolibri-schmuck.de/",
                "name": "Kolibri Goldschmiede",
                "opening_hours": "Tu-Fr 09:30-13:00,14:30-19:00; Sa 09:00-13:00",
                "shop": "jewelry",
                "wheelchair": "yes"
              },
              "geometry": {
                "type": "Point",
                "coordinates": [
                  10.9006732,
                  48.3331895
                ]
              }
            },
            {
              "type": "Feature",
              "properties": {
                "id": "5022129137",
                "osm_type": "node",
                "lat": 48.2873606,
                "lon": 10.8927925,
                "addr:city": "Königsbrunn",
                "addr:housenumber": "17",
                "addr:street": "Germanenstraße",
                "name": "Gold Ankauf",
                "opening_hours": "Mo-Fr 9:00-18:00, Sa 9:00-15:00",
                "phone": "+49 8231 6058930",
                "shop": "jewelry"
              },
              "geometry": {
                "type": "Point",
                "coordinates": [
                  10.8927925,
                  48.2873606
                ]
              }
            },
            {
              "type": "Feature",
              "properties": {
                "id": "5121912384",
                "osm_type": "node",
                "lat": 48.2869369,
                "lon": 10.890954,
                "name": "Juwelier Saphir",
                "phone": "+49 8231 608290",
                "shop": "jewelry",
                "wheelchair": "yes"
              },
              "geometry": {
                "type": "Point",
                "coordinates": [
                  10.890954,
                  48.2869369
                ]
              }
            }
          ],
          "children": []
        },
        {
          "bbox": {
            "south": 48.190694875,
            "west": 10.961507249999999,
            "north": 48.355971499999995,
            "east": 11.438358999999998
          },
          "poiCount": 11,
          "leafCount": 11,
          "averagePosition": [
            11.119595709090909,
            48.281058154545455
          ],
          "data": [
            {
              "type": "Feature",
              "properties": {
                "id": "3206797864",
                "osm_type": "node",
                "lat": 48.2655046,
                "lon": 10.986243,
                "name": "Spengler",
                "opening_hours": "Mo-Fr 09:00-18:00; Sa 09:00-14:00",
                "phone": "+49 8233 92402",
                "shop": "jewelry",
                "website": "https://www.spengler-mering.de",
                "wheelchair": "yes"
              },
              "geometry": {
                "type": "Point",
                "coordinates": [
                  10.986243,
                  48.2655046
                ]
              }
            },
            {
              "type": "Feature",
              "properties": {
                "id": "3645001534",
                "osm_type": "node",
                "lat": 48.2682844,
                "lon": 10.9867864,
                "name": "Goldschmiede Hohmann",
                "opening_hours": "Mo-Fr 09:00-12:00,14:00-18:00; Sa 09:30-12:00",
                "phone": "+49 8233 789187",
                "shop": "jewelry",
                "website": "https://goldschmiede-hohmann.de"
              },
              "geometry": {
                "type": "Point",
                "coordinates": [
                  10.9867864,
                  48.2682844
                ]
              }
            },
            {
              "type": "Feature",
              "properties": {
                "id": "4001434846",
                "osm_type": "node",
                "lat": 48.355305,
                "lon": 10.9826532,
                "name": "City Juwelier",
                "opening_hours": "Mo,Tu,Th,Fr 09:30-18:00; Sa 09:30-13:00",
                "operator": "Ögünc Isa",
                "phone": "+49 821 60 99 98 80",
                "shop": "jewelry"
              },
              "geometry": {
                "type": "Point",
                "coordinates": [
                  10.9826532,
                  48.355305
                ]
              }
            },
            {
              "type": "Feature",
              "properties": {
                "id": "4519354063",
                "osm_type": "node",
                "lat": 48.3553254,
                "lon": 10.9794071,
                "addr:city": "Friedberg",
                "addr:housenumber": "2",
                "addr:postcode": "86316",
                "addr:street": "St.-Jakobs-Platz",
                "name": "Juwelier Hansjörg Fritsche",
                "office": "company",
                "phone": "+49 821 60 96 96",
                "shop": "jewelry",
                "website": "https://www.hansjoerg-fritsche.de/"
              },
              "geometry": {
                "type": "Point",
                "coordinates": [
                  10.9794071,
                  48.3553254
                ]
              }
            },
            {
              "type": "Feature",
              "properties": {
                "id": "7890947058",
                "osm_type": "node",
                "lat": 48.3052753,
                "lon": 10.965254,
                "addr:city": "Kissing",
                "addr:housenumber": "8",
                "addr:postcode": "86438",
                "addr:street": "Kornstraße",
                "name": "Juwelier Frey",
                "phone": "+49 8233 5769",
                "shop": "jewelry"
              },
              "geometry": {
                "type": "Point",
                "coordinates": [
                  10.965254,
                  48.3052753
                ]
              }
            },
            {
              "type": "Feature",
              "properties": {
                "id": "8412835945",
                "osm_type": "node",
                "lat": 48.3028673,
                "lon": 10.9652557,
                "addr:city": "Kissing",
                "addr:housenumber": "20",
                "addr:postcode": "86438",
                "addr:street": "Tulpenstraße",
                "name": "Goldschmiede Häcker",
                "phone": "+49 8233 89 32",
                "shop": "jewelry",
                "website": "http://www.goldschmiede-haecker.de/"
              },
              "geometry": {
                "type": "Point",
                "coordinates": [
                  10.9652557,
                  48.3028673
                ]
              }
            },
            {
              "type": "Feature",
              "properties": {
                "id": "9311247691",
                "osm_type": "node",
                "lat": 48.3546568,
                "lon": 10.9799636,
                "name": "Gruner",
                "phone": "+49 821 601833",
                "shop": "jewelry",
                "website": "https://juwelier-gruner.de"
              },
              "geometry": {
                "type": "Point",
                "coordinates": [
                  10.9799636,
                  48.3546568
                ]
              }
            },
            {
              "type": "Feature",
              "properties": {
                "id": "1622909555",
                "osm_type": "node",
                "lat": 48.2082814,
                "lon": 11.3292266,
                "name": "Hauser",
                "opening_hours": "Mo,Tu 09:00-12:00,14:00-18:00; We 09:00-12:00; Th,Fr 09:00-12:00,14:00-18:00; Sa 09:00-12:30",
                "shop": "jewelry",
                "wheelchair": "yes"
              },
              "geometry": {
                "type": "Point",
                "coordinates": [
                  11.3292266,
                  48.2082814
                ]
              }
            },
            {
              "type": "Feature",
              "properties": {
                "id": "1625833442",
                "osm_type": "node",
                "lat": 48.2215542,
                "lon": 11.3318163,
                "addr:city": "Olching",
                "addr:country": "DE",
                "addr:housenumber": "13",
                "addr:postcode": "82140",
                "addr:street": "Hermann-Böcker-Straße",
                "name": "E+J Schmuck",
                "shop": "jewelry",
                "wheelchair": "yes"
              },
              "geometry": {
                "type": "Point",
                "coordinates": [
                  11.3318163,
                  48.2215542
                ]
              }
            },
            {
              "type": "Feature",
              "properties": {
                "id": "3899426469",
                "osm_type": "node",
                "lat": 48.1938683,
                "lon": 11.3725491,
                "check_date:opening_hours": "2024-08-22",
                "name": "Egger Karl",
                "opening_hours": "Mo,Tu,Th-Sa 10:00-12:30, Mo,Tu,Th,Fr 15:00-18:00",
                "shop": "jewelry"
              },
              "geometry": {
                "type": "Point",
                "coordinates": [
                  11.3725491,
                  48.1938683
                ]
              }
            },
            {
              "type": "Feature",
              "properties": {
                "id": "11089124930",
                "osm_type": "node",
                "lat": 48.260717,
                "lon": 11.4363978,
                "name": "Schmuck Galerie",
                "shop": "jewelry"
              },
              "geometry": {
                "type": "Point",
                "coordinates": [
                  11.4363978,
                  48.260717
                ]
              }
            }
          ],
          "children": []
        }
      ]
    }
  ]
}