{
  "bbox": {
    "south": 47.694865,
    "west": 13.345766,
    "north": 48.355971499999995,
    "east": 15.253173
  },
  "poiCount": 131,
  "leafCount": 0,
  "averagePosition": [
    14.167192585496183,
    48.17312745725191
  ],
  "data": [],
  "children": [
    {
      "bbox": {
        "south": 47.694865,
        "west": 13.345766,
        "north": 48.02541825,
        "east": 14.2994695
      },
      "poiCount": 18,
      "leafCount": 18,
      "averagePosition": [
        13.667192316666666,
        47.87990144444444
      ],
      "data": [
        {
          "type": "Feature",
          "properties": {
            "id": "1306232471",
            "osm_type": "node",
            "lat": 47.856777,
            "lon": 13.3494443,
            "name": "Schmuckatelier Baischer",
            "operator": "Baischer",
            "shop": "jewelry"
          },
          "geometry": {
            "type": "Point",
            "coordinates": [
              13.3494443,
              47.856777
            ]
          }
        },
        {
          "type": "Feature",
          "properties": {
            "id": "5916242019",
            "osm_type": "node",
            "lat": 47.8559399,
            "lon": 13.3496939,
            "name": "Juwelenstiege",
            "shop": "jewelry"
          },
          "geometry": {
            "type": "Point",
            "coordinates": [
              13.3496939,
              47.8559399
            ]
          }
        },
        {
          "type": "Feature",
          "properties": {
            "id": "9041591426",
            "osm_type": "node",
            "lat": 47.7373597,
            "lon": 13.4481912,
            "addr:city": "St. Wolfgang",
            "addr:country": "AT",
            "addr:housenumber": "74",
            "addr:postcode": "5360",
            "addr:street": "Markt",
            "brand": "Swarovski",
            "brand:wikidata": "Q611115",
            "brand:wikipedia": "en:Swarovski",
            "name": "Swarovski",
            "opening_hours": "Mo-Su 10:00-20:00",
            "phone": "+43 6138230635",
            "shop": "jewelry",
            "website": "https://www.swarovski.com/de-CH/store/0000050831/im-weissen-roessl-am-wolfgangsee-st-wolfgang/"
          },
          "geometry": {
            "type": "Point",
            "coordinates": [
              13.4481912,
              47.7373597
            ]
          }
        },
        {
          "type": "Feature",
          "properties": {
            "id": "729814514",
            "osm_type": "node",
            "lat": 47.7109104,
            "lon": 13.6218962,
            "addr:city": "Bad Ischl",
            "addr:country": "AT",
            "addr:housenumber": "11",
            "addr:postcode": "4820",
            "addr:street": "Pfarrgasse",
            "contact:email": "office@schodterer.at",
            "contact:fax": "+43 6132 23 729 29",
            "contact:phone": "+43 6132 23 729",
            "name": "Juwelier Schodterer",
            "shop": "jewelry",
            "website": "https://www.schodterer.at/",
            "wheelchair": "no"
          },
          "geometry": {
            "type": "Point",
            "coordinates": [
              13.6218962,
              47.7109104
            ]
          }
        },
        {
          "type": "Feature",
          "properties": {
            "id": "2333798694",
            "osm_type": "node",
            "lat": 47.8063378,
            "lon": 13.7713481,
            "craft": "jeweller",
            "entrance": "yes",
            "name": "Goldschmiede Reischauer",
            "opening_hours": "Mo,Tu,Th,Fr 08:00-12:00,14:00-18:00; We,Sa 08:00-12:00",
            "operator": "Josef Reischauer",
            "shop": "jewelry",
            "wheelchair": "yes"
          },
          "geometry": {
            "type": "Point",
            "coordinates": [
              13.7713481,
              47.8063378
            ]
          }
        },
        {
          "type": "Feature",
          "properties": {
            "id": "3885827562",
            "osm_type": "node",
            "lat": 47.7123916,
            "lon": 13.6228686,
            "addr:city": "Bad Ischl",
            "addr:country": "AT",
            "addr:housenumber": "3",
            "addr:postcode": "4820",
            "addr:street": "Kaiser Franz Josef Straße",
            "contact:phone": "+43 6132 21 928",
            "contact:website": "http://www.tiktak.at",
            "name": "tik tak",
            "opening_hours": "Mo-Fr 08:30-8:00; Sa 09:00-17:00",
            "shop": "jewelry",
            "wheelchair": "limited"
          },
          "geometry": {
            "type": "Point",
            "coordinates": [
              13.6228686,
              47.7123916
            ]
          }
        },
        {
          "type": "Feature",
          "properties": {
            "id": "3885842052",
            "osm_type": "node",
            "lat": 47.7131697,
            "lon": 13.6216784,
            "addr:city": "Bad Ischl",
            "addr:country": "AT",
            "addr:housenumber": "21",
            "addr:postcode": "4820",
            "addr:street": "Kreuzplatz",
            "contact:email": "office@baumann-juwelen.at",
            "contact:phone": "+43 6132 23 57 33",
            "contact:website": "http://www.baumann-juwelen.at",
            "name": "Baumann",
            "opening_hours": "Mo-Fr 09:00-12:00, 14:00-18:00; Sa 09:00-13:00",
            "shop": "jewelry"
          },
          "geometry": {
            "type": "Point",
            "coordinates": [
              13.6216784,
              47.7131697
            ]
          }
        },
        {
          "type": "Feature",
          "properties": {
            "id": "5848888462",
            "osm_type": "node",
            "lat": 47.7114249,
            "lon": 13.6231992,
            "name": "Seidl",
            "shop": "jewelry"
          },
          "geometry": {
            "type": "Point",
            "coordinates": [
              13.6231992,
              47.7114249
            ]
          }
        },
        {
          "type": "Feature",
          "properties": {
            "id": "1426815132",
            "osm_type": "node",
            "lat": 48.0093305,
            "lon": 13.6564382,
            "addr:city": "Vöcklabruck",
            "addr:country": "AT",
            "addr:housenumber": "3",
            "addr:postcode": "4840",
            "addr:street": "Vorstadt",
            "name": "Schmuckstube",
            "shop": "jewelry",
            "wheelchair": "limited"
          },
          "geometry": {
            "type": "Point",
            "coordinates": [
              13.6564382,
              48.0093305
            ]
          }
        },
        {
          "type": "Feature",
          "properties": {
            "id": "1426848466",
            "osm_type": "node",
            "lat": 48.008589,
            "lon": 13.6547488,
            "addr:city": "Vöcklabruck",
            "addr:country": "AT",
            "addr:postcode": "4840",
            "addr:street": "Stadtplatz",
            "name": "Krautgartner",
            "shop": "jewelry",
            "wheelchair": "yes"
          },
          "geometry": {
            "type": "Point",
            "coordinates": [
              13.6547488,
              48.008589
            ]
          }
        },
        {
          "type": "Feature",
          "properties": {
            "id": "1446234479",
            "osm_type": "node",
            "lat": 48.0112221,
            "lon": 13.7234906,
            "addr:city": "Attnang-Puchheim",
            "addr:country": "AT",
            "addr:housenumber": "33",
            "addr:postcode": "4800",
            "addr:street": "Römerstraße",
            "email": "ingrid.hoeckner@goldschmied.cc",
            "fax": "+43-7674-64696",
            "name": "Atelier Höckner",
            "opening_hours": "Mo off; Tu-Fr 09:30-12:00,14:00-18:00; Sa 09:30-12:00",
            "operator": "Ingrid Höckner",
            "phone": "+43-7674-64696",
            "shop": "jewelry",
            "step_count": "1",
            "website": "http://www.goldschmied.cc",
            "wheelchair": "yes"
          },
          "geometry": {
            "type": "Point",
            "coordinates": [
              13.7234906,
              48.0112221
            ]
          }
        },
        {
          "type": "Feature",
          "properties": {
            "id": "1885108180",
            "osm_type": "node",
            "lat": 48.0024663,
            "lon": 13.6097476,
            "addr:city": "Timelkam",
            "addr:country": "AT",
            "addr:housenumber": "10",
            "addr:postcode": "4850",
            "addr:street": "Linzer Straße",
            "name": "Hofstadler Anita Juwelier",
            "phone": "+43 7672 96710",
            "shop": "jewelry",
            "wheelchair": "no"
          },
          "geometry": {
            "type": "Point",
            "coordinates": [
              13.6097476,
              48.0024663
            ]
          }
        },
        {
          "type": "Feature",
          "properties": {
            "id": "2626501023",
            "osm_type": "node",
            "lat": 48.0107911,
            "lon": 13.7202658,
            "UID": "ATU42967704",
            "addr:city": "Attnang-Puchheim",
            "addr:country": "AT",
            "addr:housenumber": "12",
            "addr:postcode": "4800",
            "addr:street": "Rathausplatz",
            "brand": "Diadoro",
            "contact:email": "office@juwelier-dreier.at",
            "contact:fax": "07674 66888 - 8",
            "contact:phone": "07674 66888 - 8",
            "craft": "jeweller",
            "entrance": "yes",
            "name": "Dreier",
            "opening_hours": "Mo-Th 08:30-12:00,14:00-18:00; Fr 08:00-12:00,14:00-18:00; Sa 08:30-12:00; \"on_request\"",
            "operator": "Peter Dreier",
            "payment:cash": "yes",
            "payment:diners_club": "yes",
            "payment:maestro": "yes",
            "payment:mastercard": "yes",
            "payment:visa": "yes",
            "shop": "jewelry",
            "step_count": "2",
            "wheelchair": "no"
          },
          "geometry": {
            "type": "Point",
            "coordinates": [
              13.7202658,
              48.0107911
            ]
          }
        },
        {
          "type": "Feature",
          "properties": {
            "id": "3350253622",
            "osm_type": "node",
            "lat": 47.9179793,
            "lon": 13.7989242,
            "name": "Marx",
            "shop": "jewelry"
          },
          "geometry": {
            "type": "Point",
            "coordinates": [
              13.7989242,
              47.9179793
            ]
          }
        },
        {
          "type": "Feature",
          "properties": {
            "id": "3350372476",
            "osm_type": "node",
            "lat": 47.917888,
            "lon": 13.7983433,
            "addr:city": "Gmunden",
            "addr:country": "AT",
            "addr:housenumber": "9",
            "addr:postcode": "4810",
            "addr:street": "Theatergasse",
            "check_date:opening_hours": "2021-08-03",
            "email": "eckmann@schloss-ort.com",
            "fax": "+43 7612 65261",
            "name": "Eckmann",
            "opening_hours": "Mo,Tu,Th,Fr 09:00-12:00,15:00-18:00; Sa 09:00-12:30",
            "phone": "+43 7612 65261",
            "shop": "jewelry",
            "website": "https://schloss-ort.com/wp"
          },
          "geometry": {
            "type": "Point",
            "coordinates": [
              13.7983433,
              47.917888
            ]
          }
        },
        {
          "type": "Feature",
          "properties": {
            "id": "5645267529",
            "osm_type": "node",
            "lat": 47.9461734,
            "lon": 13.5946895,
            "email": "schmuck-koller@aon.at",
            "name": "Schmuck-Uhren Koller",
            "phone": "07662 8855",
            "shop": "jewelry",
            "website": "https://www.schmuck-koller.at/"
          },
          "geometry": {
            "type": "Point",
            "coordinates": [
              13.5946895,
              47.9461734
            ]
          }
        },
        {
          "type": "Feature",
          "properties": {
            "id": "12250336675",
            "osm_type": "node",
            "lat": 48.0039462,
            "lon": 13.922315,
            "name": "Gassenbauer",
            "opening_hours": "Mo,Tu,Th,Fr 08:30-12:00,14:00-18:00; We,Sa 08:30-12:00",
            "shop": "jewelry"
          },
          "geometry": {
            "type": "Point",
            "coordinates": [
              13.922315,
              48.0039462
            ]
          }
        },
        {
          "type": "Feature",
          "properties": {
            "id": "5153349802",
            "osm_type": "node",
            "lat": 47.9055291,
            "lon": 14.1221788,
            "contact:phone": "+43 7582 81312",
            "name": "Öllinger",
            "opening_hours": "Mo-Fr 08:30-12:30, 14:00-18:00; Sa 08:30-12:30",
            "shop": "jewelry",
            "website": "https://www.juwelier-oellinger.at/kontakt/"
          },
          "geometry": {
            "type": "Point",
            "coordinates": [
              14.1221788,
              47.9055291
            ]
          }
        }
      ],
      "children": []
    },
    {
      "bbox": {
        "south": 47.694865,
        "west": 14.2994695,
        "north": 48.02541825,
        "east": 15.253173
      },
      "poiCount": 3,
      "leafCount": 3,
      "averagePosition": [
        14.868557866666668,
        47.9411019
      ],
      "data": [
        {
          "type": "Feature",
          "properties": {
            "id": "10603822408",
            "osm_type": "node",
            "lat": 47.8581596,
            "lon": 14.6654385,
            "addr:city": "Weyer",
            "addr:country": "AT",
            "addr:postcode": "3335",
            "contact:phone": "+43 7355 7053",
            "name": "Christian Ahrer",
            "shop": "jewelry"
          },
          "geometry": {
            "type": "Point",
            "coordinates": [
              14.6654385,
              47.8581596
            ]
          }
        },
        {
          "type": "Feature",
          "properties": {
            "id": "1540213000",
            "osm_type": "node",
            "lat": 47.9606191,
            "lon": 14.7733927,
            "addr:city": "Waidhofen an der Ybbs",
            "addr:country": "AT",
            "addr:housenumber": "38",
            "addr:postcode": "3340",
            "addr:street": "Unterer Stadtplatz",
            "contact:facebook": "https://www.facebook.com/uhrenschmuckhoerhager/",
            "contact:phone": "+43 7442 546 13",
            "name": "Hörhager",
            "opening_hours": "Mo-Fr 09:00-12:00,14:00-18:00; Sa 09:00-12:00",
            "shop": "jewelry",
            "wheelchair": "no"
          },
          "geometry": {
            "type": "Point",
            "coordinates": [
              14.7733927,
              47.9606191
            ]
          }
        },
        {
          "type": "Feature",
          "properties": {
            "id": "8606653820",
            "osm_type": "node",
            "lat": 48.004527,
            "lon": 15.1668424,
            "name": "Two 4 sharP Art OG",
            "phone": "+436769195604",
            "shop": "jewelry",
            "website": "https://www.24sharpart.at/"
          },
          "geometry": {
            "type": "Point",
            "coordinates": [
              15.1668424,
              48.004527
            ]
          }
        }
      ],
      "children": []
    },
    {
      "bbox": {
        "south": 48.02541825,
        "west": 13.345766,
        "north": 48.355971499999995,
        "east": 14.2994695
      },
      "poiCount": 87,
      "leafCount": 0,
      "averagePosition": [
        14.110930836781609,
        48.23889940804598
      ],
      "data": [],
      "children": [
        {
          "bbox": {
            "south": 48.02541825,
            "west": 13.345766,
            "north": 48.190694875,
            "east": 13.82261775
          },
          "poiCount": 1,
          "leafCount": 1,
          "averagePosition": [
            13.7360585,
            48.140236
          ],
          "data": [
            {
              "type": "Feature",
              "properties": {
                "id": "2153669358",
                "osm_type": "node",
                "lat": 48.140236,
                "lon": 13.7360585,
                "name": "Andrea Schmuck",
                "shop": "jewelry"
              },
              "geometry": {
                "type": "Point",
                "coordinates": [
                  13.7360585,
                  48.140236
                ]
              }
            }
          ],
          "children": []
        },
        {
          "bbox": {
            "south": 48.02541825,
            "west": 13.82261775,
            "north": 48.190694875,
            "east": 14.2994695
          },
          "poiCount": 15,
          "leafCount": 15,
          "averagePosition": [
            14.037111373333335,
            48.14028914666667
          ],
          "data": [
            {
              "type": "Feature",
              "properties": {
                "id": "1626579328",
                "osm_type": "node",
                "lat": 48.1573544,
                "lon": 14.0259022,
                "addr:city": "Wels",
                "addr:country": "AT",
                "addr:housenumber": "36",
                "addr:postcode": "4600",
                "addr:street": "Stadtplatz",
                "name": "Feichtinger Schmuckhandel",
                "opening_hours": "Tu-Fr 10:00-18:00; Sa 09:00-13:00; PH off",
                "payment:credit_cards": "yes",
                "payment:debit_cards": "yes",
                "shop": "jewelry",
                "website": "https://www.feichtinger.biz/",
                "wheelchair": "yes"
              },
              "geometry": {
                "type": "Point",
                "coordinates": [
                  14.0259022,
                  48.1573544
                ]
              }
            },
            {
              "type": "Feature",
              "properties": {
                "id": "1636173333",
                "osm_type": "node",
                "lat": 48.1601542,
                "lon": 14.025965,
                "addr:city": "Wels",
                "addr:country": "AT",
                "addr:housenumber": "3",
                "addr:postcode": "4600",
                "addr:street": "Pfarrgasse",
                "email": "office@juwelier-ecker.at",
                "fax": "+43 7242 47062",
                "name": "Ecker Uhren Juwelen eU",
                "opening_hours": "Mo-Fr 08:00-12:00,14:00-18:00;Sa 08:30-12:30,13:30-16:00",
                "operator": "Kurt Ecker",
                "phone": "+43 7242 47062",
                "shop": "jewelry",
                "website": "http://www.juwelier-ecker.at/"
              },
              "geometry": {
                "type": "Point",
                "coordinates": [
                  14.025965,
                  48.1601542
                ]
              }
            },
            {
              "type": "Feature",
              "properties": {
                "id": "1636173336",
                "osm_type": "node",
                "lat": 48.1593032,
                "lon": 14.0264038,
                "addr:city": "Wels",
                "addr:country": "AT",
                "addr:housenumber": "11",
                "addr:postcode": "4600",
                "addr:street": "Pfarrgasse",
                "email": "uhren@schmuck-kastner.at",
                "fax": "+43 7242 46006",
                "name": "Kastner",
                "opening_hours": "Mo-Fr 08:00-12:00,14:00-18:00;Sa 08:30-12:00",
                "phone": "+43 7242 46006",
                "shop": "jewelry",
                "website": "https://www.schmuck-kastner.at/",
                "wheelchair": "no"
              },
              "geometry": {
                "type": "Point",
                "coordinates": [
                  14.0264038,
                  48.1593032
                ]
              }
            },
            {
              "type": "Feature",
              "properties": {
                "id": "1640610436",
                "osm_type": "node",
                "lat": 48.162128,
                "lon": 14.0251318,
                "addr:city": "Wels",
                "addr:country": "AT",
                "addr:housenumber": "22",
                "addr:postcode": "4600",
                "addr:street": "Bahnhofstraße",
                "email": "e.m.krabath@aon.at",
                "fax": "+43 7242 46839",
                "name": "Krabath",
                "opening_hours": "Sa 08:30-12:30; Mo-Fr 08:30-12:30,13:30-18:00",
                "phone": "+43 7242 46839",
                "shop": "jewelry",
                "website": "https://www.shoppingwels.at/krabath"
              },
              "geometry": {
                "type": "Point",
                "coordinates": [
                  14.0251318,
                  48.162128
                ]
              }
            },
            {
              "type": "Feature",
              "properties": {
                "id": "1680780614",
                "osm_type": "node",
                "lat": 48.1568374,
                "lon": 14.0245005,
                "name": "Schmuckwerkstatt Emmerstorfer",
                "opening_hours": "Tu-Fr 09:30-13:00,14:00-18:00; Sa 09:30-13:00",
                "shop": "jewelry"
              },
              "geometry": {
                "type": "Point",
                "coordinates": [
                  14.0245005,
                  48.1568374
                ]
              }
            },
            {
              "type": "Feature",
              "properties": {
                "id": "1680837305",
                "osm_type": "node",
                "lat": 48.1572672,
                "lon": 14.0264965,
                "name": "Istambul Gold",
                "note": "Uhren & Juwelen",
                "shop": "jewelry",
                "wheelchair": "yes"
              },
              "geometry": {
                "type": "Point",
                "coordinates": [
                  14.0264965,
                  48.1572672
                ]
              }
            },
            {
              "type": "Feature",
              "properties": {
                "id": "1680837344",
                "osm_type": "node",
                "lat": 48.1573046,
                "lon": 14.0275718,
                "name": "Schmuckatelier Machwerk",
                "shop": "jewelry"
              },
              "geometry": {
                "type": "Point",
                "coordinates": [
                  14.0275718,
                  48.1573046
                ]
              }
            },
            {
              "type": "Feature",
              "properties": {
                "id": "2095700619",
                "osm_type": "node",
                "lat": 48.1576029,
                "lon": 14.0265699,
                "name": "Lucas",
                "shop": "jewelry",
                "wheelchair": "yes"
              },
              "geometry": {
                "type": "Point",
                "coordinates": [
                  14.0265699,
                  48.1576029
                ]
              }
            },
            {
              "type": "Feature",
              "properties": {
                "id": "2292190022",
                "osm_type": "node",
                "lat": 48.1591384,
                "lon": 14.02602,
                "addr:city": "Wels",
                "addr:country": "AT",
                "addr:housenumber": "39",
                "addr:postcode": "4600",
                "addr:street": "Ringstraße",
                "alt_name": "Goldschmiede",
                "name": "Atelier Jungreithmeier",
                "shop": "jewelry",
                "wheelchair": "no"
              },
              "geometry": {
                "type": "Point",
                "coordinates": [
                  14.02602,
                  48.1591384
                ]
              }
            },
            {
              "type": "Feature",
              "properties": {
                "id": "5693132956",
                "osm_type": "node",
                "lat": 48.1582078,
                "lon": 14.0249445,
                "addr:city": "Wels",
                "addr:country": "AT",
                "addr:housenumber": "30",
                "addr:postcode": "4600",
                "addr:street": "Schmidtgasse",
                "brand": "Bijou Brigitte",
                "brand:wikidata": "Q599545",
                "name": "Bijou Brigitte",
                "shop": "jewelry"
              },
              "geometry": {
                "type": "Point",
                "coordinates": [
                  14.0249445,
                  48.1582078
                ]
              }
            },
            {
              "type": "Feature",
              "properties": {
                "id": "6839311159",
                "osm_type": "node",
                "lat": 48.0925462,
                "lon": 13.8740534,
                "addr:city": "Lambach",
                "addr:country": "AT",
                "addr:housenumber": "11",
                "addr:postcode": "4650",
                "addr:street": "Leitenstraße",
                "name": "Rabl Uhren Schmuck",
                "shop": "jewelry"
              },
              "geometry": {
                "type": "Point",
                "coordinates": [
                  13.8740534,
                  48.0925462
                ]
              }
            },
            {
              "type": "Feature",
              "properties": {
                "id": "8307888668",
                "osm_type": "node",
                "lat": 48.158166,
                "lon": 14.0208419,
                "addr:city": "Wels",
                "addr:country": "AT",
                "addr:housenumber": "10",
                "addr:postcode": "4600",
                "addr:street": "Dr.-Salzmann-Straße",
                "email": "pretiosum.wels@gmail.com",
                "name": "Pretiosum",
                "opening_hours": "Mo-Fr 09:30-13:00, Mo,Tu,Th,Fr 15:00-18:00",
                "phone": "+43-7242-910115",
                "shop": "jewelry",
                "website": "https://pretiosum.at/"
              },
              "geometry": {
                "type": "Point",
                "coordinates": [
                  14.0208419,
                  48.158166
                ]
              }
            },
            {
              "type": "Feature",
              "properties": {
                "id": "738070472",
                "osm_type": "node",
                "lat": 48.0346007,
                "lon": 14.2088253,
                "addr:city": "Bad Hall",
                "addr:country": "AT",
                "addr:housenumber": "10",
                "addr:postcode": "4540",
                "addr:street": "Hauptplatz",
                "name": "Öllinger",
                "shop": "jewelry"
              },
              "geometry": {
                "type": "Point",
                "coordinates": [
                  14.2088253,
                  48.0346007
                ]
              }
            },
            {
              "type": "Feature",
              "properties": {
                "id": "2111876921",
                "osm_type": "node",
                "lat": 48.0527402,
                "lon": 14.131398,
                "name": "Uhren - Schmuck - Mandorfer",
                "operator": "Mandorfer",
                "shop": "jewelry"
              },
              "geometry": {
                "type": "Point",
                "coordinates": [
                  14.131398,
                  48.0527402
                ]
              }
            },
            {
              "type": "Feature",
              "properties": {
                "id": "7317501269",
                "osm_type": "node",
                "lat": 48.180986,
                "lon": 14.062046,
                "shop": "jewelry"
              },
              "geometry": {
                "type": "Point",
                "coordinates": [
                  14.062046,
                  48.180986
                ]
              }
            }
          ],
          "children": []
        },
        {
          "bbox": {
            "south": 48.190694875,
            "west": 13.345766,
            "north": 48.355971499999995,
            "east": 13.82261775
          },
          "poiCount": 9,
          "leafCount": 9,
          "averagePosition": [
            13.486903688888889,
            48.208843022222226
          ],
          "data": [
            {
              "type": "Feature",
              "properties": {
                "id": "1548039185",
                "osm_type": "node",
                "lat": 48.2099153,
                "lon": 13.488747,
                "name": "Desch",
                "opening_hours": "Mo-Fr 09:00-12:30,14:00-18:00; Sa 09:00-13:00; Su,PH off",
                "shop": "jewelry"
              },
              "geometry": {
                "type": "Point",
                "coordinates": [
                  13.488747,
                  48.2099153
                ]
              }
            },
            {
              "type": "Feature",
              "properties": {
                "id": "1548057488",
                "osm_type": "node",
                "lat": 48.2097802,
                "lon": 13.4882682,
                "name": "Nur Uhr",
                "opening_hours": "Mo-Fr 09:00-18:00; Sa 09:00-17:00",
                "shop": "jewelry",
                "wheelchair": "yes"
              },
              "geometry": {
                "type": "Point",
                "coordinates": [
                  13.4882682,
                  48.2097802
                ]
              }
            },
            {
              "type": "Feature",
              "properties": {
                "id": "1681533401",
                "osm_type": "node",
                "lat": 48.2103883,
                "lon": 13.4881469,
                "name": "Schmollgruber",
                "shop": "jewelry"
              },
              "geometry": {
                "type": "Point",
                "coordinates": [
                  13.4881469,
                  48.2103883
                ]
              }
            },
            {
              "type": "Feature",
              "properties": {
                "id": "4126441427",
                "osm_type": "node",
                "lat": 48.2097252,
                "lon": 13.4867505,
                "addr:city": "Ried im Innkreis",
                "addr:housenumber": "5",
                "addr:postcode": "4910",
                "addr:street": "Gebhartgasse",
                "name": "Dobler-Strehle",
                "opening_hours": "Mo-Fr 09:00-12:00,14:00-18:00; Sa 09:00-12:00; Su,PH off",
                "phone": "+43 7752 82025",
                "shop": "jewelry",
                "website": "https://www.dobler-strehle.at/"
              },
              "geometry": {
                "type": "Point",
                "coordinates": [
                  13.4867505,
                  48.2097252
                ]
              }
            },
            {
              "type": "Feature",
              "properties": {
                "id": "4126441430",
                "osm_type": "node",
                "lat": 48.2098851,
                "lon": 13.4868542,
                "addr:city": "Ried im Innkreis",
                "addr:housenumber": "5",
                "addr:postcode": "4910",
                "addr:street": "Roßmarkt",
                "name": "Trauring-Studio Dobler-Strehle",
                "opening_hours": "Mo-Fr 09:00-12:00,14:00-18:00; Sa 09:00-16:00; PH off",
                "operator": "123gold",
                "phone": "+43 7752 82025",
                "shop": "jewelry",
                "website": "https://www.123gold.at/trauringe-ried.html"
              },
              "geometry": {
                "type": "Point",
                "coordinates": [
                  13.4868542,
                  48.2098851
                ]
              }
            },
            {
              "type": "Feature",
              "properties": {
                "id": "9418231971",
                "osm_type": "node",
                "lat": 48.2080679,
                "lon": 13.486277,
                "name": "schmuckgalerie",
                "opening_hours": "Mo-Fr 09:00-12:00,14:00-18:00; Sa 09:00-12:00",
                "shop": "jewelry"
              },
              "geometry": {
                "type": "Point",
                "coordinates": [
                  13.486277,
                  48.2080679
                ]
              }
            },
            {
              "type": "Feature",
              "properties": {
                "id": "10010654582",
                "osm_type": "node",
                "lat": 48.2080583,
                "lon": 13.4861972,
                "name": "Penninger",
                "shop": "jewelry"
              },
              "geometry": {
                "type": "Point",
                "coordinates": [
                  13.4861972,
                  48.2080583
                ]
              }
            },
            {
              "type": "Feature",
              "properties": {
                "id": "10572374887",
                "osm_type": "node",
                "lat": 48.2072168,
                "lon": 13.4856599,
                "name": "Bijou Brigitte",
                "opening_hours": "Mo-Fr 09:00-19:00; Sa 09:00-18:00; PH off",
                "shop": "jewelry"
              },
              "geometry": {
                "type": "Point",
                "coordinates": [
                  13.4856599,
                  48.2072168
                ]
              }
            },
            {
              "type": "Feature",
              "properties": {
                "id": "13031698086",
                "osm_type": "node",
                "lat": 48.2065501,
                "lon": 13.4852323,
                "name": "Plakolm",
                "opening_hours": "Mo-Fr 10:00-19:00; Sa 10:00-18:00; PH off",
                "shop": "jewelry"
              },
              "geometry": {
                "type": "Point",
                "coordinates": [
                  13.4852323,
                  48.2065501
                ]
              }
            }
          ],
          "children": []
        },
        {
          "bbox": {
            "south": 48.190694875,
            "west": 13.82261775,
            "north": 48.355971499999995,
            "east": 14.2994695
          },
          "poiCount": 62,
          "leafCount": 0,
          "averagePosition": [
            14.225421298387097,
            48.2687110983871
          ],
          "data": [],
          "children": [
            {
              "bbox": {
                "south": 48.190694875,
                "west": 13.82261775,
                "north": 48.2733331875,
                "east": 14.061043625
              },
              "poiCount": 5,
              "leafCount": 5,
              "averagePosition": [
                13.866260399999998,
                48.233043179999996
              ],
              "data": [
                {
                  "type": "Feature",
                  "properties": {
                    "id": "1673552378",
                    "osm_type": "node",
                    "lat": 48.2314344,
                    "lon": 13.9194285,
                    "shop": "jewelry"
                  },
                  "geometry": {
                    "type": "Point",
                    "coordinates": [
                      13.9194285,
                      48.2314344
                    ]
                  }
                },
                {
                  "type": "Feature",
                  "properties": {
                    "id": "3710118366",
                    "osm_type": "node",
                    "lat": 48.2340012,
                    "lon": 13.8306367,
                    "addr:city": "Grieskirchen",
                    "addr:country": "AT",
                    "addr:housenumber": "19",
                    "addr:postcode": "4710",
                    "addr:street": "Roßmarkt",
                    "name": "Salhofer",
                    "official_name": "Salhofer Martin",
                    "phone": "+43-7248-62459",
                    "shop": "jewelry"
                  },
                  "geometry": {
                    "type": "Point",
                    "coordinates": [
                      13.8306367,
                      48.2340012
                    ]
                  }
                },
                {
                  "type": "Feature",
                  "properties": {
                    "id": "3721373231",
                    "osm_type": "node",
                    "lat": 48.2310207,
                    "lon": 13.9180893,
                    "addr:city": "Bad Schallerbach",
                    "addr:country": "AT",
                    "addr:housenumber": "9",
                    "addr:postcode": "4701",
                    "addr:street": "Grieskirchner Straße",
                    "name": "Lorena",
                    "opening_hours": "Tu,Th 10:00-12:00, 14:00-18:00; Fr 10:00-12:00,13:00-18:00",
                    "phone": "+43-7249-42171",
                    "shop": "jewelry",
                    "website": "https://www.lorena.at/shops/badSchallerbach.html"
                  },
                  "geometry": {
                    "type": "Point",
                    "coordinates": [
                      13.9180893,
                      48.2310207
                    ]
                  }
                },
                {
                  "type": "Feature",
                  "properties": {
                    "id": "11613127397",
                    "osm_type": "node",
                    "lat": 48.234832,
                    "lon": 13.8307118,
                    "addr:city": "Grieskirchen",
                    "addr:housenumber": "5",
                    "addr:postcode": "4710",
                    "addr:street": "Stadtplatz",
                    "name": "Holzinger",
                    "phone": "+437248 62748",
                    "shop": "jewelry",
                    "website": "https://juwelier-holzinger.business.site/"
                  },
                  "geometry": {
                    "type": "Point",
                    "coordinates": [
                      13.8307118,
                      48.234832
                    ]
                  }
                },
                {
                  "type": "Feature",
                  "properties": {
                    "id": "11629705800",
                    "osm_type": "node",
                    "lat": 48.2339276,
                    "lon": 13.8324357,
                    "name": "Doris Aigner Steinketten & Goldschmiede e. U.",
                    "shop": "jewelry",
                    "website": "https://www.dorisaigner.at/"
                  },
                  "geometry": {
                    "type": "Point",
                    "coordinates": [
                      13.8324357,
                      48.2339276
                    ]
                  }
                }
              ],
              "children": []
            },
            {
              "bbox": {
                "south": 48.190694875,
                "west": 14.061043625,
                "north": 48.2733331875,
                "east": 14.2994695
              },
              "poiCount": 25,
              "leafCount": 25,
              "averagePosition": [
                14.239540284,
                48.23143102
              ],
              "data": [
                {
                  "type": "Feature",
                  "properties": {
                    "id": "1003953250",
                    "osm_type": "node",
                    "lat": 48.1949127,
                    "lon": 14.2476937,
                    "contact:phone": "+43 7229 82836",
                    "contact:website": "http://www.juwelierhochstoeger.com",
                    "name": "Juwelier Hochstöger",
                    "opening_hours": "Mo-Fr 09:00-19:00; Sa 09:00-18:00",
                    "operator": "Hr. Ludwig Hochstöger",
                    "shop": "jewelry"
                  },
                  "geometry": {
                    "type": "Point",
                    "coordinates": [
                      14.2476937,
                      48.1949127
                    ]
                  }
                },
                {
                  "type": "Feature",
                  "properties": {
                    "id": "1004370144",
                    "osm_type": "node",
                    "lat": 48.1965982,
                    "lon": 14.2476631,
                    "contact:phone": "+43 7229 82836",
                    "contact:website": "http://www.juwelierhochstoeger.com",
                    "name": "Modern Times",
                    "opening_hours": "Mo-Fr 09:00-19:00; Sa 09:00-18:00",
                    "operator": "Hr. Ludwig Hochstöger",
                    "shop": "jewelry"
                  },
                  "geometry": {
                    "type": "Point",
                    "coordinates": [
                      14.2476631,
                      48.1965982
                    ]
                  }
                },
                {
                  "type": "Feature",
                  "properties": {
                    "id": "1004370242",
                    "osm_type": "node",
                    "lat": 48.196545,
                    "lon": 14.2479728,
                    "contact:phone": "+43 7229 90912",
                    "contact:website": "http://www.lorena.at",
                    "name": "Lorena",
                    "opening_hours": "Mo-Fr 09:00-19:00; Sa 09:00-18:00",
                    "operator": "Fr. Sabrina Brditschka",
                    "shop": "jewelry"
                  },
                  "geometry": {
                    "type": "Point",
                    "coordinates": [
                      14.2479728,
                      48.196545
                    ]
                  }
                },
                {
                  "type": "Feature",
                  "properties": {
                    "id": "1004425957",
                    "osm_type": "node",
                    "lat": 48.1960656,
                    "lon": 14.247131,
                    "brand": "Bijou Brigitte",
                    "brand:wikidata": "Q599545",
                    "brand:wikipedia": "de:Bijou Brigitte",
                    "contact:phone": "+43 7229 78787",
                    "contact:website": "http://www.bijou-brigitte.com",
                    "name": "Bijou Brigitte",
                    "opening_hours": "Mo-Fr 09:00-19:00; Sa 09:00-18:00",
                    "operator": "Fr. Silvia Stohl",
                    "shop": "jewelry"
                  },
                  "geometry": {
                    "type": "Point",
                    "coordinates": [
                      14.247131,
                      48.1960656
                    ]
                  }
                },
                {
                  "type": "Feature",
                  "properties": {
                    "id": "2952201112",
                    "osm_type": "node",
                    "lat": 48.2194441,
                    "lon": 14.1933221,
                    "entrance": "yes",
                    "name": "Bunter Mix",
                    "shop": "jewelry",
                    "website": "https://buntermix.at/"
                  },
                  "geometry": {
                    "type": "Point",
                    "coordinates": [
                      14.1933221,
                      48.2194441
                    ]
                  }
                },
                {
                  "type": "Feature",
                  "properties": {
                    "id": "3457444403",
                    "osm_type": "node",
                    "lat": 48.2208078,
                    "lon": 14.2365867,
                    "addr:city": "Traun",
                    "addr:country": "AT",
                    "addr:housenumber": "8",
                    "addr:postcode": "4050",
                    "addr:street": "Hauptplatz",
                    "fax": "+43-7229-61331-14",
                    "name": "Pfoser",
                    "opening_hours": "Mo,Tu 09:00-12:30,14:00-17:00; We 09:00-12:30; Th 09:00-12:30,14:00-18:00; Fr 09:00-17:00",
                    "operator": "Pfoser Franz",
                    "phone": "+43-7229-61331",
                    "shop": "jewelry",
                    "website": "http://www.pfoser.at/"
                  },
                  "geometry": {
                    "type": "Point",
                    "coordinates": [
                      14.2365867,
                      48.2208078
                    ]
                  }
                },
                {
                  "type": "Feature",
                  "properties": {
                    "id": "3766084989",
                    "osm_type": "node",
                    "lat": 48.2149844,
                    "lon": 14.182682,
                    "addr:city": "Hörsching",
                    "addr:country": "AT",
                    "addr:housenumber": "4a",
                    "addr:postcode": "4063",
                    "addr:street": "Margaritenstraße",
                    "email": "office@gooix.com",
                    "name": "Gooix Group",
                    "official_name": "gooix Group Europe GmbH",
                    "opening_hours": "Mo-Th 09:00-17:00; Fr 09:00-12:00",
                    "phone": "+43-7221-202222",
                    "shop": "jewelry",
                    "website": "https://www.gooix.com/"
                  },
                  "geometry": {
                    "type": "Point",
                    "coordinates": [
                      14.182682,
                      48.2149844
                    ]
                  }
                },
                {
                  "type": "Feature",
                  "properties": {
                    "id": "3812909093",
                    "osm_type": "node",
                    "lat": 48.2706922,
                    "lon": 14.2928073,
                    "addr:city": "Linz",
                    "addr:country": "AT",
                    "addr:housenumber": "39",
                    "addr:postcode": "4020",
                    "addr:street": "Am Bindermichl",
                    "check_date:opening_hours": "2023-10-14",
                    "email": "office@juwelier-ulmer.at",
                    "name": "Uhren und Schmuck Ulmer",
                    "opening_hours": "Mo-Fr 09:00-12:00,14:00-18:00",
                    "operator": "Ivica Ulmer",
                    "phone": "+43732344189",
                    "shop": "jewelry",
                    "website": "https://www.juwelier-ulmer.at"
                  },
                  "geometry": {
                    "type": "Point",
                    "coordinates": [
                      14.2928073,
                      48.2706922
                    ]
                  }
                },
                {
                  "type": "Feature",
                  "properties": {
                    "id": "4362575907",
                    "osm_type": "node",
                    "lat": 48.2039909,
                    "lon": 14.2509482,
                    "name": "Goldschmiede Hartig",
                    "opening_hours": "Mo-Fr 08:30-12:00,14:30-18:00; Sa 08:30-12:00",
                    "payment:diners_club": "yes",
                    "payment:mastercard": "yes",
                    "payment:visa": "yes",
                    "shop": "jewelry"
                  },
                  "geometry": {
                    "type": "Point",
                    "coordinates": [
                      14.2509482,
                      48.2039909
                    ]
                  }
                },
                {
                  "type": "Feature",
                  "properties": {
                    "id": "4369449787",
                    "osm_type": "node",
                    "lat": 48.2038778,
                    "lon": 14.2503795,
                    "shop": "jewelry"
                  },
                  "geometry": {
                    "type": "Point",
                    "coordinates": [
                      14.2503795,
                      48.2038778
                    ]
                  }
                },
                {
                  "type": "Feature",
                  "properties": {
                    "id": "4605235381",
                    "osm_type": "node",
                    "lat": 48.2442424,
                    "lon": 14.2362388,
                    "email": "info.austria@beeline-group.com",
                    "level": "0",
                    "name": "SIX",
                    "phone": "+43722962914",
                    "shop": "jewelry",
                    "website": "https://www.click-six.com/"
                  },
                  "geometry": {
                    "type": "Point",
                    "coordinates": [
                      14.2362388,
                      48.2442424
                    ]
                  }
                },
                {
                  "type": "Feature",
                  "properties": {
                    "id": "4605235387",
                    "osm_type": "node",
                    "lat": 48.2438315,
                    "lon": 14.2357018,
                    "email": "office@goldwelt.at",
                    "level": "0",
                    "name": "Goldwelt",
                    "phone": "+43722962010",
                    "shop": "jewelry",
                    "website": "https://www.goldwelt.at/"
                  },
                  "geometry": {
                    "type": "Point",
                    "coordinates": [
                      14.2357018,
                      48.2438315
                    ]
                  }
                },
                {
                  "type": "Feature",
                  "properties": {
                    "id": "4605237857",
                    "osm_type": "node",
                    "lat": 48.2442639,
                    "lon": 14.2366567,
                    "brand": "Bijou Brigitte",
                    "brand:wikidata": "Q599545",
                    "level": "0",
                    "name": "Bijou Brigitte",
                    "shop": "jewelry"
                  },
                  "geometry": {
                    "type": "Point",
                    "coordinates": [
                      14.2366567,
                      48.2442639
                    ]
                  }
                },
                {
                  "type": "Feature",
                  "properties": {
                    "id": "4607430949",
                    "osm_type": "node",
                    "lat": 48.2439756,
                    "lon": 14.236291,
                    "level": "0",
                    "name": "Huemer-Diadoro",
                    "shop": "jewelry"
                  },
                  "geometry": {
                    "type": "Point",
                    "coordinates": [
                      14.236291,
                      48.2439756
                    ]
                  }
                },
                {
                  "type": "Feature",
                  "properties": {
                    "id": "4607430952",
                    "osm_type": "node",
                    "lat": 48.2436707,
                    "lon": 14.2366202,
                    "level": "0",
                    "name": "Le Clou",
                    "shop": "jewelry"
                  },
                  "geometry": {
                    "type": "Point",
                    "coordinates": [
                      14.2366202,
                      48.2436707
                    ]
                  }
                },
                {
                  "type": "Feature",
                  "properties": {
                    "id": "4607476764",
                    "osm_type": "node",
                    "lat": 48.2440218,
                    "lon": 14.2372882,
                    "level": "0",
                    "name": "Claire´s",
                    "shop": "jewelry"
                  },
                  "geometry": {
                    "type": "Point",
                    "coordinates": [
                      14.2372882,
                      48.2440218
                    ]
                  }
                },
                {
                  "type": "Feature",
                  "properties": {
                    "id": "4609247990",
                    "osm_type": "node",
                    "lat": 48.2437963,
                    "lon": 14.2371646,
                    "level": "1",
                    "name": "Thomas Sabo",
                    "shop": "jewelry"
                  },
                  "geometry": {
                    "type": "Point",
                    "coordinates": [
                      14.2371646,
                      48.2437963
                    ]
                  }
                },
                {
                  "type": "Feature",
                  "properties": {
                    "id": "4609247993",
                    "osm_type": "node",
                    "lat": 48.2439473,
                    "lon": 14.2373011,
                    "level": "1",
                    "name": "Cadenzza",
                    "shop": "jewelry"
                  },
                  "geometry": {
                    "type": "Point",
                    "coordinates": [
                      14.2373011,
                      48.2439473
                    ]
                  }
                },
                {
                  "type": "Feature",
                  "properties": {
                    "id": "4609250506",
                    "osm_type": "node",
                    "lat": 48.2435641,
                    "lon": 14.2362699,
                    "level": "1",
                    "name": "Christ",
                    "shop": "jewelry"
                  },
                  "geometry": {
                    "type": "Point",
                    "coordinates": [
                      14.2362699,
                      48.2435641
                    ]
                  }
                },
                {
                  "type": "Feature",
                  "properties": {
                    "id": "4609250507",
                    "osm_type": "node",
                    "lat": 48.24368,
                    "lon": 14.2360117,
                    "level": "1",
                    "name": "Dorotheum",
                    "shop": "jewelry"
                  },
                  "geometry": {
                    "type": "Point",
                    "coordinates": [
                      14.2360117,
                      48.24368
                    ]
                  }
                },
                {
                  "type": "Feature",
                  "properties": {
                    "id": "4609250510",
                    "osm_type": "node",
                    "lat": 48.2434549,
                    "lon": 14.2357866,
                    "level": "1",
                    "name": "G7",
                    "shop": "jewelry"
                  },
                  "geometry": {
                    "type": "Point",
                    "coordinates": [
                      14.2357866,
                      48.2434549
                    ]
                  }
                },
                {
                  "type": "Feature",
                  "properties": {
                    "id": "4609254922",
                    "osm_type": "node",
                    "lat": 48.2437011,
                    "lon": 14.2362883,
                    "level": "1",
                    "name": "Lüzlbauer",
                    "shop": "jewelry"
                  },
                  "geometry": {
                    "type": "Point",
                    "coordinates": [
                      14.2362883,
                      48.2437011
                    ]
                  }
                },
                {
                  "type": "Feature",
                  "properties": {
                    "id": "4609254923",
                    "osm_type": "node",
                    "lat": 48.24368,
                    "lon": 14.2364271,
                    "brand": "Swarovski",
                    "brand:wikidata": "Q611115",
                    "level": "1",
                    "name": "Swarovski",
                    "shop": "jewelry"
                  },
                  "geometry": {
                    "type": "Point",
                    "coordinates": [
                      14.2364271,
                      48.24368
                    ]
                  }
                },
                {
                  "type": "Feature",
                  "properties": {
                    "id": "4609254932",
                    "osm_type": "node",
                    "lat": 48.2442769,
                    "lon": 14.2369076,
                    "brand": "Pandora",
                    "brand:wikidata": "Q2241604",
                    "level": "1",
                    "name": "Pandora",
                    "shop": "jewelry"
                  },
                  "geometry": {
                    "type": "Point",
                    "coordinates": [
                      14.2369076,
                      48.2442769
                    ]
                  }
                },
                {
                  "type": "Feature",
                  "properties": {
                    "id": "11397551022",
                    "osm_type": "node",
                    "lat": 48.2537503,
                    "lon": 14.2803671,
                    "name": "Günther Buck",
                    "opening_hours": "Mo-Fr 09:00-18:30; Sa 09:00-17:00",
                    "shop": "jewelry"
                  },
                  "geometry": {
                    "type": "Point",
                    "coordinates": [
                      14.2803671,
                      48.2537503
                    ]
                  }
                }
              ],
              "children": []
            },
            {
              "bbox": {
                "south": 48.2733331875,
                "west": 13.82261775,
                "north": 48.355971499999995,
                "east": 14.061043625
              },
              "poiCount": 2,
              "leafCount": 2,
              "averagePosition": [
                14.0219175,
                48.30861385
              ],
              "data": [
                {
                  "type": "Feature",
                  "properties": {
                    "id": "11577569580",
                    "osm_type": "node",
                    "lat": 48.3086192,
                    "lon": 14.0217666,
                    "addr:city": "Eferding",
                    "addr:country": "AT",
                    "addr:housenumber": "17",
                    "addr:postcode": "4070",
                    "addr:street": "Schmiedstraße",
                    "level": "0",
                    "name": "Lüzlbauer",
                    "opening_hours": "Mo-Fr 08:15-12:00, 14:00-18:00; Sa 08:30-12:00",
                    "phone": "+43-7272-3268",
                    "shop": "jewelry"
                  },
                  "geometry": {
                    "type": "Point",
                    "coordinates": [
                      14.0217666,
                      48.3086192
                    ]
                  }
                },
                {
                  "type": "Feature",
                  "properties": {
                    "id": "11577569584",
                    "osm_type": "node",
                    "lat": 48.3086085,
                    "lon": 14.0220684,
                    "addr:city": "Eferding",
                    "addr:country": "AT",
                    "addr:housenumber": "13",
                    "addr:postcode": "4070",
                    "addr:street": "Schmiedstraße",
                    "email": "juwelier@stadelmann.co.at",
                    "level": "0",
                    "name": "Juwelier Stadelmann",
                    "opening_hours": "Mo-Fr 08:00-12:00, 14:00-18:00; Sa 08:00-12:00",
                    "phone": "+43-7272-7077",
                    "shop": "jewelry",
                    "website": "https://stadelmann.co.at/",
                    "wheelchair": "yes"
                  },
                  "geometry": {
                    "type": "Point",
                    "coordinates": [
                      14.0220684,
                      48.3086085
                    ]
                  }
                }
              ],
              "children": []
            },
            {
              "bbox": {
                "south": 48.2733331875,
                "west": 14.061043625,
                "north": 48.355971499999995,
                "east": 14.2994695
              },
              "poiCount": 30,
              "leafCount": 30,
              "averagePosition": [
                14.287082546666666,
                48.3030623
              ],
              "data": [
                {
                  "type": "Feature",
                  "properties": {
                    "id": "813848779",
                    "osm_type": "node",
                    "lat": 48.3041407,
                    "lon": 14.2875426,
                    "addr:city": "Linz",
                    "addr:country": "AT",
                    "addr:postcode": "4020",
                    "name": "Newone",
                    "opening_hours": "Mo-Fr 09:30-18:00; Sa 09:30-17:00; Su off",
                    "shop": "jewelry"
                  },
                  "geometry": {
                    "type": "Point",
                    "coordinates": [
                      14.2875426,
                      48.3041407
                    ]
                  }
                },
                {
                  "type": "Feature",
                  "properties": {
                    "id": "834642264",
                    "osm_type": "node",
                    "lat": 48.3048231,
                    "lon": 14.2864876,
                    "addr:city": "Linz",
                    "addr:country": "AT",
                    "addr:housenumber": "2",
                    "addr:postcode": "4020",
                    "addr:street": "Klosterstraße",
                    "check_date": "2022-10-15",
                    "name": "Uhren Juwelen Hübner",
                    "opening_hours": "Mo-Fr 09:30-12:00,13:00-18:00; Sa 09:30-12:00",
                    "shop": "jewelry",
                    "wheelchair": "yes"
                  },
                  "geometry": {
                    "type": "Point",
                    "coordinates": [
                      14.2864876,
                      48.3048231
                    ]
                  }
                },
                {
                  "type": "Feature",
                  "properties": {
                    "id": "876499318",
                    "osm_type": "node",
                    "lat": 48.3149303,
                    "lon": 14.2809019,
                    "name": "Martin Füreder - Gold- und Silberschmiede",
                    "opening_hours": "Mo-Sa 09:30-12:30, Mo-Fr 14:00-18:00",
                    "shop": "jewelry"
                  },
                  "geometry": {
                    "type": "Point",
                    "coordinates": [
                      14.2809019,
                      48.3149303
                    ]
                  }
                },
                {
                  "type": "Feature",
                  "properties": {
                    "id": "1027320959",
                    "osm_type": "node",
                    "lat": 48.3046302,
                    "lon": 14.2885923,
                    "name": "Egger",
                    "opening_hours": "Mo-Fr 09:00-12:30,13:30-18:00; Sa 09:00-12:00",
                    "shop": "jewelry",
                    "wheelchair": "limited"
                  },
                  "geometry": {
                    "type": "Point",
                    "coordinates": [
                      14.2885923,
                      48.3046302
                    ]
                  }
                },
                {
                  "type": "Feature",
                  "properties": {
                    "id": "1854155346",
                    "osm_type": "node",
                    "lat": 48.3036407,
                    "lon": 14.2863643,
                    "addr:city": "Linz",
                    "addr:country": "AT",
                    "addr:housenumber": "15",
                    "addr:postcode": "4020",
                    "addr:street": "Promenade",
                    "designation": "Colino",
                    "email": "office@colino.at",
                    "name": "Colino",
                    "opening_hours": "Tu,We,Fr 15:00-18:00; Sa 12:00-15:00",
                    "phone": "+43 699 190 778 26",
                    "shop": "jewelry",
                    "website": "http://www.colino.at",
                    "wheelchair": "no"
                  },
                  "geometry": {
                    "type": "Point",
                    "coordinates": [
                      14.2863643,
                      48.3036407
                    ]
                  }
                },
                {
                  "type": "Feature",
                  "properties": {
                    "id": "3633280126",
                    "osm_type": "node",
                    "lat": 48.3034105,
                    "lon": 14.2885605,
                    "contact:email": "liedl@uhren-liedl.at",
                    "contact:fax": "+43 732 772460-4",
                    "contact:phone": "+43 732 772460",
                    "contact:website": "http://www.liedllinz.at",
                    "name": "Liedl",
                    "opening_hours": "Mo-Fr 09:30-18:00; Sa 09:30-17:00",
                    "shop": "jewelry",
                    "wheelchair": "limited"
                  },
                  "geometry": {
                    "type": "Point",
                    "coordinates": [
                      14.2885605,
                      48.3034105
                    ]
                  }
                },
                {
                  "type": "Feature",
                  "properties": {
                    "id": "4102358990",
                    "osm_type": "node",
                    "lat": 48.3048138,
                    "lon": 14.2893755,
                    "addr:housenumber": "19",
                    "addr:street": "Graben",
                    "check_date:opening_hours": "2023-07-01",
                    "email": "uhrenboerse1@gmail.com",
                    "name": "Pfandbörse - Uhrenbörse",
                    "opening_hours": "Mo-Fr 10:00-12:00, 14:00-18:00",
                    "opening_hours:signed": "no",
                    "phone": "+43 664 4269666",
                    "shop": "jewelry",
                    "website": "https://www.uhrenboerse-austria.at/"
                  },
                  "geometry": {
                    "type": "Point",
                    "coordinates": [
                      14.2893755,
                      48.3048138
                    ]
                  }
                },
                {
                  "type": "Feature",
                  "properties": {
                    "id": "4149167247",
                    "osm_type": "node",
                    "lat": 48.2907123,
                    "lon": 14.2968144,
                    "name": "Oskar Hofer",
                    "opening_hours": "Mo-Th 09:00-17:30; Fr 09:00-17:00",
                    "shop": "jewelry"
                  },
                  "geometry": {
                    "type": "Point",
                    "coordinates": [
                      14.2968144,
                      48.2907123
                    ]
                  }
                },
                {
                  "type": "Feature",
                  "properties": {
                    "id": "4397726298",
                    "osm_type": "node",
                    "lat": 48.3065196,
                    "lon": 14.2883507,
                    "check_date:opening_hours": "2022-08-26",
                    "craft": "jeweller",
                    "name": "Schmuckwerkstätte Design Renate Bauer",
                    "opening_hours": "Tu-Fr 11:00-18:00; Sa 09:00-13:00; PH off",
                    "shop": "jewelry"
                  },
                  "geometry": {
                    "type": "Point",
                    "coordinates": [
                      14.2883507,
                      48.3065196
                    ]
                  }
                },
                {
                  "type": "Feature",
                  "properties": {
                    "id": "4549462356",
                    "osm_type": "node",
                    "lat": 48.3053392,
                    "lon": 14.2904852,
                    "check_date": "2025-07-17",
                    "craft": "jeweller",
                    "name": "Goldschmiede GmbH Werkstätte",
                    "opening_hours": "Tu-Th 12:00-18:00; Fr 12:00-16:00",
                    "shop": "jewelry"
                  },
                  "geometry": {
                    "type": "Point",
                    "coordinates": [
                      14.2904852,
                      48.3053392
                    ]
                  }
                },
                {
                  "type": "Feature",
                  "properties": {
                    "id": "4756598244",
                    "osm_type": "node",
                    "lat": 48.3033513,
                    "lon": 14.2895799,
                    "name": "Istanbul Gold",
                    "shop": "jewelry"
                  },
                  "geometry": {
                    "type": "Point",
                    "coordinates": [
                      14.2895799,
                      48.3033513
                    ]
                  }
                },
                {
                  "type": "Feature",
                  "properties": {
                    "id": "5577200733",
                    "osm_type": "node",
                    "lat": 48.3039958,
                    "lon": 14.2879564,
                    "brand": "Swarovski",
                    "brand:wikidata": "Q611115",
                    "name": "Swarovski",
                    "opening_hours": "Mo-Fr 09:00-18:00; Sa 10:00-17:00",
                    "shop": "jewelry",
                    "wheelchair": "yes"
                  },
                  "geometry": {
                    "type": "Point",
                    "coordinates": [
                      14.2879564,
                      48.3039958
                    ]
                  }
                },
                {
                  "type": "Feature",
                  "properties": {
                    "id": "5916583580",
                    "osm_type": "node",
                    "lat": 48.3044969,
                    "lon": 14.2874847,
                    "check_date": "2022-10-15",
                    "name": "Boheim",
                    "opening_hours": "Mo-Fr 09:00-13:00,14:00-18:00; Sa 09:30-13:00",
                    "shop": "jewelry",
                    "wheelchair": "no"
                  },
                  "geometry": {
                    "type": "Point",
                    "coordinates": [
                      14.2874847,
                      48.3044969
                    ]
                  }
                },
                {
                  "type": "Feature",
                  "properties": {
                    "id": "5916585291",
                    "osm_type": "node",
                    "lat": 48.3034774,
                    "lon": 14.288458,
                    "name": "S. M. Wild",
                    "opening_hours": "Mo-Fr 09:30-18:00; Sa 09:30-17:00",
                    "shop": "jewelry"
                  },
                  "geometry": {
                    "type": "Point",
                    "coordinates": [
                      14.288458,
                      48.3034774
                    ]
                  }
                },
                {
                  "type": "Feature",
                  "properties": {
                    "id": "6932071431",
                    "osm_type": "node",
                    "lat": 48.3004245,
                    "lon": 14.2907475,
                    "addr:city": "Linz",
                    "addr:housenumber": "46",
                    "addr:postcode": "4020",
                    "addr:street": "Landstraße",
                    "description": "Wir kaufen Ihr Gold und Silber und zahlen in Bar. Schnell & einfach - Beratung inklusive. Verkaufen Sie an die Goldstube in Linz Altgold, Schmuck, Münzen aus Gold oder Silber sowie Uhren oder Tafelsilber. Auch beim Ankauf von Zahngold ist die Goldstube in",
                    "email": "info@goldstube.at",
                    "image": "https://www.goldstube.at/images/geschaeftslokal.jpg?crc=27530576",
                    "name": "Goldstube Goldankaufstelle Linz",
                    "opening_hours": "Mo-Fr 09:00-17:00; Sa 09:00-12:00",
                    "payment:cash": "yes",
                    "payment:credit_cards": "yes",
                    "payment:debit_cards": "yes",
                    "phone": "+43 664 3553801",
                    "shop": "jewelry",
                    "website": "https://www.goldstube.at/",
                    "wheelchair": "yes"
                  },
                  "geometry": {
                    "type": "Point",
                    "coordinates": [
                      14.2907475,
                      48.3004245
                    ]
                  }
                },
                {
                  "type": "Feature",
                  "properties": {
                    "id": "6984972921",
                    "osm_type": "node",
                    "lat": 48.3015223,
                    "lon": 14.2903828,
                    "addr:city": "Linz",
                    "addr:country": "AT",
                    "addr:postcode": "4020",
                    "check_date:opening_hours": "2024-06-24",
                    "contact:phone": "+43 732 795 246",
                    "name": "Goldwelt",
                    "opening_hours": "Mo-Fr 09:30-18:00; Sa 09:00-17:00",
                    "shop": "jewelry",
                    "website": "https://www.goldwelt.at/"
                  },
                  "geometry": {
                    "type": "Point",
                    "coordinates": [
                      14.2903828,
                      48.3015223
                    ]
                  }
                },
                {
                  "type": "Feature",
                  "properties": {
                    "id": "7839408253",
                    "osm_type": "node",
                    "lat": 48.2974168,
                    "lon": 14.2918186,
                    "name": "Cermak",
                    "shop": "jewelry"
                  },
                  "geometry": {
                    "type": "Point",
                    "coordinates": [
                      14.2918186,
                      48.2974168
                    ]
                  }
                },
                {
                  "type": "Feature",
                  "properties": {
                    "id": "9195903823",
                    "osm_type": "node",
                    "lat": 48.2966244,
                    "lon": 14.2874829,
                    "name": "Juwelier Oucherif",
                    "shop": "jewelry"
                  },
                  "geometry": {
                    "type": "Point",
                    "coordinates": [
                      14.2874829,
                      48.2966244
                    ]
                  }
                },
                {
                  "type": "Feature",
                  "properties": {
                    "id": "9887326832",
                    "osm_type": "node",
                    "lat": 48.290022,
                    "lon": 14.2979775,
                    "name": "GOLDUNION",
                    "opening_hours": "Mo-Fr 09:00-18:00; Sa 09:00-17:00",
                    "shop": "jewelry"
                  },
                  "geometry": {
                    "type": "Point",
                    "coordinates": [
                      14.2979775,
                      48.290022
                    ]
                  }
                },
                {
                  "type": "Feature",
                  "properties": {
                    "id": "10098201742",
                    "osm_type": "node",
                    "lat": 48.3048753,
                    "lon": 14.2865909,
                    "check_date": "2022-10-12",
                    "name": "Mayrhofer",
                    "opening_hours": "Mo-Fr 09:00-18:00; Sa 09:00-13:00",
                    "shop": "jewelry",
                    "wheelchair": "limited"
                  },
                  "geometry": {
                    "type": "Point",
                    "coordinates": [
                      14.2865909,
                      48.3048753
                    ]
                  }
                },
                {
                  "type": "Feature",
                  "properties": {
                    "id": "10098201743",
                    "osm_type": "node",
                    "lat": 48.3049428,
                    "lon": 14.2865627,
                    "check_date": "2025-06-16",
                    "check_date:opening_hours": "2025-06-16",
                    "name": "Fine Juwels Martina Pöttinger",
                    "opening_hours": "Tu-Fr 10:00-13:00,15:00-18:00; Sa 10:00-12:30",
                    "shop": "jewelry",
                    "wheelchair": "no"
                  },
                  "geometry": {
                    "type": "Point",
                    "coordinates": [
                      14.2865627,
                      48.3049428
                    ]
                  }
                },
                {
                  "type": "Feature",
                  "properties": {
                    "id": "10102699735",
                    "osm_type": "node",
                    "lat": 48.3047327,
                    "lon": 14.2862668,
                    "check_date": "2022-10-15",
                    "name": "Lechthaler",
                    "opening_hours": "Tu-Fr 11:00-17:00",
                    "shop": "jewelry",
                    "wheelchair": "limited"
                  },
                  "geometry": {
                    "type": "Point",
                    "coordinates": [
                      14.2862668,
                      48.3047327
                    ]
                  }
                },
                {
                  "type": "Feature",
                  "properties": {
                    "id": "10102699740",
                    "osm_type": "node",
                    "lat": 48.3058216,
                    "lon": 14.2851919,
                    "addr:housenumber": "7",
                    "addr:street": "Hofgasse",
                    "check_date": "2022-10-15",
                    "name": "DSD Donau Stein Design",
                    "opening_hours": "Mo-Fr 10:00-13:00,14:00-18:00",
                    "shop": "jewelry",
                    "wheelchair": "limited"
                  },
                  "geometry": {
                    "type": "Point",
                    "coordinates": [
                      14.2851919,
                      48.3058216
                    ]
                  }
                },
                {
                  "type": "Feature",
                  "properties": {
                    "id": "10103584907",
                    "osm_type": "node",
                    "lat": 48.3122382,
                    "lon": 14.2821496,
                    "check_date": "2022-10-15",
                    "name": "Durstberger",
                    "shop": "jewelry"
                  },
                  "geometry": {
                    "type": "Point",
                    "coordinates": [
                      14.2821496,
                      48.3122382
                    ]
                  }
                },
                {
                  "type": "Feature",
                  "properties": {
                    "id": "10103605821",
                    "osm_type": "node",
                    "lat": 48.3046757,
                    "lon": 14.2875247,
                    "check_date": "2022-10-15",
                    "description": "Schmuckhandel- undanufaktur",
                    "name": "Feichtinger",
                    "opening_hours": "Mo-Fr 10:00-18:00; Sa 09:00-13:00",
                    "shop": "jewelry",
                    "wheelchair": "limited"
                  },
                  "geometry": {
                    "type": "Point",
                    "coordinates": [
                      14.2875247,
                      48.3046757
                    ]
                  }
                },
                {
                  "type": "Feature",
                  "properties": {
                    "id": "10856036133",
                    "osm_type": "node",
                    "lat": 48.3027822,
                    "lon": 14.2860832,
                    "name": "k.u.k. Hofjuwelier",
                    "shop": "jewelry"
                  },
                  "geometry": {
                    "type": "Point",
                    "coordinates": [
                      14.2860832,
                      48.3027822
                    ]
                  }
                },
                {
                  "type": "Feature",
                  "properties": {
                    "id": "10856128101",
                    "osm_type": "node",
                    "lat": 48.3031621,
                    "lon": 14.2858408,
                    "name": "Juwelier Alfred Zarbl",
                    "shop": "jewelry"
                  },
                  "geometry": {
                    "type": "Point",
                    "coordinates": [
                      14.2858408,
                      48.3031621
                    ]
                  }
                },
                {
                  "type": "Feature",
                  "properties": {
                    "id": "10969133409",
                    "osm_type": "node",
                    "lat": 48.3036145,
                    "lon": 14.2863178,
                    "check_date:opening_hours": "2023-06-11",
                    "name": "Mayrhofer",
                    "opening_hours:signed": "no",
                    "shop": "jewelry"
                  },
                  "geometry": {
                    "type": "Point",
                    "coordinates": [
                      14.2863178,
                      48.3036145
                    ]
                  }
                },
                {
                  "type": "Feature",
                  "properties": {
                    "id": "11865815078",
                    "osm_type": "node",
                    "lat": 48.3021043,
                    "lon": 14.2529878,
                    "addr:city": "Leonding",
                    "addr:housenumber": "5",
                    "addr:postcode": "4020",
                    "addr:street": "Lützelburgstraße",
                    "contact:facebook": "https://www.facebook.com/avram.robert/",
                    "email": "office@edelsteinfassung-avram.at",
                    "name": "Edelsteinfasser Avram",
                    "opening_hours": "Mo-Fr 9:00-16:00; PH off",
                    "operator": "Róbert Avram",
                    "phone": "+43 664 2620017",
                    "shop": "jewelry"
                  },
                  "geometry": {
                    "type": "Point",
                    "coordinates": [
                      14.2529878,
                      48.3021043
                    ]
                  }
                },
                {
                  "type": "Feature",
                  "properties": {
                    "id": "12051514360",
                    "osm_type": "node",
                    "lat": 48.2986278,
                    "lon": 14.2915969,
                    "name": "E2",
                    "shop": "jewelry"
                  },
                  "geometry": {
                    "type": "Point",
                    "coordinates": [
                      14.2915969,
                      48.2986278
                    ]
                  }
                }
              ],
              "children": []
            }
          ]
        }
      ]
    },
    {
      "bbox": {
        "south": 48.02541825,
        "west": 14.2994695,
        "north": 48.355971499999995,
        "east": 15.253173
      },
      "poiCount": 23,
      "leafCount": 23,
      "averagePosition": [
        14.679830895652174,
        48.184083334782606
      ],
      "data": [
        {
          "type": "Feature",
          "properties": {
            "id": "1895215124",
            "osm_type": "node",
            "lat": 48.1762044,
            "lon": 14.5242604,
            "name": "Juwelier Franz Pum",
            "shop": "jewelry"
          },
          "geometry": {
            "type": "Point",
            "coordinates": [
              14.5242604,
              48.1762044
            ]
          }
        },
        {
          "type": "Feature",
          "properties": {
            "id": "2682342680",
            "osm_type": "node",
            "lat": 48.2399209,
            "lon": 14.5279588,
            "name": "Goldbox",
            "shop": "jewelry"
          },
          "geometry": {
            "type": "Point",
            "coordinates": [
              14.5279588,
              48.2399209
            ]
          }
        },
        {
          "type": "Feature",
          "properties": {
            "id": "2701105149",
            "osm_type": "node",
            "lat": 48.2144934,
            "lon": 14.4768262,
            "name": "Morawetz",
            "shop": "jewelry"
          },
          "geometry": {
            "type": "Point",
            "coordinates": [
              14.4768262,
              48.2144934
            ]
          }
        },
        {
          "type": "Feature",
          "properties": {
            "id": "2701105224",
            "osm_type": "node",
            "lat": 48.2144401,
            "lon": 14.4778425,
            "addr:city": "Enns",
            "addr:country": "AT",
            "addr:housenumber": "10",
            "addr:postcode": "4470",
            "addr:street": "Linzer Straße",
            "at_bev:addr_date": "2020-10-01",
            "name": "Steininger",
            "shop": "jewelry"
          },
          "geometry": {
            "type": "Point",
            "coordinates": [
              14.4778425,
              48.2144401
            ]
          }
        },
        {
          "type": "Feature",
          "properties": {
            "id": "4869382660",
            "osm_type": "node",
            "lat": 48.3023048,
            "lon": 14.2995217,
            "name": "Veronika Gerner",
            "opening_hours": "Mo-Fr 10:00-12:00,15:00-18:00",
            "shop": "jewelry"
          },
          "geometry": {
            "type": "Point",
            "coordinates": [
              14.2995217,
              48.3023048
            ]
          }
        },
        {
          "type": "Feature",
          "properties": {
            "id": "9450015587",
            "osm_type": "node",
            "lat": 48.2402951,
            "lon": 14.5281751,
            "name": "Le Clou",
            "shop": "jewelry"
          },
          "geometry": {
            "type": "Point",
            "coordinates": [
              14.5281751,
              48.2402951
            ]
          }
        },
        {
          "type": "Feature",
          "properties": {
            "id": "9668213970",
            "osm_type": "node",
            "lat": 48.0378119,
            "lon": 14.4172373,
            "name": "Goldschmiede Atelier Margit",
            "shop": "jewelry"
          },
          "geometry": {
            "type": "Point",
            "coordinates": [
              14.4172373,
              48.0378119
            ]
          }
        },
        {
          "type": "Feature",
          "properties": {
            "id": "9668263223",
            "osm_type": "node",
            "lat": 48.0374473,
            "lon": 14.4184121,
            "name": "Feichtinger",
            "opening_hours": "Tu-Fr 10:00-18:00; Sa 09:00-13:00",
            "shop": "jewelry"
          },
          "geometry": {
            "type": "Point",
            "coordinates": [
              14.4184121,
              48.0374473
            ]
          }
        },
        {
          "type": "Feature",
          "properties": {
            "id": "11037569787",
            "osm_type": "node",
            "lat": 48.0401538,
            "lon": 14.41976,
            "name": "Juwelier Alexander",
            "shop": "jewelry"
          },
          "geometry": {
            "type": "Point",
            "coordinates": [
              14.41976,
              48.0401538
            ]
          }
        },
        {
          "type": "Feature",
          "properties": {
            "id": "1651298493",
            "osm_type": "node",
            "lat": 48.3495088,
            "lon": 14.6696032,
            "name": "Luger",
            "shop": "jewelry"
          },
          "geometry": {
            "type": "Point",
            "coordinates": [
              14.6696032,
              48.3495088
            ]
          }
        },
        {
          "type": "Feature",
          "properties": {
            "id": "2331229913",
            "osm_type": "node",
            "lat": 48.2504998,
            "lon": 14.6339453,
            "name": "Erhart",
            "shop": "jewelry"
          },
          "geometry": {
            "type": "Point",
            "coordinates": [
              14.6339453,
              48.2504998
            ]
          }
        },
        {
          "type": "Feature",
          "properties": {
            "id": "2331231052",
            "osm_type": "node",
            "lat": 48.2496451,
            "lon": 14.6330253,
            "name": "Kollroß",
            "shop": "jewelry"
          },
          "geometry": {
            "type": "Point",
            "coordinates": [
              14.6330253,
              48.2496451
            ]
          }
        },
        {
          "type": "Feature",
          "properties": {
            "id": "2331231478",
            "osm_type": "node",
            "lat": 48.2494933,
            "lon": 14.6354796,
            "addr:city": "Perg",
            "addr:country": "AT",
            "addr:housenumber": "16",
            "addr:postcode": "4320",
            "addr:street": "Herrenstraße",
            "contact:website": "http://www.edthaler.at/",
            "name": "Edthaler",
            "opening_hours": "Mo-Fr 08:45-12:00, 14:00-18:00; Sa 08:45-12:00",
            "shop": "jewelry"
          },
          "geometry": {
            "type": "Point",
            "coordinates": [
              14.6354796,
              48.2494933
            ]
          }
        },
        {
          "type": "Feature",
          "properties": {
            "id": "4321117994",
            "osm_type": "node",
            "lat": 48.3546732,
            "lon": 14.5313135,
            "addr:city": "Pregarten",
            "addr:housenumber": "1",
            "addr:postcode": "4230",
            "addr:street": "Tragweiner Straße",
            "check_date": "2025-04-15",
            "name": "Juwelier Kartusch",
            "opening_hours": "Mo-Fr 8:00-12:00, 14:00-18:00; Sa 8:00-12:00",
            "shop": "jewelry",
            "wheelchair": "yes"
          },
          "geometry": {
            "type": "Point",
            "coordinates": [
              14.5313135,
              48.3546732
            ]
          }
        },
        {
          "type": "Feature",
          "properties": {
            "id": "4921775945",
            "osm_type": "node",
            "lat": 48.123184,
            "lon": 14.8725987,
            "check_date:opening_hours": "2025-06-08",
            "contact:email": "juwelierfichtinger@gmail.com",
            "contact:phone": "+43 7472 63571",
            "contact:website": "http://www.juwelier-fichtinger.at/",
            "name": "Juwelier Fichtinger",
            "opening_hours": "Mo-Fr 08:30-12:00,14:30-18:00; Sa 08:30-12:30,13:30-16:00; Su,PH off",
            "shop": "jewelry"
          },
          "geometry": {
            "type": "Point",
            "coordinates": [
              14.8725987,
              48.123184
            ]
          }
        },
        {
          "type": "Feature",
          "properties": {
            "id": "4921775946",
            "osm_type": "node",
            "lat": 48.1229413,
            "lon": 14.872038,
            "contact:fax": "+43 7472 68212-44",
            "contact:phone": "+43 7472 68212",
            "contact:website": "https://www.hochholzer.at/kontakt.html",
            "name": "Juwelier Hochholzer",
            "opening_hours": "Mo-Fr 09:00-12:30, 14:00-18:00; Sa 09:00-12:30; Su,PH off",
            "operator": "Juwelier Hochholzer e.U.",
            "shop": "jewelry"
          },
          "geometry": {
            "type": "Point",
            "coordinates": [
              14.872038,
              48.1229413
            ]
          }
        },
        {
          "type": "Feature",
          "properties": {
            "id": "4921775947",
            "osm_type": "node",
            "lat": 48.1228099,
            "lon": 14.8762539,
            "name": "Juwelier Kronsteiner",
            "opening_hours": "Mo-Fr 09:00-12:30,14:30-18:00; Sa 09:00-12:30; Su,PH off",
            "shop": "jewelry"
          },
          "geometry": {
            "type": "Point",
            "coordinates": [
              14.8762539,
              48.1228099
            ]
          }
        },
        {
          "type": "Feature",
          "properties": {
            "id": "4921775948",
            "osm_type": "node",
            "lat": 48.1225082,
            "lon": 14.8753943,
            "contact:email": "office@juweliertheuer.at",
            "contact:facebook": "https://www.facebook.com/juweliertheuer",
            "contact:phone": "+43 7472 67145",
            "contact:website": "https://juweliertheuer.at/",
            "name": "Juwelier Theuer",
            "opening_hours": "Mo-Fr 08:30-12:00,14:00-18:00; Sa 08:30-12:00,14:00-16:00; Su,PH off",
            "shop": "jewelry"
          },
          "geometry": {
            "type": "Point",
            "coordinates": [
              14.8753943,
              48.1225082
            ]
          }
        },
        {
          "type": "Feature",
          "properties": {
            "id": "4921781744",
            "osm_type": "node",
            "lat": 48.1242056,
            "lon": 14.870666,
            "contact:email": "amstetten@123gold.at",
            "contact:phone": "+43 7472 24237",
            "contact:website": "https://www.123gold.at/",
            "name": "Trauringlounge Amstetten",
            "opening_hours": "Mo-Fr 09:30-18:00; Sa 09:00-15:00; Su,PH off",
            "shop": "jewelry",
            "website": "https://www.123gold.at/standorte/amstetten/"
          },
          "geometry": {
            "type": "Point",
            "coordinates": [
              14.870666,
              48.1242056
            ]
          }
        },
        {
          "type": "Feature",
          "properties": {
            "id": "11745152459",
            "osm_type": "node",
            "lat": 48.0395621,
            "lon": 14.6530079,
            "contact:phone": "+43 74774 4467",
            "name": "Schmuck-Uhren Schirghuber",
            "opening_hours": "Mo, Th, Fr 08:30-12:00, 14:30-18:00; We, Sa 08:30-12:00",
            "operator": "Sigrid Schirghuber",
            "shop": "jewelry"
          },
          "geometry": {
            "type": "Point",
            "coordinates": [
              14.6530079,
              48.0395621
            ]
          }
        },
        {
          "type": "Feature",
          "properties": {
            "id": "2736609382",
            "osm_type": "node",
            "lat": 48.3172088,
            "lon": 15.1973758,
            "addr:city": "Pöggstall",
            "addr:country": "AT",
            "addr:housenumber": "6",
            "addr:postcode": "3650",
            "addr:street": "Tavernplatz",
            "name": "Goldschmiede Kamleitner Andrea",
            "phone": "+43664/3142943",
            "shop": "jewelry"
          },
          "geometry": {
            "type": "Point",
            "coordinates": [
              15.1973758,
              48.3172088
            ]
          }
        },
        {
          "type": "Feature",
          "properties": {
            "id": "5160524639",
            "osm_type": "node",
            "lat": 48.1770238,
            "lon": 15.0839496,
            "name": "Uhren Siegl",
            "opening_hours": "Mo-Fr 08:00-12:00,14:30-18:00; Sa 08:00-12:00",
            "phone": "+43 7412 523900",
            "shop": "jewelry",
            "wheelchair": "no"
          },
          "geometry": {
            "type": "Point",
            "coordinates": [
              15.0839496,
              48.1770238
            ]
          }
        },
        {
          "type": "Feature",
          "properties": {
            "id": "9342997160",
            "osm_type": "node",
            "lat": 48.1275811,
            "lon": 15.1414654,
            "name": "Glanz & Magie - Schmuck und Esoterik",
            "payment:Wieselburger_10er": "yes",
            "shop": "jewelry"
          },
          "geometry": {
            "type": "Point",
            "coordinates": [
              15.1414654,
              48.1275811
            ]
          }
        }
      ],
      "children": []
    }
  ]
}