{
  "bbox": {
    "south": 48.355971499999995,
    "west": 15.253173,
    "north": 49.017078,
    "east": 17.16058
  },
  "poiCount": 18,
  "leafCount": 18,
  "averagePosition": [
    15.685026055555555,
    48.69146892222222
  ],
  "data": [
    {
      "type": "Feature",
      "properties": {
        "id": "5059978473",
        "osm_type": "node",
        "lat": 48.6963099,
        "lon": 15.5130514,
        "addr:city": "Brunn an der Wild",
        "addr:country": "AT",
        "addr:housenumber": "20",
        "addr:postcode": "3595",
        "addr:street": "Brunner Berg",
        "amenity": "recycling",
        "at_bev:addr_date": "2017-04-07",
        "name": "Abfallsammelzentrum Brunn an der Wild",
        "opening_hours": "Fr[1] 12:00-14:00",
        "operator": "Gemeindeverband Horn",
        "operator:type": "public",
        "recycling_type": "centre",
        "website": "https://horn.umweltverbaende.at/informationen-zu-abfall/abfallsammelzentren/"
      },
      "geometry": {
        "type": "Point",
        "coordinates": [
          15.5130514,
          48.6963099
        ]
      }
    },
    {
      "type": "Feature",
      "properties": {
        "id": "13066252393",
        "osm_type": "node",
        "lat": 48.6579156,
        "lon": 15.507614,
        "addr:city": "Röhrenbach",
        "addr:housenumber": "23",
        "addr:postcode": "3592",
        "addr:street": "Dorfstraße",
        "amenity": "recycling",
        "name": "Abfallsammelzentrum Röhrenbach",
        "opening_hours": "Fr[-1] 09:00-11:00; Mi[-1] 17:00-18:00",
        "operator": "Gemeindeverband Horn",
        "operator:type": "public",
        "recycling_type": "centre",
        "website": "https://horn.umweltverbaende.at/informationen-zu-abfall/abfallsammelzentren"
      },
      "geometry": {
        "type": "Point",
        "coordinates": [
          15.507614,
          48.6579156
        ]
      }
    },
    {
      "type": "Feature",
      "properties": {
        "id": "2408268025",
        "osm_type": "node",
        "lat": 48.6865476,
        "lon": 15.5972245,
        "addr:city": "St. Bernhard-Frauenhofen",
        "addr:housenumber": "67",
        "addr:postcode": "3580",
        "addr:street": "Sankt Bernhard",
        "amenity": "recycling",
        "name": "Abfallsammelzentrum St. Bernhard-Frauenhofen",
        "opening_hours": "Sa[2] 08:00-10:00; Aug off",
        "operator": "Gemeindeverband Horn",
        "operator:type": "public",
        "recycling_type": "centre",
        "website": "https://horn.umweltverbaende.at/informationen-zu-abfall/abfallsammelzentren"
      },
      "geometry": {
        "type": "Point",
        "coordinates": [
          15.5972245,
          48.6865476
        ]
      }
    },
    {
      "type": "Feature",
      "properties": {
        "id": "2803371826",
        "osm_type": "node",
        "lat": 48.4414477,
        "lon": 15.8231169,
        "amenity": "recycling",
        "name": "Abfallsammelzentrum",
        "recycling_centre": "yes",
        "recycling_type": "centre"
      },
      "geometry": {
        "type": "Point",
        "coordinates": [
          15.8231169,
          48.4414477
        ]
      }
    },
    {
      "type": "Feature",
      "properties": {
        "id": "13066252381",
        "osm_type": "node",
        "lat": 48.6702259,
        "lon": 15.6537206,
        "addr:city": "Horn",
        "addr:housenumber": "53",
        "addr:postcode": "3580",
        "addr:street": "Raabser Straße",
        "amenity": "recycling",
        "name": "Abfallsammelzentrum Horn",
        "opening_hours": "Mo-Th 13:15-15:30; Sa[1] 09:00-12:00",
        "operator": "Gemeindeverband Horn",
        "operator:type": "public",
        "recycling_type": "centre",
        "website": "https://horn.umweltverbaende.at/informationen-zu-abfall/abfallsammelzentren/"
      },
      "geometry": {
        "type": "Point",
        "coordinates": [
          15.6537206,
          48.6702259
        ]
      }
    },
    {
      "type": "Feature",
      "properties": {
        "id": "13066252382",
        "osm_type": "node",
        "lat": 48.6461926,
        "lon": 15.5939886,
        "addr:city": "Altenburg",
        "addr:housenumber": "8",
        "addr:postcode": "3591",
        "addr:street": "Mahrersdorfer Straße",
        "amenity": "recycling",
        "name": "Abfallsammelzentrum Altenburg",
        "opening_hours": "We[1] 13:00-19:00; Sa[3] 07:00-13:00",
        "operator": "Gemeindeverband Horn",
        "operator:type": "public",
        "recycling_type": "centre",
        "website": "https://horn.umweltverbaende.at/informationen-zu-abfall/abfallsammelzentren/"
      },
      "geometry": {
        "type": "Point",
        "coordinates": [
          15.5939886,
          48.6461926
        ]
      }
    },
    {
      "type": "Feature",
      "properties": {
        "id": "13066252383",
        "osm_type": "node",
        "lat": 48.6432401,
        "lon": 15.8252152,
        "addr:city": "Eggenburg",
        "addr:housenumber": "5",
        "addr:postcode": "3730",
        "addr:street": "Steinbruchgasse",
        "amenity": "recycling",
        "name": "Abfallsammelzentrum Eggenburg",
        "opening_hours": "Th 13:00-16:00; Sa[1] 09:00-11:00",
        "operator": "Gemeindeverband Horn",
        "operator:type": "public",
        "recycling_type": "centre",
        "website": "https://horn.umweltverbaende.at/informationen-zu-abfall/abfallsammelzentren/"
      },
      "geometry": {
        "type": "Point",
        "coordinates": [
          15.8252152,
          48.6432401
        ]
      }
    },
    {
      "type": "Feature",
      "properties": {
        "id": "13066252384",
        "osm_type": "node",
        "lat": 48.8613373,
        "lon": 15.6220426,
        "addr:housenumber": "42",
        "addr:street": "Horner Straße",
        "amenity": "recycling",
        "name": "Abfallsammelzentrum Drosendorf-Zissersdorf",
        "opening_hours": "We 13:00-14:00; Sa[-1] 10:00-11:00",
        "operator": "Gemeindeverband Horn",
        "operator:type": "public",
        "recycling_type": "centre",
        "website": "https://horn.umweltverbaende.at/informationen-zu-abfall/abfallsammelzentren/"
      },
      "geometry": {
        "type": "Point",
        "coordinates": [
          15.6220426,
          48.8613373
        ]
      }
    },
    {
      "type": "Feature",
      "properties": {
        "id": "13066252385",
        "osm_type": "node",
        "lat": 48.5904452,
        "lon": 15.6576038,
        "amenity": "recycling",
        "name": "Abfallsammelzentrum Gars am Kamp",
        "opening_hours": "Fr[2-5] 09:00-12:30; Sa[1] 09:00-11:30",
        "operator": "Gemeindeverband Horn",
        "operator:type": "public",
        "recycling_type": "centre",
        "website": "https://horn.umweltverbaende.at/informationen-zu-abfall/abfallsammelzentren/"
      },
      "geometry": {
        "type": "Point",
        "coordinates": [
          15.6576038,
          48.5904452
        ]
      }
    },
    {
      "type": "Feature",
      "properties": {
        "id": "13066252386",
        "osm_type": "node",
        "lat": 48.7987202,
        "lon": 15.6780649,
        "addr:city": "Geras",
        "addr:housenumber": "6",
        "addr:postcode": "2093",
        "addr:street": "Langauer Straße",
        "amenity": "recycling",
        "name": "Abfallsammelzentrum Geras",
        "opening_hours": "Sa[1] 09:00-11:00",
        "operator": "Gemeindeverband Horn",
        "operator:type": "public",
        "recycling_type": "centre",
        "website": "https://horn.umweltverbaende.at/informationen-zu-abfall/abfallsammelzentren/"
      },
      "geometry": {
        "type": "Point",
        "coordinates": [
          15.6780649,
          48.7987202
        ]
      }
    },
    {
      "type": "Feature",
      "properties": {
        "id": "13066252387",
        "osm_type": "node",
        "lat": 48.7469355,
        "lon": 15.5421427,
        "addr:city": "Irnfritz-Bahnhof",
        "addr:housenumber": "6",
        "addr:postcode": "3754",
        "addr:street": "Florianigasse",
        "amenity": "recycling",
        "name": "Abfallsammelzentrum Irnfritz-Bahnhof",
        "opening_hours": "Sa[3] 08:00-10:00",
        "operator": "Gemeindeverband Horn",
        "operator:type": "public",
        "recycling_type": "centre",
        "website": "https://horn.umweltverbaende.at/informationen-zu-abfall/abfallsammelzentren/"
      },
      "geometry": {
        "type": "Point",
        "coordinates": [
          15.5421427,
          48.7469355
        ]
      }
    },
    {
      "type": "Feature",
      "properties": {
        "id": "13066252389",
        "osm_type": "node",
        "lat": 48.8343876,
        "lon": 15.7225019,
        "addr:city": "Langau",
        "addr:housenumber": "2976",
        "addr:postcode": "2091",
        "addr:street": "Riegesburger Straße",
        "amenity": "recycling",
        "name": "Abfallsammelzentrum Langau",
        "opening_hours": "Fr[1] 16:00-18:00",
        "operator": "Gemeindeverband Horn",
        "operator:type": "public",
        "recycling:aluminium": "yes",
        "recycling:batteries": "yes",
        "recycling:cardboard": "yes",
        "recycling:cartons": "yes",
        "recycling:clothes": "yes",
        "recycling:cooking_oil": "yes",
        "recycling:paper": "yes",
        "recycling:scrap_metal": "yes",
        "recycling_type": "centre",
        "website": "https://horn.umweltverbaende.at/informationen-zu-abfall/abfallsammelzentren/"
      },
      "geometry": {
        "type": "Point",
        "coordinates": [
          15.7225019,
          48.8343876
        ]
      }
    },
    {
      "type": "Feature",
      "properties": {
        "id": "13066252390",
        "osm_type": "node",
        "lat": 48.6662416,
        "lon": 15.7484311,
        "addr:city": "Meiseldorf",
        "addr:housenumber": "41",
        "addr:postcode": "3744",
        "addr:street": "Klein-Meiseldorf",
        "amenity": "recycling",
        "name": "Abfallsammelzentrum Klein-Meiselsdorf",
        "opening_hours": "Fr 13:00-13:30",
        "operator": "Gemeindeverband Horn",
        "operator:type": "public",
        "recycling:cardboard": "yes",
        "recycling:cartons": "yes",
        "recycling:clothes": "yes",
        "recycling:cooking_oil": "yes",
        "recycling:paper": "yes",
        "recycling_type": "centre",
        "website": "https://horn.umweltverbaende.at/informationen-zu-abfall/abfallsammelzentren"
      },
      "geometry": {
        "type": "Point",
        "coordinates": [
          15.7484311,
          48.6662416
        ]
      }
    },
    {
      "type": "Feature",
      "properties": {
        "id": "13066252391",
        "osm_type": "node",
        "lat": 48.6767446,
        "lon": 15.8173349,
        "amenity": "recycling",
        "name": "Abfallsammelzentrum Kattau",
        "opening_hours": "Fr 08:00-12:00",
        "operator": "Gemeindeverband Horn",
        "operator:type": "public",
        "recycling:cardboard": "yes",
        "recycling:cartons": "yes",
        "recycling:cooking_oil": "yes",
        "recycling:paper": "yes",
        "recycling_type": "centre",
        "website": "https://horn.umweltverbaende.at/informationen-zu-abfall/abfallsammelzentren"
      },
      "geometry": {
        "type": "Point",
        "coordinates": [
          15.8173349,
          48.6767446
        ]
      }
    },
    {
      "type": "Feature",
      "properties": {
        "id": "13066252392",
        "osm_type": "node",
        "lat": 48.7381199,
        "lon": 15.6268109,
        "addr:city": "Pernegg",
        "addr:housenumber": "73",
        "addr:postcode": "3753",
        "addr:street": "Pernegg",
        "amenity": "recycling",
        "name": "Abfallsammelzentrum Pernegg",
        "opening_hours": "Sa[1] 08:00-10:00",
        "operator": "Gemeindeverband Horn",
        "operator:type": "public",
        "recycling_type": "centre",
        "website": "https://horn.umweltverbaende.at/informationen-zu-abfall/abfallsammelzentren"
      },
      "geometry": {
        "type": "Point",
        "coordinates": [
          15.6268109,
          48.7381199
        ]
      }
    },
    {
      "type": "Feature",
      "properties": {
        "id": "13066252394",
        "osm_type": "node",
        "lat": 48.6661786,
        "lon": 15.8863204,
        "addr:city": "Röschitz",
        "addr:housenumber": "1",
        "addr:postcode": "3743",
        "addr:street": "Hauptplatz",
        "amenity": "recycling",
        "name": "Abfallsammelzentrum Röschitz",
        "opening_hours": "Fr[1] 14:00-16:00",
        "operator": "Gemeindeverband Horn",
        "operator:type": "public",
        "recycling:batteries": "yes",
        "recycling:clothes": "yes",
        "recycling:cooking_oil": "yes",
        "recycling:electronic_items": "yes",
        "recycling:engine_oil": "yes",
        "recycling:scrap_metal": "yes",
        "recycling_type": "centre",
        "website": "https://horn.umweltverbaende.at/informationen-zu-abfall/abfallsammelzentren"
      },
      "geometry": {
        "type": "Point",
        "coordinates": [
          15.8863204,
          48.6661786
        ]
      }
    },
    {
      "type": "Feature",
      "properties": {
        "id": "13066252396",
        "osm_type": "node",
        "lat": 48.6417116,
        "lon": 15.6991877,
        "addr:city": "Rosenburg-Mold",
        "addr:housenumber": "30",
        "addr:place": "Mold",
        "addr:postcode": "3580",
        "amenity": "recycling",
        "name": "Abfallsammelzentrum Rosenburg-Mold",
        "opening_hours": "Fr 11:00-12:00; Mi[1] 17:00-19:00",
        "operator": "Gemeindeverband Horn",
        "operator:type": "public",
        "recycling_type": "centre",
        "website": "https://horn.umweltverbaende.at/informationen-zu-abfall/abfallsammelzentren"
      },
      "geometry": {
        "type": "Point",
        "coordinates": [
          15.6991877,
          48.6417116
        ]
      }
    },
    {
      "type": "Feature",
      "properties": {
        "id": "13066252397",
        "osm_type": "node",
        "lat": 48.7837391,
        "lon": 15.8160969,
        "addr:city": "Weitersfeld",
        "addr:housenumber": "353",
        "addr:postcode": "2084",
        "addr:street": "Weitersfeld",
        "amenity": "recycling",
        "name": "Abfallsammelzentrum Weitersfeld",
        "opening_hours": "Tu 08:00-9:30; Sa[1] 08:00-09:30",
        "operator": "Gemeindeverband Horn",
        "operator:type": "public",
        "recycling_type": "centre",
        "website": "https://horn.umweltverbaende.at/informationen-zu-abfall/abfallsammelzentren"
      },
      "geometry": {
        "type": "Point",
        "coordinates": [
          15.8160969,
          48.7837391
        ]
      }
    }
  ],
  "children": []
}