{
  "bbox": {
    "south": 46.372652,
    "west": 11.438358999999998,
    "north": 47.033758500000005,
    "east": 13.345766
  },
  "poiCount": 37,
  "leafCount": 37,
  "averagePosition": [
    12.38719748918919,
    46.731396759459464
  ],
  "data": [
    {
      "type": "Feature",
      "properties": {
        "id": "941776925",
        "osm_type": "node",
        "lat": 47.0024092,
        "lon": 11.505536,
        "ele": "1371",
        "name": "Brenner - Brennero",
        "name:de": "Brenner",
        "name:it": "Brennero",
        "network": "RFI",
        "network:wikidata": "Q1060049",
        "operator": "RFI",
        "operator:wikidata": "Q1060049",
        "operator:wikipedia": "en:Rete Ferroviaria Italiana",
        "public_transport": "station",
        "railway": "station",
        "railway:position": "239.5",
        "railway:position:exact": "239.533",
        "railway:ref": "Be",
        "railway:ref:DB": "XIBN",
        "railway:ref:ÖBB": "Be",
        "train": "yes",
        "uic_name": "Brennero/Brenner",
        "uic_ref": "8300092",
        "wheelchair": "no",
        "wikidata": "Q373503",
        "wikipedia": "it:Stazione di Brennero"
      },
      "geometry": {
        "type": "Point",
        "coordinates": [
          11.505536,
          47.0024092
        ]
      }
    },
    {
      "type": "Feature",
      "properties": {
        "id": "6770315886",
        "osm_type": "node",
        "lat": 46.8957298,
        "lon": 11.4403242,
        "check_date:wheelchair": "2023-08-22",
        "name": "Sterzing-Pfitsch - Vipiteno-Val di Vizze",
        "name:de": "Sterzing-Pfitsch",
        "name:it": "Vipiteno-Val di Vizze",
        "network": "RFI",
        "operator": "RFI",
        "operator:wikidata": "Q1060049",
        "operator:wikipedia": "en:Rete Ferroviaria Italiana",
        "public_transport": "station",
        "railway": "station",
        "source": "https://github.com/trainline-eu/stations",
        "train": "yes",
        "uic_name": "Vipiteno/Sterzing",
        "uic_ref": "8302006",
        "wheelchair": "no",
        "wikidata": "Q16610079",
        "wikipedia": "de:Bahnhof Sterzing-Pfitsch"
      },
      "geometry": {
        "type": "Point",
        "coordinates": [
          11.4403242,
          46.8957298
        ]
      }
    },
    {
      "type": "Feature",
      "properties": {
        "id": "6770346689",
        "osm_type": "node",
        "lat": 46.9380781,
        "lon": 11.4412972,
        "name": "Gossensaß - Colle Isarco",
        "name:de": "Gossensaß",
        "name:it": "Colle Isarco",
        "network": "RFI",
        "operator": "RFI",
        "operator:wikidata": "Q1060049",
        "operator:wikipedia": "en:Rete Ferroviaria Italiana",
        "public_transport": "station",
        "railway": "station",
        "train": "yes",
        "uic_name": "Colle Isarco/Gossensass",
        "uic_ref": "8300091",
        "wheelchair": "yes",
        "wikidata": "Q16609070",
        "wikipedia": "it:Stazione di Colle Isarco"
      },
      "geometry": {
        "type": "Point",
        "coordinates": [
          11.4412972,
          46.9380781
        ]
      }
    },
    {
      "type": "Feature",
      "properties": {
        "id": "322571746",
        "osm_type": "node",
        "lat": 46.9810598,
        "lon": 13.0509318,
        "funicular": "yes",
        "public_transport": "station",
        "railway": "station",
        "station": "funicular",
        "tunnel": "yes"
      },
      "geometry": {
        "type": "Point",
        "coordinates": [
          13.0509318,
          46.9810598
        ]
      }
    },
    {
      "type": "Feature",
      "properties": {
        "id": "2095047443",
        "osm_type": "node",
        "lat": 46.9819073,
        "lon": 13.1760674,
        "ele": "1182",
        "name": "Mallnitz-Obervellach",
        "operator": "ÖBB-Infrastruktur AG",
        "public_transport": "station",
        "railway": "station",
        "railway:position": "45.9",
        "railway:position:exact": "45.932",
        "railway:ref": "Ma",
        "uic_name": "Mallnitz-Obervellach",
        "uic_ref": "8100093",
        "wheelchair": "yes"
      },
      "geometry": {
        "type": "Point",
        "coordinates": [
          13.1760674,
          46.9819073
        ]
      }
    },
    {
      "type": "Feature",
      "properties": {
        "id": "2749726850",
        "osm_type": "node",
        "lat": 46.8690551,
        "lon": 11.4883592,
        "name": "Freienfeld - Campo di Trens",
        "name:de": "Freienfeld",
        "name:it": "Campo di Trens",
        "network": "RFI",
        "operator": "RFI",
        "operator:wikidata": "Q1060049",
        "operator:wikipedia": "en:Rete Ferroviaria Italiana",
        "public_transport": "station",
        "railway": "station",
        "source": "https://github.com/trainline-eu/stations",
        "train": "yes",
        "uic_name": "Campo di Trens/Freienfeld",
        "uic_ref": "8302007",
        "wikidata": "Q3969180",
        "wikipedia": "it:Stazione di Campo di Trens"
      },
      "geometry": {
        "type": "Point",
        "coordinates": [
          11.4883592,
          46.8690551
        ]
      }
    },
    {
      "type": "Feature",
      "properties": {
        "id": "7684660332",
        "osm_type": "node",
        "lat": 46.5394422,
        "lon": 11.4593082,
        "light_rail": "yes",
        "name": "Klobenstein - Collalbo",
        "name:de": "Klobenstein",
        "name:it": "Collalbo",
        "railway": "station",
        "wheelchair": "yes",
        "wikidata": "Q98608860"
      },
      "geometry": {
        "type": "Point",
        "coordinates": [
          11.4593082,
          46.5394422
        ]
      }
    },
    {
      "type": "Feature",
      "properties": {
        "id": "942393825",
        "osm_type": "node",
        "lat": 46.7887912,
        "lon": 11.6100431,
        "access": "customers",
        "highway": "elevator",
        "name": "Franzensfeste - Fortezza",
        "name:de": "Franzensfeste",
        "name:it": "Fortezza",
        "network": "RFI",
        "opening_hours": "24/7",
        "operator": "RFI",
        "operator:wikidata": "Q1060049",
        "operator:wikipedia": "en:Rete Ferroviaria Italiana",
        "public_transport": "station",
        "railway": "station",
        "train": "yes",
        "uic_name": "Fortezza/Franzensfeste",
        "uic_ref": "8300089",
        "wheelchair": "yes;no",
        "wikidata": "Q16609207",
        "wikipedia": "it:Stazione di Fortezza"
      },
      "geometry": {
        "type": "Point",
        "coordinates": [
          11.6100431,
          46.7887912
        ]
      }
    },
    {
      "type": "Feature",
      "properties": {
        "id": "1455005001",
        "osm_type": "node",
        "lat": 46.710005,
        "lon": 11.6497561,
        "bus": "no",
        "check_date": "2023-06-28",
        "name": "Brixen - Bressanone",
        "name:de": "Brixen",
        "name:it": "Bressanone",
        "network": "RFI",
        "operator": "RFI",
        "operator:wikidata": "Q1060049",
        "operator:wikipedia": "en:Rete Ferroviaria Italiana",
        "public_transport": "station",
        "railway": "station",
        "source": "https://github.com/trainline-eu/stations",
        "toilets:wheelchair": "no",
        "train": "yes",
        "uic_name": "Bressanone/Brixen",
        "uic_ref": "8302014",
        "wheelchair": "limited",
        "wikidata": "Q3969119",
        "wikipedia": "it:Stazione di Bressanone"
      },
      "geometry": {
        "type": "Point",
        "coordinates": [
          11.6497561,
          46.710005
        ]
      }
    },
    {
      "type": "Feature",
      "properties": {
        "id": "1455005006",
        "osm_type": "node",
        "lat": 46.6427301,
        "lon": 11.5725738,
        "name": "Klausen - Chiusa",
        "name:de": "Klausen",
        "name:it": "Chiusa",
        "network": "RFI",
        "operator": "RFI",
        "operator:wikidata": "Q1060049",
        "operator:wikipedia": "en:Rete Ferroviaria Italiana",
        "public_transport": "station",
        "railway": "station",
        "source": "https://github.com/trainline-eu/stations",
        "uic_ref": "8302017",
        "wheelchair": "yes",
        "wikidata": "Q3969408",
        "wikipedia": "it:Stazione di Chiusa"
      },
      "geometry": {
        "type": "Point",
        "coordinates": [
          11.5725738,
          46.6427301
        ]
      }
    },
    {
      "type": "Feature",
      "properties": {
        "id": "1455005014",
        "osm_type": "node",
        "lat": 46.6011636,
        "lon": 11.5327733,
        "name": "Waidbruck-Lajen - Ponte Gardena-Laion",
        "name:de": "Waidbruck-Lajen",
        "name:it": "Ponte Gardena-Laion",
        "name:lld": "Pruca-Laion",
        "network": "RFI",
        "operator": "RFI",
        "operator:wikidata": "Q1060049",
        "operator:wikipedia": "en:Rete Ferroviaria Italiana",
        "public_transport": "station",
        "railway": "station",
        "source": "https://github.com/trainline-eu/stations",
        "train": "yes",
        "uic_ref": "8302020",
        "wikidata": "Q3970527",
        "wikipedia": "de:Bahnhof Waidbruck-Lajen"
      },
      "geometry": {
        "type": "Point",
        "coordinates": [
          11.5327733,
          46.6011636
        ]
      }
    },
    {
      "type": "Feature",
      "properties": {
        "id": "5943496647",
        "osm_type": "node",
        "lat": 46.794706,
        "lon": 11.9297925,
        "name": "Bruneck - Brunico",
        "name:de": "Bruneck",
        "name:it": "Brunico",
        "public_transport": "station",
        "railway": "station",
        "source": "https://github.com/trainline-eu/stations",
        "uic_name": "Brunico/Bruneck",
        "uic_ref": "8302107",
        "wheelchair": "yes",
        "wikidata": "Q3969127",
        "wikipedia": "it:Stazione di Brunico"
      },
      "geometry": {
        "type": "Point",
        "coordinates": [
          11.9297925,
          46.794706
        ]
      }
    },
    {
      "type": "Feature",
      "properties": {
        "id": "5943496648",
        "osm_type": "node",
        "lat": 46.7976518,
        "lon": 11.8442018,
        "name": "Ehrenburg - Casteldarne",
        "name:de": "Ehrenburg",
        "name:it": "Casteldarne",
        "public_transport": "station",
        "railway": "station",
        "uic_name": "Casteldarne/Ehrenburg",
        "uic_ref": "8300401",
        "wheelchair": "yes",
        "wikidata": "Q3969300",
        "wikipedia": "it:Stazione di Casteldarne"
      },
      "geometry": {
        "type": "Point",
        "coordinates": [
          11.8442018,
          46.7976518
        ]
      }
    },
    {
      "type": "Feature",
      "properties": {
        "id": "5943496650",
        "osm_type": "node",
        "lat": 46.7971451,
        "lon": 11.669977,
        "name": "Mühlbach - Rio di Pusteria",
        "name:de": "Mühlbach",
        "name:it": "Rio di Pusteria",
        "public_transport": "station",
        "railway": "station",
        "uic_name": "Rio di Pusteria/Mühlbach",
        "uic_ref": "8300428",
        "wheelchair": "yes",
        "wikidata": "Q16609723",
        "wikipedia": "it:Stazione di Rio di Pusteria"
      },
      "geometry": {
        "type": "Point",
        "coordinates": [
          11.669977,
          46.7971451
        ]
      }
    },
    {
      "type": "Feature",
      "properties": {
        "id": "6770404379",
        "osm_type": "node",
        "lat": 46.7815475,
        "lon": 11.903195,
        "name": "St. Lorenzen - San Lorenzo di Sebato",
        "name:de": "St. Lorenzen",
        "name:it": "San Lorenzo di Sebato",
        "public_transport": "station",
        "railway": "station",
        "uic_name": "San Lorenzo/St.Lorenzen",
        "wheelchair": "yes",
        "wikidata": "Q16609800",
        "wikipedia": "it:Stazione di San Lorenzo"
      },
      "geometry": {
        "type": "Point",
        "coordinates": [
          11.903195,
          46.7815475
        ]
      }
    },
    {
      "type": "Feature",
      "properties": {
        "id": "6770429167",
        "osm_type": "node",
        "lat": 46.7672468,
        "lon": 12.0302765,
        "name": "Olang-Antholz - Valdaora-Anterselva",
        "name:de": "Olang-Antholz",
        "name:it": "Valdaora-Anterselva",
        "operator": "RFI",
        "operator:wikidata": "Q1060049",
        "public_transport": "station",
        "railway": "station",
        "uic_name": "Valdaora/Olang",
        "uic_ref": "8300443",
        "wheelchair": "yes",
        "wikidata": "Q16610011",
        "wikipedia": "it:Stazione di Valdaora-Anterselva"
      },
      "geometry": {
        "type": "Point",
        "coordinates": [
          12.0302765,
          46.7672468
        ]
      }
    },
    {
      "type": "Feature",
      "properties": {
        "id": "1697836558",
        "osm_type": "node",
        "lat": 46.3862724,
        "lon": 12.3526744,
        "name": "Perarolo di Cadore",
        "network": "RFI",
        "operator": "RFI",
        "operator:wikidata": "Q1060049",
        "operator:wikipedia": "en:Rete Ferroviaria Italiana",
        "public_transport": "station",
        "railway": "station",
        "train": "yes",
        "wikidata": "Q3970433",
        "wikipedia": "it:Stazione di Perarolo di Cadore"
      },
      "geometry": {
        "type": "Point",
        "coordinates": [
          12.3526744,
          46.3862724
        ]
      }
    },
    {
      "type": "Feature",
      "properties": {
        "id": "3020749732",
        "osm_type": "node",
        "lat": 46.7327329,
        "lon": 12.272058,
        "name": "Innichen - San Candido",
        "name:de": "Innichen",
        "name:it": "San Candido",
        "operator": "RFI",
        "public_transport": "station",
        "railway": "station",
        "railway:position": "64.5",
        "railway:position:exact": "64.509",
        "railway:ref": "Sc",
        "railway:ref:DB": "XISCI",
        "railway:ref:ÖBB": "Sc",
        "train": "yes",
        "uic_name": "San Candido/Innichen",
        "uic_ref": "8300114",
        "wheelchair": "no",
        "wikidata": "Q3970782",
        "wikipedia": "it:Stazione di San Candido"
      },
      "geometry": {
        "type": "Point",
        "coordinates": [
          12.272058,
          46.7327329
        ]
      }
    },
    {
      "type": "Feature",
      "properties": {
        "id": "5673125167",
        "osm_type": "node",
        "lat": 46.7525645,
        "lon": 12.1081819,
        "check_date:wheelchair": "2024-08-16",
        "name": "Welsberg-Gsies - Monguelfo-Valle di Casies",
        "name:de": "Welsberg-Gsies",
        "name:it": "Monguelfo-Valle di Casies",
        "operator": "RFI",
        "operator:wikidata": "Q1060049",
        "public_transport": "station",
        "railway": "station",
        "uic_name": "Monguelfo/Welsberg",
        "uic_ref": "8300421",
        "wheelchair": "yes"
      },
      "geometry": {
        "type": "Point",
        "coordinates": [
          12.1081819,
          46.7525645
        ]
      }
    },
    {
      "type": "Feature",
      "properties": {
        "id": "6738731097",
        "osm_type": "node",
        "lat": 46.7248009,
        "lon": 12.2254557,
        "name": "Toblach - Dobbiaco",
        "name:de": "Toblach",
        "name:it": "Dobbiaco",
        "public_transport": "station",
        "railway": "station",
        "uic_name": "Dobbiaco/Toblach",
        "uic_ref": "8300104",
        "wikidata": "Q3969534",
        "wikipedia": "it:Stazione di Dobbiaco"
      },
      "geometry": {
        "type": "Point",
        "coordinates": [
          12.2254557,
          46.7248009
        ]
      }
    },
    {
      "type": "Feature",
      "properties": {
        "id": "6775330229",
        "osm_type": "node",
        "lat": 46.7365006,
        "lon": 12.1670606,
        "name": "Niederdorf-Prags - Villabassa-Braies",
        "name:RFI": "Villabassa-Braies-Val di Braies",
        "name:de": "Niederdorf-Prags",
        "name:it": "Villabassa-Braies",
        "name:suedtirolmobil:de": "Niederdorf, Bahnnhof Niederdorf - Prags",
        "name:suedtirolmobil:it": "Villabassa, Stazione di Villabassa- Braies",
        "operator": "RFI",
        "operator:wikidata": "Q1060049",
        "public_transport": "station",
        "railway": "station",
        "railway:position:exact": "55.943",
        "ref:RFI": "3080",
        "short_name": "Niederdorf - Villabassa",
        "short_name:de": "Niederdorf",
        "short_name:it": "Villabassa",
        "source:uic_ref": "https://github.com/trainline-eu/stations",
        "start_date": "1871",
        "station": "train",
        "uic_name": "Villabassa-Braies Niederdorf-Prags",
        "uic_ref": "8302112",
        "wheelchair": "yes"
      },
      "geometry": {
        "type": "Point",
        "coordinates": [
          12.1670606,
          46.7365006
        ]
      }
    },
    {
      "type": "Feature",
      "properties": {
        "id": "6813784587",
        "osm_type": "node",
        "lat": 46.4439401,
        "lon": 12.388554,
        "name": "Calalzo - Pieve di Cadore - Cortina",
        "network": "RFI",
        "operator": "RFI",
        "operator:wikidata": "Q1060049",
        "operator:wikipedia": "en:Rete Ferroviaria Italiana",
        "public_transport": "station",
        "railway": "station",
        "train": "yes",
        "wheelchair": "yes",
        "wikidata": "Q3969155",
        "wikipedia": "it:Stazione di Calalzo-Pieve di Cadore-Cortina"
      },
      "geometry": {
        "type": "Point",
        "coordinates": [
          12.388554,
          46.4439401
        ]
      }
    },
    {
      "type": "Feature",
      "properties": {
        "id": "8285605303",
        "osm_type": "node",
        "lat": 46.7456299,
        "lon": 12.4250121,
        "name": "Sillian",
        "operator": "ÖBB-Infrastruktur AG",
        "public_transport": "station",
        "railway": "station",
        "railway:position": "298.6",
        "railway:position:exact": "298.627",
        "railway:ref": "Sil",
        "wheelchair": "yes"
      },
      "geometry": {
        "type": "Point",
        "coordinates": [
          12.4250121,
          46.7456299
        ]
      }
    },
    {
      "type": "Feature",
      "properties": {
        "id": "3020821754",
        "osm_type": "node",
        "lat": 46.8284091,
        "lon": 12.7714261,
        "name": "Lienz",
        "operator": "ÖBB-Infrastruktur AG",
        "public_transport": "station",
        "railway": "station",
        "railway:position": "268.4",
        "railway:position:exact": "268.381",
        "railway:ref": "Lie",
        "toilets:wheelchair": "yes",
        "uic_name": "Lienz (A)",
        "uic_ref": "8100141",
        "wheelchair": "yes",
        "wikidata": "Q801093",
        "wikipedia": "de:Bahnhof Lienz"
      },
      "geometry": {
        "type": "Point",
        "coordinates": [
          12.7714261,
          46.8284091
        ]
      }
    },
    {
      "type": "Feature",
      "properties": {
        "id": "3022799606",
        "osm_type": "node",
        "lat": 46.7841198,
        "lon": 12.6707258,
        "name": "Thal",
        "operator": "ÖBB-Infrastruktur AG",
        "railway": "station",
        "railway:position": "278,3",
        "railway:position:exact": "278.334",
        "railway:ref": "Tl",
        "uic_name": "Thal",
        "uic_ref": "8100324",
        "wikidata": "Q37944996"
      },
      "geometry": {
        "type": "Point",
        "coordinates": [
          12.6707258,
          46.7841198
        ]
      }
    },
    {
      "type": "Feature",
      "properties": {
        "id": "3023488599",
        "osm_type": "node",
        "lat": 46.8147596,
        "lon": 12.8335891,
        "name": "Dölsach",
        "operator": "ÖBB-Infrastruktur AG",
        "railway": "station",
        "railway:position": "263.2",
        "railway:position:exact": "263.235",
        "railway:ref": "Doe",
        "uic_name": "Dölsach",
        "uic_ref": "8100143",
        "wheelchair": "yes",
        "wikidata": "Q56910381"
      },
      "geometry": {
        "type": "Point",
        "coordinates": [
          12.8335891,
          46.8147596
        ]
      }
    },
    {
      "type": "Feature",
      "properties": {
        "id": "4196633902",
        "osm_type": "node",
        "lat": 46.7463446,
        "lon": 12.9737966,
        "name": "Oberdrauburg",
        "operator": "ÖBB-Infrastruktur AG",
        "public_transport": "station",
        "railway": "station",
        "railway:position": "249.9",
        "railway:position:exact": "249.856",
        "railway:ref": "Od",
        "uic_name": "Oberdrauburg",
        "uic_ref": "8100144",
        "wheelchair": "yes",
        "wikidata": "Q56910567"
      },
      "geometry": {
        "type": "Point",
        "coordinates": [
          12.9737966,
          46.7463446
        ]
      }
    },
    {
      "type": "Feature",
      "properties": {
        "id": "4549572565",
        "osm_type": "node",
        "lat": 46.6712353,
        "lon": 13.0032295,
        "ele": "710",
        "name": "Kötschach-Mauthen",
        "operator": "Gailtalbahn Betriebs Gmbh",
        "public_transport": "station",
        "railway": "station",
        "railway:position": "61.7",
        "railway:position:exact": "61.714",
        "railway:ref": "Kom",
        "uic_name": "Kötschach-Mauthen",
        "uic_ref": "8100292",
        "wikidata": "Q111045753"
      },
      "geometry": {
        "type": "Point",
        "coordinates": [
          13.0032295,
          46.6712353
        ]
      }
    },
    {
      "type": "Feature",
      "properties": {
        "id": "1637349455",
        "osm_type": "node",
        "lat": 46.7526829,
        "lon": 13.2597578,
        "name": "Steinfeld im Drautal",
        "operator": "ÖBB-Infrastruktur AG",
        "public_transport": "station",
        "railway": "station",
        "railway:position": "226.5",
        "railway:position:exact": "226.460",
        "railway:ref": "Std",
        "uic_name": "Steinfeld im Drautal",
        "uic_ref": "8100149",
        "wheelchair": "yes"
      },
      "geometry": {
        "type": "Point",
        "coordinates": [
          13.2597578,
          46.7526829
        ]
      }
    },
    {
      "type": "Feature",
      "properties": {
        "id": "4192977684",
        "osm_type": "node",
        "lat": 46.3736718,
        "lon": 13.1331002,
        "name": "Carnia",
        "network": "RFI",
        "operator": "RFI",
        "operator:wikidata": "Q1060049",
        "operator:wikipedia": "en:Rete Ferroviaria Italiana",
        "public_transport": "station",
        "railway": "station",
        "train": "yes",
        "wikidata": "Q3969234",
        "wikipedia": "it:Stazione di Carnia"
      },
      "geometry": {
        "type": "Point",
        "coordinates": [
          13.1331002,
          46.3736718
        ]
      }
    },
    {
      "type": "Feature",
      "properties": {
        "id": "4192978489",
        "osm_type": "node",
        "lat": 46.5083891,
        "lon": 13.3116183,
        "name": "Pontebba",
        "name:de": "Pontafel",
        "network": "RFI",
        "operator": "RFI",
        "operator:wikidata": "Q1060049",
        "operator:wikipedia": "en:Rete Ferroviaria Italiana",
        "public_transport": "station",
        "railway": "station",
        "train": "yes",
        "wikidata": "Q3970540",
        "wikipedia": "it:Stazione di Pontebba"
      },
      "geometry": {
        "type": "Point",
        "coordinates": [
          13.3116183,
          46.5083891
        ]
      }
    },
    {
      "type": "Feature",
      "properties": {
        "id": "4196636090",
        "osm_type": "node",
        "lat": 46.7357847,
        "lon": 13.0754645,
        "name": "Dellach im Drautal",
        "operator": "ÖBB-Infrastruktur AG",
        "railway": "station",
        "railway:position": "241.8",
        "railway:position:exact": "241.780",
        "railway:ref": "De",
        "uic_name": "Dellach im Drautal",
        "uic_ref": "8100145",
        "wikidata": "Q56911073"
      },
      "geometry": {
        "type": "Point",
        "coordinates": [
          13.0754645,
          46.7357847
        ]
      }
    },
    {
      "type": "Feature",
      "properties": {
        "id": "4196639652",
        "osm_type": "node",
        "lat": 46.7411748,
        "lon": 13.1909935,
        "name": "Greifenburg-Weißensee",
        "operator": "ÖBB-Infrastruktur AG",
        "public_transport": "station",
        "railway": "station",
        "railway:position": "232.1",
        "railway:position:exact": "232.075",
        "railway:ref": "Gre",
        "uic_name": "Greifenburg-Weißensee",
        "uic_ref": "8100146",
        "wheelchair": "yes"
      },
      "geometry": {
        "type": "Point",
        "coordinates": [
          13.1909935,
          46.7411748
        ]
      }
    },
    {
      "type": "Feature",
      "properties": {
        "id": "4196648569",
        "osm_type": "node",
        "lat": 46.7708476,
        "lon": 13.3414767,
        "name": "Kleblach-Lind",
        "operator": "ÖBB-Infrastruktur AG",
        "public_transport": "station",
        "railway": "station",
        "railway:position": "219.6",
        "railway:position:exact": "219.574",
        "railway:ref": "Kel",
        "train": "yes",
        "uic_name": "Kleblach-Lind",
        "uic_ref": "8101055",
        "wheelchair": "limited"
      },
      "geometry": {
        "type": "Point",
        "coordinates": [
          13.3414767,
          46.7708476
        ]
      }
    },
    {
      "type": "Feature",
      "properties": {
        "id": "4549572562",
        "osm_type": "node",
        "lat": 46.658143,
        "lon": 13.0812822,
        "ele": "655",
        "name": "Dellach im Gailtal",
        "operator": "Gailtalbahn Betriebs Gmbh",
        "railway": "station",
        "railway:position": "55.1",
        "railway:position:exact": "55.140",
        "railway:ref": "Dgt",
        "uic_name": "Dellach im Gailtal",
        "uic_ref": "8100459",
        "wheelchair": "yes"
      },
      "geometry": {
        "type": "Point",
        "coordinates": [
          13.0812822,
          46.658143
        ]
      }
    },
    {
      "type": "Feature",
      "properties": {
        "id": "4549572564",
        "osm_type": "node",
        "lat": 46.6378582,
        "lon": 13.1827649,
        "ele": "622",
        "end_date": "2016-12-10",
        "name": "Kirchbach im Gailtal",
        "operator": "Gailtalbahn Betriebs Gmbh",
        "railway": "station",
        "railway:position": "46.7",
        "railway:position:exact": "46.702",
        "railway:ref": "Kig",
        "uic_ref": "8100287"
      },
      "geometry": {
        "type": "Point",
        "coordinates": [
          13.1827649,
          46.6378582
        ]
      }
    },
    {
      "type": "Feature",
      "properties": {
        "id": "4549572570",
        "osm_type": "node",
        "lat": 46.6271497,
        "lon": 13.2536721,
        "ele": "602",
        "name": "Rattendorf-Jenig",
        "operator": "Gailtalbahn Betriebs Gmbh",
        "railway": "station",
        "railway:position": "40.8",
        "railway:position:exact": "40.829",
        "railway:ref": "Rdj",
        "uic_name": "Rattendorf-Jenig",
        "uic_ref": "8100403"
      },
      "geometry": {
        "type": "Point",
        "coordinates": [
          13.2536721,
          46.6271497
        ]
      }
    }
  ],
  "children": []
}