{
  "bbox": {
    "south": 48.355971499999995,
    "west": 13.345766,
    "north": 49.017078,
    "east": 15.253173
  },
  "poiCount": 131,
  "leafCount": 0,
  "averagePosition": [
    14.22177640610687,
    48.69406588320611
  ],
  "data": [],
  "children": [
    {
      "bbox": {
        "south": 48.355971499999995,
        "west": 13.345766,
        "north": 48.68652475,
        "east": 14.2994695
      },
      "poiCount": 38,
      "leafCount": 38,
      "averagePosition": [
        13.790422594736844,
        48.53872052105263
      ],
      "data": [
        {
          "type": "Feature",
          "properties": {
            "id": "437472104",
            "osm_type": "node",
            "lat": 48.5698769,
            "lon": 13.462092,
            "fee": "yes",
            "name": "RömerMuseum Kastell Boiotro - Passau",
            "opening_hours": "Mar-Nov 15: Tu-Su 10:00-16:00",
            "tourism": "museum",
            "website": "http://www.stadtarchaeologie.de/museum/",
            "wheelchair": "no",
            "wikidata": "Q2179608",
            "wikipedia": "de:Römermuseum Kastell Boiotro"
          },
          "geometry": {
            "type": "Point",
            "coordinates": [
              13.462092,
              48.5698769
            ]
          }
        },
        {
          "type": "Feature",
          "properties": {
            "id": "895520933",
            "osm_type": "node",
            "lat": 48.5774384,
            "lon": 13.4707785,
            "addr:city": "Passau",
            "addr:country": "DE",
            "addr:housenumber": "125",
            "addr:postcode": "94034",
            "addr:street": "Oberhaus",
            "check_date": "2023-07-17",
            "fee": "yes",
            "name": "Oberhausmuseum",
            "opening_hours": "Mar 03 - Nov 15: Mo-Fr 09:00-17:00; Sa-Su 10:00-18:00; PH 10:00-18:00; Dec 25 - Jan 06: 10:00-16:00",
            "tourism": "museum",
            "wheelchair": "no",
            "wikidata": "Q2009806",
            "wikipedia": "de:Oberhausmuseum"
          },
          "geometry": {
            "type": "Point",
            "coordinates": [
              13.4707785,
              48.5774384
            ]
          }
        },
        {
          "type": "Feature",
          "properties": {
            "id": "994512814",
            "osm_type": "node",
            "lat": 48.6524546,
            "lon": 13.5198721,
            "addr:city": "Büchlberg",
            "addr:housenumber": "7",
            "addr:place": "Schwolgau",
            "addr:postcode": "94124",
            "name": "Kaffeekannenmuseum",
            "opening_hours": "Mo-Fr 10:00-17:00; Sa 14:00-17:00",
            "operator": "Frieda u. Josef Reitberger",
            "tourism": "museum",
            "website": "https://www.buechlberg.de/index.php/kaffeekannenmuseum.html",
            "wheelchair": "no"
          },
          "geometry": {
            "type": "Point",
            "coordinates": [
              13.5198721,
              48.6524546
            ]
          }
        },
        {
          "type": "Feature",
          "properties": {
            "id": "1298353556",
            "osm_type": "node",
            "lat": 48.5751045,
            "lon": 13.4684232,
            "check_date": "2024-07-21",
            "fee": "yes",
            "name": "Passauer Glasmuseum",
            "name:en": "Passau Glass Museum",
            "opening_hours": "Mo-Su 09:00-17:00",
            "tourism": "museum",
            "website": "https://www.glasmuseum.de/",
            "wheelchair": "no",
            "wikidata": "Q1711655",
            "wikipedia": "de:Passauer Glasmuseum"
          },
          "geometry": {
            "type": "Point",
            "coordinates": [
              13.4684232,
              48.5751045
            ]
          }
        },
        {
          "type": "Feature",
          "properties": {
            "id": "4059945922",
            "osm_type": "node",
            "lat": 48.5745727,
            "lon": 13.4728006,
            "addr:city": "Passau",
            "addr:country": "DE",
            "addr:housenumber": "17",
            "addr:postcode": "94032",
            "addr:street": "Bräugasse",
            "addr:suburb": "Altstadt",
            "check_date:opening_hours": "2024-10-11",
            "fee": "yes",
            "name": "Museum Moderner Kunst",
            "opening_hours": "Tu-Su 10:00-18:00",
            "tourism": "museum",
            "website": "https://www.mmk-passau.de/",
            "wikidata": "Q1486738",
            "wikipedia": "de:Museum Moderner Kunst (Passau)"
          },
          "geometry": {
            "type": "Point",
            "coordinates": [
              13.4728006,
              48.5745727
            ]
          }
        },
        {
          "type": "Feature",
          "properties": {
            "id": "4143051330",
            "osm_type": "node",
            "lat": 48.6612823,
            "lon": 13.4340566,
            "name": "Modellbahnhaus Rocktäschl",
            "tourism": "museum"
          },
          "geometry": {
            "type": "Point",
            "coordinates": [
              13.4340566,
              48.6612823
            ]
          }
        },
        {
          "type": "Feature",
          "properties": {
            "id": "4755985588",
            "osm_type": "node",
            "lat": 48.5737773,
            "lon": 13.4636416,
            "addr:city": "Passau",
            "addr:country": "DE",
            "addr:housenumber": "2",
            "addr:postcode": "94032",
            "addr:street": "Unterer Sand",
            "contact:website": "https://www.museums1.com/DE/Passau/859921180728142/Hochwassermuseum-Passau",
            "name": "Ottfried Fischers Hochwasser-Museum",
            "opening_hours": "Mo-Fr 14:00-18:00; Tu off; Sa,Su 13:00-18:00",
            "start_date": "2016-09-29",
            "tourism": "museum",
            "url": "https://www.niederbayern-wiki.de/wiki/Hochwassermuseum_(Passau)"
          },
          "geometry": {
            "type": "Point",
            "coordinates": [
              13.4636416,
              48.5737773
            ]
          }
        },
        {
          "type": "Feature",
          "properties": {
            "id": "7602198047",
            "osm_type": "node",
            "lat": 48.4582416,
            "lon": 13.4293418,
            "email": "stadtmuseum@schaerding.ooe.gv.at",
            "fee": "no",
            "name": "Granitmuseum",
            "opening_hours": "Jul-Oct 08:00-20:00",
            "tourism": "museum",
            "website": "https://www.schaerding.info/barockstadt-schaerding/sehen-erleben/-museen-galerien/granitmuseum-schaerding.html"
          },
          "geometry": {
            "type": "Point",
            "coordinates": [
              13.4293418,
              48.4582416
            ]
          }
        },
        {
          "type": "Feature",
          "properties": {
            "id": "11708242809",
            "osm_type": "node",
            "lat": 48.6696969,
            "lon": 13.5119424,
            "contact:phone": "+498505900812+498505900813",
            "contact:website": "https://www.stoabruch-buechlberg.de/granitmuseum.html",
            "description": "Öffnungszeiten laut Tafel am Gebäude 01.04-31.10 Di.,Mi.,Fr,.-So 10:00-18:00. Führungen jeden Mittwoch 16:00-18:00 oder nach Vereinbarung. Öffnungszeiten auf der Website sind anders.",
            "name": "Steinbruchmuseum",
            "tourism": "museum"
          },
          "geometry": {
            "type": "Point",
            "coordinates": [
              13.5119424,
              48.6696969
            ]
          }
        },
        {
          "type": "Feature",
          "properties": {
            "id": "12066574488",
            "osm_type": "node",
            "lat": 48.5776553,
            "lon": 13.4583396,
            "museum": "history",
            "name": "Mittelalterliches Foltermuseum",
            "tourism": "museum"
          },
          "geometry": {
            "type": "Point",
            "coordinates": [
              13.4583396,
              48.5776553
            ]
          }
        },
        {
          "type": "Feature",
          "properties": {
            "id": "295082771",
            "osm_type": "node",
            "lat": 48.577335,
            "lon": 13.9250402,
            "name": "Brezerhaus",
            "tourism": "museum"
          },
          "geometry": {
            "type": "Point",
            "coordinates": [
              13.9250402,
              48.577335
            ]
          }
        },
        {
          "type": "Feature",
          "properties": {
            "id": "324819615",
            "osm_type": "node",
            "lat": 48.6455544,
            "lon": 13.971643,
            "addr:city": "Aigen-Schlägl",
            "addr:country": "AT",
            "addr:housenumber": "8",
            "addr:postcode": "4160",
            "addr:street": "Kirchengasse",
            "name": "Vogelmuseum",
            "tourism": "museum"
          },
          "geometry": {
            "type": "Point",
            "coordinates": [
              13.971643,
              48.6455544
            ]
          }
        },
        {
          "type": "Feature",
          "properties": {
            "id": "331597103",
            "osm_type": "node",
            "lat": 48.5706887,
            "lon": 13.9935081,
            "addr:city": "Rohrbach-Berg",
            "addr:country": "AT",
            "addr:housenumber": "6",
            "addr:postcode": "4150",
            "addr:street": "Linzer Straße",
            "name": "Museum des Buchdrucks",
            "tourism": "museum",
            "website": "https://www.ooemuseen.at/museum/251-museum-des-buchdrucks"
          },
          "geometry": {
            "type": "Point",
            "coordinates": [
              13.9935081,
              48.5706887
            ]
          }
        },
        {
          "type": "Feature",
          "properties": {
            "id": "415299752",
            "osm_type": "node",
            "lat": 48.5817563,
            "lon": 13.9871521,
            "name": "Mühlkreisbahnmuseum",
            "railway": "museum",
            "tourism": "museum"
          },
          "geometry": {
            "type": "Point",
            "coordinates": [
              13.9871521,
              48.5817563
            ]
          }
        },
        {
          "type": "Feature",
          "properties": {
            "id": "457496486",
            "osm_type": "node",
            "lat": 48.6280438,
            "lon": 13.6359187,
            "name": "Schnapsmuseum",
            "tourism": "museum",
            "wheelchair": "no"
          },
          "geometry": {
            "type": "Point",
            "coordinates": [
              13.6359187,
              48.6280438
            ]
          }
        },
        {
          "type": "Feature",
          "properties": {
            "id": "702357786",
            "osm_type": "node",
            "lat": 48.3853839,
            "lon": 13.8783947,
            "name": "Stefan Fadinger-Museum",
            "tourism": "museum",
            "website": "http://www.fadingermuseum.at/",
            "wikidata": "Q15060122"
          },
          "geometry": {
            "type": "Point",
            "coordinates": [
              13.8783947,
              48.3853839
            ]
          }
        },
        {
          "type": "Feature",
          "properties": {
            "id": "848528072",
            "osm_type": "node",
            "lat": 48.4811963,
            "lon": 13.9930953,
            "addr:city": "Neufelden",
            "addr:country": "AT",
            "addr:housenumber": "4",
            "addr:postcode": "4120",
            "addr:street": "Sonnenweg",
            "name": "Kaffeekannenmuseum",
            "tourism": "museum"
          },
          "geometry": {
            "type": "Point",
            "coordinates": [
              13.9930953,
              48.4811963
            ]
          }
        },
        {
          "type": "Feature",
          "properties": {
            "id": "1211808634",
            "osm_type": "node",
            "lat": 48.5538263,
            "lon": 13.6414837,
            "fee": "no",
            "name": "Keramikmuseum",
            "opening_hours": "Tu-Su,PH 10:00-17:00",
            "phone": "+49 8591 10 66",
            "tourism": "museum",
            "website": "https://www.bayerisches-nationalmuseum.de/index.php?id=75"
          },
          "geometry": {
            "type": "Point",
            "coordinates": [
              13.6414837,
              48.5538263
            ]
          }
        },
        {
          "type": "Feature",
          "properties": {
            "id": "1302422645",
            "osm_type": "node",
            "lat": 48.5052658,
            "lon": 13.7313523,
            "name": "Hufschmiedemuseum",
            "tourism": "museum"
          },
          "geometry": {
            "type": "Point",
            "coordinates": [
              13.7313523,
              48.5052658
            ]
          }
        },
        {
          "type": "Feature",
          "properties": {
            "id": "1492620587",
            "osm_type": "node",
            "lat": 48.3742054,
            "lon": 14.0284696,
            "name": "Schopper und Fischermuseum",
            "operator": "Museumsverein Aschach",
            "tourism": "museum",
            "website": "https://www.aschach.at/museum/",
            "wheelchair": "no"
          },
          "geometry": {
            "type": "Point",
            "coordinates": [
              14.0284696,
              48.3742054
            ]
          }
        },
        {
          "type": "Feature",
          "properties": {
            "id": "2487032213",
            "osm_type": "node",
            "lat": 48.3851655,
            "lon": 13.8476243,
            "name": "Hammerschmiede",
            "tourism": "museum"
          },
          "geometry": {
            "type": "Point",
            "coordinates": [
              13.8476243,
              48.3851655
            ]
          }
        },
        {
          "type": "Feature",
          "properties": {
            "id": "4059408510",
            "osm_type": "node",
            "lat": 48.6389271,
            "lon": 13.6344873,
            "name": "Dinkel-Bier Museum",
            "tourism": "museum",
            "website": "https://www.apostelbraeu.de/museum/"
          },
          "geometry": {
            "type": "Point",
            "coordinates": [
              13.6344873,
              48.6389271
            ]
          }
        },
        {
          "type": "Feature",
          "properties": {
            "id": "4190802560",
            "osm_type": "node",
            "lat": 48.4641809,
            "lon": 13.9633476,
            "fee": "no",
            "museum": "nature",
            "name": "Trophäensaal",
            "operator": "Wildpark Altenfelden",
            "tourism": "museum"
          },
          "geometry": {
            "type": "Point",
            "coordinates": [
              13.9633476,
              48.4641809
            ]
          }
        },
        {
          "type": "Feature",
          "properties": {
            "id": "5776772444",
            "osm_type": "node",
            "lat": 48.4230164,
            "lon": 13.8670555,
            "fee": "no",
            "name": "Römerbad Schlögen",
            "opening_hours": "24/7",
            "tourism": "museum",
            "wheelchair": "yes"
          },
          "geometry": {
            "type": "Point",
            "coordinates": [
              13.8670555,
              48.4230164
            ]
          }
        },
        {
          "type": "Feature",
          "properties": {
            "id": "5851179056",
            "osm_type": "node",
            "lat": 48.4092207,
            "lon": 13.5334713,
            "name": "Museum in der Schule",
            "opening_hours": "We, Sa, Su 13:00-17:00",
            "operator": "Verein",
            "tourism": "museum",
            "website": "http://www.museum-in-der-schule.at/index.html"
          },
          "geometry": {
            "type": "Point",
            "coordinates": [
              13.5334713,
              48.4092207
            ]
          }
        },
        {
          "type": "Feature",
          "properties": {
            "id": "9103973282",
            "osm_type": "node",
            "lat": 48.4587946,
            "lon": 13.8099152,
            "fee": "yes",
            "name": "Zillenmuseum",
            "opening_hours": "Mo-Su 10:00-19:00",
            "tourism": "museum"
          },
          "geometry": {
            "type": "Point",
            "coordinates": [
              13.8099152,
              48.4587946
            ]
          }
        },
        {
          "type": "Feature",
          "properties": {
            "id": "9103973291",
            "osm_type": "node",
            "lat": 48.5161825,
            "lon": 13.7060267,
            "fee": "no",
            "name": "Infozentrum der Energiewirtschaft",
            "tourism": "museum"
          },
          "geometry": {
            "type": "Point",
            "coordinates": [
              13.7060267,
              48.5161825
            ]
          }
        },
        {
          "type": "Feature",
          "properties": {
            "id": "10935333273",
            "osm_type": "node",
            "lat": 48.505493,
            "lon": 13.7333963,
            "name": "Donau",
            "tourism": "museum"
          },
          "geometry": {
            "type": "Point",
            "coordinates": [
              13.7333963,
              48.505493
            ]
          }
        },
        {
          "type": "Feature",
          "properties": {
            "id": "10935333275",
            "osm_type": "node",
            "lat": 48.5045027,
            "lon": 13.7341765,
            "name": "Hufschmiedemuseum",
            "tourism": "museum"
          },
          "geometry": {
            "type": "Point",
            "coordinates": [
              13.7341765,
              48.5045027
            ]
          }
        },
        {
          "type": "Feature",
          "properties": {
            "id": "11806693243",
            "osm_type": "node",
            "lat": 48.5082368,
            "lon": 13.7304478,
            "museum": "art",
            "name": "Schütz Art Museum",
            "tourism": "museum",
            "website": "https://www.schuetzartsociety.at/museum"
          },
          "geometry": {
            "type": "Point",
            "coordinates": [
              13.7304478,
              48.5082368
            ]
          }
        },
        {
          "type": "Feature",
          "properties": {
            "id": "663658441",
            "osm_type": "node",
            "lat": 48.5227765,
            "lon": 14.2926768,
            "name": "Schulmuseum",
            "tourism": "museum",
            "website": "https://www.ooe-schulmuseum.at/"
          },
          "geometry": {
            "type": "Point",
            "coordinates": [
              14.2926768,
              48.5227765
            ]
          }
        },
        {
          "type": "Feature",
          "properties": {
            "id": "917960327",
            "osm_type": "node",
            "lat": 48.4887773,
            "lon": 14.0559455,
            "addr:city": "St. Ulrich im Mühlkreis",
            "addr:country": "AT",
            "addr:housenumber": "7",
            "addr:place": "Pehersdorf",
            "addr:postcode": "4120",
            "name": "Hopfenmuseum",
            "tourism": "museum"
          },
          "geometry": {
            "type": "Point",
            "coordinates": [
              14.0559455,
              48.4887773
            ]
          }
        },
        {
          "type": "Feature",
          "properties": {
            "id": "1412069610",
            "osm_type": "node",
            "lat": 48.5754916,
            "lon": 14.0380319,
            "addr:city": "Haslach an der Mühl",
            "addr:country": "AT",
            "addr:housenumber": "15",
            "addr:postcode": "4170",
            "addr:street": "Stelzen",
            "name": "Mechanische Klangfabrik",
            "tourism": "museum"
          },
          "geometry": {
            "type": "Point",
            "coordinates": [
              14.0380319,
              48.5754916
            ]
          }
        },
        {
          "type": "Feature",
          "properties": {
            "id": "1824773313",
            "osm_type": "node",
            "lat": 48.4278647,
            "lon": 14.1655136,
            "designation": "Schmiede zum Besichtigen",
            "name": "Luagmühle",
            "tourism": "museum"
          },
          "geometry": {
            "type": "Point",
            "coordinates": [
              14.1655136,
              48.4278647
            ]
          }
        },
        {
          "type": "Feature",
          "properties": {
            "id": "2112049749",
            "osm_type": "node",
            "lat": 48.5766092,
            "lon": 14.0389979,
            "name": "Heimathaus Haslach, Museum",
            "operator": "Heimatverein haslach",
            "tourism": "museum",
            "wikidata": "Q87191576"
          },
          "geometry": {
            "type": "Point",
            "coordinates": [
              14.0389979,
              48.5766092
            ]
          }
        },
        {
          "type": "Feature",
          "properties": {
            "id": "2113930578",
            "osm_type": "node",
            "lat": 48.5755594,
            "lon": 14.0372229,
            "addr:city": "Haslach an der Mühl",
            "addr:country": "AT",
            "addr:housenumber": "4",
            "addr:postcode": "4170",
            "addr:street": "Stahlmühle",
            "name": "Webereimuseum",
            "tourism": "museum"
          },
          "geometry": {
            "type": "Point",
            "coordinates": [
              14.0372229,
              48.5755594
            ]
          }
        },
        {
          "type": "Feature",
          "properties": {
            "id": "4395415684",
            "osm_type": "node",
            "lat": 48.6617427,
            "lon": 14.1663993,
            "addr:city": "Frymburk",
            "addr:conscriptionnumber": "5",
            "addr:country": "CZ",
            "addr:housenumber": "5",
            "addr:place": "Frymburk",
            "addr:postcode": "38279",
            "name": "Muzeum Frymburk",
            "source:addr": "cuzk:ruian",
            "tourism": "museum",
            "website": "https://www.ifrymburk.info/"
          },
          "geometry": {
            "type": "Point",
            "coordinates": [
              14.1663993,
              48.6617427
            ]
          }
        },
        {
          "type": "Feature",
          "properties": {
            "id": "9959556394",
            "osm_type": "node",
            "lat": 48.6354818,
            "lon": 14.2039761,
            "addr:city": "Lipno nad Vltavou",
            "addr:housenumber": "998",
            "addr:postcode": "38278",
            "email": "info@czechrepubrick.cz",
            "museum": "children",
            "name": "Czech Repubrick",
            "tourism": "museum",
            "website": "https://www.czechrepubrick.cz/lipno-nad-vltavou"
          },
          "geometry": {
            "type": "Point",
            "coordinates": [
              14.2039761,
              48.6354818
            ]
          }
        }
      ],
      "children": []
    },
    {
      "bbox": {
        "south": 48.355971499999995,
        "west": 14.2994695,
        "north": 48.68652475,
        "east": 15.253173
      },
      "poiCount": 21,
      "leafCount": 21,
      "averagePosition": [
        14.875638599999998,
        48.50469091904762
      ],
      "data": [
        {
          "type": "Feature",
          "properties": {
            "id": "2256191457",
            "osm_type": "node",
            "lat": 48.3642456,
            "lon": 14.5807302,
            "addr:city": "Tragwein",
            "addr:country": "AT",
            "addr:housenumber": "1",
            "addr:place": "Reichenstein",
            "addr:postcode": "4230",
            "name": "OÖ Burgenmuseum Reichenstein",
            "opening_hours": "Apr 15-Oct 31 Tu-Su 10:00-17:00",
            "tourism": "museum",
            "url": "http://www.burg-reichenstein.at/",
            "wikidata": "Q1013632",
            "wikipedia": "de:Burg Reichenstein (Österreich)"
          },
          "geometry": {
            "type": "Point",
            "coordinates": [
              14.5807302,
              48.3642456
            ]
          }
        },
        {
          "type": "Feature",
          "properties": {
            "id": "307934793",
            "osm_type": "node",
            "lat": 48.5122472,
            "lon": 14.5066126,
            "addr:city": "Freistadt",
            "addr:housenumber": "2",
            "addr:postcode": "4240",
            "addr:street": "Schlosshof",
            "alt_name": "Freistädter Schlossmuseum",
            "email": "info@museum-freistadt.at",
            "loc_name": "Gesindehaus",
            "name": "Schlossmuseum Freistadt",
            "official_name": "Mühlviertler Schlossmuseum Freistadt",
            "phone": "+43 7942 72 274",
            "tourism": "museum",
            "website": "https://www.museum-freistadt.at/",
            "wheelchair": "limited",
            "wikidata": "Q1455497"
          },
          "geometry": {
            "type": "Point",
            "coordinates": [
              14.5066126,
              48.5122472
            ]
          }
        },
        {
          "type": "Feature",
          "properties": {
            "id": "1274682303",
            "osm_type": "node",
            "lat": 48.4208896,
            "lon": 14.4601184,
            "designation": "Trosselsdorf",
            "name": "Mostmuseum Trosselsdorf",
            "source": "9",
            "tourism": "museum"
          },
          "geometry": {
            "type": "Point",
            "coordinates": [
              14.4601184,
              48.4208896
            ]
          }
        },
        {
          "type": "Feature",
          "properties": {
            "id": "3729657712",
            "osm_type": "node",
            "lat": 48.620696,
            "lon": 14.3076142,
            "addr:city": "Vyšší Brod",
            "addr:conscriptionnumber": "136",
            "addr:country": "CZ",
            "addr:housenumber": "136",
            "addr:place": "Vyšší Brod",
            "addr:postcode": "38273",
            "addr:street": "Klášter",
            "name": "Poštovní muzeum",
            "name:hu": "Postamúzeum",
            "phone": "+420 380 746 679",
            "source:addr": "cuzk:ruian",
            "tourism": "museum",
            "website": "https://www.postovnimuzeum.cz/",
            "wheelchair": "no"
          },
          "geometry": {
            "type": "Point",
            "coordinates": [
              14.3076142,
              48.620696
            ]
          }
        },
        {
          "type": "Feature",
          "properties": {
            "id": "441574473",
            "osm_type": "node",
            "lat": 48.4169301,
            "lon": 14.6144942,
            "name": "Schauraum Vogelkundeweg",
            "tourism": "museum",
            "wheelchair": "yes"
          },
          "geometry": {
            "type": "Point",
            "coordinates": [
              14.6144942,
              48.4169301
            ]
          }
        },
        {
          "type": "Feature",
          "properties": {
            "id": "1837804968",
            "osm_type": "node",
            "lat": 48.6536748,
            "lon": 14.9424523,
            "name": "Heimatmuseum",
            "tourism": "museum"
          },
          "geometry": {
            "type": "Point",
            "coordinates": [
              14.9424523,
              48.6536748
            ]
          }
        },
        {
          "type": "Feature",
          "properties": {
            "id": "3425183244",
            "osm_type": "node",
            "lat": 48.5709945,
            "lon": 14.9814766,
            "addr:city": "Groß Gerungs",
            "addr:country": "AT",
            "addr:housenumber": "7",
            "addr:place": "Dietmanns",
            "addr:postcode": "3920",
            "name": "Weberei-Museum",
            "opening_hours": "\"nach Voranmeldung\"",
            "operator": "Familie Erika und Friedrich Ertl",
            "tourism": "museum",
            "website": "https://www.gerungs.at/system/web/sonderseite.aspx?menuonr=218555592&detailonr=218555592"
          },
          "geometry": {
            "type": "Point",
            "coordinates": [
              14.9814766,
              48.5709945
            ]
          }
        },
        {
          "type": "Feature",
          "properties": {
            "id": "3474955892",
            "osm_type": "node",
            "lat": 48.589761,
            "lon": 14.9495788,
            "addr:city": "Groß Gerungs",
            "addr:housenumber": "38",
            "addr:place": "Thail;Sankt Jakob",
            "addr:postcode": "3920",
            "name": "Gabelhammermühle",
            "opening_hours": "\"nach Voranmeldung\"",
            "operator": "Peter Klingenberg",
            "tourism": "museum",
            "website": "www.gabelhammermuehle.at"
          },
          "geometry": {
            "type": "Point",
            "coordinates": [
              14.9495788,
              48.589761
            ]
          }
        },
        {
          "type": "Feature",
          "properties": {
            "id": "3475251165",
            "osm_type": "node",
            "lat": 48.5752506,
            "lon": 14.8834995,
            "addr:city": "Langschlag",
            "addr:housenumber": "31",
            "addr:postcode": "3921",
            "addr:street": "Marktplatz",
            "name": "Kaufmanns- & Biermuseum",
            "tourism": "museum"
          },
          "geometry": {
            "type": "Point",
            "coordinates": [
              14.8834995,
              48.5752506
            ]
          }
        },
        {
          "type": "Feature",
          "properties": {
            "id": "3475251166",
            "osm_type": "node",
            "lat": 48.5768802,
            "lon": 14.8826922,
            "name": "Bahnmuseum",
            "tourism": "museum"
          },
          "geometry": {
            "type": "Point",
            "coordinates": [
              14.8826922,
              48.5768802
            ]
          }
        },
        {
          "type": "Feature",
          "properties": {
            "id": "4021621736",
            "osm_type": "node",
            "lat": 48.3903166,
            "lon": 15.0054724,
            "name": "Holzhackermuseum",
            "tourism": "museum",
            "website": "http://www.baernkopf.at"
          },
          "geometry": {
            "type": "Point",
            "coordinates": [
              15.0054724,
              48.3903166
            ]
          }
        },
        {
          "type": "Feature",
          "properties": {
            "id": "9806533578",
            "osm_type": "node",
            "lat": 48.4136615,
            "lon": 14.6668716,
            "name": "Museum Prandegg",
            "tourism": "museum"
          },
          "geometry": {
            "type": "Point",
            "coordinates": [
              14.6668716,
              48.4136615
            ]
          }
        },
        {
          "type": "Feature",
          "properties": {
            "id": "11295775561",
            "osm_type": "node",
            "lat": 48.4063242,
            "lon": 14.8397857,
            "name": "Heimathaus Königswiesen",
            "tourism": "museum"
          },
          "geometry": {
            "type": "Point",
            "coordinates": [
              14.8397857,
              48.4063242
            ]
          }
        },
        {
          "type": "Feature",
          "properties": {
            "id": "13037680321",
            "osm_type": "node",
            "lat": 48.5045169,
            "lon": 14.9671817,
            "fee": "yes",
            "name": "Hammerschmiede",
            "tourism": "museum",
            "website": "https://www.arbesbach.at/Tourismus/Hammerschmiede",
            "wheelchair": "no",
            "wikidata": "Q38002280",
            "wikimedia_commons": "Category:Hammerschmiede Kamp"
          },
          "geometry": {
            "type": "Point",
            "coordinates": [
              14.9671817,
              48.5045169
            ]
          }
        },
        {
          "type": "Feature",
          "properties": {
            "id": "457138180",
            "osm_type": "node",
            "lat": 48.6045094,
            "lon": 15.1676576,
            "addr:city": "Zwettl",
            "addr:country": "AT",
            "addr:housenumber": "4",
            "addr:postcode": "3910",
            "addr:street": "Sparkassenplatz",
            "alt_name": "Stadtmuseum Zwettl",
            "name": "Stadtmuseum",
            "tourism": "museum",
            "website": "https://www.zwettl.gv.at/stadtmuseum",
            "wheelchair": "no",
            "wikidata": "Q86495701"
          },
          "geometry": {
            "type": "Point",
            "coordinates": [
              15.1676576,
              48.6045094
            ]
          }
        },
        {
          "type": "Feature",
          "properties": {
            "id": "2857744001",
            "osm_type": "node",
            "lat": 48.5391307,
            "lon": 15.0470907,
            "fee": "no",
            "name": "Brettersäge Kirchbach",
            "tourism": "museum",
            "website": "https://kirchbach.net/contao/die-saege.html"
          },
          "geometry": {
            "type": "Point",
            "coordinates": [
              15.0470907,
              48.5391307
            ]
          }
        },
        {
          "type": "Feature",
          "properties": {
            "id": "3010726426",
            "osm_type": "node",
            "lat": 48.6673852,
            "lon": 15.0634029,
            "addr:city": "Schweiggers",
            "addr:housenumber": "25",
            "addr:postcode": "3931",
            "addr:street": "Hauptplatz",
            "name": "Kartoffelmuseum",
            "tourism": "museum",
            "wheelchair": "limited"
          },
          "geometry": {
            "type": "Point",
            "coordinates": [
              15.0634029,
              48.6673852
            ]
          }
        },
        {
          "type": "Feature",
          "properties": {
            "id": "3698627619",
            "osm_type": "node",
            "lat": 48.4080745,
            "lon": 15.1970112,
            "level": "1",
            "name": "Mohnmuseum",
            "tourism": "museum"
          },
          "geometry": {
            "type": "Point",
            "coordinates": [
              15.1970112,
              48.4080745
            ]
          }
        },
        {
          "type": "Feature",
          "properties": {
            "id": "9995511041",
            "osm_type": "node",
            "lat": 48.452816,
            "lon": 15.0373002,
            "description": "Führung nur nach Voranmeldung",
            "name": "Wäschepflegemuseum Schönbach",
            "opening_hours": "Apr 1-Oct 31: Mo,Tu off, We-Su 15:30-16:30 \"nur nach Voranmeldung\"",
            "phone": "+43 2827 20777",
            "tourism": "museum",
            "website": "http://www.waeschepflegemuseum.at/"
          },
          "geometry": {
            "type": "Point",
            "coordinates": [
              15.0373002,
              48.452816
            ]
          }
        },
        {
          "type": "Feature",
          "properties": {
            "id": "11002337581",
            "osm_type": "node",
            "lat": 48.4749454,
            "lon": 15.1743401,
            "check_date": "2023-06-23",
            "contact:facebook": "klemuwa",
            "description": "Kleinstes Museum Waldviertel",
            "name": "Klemuwa",
            "phone": "+43 2875 7007",
            "tourism": "museum",
            "website": "https://www.klemuwa.at/"
          },
          "geometry": {
            "type": "Point",
            "coordinates": [
              15.1743401,
              48.4749454
            ]
          }
        },
        {
          "type": "Feature",
          "properties": {
            "id": "13029425607",
            "osm_type": "node",
            "lat": 48.4352593,
            "lon": 15.1130275,
            "museum": "art",
            "name": "Josef Elter",
            "tourism": "museum",
            "website": "http://www.josef-elter.info/"
          },
          "geometry": {
            "type": "Point",
            "coordinates": [
              15.1130275,
              48.4352593
            ]
          }
        }
      ],
      "children": []
    },
    {
      "bbox": {
        "south": 48.68652475,
        "west": 13.345766,
        "north": 49.017078,
        "east": 14.2994695
      },
      "poiCount": 28,
      "leafCount": 28,
      "averagePosition": [
        13.852833325,
        48.83692263928572
      ],
      "data": [
        {
          "type": "Feature",
          "properties": {
            "id": "2561639193",
            "osm_type": "node",
            "lat": 48.8544593,
            "lon": 13.3950509,
            "museum": "local",
            "name": "Schnupftabak- und Stadtmuseum",
            "opening_hours": "\"Nach Vereinbarung\"",
            "phone": "+49 8552 962343",
            "ref": "11",
            "tourism": "museum",
            "website": "https://www.grafenau.de/tourismus-grafenau/de/urlaubsthemen/kulturelles/schnupftabak-und-stadtmuseum",
            "wheelchair": "no"
          },
          "geometry": {
            "type": "Point",
            "coordinates": [
              13.3950509,
              48.8544593
            ]
          }
        },
        {
          "type": "Feature",
          "properties": {
            "id": "302704019",
            "osm_type": "node",
            "lat": 48.8150425,
            "lon": 13.8811695,
            "addr:city": "Nová Pec",
            "addr:conscriptionnumber": "13",
            "addr:country": "CZ",
            "addr:housenumber": "13",
            "addr:place": "Jelení",
            "addr:postcode": "38451",
            "description": "v turistické sezóně každý den od 08:00 do 17:00 hodin",
            "fee": "donation",
            "name": "KANÁL EXPO",
            "ref:ruian:addr": "17680671",
            "source:addr": "cuzk:ruian",
            "tourism": "museum",
            "website": "https://www.schw-kan.com/"
          },
          "geometry": {
            "type": "Point",
            "coordinates": [
              13.8811695,
              48.8150425
            ]
          }
        },
        {
          "type": "Feature",
          "properties": {
            "id": "478485040",
            "osm_type": "node",
            "lat": 48.7516524,
            "lon": 13.8163067,
            "addr:city": "Neureichenau",
            "addr:country": "DE",
            "addr:housenumber": "146",
            "addr:postcode": "94089",
            "addr:street": "Lackenhäuser",
            "name": "Museum 'Stifter und der Wald'",
            "tourism": "museum"
          },
          "geometry": {
            "type": "Point",
            "coordinates": [
              13.8163067,
              48.7516524
            ]
          }
        },
        {
          "type": "Feature",
          "properties": {
            "id": "793020279",
            "osm_type": "node",
            "lat": 48.7077947,
            "lon": 13.9785153,
            "name": "Böhmerwaldschule",
            "tourism": "museum",
            "website": "https://www.boehmerwaldschule.at/"
          },
          "geometry": {
            "type": "Point",
            "coordinates": [
              13.9785153,
              48.7077947
            ]
          }
        },
        {
          "type": "Feature",
          "properties": {
            "id": "1107928590",
            "osm_type": "node",
            "lat": 48.8132221,
            "lon": 13.5424912,
            "addr:city": "Freyung",
            "addr:housenumber": "3",
            "addr:postcode": "94078",
            "addr:street": "Wolfkerstraße",
            "name": "Jagd Land Fluss - Museum im Schloss Wolfstein",
            "opening_hours": "Tu-Su 10:00-17:00; Oct 30-Dec 25 off; Feb 28-Apr 13 off",
            "tourism": "museum",
            "website": "https://www.jagd-land-fluss.de/",
            "wheelchair": "no",
            "wikidata": "Q76627600"
          },
          "geometry": {
            "type": "Point",
            "coordinates": [
              13.5424912,
              48.8132221
            ]
          }
        },
        {
          "type": "Feature",
          "properties": {
            "id": "1462940137",
            "osm_type": "node",
            "lat": 48.7391066,
            "lon": 13.5939512,
            "addr:city": "Waldkirchen",
            "addr:country": "DE",
            "addr:housenumber": "9",
            "addr:postcode": "94065",
            "addr:street": "Dorfplatz",
            "name": "Emerenz Meier Haus",
            "opening_hours": "We-Su,PH 11:00-20:00; 2015 Mar 2-17 off, 2015 Jun 15-30 off; 2015 Nov 9-17 off",
            "tourism": "museum"
          },
          "geometry": {
            "type": "Point",
            "coordinates": [
              13.5939512,
              48.7391066
            ]
          }
        },
        {
          "type": "Feature",
          "properties": {
            "id": "1615702809",
            "osm_type": "node",
            "lat": 48.695963,
            "lon": 13.8797007,
            "name": "Wagnermuseum",
            "tourism": "museum"
          },
          "geometry": {
            "type": "Point",
            "coordinates": [
              13.8797007,
              48.695963
            ]
          }
        },
        {
          "type": "Feature",
          "properties": {
            "id": "1950974642",
            "osm_type": "node",
            "lat": 48.8290359,
            "lon": 13.7935046,
            "addr:city": "Stožec",
            "addr:country": "CZ",
            "addr:place": "Stožec",
            "addr:postcode": "38444",
            "name": "Pošumavská jižní dráha",
            "phone": "+420 972 543 875",
            "tourism": "museum",
            "website": "https://www.noveudoli.eu/"
          },
          "geometry": {
            "type": "Point",
            "coordinates": [
              13.7935046,
              48.8290359
            ]
          }
        },
        {
          "type": "Feature",
          "properties": {
            "id": "2990226582",
            "osm_type": "node",
            "lat": 48.7308165,
            "lon": 13.8322686,
            "name": "Heimatmuseum",
            "operator": "Kulturring Schwarzenberg",
            "tourism": "museum",
            "wikidata": "Q37844465"
          },
          "geometry": {
            "type": "Point",
            "coordinates": [
              13.8322686,
              48.7308165
            ]
          }
        },
        {
          "type": "Feature",
          "properties": {
            "id": "3090740146",
            "osm_type": "node",
            "lat": 48.7288821,
            "lon": 13.6006619,
            "addr:city": "Waldkirchen",
            "addr:country": "DE",
            "addr:housenumber": "22",
            "addr:postcode": "94065",
            "addr:street": "Büchl",
            "name": "Am Goldenen Steig",
            "opening_hours": "\"Mai-Okt. Sa, Su 14.00-17.00; Palmso., Weißer So. u. 25. Dez.-6. Jan. Tu.-Su. 14.00-16.00\"",
            "phone": "+49 8581 920551",
            "tourism": "museum"
          },
          "geometry": {
            "type": "Point",
            "coordinates": [
              13.6006619,
              48.7288821
            ]
          }
        },
        {
          "type": "Feature",
          "properties": {
            "id": "9838111753",
            "osm_type": "node",
            "lat": 48.6962187,
            "lon": 13.8808409,
            "name": "Heimatstube Klaffer am Hochficht",
            "tourism": "museum"
          },
          "geometry": {
            "type": "Point",
            "coordinates": [
              13.8808409,
              48.6962187
            ]
          }
        },
        {
          "type": "Feature",
          "properties": {
            "id": "11763849039",
            "osm_type": "node",
            "lat": 48.8067079,
            "lon": 13.5478641,
            "contact:website": "https://www.freyung.de/de/kultur-und-kulinarik/sehenswertes/schramlhaus-mit-heimatmuseum.html",
            "name": "Wolfsteiner Heimatmuseum",
            "opening_hours": "Dec 26-May 14 Tu,Th,Sa 13:00-16:00; May 15-Oct 31 Tu,Th,Sa 13:00-17:00; Nov 01-25,Dec 31 off; PH off",
            "ref:isil": "DE-MUS-049218",
            "tourism": "museum",
            "wikidata": "Q76627604",
            "wikimedia_commons": "Category:Heimatmuseum (Freyung)"
          },
          "geometry": {
            "type": "Point",
            "coordinates": [
              13.5478641,
              48.8067079
            ]
          }
        },
        {
          "type": "Feature",
          "properties": {
            "id": "12076554220",
            "osm_type": "node",
            "lat": 48.8086976,
            "lon": 13.547677,
            "name": "Winterberger Heimatmuseum",
            "ref:isil": "DE-MUS-383513",
            "tourism": "museum",
            "wikidata": "Q76627595"
          },
          "geometry": {
            "type": "Point",
            "coordinates": [
              13.547677,
              48.8086976
            ]
          }
        },
        {
          "type": "Feature",
          "properties": {
            "id": "863929676",
            "osm_type": "node",
            "lat": 48.778341,
            "lon": 14.1018518,
            "addr:city": "Polná na Šumavě",
            "addr:conscriptionnumber": "329",
            "addr:country": "CZ",
            "addr:housenumber": "329",
            "addr:place": "Olšina",
            "addr:postcode": "38229",
            "email": "rekreace.olsina@vls.cz",
            "name": "Rybářská bašta Olšina",
            "phone": "+420 737 226 560",
            "ref:ruian:addr": "20052294",
            "tourism": "museum"
          },
          "geometry": {
            "type": "Point",
            "coordinates": [
              14.1018518,
              48.778341
            ]
          }
        },
        {
          "type": "Feature",
          "properties": {
            "id": "4785036927",
            "osm_type": "node",
            "lat": 48.7656335,
            "lon": 14.0349296,
            "addr:city": "Horní Planá",
            "addr:conscriptionnumber": "21",
            "addr:country": "CZ",
            "addr:housenumber": "21",
            "addr:place": "Horní Planá",
            "addr:postcode": "38226",
            "addr:street": "Palackého",
            "name": "Rodný domek Adalberta Stiftera",
            "name:de": "Geburtshaus Adalbert Stifter",
            "phone": "+420 380 738 473",
            "source:addr": "cuzk:ruian",
            "tourism": "museum",
            "website": "https://www.muzeumck.cz/",
            "wikidata": "Q31030144",
            "wikipedia": "cs:Rodný dům Adalberta Stiftera"
          },
          "geometry": {
            "type": "Point",
            "coordinates": [
              14.0349296,
              48.7656335
            ]
          }
        },
        {
          "type": "Feature",
          "properties": {
            "id": "8653530474",
            "osm_type": "node",
            "lat": 48.7651167,
            "lon": 14.1758923,
            "addr:city": "Hořice na Šumavě",
            "addr:housenumber": "200",
            "addr:postcode": "38222",
            "museum": "technology",
            "name": "Muzeum historických radiopřijímačů",
            "opening_hours": "Jun - Sep Mo-Su 07:00-17:00",
            "tourism": "museum"
          },
          "geometry": {
            "type": "Point",
            "coordinates": [
              14.1758923,
              48.7651167
            ]
          }
        },
        {
          "type": "Feature",
          "properties": {
            "id": "8653530475",
            "osm_type": "node",
            "lat": 48.7650353,
            "lon": 14.1760412,
            "addr:city": "Hořice na Šumavě",
            "addr:housenumber": "3",
            "addr:postcode": "38222",
            "name": "Muzeum pašijových her",
            "opening_hours": "Jun - Sep Mo-Su 07:00-17:00",
            "phone": "+420 601 272 163",
            "tourism": "museum"
          },
          "geometry": {
            "type": "Point",
            "coordinates": [
              14.1760412,
              48.7650353
            ]
          }
        },
        {
          "type": "Feature",
          "properties": {
            "id": "8685858759",
            "osm_type": "node",
            "lat": 48.8536185,
            "lon": 14.210404,
            "addr:city": "Chvalšiny",
            "addr:housenumber": "124",
            "addr:postcode": "38208",
            "name": "Muzeum Schwarzenberského plavebního kanálu",
            "tourism": "museum"
          },
          "geometry": {
            "type": "Point",
            "coordinates": [
              14.210404,
              48.8536185
            ]
          }
        },
        {
          "type": "Feature",
          "properties": {
            "id": "12292345182",
            "osm_type": "node",
            "lat": 48.8094482,
            "lon": 14.2940793,
            "addr:city": "Český Krumlov",
            "addr:housenumber": "211",
            "addr:postcode": "38101",
            "addr:street": "Kvítkův dvůr",
            "description": "v soukromém vlastnictví, avšak konají se zde prohlídky pro veřejnost, koncerty i svatební obřady. Možný je pronájem společenských prostor i pro jiné slavnostní příležitosti.",
            "museum": "local",
            "name": "Kvítkův Dvůr",
            "phone": "+420 602 636 215",
            "tourism": "museum",
            "website": "https://www.npu.cz/cs/hrady-a-zamky/tipy-na-vylet/92928-statek-kvitkuv-dvur",
            "wheelchair": "no"
          },
          "geometry": {
            "type": "Point",
            "coordinates": [
              14.2940793,
              48.8094482
            ]
          }
        },
        {
          "type": "Feature",
          "properties": {
            "id": "1675117124",
            "osm_type": "node",
            "lat": 48.911475,
            "lon": 13.3660754,
            "addr:city": "Spiegelau",
            "addr:country": "DE",
            "addr:housenumber": "8",
            "addr:postcode": "94518",
            "addr:street": "Dr.-Geiger-Straße",
            "check_date": "2024-02-25",
            "name": "Schnapsmuseum Spiegelau",
            "opening_hours": "Nov-Dec: Mo-Sa 10:00-13:00; May-Oct Mo-Su 10:00-17:00, Sa 10:00-13:00, Su ,PH 13:00-16:00",
            "operator": "PENNINGER",
            "phone": "+498553979101",
            "tourism": "museum",
            "website": "https://www.penninger.de/"
          },
          "geometry": {
            "type": "Point",
            "coordinates": [
              13.3660754,
              48.911475
            ]
          }
        },
        {
          "type": "Feature",
          "properties": {
            "id": "8589427045",
            "osm_type": "node",
            "lat": 48.883846,
            "lon": 13.3769133,
            "museum": "nature",
            "name": "Mineralien-Ausstellung",
            "tourism": "museum"
          },
          "geometry": {
            "type": "Point",
            "coordinates": [
              13.3769133,
              48.883846
            ]
          }
        },
        {
          "type": "Feature",
          "properties": {
            "id": "429896402",
            "osm_type": "node",
            "lat": 49.0122648,
            "lon": 13.9982122,
            "addr:city": "Prachatice",
            "addr:conscriptionnumber": "178",
            "addr:country": "CZ",
            "addr:housenumber": "178",
            "addr:postcode": "38301",
            "addr:street": "Poštovní",
            "name": "Muzeum krajky",
            "name:en": "Museum of Bobbin Laces",
            "phone": "+420286580282",
            "source:addr": "cuzk:ruian",
            "tourism": "museum",
            "wikidata": "Q12039019",
            "wikipedia": "cs:Muzeum krajky Prachatice"
          },
          "geometry": {
            "type": "Point",
            "coordinates": [
              13.9982122,
              49.0122648
            ]
          }
        },
        {
          "type": "Feature",
          "properties": {
            "id": "1334395533",
            "osm_type": "node",
            "lat": 49.0133431,
            "lon": 13.9982287,
            "fee": "yes",
            "name": "Prachatické muzeum",
            "opening_hours": "Mo 10:00-17:00; Tu-Su 09:00-17:00",
            "tourism": "museum",
            "wikidata": "Q41567572",
            "wikipedia": "cs:Prachatické muzeum"
          },
          "geometry": {
            "type": "Point",
            "coordinates": [
              13.9982287,
              49.0133431
            ]
          }
        },
        {
          "type": "Feature",
          "properties": {
            "id": "1334399574",
            "osm_type": "node",
            "lat": 49.0124268,
            "lon": 13.9980611,
            "addr:city": "Prachatice",
            "addr:housenumber": "43",
            "addr:postcode": "38301",
            "addr:street": "Velké náměstí",
            "fee": "yes",
            "name": "Muzeum loutek",
            "opening_hours": "Tu-Su 09:00-17:00",
            "tourism": "museum",
            "wikidata": "Q62018265",
            "wikipedia": "cs:Muzeum české loutky a cirkusu"
          },
          "geometry": {
            "type": "Point",
            "coordinates": [
              13.9980611,
              49.0124268
            ]
          }
        },
        {
          "type": "Feature",
          "properties": {
            "id": "1359943381",
            "osm_type": "node",
            "lat": 49.0033997,
            "lon": 13.6190408,
            "name": "Galerie Šumava",
            "operator": "geschlossen",
            "source": "survey",
            "tourism": "museum"
          },
          "geometry": {
            "type": "Point",
            "coordinates": [
              13.6190408,
              49.0033997
            ]
          }
        },
        {
          "type": "Feature",
          "properties": {
            "id": "7780177179",
            "osm_type": "node",
            "lat": 48.9053751,
            "lon": 13.8259594,
            "name": "Muzeum lehkého opevnění (2. světová válka)",
            "tourism": "museum"
          },
          "geometry": {
            "type": "Point",
            "coordinates": [
              13.8259594,
              48.9053751
            ]
          }
        },
        {
          "type": "Feature",
          "properties": {
            "id": "11638718882",
            "osm_type": "node",
            "lat": 48.9967712,
            "lon": 14.2322955,
            "name": "Dobčická tvrz",
            "tourism": "museum"
          },
          "geometry": {
            "type": "Point",
            "coordinates": [
              14.2322955,
              48.9967712
            ]
          }
        },
        {
          "type": "Feature",
          "properties": {
            "id": "12017120246",
            "osm_type": "node",
            "lat": 48.9801397,
            "lon": 14.1813459,
            "addr:city": "Lhenice",
            "addr:postcode": "38411",
            "museum": "history",
            "name": "Vesnická památková rezervace Vodice",
            "tourism": "museum",
            "website": "https://www.lhenice.cz/mestys/mistni-casti/vodice-743cs.html"
          },
          "geometry": {
            "type": "Point",
            "coordinates": [
              14.1813459,
              48.9801397
            ]
          }
        }
      ],
      "children": []
    },
    {
      "bbox": {
        "south": 48.68652475,
        "west": 14.2994695,
        "north": 49.017078,
        "east": 15.253173
      },
      "poiCount": 44,
      "leafCount": 44,
      "averagePosition": [
        14.517020611363636,
        48.827702447727276
      ],
      "data": [
        {
          "type": "Feature",
          "properties": {
            "id": "1574133943",
            "osm_type": "node",
            "lat": 48.8119215,
            "lon": 14.3163445,
            "addr:city": "Český Krumlov",
            "addr:conscriptionnumber": "6",
            "addr:country": "CZ",
            "addr:housenumber": "6",
            "addr:place": "Latrán",
            "addr:postcode": "38101",
            "addr:street": "Latrán",
            "fee": "yes",
            "name": "Muzeum marionet",
            "name:de": "Marionettenmuseum",
            "name:en": "Marionette Museum",
            "name:ru": "Музей марионеток",
            "payment:cash": "yes",
            "payment:credit_cards": "yes",
            "phone": "+420 380 711 175",
            "source:addr": "cuzk:ruian",
            "tourism": "museum",
            "website": "https://marionettemuseum.cz/",
            "wheelchair": "no"
          },
          "geometry": {
            "type": "Point",
            "coordinates": [
              14.3163445,
              48.8119215
            ]
          }
        },
        {
          "type": "Feature",
          "properties": {
            "id": "2820497107",
            "osm_type": "node",
            "lat": 48.8112717,
            "lon": 14.3144773,
            "addr:city": "Český Krumlov",
            "addr:housenumber": "19",
            "addr:postcode": "381 01",
            "addr:street": "Panská",
            "fee": "yes",
            "name": "Muzeum vltavínů",
            "name:de": "Moldavitmuseum",
            "name:en": "Moldavite Museum",
            "name:ru": "Музей влтавинов",
            "opening_hours": "Mo-Su 10:00-18:00",
            "operator": "Občanské sdružení Muzeum Vltavínů",
            "operator:type": "private",
            "phone": "+420 734 174 130",
            "tourism": "museum",
            "website": "https://www.vltaviny.cz/"
          },
          "geometry": {
            "type": "Point",
            "coordinates": [
              14.3144773,
              48.8112717
            ]
          }
        },
        {
          "type": "Feature",
          "properties": {
            "id": "3124544656",
            "osm_type": "node",
            "lat": 48.8113926,
            "lon": 14.3151721,
            "addr:city": "Český Krumlov",
            "addr:conscriptionnumber": "29",
            "addr:country": "CZ",
            "addr:housenumber": "29",
            "addr:place": "Vnitřní Město",
            "addr:postcode": "38101",
            "addr:street": "Radniční",
            "fee": "yes",
            "name": "Muzeum loutek - Pohádkový dům",
            "name:en": "Puppet Musium - Fairytale house",
            "name:ru": "Музей театральных кукол - Дом сказки",
            "opening_hours": "Mo-Su 10:00-17:00",
            "phone": "+420 723 325 262",
            "tourism": "museum",
            "website": "https://krumlovskainspirace.cz/expozice/pohadkovy-dum-muzeum-loutek"
          },
          "geometry": {
            "type": "Point",
            "coordinates": [
              14.3151721,
              48.8113926
            ]
          }
        },
        {
          "type": "Feature",
          "properties": {
            "id": "3124544658",
            "osm_type": "node",
            "lat": 48.8102908,
            "lon": 14.3138706,
            "addr:city": "Český Krumlov",
            "addr:housenumber": "68",
            "addr:postcode": "381 01",
            "addr:street": "Kájovská",
            "email": "info@waxmuseumprague.cz",
            "fee": "yes",
            "museum": "wax",
            "name": "Wax museum",
            "name:cs": "Muzeum voskových figurín",
            "name:en": "Wax museum",
            "name:ru": "Музей восковых фигур",
            "opening_hours": "Mo-Su 10:00-18:00",
            "payment:cash": "yes",
            "payment:credit_cards": "yes",
            "tourism": "museum",
            "website": "http://www.waxmuseumprague.cz/wax-museum-cesky-krumlov"
          },
          "geometry": {
            "type": "Point",
            "coordinates": [
              14.3138706,
              48.8102908
            ]
          }
        },
        {
          "type": "Feature",
          "properties": {
            "id": "3124544659",
            "osm_type": "node",
            "lat": 48.8109329,
            "lon": 14.3150284,
            "addr:city": "Český Krumlov",
            "addr:housenumber": "1",
            "addr:postcode": "381 01",
            "addr:street": "náměstí Svornosti",
            "alt_name": "Muzeum tortury",
            "fee": "yes",
            "name": "Muzeum útrpného práva",
            "name:en": "Museum of torture",
            "name:ru": "Музей пыток",
            "opening_hours": "Mo-Su 09:00-20:00",
            "tourism": "museum",
            "website": "https://www.ckrumlov.cz/museumtortury"
          },
          "geometry": {
            "type": "Point",
            "coordinates": [
              14.3150284,
              48.8109329
            ]
          }
        },
        {
          "type": "Feature",
          "properties": {
            "id": "3755394730",
            "osm_type": "node",
            "lat": 48.8169722,
            "lon": 14.3047715,
            "addr:city": "Český Krumlov",
            "addr:conscriptionnumber": "243",
            "addr:country": "CZ",
            "addr:housenumber": "243",
            "addr:place": "Latrán",
            "addr:postcode": "38101",
            "addr:street": "Chvalšinská",
            "charge": "160 Kč",
            "description": "je doporučováno teplé oblečení s sebou, v dole je cca 10 °C",
            "email": "grafitovydul@seznam.cz",
            "facebook": "https://www.facebook.com/Grafitový-důl-Český-Krumlov-464466180353105/",
            "fee": "yes",
            "name": "Grafitový důl",
            "name:de": "Graphitbergwerk",
            "name:en": "Graphite Mine",
            "name:ru": "Графитовый рудник",
            "operator": "Grafitový důl Český Krumlov spol. s r.o.",
            "operator:type": "public",
            "payment:cash": "yes",
            "payment:credit_cards": "yes",
            "phone": "+420 380 711 199",
            "source:addr": "cuzk:ruian",
            "start_date": "1975",
            "tourism": "museum",
            "website": "http://www.grafitovydul.cz/",
            "wheelchair": "no",
            "wikidata": "Q11081943",
            "wikipedia": "cs:Grafitový důl v Českém Krumlově"
          },
          "geometry": {
            "type": "Point",
            "coordinates": [
              14.3047715,
              48.8169722
            ]
          }
        },
        {
          "type": "Feature",
          "properties": {
            "id": "3922206103",
            "osm_type": "node",
            "lat": 48.8572084,
            "lon": 14.4870721,
            "name": "Muzeum Roubenka",
            "tourism": "museum",
            "wikidata": "Q31519492"
          },
          "geometry": {
            "type": "Point",
            "coordinates": [
              14.4870721,
              48.8572084
            ]
          }
        },
        {
          "type": "Feature",
          "properties": {
            "id": "4198796603",
            "osm_type": "node",
            "lat": 48.8130733,
            "lon": 14.3147578,
            "addr:city": "Český Krumlov",
            "addr:postcode": "381 01",
            "addr:street": "Zámek",
            "fee": "yes",
            "fixme": "prosím aktualizovat. Není uplně jasné zda tato expozice existuje. V nabídce prohlídkových okruhů  zámku není.",
            "name": "Galerie české kultury",
            "name:cs": "Galerie české kultury",
            "name:en": "Czech Culture Gallery",
            "name:ru": "Галерея чешской культуры",
            "tourism": "museum",
            "wheelchair": "no"
          },
          "geometry": {
            "type": "Point",
            "coordinates": [
              14.3147578,
              48.8130733
            ]
          }
        },
        {
          "type": "Feature",
          "properties": {
            "id": "4198796605",
            "osm_type": "node",
            "lat": 48.8122248,
            "lon": 14.3158332,
            "addr:city": "Český Krumlov",
            "addr:country": "CZ",
            "addr:postcode": "38101",
            "addr:street": "Zámek",
            "fee": "yes",
            "name": "Hradní muzeum",
            "name:cs": "Hradní muzeum",
            "name:de": "Schlossmuseum",
            "name:en": "Castle museum",
            "name:ru": "Замковый музей",
            "phone": "+420 380 704 721",
            "tourism": "museum",
            "website": "https://www.zamek-ceskykrumlov.cz/"
          },
          "geometry": {
            "type": "Point",
            "coordinates": [
              14.3158332,
              48.8122248
            ]
          }
        },
        {
          "type": "Feature",
          "properties": {
            "id": "4198796606",
            "osm_type": "node",
            "lat": 48.8128064,
            "lon": 14.3133643,
            "addr:city": "Český Krumlov",
            "addr:postcode": "381 01",
            "addr:street": "Zámek",
            "fee": "yes",
            "fixme": "prosím aktualizovat. Není uplně jasné zda tato expozice existuje. V nabídce prohlídkových okruhů  zámku není.",
            "name": "Mezinárodní galerie výtvarného umění",
            "name:cs": "Mezinárodní galerie výtvarného umění",
            "name:de": "Internationale Ausstellung der feinen Künste",
            "name:en": "International Art Gallery of fine art",
            "name:ru": "Международная галерея изобразительного искусства",
            "tourism": "museum"
          },
          "geometry": {
            "type": "Point",
            "coordinates": [
              14.3133643,
              48.8128064
            ]
          }
        },
        {
          "type": "Feature",
          "properties": {
            "id": "4407747935",
            "osm_type": "node",
            "lat": 48.8133815,
            "lon": 14.3165314,
            "addr:city": "Český Krumlov",
            "addr:country": "CZ",
            "addr:housenumber": "65",
            "addr:place": "Latrán",
            "addr:postcode": "38101",
            "addr:street": "Zámek",
            "email": "info@lucistnice.cz",
            "facebook": "https://www.facebook.com/zameckakovarna.cz/",
            "name": "Zámecká kovárna",
            "name:de": "Schlossschmiede",
            "operator": "Lucistnice.cz s.r.o.",
            "phone": "+420 603 210 753",
            "tourism": "museum",
            "website": "http://www.zameckakovarna.com/"
          },
          "geometry": {
            "type": "Point",
            "coordinates": [
              14.3165314,
              48.8133815
            ]
          }
        },
        {
          "type": "Feature",
          "properties": {
            "id": "4947006326",
            "osm_type": "node",
            "lat": 48.8114545,
            "lon": 14.3151216,
            "addr:city": "Český Krumlov",
            "addr:housenumber": "29",
            "addr:postcode": "381 01",
            "addr:street": "Radniční",
            "email": "info@muzeumobchoduck.cz",
            "fee": "yes",
            "name": "Muzeum obchodu",
            "name:cs": "Muzeum obchodu",
            "opening_hours": "Mo-Su 10:00-18:00",
            "operator": "Obchodní a kupecké muzeum s.r.o.",
            "phone": "+420 380 727 945",
            "tourism": "museum",
            "website": "http://www.muzeumobchoduck.cz/"
          },
          "geometry": {
            "type": "Point",
            "coordinates": [
              14.3151216,
              48.8114545
            ]
          }
        },
        {
          "type": "Feature",
          "properties": {
            "id": "6996314703",
            "osm_type": "node",
            "lat": 48.8112797,
            "lon": 14.3154665,
            "addr:city": "Český Krumlov",
            "addr:postcode": "381 01",
            "addr:street": "Masná",
            "check_date:opening_hours": "2025-01-15",
            "fee": "yes",
            "level": "-1",
            "name": "3D Muzeum",
            "opening_hours:signed": "no",
            "tourism": "museum",
            "website": "http://3dceskykrumlov.cz/",
            "wheelchair": "no"
          },
          "geometry": {
            "type": "Point",
            "coordinates": [
              14.3154665,
              48.8112797
            ]
          }
        },
        {
          "type": "Feature",
          "properties": {
            "id": "7015844947",
            "osm_type": "node",
            "lat": 48.8116311,
            "lon": 14.3134274,
            "addr:city": "Český Krumlov",
            "addr:housenumber": "80",
            "addr:postcode": "381 01",
            "addr:street": "Široká",
            "contact:facebook": "https://www.facebook.com/krumlovskymlyn/",
            "fee": "yes",
            "museum": "technology",
            "name": "Muzeum historických motocyklů",
            "operator": "Krumlovský mlýn",
            "phone": "+420 736 634 460",
            "tourism": "museum"
          },
          "geometry": {
            "type": "Point",
            "coordinates": [
              14.3134274,
              48.8116311
            ]
          }
        },
        {
          "type": "Feature",
          "properties": {
            "id": "8743809973",
            "osm_type": "node",
            "lat": 48.8300184,
            "lon": 14.4660903,
            "name": "Městské muzeum",
            "tourism": "museum"
          },
          "geometry": {
            "type": "Point",
            "coordinates": [
              14.4660903,
              48.8300184
            ]
          }
        },
        {
          "type": "Feature",
          "properties": {
            "id": "9959358631",
            "osm_type": "node",
            "lat": 48.8107881,
            "lon": 14.3158476,
            "addr:city": "Český Krumlov",
            "addr:postcode": "381 01",
            "addr:street": "Šatlavská",
            "email": "filmlegendsmuseum@gmail.com",
            "facebook": "https://www.facebook.com/filmlegendsmuseumceskykrumlov",
            "fee": "yes",
            "name": "Film legends muzeum",
            "payment:cash": "yes",
            "payment:credit_cards": "yes",
            "phone": "+420 773 729 055",
            "tourism": "museum",
            "website": "https://filmlegendsmuzeum.cz/"
          },
          "geometry": {
            "type": "Point",
            "coordinates": [
              14.3158476,
              48.8107881
            ]
          }
        },
        {
          "type": "Feature",
          "properties": {
            "id": "10970681483",
            "osm_type": "node",
            "lat": 48.8106866,
            "lon": 14.3177915,
            "addr:city": "Český Krumlov",
            "addr:housenumber": "152",
            "addr:postcode": "381 01",
            "addr:street": "Horní",
            "check_date:opening_hours": "2025-08-28",
            "email": "info@muzeumck.cz",
            "fee": "yes",
            "name": "Regionální muzeum v Českém Krumlově",
            "name:de": "Regionalmuseum in Český Krumlov",
            "name:en": "Regional Museum in Český Krumlov",
            "name:ru": "Региональный музей",
            "name:zh": "庫倫洛夫區博物館",
            "opening_hours": "Tu-Su 09:00-12:00,12:30-17:00",
            "operator": "Jihočeský kraj",
            "operator:type": "public",
            "phone": "+420 380 711 674",
            "ref:ruian:building": "26239698",
            "source": "cuzk:ruian",
            "tourism": "museum",
            "website": "https://muzeumck.cz/",
            "wheelchair": "no",
            "wikidata": "Q38076930",
            "wikipedia": "cs:Regionální muzeum v Českém Krumlově"
          },
          "geometry": {
            "type": "Point",
            "coordinates": [
              14.3177915,
              48.8106866
            ]
          }
        },
        {
          "type": "Feature",
          "properties": {
            "id": "11218011245",
            "osm_type": "node",
            "lat": 48.7006011,
            "lon": 14.3886678,
            "name": "Obecní Muzeum",
            "tourism": "museum"
          },
          "geometry": {
            "type": "Point",
            "coordinates": [
              14.3886678,
              48.7006011
            ]
          }
        },
        {
          "type": "Feature",
          "properties": {
            "id": "11273801244",
            "osm_type": "node",
            "lat": 48.8117134,
            "lon": 14.3141543,
            "addr:city": "Český Krumlov",
            "addr:housenumber": "92",
            "addr:postcode": "381 01",
            "addr:street": "Dlouhá",
            "description": "Muzeum stavebních dějin a řemesel",
            "email": "dlouha92@muzeonck.cz",
            "museum": "local",
            "name": "Muzeon c.k.",
            "operator": "Jiří Bloch",
            "operator:type": "private",
            "toilets": "no",
            "tourism": "museum",
            "website": "https://muzeonck.cz/"
          },
          "geometry": {
            "type": "Point",
            "coordinates": [
              14.3141543,
              48.8117134
            ]
          }
        },
        {
          "type": "Feature",
          "properties": {
            "id": "11294862314",
            "osm_type": "node",
            "lat": 48.7017211,
            "lon": 14.4323066,
            "addr:city": "Bujanov",
            "addr:postcode": "38241",
            "museum": "local",
            "name": "Muzeum koněspřežné dráhy",
            "phone": "+420 380 327 054",
            "tourism": "museum"
          },
          "geometry": {
            "type": "Point",
            "coordinates": [
              14.4323066,
              48.7017211
            ]
          }
        },
        {
          "type": "Feature",
          "properties": {
            "id": "11341089578",
            "osm_type": "node",
            "lat": 48.8130703,
            "lon": 14.320014,
            "addr:city": "Český Krumlov",
            "addr:postcode": "38101",
            "addr:street": "Pivovarská",
            "museum": "history",
            "name": "Port 1560",
            "tourism": "museum",
            "website": "https://www.port1560.cz/"
          },
          "geometry": {
            "type": "Point",
            "coordinates": [
              14.320014,
              48.8130703
            ]
          }
        },
        {
          "type": "Feature",
          "properties": {
            "id": "11347502555",
            "osm_type": "node",
            "lat": 48.8095706,
            "lon": 14.3116869,
            "addr:city": "Český Krumlov",
            "addr:postcode": "381 01",
            "addr:street": "Důlní",
            "museum": "history",
            "name": "Muzeum zahradnictví",
            "opening_hours": "closed",
            "operator": "Státní hrad a zámek Český Krumlov",
            "operator:type": "public",
            "tourism": "museum"
          },
          "geometry": {
            "type": "Point",
            "coordinates": [
              14.3116869,
              48.8095706
            ]
          }
        },
        {
          "type": "Feature",
          "properties": {
            "id": "12017165197",
            "osm_type": "node",
            "lat": 48.8118052,
            "lon": 14.3901543,
            "museum": "history",
            "name": "Vesnická památková rezervace Mirkovice",
            "tourism": "museum"
          },
          "geometry": {
            "type": "Point",
            "coordinates": [
              14.3901543,
              48.8118052
            ]
          }
        },
        {
          "type": "Feature",
          "properties": {
            "id": "12286446444",
            "osm_type": "node",
            "lat": 48.813496,
            "lon": 14.3181652,
            "addr:city": "Český Krumlov",
            "addr:postcode": "381 01",
            "addr:street": "Klášterní dvůr",
            "description": "Historická herna a Interaktivní expozice – hravý kreativní svět uprostřed tajuplného kláštera určený především dětem. Prostor plný kreativních dílen, ve kterém můžete snít s otevřenýma očima, poznávat, hrát si i tvořit.",
            "fee": "yes",
            "level": "0,-1",
            "museum": "children",
            "name": "Interaktivní expozice s historickou hernou",
            "operator": "kláštery Český Krumlov",
            "tourism": "museum",
            "website": "https://www.klasteryck.cz/cz/akce-16732-interaktivni-expozice-s-historickou-hernou/",
            "wheelchair": "no"
          },
          "geometry": {
            "type": "Point",
            "coordinates": [
              14.3181652,
              48.813496
            ]
          }
        },
        {
          "type": "Feature",
          "properties": {
            "id": "12286446445",
            "osm_type": "node",
            "lat": 48.8133123,
            "lon": 14.3182993,
            "addr:city": "Český Krumlov",
            "addr:postcode": "381 01",
            "addr:street": "Klášterní dvůr",
            "fee": "yes",
            "museum": "history",
            "name": "Klášterní muzeum",
            "operator": "Kláštery Český Krumlov",
            "operator:type": "ngo",
            "payment:cash": "yes",
            "payment:credit_cards": "yes",
            "payment:mastercard": "yes",
            "payment:visa": "yes",
            "tourism": "museum",
            "website": "https://www.klasteryck.cz/cz/klasterni-muzeum/",
            "wheelchair": "limited"
          },
          "geometry": {
            "type": "Point",
            "coordinates": [
              14.3182993,
              48.8133123
            ]
          }
        },
        {
          "type": "Feature",
          "properties": {
            "id": "12291872974",
            "osm_type": "node",
            "lat": 48.8107744,
            "lon": 14.3074354,
            "addr:city": "Český Krumlov",
            "description": "samostatný prohlídkový okruh, lze zakoupit vstupenku v pokladně zámku Český Krumlov",
            "fee": "yes",
            "museum": "local",
            "name": "Letohrádek Bellarie",
            "operator": "Státní hrad a zámek Český Krumlov",
            "operator:type": "public",
            "tourism": "museum",
            "website": "https://www.zamek-ceskykrumlov.cz/cs/informace-pro-navstevniky/prohlidkove-okruhy/106363-letohradek-bellarie"
          },
          "geometry": {
            "type": "Point",
            "coordinates": [
              14.3074354,
              48.8107744
            ]
          }
        },
        {
          "type": "Feature",
          "properties": {
            "id": "13051594870",
            "osm_type": "node",
            "lat": 48.7758823,
            "lon": 14.5101541,
            "museum": "history",
            "name": "Hradní muzeum",
            "tourism": "museum"
          },
          "geometry": {
            "type": "Point",
            "coordinates": [
              14.5101541,
              48.7758823
            ]
          }
        },
        {
          "type": "Feature",
          "properties": {
            "id": "13125504681",
            "osm_type": "node",
            "lat": 48.8238534,
            "lon": 14.5096281,
            "addr:city": "Svatý Jan nad Malší",
            "addr:housenumber": "16",
            "addr:postcode": "373 23",
            "museum": "local",
            "name": "Muzeum loutek a stálá expozice obce",
            "tourism": "museum"
          },
          "geometry": {
            "type": "Point",
            "coordinates": [
              14.5096281,
              48.8238534
            ]
          }
        },
        {
          "type": "Feature",
          "properties": {
            "id": "690881133",
            "osm_type": "node",
            "lat": 48.7727929,
            "lon": 14.986253,
            "check_date": "2024-01-06",
            "name": "Glas und Stein",
            "tourism": "museum"
          },
          "geometry": {
            "type": "Point",
            "coordinates": [
              14.986253,
              48.7727929
            ]
          }
        },
        {
          "type": "Feature",
          "properties": {
            "id": "2506841856",
            "osm_type": "node",
            "lat": 48.7801516,
            "lon": 14.8084909,
            "name": "Skanzen železné opony",
            "source": "survey",
            "tourism": "museum"
          },
          "geometry": {
            "type": "Point",
            "coordinates": [
              14.8084909,
              48.7801516
            ]
          }
        },
        {
          "type": "Feature",
          "properties": {
            "id": "5183193242",
            "osm_type": "node",
            "lat": 48.7622678,
            "lon": 14.7392146,
            "name": "Muzeum Novohradských hor",
            "tourism": "museum"
          },
          "geometry": {
            "type": "Point",
            "coordinates": [
              14.7392146,
              48.7622678
            ]
          }
        },
        {
          "type": "Feature",
          "properties": {
            "id": "5511756751",
            "osm_type": "node",
            "lat": 48.7768261,
            "lon": 14.9986937,
            "check_date:opening_hours": "2024-07-14",
            "description": "Informationen und Ausstellung verschiedener Granitarten und deren Zusammensetzung",
            "fee": "no",
            "name": "Geologisches Freiluftmuseum",
            "opening_hours:signed": "no",
            "tourism": "museum"
          },
          "geometry": {
            "type": "Point",
            "coordinates": [
              14.9986937,
              48.7768261
            ]
          }
        },
        {
          "type": "Feature",
          "properties": {
            "id": "5717892577",
            "osm_type": "node",
            "lat": 48.7825408,
            "lon": 14.7896053,
            "description": "mlynářství a zemědělská technika, traktory 30. a 40. léta",
            "email": "info@zevluvmlyn.cz",
            "fee": "yes",
            "name": "Zevlův mlýn",
            "opening_hours": "Jun 29-Sep 15 10:00-18:00 || \"po dohodě/by appointment\"",
            "phone": "+420 607 351 276",
            "tourism": "museum",
            "website": "https://zevluvmlyn.cz/"
          },
          "geometry": {
            "type": "Point",
            "coordinates": [
              14.7896053,
              48.7825408
            ]
          }
        },
        {
          "type": "Feature",
          "properties": {
            "id": "7482001153",
            "osm_type": "node",
            "lat": 48.6872261,
            "lon": 14.7557853,
            "name": "Kristallium",
            "operator": "Erwin Weber",
            "tourism": "museum",
            "website": "https://www.kristallium.at/"
          },
          "geometry": {
            "type": "Point",
            "coordinates": [
              14.7557853,
              48.6872261
            ]
          }
        },
        {
          "type": "Feature",
          "properties": {
            "id": "9248754305",
            "osm_type": "node",
            "lat": 48.7806338,
            "lon": 14.6691553,
            "email": "info@vysidlene-obce.cz",
            "name": "Muzeum Vysídlených obcí Novohradska",
            "operator": "ATS INVEST, s.r.o.",
            "phone": "+420 607 279 813",
            "tourism": "museum",
            "website": "https://www.vysidlene-obce.cz/"
          },
          "geometry": {
            "type": "Point",
            "coordinates": [
              14.6691553,
              48.7806338
            ]
          }
        },
        {
          "type": "Feature",
          "properties": {
            "id": "11892968483",
            "osm_type": "node",
            "lat": 48.7945574,
            "lon": 15.0685007,
            "fee": "yes",
            "tourism": "museum"
          },
          "geometry": {
            "type": "Point",
            "coordinates": [
              15.0685007,
              48.7945574
            ]
          }
        },
        {
          "type": "Feature",
          "properties": {
            "id": "309765220",
            "osm_type": "node",
            "lat": 48.9689671,
            "lon": 14.4841005,
            "name": "Muzeum energetiky",
            "tourism": "museum"
          },
          "geometry": {
            "type": "Point",
            "coordinates": [
              14.4841005,
              48.9689671
            ]
          }
        },
        {
          "type": "Feature",
          "properties": {
            "id": "9838197357",
            "osm_type": "node",
            "lat": 48.9749357,
            "lon": 14.4558856,
            "museum": "technology",
            "museum_type": "regional",
            "name": "Muzeum pivovarnictví",
            "opening_hours": "We 10:00-16:00; Th 09:00-13:00; PH closed; Fr 11:00-17:00",
            "operator": "Jihočeská univerzita v Českých Budějovicích, Zemědělská fakulta",
            "tourism": "museum"
          },
          "geometry": {
            "type": "Point",
            "coordinates": [
              14.4558856,
              48.9749357
            ]
          }
        },
        {
          "type": "Feature",
          "properties": {
            "id": "278304956",
            "osm_type": "node",
            "lat": 48.8916235,
            "lon": 14.6064708,
            "name": "Památník Jana Žižky",
            "name:de": "Jan-Žižka-Denkmal",
            "source": "survey",
            "tourism": "museum",
            "wikidata": "Q1681558",
            "wikipedia": "cs:Památník Jana Žižky z Trocnova"
          },
          "geometry": {
            "type": "Point",
            "coordinates": [
              14.6064708,
              48.8916235
            ]
          }
        },
        {
          "type": "Feature",
          "properties": {
            "id": "1331082763",
            "osm_type": "node",
            "lat": 49.0149121,
            "lon": 14.6160542,
            "name": "Muzeum starých hudebních přístrojů",
            "tourism": "museum"
          },
          "geometry": {
            "type": "Point",
            "coordinates": [
              14.6160542,
              49.0149121
            ]
          }
        },
        {
          "type": "Feature",
          "properties": {
            "id": "11097702425",
            "osm_type": "node",
            "lat": 49.0037787,
            "lon": 14.7712062,
            "addr:housenumber": "103",
            "addr:street": "Masarykovo náměstí",
            "fee": "yes",
            "name": "Třeboň v marcipánu",
            "opening_hours": "Mo-Th, Su 09:00-18:00; Fr, Sa 09:00-19:00",
            "phone": "+420601133025",
            "tourism": "museum",
            "website": "trebonvmarcipanu.cz"
          },
          "geometry": {
            "type": "Point",
            "coordinates": [
              14.7712062,
              49.0037787
            ]
          }
        },
        {
          "type": "Feature",
          "properties": {
            "id": "12513881321",
            "osm_type": "node",
            "lat": 49.003828,
            "lon": 14.7696812,
            "addr:city": "Třeboň",
            "addr:housenumber": "118",
            "addr:postcode": "37901",
            "addr:street": "Březanova",
            "museum": "living_history",
            "name": "Zámecká lékárna",
            "opening_hours": "seasonal",
            "tourism": "museum",
            "website": "https://www.zameckalekarnatrebon.cz/"
          },
          "geometry": {
            "type": "Point",
            "coordinates": [
              14.7696812,
              49.003828
            ]
          }
        },
        {
          "type": "Feature",
          "properties": {
            "id": "388195596",
            "osm_type": "node",
            "lat": 48.9285754,
            "lon": 15.2413988,
            "addr:city": "Kautzen",
            "addr:country": "AT",
            "addr:housenumber": "9",
            "addr:postcode": "3851",
            "addr:street": "Waidhofnerstraße",
            "at_bev:addr_date": "2021-10-01",
            "name": "Heimatmuseum Kautzen",
            "tourism": "museum",
            "website": "https://www.niederoesterreich.at/portal/default.asp?id=70566"
          },
          "geometry": {
            "type": "Point",
            "coordinates": [
              15.2413988,
              48.9285754
            ]
          }
        },
        {
          "type": "Feature",
          "properties": {
            "id": "13104641448",
            "osm_type": "node",
            "lat": 48.9421561,
            "lon": 15.1967767,
            "addr:city": "Kautzen",
            "addr:country": "AT",
            "addr:housenumber": "29",
            "addr:place": "Reinberg-Dobersberg",
            "addr:postcode": "3851",
            "email": "kontakt@kcm.or.at",
            "fixme": "exact position",
            "name": "Kautzner Computermuseum",
            "operator": "Andreas Zahrl",
            "phone": "+43 2864 2846",
            "tourism": "museum",
            "website": "https://kautzner-computer-museum.at"
          },
          "geometry": {
            "type": "Point",
            "coordinates": [
              15.1967767,
              48.9421561
            ]
          }
        }
      ],
      "children": []
    }
  ]
}