{
  "bbox": {
    "south": 48.355971499999995,
    "west": 11.438358999999998,
    "north": 49.017078,
    "east": 13.345766
  },
  "poiCount": 76,
  "leafCount": 0,
  "averagePosition": [
    12.253116892105261,
    48.65092547236842
  ],
  "data": [],
  "children": [
    {
      "bbox": {
        "south": 48.355971499999995,
        "west": 11.438358999999998,
        "north": 48.68652475,
        "east": 12.392062499999998
      },
      "poiCount": 29,
      "leafCount": 29,
      "averagePosition": [
        11.92510343448276,
        48.50663788275862
      ],
      "data": [
        {
          "type": "Feature",
          "properties": {
            "id": "11016106801",
            "osm_type": "node",
            "lat": 48.3654671,
            "lon": 12.2487882,
            "addr:housenumber": "40",
            "addr:street": "Vilsstraße",
            "name": "Heimatmuseum",
            "tourism": "museum",
            "website": "https://www.markt-velden.de/heimatmuseen.html"
          },
          "geometry": {
            "type": "Point",
            "coordinates": [
              12.2487882,
              48.3654671
            ]
          }
        },
        {
          "type": "Feature",
          "properties": {
            "id": "3721395576",
            "osm_type": "node",
            "lat": 48.5293765,
            "lon": 11.505007,
            "fee:icom_member": "unknown",
            "name": "Heimatmuseum",
            "tourism": "museum",
            "website": "https://www.hkk-paf.de/"
          },
          "geometry": {
            "type": "Point",
            "coordinates": [
              11.505007,
              48.5293765
            ]
          }
        },
        {
          "type": "Feature",
          "properties": {
            "id": "3721404519",
            "osm_type": "node",
            "lat": 48.5301103,
            "lon": 11.5083134,
            "fee:icom_member": "unknown",
            "name": "Lebzelterei- und Wachsziehermuseum",
            "tourism": "museum",
            "website": "https://pfaffenhofen.de/artikel/lebzelterei-und-wachszieherei-hipp/"
          },
          "geometry": {
            "type": "Point",
            "coordinates": [
              11.5083134,
              48.5301103
            ]
          }
        },
        {
          "type": "Feature",
          "properties": {
            "id": "3721404520",
            "osm_type": "node",
            "lat": 48.5301442,
            "lon": 11.5045181,
            "fee": "no",
            "name": "Städtische Galerie",
            "tourism": "museum"
          },
          "geometry": {
            "type": "Point",
            "coordinates": [
              11.5045181,
              48.5301442
            ]
          }
        },
        {
          "type": "Feature",
          "properties": {
            "id": "3721408620",
            "osm_type": "node",
            "lat": 48.532578,
            "lon": 11.5066179,
            "fee:icom_member": "unknown",
            "tourism": "museum",
            "website": "https://pfaffenhofen.de/orte/kulturhalle/"
          },
          "geometry": {
            "type": "Point",
            "coordinates": [
              11.5066179,
              48.532578
            ]
          }
        },
        {
          "type": "Feature",
          "properties": {
            "id": "307801084",
            "osm_type": "node",
            "lat": 48.3989708,
            "lon": 11.7434041,
            "addr:city": "Freising",
            "addr:country": "DE",
            "addr:housenumber": "21",
            "addr:postcode": "85354",
            "addr:street": "Domberg",
            "check_date": "2024-07-13",
            "fee": "yes",
            "fee:icom_member": "no",
            "museum": "art",
            "name": "Diözesanmuseum für christliche Kunst",
            "opening_hours": "Tu-Su 10:00-18:00",
            "operator": "Erzbistum München und Freising",
            "operator:type": "religious",
            "start_date": "1974-11-16",
            "tourism": "museum",
            "website": "https://www.dimu-freising.de/",
            "wheelchair": "yes",
            "wikidata": "Q120717035",
            "wikimedia_commons": "File:Domberg 21 Diözesanmuseum.jpg",
            "wikipedia": "de:Dombergmuseum"
          },
          "geometry": {
            "type": "Point",
            "coordinates": [
              11.7434041,
              48.3989708
            ]
          }
        },
        {
          "type": "Feature",
          "properties": {
            "id": "456949322",
            "osm_type": "node",
            "lat": 48.5497939,
            "lon": 11.864247,
            "addr:city": "Hörgertshausen",
            "addr:country": "DE",
            "addr:housenumber": "2",
            "addr:postcode": "85413",
            "addr:street": "St. Albaner Straße",
            "check_date": "2025-08-08",
            "fee": "no",
            "name": "Heimatmuseum Hörgertshausen",
            "tourism": "museum",
            "website": "https://www.tourismus-kreis-freising.de/attraktionen/heimatmuseum-hoergertshausen-db6cea82d3",
            "wikidata": "Q1595635",
            "wikipedia": "de:Heimatmuseum Margarethenried-Hörgertshausen"
          },
          "geometry": {
            "type": "Point",
            "coordinates": [
              11.864247,
              48.5497939
            ]
          }
        },
        {
          "type": "Feature",
          "properties": {
            "id": "561224307",
            "osm_type": "node",
            "lat": 48.6084065,
            "lon": 11.6176152,
            "addr:city": "Wolnzach",
            "addr:country": "DE",
            "addr:housenumber": "1B",
            "addr:postcode": "85283",
            "addr:street": "Am Brunnen",
            "name": "Kulturgeschichte der Hand",
            "tourism": "museum",
            "wikidata": "Q1954455",
            "wikipedia": "de:Museum Kulturgeschichte der Hand"
          },
          "geometry": {
            "type": "Point",
            "coordinates": [
              11.6176152,
              48.6084065
            ]
          }
        },
        {
          "type": "Feature",
          "properties": {
            "id": "1836955635",
            "osm_type": "node",
            "lat": 48.539299,
            "lon": 11.9602725,
            "check_date": "2023-10-08",
            "name": "Lanz-Bulldog-Museum",
            "tourism": "museum"
          },
          "geometry": {
            "type": "Point",
            "coordinates": [
              11.9602725,
              48.539299
            ]
          }
        },
        {
          "type": "Feature",
          "properties": {
            "id": "2384317550",
            "osm_type": "node",
            "lat": 48.6830662,
            "lon": 11.6134692,
            "addr:city": "Geisenfeld",
            "addr:postcode": "85290",
            "name": "Hallertauer Heimat-und Hopfenmuseum",
            "tourism": "museum",
            "website": "http://www.heimatmuseum-geisenfeld.de/"
          },
          "geometry": {
            "type": "Point",
            "coordinates": [
              11.6134692,
              48.6830662
            ]
          }
        },
        {
          "type": "Feature",
          "properties": {
            "id": "3051844527",
            "osm_type": "node",
            "lat": 48.4044843,
            "lon": 11.6156048,
            "addr:city": "Kranzberg",
            "addr:country": "DE",
            "addr:housename": "Pantaleonsberg",
            "addr:housenumber": "18",
            "addr:postcode": "85402",
            "addr:street": "Pantaleonstraße",
            "email": "info@kranzberg.de",
            "fax": "+49 8166 689625",
            "fee": "yes",
            "fee:icom_member": "unknown",
            "level": "1",
            "name": "Bronzezeit Bayern Museum",
            "opening_hours": "Mo 14:00-17:00; Th 14:00-17:00; Su 14:00-17:00",
            "phone": "+49 8166 68960",
            "tourism": "museum",
            "website": "https://bronzezeit-bayern-museum.de/de/home",
            "wheelchair": "no",
            "wikidata": "Q17122529"
          },
          "geometry": {
            "type": "Point",
            "coordinates": [
              11.6156048,
              48.4044843
            ]
          }
        },
        {
          "type": "Feature",
          "properties": {
            "id": "3783548287",
            "osm_type": "node",
            "lat": 48.4003959,
            "lon": 11.743954,
            "addr:city": "Freising",
            "addr:country": "DE",
            "addr:housenumber": "7",
            "addr:postcode": "85354",
            "addr:street": "Marienplatz",
            "check_date": "2025-08-28",
            "description": "Stadtgeschichtliches Museum; etwa 350 Objekte - vom vorgeschichtlichen archäologischen Fund über kostbare Bildwerke, handwerkliche Erzeugnisse bis zu Dokumenten der jüngsten Vergangenheit. Räume für Sonderveranstaltungen, Museumspädagogik, Museumsshop.",
            "email": "stadtmuseum@freising.de",
            "fee": "yes",
            "fee:icom_member": "unknown",
            "level": "1",
            "museum": "history",
            "name": "Stadtmuseum Freising",
            "name:de": "Stadtmuseum",
            "name:en": "City museum",
            "opening_hours": "Tu 15:00-21:00; We-Su 11:00-17:00",
            "operator": "Stadt Freising",
            "operator:type": "public",
            "owner": "Stadt Freising",
            "phone": "+49 81615444555",
            "start_date": "1890",
            "tourism": "museum",
            "website": "https://stadtmuseum.freising.de",
            "wheelchair": "yes",
            "wikidata": "Q76627589"
          },
          "geometry": {
            "type": "Point",
            "coordinates": [
              11.743954,
              48.4003959
            ]
          }
        },
        {
          "type": "Feature",
          "properties": {
            "id": "3853047372",
            "osm_type": "node",
            "lat": 48.4689304,
            "lon": 11.9367888,
            "addr:city": "Moosburg a.d. Isar",
            "addr:country": "DE",
            "addr:housenumber": "3",
            "addr:postcode": "85368",
            "addr:street": "Kastulusplatz",
            "check_date": "2025-07-26",
            "fee": "no",
            "museum": "local",
            "name": "Heimatmuseum Moosburg",
            "opening_hours": "Su 16:00-17:30; Sa 10:30-12:30",
            "phone": "+49 170 930 2831",
            "tourism": "museum",
            "website": "https://www.moosburg.de/index.php?id=161,54",
            "wheelchair": "partial",
            "wikidata": "Q76628581"
          },
          "geometry": {
            "type": "Point",
            "coordinates": [
              11.9367888,
              48.4689304
            ]
          }
        },
        {
          "type": "Feature",
          "properties": {
            "id": "6092921524",
            "osm_type": "node",
            "lat": 48.4779754,
            "lon": 11.9443487,
            "addr:city": "Moosburg a.d. Isar",
            "addr:country": "DE",
            "addr:housenumber": "2",
            "addr:postcode": "85368",
            "addr:street": "Hodschager Straße",
            "check_date": "2025-07-26",
            "fee": "no",
            "name": "Stalag-Neustadt-Museum",
            "opening_hours": "Fr 17:00-19:00",
            "operator": "Stadt Moosburg",
            "tourism": "museum",
            "website": "https://meinmoosburg.de/tourismus/stalag/",
            "wheelchair": "yes",
            "wikidata": "Q116695642"
          },
          "geometry": {
            "type": "Point",
            "coordinates": [
              11.9443487,
              48.4779754
            ]
          }
        },
        {
          "type": "Feature",
          "properties": {
            "id": "6369283388",
            "osm_type": "node",
            "lat": 48.5857729,
            "lon": 11.7486213,
            "name": "Eisenbahnfahrzeugsammlung Adolf Hagl",
            "tourism": "museum"
          },
          "geometry": {
            "type": "Point",
            "coordinates": [
              11.7486213,
              48.5857729
            ]
          }
        },
        {
          "type": "Feature",
          "properties": {
            "id": "7506130935",
            "osm_type": "node",
            "lat": 48.5236846,
            "lon": 11.9950212,
            "check_date": "2024-06-15",
            "fee": "no",
            "museum": "local",
            "name": "Museum Vinum Celticum",
            "opening_hours:signed": "no",
            "operator": "Heimatpflegeverein Bruckberg",
            "operator:type": "community",
            "tourism": "museum"
          },
          "geometry": {
            "type": "Point",
            "coordinates": [
              11.9950212,
              48.5236846
            ]
          }
        },
        {
          "type": "Feature",
          "properties": {
            "id": "7511361880",
            "osm_type": "node",
            "lat": 48.4027537,
            "lon": 11.7465004,
            "addr:city": "Freising",
            "addr:country": "DE",
            "addr:housenumber": "25",
            "addr:postcode": "85354",
            "addr:street": "Unterer Graben",
            "fee:icom_member": "unknown",
            "name": "Graben-Museum",
            "operator": "Interessengemeinschaft Bürgerturm",
            "tourism": "museum",
            "website": "https://buergerturm-freising.de/",
            "wheelchair": "no"
          },
          "geometry": {
            "type": "Point",
            "coordinates": [
              11.7465004,
              48.4027537
            ]
          }
        },
        {
          "type": "Feature",
          "properties": {
            "id": "8791837065",
            "osm_type": "node",
            "lat": 48.4001753,
            "lon": 11.7450188,
            "addr:city": "Freising",
            "addr:country": "DE",
            "addr:housenumber": "16",
            "addr:postcode": "85354",
            "addr:street": "Obere Domberggasse",
            "check_date": "2024-12-19",
            "fee": "yes",
            "fee:icom_member": "unknown",
            "museum": "history",
            "name": "Altes Gefängnis Freising",
            "opening_hours": "Sa 14:00-15:00",
            "operator": "Altes Gefängnis Freising e.V.",
            "operator:type": "private_non_profit",
            "phone": "+49-8161-12843",
            "tourism": "museum",
            "website": "https://www.altesgefaengnisfreising.de/museum",
            "wheelchair": "no",
            "wikidata": "Q116503691"
          },
          "geometry": {
            "type": "Point",
            "coordinates": [
              11.7450188,
              48.4001753
            ]
          }
        },
        {
          "type": "Feature",
          "properties": {
            "id": "1435644687",
            "osm_type": "node",
            "lat": 48.5361343,
            "lon": 12.1512446,
            "addr:city": "Landshut",
            "addr:country": "DE",
            "addr:housenumber": "79",
            "addr:postcode": "84028",
            "addr:street": "Altstadt",
            "check_date": "2024-12-10",
            "fee": "yes",
            "name": "Museen Stadtresidenz",
            "opening_hours": "Apr-Sep: Tu-Su 09:00-18:00; Oct-Mar: 10:00-16:00",
            "operator": "Burgverwaltung Landshut",
            "tourism": "museum",
            "website": "https://www.schloesser.bayern.de/deutsch/schloss/objekte/la_res.htm",
            "wheelchair": "limited",
            "wikipedia": "de:Stadtresidenz Landshut"
          },
          "geometry": {
            "type": "Point",
            "coordinates": [
              12.1512446,
              48.5361343
            ]
          }
        },
        {
          "type": "Feature",
          "properties": {
            "id": "2724086490",
            "osm_type": "node",
            "lat": 48.5318307,
            "lon": 12.1524969,
            "addr:city": "Landshut",
            "addr:country": "DE",
            "addr:housenumber": "168",
            "addr:place": "Burg Trausnitz",
            "addr:postcode": "84036",
            "check_date": "2023-09-02",
            "description": "Besichtigung der Burg nur in Verbindung mit einer Führung (ca. 45 Minuten)",
            "fee:icom_member": "no",
            "museum": "art",
            "name": "Kunst- und Wunderkammer",
            "operator": "Bayerische Schlösserverwaltung",
            "tourism": "museum",
            "wikidata": "Q76628275",
            "wikipedia": "de:Kunst- und Wunderkammer Burg Trausnitz"
          },
          "geometry": {
            "type": "Point",
            "coordinates": [
              12.1524969,
              48.5318307
            ]
          }
        },
        {
          "type": "Feature",
          "properties": {
            "id": "3712320205",
            "osm_type": "node",
            "lat": 48.4494904,
            "lon": 12.3536471,
            "addr:city": "Vilsbiburg",
            "addr:country": "DE",
            "addr:housenumber": "39 - 40",
            "addr:postcode": "84137",
            "addr:street": "Stadtplatz",
            "contact:email": "info@museum-vilsbiburg.de",
            "contact:phone": "+49 8741 3821",
            "contact:website": "https://www.museum-vilsbiburg.de/",
            "museum": "local",
            "name": "Heimatmuseum Vilsbiburg",
            "opening_hours": "We,Sa[1],Sa[1]+1 day 14:00-16:00; Su 10:00-12:00",
            "tourism": "museum",
            "wikidata": "Q1595651",
            "wikipedia": "de:Heimatmuseum Vilsbiburg"
          },
          "geometry": {
            "type": "Point",
            "coordinates": [
              12.3536471,
              48.4494904
            ]
          }
        },
        {
          "type": "Feature",
          "properties": {
            "id": "4992655397",
            "osm_type": "node",
            "lat": 48.5340363,
            "lon": 12.155525,
            "addr:city": "Landshut",
            "addr:country": "DE",
            "addr:housenumber": "484",
            "addr:postcode": "84028",
            "addr:street": "Alter Franziskanerplatz",
            "fee": "no",
            "name": "KASiMiR-Museum",
            "opening_hours": "Tu-Fr 10:00-17:00",
            "operator": "Stadt Landshut",
            "tourism": "museum",
            "wheelchair": "designated"
          },
          "geometry": {
            "type": "Point",
            "coordinates": [
              12.155525,
              48.5340363
            ]
          }
        },
        {
          "type": "Feature",
          "properties": {
            "id": "6937536811",
            "osm_type": "node",
            "lat": 48.6022675,
            "lon": 12.2469972,
            "addr:city": "Essenbach",
            "addr:country": "DE",
            "addr:housenumber": "8B",
            "addr:postcode": "84051",
            "addr:street": "Landshuter Straße",
            "name": "Schulmuseum Ahrain",
            "tourism": "museum",
            "wikidata": "Q96081152",
            "wikipedia": "de:Schulmuseum Ahrain"
          },
          "geometry": {
            "type": "Point",
            "coordinates": [
              12.2469972,
              48.6022675
            ]
          }
        },
        {
          "type": "Feature",
          "properties": {
            "id": "8953289817",
            "osm_type": "node",
            "lat": 48.4278764,
            "lon": 12.0434296,
            "addr:city": "Buch am Erlbach",
            "addr:country": "DE",
            "addr:housenumber": "15",
            "addr:postcode": "84172",
            "addr:street": "Ziegeleistraße",
            "addr:suburb": "Vatersdorf",
            "check_date": "2023-09-30",
            "description": "Raum für Heimat, Identität, Geschichte und Baukultur: Der \"Neue Geschichtsboden\" ist, basierend auf dem Lebenswerk des Heimatforschers Hans Schneider, zugleich Archiv, Museum, Bibliothek und Werkstatt.",
            "email": "info@geschichtsboden.de",
            "fax": "+49 8762 733121",
            "fee": "no",
            "museum": "local",
            "name": "Der Neue Geschichtsboden",
            "opening_hours": "Sa,Su 14:00-18:00",
            "operator": "Kastulus-Bader-Stiftung",
            "phone": "+49 8762 733178",
            "tourism": "museum",
            "website": "https://www.geschichtsboden.de/",
            "wheelchair": "yes"
          },
          "geometry": {
            "type": "Point",
            "coordinates": [
              12.0434296,
              48.4278764
            ]
          }
        },
        {
          "type": "Feature",
          "properties": {
            "id": "11775000585",
            "osm_type": "node",
            "lat": 48.6123464,
            "lon": 12.2163691,
            "name": "Archäologisches Museum Essenbach",
            "ref:isil": "DE-MUS-943615",
            "tourism": "museum",
            "wikidata": "Q636916",
            "wikipedia": "de:Archäologisches Museum Essenbach"
          },
          "geometry": {
            "type": "Point",
            "coordinates": [
              12.2163691,
              48.6123464
            ]
          }
        },
        {
          "type": "Feature",
          "properties": {
            "id": "12048833035",
            "osm_type": "node",
            "lat": 48.6054837,
            "lon": 12.3155819,
            "name": "Heimatmuseum",
            "ref:isil": "DE-MUS-946416",
            "tourism": "museum",
            "wikidata": "Q76628846"
          },
          "geometry": {
            "type": "Point",
            "coordinates": [
              12.3155819,
              48.6054837
            ]
          }
        },
        {
          "type": "Feature",
          "properties": {
            "id": "12053002082",
            "osm_type": "node",
            "lat": 48.5552622,
            "lon": 12.1021369,
            "contact:website": "http://www.museum-altdorf.de/",
            "name": "Altdorf Museum",
            "ref:isil": "DE-MUS-942216",
            "tourism": "museum",
            "wheelchair": "no",
            "wikidata": "Q76626672"
          },
          "geometry": {
            "type": "Point",
            "coordinates": [
              12.1021369,
              48.5552622
            ]
          }
        },
        {
          "type": "Feature",
          "properties": {
            "id": "13069722743",
            "osm_type": "node",
            "lat": 48.4329893,
            "lon": 12.2851374,
            "addr:city": "Geisenhausen",
            "addr:country": "DE",
            "addr:housenumber": "1",
            "addr:postcode": "84144",
            "addr:street": "Holzhausen",
            "name": "Trachtenkulturmuseum",
            "operator": "Bayerischer Trachtenverband",
            "tourism": "museum",
            "website": "https://trachtenkulturmuseum.de/",
            "wikidata": "Q135763178"
          },
          "geometry": {
            "type": "Point",
            "coordinates": [
              12.2851374,
              48.4329893
            ]
          }
        },
        {
          "type": "Feature",
          "properties": {
            "id": "13069722744",
            "osm_type": "node",
            "lat": 48.4733964,
            "lon": 12.2573233,
            "addr:city": "Geisenhausen",
            "addr:country": "DE",
            "addr:housenumber": "9",
            "addr:postcode": "84144",
            "addr:street": "Marktplatz",
            "museum": "local",
            "name": "Geisenhausener Museum",
            "tourism": "museum",
            "website": "https://www.geisenhausen.de/geisenhausener-museum",
            "wikidata": "Q135762102"
          },
          "geometry": {
            "type": "Point",
            "coordinates": [
              12.2573233,
              48.4733964
            ]
          }
        }
      ],
      "children": []
    },
    {
      "bbox": {
        "south": 48.355971499999995,
        "west": 12.392062499999998,
        "north": 48.68652475,
        "east": 13.345766
      },
      "poiCount": 17,
      "leafCount": 17,
      "averagePosition": [
        12.99403084117647,
        48.52012932352941
      ],
      "data": [
        {
          "type": "Feature",
          "properties": {
            "id": "2968648796",
            "osm_type": "node",
            "lat": 48.3718219,
            "lon": 13.1751607,
            "name": "Feuerwehrmuseum",
            "operator": "Familie Rieger",
            "tourism": "museum",
            "website": "https://www.ferienhof-rieger.de/feuerwehrmuseum.html"
          },
          "geometry": {
            "type": "Point",
            "coordinates": [
              13.1751607,
              48.3718219
            ]
          }
        },
        {
          "type": "Feature",
          "properties": {
            "id": "5642290923",
            "osm_type": "node",
            "lat": 48.3717823,
            "lon": 13.1223023,
            "addr:housenumber": "37",
            "addr:postcode": "94149",
            "addr:street": "Marktplatz",
            "name": "Kirchenmuseum Kößlarn",
            "tourism": "museum",
            "wikidata": "Q76628223"
          },
          "geometry": {
            "type": "Point",
            "coordinates": [
              13.1223023,
              48.3717823
            ]
          }
        },
        {
          "type": "Feature",
          "properties": {
            "id": "569008997",
            "osm_type": "node",
            "lat": 48.627037,
            "lon": 12.4957162,
            "name": "Industriemuseum",
            "official_name": "Das Museum",
            "tourism": "museum",
            "website": "https://www.dingolfing.de/Das-Museum.n165.html"
          },
          "geometry": {
            "type": "Point",
            "coordinates": [
              12.4957162,
              48.627037
            ]
          }
        },
        {
          "type": "Feature",
          "properties": {
            "id": "279742767",
            "osm_type": "node",
            "lat": 48.4320926,
            "lon": 12.9376675,
            "name": "Altes Rathaus",
            "ref:isil": "DE-MUS-111917",
            "tourism": "museum",
            "wheelchair": "yes",
            "wikidata": "Q76629089"
          },
          "geometry": {
            "type": "Point",
            "coordinates": [
              12.9376675,
              48.4320926
            ]
          }
        },
        {
          "type": "Feature",
          "properties": {
            "id": "290227795",
            "osm_type": "node",
            "lat": 48.6686189,
            "lon": 12.6902632,
            "addr:city": "Landau an der Isar",
            "addr:country": "DE",
            "addr:housenumber": "20",
            "addr:postcode": "94405",
            "addr:street": "Oberer Stadtplatz",
            "charge": "5 Euro Erwachsene, 3 Euro ermäßigt",
            "description": "Modernes Themenmuseum zur Jungsteinzeit und deren Auswirkungen auf unser heutiges Leben. Im Zentrum der Ausstellung steht die lebensechte Figur Lisar, die Rekonstruktion einer Frau aus der Jungsteinzeit. Wechselnde Sonderausstellungen und Programm.",
            "email": "steinzeit-museum@landau-isar.de",
            "fee": "yes",
            "museum": "archaeological",
            "name": "Kastenhof Landau - Das Museum für Steinzeit und Gegenwart",
            "name:en": "Kastenhof Landau - The museum für Stone Age and present",
            "opening_hours": "We-Su 10:00-13:00, 14:00-17:00",
            "operator": "Stadt Landau a.d.Isar",
            "operator:type": "public",
            "phone": "+49 9951/2385",
            "source": "local knowledge",
            "start_date": "29.10.2019",
            "toilets:wheelchair": "yes",
            "tourism": "museum",
            "website": "https://www.steinzeit-museum.de/",
            "wheelchair": "yes",
            "wikidata": "Q1593387",
            "wikipedia": "de:Kastenhof Landau – Das Museum für Steinzeit und Gegenwart"
          },
          "geometry": {
            "type": "Point",
            "coordinates": [
              12.6902632,
              48.6686189
            ]
          }
        },
        {
          "type": "Feature",
          "properties": {
            "id": "290227796",
            "osm_type": "node",
            "lat": 48.6723556,
            "lon": 12.6932877,
            "addr:city": "Landau an der Isar",
            "addr:country": "DE",
            "addr:housenumber": "9",
            "addr:postcode": "94405",
            "addr:street": "Höckinger Straße",
            "contact:website": "http://www.heimatmuseum-landau-isar.de/",
            "name": "Heimatmuseum",
            "tourism": "museum",
            "wikidata": "Q76628266"
          },
          "geometry": {
            "type": "Point",
            "coordinates": [
              12.6932877,
              48.6723556
            ]
          }
        },
        {
          "type": "Feature",
          "properties": {
            "id": "294141390",
            "osm_type": "node",
            "lat": 48.4908664,
            "lon": 12.6707998,
            "description": "Traktoren",
            "name": "Lanz Leo",
            "tourism": "museum",
            "wikidata": "Q19963821",
            "wikipedia": "de:Lanz-Museum Mitterrohrbach"
          },
          "geometry": {
            "type": "Point",
            "coordinates": [
              12.6707998,
              48.4908664
            ]
          }
        },
        {
          "type": "Feature",
          "properties": {
            "id": "2153254923",
            "osm_type": "node",
            "lat": 48.6262818,
            "lon": 12.8788776,
            "name": "Bauernhofmuseum Eichenberg",
            "tourism": "museum"
          },
          "geometry": {
            "type": "Point",
            "coordinates": [
              12.8788776,
              48.6262818
            ]
          }
        },
        {
          "type": "Feature",
          "properties": {
            "id": "8019865412",
            "osm_type": "node",
            "lat": 48.391809,
            "lon": 12.6079448,
            "level": "1",
            "name": "Sudetendeutsche Stuben und Schlesierstube",
            "opening_hours": "\"Öffnung auf Anfrage! Telefon 08724/392 und 08724/1075\"",
            "tourism": "museum",
            "website": "https://www.massing.de/kultur-und-tourismus/kulturelles/museen"
          },
          "geometry": {
            "type": "Point",
            "coordinates": [
              12.6079448,
              48.391809
            ]
          }
        },
        {
          "type": "Feature",
          "properties": {
            "id": "271192772",
            "osm_type": "node",
            "lat": 48.396326,
            "lon": 13.1773296,
            "name": "Kloster Asbach",
            "tourism": "museum"
          },
          "geometry": {
            "type": "Point",
            "coordinates": [
              13.1773296,
              48.396326
            ]
          }
        },
        {
          "type": "Feature",
          "properties": {
            "id": "537662562",
            "osm_type": "node",
            "lat": 48.6689484,
            "lon": 13.0786238,
            "addr:city": "Künzing",
            "addr:country": "DE",
            "addr:housenumber": "2",
            "addr:postcode": "94550",
            "addr:street": "Osterhofener Straße",
            "check_date": "2025-08-02",
            "fee": "yes",
            "name": "Museum Quintana",
            "opening_hours": "Mo-Tu off; We-Su 10:00-16:00",
            "source": "Museum Quintana",
            "tourism": "museum",
            "website": "https://www.museum-quintana.de/",
            "wikidata": "Q1954481",
            "wikipedia": "de:Museum Quintana"
          },
          "geometry": {
            "type": "Point",
            "coordinates": [
              13.0786238,
              48.6689484
            ]
          }
        },
        {
          "type": "Feature",
          "properties": {
            "id": "541635741",
            "osm_type": "node",
            "lat": 48.4439951,
            "lon": 13.2709929,
            "name": "Franz-von-Stuck-Museum",
            "tourism": "museum"
          },
          "geometry": {
            "type": "Point",
            "coordinates": [
              13.2709929,
              48.4439951
            ]
          }
        },
        {
          "type": "Feature",
          "properties": {
            "id": "543813459",
            "osm_type": "node",
            "lat": 48.4402143,
            "lon": 13.1619731,
            "name": "Bruder-Konrad-Geburtshaus",
            "tourism": "museum",
            "wikidata": "Q41383466"
          },
          "geometry": {
            "type": "Point",
            "coordinates": [
              13.1619731,
              48.4402143
            ]
          }
        },
        {
          "type": "Feature",
          "properties": {
            "id": "3353068796",
            "osm_type": "node",
            "lat": 48.4263402,
            "lon": 13.3439226,
            "addr:city": "Pocking",
            "addr:country": "DE",
            "addr:housenumber": "11a",
            "addr:postcode": "94060",
            "addr:street": "Rottau",
            "addr:suburb": "Rottau",
            "name": "Rottauer Museum",
            "tourism": "museum",
            "wikidata": "Q76629113"
          },
          "geometry": {
            "type": "Point",
            "coordinates": [
              13.3439226,
              48.4263402
            ]
          }
        },
        {
          "type": "Feature",
          "properties": {
            "id": "10087221908",
            "osm_type": "node",
            "lat": 48.5506769,
            "lon": 13.230427,
            "addr:city": "Ortenburg",
            "addr:country": "DE",
            "addr:housenumber": "1",
            "addr:postcode": "94496",
            "addr:street": "Vorderschloss",
            "contact:phone": "+4985428987432",
            "contact:website": "https://www.schloss-ortenburg.de/seite/66614/%C3%B6ffnungszeiten-preise.html",
            "fee": "yes",
            "name": "Schlossmuseum Ortenburg",
            "opening_hours:url": "https://www.schloss-ortenburg.de/seite/66614/%C3%B6ffnungszeiten-preise.html",
            "tourism": "museum",
            "wikidata": "Q76629032"
          },
          "geometry": {
            "type": "Point",
            "coordinates": [
              13.230427,
              48.5506769
            ]
          }
        },
        {
          "type": "Feature",
          "properties": {
            "id": "12926263787",
            "osm_type": "node",
            "lat": 48.6338426,
            "lon": 13.1881363,
            "addr:housenumber": "8",
            "addr:street": "Donaugasse",
            "description": "A Computer Museum",
            "museum": "technology",
            "name": "Computeum",
            "opening_hours": "So 14:00-17:00",
            "tourism": "museum",
            "website": "computeum.org"
          },
          "geometry": {
            "type": "Point",
            "coordinates": [
              13.1881363,
              48.6338426
            ]
          }
        },
        {
          "type": "Feature",
          "properties": {
            "id": "12947470336",
            "osm_type": "node",
            "lat": 48.6291895,
            "lon": 13.1750992,
            "name": "Afrikamuseum",
            "opening_hours": "Mo-Su 13:30-17:00",
            "tourism": "museum",
            "website": "https://www.schwarzafrikamuseum.de"
          },
          "geometry": {
            "type": "Point",
            "coordinates": [
              13.1750992,
              48.6291895
            ]
          }
        }
      ],
      "children": []
    },
    {
      "bbox": {
        "south": 48.68652475,
        "west": 11.438358999999998,
        "north": 49.017078,
        "east": 12.392062499999998
      },
      "poiCount": 20,
      "leafCount": 20,
      "averagePosition": [
        11.80459544,
        48.8544411
      ],
      "data": [
        {
          "type": "Feature",
          "properties": {
            "id": "521990057",
            "osm_type": "node",
            "lat": 48.810237,
            "lon": 11.499995,
            "addr:city": "Kösching",
            "addr:country": "DE",
            "addr:housenumber": "3",
            "addr:postcode": "85092",
            "addr:street": "Klosterstraße",
            "check_date": "2018-02-03",
            "fee": "yes",
            "fee:children": "no",
            "name": "Museum Kösching",
            "opening_hours": "We 09:00-12:00;Th 14:00-17:00;Su 14:00-17:00",
            "operator": "Markt Kösching",
            "phone": "+49 8456 963009",
            "tourism": "museum",
            "wikidata": "Q1481121",
            "wikipedia": "de:Museum Kösching"
          },
          "geometry": {
            "type": "Point",
            "coordinates": [
              11.499995,
              48.810237
            ]
          }
        },
        {
          "type": "Feature",
          "properties": {
            "id": "1947633187",
            "osm_type": "node",
            "lat": 48.7067426,
            "lon": 11.5073984,
            "access": "private",
            "addr:postcode": "85077",
            "name": "Flugmuseum Messerschmitt",
            "note": "preregistration required",
            "tourism": "museum",
            "website": "https://www.flugmuseum-messerschmitt.de/",
            "wikidata": "Q95966239"
          },
          "geometry": {
            "type": "Point",
            "coordinates": [
              11.5073984,
              48.7067426
            ]
          }
        },
        {
          "type": "Feature",
          "properties": {
            "id": "3797175439",
            "osm_type": "node",
            "lat": 48.7588443,
            "lon": 11.440077,
            "fee": "no",
            "name": "Oldtimer",
            "tourism": "museum"
          },
          "geometry": {
            "type": "Point",
            "coordinates": [
              11.440077,
              48.7588443
            ]
          }
        },
        {
          "type": "Feature",
          "properties": {
            "id": "393456203",
            "osm_type": "node",
            "lat": 48.7024912,
            "lon": 12.0286881,
            "addr:city": "Rottenburg a.d. Laaber",
            "addr:country": "DE",
            "addr:housenumber": "3",
            "addr:postcode": "84056",
            "addr:street": "Neufahrner Straße",
            "museum": "technology",
            "name": "Radiomuseum Rottenburg",
            "tourism": "museum",
            "website": "https://www.radiomuseum-rottenburg.de/",
            "wikidata": "Q76629388"
          },
          "geometry": {
            "type": "Point",
            "coordinates": [
              12.0286881,
              48.7024912
            ]
          }
        },
        {
          "type": "Feature",
          "properties": {
            "id": "393956805",
            "osm_type": "node",
            "lat": 48.7020362,
            "lon": 12.0280102,
            "addr:city": "Rottenburg a.d. Laaber",
            "addr:country": "DE",
            "addr:housenumber": "5",
            "addr:postcode": "84056",
            "addr:street": "Pfarrstraße",
            "alt_name": "Binder-Pehr-Haus",
            "museum": "craft",
            "name": "Heimat- und Handwerksmuseum Rottenburg",
            "tourism": "museum",
            "website": "http://www.heimatmuseum-rottenburg.de/",
            "wikidata": "Q136022163"
          },
          "geometry": {
            "type": "Point",
            "coordinates": [
              12.0280102,
              48.7020362
            ]
          }
        },
        {
          "type": "Feature",
          "properties": {
            "id": "450607935",
            "osm_type": "node",
            "lat": 48.8146107,
            "lon": 11.8455942,
            "addr:city": "Abensberg",
            "addr:country": "DE",
            "addr:housename": "Herzogskasten",
            "addr:housenumber": "18",
            "addr:postcode": "93326",
            "addr:street": "Dollingerstraße",
            "email": "museum@abensberg.de",
            "fax": "+49 9443 9103-18",
            "name": "Stadtmuseum",
            "opening_hours": "Tu-Su 10:00-17:00",
            "phone": "+49 9443 9103-59",
            "toilets:wheelchair": "yes",
            "tourism": "museum",
            "website": "https://www.stadtmuseum-abensberg.de/",
            "wheelchair": "yes",
            "wikidata": "Q120869600"
          },
          "geometry": {
            "type": "Point",
            "coordinates": [
              11.8455942,
              48.8146107
            ]
          }
        },
        {
          "type": "Feature",
          "properties": {
            "id": "504315071",
            "osm_type": "node",
            "lat": 48.850708,
            "lon": 11.644801,
            "name": "Geburtshaus Anna Schäffer",
            "tourism": "museum"
          },
          "geometry": {
            "type": "Point",
            "coordinates": [
              11.644801,
              48.850708
            ]
          }
        },
        {
          "type": "Feature",
          "properties": {
            "id": "1777369327",
            "osm_type": "node",
            "lat": 48.8169606,
            "lon": 11.8425748,
            "fee": "yes",
            "name": "Kuchlbauers Bierwelt",
            "toilets:wheelchair": "no",
            "tourism": "museum",
            "wheelchair": "limited"
          },
          "geometry": {
            "type": "Point",
            "coordinates": [
              11.8425748,
              48.8169606
            ]
          }
        },
        {
          "type": "Feature",
          "properties": {
            "id": "13115683104",
            "osm_type": "node",
            "lat": 48.825878,
            "lon": 11.7812071,
            "addr:city": "Neustadt an der Donau",
            "addr:country": "DE",
            "addr:housenumber": "8",
            "addr:postcode": "93333",
            "addr:street": "Trajanstraße",
            "addr:suburb": "Bad Gögging",
            "fee": "yes",
            "museum": "history",
            "name": "Römisches Museum für Kur- und Badewesen",
            "opening_hours": "Su 10:30-11:30; Tu-Sa 16:00-17:00",
            "tourism": "museum",
            "website": "https://www.bad-goegging.de/Media/POI-Sehenswuerdigkeit-Ausflugsziel/Roemisches-Museum-fuer-Kur-und-Badewesen",
            "wheelchair": "no",
            "wikidata": "Q76628815",
            "wikimedia_commons": "File:Bad Goegging St Andreas.jpg"
          },
          "geometry": {
            "type": "Point",
            "coordinates": [
              11.7812071,
              48.825878
            ]
          }
        },
        {
          "type": "Feature",
          "properties": {
            "id": "3255642429",
            "osm_type": "node",
            "lat": 48.8595613,
            "lon": 12.3807777,
            "addr:city": "Sünching",
            "addr:postcode": "93104",
            "contact:email": "zoelch@online.de",
            "contact:phone": "+49 9480 619",
            "contact:website": "https://www.heimatmuseum-suenching.de/",
            "fee": "no",
            "name": "Heimatmuseum Sünching",
            "note:de": "Der Eintritt während der allgemeinen Öffnungszeiten ist frei. Bei Führungen außerhalb der Öffnungszeiten beträgt der Eintritt 3 Euro pro Person.",
            "opening_hours": "Su[2] 14:00-16:00 open \"second weekend in the month\" || \"by appointment\"",
            "tourism": "museum",
            "wheelchair": "yes"
          },
          "geometry": {
            "type": "Point",
            "coordinates": [
              12.3807777,
              48.8595613
            ]
          }
        },
        {
          "type": "Feature",
          "properties": {
            "id": "12668202760",
            "osm_type": "node",
            "lat": 48.6914151,
            "lon": 12.2006385,
            "addr:city": "Ergoldsbach",
            "addr:housenumber": "1",
            "addr:postcode": "84061",
            "addr:street": "Rosemeyerstraße",
            "description": "Z'samm in Ergoldsbach",
            "museum": "local",
            "name": "Goldbach MUSEUM",
            "opening_hours": "Su[3] 14:00-16:00; PH off || \"nach Vereinbarung\"",
            "start_date": "2025-03-23",
            "tourism": "museum",
            "website": "https://www.goldbachmuseum.de/",
            "wikidata": "Q76627513",
            "wikipedia": "de:Goldbach Museum Ergoldsbach"
          },
          "geometry": {
            "type": "Point",
            "coordinates": [
              12.2006385,
              48.6914151
            ]
          }
        },
        {
          "type": "Feature",
          "properties": {
            "id": "1768900294",
            "osm_type": "node",
            "lat": 49.0040796,
            "lon": 11.4518664,
            "man_made": "watermill",
            "name": "Kratzmühle Technikmuseum",
            "tourism": "museum",
            "wikidata": "Q76628136",
            "wikipedia": "de:Technikmuseum Kratzmühle"
          },
          "geometry": {
            "type": "Point",
            "coordinates": [
              11.4518664,
              49.0040796
            ]
          }
        },
        {
          "type": "Feature",
          "properties": {
            "id": "301509135",
            "osm_type": "node",
            "lat": 48.9176313,
            "lon": 11.8658729,
            "fee": "yes",
            "name": "Orgelmuseum",
            "tourism": "museum",
            "website": "https://orgelmuseum-kelheim.de/"
          },
          "geometry": {
            "type": "Point",
            "coordinates": [
              11.8658729,
              48.9176313
            ]
          }
        },
        {
          "type": "Feature",
          "properties": {
            "id": "389957259",
            "osm_type": "node",
            "lat": 48.9593459,
            "lon": 11.6895821,
            "addr:city": "Riedenburg",
            "addr:country": "DE",
            "addr:housenumber": "1",
            "addr:postcode": "93339",
            "addr:street": "Bergkristallstraße",
            "email": "info@kristallmuseum-riedenburg.de",
            "fax": "+49 9442 90031",
            "fee": "yes",
            "name": "Kristallmuseum Riedenburg",
            "opening_hours": "Tu-Su 09:00-18:00",
            "phone": "+49 9442 90030",
            "tourism": "museum",
            "website": "https://www.kristallmuseum-riedenburg.de/",
            "wheelchair": "yes",
            "wikidata": "Q76629284"
          },
          "geometry": {
            "type": "Point",
            "coordinates": [
              11.6895821,
              48.9593459
            ]
          }
        },
        {
          "type": "Feature",
          "properties": {
            "id": "676268249",
            "osm_type": "node",
            "lat": 48.9325333,
            "lon": 11.7070935,
            "name": "Bauernhofmuseum Josef Böhm",
            "tourism": "museum"
          },
          "geometry": {
            "type": "Point",
            "coordinates": [
              11.7070935,
              48.9325333
            ]
          }
        },
        {
          "type": "Feature",
          "properties": {
            "id": "8385206732",
            "osm_type": "node",
            "lat": 48.9719796,
            "lon": 11.6485678,
            "addr:city": "Riedenburg",
            "addr:housenumber": "18",
            "addr:place": "Obereggersberg",
            "addr:postcode": "93339",
            "name": "Hofmarkmuseum",
            "tourism": "museum",
            "website": "https://www.schloss-eggersberg.de/"
          },
          "geometry": {
            "type": "Point",
            "coordinates": [
              11.6485678,
              48.9719796
            ]
          }
        },
        {
          "type": "Feature",
          "properties": {
            "id": "10144820143",
            "osm_type": "node",
            "lat": 48.8969557,
            "lon": 11.6508884,
            "name": "Ignaz-Günther-Museum",
            "tourism": "museum",
            "wikidata": "Q76626965"
          },
          "geometry": {
            "type": "Point",
            "coordinates": [
              11.6508884,
              48.8969557
            ]
          }
        },
        {
          "type": "Feature",
          "properties": {
            "id": "11065373178",
            "osm_type": "node",
            "lat": 48.8969914,
            "lon": 11.651895,
            "museum": "history",
            "name": "Marktmuseum",
            "opening_hours": "week 21-37 Su 10:30-12:00",
            "tourism": "museum",
            "website": "https://www.altmannstein.de/sehenswertes/marktmuseum-1591/"
          },
          "geometry": {
            "type": "Point",
            "coordinates": [
              11.651895,
              48.8969914
            ]
          }
        },
        {
          "type": "Feature",
          "properties": {
            "id": "1035786273",
            "osm_type": "node",
            "lat": 48.9539108,
            "lon": 12.131053,
            "addr:city": "Obertraubling",
            "addr:country": "DE",
            "addr:postcode": "93083",
            "addr:street": "Hauptstraße",
            "addr:suburb": "Oberhinkofen",
            "name": "Heimat und Bauernmuseum",
            "tourism": "museum"
          },
          "geometry": {
            "type": "Point",
            "coordinates": [
              12.131053,
              48.9539108
            ]
          }
        },
        {
          "type": "Feature",
          "properties": {
            "id": "5366395904",
            "osm_type": "node",
            "lat": 49.0159094,
            "lon": 12.0953277,
            "addr:city": "Regensburg",
            "addr:country": "DE",
            "addr:housenumber": "7",
            "addr:postcode": "93047",
            "addr:street": "Obermünsterplatz",
            "denomination": "catholic",
            "name": "Diözesanzentrum Obermünster",
            "phone": "+49 941 5972249",
            "religion": "christian",
            "tourism": "museum",
            "website": "https://www.bistum-regensburg.de/bistum/einrichtungen-a-z/dioezesanzentrum-obermuenster/",
            "wheelchair": "yes"
          },
          "geometry": {
            "type": "Point",
            "coordinates": [
              12.0953277,
              49.0159094
            ]
          }
        }
      ],
      "children": []
    },
    {
      "bbox": {
        "south": 48.68652475,
        "west": 12.392062499999998,
        "north": 49.017078,
        "east": 13.345766
      },
      "poiCount": 10,
      "leafCount": 10,
      "averagePosition": [
        12.84184511,
        48.88468168
      ],
      "data": [
        {
          "type": "Feature",
          "properties": {
            "id": "12069677563",
            "osm_type": "node",
            "lat": 48.8258606,
            "lon": 12.3933468,
            "name": "Museum der Seefahrt",
            "ref:isil": "DE-MUS-944118",
            "tourism": "museum",
            "wikidata": "Q76627665"
          },
          "geometry": {
            "type": "Point",
            "coordinates": [
              12.3933468,
              48.8258606
            ]
          }
        },
        {
          "type": "Feature",
          "properties": {
            "id": "9337804090",
            "osm_type": "node",
            "lat": 48.8260461,
            "lon": 12.9634982,
            "addr:housenumber": "12",
            "addr:postcode": "94469",
            "addr:street": "Schiffmeisterweg",
            "contact:email": "poststelle@wwa-deg.bayern.de",
            "contact:phone": "+49991 2504-901",
            "contact:website": "https://www.wwa-deg.bayern.de/wasser_erleben/technik_kultur/schiffmeisterhaus/index.htm",
            "fee": "no",
            "name": "Schiffmeisterhaus",
            "toilets": "yes",
            "tourism": "museum"
          },
          "geometry": {
            "type": "Point",
            "coordinates": [
              12.9634982,
              48.8260461
            ]
          }
        },
        {
          "type": "Feature",
          "properties": {
            "id": "9797383528",
            "osm_type": "node",
            "lat": 48.7738037,
            "lon": 12.8781671,
            "addr:city": "Plattling",
            "addr:housenumber": "23a",
            "addr:postcode": "94447",
            "addr:street": "Passauer Straße",
            "contact:website": "https://www.nepomukverein-plattling.de/das-museum/",
            "museum": "history",
            "name": "Nepumuk Museum",
            "opening_hours": "Öffnung nach telefonischer Absprache unter +49 9931 2827",
            "tourism": "museum",
            "wikidata": "Q116832210"
          },
          "geometry": {
            "type": "Point",
            "coordinates": [
              12.8781671,
              48.7738037
            ]
          }
        },
        {
          "type": "Feature",
          "properties": {
            "id": "2710515590",
            "osm_type": "node",
            "lat": 48.8466789,
            "lon": 13.105482,
            "name": "Fahrzeug- und Kunstmuseum Streicher",
            "tourism": "museum",
            "wikidata": "Q115286491",
            "wikipedia": "de:Streicher Fahrzeug- und Kunstmuseum"
          },
          "geometry": {
            "type": "Point",
            "coordinates": [
              13.105482,
              48.8466789
            ]
          }
        },
        {
          "type": "Feature",
          "properties": {
            "id": "313283774",
            "osm_type": "node",
            "lat": 48.8833958,
            "lon": 12.570514,
            "addr:city": "Straubing",
            "addr:country": "DE",
            "addr:housenumber": "23",
            "addr:postcode": "94315",
            "addr:street": "Fraunhoferstraße",
            "email": "gaeubodenmuseum@straubing.de",
            "fax": "+49 9421 9741 29",
            "fee": "yes",
            "name": "Gäubodenmuseum",
            "opening_hours": "Tu-Su 10:00-16:00",
            "phone": "+49 9421 9741 10",
            "toilets:wheelchair": "yes",
            "tourism": "museum",
            "website": "http://www.gaeubodenmuseum.de",
            "wheelchair": "yes",
            "wikidata": "Q1558875"
          },
          "geometry": {
            "type": "Point",
            "coordinates": [
              12.570514,
              48.8833958
            ]
          }
        },
        {
          "type": "Feature",
          "properties": {
            "id": "477923048",
            "osm_type": "node",
            "lat": 48.918348,
            "lon": 12.8786772,
            "name": "Museumsstadl",
            "tourism": "museum"
          },
          "geometry": {
            "type": "Point",
            "coordinates": [
              12.8786772,
              48.918348
            ]
          }
        },
        {
          "type": "Feature",
          "properties": {
            "id": "535775851",
            "osm_type": "node",
            "lat": 48.9021189,
            "lon": 12.6971182,
            "addr:housenumber": "12",
            "addr:place": "Bogenberg",
            "alt_name": "Heimatmuseum",
            "contact:email": "kreismuseum@landkreis-straubing-bogen.de",
            "contact:mobile": "+4916097215810",
            "contact:phone": "+4994225786",
            "contact:website": "https://www.landkreis-straubing-bogen.de/kultur-bildung-sport-soziales/kreismuseum-bogenberg/",
            "museum": "local",
            "name": "Kreismuseum Bogenberg",
            "tourism": "museum",
            "wikidata": "Q17322897",
            "wikipedia": "de:Kreismuseum Bogenberg"
          },
          "geometry": {
            "type": "Point",
            "coordinates": [
              12.6971182,
              48.9021189
            ]
          }
        },
        {
          "type": "Feature",
          "properties": {
            "id": "9177965786",
            "osm_type": "node",
            "lat": 48.8851032,
            "lon": 12.5718715,
            "addr:city": "Straubing",
            "addr:country": "DE",
            "addr:housenumber": "1",
            "addr:postcode": "94315",
            "addr:street": "Rentamtsberg",
            "name": "Stadtarchiv",
            "opening_hours": "Tu, We 08:00-12:00, 14:00-16:00; Th 08:00-12:00, 14:00-17:00",
            "tourism": "museum",
            "wikidata": "Q28720070"
          },
          "geometry": {
            "type": "Point",
            "coordinates": [
              12.5718715,
              48.8851032
            ]
          }
        },
        {
          "type": "Feature",
          "properties": {
            "id": "1635641188",
            "osm_type": "node",
            "lat": 49.0152453,
            "lon": 13.234441,
            "addr:city": "Zwiesel",
            "addr:country": "DE",
            "addr:housenumber": "3",
            "addr:postcode": "94227",
            "addr:street": "Kirchplatz",
            "fax": "+49 9922 503708",
            "fee": "yes",
            "name": "Waldmuseum",
            "opening_hours": "Th-Mo 10:00-16:00",
            "phone": "+49 9922 503706",
            "ref:isil": "DE-MUS-151717",
            "toilets:wheelchair": "yes",
            "tourism": "museum",
            "website": "http://www.waldmuseum-zwiesel.de/",
            "wheelchair": "yes",
            "wikidata": "Q1720764",
            "wikipedia": "de:Waldmuseum Zwiesel"
          },
          "geometry": {
            "type": "Point",
            "coordinates": [
              13.234441,
              49.0152453
            ]
          }
        },
        {
          "type": "Feature",
          "properties": {
            "id": "2201627096",
            "osm_type": "node",
            "lat": 48.9702163,
            "lon": 13.1253351,
            "addr:city": "Regen",
            "addr:country": "DE",
            "addr:housenumber": "2",
            "addr:postcode": "94209",
            "addr:street": "Schulgasse",
            "alt_name": "Niederbayerisches Landwirtschaftsmuseum Regen",
            "fee": "yes",
            "name": "Niederbayerisches Landwirtschaftsmuseum",
            "opening_hours": "Mo-Fr 08:00-17:00; Sa, Su 10:00-17:00",
            "tourism": "museum",
            "url": "http://www.nlm-regen.de",
            "website": "https://nlm-regen.de/",
            "wikidata": "Q76629182"
          },
          "geometry": {
            "type": "Point",
            "coordinates": [
              13.1253351,
              48.9702163
            ]
          }
        }
      ],
      "children": []
    }
  ]
}