{
  "bbox": {
    "south": 47.033758500000005,
    "west": 11.438358999999998,
    "north": 47.694865,
    "east": 13.345766
  },
  "poiCount": 72,
  "leafCount": 0,
  "averagePosition": [
    12.236461473611111,
    47.37863217916666
  ],
  "data": [],
  "children": [
    {
      "bbox": {
        "south": 47.033758500000005,
        "west": 11.438358999999998,
        "north": 47.36431175,
        "east": 12.392062499999998
      },
      "poiCount": 20,
      "leafCount": 20,
      "averagePosition": [
        11.69016208,
        47.26781724
      ],
      "data": [
        {
          "type": "Feature",
          "properties": {
            "id": "1604290323",
            "osm_type": "node",
            "lat": 47.2810992,
            "lon": 11.5078192,
            "addr:city": "Hall in Tirol",
            "addr:country": "AT",
            "addr:housenumber": "2",
            "addr:postcode": "6060",
            "addr:street": "Fürstengasse",
            "fee": "yes",
            "name": "Bergbaumuseum",
            "opening_hours": "Mo, Th, Sa 11:35-12:35",
            "phone": "+435223455440",
            "tourism": "museum",
            "website": "https://www.hall-wattens.at/de/fuehrungen-bergbaumuseum.html",
            "wheelchair": "no",
            "wikidata": "Q37987650"
          },
          "geometry": {
            "type": "Point",
            "coordinates": [
              11.5078192,
              47.2810992
            ]
          }
        },
        {
          "type": "Feature",
          "properties": {
            "id": "4876652285",
            "osm_type": "node",
            "lat": 47.088022,
            "lon": 11.4601357,
            "fee": "no",
            "name": "BBT Tunnelwelten",
            "opening_hours": "Tu-Su 10:00-17:00",
            "operator": "Galleria di Base del Brennero – Brenner Basistunnel BBT SE",
            "phone": "+43 512 4030 400",
            "tourism": "museum",
            "website": "https://www.tunnelwelten.com",
            "wheelchair": "yes",
            "wikidata": "Q81656646"
          },
          "geometry": {
            "type": "Point",
            "coordinates": [
              11.4601357,
              47.088022
            ]
          }
        },
        {
          "type": "Feature",
          "properties": {
            "id": "5096113421",
            "osm_type": "node",
            "lat": 47.287048,
            "lon": 11.5158946,
            "addr:city": "Hall in Tirol",
            "addr:country": "AT",
            "addr:housenumber": "1",
            "addr:postcode": "6060",
            "addr:street": "Krajncstraße",
            "at_bev:addr_date": "2017-10-01",
            "name": "Tiroler Landesmuseen Sammlungs- und Forschungszentrum",
            "opening_hours": "off",
            "start_date": "2017-09-08",
            "tourism": "museum",
            "website": "https://www.tiroler-landesmuseen.at/page.cfm?vpath=tiroler-landesmuseen/forschung",
            "wikidata": "Q100872615",
            "wikimedia_commons": "File:Tiroler Landesmuseen Sammlungs- und Forschungszentrum (IMG 20201025 153640).jpg"
          },
          "geometry": {
            "type": "Point",
            "coordinates": [
              11.5158946,
              47.287048
            ]
          }
        },
        {
          "type": "Feature",
          "properties": {
            "id": "9751995116",
            "osm_type": "node",
            "lat": 47.3011976,
            "lon": 11.4676923,
            "addr:city": "Thaur",
            "addr:housenumber": "17",
            "addr:place": "Schlossgasse",
            "addr:postcode": "6065",
            "museum": "local",
            "name": "rundumTHAUR",
            "opening_hours": "We-Sa 10:00-22:00, Su 10:00-20:00, Mo off, Tu off",
            "operator": "Gemeinde Thaur;Verein für Dorfgeschichte Chronos Thaur;Naturpark Karwendel",
            "operator:type": "public",
            "tourism": "museum",
            "website": "https://www.hall-wattens.at/de/rundum-thaur.html;https://www.karwendel.org/rundumthaur/"
          },
          "geometry": {
            "type": "Point",
            "coordinates": [
              11.4676923,
              47.3011976
            ]
          }
        },
        {
          "type": "Feature",
          "properties": {
            "id": "11390710937",
            "osm_type": "node",
            "lat": 47.2953189,
            "lon": 11.5008825,
            "addr:city": "Absam",
            "addr:country": "AT",
            "addr:housenumber": "31",
            "addr:postcode": "6067",
            "addr:street": "Walburga Schindl-Straße",
            "contact:website": "https://www.absammuseum.at",
            "name": "Gemeindemuseum Absam",
            "opening_hours": "Fr 18:00-20:00; Sa,Su 14:00-18:00",
            "phone": "+43-676-840532700",
            "tourism": "museum",
            "wikidata": "Q87056487"
          },
          "geometry": {
            "type": "Point",
            "coordinates": [
              11.5008825,
              47.2953189
            ]
          }
        },
        {
          "type": "Feature",
          "properties": {
            "id": "11672931965",
            "osm_type": "node",
            "lat": 47.2793238,
            "lon": 11.5070095,
            "fixme": "position in building",
            "name": "Stadtmuseum Hall",
            "tourism": "museum",
            "website": "https://stadtmuseumhall.at/",
            "wikidata": "Q86002043"
          },
          "geometry": {
            "type": "Point",
            "coordinates": [
              11.5070095,
              47.2793238
            ]
          }
        },
        {
          "type": "Feature",
          "properties": {
            "id": "12182838993",
            "osm_type": "node",
            "lat": 47.2941565,
            "lon": 11.4756127,
            "name": "Krippenverein Thaur",
            "tourism": "museum"
          },
          "geometry": {
            "type": "Point",
            "coordinates": [
              11.4756127,
              47.2941565
            ]
          }
        },
        {
          "type": "Feature",
          "properties": {
            "id": "1449347882",
            "osm_type": "node",
            "lat": 47.3466167,
            "lon": 11.7117854,
            "name": "Rabalderhaus",
            "tourism": "museum",
            "website": "https://www.rabalderhaus.at/",
            "wheelchair": "no",
            "wikidata": "Q37993697"
          },
          "geometry": {
            "type": "Point",
            "coordinates": [
              11.7117854,
              47.3466167
            ]
          }
        },
        {
          "type": "Feature",
          "properties": {
            "id": "2412072400",
            "osm_type": "node",
            "lat": 47.354988,
            "lon": 11.696258,
            "addr:city": "Vomp",
            "addr:country": "AT",
            "addr:housename": "Benediktinerabtei",
            "addr:housenumber": "4",
            "addr:postcode": "6134",
            "addr:street": "Fiecht",
            "denomination": "catholic",
            "name": "Benediktinerabtei",
            "note": "Gäste, Jakobuspilger mit Voranmeldung (ca. 1 Woche vorher)",
            "operator": "Missions-Benediktiner St. Georgenberg-Fiecht",
            "tourism": "museum"
          },
          "geometry": {
            "type": "Point",
            "coordinates": [
              11.696258,
              47.354988
            ]
          }
        },
        {
          "type": "Feature",
          "properties": {
            "id": "2433820396",
            "osm_type": "node",
            "lat": 47.345364,
            "lon": 11.8486483,
            "name": "Heimatmuseum",
            "tourism": "museum"
          },
          "geometry": {
            "type": "Point",
            "coordinates": [
              11.8486483,
              47.345364
            ]
          }
        },
        {
          "type": "Feature",
          "properties": {
            "id": "3263012632",
            "osm_type": "node",
            "lat": 47.3466585,
            "lon": 11.7119688,
            "name": "Museum und Heimatschutzverein",
            "tourism": "museum"
          },
          "geometry": {
            "type": "Point",
            "coordinates": [
              11.7119688,
              47.3466585
            ]
          }
        },
        {
          "type": "Feature",
          "properties": {
            "id": "3263012633",
            "osm_type": "node",
            "lat": 47.3535513,
            "lon": 11.7072838,
            "addr:city": "Schwaz",
            "addr:country": "AT",
            "addr:housenumber": "21",
            "addr:postcode": "6130",
            "addr:street": "Münchner Straße",
            "name": "Feuerwehrmuseum",
            "tourism": "museum"
          },
          "geometry": {
            "type": "Point",
            "coordinates": [
              11.7072838,
              47.3535513
            ]
          }
        },
        {
          "type": "Feature",
          "properties": {
            "id": "3263014541",
            "osm_type": "node",
            "lat": 47.343243,
            "lon": 11.717724,
            "name": "Museum der Stadt Schwaz",
            "tourism": "museum"
          },
          "geometry": {
            "type": "Point",
            "coordinates": [
              11.717724,
              47.343243
            ]
          }
        },
        {
          "type": "Feature",
          "properties": {
            "id": "4307595227",
            "osm_type": "node",
            "lat": 47.2174553,
            "lon": 11.8658107,
            "name": "Strasser, Stille Nacht, heilige Nacht",
            "tourism": "museum"
          },
          "geometry": {
            "type": "Point",
            "coordinates": [
              11.8658107,
              47.2174553
            ]
          }
        },
        {
          "type": "Feature",
          "properties": {
            "id": "9023655578",
            "osm_type": "node",
            "lat": 47.3135689,
            "lon": 11.7824181,
            "fee": "no",
            "name:signed": "no",
            "opening_hours": "PH,Mo-Su 00:00-24:00",
            "tourism": "museum",
            "wheelchair": "limited"
          },
          "geometry": {
            "type": "Point",
            "coordinates": [
              11.7824181,
              47.3135689
            ]
          }
        },
        {
          "type": "Feature",
          "properties": {
            "id": "11779145387",
            "osm_type": "node",
            "lat": 47.2913427,
            "lon": 11.5926848,
            "fee": "yes",
            "museum": "local",
            "name": "Museum Wattens",
            "tourism": "museum",
            "website": "https://www.museum-wattens.com/",
            "wikidata": "Q56886894",
            "wikipedia": "de:Museum Wattens"
          },
          "geometry": {
            "type": "Point",
            "coordinates": [
              11.5926848,
              47.2913427
            ]
          }
        },
        {
          "type": "Feature",
          "properties": {
            "id": "11779156372",
            "osm_type": "node",
            "lat": 47.2910692,
            "lon": 11.5917412,
            "email": "schreibmaschinenmuseum-wattens@cnh.at",
            "fee": "no",
            "museum": "technology",
            "name": "Schreibmuseum Wattens",
            "tourism": "museum",
            "website": "https://www.wattens.com/museen/#schreibmaschinenmuseum",
            "wikidata": "Q87183550"
          },
          "geometry": {
            "type": "Point",
            "coordinates": [
              11.5917412,
              47.2910692
            ]
          }
        },
        {
          "type": "Feature",
          "properties": {
            "id": "12029678232",
            "osm_type": "node",
            "lat": 47.230066,
            "lon": 11.8916787,
            "fee": "yes",
            "name": "BrauKunstHaus",
            "opening_hours": "Mo-Sa 10:00-18:00; PH off",
            "operator": "Zillertal Bier Getränkehandel GmbH",
            "tourism": "museum",
            "website": "https://www.zillertal-bier.at/braukunsthaus",
            "wheelchair": "yes"
          },
          "geometry": {
            "type": "Point",
            "coordinates": [
              11.8916787,
              47.230066
            ]
          }
        },
        {
          "type": "Feature",
          "properties": {
            "id": "283563807",
            "osm_type": "node",
            "lat": 47.0452429,
            "lon": 12.1206314,
            "addr:city": "Prettau - Predoi",
            "addr:postcode": "39030",
            "addr:street": "Hörmanngasse - Vicolo Hörmann",
            "name": "Bergbaumuseum",
            "name:de": "Bergbaumuseum Prettau",
            "name:it": "Museo delle Miniere di Predoi",
            "tourism": "museum",
            "website:de": "http://www.bergbaumuseum.it/de/prettau/information/",
            "website:it": "http://www.bergbaumuseum.it/it/prettau/information/"
          },
          "geometry": {
            "type": "Point",
            "coordinates": [
              12.1206314,
              47.0452429
            ]
          }
        },
        {
          "type": "Feature",
          "properties": {
            "id": "931624545",
            "osm_type": "node",
            "lat": 47.0510123,
            "lon": 12.1295619,
            "name": "Naturparkhaus Rieserferner-Ahrn - Parco Naturale Vedrette di Ries-Aurina",
            "name:de": "Naturparkhaus Rieserferner-Ahrn",
            "name:it": "Parco Naturale Vedrette di Ries - Aurina",
            "tourism": "museum"
          },
          "geometry": {
            "type": "Point",
            "coordinates": [
              12.1295619,
              47.0510123
            ]
          }
        }
      ],
      "children": []
    },
    {
      "bbox": {
        "south": 47.033758500000005,
        "west": 12.392062499999998,
        "north": 47.36431175,
        "east": 13.345766
      },
      "poiCount": 14,
      "leafCount": 14,
      "averagePosition": [
        12.81952615,
        47.17237509285714
      ],
      "data": [
        {
          "type": "Feature",
          "properties": {
            "id": "146400532",
            "osm_type": "node",
            "lat": 47.2788852,
            "lon": 12.4779035,
            "addr:city": "Mittersill",
            "addr:country": "AT",
            "addr:housenumber": "18",
            "addr:postcode": "5730",
            "addr:street": "Gerlos Straße",
            "alt_name": "Nationalparkwelten",
            "building": "yes",
            "email": "info@nationalparkzentrum.at",
            "fee": "yes",
            "name": "Nationalparkzentrum Hohe Tauern",
            "opening_hours": "Mo-Su 09:00-18:00",
            "operator": "Nationalparkzentrum Hohe Tauern GmbH",
            "phone": "+43 6562 40939",
            "tourism": "museum",
            "website": "https://www.nationalparkzentrum.at/",
            "wheelchair": "yes"
          },
          "geometry": {
            "type": "Point",
            "coordinates": [
              12.4779035,
              47.2788852
            ]
          }
        },
        {
          "type": "Feature",
          "properties": {
            "id": "11505494340",
            "osm_type": "node",
            "lat": 47.1203008,
            "lon": 12.4083079,
            "contact:website": "https://www.alpenverein.de/verband/huetten-und-wege/huetten-des-bundesverbands/alte-prager-huette",
            "description": "Ein Glasfoyer gibt einen Einblick in die Bauweise der ersten Schutzhütten vor rund 150 Jahren",
            "fee": "no",
            "opening_hours": "Jun-Sep",
            "tourism": "museum",
            "wheelchair": "no"
          },
          "geometry": {
            "type": "Point",
            "coordinates": [
              12.4083079,
              47.1203008
            ]
          }
        },
        {
          "type": "Feature",
          "properties": {
            "id": "1823137311",
            "osm_type": "node",
            "lat": 47.0812212,
            "lon": 12.8430313,
            "indoor": "yes",
            "name": "Hochtor",
            "tourism": "museum"
          },
          "geometry": {
            "type": "Point",
            "coordinates": [
              12.8430313,
              47.0812212
            ]
          }
        },
        {
          "type": "Feature",
          "properties": {
            "id": "2580189904",
            "osm_type": "node",
            "lat": 47.3236101,
            "lon": 12.7978744,
            "addr:city": "Zell am See",
            "addr:country": "AT",
            "addr:housenumber": "8",
            "addr:postcode": "5700",
            "addr:street": "Stadtplatz",
            "fee": "yes",
            "name": "Vogtturm Museum",
            "opening_hours": "Tu-Su 10:00-19:00",
            "phone": "+43 660 322 7568",
            "tourism": "museum",
            "website": "https://www.vogtturm.at",
            "wheelchair": "no"
          },
          "geometry": {
            "type": "Point",
            "coordinates": [
              12.7978744,
              47.3236101
            ]
          }
        },
        {
          "type": "Feature",
          "properties": {
            "id": "4601392278",
            "osm_type": "node",
            "lat": 47.1354335,
            "lon": 12.6258327,
            "name": "Gletscher - Klima - Wetter",
            "tourism": "museum"
          },
          "geometry": {
            "type": "Point",
            "coordinates": [
              12.6258327,
              47.1354335
            ]
          }
        },
        {
          "type": "Feature",
          "properties": {
            "id": "5039942401",
            "osm_type": "node",
            "lat": 47.1713531,
            "lon": 12.8166387,
            "museum": "nature",
            "name": "Leben unter Wasser",
            "operator": "Nationalpark Hohe Tauern",
            "tourism": "museum"
          },
          "geometry": {
            "type": "Point",
            "coordinates": [
              12.8166387,
              47.1713531
            ]
          }
        },
        {
          "type": "Feature",
          "properties": {
            "id": "5039943711",
            "osm_type": "node",
            "lat": 47.1223071,
            "lon": 12.8211258,
            "name": "Alpine Naturschau",
            "tourism": "museum"
          },
          "geometry": {
            "type": "Point",
            "coordinates": [
              12.8211258,
              47.1223071
            ]
          }
        },
        {
          "type": "Feature",
          "properties": {
            "id": "5039996023",
            "osm_type": "node",
            "lat": 47.0565234,
            "lon": 12.805101,
            "name": "Wunderwelt Glocknerwiesen",
            "tourism": "museum"
          },
          "geometry": {
            "type": "Point",
            "coordinates": [
              12.805101,
              47.0565234
            ]
          }
        },
        {
          "type": "Feature",
          "properties": {
            "id": "7181568756",
            "osm_type": "node",
            "lat": 47.226119,
            "lon": 12.9944445,
            "name": "Rauriser Talmuseum",
            "opening_hours": "Mo,We,Fr 15:00-18:00",
            "tourism": "museum",
            "wheelchair": "no",
            "wikidata": "Q38054917"
          },
          "geometry": {
            "type": "Point",
            "coordinates": [
              12.9944445,
              47.226119
            ]
          }
        },
        {
          "type": "Feature",
          "properties": {
            "id": "9054158000",
            "osm_type": "node",
            "lat": 47.2724814,
            "lon": 12.7661426,
            "email": "info@oldtimer-museum.at",
            "fee": "yes",
            "name": "Vötter's Oldtimer-Museum",
            "opening_hours": "Mo-Su,PH 10:00-18:00",
            "tourism": "museum",
            "website": "https://www.oldtimer-museum.at/",
            "wikidata": "Q93492622"
          },
          "geometry": {
            "type": "Point",
            "coordinates": [
              12.7661426,
              47.2724814
            ]
          }
        },
        {
          "type": "Feature",
          "properties": {
            "id": "11948394171",
            "osm_type": "node",
            "lat": 47.225011,
            "lon": 12.8228552,
            "addr:housenumber": "121",
            "addr:postcode": "5672",
            "addr:street": "Zeller Fusch",
            "email": "de-mas@sbg.at",
            "name": "Erlebniswelt Mühlauersäge",
            "phone": "+436546217",
            "tourism": "museum",
            "website": "http://www.muehlauersaege.at"
          },
          "geometry": {
            "type": "Point",
            "coordinates": [
              12.8228552,
              47.225011
            ]
          }
        },
        {
          "type": "Feature",
          "properties": {
            "id": "2371948385",
            "osm_type": "node",
            "lat": 47.1125924,
            "lon": 13.0603178,
            "name": "Knappenwelt Angertal",
            "tourism": "museum",
            "wikidata": "Q93420287"
          },
          "geometry": {
            "type": "Point",
            "coordinates": [
              13.0603178,
              47.1125924
            ]
          }
        },
        {
          "type": "Feature",
          "properties": {
            "id": "4449467691",
            "osm_type": "node",
            "lat": 47.1722399,
            "lon": 13.0995711,
            "name": "Mineralien museum",
            "tourism": "museum",
            "wikidata": "Q93477786"
          },
          "geometry": {
            "type": "Point",
            "coordinates": [
              13.0995711,
              47.1722399
            ]
          }
        },
        {
          "type": "Feature",
          "properties": {
            "id": "6192063571",
            "osm_type": "node",
            "lat": 47.1151732,
            "lon": 13.1342196,
            "addr:city": "Bad Gastein",
            "addr:housenumber": "14",
            "addr:postcode": "5640",
            "addr:street": "Kaiser Franz Josef-Straße",
            "fee": "yes",
            "museum": "history",
            "name": "Gasteiner Museum",
            "opening_hours": "We-Su,PH 14:30-18:00",
            "tourism": "museum",
            "website": "https://www.gasteinermuseum.com/",
            "wikidata": "Q15111241",
            "wikipedia": "de:Gasteiner Museum"
          },
          "geometry": {
            "type": "Point",
            "coordinates": [
              13.1342196,
              47.1151732
            ]
          }
        }
      ],
      "children": []
    },
    {
      "bbox": {
        "south": 47.36431175,
        "west": 11.438358999999998,
        "north": 47.694865,
        "east": 12.392062499999998
      },
      "poiCount": 23,
      "leafCount": 23,
      "averagePosition": [
        11.958069226086957,
        47.50278006086956
      ],
      "data": [
        {
          "type": "Feature",
          "properties": {
            "id": "5062209606",
            "osm_type": "node",
            "lat": 47.4728752,
            "lon": 11.4658998,
            "addr:city": "Marktgemeinde Vomp",
            "addr:housenumber": "4",
            "addr:postcode": "6215",
            "addr:street": "Hinterriß",
            "fee": "yes",
            "name": "Naturparkhaus Hinterriß",
            "opening_hours": "We-Su 09:00-17:00",
            "operator": "Naturpark Karwendel",
            "tourism": "museum",
            "website": "https://www.karwendel.org/naturparkhaus/",
            "wikidata": "Q94265355"
          },
          "geometry": {
            "type": "Point",
            "coordinates": [
              11.4658998,
              47.4728752
            ]
          }
        },
        {
          "type": "Feature",
          "properties": {
            "id": "1348015361",
            "osm_type": "node",
            "lat": 47.6871995,
            "lon": 11.5767825,
            "check_date": "2023-08-30",
            "fee:icom_member": "unknown",
            "name": "Tiermuseum",
            "tourism": "museum",
            "website": "http://www.tiermuseum-lenggries.de/",
            "wikidata": "Q76628320"
          },
          "geometry": {
            "type": "Point",
            "coordinates": [
              11.5767825,
              47.6871995
            ]
          }
        },
        {
          "type": "Feature",
          "properties": {
            "id": "1421012451",
            "osm_type": "node",
            "lat": 47.441758,
            "lon": 11.7023243,
            "email": "tiroler@vitalberg.at",
            "fee": "yes",
            "name": "Tiroler Steinöl Vitalberg",
            "name:ru": "Музей Тирольского масла",
            "opening_hours": "Mo-Su 09:00-17:00",
            "operator": "Tiroler Steinöl Vitalberg GmbH",
            "phone": "+43 (5243) 20186",
            "tourism": "museum",
            "website": "https://www.vitalberg.at",
            "wheelchair": "yes",
            "wheelchair:description": "Eine Behindertengerechte Toilette ist vorhanden"
          },
          "geometry": {
            "type": "Point",
            "coordinates": [
              11.7023243,
              47.441758
            ]
          }
        },
        {
          "type": "Feature",
          "properties": {
            "id": "2860118861",
            "osm_type": "node",
            "lat": 47.4308453,
            "lon": 11.9730808,
            "tourism": "museum"
          },
          "geometry": {
            "type": "Point",
            "coordinates": [
              11.9730808,
              47.4308453
            ]
          }
        },
        {
          "type": "Feature",
          "properties": {
            "id": "3379734080",
            "osm_type": "node",
            "lat": 47.4384516,
            "lon": 11.891531,
            "name": "Museum in den Nagelschmiedhäusern",
            "tourism": "museum"
          },
          "geometry": {
            "type": "Point",
            "coordinates": [
              11.891531,
              47.4384516
            ]
          }
        },
        {
          "type": "Feature",
          "properties": {
            "id": "4176996360",
            "osm_type": "node",
            "lat": 47.4403588,
            "lon": 11.8935532,
            "addr:city": "Rattenberg",
            "addr:country": "AT",
            "addr:housenumber": "95",
            "addr:postcode": "6240",
            "addr:street": "Klostergasse",
            "name": "Augustinermuseum",
            "opening_hours": "May 01-Oct 26 10:00-17:00",
            "tourism": "museum",
            "website": "https://www.augustinermuseum.at",
            "wheelchair": "no",
            "wikidata": "Q768544",
            "wikipedia": "de:Augustinermuseum Rattenberg"
          },
          "geometry": {
            "type": "Point",
            "coordinates": [
              11.8935532,
              47.4403588
            ]
          }
        },
        {
          "type": "Feature",
          "properties": {
            "id": "4352453686",
            "osm_type": "node",
            "lat": 47.3938162,
            "lon": 11.7720745,
            "level": "1",
            "name": "Whiskymuseum",
            "opening_hours": "Fr 19:30-22:00",
            "phone": "+43 676 5706162",
            "tourism": "museum"
          },
          "geometry": {
            "type": "Point",
            "coordinates": [
              11.7720745,
              47.3938162
            ]
          }
        },
        {
          "type": "Feature",
          "properties": {
            "id": "8626098556",
            "osm_type": "node",
            "lat": 47.4127298,
            "lon": 11.7638817,
            "name": "Museum Sankt Notburga",
            "tourism": "museum"
          },
          "geometry": {
            "type": "Point",
            "coordinates": [
              11.7638817,
              47.4127298
            ]
          }
        },
        {
          "type": "Feature",
          "properties": {
            "id": "8626098567",
            "osm_type": "node",
            "lat": 47.4196363,
            "lon": 11.7421034,
            "name": "Achenseer Museumswelt",
            "tourism": "museum",
            "wikidata": "Q79217762"
          },
          "geometry": {
            "type": "Point",
            "coordinates": [
              11.7421034,
              47.4196363
            ]
          }
        },
        {
          "type": "Feature",
          "properties": {
            "id": "8626098588",
            "osm_type": "node",
            "lat": 47.4421803,
            "lon": 11.7013314,
            "name": "Tiroler Steinöl",
            "tourism": "museum",
            "wikidata": "Q79219508"
          },
          "geometry": {
            "type": "Point",
            "coordinates": [
              11.7013314,
              47.4421803
            ]
          }
        },
        {
          "type": "Feature",
          "properties": {
            "id": "10593505500",
            "osm_type": "node",
            "lat": 47.6840229,
            "lon": 11.7825712,
            "addr:city": "Rottach-Egern",
            "addr:country": "DE",
            "addr:housenumber": "16",
            "addr:postcode": "83700",
            "addr:street": "Feldstraße",
            "name": "Kutschen- und Schlittenmuseum",
            "operator": "Gemeinde Rottach-Egern",
            "tourism": "museum"
          },
          "geometry": {
            "type": "Point",
            "coordinates": [
              11.7825712,
              47.6840229
            ]
          }
        },
        {
          "type": "Feature",
          "properties": {
            "id": "13014892314",
            "osm_type": "node",
            "lat": 47.4638797,
            "lon": 11.9185334,
            "addr:housenumber": "10",
            "addr:street": "Angerberg",
            "description": "Freilichtmuseum mit 37 wieder errichtete Originalbauten",
            "fee": "yes",
            "name": "Museum Tiroler Bauernhöfe",
            "opening_hours": "Mo-Su 09:00-17:00",
            "tourism": "museum",
            "website": "https://www.museum-tb.at/"
          },
          "geometry": {
            "type": "Point",
            "coordinates": [
              11.9185334,
              47.4638797
            ]
          }
        },
        {
          "type": "Feature",
          "properties": {
            "id": "454944269",
            "osm_type": "node",
            "lat": 47.4108013,
            "lon": 12.035614,
            "fee": "yes",
            "name": "Holzmuseum",
            "tourism": "museum",
            "website": "http://2016.holzmuseum.com/"
          },
          "geometry": {
            "type": "Point",
            "coordinates": [
              12.035614,
              47.4108013
            ]
          }
        },
        {
          "type": "Feature",
          "properties": {
            "id": "455034370",
            "osm_type": "node",
            "lat": 47.4495186,
            "lon": 12.0699707,
            "addr:city": "Wildschönau",
            "addr:country": "AT",
            "addr:housenumber": "3",
            "addr:place": "Bach",
            "addr:postcode": "6311",
            "addr:suburb": "Oberau",
            "email": "info@bergbauernmuseum.at",
            "fee": "yes",
            "museum": "agriculture",
            "name": "Bergbauernmuseum z'Bach",
            "phone": "+43 5339 20055",
            "tourism": "museum",
            "website": "https://www.bergbauernmuseum.at/",
            "wikidata": "Q86909936"
          },
          "geometry": {
            "type": "Point",
            "coordinates": [
              12.0699707,
              47.4495186
            ]
          }
        },
        {
          "type": "Feature",
          "properties": {
            "id": "729571926",
            "osm_type": "node",
            "lat": 47.5811759,
            "lon": 12.1703276,
            "alt_name": "Madersperger Nähmaschinenmuseum",
            "description": "Geburtshaus Josef Madersperger einer der Erfinder der Nähmaschine",
            "fee": "no",
            "name": "madersperger",
            "opening_hours": "Mo-Su 10:00-17:00",
            "subject:wikidata": "Q87339",
            "subject:wikipedia": "de:Josef Madersperger",
            "tourism": "museum",
            "website": "https://www.kufstein.com/de/infrastruktur.html#/pois/KUF/b5177cf8-4180-42c7-90bc-9c6f1d96ee71",
            "wheelchair": "limited",
            "wikidata": "Q94119736"
          },
          "geometry": {
            "type": "Point",
            "coordinates": [
              12.1703276,
              47.5811759
            ]
          }
        },
        {
          "type": "Feature",
          "properties": {
            "id": "1264213609",
            "osm_type": "node",
            "lat": 47.6441584,
            "lon": 12.1755897,
            "name": "Museum im Burgtor",
            "opening_hours": "Tu 14:00-18:00;Fr 14:00-18:00; Oct-Apr off",
            "tourism": "museum"
          },
          "geometry": {
            "type": "Point",
            "coordinates": [
              12.1755897,
              47.6441584
            ]
          }
        },
        {
          "type": "Feature",
          "properties": {
            "id": "1673341074",
            "osm_type": "node",
            "lat": 47.5104766,
            "lon": 12.1186657,
            "description": "Temporär geschlossen! Sehr kleines (Eingangsraum, Treppe, Endraum) Museum. Trotzdem sehr interessant und zum Teil witzig (Haui) eingerichtet.",
            "fee": "no",
            "museum": "technology;history",
            "name": "Bergbaumuseum",
            "opening_hours": "closed \"Bis auf Weiteres geschlossen.\"",
            "tourism": "museum"
          },
          "geometry": {
            "type": "Point",
            "coordinates": [
              12.1186657,
              47.5104766
            ]
          }
        },
        {
          "type": "Feature",
          "properties": {
            "id": "2093564130",
            "osm_type": "node",
            "lat": 47.4455582,
            "lon": 12.3913967,
            "addr:city": "Kitzbühel",
            "addr:housenumber": "32",
            "addr:postcode": "6370",
            "addr:street": "Hinterstadt",
            "name": "Museum Kitzbühel",
            "opening_hours": "Su-Fr 10:00-13:00; Sa 10:00-17:00",
            "tourism": "museum",
            "website": "http://www.museum-kitzbuehel.at/",
            "wikidata": "Q15121280",
            "wikipedia": "de:Museum Kitzbühel"
          },
          "geometry": {
            "type": "Point",
            "coordinates": [
              12.3913967,
              47.4455582
            ]
          }
        },
        {
          "type": "Feature",
          "properties": {
            "id": "2504084666",
            "osm_type": "node",
            "lat": 47.5569692,
            "lon": 12.1528119,
            "name": "Freiluft ZementMuseum",
            "opening_hours": "24/7",
            "tourism": "museum"
          },
          "geometry": {
            "type": "Point",
            "coordinates": [
              12.1528119,
              47.5569692
            ]
          }
        },
        {
          "type": "Feature",
          "properties": {
            "id": "3865739648",
            "osm_type": "node",
            "lat": 47.5814892,
            "lon": 12.1689677,
            "check_date": "2024-09-27",
            "fee": "no",
            "name": "Heimatmuseum",
            "note": "Im Winter nicht alle Räume offen",
            "opening_hours": "summer",
            "seasonal": "summer",
            "tourism": "museum",
            "website": "https://heimat-kufstein.at/museum/",
            "wheelchair": "no"
          },
          "geometry": {
            "type": "Point",
            "coordinates": [
              12.1689677,
              47.5814892
            ]
          }
        },
        {
          "type": "Feature",
          "properties": {
            "id": "4571078100",
            "osm_type": "node",
            "lat": 47.6511087,
            "lon": 12.2144416,
            "description": "Kleines Museum in 2-3 Räumen mit schöner alter Schmied und anderen Handwerken.",
            "name": "Heimatmuseum - Alte Schmiede",
            "tourism": "museum",
            "wikidata": "Q93444535"
          },
          "geometry": {
            "type": "Point",
            "coordinates": [
              12.2144416,
              47.6511087
            ]
          }
        },
        {
          "type": "Feature",
          "properties": {
            "id": "4605042948",
            "osm_type": "node",
            "lat": 47.4858225,
            "lon": 12.065853,
            "addr:city": "Wörgl",
            "addr:country": "AT",
            "addr:housenumber": "1",
            "addr:postcode": "6300",
            "addr:street": "Brixentaler Straße",
            "contact:phone": "+43 5332 77239",
            "name": "Heimatmuseum",
            "opening_hours": "Jun-Sep Tu,Sa 10:00-11:30",
            "tourism": "museum",
            "website": "https://heimat.woergl.at/verschiedenes/heimatmuseum"
          },
          "geometry": {
            "type": "Point",
            "coordinates": [
              12.065853,
              47.4858225
            ]
          }
        },
        {
          "type": "Feature",
          "properties": {
            "id": "8510163380",
            "osm_type": "node",
            "lat": 47.5191092,
            "lon": 12.2882864,
            "name": "Heimatmuseum",
            "tourism": "museum",
            "url": "https://www.wilderkaiser.info/de/ellmau/info/heimatmuseum-ellmau.html"
          },
          "geometry": {
            "type": "Point",
            "coordinates": [
              12.2882864,
              47.5191092
            ]
          }
        }
      ],
      "children": []
    },
    {
      "bbox": {
        "south": 47.36431175,
        "west": 12.392062499999998,
        "north": 47.694865,
        "east": 13.345766
      },
      "poiCount": 15,
      "leafCount": 15,
      "averagePosition": [
        12.84753508,
        47.52853196
      ],
      "data": [
        {
          "type": "Feature",
          "properties": {
            "id": "2572123810",
            "osm_type": "node",
            "lat": 47.5216574,
            "lon": 12.4293727,
            "alt_name": "Gemeindemuseum",
            "description": "Museum der Marktgemeinde St. Johann in Tirol",
            "name": "Galerie",
            "phone": "+43 5352 6900-1200",
            "tourism": "museum"
          },
          "geometry": {
            "type": "Point",
            "coordinates": [
              12.4293727,
              47.5216574
            ]
          }
        },
        {
          "type": "Feature",
          "properties": {
            "id": "6974713232",
            "osm_type": "node",
            "lat": 47.3800022,
            "lon": 12.4201693,
            "alt_name": "Bergbau- und Heimatmuseum Jochberg",
            "name": "Museum Jochberg",
            "tourism": "museum",
            "website": "https://www.museum-jochberg.at/",
            "wikidata": "Q37751556"
          },
          "geometry": {
            "type": "Point",
            "coordinates": [
              12.4201693,
              47.3800022
            ]
          }
        },
        {
          "type": "Feature",
          "properties": {
            "id": "8013142406",
            "osm_type": "node",
            "lat": 47.444285,
            "lon": 12.398745,
            "alt_name": "Rieser Masken",
            "check_date": "2024-11-03",
            "fixme": "sonntag 15-18 uhr juli-dezember",
            "name": "Krampusmuseum",
            "tourism": "museum"
          },
          "geometry": {
            "type": "Point",
            "coordinates": [
              12.398745,
              47.444285
            ]
          }
        },
        {
          "type": "Feature",
          "properties": {
            "id": "12388348561",
            "osm_type": "node",
            "lat": 47.6760024,
            "lon": 12.471765,
            "addr:city": "Reit im Winkl",
            "addr:housenumber": "11",
            "addr:postcode": "83242",
            "addr:street": "Weitseestraße",
            "name": "Heimatmuseum Hausenhäusl",
            "opening_hours": "Jun-Oct: Fr 14:00-16:00",
            "phone": "+49 8640 80027",
            "ref:isil": "DE-MUS-389313",
            "tourism": "museum",
            "website": "https://www.reitimwinkl.de/heimatmuseum",
            "wikidata": "Q76629267"
          },
          "geometry": {
            "type": "Point",
            "coordinates": [
              12.471765,
              47.6760024
            ]
          }
        },
        {
          "type": "Feature",
          "properties": {
            "id": "765545697",
            "osm_type": "node",
            "lat": 47.4418235,
            "lon": 12.7102171,
            "addr:country": "AT",
            "addr:housenumber": "10",
            "addr:place": "Hütten",
            "contact:email": "info@museum-leogang.at",
            "ele": "848",
            "name": "Bergbau- und Gotikmuseum",
            "opening_hours": "May 11-Oct 31: Tu-Su,PH 10:00-17:00; Mo off",
            "phone": "+43 6583 7105",
            "tourism": "museum",
            "website": "https://www.museum-leogang.at/",
            "wpt_description": "23-MAI-10 8:58:48",
            "wpt_symbol": "Museum"
          },
          "geometry": {
            "type": "Point",
            "coordinates": [
              12.7102171,
              47.4418235
            ]
          }
        },
        {
          "type": "Feature",
          "properties": {
            "id": "1221123541",
            "osm_type": "node",
            "lat": 47.5879756,
            "lon": 12.5628577,
            "addr:city": "Waidring",
            "addr:country": "AT",
            "addr:housenumber": "10",
            "addr:postcode": "6384",
            "addr:street": "Alpegg",
            "building": "yes",
            "name": "Glockenwelt Waidring",
            "opening_hours": "1. Juli bis Ende September: Montag bis Samstag - 13.00 Uhr bis 17.00 Uhr",
            "tourism": "museum",
            "website": "https://glockendorf.tirol/glockenwelt/"
          },
          "geometry": {
            "type": "Point",
            "coordinates": [
              12.5628577,
              47.5879756
            ]
          }
        },
        {
          "type": "Feature",
          "properties": {
            "id": "2046040753",
            "osm_type": "node",
            "lat": 47.4210835,
            "lon": 12.8464249,
            "name": "Heimatmuseum",
            "tourism": "museum"
          },
          "geometry": {
            "type": "Point",
            "coordinates": [
              12.8464249,
              47.4210835
            ]
          }
        },
        {
          "type": "Feature",
          "properties": {
            "id": "2122612116",
            "osm_type": "node",
            "lat": 47.6334178,
            "lon": 13.0035583,
            "addr:city": "Berchtesgaden",
            "addr:country": "DE",
            "addr:housenumber": "2",
            "addr:postcode": "83471",
            "addr:street": "Schlossplatz",
            "check_date": "2023-05-27",
            "name": "Rehmuseum",
            "tourism": "museum",
            "website": "https://www.schloss-berchtesgaden.de/de/rehmuseum/",
            "wikidata": "Q2138989"
          },
          "geometry": {
            "type": "Point",
            "coordinates": [
              13.0035583,
              47.6334178
            ]
          }
        },
        {
          "type": "Feature",
          "properties": {
            "id": "2488166107",
            "osm_type": "node",
            "lat": 47.6262202,
            "lon": 12.9924025,
            "addr:city": "Berchtesgaden",
            "addr:country": "DE",
            "addr:housenumber": "7",
            "addr:postcode": "83471",
            "addr:street": "Hanielstraße",
            "fee": "yes",
            "name": "Haus der Berge - Nationalparkzentrum Berchtesgaden",
            "name:de": "Haus der Berge  - Nationalparkzentrum Berchtesgaden",
            "opening_hours": "Mo-Su,PH 09:00-17:00",
            "operator": "Freistaat Bayern",
            "phone": "+4986529790600",
            "toilets:wheelchair": "yes",
            "tourism": "museum",
            "website": "https://www.haus-der-berge.bayern.de/",
            "wheelchair": "yes",
            "wheelchair:description": "Zugang zum Eingang mit großen Steinplatten, nicht ganz Rollstuhlgerecht.",
            "wikidata": "Q15114128",
            "wikipedia": "de:Haus der Berge"
          },
          "geometry": {
            "type": "Point",
            "coordinates": [
              12.9924025,
              47.6262202
            ]
          }
        },
        {
          "type": "Feature",
          "properties": {
            "id": "2488250085",
            "osm_type": "node",
            "lat": 47.6258381,
            "lon": 12.9917553,
            "addr:city": "Berchtesgaden",
            "addr:country": "DE",
            "addr:housename": "Bildungszentrum - Haus der Berge",
            "addr:housenumber": "7",
            "addr:postcode": "83471",
            "addr:street": "Gmundberg",
            "name": "Bildungszentrum - Haus der Berge",
            "note": "Das Bildungszentrum ist nur für angemeldete Gruppen geöffnet.",
            "operator": "Freistaat Bayern",
            "phone": "+49 8652 979060-0",
            "source": "Nationalparkverwaltung Berchtesgaden",
            "tourism": "museum",
            "website": "https://www.haus-der-berge.bayern.de/",
            "wheelchair": "yes"
          },
          "geometry": {
            "type": "Point",
            "coordinates": [
              12.9917553,
              47.6258381
            ]
          }
        },
        {
          "type": "Feature",
          "properties": {
            "id": "6846279776",
            "osm_type": "node",
            "lat": 47.5900936,
            "lon": 12.9891078,
            "contact:email": "info@romy-schneider-ausstellung.de",
            "contact:phone": "+49 8652 9756584",
            "contact:website": "http://www.romy-schneider-ausstellung.de",
            "description": "Privatsammlungen über Romy und Magda Schneider",
            "fee": "yes",
            "museum": "person",
            "name": "Romy-Schneider-Ausstellung",
            "note": "Name ohne Bindestriche geschrieben",
            "opening_hours": "PH,Mo-Su 11:00-17:00",
            "opening_hours:url": "http://www.romy-schneider-ausstellung.de/index.html",
            "operator:type": "private",
            "tourism": "museum"
          },
          "geometry": {
            "type": "Point",
            "coordinates": [
              12.9891078,
              47.5900936
            ]
          }
        },
        {
          "type": "Feature",
          "properties": {
            "id": "427668984",
            "osm_type": "node",
            "lat": 47.462123,
            "lon": 13.2561611,
            "addr:city": "Werfenweng",
            "addr:country": "AT",
            "addr:housenumber": "138",
            "addr:postcode": "5453",
            "addr:street": "Am Dorfplatz, Weng",
            "email": "info@skimuseum.at",
            "fee": "yes",
            "name": "Salzburger Landesskimuseum",
            "phone": "+43 664 5000096",
            "tourism": "museum",
            "website": "https://www.skimuseum.at/",
            "wikidata": "Q86010799"
          },
          "geometry": {
            "type": "Point",
            "coordinates": [
              13.2561611,
              47.462123
            ]
          }
        },
        {
          "type": "Feature",
          "properties": {
            "id": "1390246718",
            "osm_type": "node",
            "lat": 47.4772339,
            "lon": 13.1888448,
            "tourism": "museum",
            "wikidata": "Q16855681"
          },
          "geometry": {
            "type": "Point",
            "coordinates": [
              13.1888448,
              47.4772339
            ]
          }
        },
        {
          "type": "Feature",
          "properties": {
            "id": "3533162178",
            "osm_type": "node",
            "lat": 47.6245724,
            "lon": 13.1441848,
            "check_date": "2023-08-19",
            "name": "Heimatmuseum Kuchl",
            "operator": "Museumsverein Kuchl",
            "tourism": "museum"
          },
          "geometry": {
            "type": "Point",
            "coordinates": [
              13.1441848,
              47.6245724
            ]
          }
        },
        {
          "type": "Feature",
          "properties": {
            "id": "3704630029",
            "osm_type": "node",
            "lat": 47.4156508,
            "lon": 13.3074599,
            "addr:city": "Hüttau",
            "addr:country": "AT",
            "addr:housenumber": "29",
            "addr:place": "Hüttau",
            "addr:postcode": "5511",
            "at_bev:addr_date": "2017-10-01",
            "name": "Erze, Gold & Mineralien",
            "tourism": "museum"
          },
          "geometry": {
            "type": "Point",
            "coordinates": [
              13.3074599,
              47.4156508
            ]
          }
        }
      ],
      "children": []
    }
  ]
}