{
  "bbox": {
    "south": 48.355971499999995,
    "west": 15.253173,
    "north": 49.017078,
    "east": 17.16058
  },
  "poiCount": 114,
  "leafCount": 0,
  "averagePosition": [
    16.14585765877193,
    48.68296161403509
  ],
  "data": [],
  "children": [
    {
      "bbox": {
        "south": 48.355971499999995,
        "west": 15.253173,
        "north": 48.68652475,
        "east": 16.2068765
      },
      "poiCount": 28,
      "leafCount": 28,
      "averagePosition": [
        15.625060557142858,
        48.484808428571434
      ],
      "data": [
        {
          "type": "Feature",
          "properties": {
            "id": "4975827891",
            "osm_type": "node",
            "lat": 48.3674319,
            "lon": 15.4215624,
            "addr:city": "Spitz",
            "addr:country": "AT",
            "addr:housenumber": "2",
            "addr:postcode": "3620",
            "addr:street": "Kremserstraße",
            "description": "Eintritt € 3,- pro Person Bei Konsumation im Hotel Restaurant Mariandl ist der Eintritt frei Montag & Dienstag Ruhetag Mittwoch - Sonntag von 11:00 - 18:00 geöffnet Geöffnet von April - Oktober",
            "name": "Gunther Philipp Museum",
            "opening_hours": "We-Su 11:00-18:00",
            "operator": "Hotel Mariandl BetriebsGmbH",
            "tourism": "museum",
            "website": "https://www.hotel-mariandl.at/gunther-philipp-museum/"
          },
          "geometry": {
            "type": "Point",
            "coordinates": [
              15.4215624,
              48.3674319
            ]
          }
        },
        {
          "type": "Feature",
          "properties": {
            "id": "7425857627",
            "osm_type": "node",
            "lat": 48.3597922,
            "lon": 15.401287,
            "addr:city": "Spitz",
            "addr:country": "AT",
            "addr:housenumber": "21",
            "addr:postcode": "3620",
            "addr:street": "Auf der Wehr",
            "fee": "yes",
            "name": "Schiffahrtsmuseum Spitz",
            "opening_hours": "Apr-Oct: Mo-Su,PH 10:00-16:00",
            "phone": "+43 2713 2246",
            "tourism": "museum",
            "website": "http://www.schifffahrtsmuseum-spitz.at/",
            "wheelchair": "no"
          },
          "geometry": {
            "type": "Point",
            "coordinates": [
              15.401287,
              48.3597922
            ]
          }
        },
        {
          "type": "Feature",
          "properties": {
            "id": "5389494639",
            "osm_type": "node",
            "lat": 48.3670196,
            "lon": 15.611629,
            "name": "Museum im Kaisertrakt",
            "tourism": "museum",
            "wheelchair": "no"
          },
          "geometry": {
            "type": "Point",
            "coordinates": [
              15.611629,
              48.3670196
            ]
          }
        },
        {
          "type": "Feature",
          "properties": {
            "id": "1497700097",
            "osm_type": "node",
            "lat": 48.5296173,
            "lon": 15.4855708,
            "name": "Heimatmuseum Altes Eishaus",
            "tourism": "museum"
          },
          "geometry": {
            "type": "Point",
            "coordinates": [
              15.4855708,
              48.5296173
            ]
          }
        },
        {
          "type": "Feature",
          "properties": {
            "id": "2158118609",
            "osm_type": "node",
            "lat": 48.3729497,
            "lon": 15.3467562,
            "addr:city": "Mühldorf",
            "addr:country": "AT",
            "addr:housenumber": "14",
            "addr:postcode": "3622",
            "addr:street": "Markt",
            "name": "Bäckereimuseum Mühldorf-Wachau",
            "opening_hours": "09:00-20:00",
            "operator": "Sissy Stummvoll",
            "phone": "+432713 8243",
            "short_name": "Bäckereimuseum",
            "tourism": "museum",
            "website": "https://www.baeckereimuseum.at/",
            "wikidata": "Q93345879"
          },
          "geometry": {
            "type": "Point",
            "coordinates": [
              15.3467562,
              48.3729497
            ]
          }
        },
        {
          "type": "Feature",
          "properties": {
            "id": "3486785201",
            "osm_type": "node",
            "lat": 48.588124,
            "lon": 15.4485607,
            "name": "Hammerschmiede-Museum",
            "name:en": "Hammer mill museum",
            "operator": "Annemarie Canli",
            "tourism": "museum"
          },
          "geometry": {
            "type": "Point",
            "coordinates": [
              15.4485607,
              48.588124
            ]
          }
        },
        {
          "type": "Feature",
          "properties": {
            "id": "6142571342",
            "osm_type": "node",
            "lat": 48.5409117,
            "lon": 15.5097213,
            "name": "Bauernmuseum",
            "tourism": "museum"
          },
          "geometry": {
            "type": "Point",
            "coordinates": [
              15.5097213,
              48.5409117
            ]
          }
        },
        {
          "type": "Feature",
          "properties": {
            "id": "6539838257",
            "osm_type": "node",
            "lat": 48.3978056,
            "lon": 15.4697981,
            "addr:city": "Weißenkirchen in der Wachau",
            "addr:country": "AT",
            "addr:housenumber": "177",
            "addr:postcode": "3610",
            "addr:street": "Marktplatz",
            "name": "Wachaumuseum",
            "phone": "+43 2715 22 68",
            "tourism": "museum",
            "website": "https://www.weissenkirchen.at/home/wachaumuseum"
          },
          "geometry": {
            "type": "Point",
            "coordinates": [
              15.4697981,
              48.3978056
            ]
          }
        },
        {
          "type": "Feature",
          "properties": {
            "id": "7706705565",
            "osm_type": "node",
            "lat": 48.6422152,
            "lon": 15.4479157,
            "museum": "history",
            "name": "Museum für Alltagsgeschichte",
            "note": "Das Museum bieten einen Überblick über die Alltagsgeschichte der ländlichen Bevölkerung der letzten 300 Jahre.",
            "source": "https://www.poella.at/Museum",
            "tourism": "museum",
            "website": "https://www.poella.at/museum"
          },
          "geometry": {
            "type": "Point",
            "coordinates": [
              15.4479157,
              48.6422152
            ]
          }
        },
        {
          "type": "Feature",
          "properties": {
            "id": "411709746",
            "osm_type": "node",
            "lat": 48.4664954,
            "lon": 15.9466769,
            "contact:phone": "+43 / 2955 / 70 645",
            "contact:website": "https://www.pleyel.at/",
            "name": "Ignaz-Pleyel-Museum",
            "opening_hours": "Sa 14:00-17:00; Su, Mo, Fr 10:00-13:00",
            "tourism": "museum"
          },
          "geometry": {
            "type": "Point",
            "coordinates": [
              15.9466769,
              48.4664954
            ]
          }
        },
        {
          "type": "Feature",
          "properties": {
            "id": "568434358",
            "osm_type": "node",
            "lat": 48.4720281,
            "lon": 15.732678,
            "name": "Feuerwehrmuseum Straß im Straßertale",
            "opening_hours": "Su 09:30-11:30",
            "tourism": "museum"
          },
          "geometry": {
            "type": "Point",
            "coordinates": [
              15.732678,
              48.4720281
            ]
          }
        },
        {
          "type": "Feature",
          "properties": {
            "id": "1325769490",
            "osm_type": "node",
            "lat": 48.4972432,
            "lon": 15.7455556,
            "layer": "-1",
            "name": "Ausstellung",
            "tourism": "museum"
          },
          "geometry": {
            "type": "Point",
            "coordinates": [
              15.7455556,
              48.4972432
            ]
          }
        },
        {
          "type": "Feature",
          "properties": {
            "id": "1759617772",
            "osm_type": "node",
            "lat": 48.5988283,
            "lon": 15.5459698,
            "addr:city": "St. Leonhard am Hornerwald",
            "addr:country": "AT",
            "addr:housenumber": "84",
            "addr:place": "St. Leonhard am Hornerwald",
            "addr:postcode": "3572",
            "name": "Handwerksmuseum",
            "opening_hours": "May-Nov: Su 13:00-16:00,Su[1] 10:00-16:00 || \"sowie nach Vereinbarung für Gruppen\"",
            "tourism": "museum"
          },
          "geometry": {
            "type": "Point",
            "coordinates": [
              15.5459698,
              48.5988283
            ]
          }
        },
        {
          "type": "Feature",
          "properties": {
            "id": "2078458868",
            "osm_type": "node",
            "lat": 48.4741493,
            "lon": 15.6669287,
            "addr:city": "Langenlois",
            "addr:country": "AT",
            "addr:housenumber": "11",
            "addr:postcode": "3550",
            "addr:street": "Zwettler Straße",
            "fixme": "position",
            "name": "Privatmuseum Steininger",
            "tourism": "museum"
          },
          "geometry": {
            "type": "Point",
            "coordinates": [
              15.6669287,
              48.4741493
            ]
          }
        },
        {
          "type": "Feature",
          "properties": {
            "id": "2114644858",
            "osm_type": "node",
            "lat": 48.6647775,
            "lon": 15.6615051,
            "addr:city": "Horn",
            "addr:country": "AT",
            "addr:housenumber": "4",
            "addr:postcode": "3580",
            "addr:street": "Wiener Straße",
            "contact:phone": "+43 2982 2372",
            "name": "Höbarth Museum",
            "tourism": "museum",
            "website": "https://museumhorn.at/",
            "wikidata": "Q1497647",
            "wikipedia": "de:Höbarthmuseum"
          },
          "geometry": {
            "type": "Point",
            "coordinates": [
              15.6615051,
              48.6647775
            ]
          }
        },
        {
          "type": "Feature",
          "properties": {
            "id": "3271015946",
            "osm_type": "node",
            "lat": 48.3754798,
            "lon": 15.6470324,
            "man_made": "adit",
            "name": "Schaustollen Angern",
            "operator": "Verschönerungsverein Wetterkreuz",
            "short_name": "Schaustollen",
            "source": "http://www.ots.at/presseaussendung/OTS_20010802_OTS0054/ein-altes-bergbaugebiet-suedlich-der-donau",
            "start_date": "2001-08-15",
            "tourism": "museum"
          },
          "geometry": {
            "type": "Point",
            "coordinates": [
              15.6470324,
              48.3754798
            ]
          }
        },
        {
          "type": "Feature",
          "properties": {
            "id": "3963940849",
            "osm_type": "node",
            "lat": 48.4189312,
            "lon": 15.561095,
            "addr:city": "Egelsee",
            "addr:country": "AT",
            "addr:housenumber": "1",
            "addr:postcode": "3500",
            "addr:street": "Ziegelofengasse",
            "description": "Eintrittspreise: Freiwillige Spenden",
            "fee": "no",
            "name": "Motorrad-Museum",
            "opening_hours": "Mar-Oct: \"call us\"",
            "operator": "Fam. Kirchmayer",
            "phone": "+43 2732 414 24",
            "tourism": "museum",
            "website": "http://www.motorrad-museum.at/",
            "wheelchair": "yes",
            "wikidata": "Q94525758"
          },
          "geometry": {
            "type": "Point",
            "coordinates": [
              15.561095,
              48.4189312
            ]
          }
        },
        {
          "type": "Feature",
          "properties": {
            "id": "4273753525",
            "osm_type": "node",
            "lat": 48.4046486,
            "lon": 15.5881524,
            "addr:city": "Krems an der Donau",
            "addr:country": "AT",
            "addr:housenumber": "3a",
            "addr:postcode": "3500",
            "addr:street": "Steiner Landstraße",
            "email": "office@karikaturmuseum.at",
            "fee": "yes",
            "name": "Karikaturmuseum",
            "opening_hours": "Mo-Su 10:00-18:00",
            "phone": "+43 2732 90 80 20",
            "tourism": "museum",
            "website": "https://www.karikaturmuseum.at/",
            "wheelchair": "yes",
            "wikidata": "Q1483375",
            "wikipedia": "de:Karikaturmuseum Krems"
          },
          "geometry": {
            "type": "Point",
            "coordinates": [
              15.5881524,
              48.4046486
            ]
          }
        },
        {
          "type": "Feature",
          "properties": {
            "id": "4273753526",
            "osm_type": "node",
            "lat": 48.4047144,
            "lon": 15.5871235,
            "addr:city": "Krems an der Donau",
            "addr:country": "AT",
            "addr:housenumber": "3",
            "addr:postcode": "3500",
            "addr:street": "Franz-Zeller-Platz",
            "fee": "yes",
            "name": "Kunsthalle Krems",
            "phone": "+43 2732 90 80 10",
            "tourism": "museum",
            "website": "https://www.kunsthalle.at/",
            "wheelchair": "limited",
            "wikidata": "Q1792410",
            "wikipedia": "de:Kunsthalle Krems"
          },
          "geometry": {
            "type": "Point",
            "coordinates": [
              15.5871235,
              48.4047144
            ]
          }
        },
        {
          "type": "Feature",
          "properties": {
            "id": "5028874857",
            "osm_type": "node",
            "lat": 48.4111655,
            "lon": 15.5972895,
            "addr:city": "Krems an der Donau",
            "addr:country": "AT",
            "addr:housenumber": "14",
            "addr:postcode": "3500",
            "addr:street": "Körnermarkt",
            "email": "museum@krems.gv.at",
            "fee": "yes",
            "name": "museumkrems",
            "old_name": "Weinstadtmuseum Krems",
            "opening_hours": "Mar 22-Nov 17: Mo-Su 10:00-18:00",
            "phone": "+43 2732 801 567",
            "tourism": "museum",
            "website": "https://www.museumkrems.at/"
          },
          "geometry": {
            "type": "Point",
            "coordinates": [
              15.5972895,
              48.4111655
            ]
          }
        },
        {
          "type": "Feature",
          "properties": {
            "id": "5338764261",
            "osm_type": "node",
            "lat": 48.3928446,
            "lon": 15.5778969,
            "fee": "no",
            "name": "Goldhauben- und Trachtenmuseum",
            "opening_hours": "May-Oct",
            "tourism": "museum"
          },
          "geometry": {
            "type": "Point",
            "coordinates": [
              15.5778969,
              48.3928446
            ]
          }
        },
        {
          "type": "Feature",
          "properties": {
            "id": "6203414739",
            "osm_type": "node",
            "lat": 48.4042546,
            "lon": 15.5879179,
            "addr:city": "Krems an der Donau",
            "addr:country": "AT",
            "addr:housenumber": "1",
            "addr:place": "Museumsplatz",
            "addr:postcode": "3500",
            "check_date": "2022-12-03",
            "fee": "yes",
            "museum": "art",
            "name": "Landesgalerie Niederösterreich",
            "opening_hours": "Tu-Su 10:00-17:00",
            "phone": "+43 2732 908 010",
            "toilets:wheelchair": "yes",
            "tourism": "museum",
            "website": "http://www.landesgalerie-noe.at",
            "wheelchair": "yes",
            "wikidata": "Q55507798",
            "wikipedia": "de:Landesgalerie Niederösterreich"
          },
          "geometry": {
            "type": "Point",
            "coordinates": [
              15.5879179,
              48.4042546
            ]
          }
        },
        {
          "type": "Feature",
          "properties": {
            "id": "6450628042",
            "osm_type": "node",
            "lat": 48.4037436,
            "lon": 15.5847011,
            "addr:city": "Krems an der Donau",
            "addr:country": "AT",
            "addr:housenumber": "4",
            "addr:postcode": "3500",
            "addr:street": "Minoritenplatz",
            "name": "Forum Frohner",
            "opening_hours": "Tu-Su 11:00-17:00",
            "operator": "Kunstmeile Krems Betriebsges.m.b.H.",
            "tourism": "museum",
            "website": "https://www.forum-frohner.at/"
          },
          "geometry": {
            "type": "Point",
            "coordinates": [
              15.5847011,
              48.4037436
            ]
          }
        },
        {
          "type": "Feature",
          "properties": {
            "id": "7305687434",
            "osm_type": "node",
            "lat": 48.434096,
            "lon": 15.9004428,
            "tourism": "museum"
          },
          "geometry": {
            "type": "Point",
            "coordinates": [
              15.9004428,
              48.434096
            ]
          }
        },
        {
          "type": "Feature",
          "properties": {
            "id": "9924964277",
            "osm_type": "node",
            "lat": 48.6282596,
            "lon": 15.6345422,
            "level": "0",
            "name": "Falknerei Museum",
            "tourism": "museum"
          },
          "geometry": {
            "type": "Point",
            "coordinates": [
              15.6345422,
              48.6282596
            ]
          }
        },
        {
          "type": "Feature",
          "properties": {
            "id": "9995419480",
            "osm_type": "node",
            "lat": 48.6673684,
            "lon": 15.8951971,
            "craft": "winery",
            "description": "Führungen nur gegen Voranmeldung möglich",
            "email": "weberkonni@gmail.com",
            "name": "Weberkeller Röschitz",
            "opening_hours": "Tu-Su 16:30-18:00",
            "operator": "Familie Kornelia und Ludwig Weber",
            "phone": "+43 660 1662796",
            "tourism": "museum",
            "website": "https://www.weinviertel.at/weinviertler-ausflugsziele/a-weberkeller-roeschitz"
          },
          "geometry": {
            "type": "Point",
            "coordinates": [
              15.8951971,
              48.6673684
            ]
          }
        },
        {
          "type": "Feature",
          "properties": {
            "id": "10276783088",
            "osm_type": "node",
            "lat": 48.6445629,
            "lon": 15.8139353,
            "access": "permit",
            "addr:city": "Eggenburg",
            "addr:postcode": "3730",
            "addr:street": "Judengasse",
            "description": "Besichtigung nur gegen Voranmeldung bei Hr. Ryschawy, Tel. 0664 1437485 oder Hr. Ing. Nusser, Tel. 0676 4135469 möglich.",
            "email": "obmann@buergerkorps-eggenburg.at",
            "museum": "history",
            "name": "Museum des Privilegierten uniformierten Bürgerkorps",
            "tourism": "museum",
            "website": "https://www.buergerkorps-eggenburg.at/"
          },
          "geometry": {
            "type": "Point",
            "coordinates": [
              15.8139353,
              48.6445629
            ]
          }
        },
        {
          "type": "Feature",
          "properties": {
            "id": "1271988863",
            "osm_type": "node",
            "lat": 48.6451778,
            "lon": 16.0842542,
            "name": "Bauernmuseum",
            "tourism": "museum",
            "wikidata": "Q811287",
            "wikipedia": "de:Bauernmuseum Kalladorf"
          },
          "geometry": {
            "type": "Point",
            "coordinates": [
              16.0842542,
              48.6451778
            ]
          }
        }
      ],
      "children": []
    },
    {
      "bbox": {
        "south": 48.355971499999995,
        "west": 16.2068765,
        "north": 48.68652475,
        "east": 17.16058
      },
      "poiCount": 22,
      "leafCount": 22,
      "averagePosition": [
        16.603457504545453,
        48.491426972727275
      ],
      "data": [
        {
          "type": "Feature",
          "properties": {
            "id": "345558371",
            "osm_type": "node",
            "lat": 48.3572578,
            "lon": 16.5670135,
            "addr:city": "Großengersdorf",
            "addr:housenumber": "24",
            "addr:postcode": "2212",
            "addr:street": "Neustift",
            "name": "Museum für Dorfkultur",
            "tourism": "museum",
            "website": "https://museum.grossengersdorf.com/"
          },
          "geometry": {
            "type": "Point",
            "coordinates": [
              16.5670135,
              48.3572578
            ]
          }
        },
        {
          "type": "Feature",
          "properties": {
            "id": "649520355",
            "osm_type": "node",
            "lat": 48.4192189,
            "lon": 16.5127384,
            "name": "Himmelkeller H.Bauch",
            "tourism": "museum",
            "website": "https://www.himmelkeller.at"
          },
          "geometry": {
            "type": "Point",
            "coordinates": [
              16.5127384,
              48.4192189
            ]
          }
        },
        {
          "type": "Feature",
          "properties": {
            "id": "731492771",
            "osm_type": "node",
            "lat": 48.3789895,
            "lon": 16.3087297,
            "fee": "yes",
            "name": "Burg Kreuzenstein",
            "note": "this point is for the museum, the shape is for the castle",
            "opening_hours": "Mo-Su,PH 10:00-16:00",
            "tourism": "museum"
          },
          "geometry": {
            "type": "Point",
            "coordinates": [
              16.3087297,
              48.3789895
            ]
          }
        },
        {
          "type": "Feature",
          "properties": {
            "id": "2078446141",
            "osm_type": "node",
            "lat": 48.5268459,
            "lon": 16.3765602,
            "addr:housenumber": "8",
            "addr:street": "Bahnstraße",
            "description": "Schlüssel in Ghs Schirmböck",
            "fixme": "position",
            "name": "Fossilienschauraum",
            "tourism": "museum"
          },
          "geometry": {
            "type": "Point",
            "coordinates": [
              16.3765602,
              48.5268459
            ]
          }
        },
        {
          "type": "Feature",
          "properties": {
            "id": "4893558081",
            "osm_type": "node",
            "lat": 48.5888448,
            "lon": 16.4912326,
            "addr:city": "Asparn an der Zaya",
            "addr:country": "AT",
            "addr:housenumber": "1",
            "addr:postcode": "2151",
            "addr:street": "Schlossgasse",
            "fee": "yes",
            "name": "MAMUZ Schloss Asparn/Zaya",
            "opening_hours": "Mo-Su 10:00-17:00",
            "phone": "+43257220719",
            "tourism": "museum",
            "website": "https://www.mamuz.at/",
            "wheelchair": "yes",
            "wikimedia_commons": "Category:Urgeschichtemuseum Niederösterreich Asparn an der Zaya - Collections"
          },
          "geometry": {
            "type": "Point",
            "coordinates": [
              16.4912326,
              48.5888448
            ]
          }
        },
        {
          "type": "Feature",
          "properties": {
            "id": "5092664414",
            "osm_type": "node",
            "lat": 48.3792491,
            "lon": 16.2574201,
            "addr:city": "Spillern",
            "addr:housenumber": "40b",
            "addr:postcode": "2104",
            "addr:street": "Landstraße",
            "contact:website": "https://www.spillern.gv.at/Feuerwehr-_und_Heimatmuseum_Spillern_2",
            "name": "Feuerwehr- und Heimatmuseum",
            "tourism": "museum"
          },
          "geometry": {
            "type": "Point",
            "coordinates": [
              16.2574201,
              48.3792491
            ]
          }
        },
        {
          "type": "Feature",
          "properties": {
            "id": "5338897223",
            "osm_type": "node",
            "lat": 48.4492272,
            "lon": 16.3015797,
            "addr:city": "Niederhollabrunn",
            "addr:housenumber": "4",
            "addr:postcode": "2004",
            "addr:street": "Hauptplatz",
            "contact:phone": "+43 2269 2291",
            "contact:website": "labschuetz.at",
            "museum": "history",
            "name": "Gugelhupf und Backformen Museum",
            "opening_hours": "\"nach Vereinbarung\"",
            "opening_hours:signed": "no",
            "operator:type": "private",
            "tourism": "museum"
          },
          "geometry": {
            "type": "Point",
            "coordinates": [
              16.3015797,
              48.4492272
            ]
          }
        },
        {
          "type": "Feature",
          "properties": {
            "id": "10268718595",
            "osm_type": "node",
            "lat": 48.6508966,
            "lon": 16.4493938,
            "name": "Zinnfiguren-Museum",
            "tourism": "museum",
            "visit": "booking",
            "visit:de": "Voranmeldung",
            "website": "https://www.piatti.at/museum"
          },
          "geometry": {
            "type": "Point",
            "coordinates": [
              16.4493938,
              48.6508966
            ]
          }
        },
        {
          "type": "Feature",
          "properties": {
            "id": "13070418656",
            "osm_type": "node",
            "lat": 48.5274364,
            "lon": 16.3606066,
            "fee": "no",
            "name": "Heimatmuseum Ernstbrunn",
            "opening_hours": "\"gegen Voranmeldung\"",
            "tourism": "museum"
          },
          "geometry": {
            "type": "Point",
            "coordinates": [
              16.3606066,
              48.5274364
            ]
          }
        },
        {
          "type": "Feature",
          "properties": {
            "id": "1575218497",
            "osm_type": "node",
            "lat": 48.6430934,
            "lon": 16.9030091,
            "name": "Richard Simoncic-Museum",
            "phone": "+43 2535 3685",
            "tourism": "museum",
            "website": "https://www.rabensburg.at/de/pages/museum-43.aspx"
          },
          "geometry": {
            "type": "Point",
            "coordinates": [
              16.9030091,
              48.6430934
            ]
          }
        },
        {
          "type": "Feature",
          "properties": {
            "id": "3429664981",
            "osm_type": "node",
            "lat": 48.4395257,
            "lon": 17.0127709,
            "email": "muzeum@mckmalacky.sk",
            "fee": "yes",
            "level": "2",
            "name": "Múzeum Michala Tillnera",
            "opening_hours": "Sep-Jun: Tu-Fr 09:00-17:00; Sa 09:00-12:00; Jul-Aug: Tu,Th,Fr 08:00-12:00,13:00-16:00; We 13:00-18:00",
            "operator": "Mestské centrum kultúry Malacky",
            "phone": "+421 34 772 21 10",
            "tourism": "museum",
            "website": "http://muzeum-malacky.blogspot.com/",
            "wheelchair": "no",
            "wikidata": "Q123028528"
          },
          "geometry": {
            "type": "Point",
            "coordinates": [
              17.0127709,
              48.4395257
            ]
          }
        },
        {
          "type": "Feature",
          "properties": {
            "id": "3646653603",
            "osm_type": "node",
            "lat": 48.3825868,
            "lon": 16.836102,
            "name": "Uhranské múzeum",
            "tourism": "museum"
          },
          "geometry": {
            "type": "Point",
            "coordinates": [
              16.836102,
              48.3825868
            ]
          }
        },
        {
          "type": "Feature",
          "properties": {
            "id": "5278966063",
            "osm_type": "node",
            "lat": 48.4455072,
            "lon": 16.6051727,
            "addr:city": "Bad Pirawarth",
            "addr:housenumber": "77",
            "addr:postcode": "2222",
            "addr:street": "Untere Hauptstraße",
            "description": "Alte Landwirtschaftliche Geräte, Weinbau, Feldarbeit, Haushalt, Sonstiges.",
            "name": "Stadel Museum",
            "opening_hours": "Öffnungszeitenjeden 1. sonntag im monat von mai bis oktober öfnungszeiten:13h bis 18h oder nach telefonischer vereinbarung 0664/3761110",
            "tourism": "museum"
          },
          "geometry": {
            "type": "Point",
            "coordinates": [
              16.6051727,
              48.4455072
            ]
          }
        },
        {
          "type": "Feature",
          "properties": {
            "id": "5815492654",
            "osm_type": "node",
            "lat": 48.6674897,
            "lon": 16.6217145,
            "name": "Traktormuseum",
            "tourism": "museum"
          },
          "geometry": {
            "type": "Point",
            "coordinates": [
              16.6217145,
              48.6674897
            ]
          }
        },
        {
          "type": "Feature",
          "properties": {
            "id": "6388915597",
            "osm_type": "node",
            "lat": 48.4527103,
            "lon": 16.5995868,
            "addr:city": "Bad Pirawarth",
            "addr:country": "AT",
            "addr:housenumber": "12",
            "addr:postcode": "2222",
            "addr:street": "Prof. Knesl-Platz",
            "at_bev:addr_date": "2023-04-15",
            "name": "1. Österreichisches Computermuseum",
            "tourism": "museum",
            "website": "https://de-de.facebook.com/people/Computermuseum-Club/100057421720806/"
          },
          "geometry": {
            "type": "Point",
            "coordinates": [
              16.5995868,
              48.4527103
            ]
          }
        },
        {
          "type": "Feature",
          "properties": {
            "id": "8486231760",
            "osm_type": "node",
            "lat": 48.6588389,
            "lon": 17.0200753,
            "museum": "history",
            "name": "Pamätná izba Andreja Radlinského",
            "operator": "Rímskokatolícka cirkev, Farnosť Kúty",
            "operator:type": "religious",
            "tourism": "museum",
            "website": "https://www.farakuty.sk/"
          },
          "geometry": {
            "type": "Point",
            "coordinates": [
              17.0200753,
              48.6588389
            ]
          }
        },
        {
          "type": "Feature",
          "properties": {
            "id": "9293544946",
            "osm_type": "node",
            "lat": 48.5017642,
            "lon": 16.9942531,
            "email": "kulturnydom@levare.sk",
            "name": "Habánske múzeum",
            "phone": "+421 918 504 919",
            "tourism": "museum",
            "website": "https://www.levare.sk/o-obci/informacie-o-obci/kultura/habanske-muzeum",
            "wikidata": "Q30531250",
            "wikipedia": "sk:Habánske múzeum"
          },
          "geometry": {
            "type": "Point",
            "coordinates": [
              16.9942531,
              48.5017642
            ]
          }
        },
        {
          "type": "Feature",
          "properties": {
            "id": "9547240077",
            "osm_type": "node",
            "lat": 48.5757636,
            "lon": 16.5715655,
            "fee": "yes",
            "name": "Nitsch Museum",
            "opening_hours": "PH,Tu-Su 10:00-17:00",
            "tourism": "museum",
            "website": "https://www.nitschmuseum.at"
          },
          "geometry": {
            "type": "Point",
            "coordinates": [
              16.5715655,
              48.5757636
            ]
          }
        },
        {
          "type": "Feature",
          "properties": {
            "id": "12949046554",
            "osm_type": "node",
            "lat": 48.4529286,
            "lon": 16.6004892,
            "addr:city": "Bad Pirawarth",
            "addr:housenumber": "1",
            "addr:postcode": "2222",
            "addr:street": "Prof. Knesl-Platz",
            "description": "Dokumentation über das ehemalige Heilbad\n\nInformation und Anmeldung im Gemeindeamt unter 02574/2340.",
            "museum": "history",
            "name": "Dokumentation des Heilbades Dependance Bad Pirawarth",
            "tourism": "museum",
            "website": "https://www.badpirawarth.at/Dokumentation_ueber_das_ehemalige_Heilbad"
          },
          "geometry": {
            "type": "Point",
            "coordinates": [
              16.6004892,
              48.4529286
            ]
          }
        },
        {
          "type": "Feature",
          "properties": {
            "id": "12951332247",
            "osm_type": "node",
            "lat": 48.4526357,
            "lon": 16.6008085,
            "addr:city": "Bad Pirawarth",
            "addr:housenumber": "1",
            "addr:postcode": "2222",
            "addr:street": "Prof. Knesl-Platz",
            "description": "Der Skulpturenpark präsentiert das Lebenswerk des Bildhauers Prof. Hans Knesl, ergänzt von Werken des ortsansässigen Künstlers Mag. Walfrid Huber.",
            "museum": "art",
            "name": "Prof. Knesl Freilichtmuseum",
            "opening_hours": "Besichtigung jederzeit möglich, Skulpturen im Winter jedoch verpackt",
            "tourism": "museum"
          },
          "geometry": {
            "type": "Point",
            "coordinates": [
              16.6008085,
              48.4526357
            ]
          }
        },
        {
          "type": "Feature",
          "properties": {
            "id": "12951337107",
            "osm_type": "node",
            "lat": 48.4576873,
            "lon": 16.5917291,
            "addr:city": "Bad Pirawarth",
            "addr:housenumber": "7",
            "addr:postcode": "2222",
            "addr:street": "Wolkersdorferstraße",
            "description": "Benutzung nur gegen Voranmeldung unter 02742/9005-49600 !",
            "name": "NÖ Landesarchiv - Außendepot",
            "opening_hours": "Mo,Th 08:30-15:30",
            "operator": "Land NÖ",
            "tourism": "museum"
          },
          "geometry": {
            "type": "Point",
            "coordinates": [
              16.5917291,
              48.4576873
            ]
          }
        },
        {
          "type": "Feature",
          "properties": {
            "id": "13064797424",
            "osm_type": "node",
            "lat": 48.4028958,
            "lon": 16.6935138,
            "addr:city": "Matzen",
            "addr:housenumber": "6",
            "addr:postcode": "2243",
            "addr:street": "Hauptplatz",
            "email": "info@archiv-matzen.at",
            "name": "Archiv Matzen",
            "opening_hours": "Do 17-19 Uhr",
            "phone": "+43 699 1131 44 34",
            "tourism": "museum",
            "website": "https://www.archiv-matzen.at/"
          },
          "geometry": {
            "type": "Point",
            "coordinates": [
              16.6935138,
              48.4028958
            ]
          }
        }
      ],
      "children": []
    },
    {
      "bbox": {
        "south": 48.68652475,
        "west": 15.253173,
        "north": 49.017078,
        "east": 16.2068765
      },
      "poiCount": 31,
      "leafCount": 31,
      "averagePosition": [
        15.628789361290323,
        48.85735578064516
      ],
      "data": [
        {
          "type": "Feature",
          "properties": {
            "id": "331355410",
            "osm_type": "node",
            "lat": 48.8150894,
            "lon": 15.2831488,
            "addr:city": "Waidhofen/Thaya",
            "addr:country": "AT",
            "addr:housenumber": "4",
            "addr:postcode": "3830",
            "addr:street": "Moritz-Schadek-Gasse",
            "fee": "yes",
            "name": "Museum der Stadtgemeinde Waidhofen/Thaya",
            "tourism": "museum",
            "website": "https://www.niederoesterreich.at/portal/default.asp?id=70708"
          },
          "geometry": {
            "type": "Point",
            "coordinates": [
              15.2831488,
              48.8150894
            ]
          }
        },
        {
          "type": "Feature",
          "properties": {
            "id": "439174264",
            "osm_type": "node",
            "lat": 48.8553234,
            "lon": 15.2894206,
            "addr:city": "Thaya",
            "addr:country": "AT",
            "addr:housenumber": "14",
            "addr:postcode": "3842",
            "addr:street": "Hauptstraße",
            "name": "Hauke Guitars Museum",
            "tourism": "museum"
          },
          "geometry": {
            "type": "Point",
            "coordinates": [
              15.2894206,
              48.8553234
            ]
          }
        },
        {
          "type": "Feature",
          "properties": {
            "id": "439174274",
            "osm_type": "node",
            "lat": 48.8544577,
            "lon": 15.2913186,
            "museum": "local",
            "name": "Heimatmuseum Thaya",
            "opening_hours": "\"viermal jährlich\"",
            "tourism": "museum"
          },
          "geometry": {
            "type": "Point",
            "coordinates": [
              15.2913186,
              48.8544577
            ]
          }
        },
        {
          "type": "Feature",
          "properties": {
            "id": "926196244",
            "osm_type": "node",
            "lat": 48.846831,
            "lon": 15.4936001,
            "addr:city": "Raabs an der Thaya",
            "addr:housenumber": "11",
            "addr:postcode": "3820",
            "addr:street": "Hauptplatz",
            "email": "nicole.reischl@raabs-thaya.gv.at",
            "museum": "history",
            "name": "Grenzlandmuseum",
            "opening_hours": "Mo-Th 08:00-12:00,13:00-16:00; Fr 08:00-13:00",
            "phone": "+43 2846 365 20",
            "tourism": "museum",
            "wheelchair": "no"
          },
          "geometry": {
            "type": "Point",
            "coordinates": [
              15.4936001,
              48.846831
            ]
          }
        },
        {
          "type": "Feature",
          "properties": {
            "id": "7843651230",
            "osm_type": "node",
            "lat": 48.8468718,
            "lon": 15.4916149,
            "addr:city": "Raabs an der Thaya",
            "addr:housenumber": "2",
            "addr:postcode": "3820",
            "addr:street": "Schlossstraße",
            "fee": "yes",
            "name": "Puppen- und Spielzeugmuseum",
            "opening_hours": "Sa,Su 14:00-17:00",
            "operator": "Anneliese Bruckner",
            "operator:type": "private",
            "phone": "+43 664 6598573",
            "tourism": "museum"
          },
          "geometry": {
            "type": "Point",
            "coordinates": [
              15.4916149,
              48.8468718
            ]
          }
        },
        {
          "type": "Feature",
          "properties": {
            "id": "9195015879",
            "osm_type": "node",
            "lat": 48.8106301,
            "lon": 15.273766,
            "name": "Händlerlogo AnnoLIGNUM-Blumberger moebel-architektur",
            "tourism": "museum"
          },
          "geometry": {
            "type": "Point",
            "coordinates": [
              15.273766,
              48.8106301
            ]
          }
        },
        {
          "type": "Feature",
          "properties": {
            "id": "12704500540",
            "osm_type": "node",
            "lat": 48.791526,
            "lon": 15.4062742,
            "name": "Sparkassenmuseum",
            "tourism": "museum"
          },
          "geometry": {
            "type": "Point",
            "coordinates": [
              15.4062742,
              48.791526
            ]
          }
        },
        {
          "type": "Feature",
          "properties": {
            "id": "12704500549",
            "osm_type": "node",
            "lat": 48.8119963,
            "lon": 15.4042968,
            "addr:housenumber": "15",
            "addr:place": "Wienings",
            "name": "Kaiser Franz-Josef-Museum",
            "tourism": "museum"
          },
          "geometry": {
            "type": "Point",
            "coordinates": [
              15.4042968,
              48.8119963
            ]
          }
        },
        {
          "type": "Feature",
          "properties": {
            "id": "12704500552",
            "osm_type": "node",
            "lat": 48.7902912,
            "lon": 15.4060401,
            "name": "Sakralmuseum Groß-Siegharts",
            "tourism": "museum"
          },
          "geometry": {
            "type": "Point",
            "coordinates": [
              15.4060401,
              48.7902912
            ]
          }
        },
        {
          "type": "Feature",
          "properties": {
            "id": "506886363",
            "osm_type": "node",
            "lat": 48.6868068,
            "lon": 15.7401321,
            "addr:city": "Sigmundsherberg",
            "addr:country": "AT",
            "addr:housenumber": "1",
            "addr:postcode": "3751",
            "addr:street": "Museumsstraße",
            "at_bev:addr_date": "2017-10-01",
            "email": "eisenbahnmuseum@gmx.at",
            "museum": "railway",
            "name": "Waldviertler Eisenbahnmuseum Sigmundsherberg",
            "opening_hours": "Tu, Th, Sa, Su 09:00-12:00",
            "phone": "0676 / 36 32 858",
            "tourism": "museum",
            "website": "https://www.eisenbahnmuseum-waldviertel.at/",
            "wikidata": "Q1311808"
          },
          "geometry": {
            "type": "Point",
            "coordinates": [
              15.7401321,
              48.6868068
            ]
          }
        },
        {
          "type": "Feature",
          "properties": {
            "id": "926181497",
            "osm_type": "node",
            "lat": 48.7580826,
            "lon": 15.9516981,
            "fee": "yes",
            "name": "Museum Retz im Bürgerspital",
            "opening_hours": "Fr-Su,PH 13:00-17:00",
            "tourism": "museum",
            "website": "https://www.museumretz.at/",
            "wheelchair": "no"
          },
          "geometry": {
            "type": "Point",
            "coordinates": [
              15.9516981,
              48.7580826
            ]
          }
        },
        {
          "type": "Feature",
          "properties": {
            "id": "1760534919",
            "osm_type": "node",
            "lat": 48.8543892,
            "lon": 15.8581863,
            "fee": "no",
            "name": "Guckkastenmuseum",
            "opening_hours": "Mo-Su,PH 08:00-20:00",
            "tourism": "museum",
            "wheelchair": "no"
          },
          "geometry": {
            "type": "Point",
            "coordinates": [
              15.8581863,
              48.8543892
            ]
          }
        },
        {
          "type": "Feature",
          "properties": {
            "id": "4254884524",
            "osm_type": "node",
            "lat": 48.7558983,
            "lon": 15.9530027,
            "check_date:opening_hours": "2022-07-02",
            "fee": "yes",
            "name": "Fahrradmuseum Retz",
            "opening_hours": "May-Oct 14:00-17:00",
            "tourism": "museum",
            "website": "https://www.fahrradmuseum-retz.com/"
          },
          "geometry": {
            "type": "Point",
            "coordinates": [
              15.9530027,
              48.7558983
            ]
          }
        },
        {
          "type": "Feature",
          "properties": {
            "id": "9025781274",
            "osm_type": "node",
            "lat": 48.7129958,
            "lon": 15.6649911,
            "name": "Traktoroldtimer-Museum",
            "tourism": "museum"
          },
          "geometry": {
            "type": "Point",
            "coordinates": [
              15.6649911,
              48.7129958
            ]
          }
        },
        {
          "type": "Feature",
          "properties": {
            "id": "11006210196",
            "osm_type": "node",
            "lat": 48.821606,
            "lon": 15.5330248,
            "description": "Bauforschung und Funde aus der Ruine Kollmitz sowie eine Ausstellung über den Kartographen Georg Matthäus Vischer, dem wir das Wissen über das frühere Erscheinungsbild der Burg zu verdanken haben. Schlüssel für das Museum in der Jausenstation erhältlich.",
            "description:cs": "Dokumentace stavebního pruzkumu a archeologické nalezy. Výstava venovaná kartografovi Georgu Matthäussovi Vischerovi. Klíce od muzea je mozno si zapujcit v bufetu.",
            "description:de": "Bauforschung und Funde aus der Ruine Kollmitz sowie eine Ausstellung über den Kartographen Georg Matthäus Vischer, dem wir das Wissen über das frühere Erscheinungsbild der Burg zu verdanken haben. Schlüssel für das Museum in der Jausenstation erhältlich.",
            "description:en": "Construction Research and Artifacts found on Kollmitz exhibit. Exhibit about Georg Matthäus Vischer, a Cartographer;Please ask for the key in the snack shop",
            "museum": "history",
            "tourism": "museum"
          },
          "geometry": {
            "type": "Point",
            "coordinates": [
              15.5330248,
              48.821606
            ]
          }
        },
        {
          "type": "Feature",
          "properties": {
            "id": "11844746289",
            "osm_type": "node",
            "lat": 48.7877819,
            "lon": 16.0154428,
            "name": "Areál čs. opevnění a železné opony v Šatově",
            "opening_hours": "Apr-May: Sa,Su 09:00-12:00,13:00-17:00; Jun-Sep: We,Sa,Su 09:00-12:00,13:00-17:00; Oct: Sa,Su 09:00-12:00,13:00-17:00;",
            "operator": "TECHNICKÉ MUZEUM V BRNĚ",
            "tourism": "museum",
            "website": "https://www.tmbrno.cz/pamatky/areal-cs-opevneni-a-zelezne-opony-satov/"
          },
          "geometry": {
            "type": "Point",
            "coordinates": [
              16.0154428,
              48.7877819
            ]
          }
        },
        {
          "type": "Feature",
          "properties": {
            "id": "4957465534",
            "osm_type": "node",
            "lat": 48.8556701,
            "lon": 16.0442749,
            "name": "Pivovar",
            "tourism": "museum"
          },
          "geometry": {
            "type": "Point",
            "coordinates": [
              16.0442749,
              48.8556701
            ]
          }
        },
        {
          "type": "Feature",
          "properties": {
            "id": "9447539908",
            "osm_type": "node",
            "lat": 48.7648442,
            "lon": 16.0598665,
            "name": "Muzeum Terra Technica",
            "tourism": "museum"
          },
          "geometry": {
            "type": "Point",
            "coordinates": [
              16.0598665,
              48.7648442
            ]
          }
        },
        {
          "type": "Feature",
          "properties": {
            "id": "11345087114",
            "osm_type": "node",
            "lat": 48.8558384,
            "lon": 16.0492286,
            "fee": "yes",
            "museum": "history",
            "museum_type": "regional",
            "name": "Znojemské podzemí",
            "opening_hours": "Sep-Jun: Mo-Su,PH 09:00-12:30,13:15-17:00; Jul-Aug: Mo-Su,PH 09:00-12:30,13:15-18:00",
            "operator": "Znojemská Beseda",
            "toilets": "yes",
            "toilets:access": "customers",
            "toilets:wheelchair": "limited",
            "tourism": "museum",
            "website": "https://www.znojemskabeseda.cz/turismus/znojemske-podzemi",
            "wheelchair": "no"
          },
          "geometry": {
            "type": "Point",
            "coordinates": [
              16.0492286,
              48.8558384
            ]
          }
        },
        {
          "type": "Feature",
          "properties": {
            "id": "11899117650",
            "osm_type": "node",
            "lat": 48.859379,
            "lon": 16.0332108,
            "addr:housenumber": "1",
            "addr:street": "Mašovická",
            "museum": "history",
            "name": "Muzeum Velké Moravy - Informační centrum",
            "tourism": "museum",
            "website": "http://www.znojmo-hradiste.wz.cz/"
          },
          "geometry": {
            "type": "Point",
            "coordinates": [
              16.0332108,
              48.859379
            ]
          }
        },
        {
          "type": "Feature",
          "properties": {
            "id": "851844887",
            "osm_type": "node",
            "lat": 48.8833741,
            "lon": 15.4041673,
            "addr:city": "Karlstein an der Thaya",
            "addr:country": "AT",
            "addr:housenumber": "12",
            "addr:postcode": "3822",
            "addr:street": "Hauptstraße",
            "name": "Uhrenmuseum Karlstein",
            "phone": "+43-2844-71204",
            "tourism": "museum",
            "website": "https://www.uhrenmuseum.at/",
            "wikidata": "Q1604378"
          },
          "geometry": {
            "type": "Point",
            "coordinates": [
              15.4041673,
              48.8833741
            ]
          }
        },
        {
          "type": "Feature",
          "properties": {
            "id": "1773249955",
            "osm_type": "node",
            "lat": 48.9976087,
            "lon": 15.352131,
            "tourism": "museum"
          },
          "geometry": {
            "type": "Point",
            "coordinates": [
              15.352131,
              48.9976087
            ]
          }
        },
        {
          "type": "Feature",
          "properties": {
            "id": "2465691484",
            "osm_type": "node",
            "lat": 49.0045245,
            "lon": 15.3253297,
            "alt_name": "Pevnostní areál Slavonice",
            "email": "slavonicebunkry@seznam.cz",
            "name": "Muzeum čs. opevnění 1935-1938",
            "operator": "Jiří Duchoň, Ondřej Žampach",
            "phone": "+420606124829",
            "tourism": "museum",
            "website": "https://www.slavonicebunkry.cz/"
          },
          "geometry": {
            "type": "Point",
            "coordinates": [
              15.3253297,
              49.0045245
            ]
          }
        },
        {
          "type": "Feature",
          "properties": {
            "id": "5983760734",
            "osm_type": "node",
            "lat": 48.9216039,
            "lon": 15.5222574,
            "tourism": "museum"
          },
          "geometry": {
            "type": "Point",
            "coordinates": [
              15.5222574,
              48.9216039
            ]
          }
        },
        {
          "type": "Feature",
          "properties": {
            "id": "11832995042",
            "osm_type": "node",
            "lat": 48.8927236,
            "lon": 15.2692596,
            "museum": "history",
            "name": "Heimatmuseum",
            "note": "Besuch nur gegen Voranmeldung möglich.",
            "tourism": "museum"
          },
          "geometry": {
            "type": "Point",
            "coordinates": [
              15.2692596,
              48.8927236
            ]
          }
        },
        {
          "type": "Feature",
          "properties": {
            "id": "12281367505",
            "osm_type": "node",
            "lat": 48.9788246,
            "lon": 15.3449813,
            "name": "Museum Humanum Fratres",
            "tourism": "museum"
          },
          "geometry": {
            "type": "Point",
            "coordinates": [
              15.3449813,
              48.9788246
            ]
          }
        },
        {
          "type": "Feature",
          "properties": {
            "id": "13017979073",
            "osm_type": "node",
            "lat": 49.0044095,
            "lon": 15.3342132,
            "museum": "art",
            "name": "Muzeum samorostů",
            "tourism": "museum"
          },
          "geometry": {
            "type": "Point",
            "coordinates": [
              15.3342132,
              49.0044095
            ]
          }
        },
        {
          "type": "Feature",
          "properties": {
            "id": "1406098718",
            "osm_type": "node",
            "lat": 48.9366454,
            "lon": 15.7280892,
            "name": "Veterán - Tatra Bítov",
            "tourism": "museum"
          },
          "geometry": {
            "type": "Point",
            "coordinates": [
              15.7280892,
              48.9366454
            ]
          }
        },
        {
          "type": "Feature",
          "properties": {
            "id": "2378206268",
            "osm_type": "node",
            "lat": 48.8945653,
            "lon": 15.8009678,
            "name": "Muzeum Pohraničního opevnění",
            "tourism": "museum"
          },
          "geometry": {
            "type": "Point",
            "coordinates": [
              15.8009678,
              48.8945653
            ]
          }
        },
        {
          "type": "Feature",
          "properties": {
            "id": "9796359217",
            "osm_type": "node",
            "lat": 48.9907193,
            "lon": 15.9876405,
            "name": "Muzeum Jevišovicka",
            "phone": "728141797",
            "tourism": "museum"
          },
          "geometry": {
            "type": "Point",
            "coordinates": [
              15.9876405,
              48.9907193
            ]
          }
        },
        {
          "type": "Feature",
          "properties": {
            "id": "1562022454",
            "osm_type": "node",
            "lat": 48.9367211,
            "lon": 16.1808944,
            "name": "Hasičské",
            "tourism": "museum"
          },
          "geometry": {
            "type": "Point",
            "coordinates": [
              16.1808944,
              48.9367211
            ]
          }
        }
      ],
      "children": []
    },
    {
      "bbox": {
        "south": 48.68652475,
        "west": 16.2068765,
        "north": 49.017078,
        "east": 17.16058
      },
      "poiCount": 33,
      "leafCount": 33,
      "averagePosition": [
        16.76841036969697,
        48.81495652727273
      ],
      "data": [
        {
          "type": "Feature",
          "properties": {
            "id": "3809797016",
            "osm_type": "node",
            "lat": 48.7198374,
            "lon": 16.3862884,
            "addr:city": "Laa an der Thaya",
            "addr:country": "AT",
            "addr:housenumber": "4",
            "addr:postcode": "2136",
            "addr:street": "Bürgerspitalgasse",
            "museum": "local",
            "name": "Kutschenmuseum Laa/Thaya",
            "operator": "Wolfgang Satzer",
            "tourism": "museum",
            "website": "https://www.kutschenmuseum-laa.at/"
          },
          "geometry": {
            "type": "Point",
            "coordinates": [
              16.3862884,
              48.7198374
            ]
          }
        },
        {
          "type": "Feature",
          "properties": {
            "id": "4899852886",
            "osm_type": "node",
            "lat": 48.7056877,
            "lon": 16.2391314,
            "museum": "local",
            "name": "Dorfmuseum Zwingendorf",
            "tourism": "museum"
          },
          "geometry": {
            "type": "Point",
            "coordinates": [
              16.2391314,
              48.7056877
            ]
          }
        },
        {
          "type": "Feature",
          "properties": {
            "id": "5777196928",
            "osm_type": "node",
            "lat": 48.721083,
            "lon": 16.3840868,
            "addr:city": "Laa an der Thaya",
            "addr:country": "AT",
            "addr:housenumber": "17",
            "addr:postcode": "2136",
            "addr:street": "Stadtplatz",
            "museum": "local",
            "name": "Südmährermuseum Laa",
            "tourism": "museum",
            "website": "https://www.suedmaehrischesheimatmuseum.at/",
            "wikidata": "Q37720532"
          },
          "geometry": {
            "type": "Point",
            "coordinates": [
              16.3840868,
              48.721083
            ]
          }
        },
        {
          "type": "Feature",
          "properties": {
            "id": "5782875265",
            "osm_type": "node",
            "lat": 48.7258984,
            "lon": 16.3866955,
            "addr:city": "Laa an der Thaya",
            "addr:country": "AT",
            "addr:housenumber": "23",
            "addr:postcode": "2136",
            "addr:street": "Burgplatz",
            "name": "Biermuseum",
            "tourism": "museum"
          },
          "geometry": {
            "type": "Point",
            "coordinates": [
              16.3866955,
              48.7258984
            ]
          }
        },
        {
          "type": "Feature",
          "properties": {
            "id": "259569506",
            "osm_type": "node",
            "lat": 48.7411459,
            "lon": 16.7567078,
            "alt_name": "Národní zemědělské muzeum;Muzeum Valtice",
            "contact:facebook": "https://www.facebook.com/nzmvaltice",
            "email": "nzm.valtice@nzm.cz",
            "fee": "yes",
            "museum": "agriculture",
            "name": "Muzeum vinařství, zahradnictví a krajiny",
            "opening_hours": "Apr,Oct: Tu-Fr 09:00-16:00; Sa,Su,PH 09:00-17:00; May-Sep: Mo-Su,PH 09:00-17:00; Nov: Tu-Su,PH 10:00-14:00",
            "operator": "Národní zemědělské muzeum, s. p. o.",
            "operator:type": "government",
            "phone": "+420 773 106 197",
            "tourism": "museum",
            "website": "https://www.nzm.cz/muzeum-vinarstvi-zahradnictvi-a-krajiny-valtice",
            "wikidata": "Q12039035"
          },
          "geometry": {
            "type": "Point",
            "coordinates": [
              16.7567078,
              48.7411459
            ]
          }
        },
        {
          "type": "Feature",
          "properties": {
            "id": "423188490",
            "osm_type": "node",
            "lat": 48.697181,
            "lon": 16.6802655,
            "addr:city": "Herrenbaumgarten",
            "addr:country": "AT",
            "addr:housenumber": "9",
            "addr:postcode": "2171",
            "addr:street": "Poysbrunner Straße",
            "email": "info@nonseum.at",
            "fee": "yes",
            "name": "Nonseum",
            "operator": "Verein zur Verwertung von Gedankenüberschüssen",
            "phone": "+43 2555 2737",
            "tourism": "museum",
            "website": "https://www.nonseum.at/",
            "wheelchair": "yes",
            "wikidata": "Q1369348",
            "wikipedia": "de:Nonseum"
          },
          "geometry": {
            "type": "Point",
            "coordinates": [
              16.6802655,
              48.697181
            ]
          }
        },
        {
          "type": "Feature",
          "properties": {
            "id": "1108261220",
            "osm_type": "node",
            "lat": 48.7575454,
            "lon": 16.8899729,
            "name": "Galerie 99",
            "tourism": "museum"
          },
          "geometry": {
            "type": "Point",
            "coordinates": [
              16.8899729,
              48.7575454
            ]
          }
        },
        {
          "type": "Feature",
          "properties": {
            "id": "1511582322",
            "osm_type": "node",
            "lat": 48.8066711,
            "lon": 16.6392524,
            "name": "Dietrichsteinská hrobka",
            "tourism": "museum",
            "website": "https://www.mikulov.cz/turistika/pamatky-a-prohlidkove-objekty/dietrichsteinska-hrobka/"
          },
          "geometry": {
            "type": "Point",
            "coordinates": [
              16.6392524,
              48.8066711
            ]
          }
        },
        {
          "type": "Feature",
          "properties": {
            "id": "2940672491",
            "osm_type": "node",
            "lat": 48.8167961,
            "lon": 16.6399415,
            "description": "Kolekce kamenů z různých hornin s popisky",
            "fee": "no",
            "name": "Geopark",
            "opening_hours": "24/7",
            "tourism": "museum"
          },
          "geometry": {
            "type": "Point",
            "coordinates": [
              16.6399415,
              48.8167961
            ]
          }
        },
        {
          "type": "Feature",
          "properties": {
            "id": "3075683846",
            "osm_type": "node",
            "lat": 48.6971551,
            "lon": 16.6799874,
            "addr:city": "Herrenbaumgarten",
            "addr:country": "AT",
            "addr:housenumber": "9",
            "addr:postcode": "2171",
            "addr:street": "Poysbrunner Straße",
            "email": "info@nonseum.at",
            "fee": "yes",
            "name": "Küchenmuseum",
            "operator": "Dorfmuseumsverein Herrenbaumgarten",
            "phone": "+43 2555 2737",
            "tourism": "museum",
            "website": "https://www.nonseum.at/",
            "wheelchair": "no"
          },
          "geometry": {
            "type": "Point",
            "coordinates": [
              16.6799874,
              48.6971551
            ]
          }
        },
        {
          "type": "Feature",
          "properties": {
            "id": "3075684594",
            "osm_type": "node",
            "lat": 48.6972922,
            "lon": 16.6802238,
            "addr:city": "Herrenbaumgarten",
            "addr:country": "AT",
            "addr:housenumber": "9",
            "addr:postcode": "2171",
            "addr:street": "Poysbrunner Straße",
            "email": "info@nonseum.at",
            "fee": "yes",
            "name": "Vermischte Warenhandlung",
            "operator": "Dorfmuseumsverein Herrenbaumgarten",
            "phone": "+43 2555 2737",
            "tourism": "museum",
            "website": "https://www.nonseum.at/",
            "wheelchair": "yes"
          },
          "geometry": {
            "type": "Point",
            "coordinates": [
              16.6802238,
              48.6972922
            ]
          }
        },
        {
          "type": "Feature",
          "properties": {
            "id": "3125747175",
            "osm_type": "node",
            "lat": 48.8435162,
            "lon": 16.6446268,
            "name": "Coffee Museum",
            "tourism": "museum",
            "website": "https://www.cafefara.cz/"
          },
          "geometry": {
            "type": "Point",
            "coordinates": [
              16.6446268,
              48.8435162
            ]
          }
        },
        {
          "type": "Feature",
          "properties": {
            "id": "3188359951",
            "osm_type": "node",
            "lat": 48.7410363,
            "lon": 16.7563701,
            "email": "ladarakovska@seznam.cz",
            "name": "Městské muzeum",
            "opening_hours": "May-Oct: Th-Su 13:00-17:00",
            "phone": "+420 728 578 719",
            "tourism": "museum",
            "website": "https://muzeum.webnode.cz/"
          },
          "geometry": {
            "type": "Point",
            "coordinates": [
              16.7563701,
              48.7410363
            ]
          }
        },
        {
          "type": "Feature",
          "properties": {
            "id": "3216524564",
            "osm_type": "node",
            "lat": 48.7585644,
            "lon": 16.8817697,
            "fee": "yes",
            "museum": "history",
            "name": "Lichtenštejnský dům",
            "opening_hours": "Tu-Su,PH 13:00-17:00",
            "tourism": "museum",
            "website": "https://www.muzeumbv.cz/lichtenstejnsky-dum"
          },
          "geometry": {
            "type": "Point",
            "coordinates": [
              16.8817697,
              48.7585644
            ]
          }
        },
        {
          "type": "Feature",
          "properties": {
            "id": "3563086193",
            "osm_type": "node",
            "lat": 48.7573284,
            "lon": 16.6490712,
            "name": "Traktorium",
            "tourism": "museum"
          },
          "geometry": {
            "type": "Point",
            "coordinates": [
              16.6490712,
              48.7573284
            ]
          }
        },
        {
          "type": "Feature",
          "properties": {
            "id": "3667914627",
            "osm_type": "node",
            "lat": 48.8063921,
            "lon": 16.6390688,
            "name": "Tajemné sklepení",
            "opening_hours": "Jul-Aug Mo-Su 10:00-17:00; May-Jun Mo-Su 13:00-15:00",
            "tourism": "museum",
            "website": "http://www.tajemnesklepeni.estranky.cz/"
          },
          "geometry": {
            "type": "Point",
            "coordinates": [
              16.6390688,
              48.8063921
            ]
          }
        },
        {
          "type": "Feature",
          "properties": {
            "id": "3702390342",
            "osm_type": "node",
            "lat": 48.8622575,
            "lon": 17.0248601,
            "name": "Muzeum Slovácká chalupa",
            "opening_hours": "Su 15:30-17:30",
            "tourism": "museum"
          },
          "geometry": {
            "type": "Point",
            "coordinates": [
              17.0248601,
              48.8622575
            ]
          }
        },
        {
          "type": "Feature",
          "properties": {
            "id": "3969471460",
            "osm_type": "node",
            "lat": 48.8003219,
            "lon": 16.801793,
            "name": "Muzeum hraček Lednice",
            "tourism": "museum",
            "website": "http://muzeum-hracek-lednice.cz/"
          },
          "geometry": {
            "type": "Point",
            "coordinates": [
              16.801793,
              48.8003219
            ]
          }
        },
        {
          "type": "Feature",
          "properties": {
            "id": "4514278444",
            "osm_type": "node",
            "lat": 48.7367055,
            "lon": 16.7543448,
            "fee": "yes",
            "name": "Zabi Sklep",
            "name:en": "Frog Cellar",
            "opening_hours": "Apr-Nov 10:00-18:00",
            "tourism": "museum"
          },
          "geometry": {
            "type": "Point",
            "coordinates": [
              16.7543448,
              48.7367055
            ]
          }
        },
        {
          "type": "Feature",
          "properties": {
            "id": "683070820",
            "osm_type": "node",
            "lat": 48.8046591,
            "lon": 17.0868888,
            "name": "Slovanské hradiště v Mikulčicích",
            "tourism": "museum",
            "website": "https://www.masaryk.info/slovanske-hradiste-mikulcice/"
          },
          "geometry": {
            "type": "Point",
            "coordinates": [
              17.0868888,
              48.8046591
            ]
          }
        },
        {
          "type": "Feature",
          "properties": {
            "id": "2371551388",
            "osm_type": "node",
            "lat": 48.8563348,
            "lon": 17.1193731,
            "name": "Muzeum naftového dobývání a geologie",
            "tourism": "museum",
            "website": "https://muzeumropy.cz/",
            "wikidata": "Q53390915",
            "wikipedia": "cs:Muzeum naftového dobývání a geologie"
          },
          "geometry": {
            "type": "Point",
            "coordinates": [
              17.1193731,
              48.8563348
            ]
          }
        },
        {
          "type": "Feature",
          "properties": {
            "id": "7795024941",
            "osm_type": "node",
            "lat": 48.7827268,
            "lon": 17.1042139,
            "contact:email": "muzeum.kopcany@gmail.com",
            "contact:facebook": "https://www.facebook.com/M%C3%BAzeum-v-Kop%C4%8Danoch-824622874381979/",
            "description": "archeologické múzeum, súkromná zbierka sediel, starožitností a poľnohospodárskych strojov",
            "email": "muzeum.kopcany@gmail.com",
            "fee": "no",
            "museum": "history",
            "name": "Múzeum v Kopčanoch",
            "opening_hours": "Jul-Aug: Mo-Su 10:00-18:00; Sep: Sa,Su 10:00-18:00; Mo-Fr \"po tel. objednávke\"",
            "operator": "Záhorské múzeum Skalica a obec Kopčany",
            "phone": "+421 911 086 847",
            "tourism": "museum",
            "website": "https://www.zahorskemuzeum.sk/muzeum-v-kopcanoch/"
          },
          "geometry": {
            "type": "Point",
            "coordinates": [
              17.1042139,
              48.7827268
            ]
          }
        },
        {
          "type": "Feature",
          "properties": {
            "id": "8852211066",
            "osm_type": "node",
            "lat": 48.719263,
            "lon": 17.1156393,
            "tourism": "museum"
          },
          "geometry": {
            "type": "Point",
            "coordinates": [
              17.1156393,
              48.719263
            ]
          }
        },
        {
          "type": "Feature",
          "properties": {
            "id": "583816850",
            "osm_type": "node",
            "lat": 48.887992,
            "lon": 16.6436987,
            "charge": "40 CZK/person; 20 CZK/discount; 90 CZK/family",
            "fee": "yes",
            "name": "Život pod Pálavou",
            "opening_hours": "Apr,Oct Sa,Su 09:00-16:00; May-Jun Tu-Su 09:00-18:00; Jul-Aug 09:00-18:00; Mo-Su 12:00-12:30 off",
            "tourism": "museum",
            "url": "http://www.rmm.cz/czech/expozice.html#vestonice"
          },
          "geometry": {
            "type": "Point",
            "coordinates": [
              16.6436987,
              48.887992
            ]
          }
        },
        {
          "type": "Feature",
          "properties": {
            "id": "1191308431",
            "osm_type": "node",
            "lat": 48.9890168,
            "lon": 16.7879129,
            "addr:conscriptionnumber": "57",
            "addr:country": "CZ",
            "addr:housenumber": "57",
            "addr:place": "Diváky",
            "addr:postcode": "69171",
            "name": "Památník Bratři Mrštíků",
            "source": "Local knowledge",
            "tourism": "museum",
            "wikidata": "Q37172243"
          },
          "geometry": {
            "type": "Point",
            "coordinates": [
              16.7879129,
              48.9890168
            ]
          }
        },
        {
          "type": "Feature",
          "properties": {
            "id": "1191431871",
            "osm_type": "node",
            "lat": 48.9327175,
            "lon": 16.8905113,
            "addr:conscriptionnumber": "135",
            "addr:country": "CZ",
            "addr:housenumber": "135",
            "addr:place": "Kobylí",
            "addr:postcode": "69110",
            "name": "Muzeum obce Kobylí",
            "opening_hours": "Tu-Su 10:00-17:00",
            "ref:ruian:addr": "26958121",
            "tourism": "museum"
          },
          "geometry": {
            "type": "Point",
            "coordinates": [
              16.8905113,
              48.9327175
            ]
          }
        },
        {
          "type": "Feature",
          "properties": {
            "id": "2424684008",
            "osm_type": "node",
            "lat": 48.967545,
            "lon": 16.8611252,
            "name": "Muzeum generálporučíka Františka Peřiny",
            "tourism": "museum",
            "website": "http://www.morkuvky.cz/muzeum-fr-periny/d-1024/p1=1042"
          },
          "geometry": {
            "type": "Point",
            "coordinates": [
              16.8611252,
              48.967545
            ]
          }
        },
        {
          "type": "Feature",
          "properties": {
            "id": "4295036108",
            "osm_type": "node",
            "lat": 48.8771962,
            "lon": 16.6747336,
            "addr:city": "Pavlov",
            "addr:housenumber": "264",
            "addr:postcode": "69201",
            "addr:street": "23. dubna",
            "contact:facebook": "https://www.facebook.com/archeoparkpavlov/",
            "contact:instagram": "https://www.instagram.com/archeopark_pavlov/",
            "email": "archeopark@rmm.cz",
            "fee": "yes",
            "name": "Archeopark Pavlov",
            "opening_hours": "Apr,Oct: Fr-Su 09:00-16:00; May,Jun,Sep: Tu-Su 09:00-17:00; Jul,Aug: Mo-Su 09:00-18:00",
            "operator": "Regionální muzeum v Mikulově",
            "operator:type": "public",
            "phone": "+420 519 322 126",
            "reservation": "yes",
            "stroller": "yes",
            "tourism": "museum",
            "website": "https://www.archeoparkpavlov.cz/",
            "wheelchair": "yes",
            "wikidata": "Q44850942",
            "wikipedia": "cs:Archeopark Pavlov"
          },
          "geometry": {
            "type": "Point",
            "coordinates": [
              16.6747336,
              48.8771962
            ]
          }
        },
        {
          "type": "Feature",
          "properties": {
            "id": "8736525140",
            "osm_type": "node",
            "lat": 48.9039333,
            "lon": 16.5741533,
            "addr:city": "Pasohlávky",
            "addr:housenumber": "244",
            "addr:postcode": "69122",
            "addr:street": "Pasohlávky",
            "museum": "history",
            "name": "Brána do Římské říše",
            "operator": "Archeologický ústavu AV ČR, Brno, v. v. i.",
            "operator:type": "public",
            "phone": "420 736 184 833",
            "tourism": "museum",
            "website": "https://www.branadorimskerise.cz/"
          },
          "geometry": {
            "type": "Point",
            "coordinates": [
              16.5741533,
              48.9039333
            ]
          }
        },
        {
          "type": "Feature",
          "properties": {
            "id": "10652476935",
            "osm_type": "node",
            "lat": 48.8968723,
            "lon": 16.7118261,
            "check_date": "2023-04-03",
            "contact:phone": "+420 728 050 250",
            "contact:website": "https://www.pohadkoveloutky.cz",
            "fee": "yes",
            "internet_access": "no",
            "museum": "children",
            "name": "Pohádková výstava",
            "opening_hours": "Jan-Apr Sa 13:00-16:00; May-Jun Sa-Su 13:00-16:00; Jul-Aug 13:00-17:00; Sep Sa-Su 13:00-16:00; Oct-Nov Sa 13:00-16:00; Dec Su 13:00-16:00",
            "operator:type": "private",
            "tourism": "museum",
            "wheelchair": "no"
          },
          "geometry": {
            "type": "Point",
            "coordinates": [
              16.7118261,
              48.8968723
            ]
          }
        },
        {
          "type": "Feature",
          "properties": {
            "id": "1287965384",
            "osm_type": "node",
            "lat": 48.9218446,
            "lon": 17.1041499,
            "addr:conscriptionnumber": "282",
            "addr:country": "CZ",
            "addr:housenumber": "282",
            "addr:place": "Dubňany",
            "addr:postcode": "69603",
            "addr:street": "Komenského",
            "description": "Dubňany jsou známé především díky své hornické tradici v těžbě zdejších lignitových ložisek. V budově bývalé dubňanské školy si můžete prohlédnout expozici o hornictví a sklářství města.",
            "name": "Expozice hornictví a sklářství",
            "ref:ruian:addr": "13675567",
            "tourism": "museum"
          },
          "geometry": {
            "type": "Point",
            "coordinates": [
              17.1041499,
              48.9218446
            ]
          }
        },
        {
          "type": "Feature",
          "properties": {
            "id": "1861444783",
            "osm_type": "node",
            "lat": 48.9600934,
            "lon": 17.1378544,
            "fee": "yes",
            "name": "Konírna - tradiční remesla",
            "opening_hours": "Tu-Su 10:00-17:00",
            "tourism": "museum"
          },
          "geometry": {
            "type": "Point",
            "coordinates": [
              17.1378544,
              48.9600934
            ]
          }
        },
        {
          "type": "Feature",
          "properties": {
            "id": "2363245675",
            "osm_type": "node",
            "lat": 49.000955,
            "lon": 17.0310038,
            "addr:conscriptionnumber": "44",
            "addr:country": "CZ",
            "addr:housenumber": "44",
            "addr:place": "Stavěšice",
            "addr:postcode": "69638",
            "name": "Sál a muzeum obce",
            "operator": "Obec Stavěšice",
            "ref:ruian:addr": "13548344",
            "tourism": "museum"
          },
          "geometry": {
            "type": "Point",
            "coordinates": [
              17.0310038,
              49.000955
            ]
          }
        }
      ],
      "children": []
    }
  ]
}