{
  "bbox": {
    "south": 46.372652,
    "west": 13.345766,
    "north": 47.033758500000005,
    "east": 15.253173
  },
  "poiCount": 80,
  "leafCount": 0,
  "averagePosition": [
    14.206282980000001,
    46.68566064375
  ],
  "data": [],
  "children": [
    {
      "bbox": {
        "south": 46.372652,
        "west": 13.345766,
        "north": 46.70320525,
        "east": 14.2994695
      },
      "poiCount": 28,
      "leafCount": 28,
      "averagePosition": [
        13.856009639285714,
        46.546751207142854
      ],
      "data": [
        {
          "type": "Feature",
          "properties": {
            "id": "1141145186",
            "osm_type": "node",
            "lat": 46.6105273,
            "lon": 13.3619979,
            "name": "Gailtaler Heimatmuseum",
            "opening_hours": "Tu-Fr 10:00-17:00",
            "tourism": "museum",
            "website": "https://gailtaler-heimatmuseum.at/"
          },
          "geometry": {
            "type": "Point",
            "coordinates": [
              13.3619979,
              46.6105273
            ]
          }
        },
        {
          "type": "Feature",
          "properties": {
            "id": "2489230171",
            "osm_type": "node",
            "lat": 46.644863,
            "lon": 13.363944,
            "name": "Radniger Dorfmühle",
            "tourism": "museum"
          },
          "geometry": {
            "type": "Point",
            "coordinates": [
              13.363944,
              46.644863
            ]
          }
        },
        {
          "type": "Feature",
          "properties": {
            "id": "297191142",
            "osm_type": "node",
            "lat": 46.6228868,
            "lon": 13.9083868,
            "addr:city": "Villach",
            "addr:country": "AT",
            "addr:housenumber": "9",
            "addr:postcode": "9500",
            "addr:street": "Ferdinand-Wedenig-Straße",
            "fee": "yes",
            "name": "Villacher Fahrzeugmuseum",
            "tourism": "museum"
          },
          "geometry": {
            "type": "Point",
            "coordinates": [
              13.9083868,
              46.6228868
            ]
          }
        },
        {
          "type": "Feature",
          "properties": {
            "id": "600567307",
            "osm_type": "node",
            "lat": 46.5821851,
            "lon": 14.0194972,
            "addr:city": "Rosegg",
            "addr:housenumber": "22",
            "addr:postcode": "9232",
            "addr:street": "Bergweg",
            "name": "Keltenweg Frög",
            "opening_hours": "Tu-Su 10:00-18:00",
            "opening_hours:url": "http://www.keltenwelt.at/info/anfahrt-%C3%B6ffnungszeiten",
            "phone": "+43 676 84 23 50 205",
            "tourism": "museum",
            "website": "https://keltenwelt.at/"
          },
          "geometry": {
            "type": "Point",
            "coordinates": [
              14.0194972,
              46.5821851
            ]
          }
        },
        {
          "type": "Feature",
          "properties": {
            "id": "829012225",
            "osm_type": "node",
            "lat": 46.3804851,
            "lon": 13.7525027,
            "alt_name": "Trentarski muzej",
            "contact:website": "https://www.tnp.si/en/visit/about-the-park/information-points/tnp-info-centre-dom-trenta/",
            "fee": "no",
            "name": "Dom Trenta",
            "opening_hours": "Mo-Su 10:00-18:00",
            "tourism": "museum",
            "wheelchair": "yes",
            "wikidata": "Q2800824"
          },
          "geometry": {
            "type": "Point",
            "coordinates": [
              13.7525027,
              46.3804851
            ]
          }
        },
        {
          "type": "Feature",
          "properties": {
            "id": "1240318580",
            "osm_type": "node",
            "lat": 46.6289043,
            "lon": 13.6486276,
            "addr:city": "Bleiberg-Nötsch",
            "addr:conscriptionnumber": "91",
            "addr:country": "AT",
            "addr:housenumber": "5",
            "addr:postcode": "9531",
            "addr:street": "Antoniweg",
            "contact:website": "http://www.terra-mystica.at",
            "fee": "yes",
            "full_name": "Terra Mystica & Montana Schaubergwerks GmbH",
            "name": "Schaubergwerk Terra Mystica",
            "operator": "Gf. Michael Grafenauer",
            "ref:UID:AT": "ATU64163933",
            "tourism": "museum"
          },
          "geometry": {
            "type": "Point",
            "coordinates": [
              13.6486276,
              46.6289043
            ]
          }
        },
        {
          "type": "Feature",
          "properties": {
            "id": "1240357184",
            "osm_type": "node",
            "lat": 46.6158984,
            "lon": 13.8432804,
            "addr:city": "Villach",
            "addr:country": "AT",
            "addr:housenumber": "1",
            "addr:postcode": "9500",
            "addr:street": "Burgplatz",
            "name": "Schauraum Villacher Burg",
            "tourism": "museum"
          },
          "geometry": {
            "type": "Point",
            "coordinates": [
              13.8432804,
              46.6158984
            ]
          }
        },
        {
          "type": "Feature",
          "properties": {
            "id": "1240363086",
            "osm_type": "node",
            "lat": 46.6187911,
            "lon": 13.7501858,
            "addr:city": "Villach",
            "addr:country": "AT",
            "addr:housenumber": "15",
            "addr:postcode": "9500",
            "addr:street": "Auf der Tratten",
            "name": "Ebners Hausmuseum",
            "tourism": "museum"
          },
          "geometry": {
            "type": "Point",
            "coordinates": [
              13.7501858,
              46.6187911
            ]
          }
        },
        {
          "type": "Feature",
          "properties": {
            "id": "1280233828",
            "osm_type": "node",
            "lat": 46.5938617,
            "lon": 14.0189859,
            "tourism": "museum"
          },
          "geometry": {
            "type": "Point",
            "coordinates": [
              14.0189859,
              46.5938617
            ]
          }
        },
        {
          "type": "Feature",
          "properties": {
            "id": "1309187741",
            "osm_type": "node",
            "lat": 46.478877,
            "lon": 13.8327876,
            "fee": "no",
            "museum": "open_air",
            "name": "Oglarske kope",
            "name:en": "Charcoal Burning Area Exhibit",
            "name:sl": "Oglarske kope",
            "opening_hours": "Mo-Su,PH 00:00+",
            "subject": "history",
            "tourism": "museum"
          },
          "geometry": {
            "type": "Point",
            "coordinates": [
              13.8327876,
              46.478877
            ]
          }
        },
        {
          "type": "Feature",
          "properties": {
            "id": "1390627046",
            "osm_type": "node",
            "lat": 46.4410676,
            "lon": 13.5712521,
            "addr:city": "Cave del Predil",
            "addr:city:de": "Raibl",
            "addr:city:fur": "Rabil",
            "addr:city:it": "Cave del Predil",
            "addr:city:sl": "Rabelj",
            "addr:country": "IT",
            "addr:postcode": "33018",
            "addr:street": "Via Giuseppe Garibaldi",
            "name": "Museo Minerario",
            "opening_hours": "Mo-Su 10:00-12:30,14:00-18:00",
            "tourism": "museum",
            "wikidata": "Q73487299"
          },
          "geometry": {
            "type": "Point",
            "coordinates": [
              13.5712521,
              46.4410676
            ]
          }
        },
        {
          "type": "Feature",
          "properties": {
            "id": "1400437884",
            "osm_type": "node",
            "lat": 46.59216,
            "lon": 13.7394581,
            "alt_name": "Alpengarten Villacher Alpe",
            "contact:website": "http://www.alpengarten-villach.at/",
            "ele": "1463",
            "fee": "yes",
            "garden:type": "botanical",
            "leisure": "garden",
            "name": "Alpengarten Dobratsch",
            "opening_hours": "Jun-Aug 09:00-18:00",
            "tourism": "museum"
          },
          "geometry": {
            "type": "Point",
            "coordinates": [
              13.7394581,
              46.59216
            ]
          }
        },
        {
          "type": "Feature",
          "properties": {
            "id": "2092207451",
            "osm_type": "node",
            "lat": 46.6050147,
            "lon": 13.5985589,
            "name": "Museun",
            "tourism": "museum"
          },
          "geometry": {
            "type": "Point",
            "coordinates": [
              13.5985589,
              46.6050147
            ]
          }
        },
        {
          "type": "Feature",
          "properties": {
            "id": "5540043972",
            "osm_type": "node",
            "lat": 46.476261,
            "lon": 13.7242733,
            "fee": "no",
            "level": "1",
            "operator": "Nordijski center Planica",
            "tourism": "museum"
          },
          "geometry": {
            "type": "Point",
            "coordinates": [
              13.7242733,
              46.476261
            ]
          }
        },
        {
          "type": "Feature",
          "properties": {
            "id": "7667166138",
            "osm_type": "node",
            "lat": 46.6127556,
            "lon": 13.6115348,
            "name": "Mineralien-Edelsteine-Museum",
            "operator": "Günter Traninger",
            "tourism": "museum"
          },
          "geometry": {
            "type": "Point",
            "coordinates": [
              13.6115348,
              46.6127556
            ]
          }
        },
        {
          "type": "Feature",
          "properties": {
            "id": "8929492981",
            "osm_type": "node",
            "lat": 46.6871403,
            "lon": 13.8350642,
            "addr:city": "Treffen am Ossiacher See",
            "addr:country": "AT",
            "addr:housenumber": "4",
            "addr:postcode": "9541",
            "addr:street": "Buchholzer Straße",
            "museum": "local",
            "name": "Puppenmuseum: Elli Riehl Puppenwelt",
            "operator": "Familie Berger",
            "operator:type": "private",
            "phone": "+43 4248 2395",
            "tourism": "museum",
            "website": "http://www.elli-riehl-puppenwelt.at/index.php/de/"
          },
          "geometry": {
            "type": "Point",
            "coordinates": [
              13.8350642,
              46.6871403
            ]
          }
        },
        {
          "type": "Feature",
          "properties": {
            "id": "9871973604",
            "osm_type": "node",
            "lat": 46.4421477,
            "lon": 13.5710355,
            "addr:housenumber": "7",
            "addr:street": "Largo Giuseppe Mazzini",
            "contact:email": "info@museitarvisio.it",
            "contact:facebook": "https://www.facebook.com/museitarvisio",
            "contact:phone": "+39 0428 876536",
            "contact:website": "https://www.museitarvisio.it/",
            "museum": "technology",
            "name": "Musei Tarvisio",
            "tourism": "museum"
          },
          "geometry": {
            "type": "Point",
            "coordinates": [
              13.5710355,
              46.4421477
            ]
          }
        },
        {
          "type": "Feature",
          "properties": {
            "id": "10128848993",
            "osm_type": "node",
            "lat": 46.5347691,
            "lon": 13.6391688,
            "addr:street": "Via Friuli",
            "check_date": "2025-06-02",
            "museum": "local",
            "name": "Museo della Dogana",
            "source": "https://telefriuli.it/cronaca/valico-coccau-museo-attivita-doganali-tarvisio/2/236886/art/",
            "start_date": "2022-10-31",
            "tourism": "museum"
          },
          "geometry": {
            "type": "Point",
            "coordinates": [
              13.6391688,
              46.5347691
            ]
          }
        },
        {
          "type": "Feature",
          "properties": {
            "id": "11459651467",
            "osm_type": "node",
            "lat": 46.5094072,
            "lon": 13.5325371,
            "addr:city": "Tarvisio",
            "addr:place": "Camporosso",
            "addr:postcode": "33018",
            "addr:street": "Viottolo Florianca",
            "museum": "history",
            "name": "Museo Antiquarium di Camporosso",
            "tourism": "museum"
          },
          "geometry": {
            "type": "Point",
            "coordinates": [
              13.5325371,
              46.5094072
            ]
          }
        },
        {
          "type": "Feature",
          "properties": {
            "id": "1718363531",
            "osm_type": "node",
            "lat": 46.6570442,
            "lon": 14.1745652,
            "name": "Karolinger-Museum",
            "tourism": "museum"
          },
          "geometry": {
            "type": "Point",
            "coordinates": [
              14.1745652,
              46.6570442
            ]
          }
        },
        {
          "type": "Feature",
          "properties": {
            "id": "2720078886",
            "osm_type": "node",
            "lat": 46.4324423,
            "lon": 14.0572346,
            "name": "Stara Sava",
            "source": "observation",
            "tourism": "museum",
            "wikidata": "Q7427655",
            "wikipedia": "en:Stara Sava"
          },
          "geometry": {
            "type": "Point",
            "coordinates": [
              14.0572346,
              46.4324423
            ]
          }
        },
        {
          "type": "Feature",
          "properties": {
            "id": "3226637845",
            "osm_type": "node",
            "lat": 46.5272271,
            "lon": 14.1553262,
            "name": "Rosenmuseum und Alte Schmiede",
            "opening_hours": "\"Nach telefonischer Vereinbarung\"",
            "tourism": "museum"
          },
          "geometry": {
            "type": "Point",
            "coordinates": [
              14.1553262,
              46.5272271
            ]
          }
        },
        {
          "type": "Feature",
          "properties": {
            "id": "3638764071",
            "osm_type": "node",
            "lat": 46.5355464,
            "lon": 14.268541,
            "name": "Bienenmuseum",
            "opening_hours": "Mo-Su 13:00-18:00",
            "tourism": "museum"
          },
          "geometry": {
            "type": "Point",
            "coordinates": [
              14.268541,
              46.5355464
            ]
          }
        },
        {
          "type": "Feature",
          "properties": {
            "id": "4498029075",
            "osm_type": "node",
            "lat": 46.5343512,
            "lon": 14.2251438,
            "name": "Galerie Walker",
            "tourism": "museum",
            "website": "https://www.galerie-walker.at/"
          },
          "geometry": {
            "type": "Point",
            "coordinates": [
              14.2251438,
              46.5343512
            ]
          }
        },
        {
          "type": "Feature",
          "properties": {
            "id": "6252647595",
            "osm_type": "node",
            "lat": 46.3750747,
            "lon": 14.1992292,
            "museum": "music",
            "name": "Muzej Avsenik",
            "operator": "Tradicija Avsenik d.o.o.",
            "ref:vatin": "SI30595517",
            "tourism": "museum"
          },
          "geometry": {
            "type": "Point",
            "coordinates": [
              14.1992292,
              46.3750747
            ]
          }
        },
        {
          "type": "Feature",
          "properties": {
            "id": "8909680759",
            "osm_type": "node",
            "lat": 46.5858186,
            "lon": 14.0741943,
            "museum": "history",
            "name": "Haus der Archäologie am Kathreinkogel",
            "operator": "Tourismusbüro Schiefling",
            "operator:type": "government",
            "tourism": "museum"
          },
          "geometry": {
            "type": "Point",
            "coordinates": [
              14.0741943,
              46.5858186
            ]
          }
        },
        {
          "type": "Feature",
          "properties": {
            "id": "11866504720",
            "osm_type": "node",
            "lat": 46.6065001,
            "lon": 14.2902182,
            "addr:city": "Klagenfurt am Wörthersee",
            "addr:country": "AT",
            "addr:housenumber": "162",
            "addr:postcode": "9020",
            "addr:street": "Waidmannsdorfer Straße",
            "charge": "15 EUR",
            "email": "info@schachmuseum.at",
            "fee": "yes",
            "name": "Mali Schachmuseum",
            "phone": "+43 664 1802017",
            "subject": "chess",
            "subject:wikidata": "Q718",
            "tourism": "museum",
            "website": "https://www.schachmuseum.at/museum.html"
          },
          "geometry": {
            "type": "Point",
            "coordinates": [
              14.2902182,
              46.6065001
            ]
          }
        },
        {
          "type": "Feature",
          "properties": {
            "id": "12303836642",
            "osm_type": "node",
            "lat": 46.3770262,
            "lon": 14.2007387,
            "historic": "building",
            "historic:period": "druga svetovna vojna",
            "name": "Muzej talcev",
            "tourism": "museum",
            "wikidata": "Q12797160",
            "wikipedia": "sl:Muzej talcev"
          },
          "geometry": {
            "type": "Point",
            "coordinates": [
              14.2007387,
              46.3770262
            ]
          }
        }
      ],
      "children": []
    },
    {
      "bbox": {
        "south": 46.372652,
        "west": 14.2994695,
        "north": 46.70320525,
        "east": 15.253173
      },
      "poiCount": 20,
      "leafCount": 20,
      "averagePosition": [
        14.597100209999999,
        46.579090504999996
      ],
      "data": [
        {
          "type": "Feature",
          "properties": {
            "id": "1647231582",
            "osm_type": "node",
            "lat": 46.6216486,
            "lon": 14.9460277,
            "tourism": "museum"
          },
          "geometry": {
            "type": "Point",
            "coordinates": [
              14.9460277,
              46.6216486
            ]
          }
        },
        {
          "type": "Feature",
          "properties": {
            "id": "1783611269",
            "osm_type": "node",
            "lat": 46.3880219,
            "lon": 14.6895974,
            "museum": "open_air",
            "name": "Partizanska bolnica SVPB-SZC I",
            "official_name": "Partizanska bolnica SVPB-SZC I, pod Križevnikom v Robanovem kotu",
            "tourism": "museum"
          },
          "geometry": {
            "type": "Point",
            "coordinates": [
              14.6895974,
              46.3880219
            ]
          }
        },
        {
          "type": "Feature",
          "properties": {
            "id": "2484755876",
            "osm_type": "node",
            "lat": 46.5902114,
            "lon": 14.7998568,
            "addr:city": "Bleiburg",
            "addr:country": "AT",
            "addr:housenumber": "4",
            "addr:postcode": "9150",
            "addr:street": "10. Oktober Platz",
            "at_bev:addr_date": "2017-10-01",
            "contact:email": "bleiburg.museum@ktn.gde.at",
            "contact:phone": "04235211027",
            "contact:website": "https://wernerberg.museum",
            "name": "Werner Berg Museum",
            "tourism": "museum",
            "wikidata": "Q15061767"
          },
          "geometry": {
            "type": "Point",
            "coordinates": [
              14.7998568,
              46.5902114
            ]
          }
        },
        {
          "type": "Feature",
          "properties": {
            "id": "4393225401",
            "osm_type": "node",
            "lat": 46.7009615,
            "lon": 14.8724507,
            "name": "Benediktinerstift St. Paul",
            "toilets:wheelchair": "yes",
            "tourism": "museum",
            "wheelchair": "yes"
          },
          "geometry": {
            "type": "Point",
            "coordinates": [
              14.8724507,
              46.7009615
            ]
          }
        },
        {
          "type": "Feature",
          "properties": {
            "id": "5801045253",
            "osm_type": "node",
            "lat": 46.487317,
            "lon": 14.5932453,
            "name": "Tickets Obir Tropfsteinhöhlen",
            "toilets:wheelchair": "yes",
            "tourism": "museum",
            "wheelchair": "yes"
          },
          "geometry": {
            "type": "Point",
            "coordinates": [
              14.5932453,
              46.487317
            ]
          }
        },
        {
          "type": "Feature",
          "properties": {
            "id": "6541855687",
            "osm_type": "node",
            "lat": 46.4707445,
            "lon": 14.8507384,
            "name": "Rudarski muzej",
            "tourism": "museum",
            "wheelchair": "limited",
            "wikidata": "Q60353586"
          },
          "geometry": {
            "type": "Point",
            "coordinates": [
              14.8507384,
              46.4707445
            ]
          }
        },
        {
          "type": "Feature",
          "properties": {
            "id": "10130345968",
            "osm_type": "node",
            "lat": 46.4166883,
            "lon": 14.8298432,
            "ele": "1226",
            "museum": "open_air",
            "name": "Partizanska bolnica Mrzle vode",
            "tourism": "museum"
          },
          "geometry": {
            "type": "Point",
            "coordinates": [
              14.8298432,
              46.4166883
            ]
          }
        },
        {
          "type": "Feature",
          "properties": {
            "id": "11780371325",
            "osm_type": "node",
            "lat": 46.6989095,
            "lon": 14.703467,
            "museum": "person",
            "name": "Peter Handke Dauerausstellung",
            "tourism": "museum",
            "website": "https://www.griffen.gv.at/Peter_Handke/Ausstellung/Dauerausstellung",
            "wikidata": "Q87404510"
          },
          "geometry": {
            "type": "Point",
            "coordinates": [
              14.703467,
              46.6989095
            ]
          }
        },
        {
          "type": "Feature",
          "properties": {
            "id": "11945228853",
            "osm_type": "node",
            "lat": 46.6410939,
            "lon": 14.9416949,
            "description": "kleines Museum der örtlichen Feuerwehr",
            "museum": "technology",
            "name": "Feuerwehr Lavamünd Museum",
            "tourism": "museum"
          },
          "geometry": {
            "type": "Point",
            "coordinates": [
              14.9416949,
              46.6410939
            ]
          }
        },
        {
          "type": "Feature",
          "properties": {
            "id": "13086431901",
            "osm_type": "node",
            "lat": 46.4219231,
            "lon": 14.6678113,
            "addr:housenumber": "1a",
            "addr:street": "Logarska dolina",
            "tourism": "museum"
          },
          "geometry": {
            "type": "Point",
            "coordinates": [
              14.6678113,
              46.4219231
            ]
          }
        },
        {
          "type": "Feature",
          "properties": {
            "id": "7619888085",
            "osm_type": "node",
            "lat": 46.6857642,
            "lon": 15.2444605,
            "addr:city": "Eibiswald",
            "addr:housenumber": "82",
            "addr:postcode": "8552",
            "addr:street": "Hauptplatz",
            "name": "Weitwandermuseum",
            "operator": "ÖAV Eibiswald",
            "tourism": "museum"
          },
          "geometry": {
            "type": "Point",
            "coordinates": [
              15.2444605,
              46.6857642
            ]
          }
        },
        {
          "type": "Feature",
          "properties": {
            "id": "300576218",
            "osm_type": "node",
            "lat": 46.6203179,
            "lon": 14.3104898,
            "name": "Thomas-Koschat-Museum",
            "subject:wikipedia": "de:Thomas Koschat",
            "tourism": "museum",
            "wheelchair": "no"
          },
          "geometry": {
            "type": "Point",
            "coordinates": [
              14.3104898,
              46.6203179
            ]
          }
        },
        {
          "type": "Feature",
          "properties": {
            "id": "472646752",
            "osm_type": "node",
            "lat": 46.6241696,
            "lon": 14.3101324,
            "addr:city": "Klagenfurt am Wörthersee",
            "addr:country": "AT",
            "addr:housenumber": "8",
            "addr:postcode": "9021",
            "addr:street": "Burggasse",
            "name": "Museum Moderner Kunst Kärnten",
            "phone": "+435053630542",
            "toilets:wheelchair": "yes",
            "tourism": "museum",
            "website": "www.mmkk.at",
            "wheelchair": "yes",
            "wheelchair:access": "yes",
            "wheelchair:guided_tour": "yes",
            "wikidata": "Q1615855",
            "wikipedia": "de:Museum Moderner Kunst Kärnten"
          },
          "geometry": {
            "type": "Point",
            "coordinates": [
              14.3101324,
              46.6241696
            ]
          }
        },
        {
          "type": "Feature",
          "properties": {
            "id": "696772601",
            "osm_type": "node",
            "lat": 46.5255458,
            "lon": 14.2998624,
            "addr:city": "Ferlach",
            "addr:country": "AT",
            "addr:housenumber": "1",
            "addr:postcode": "9170",
            "addr:street": "Sponheimer Platz",
            "contact:email": "ferlach.tourismusinfo@ktn.gde.at",
            "contact:phone": "+43 4227 4920",
            "contact:website": "http://www.jagdmuseum-ferlach.at",
            "name": "Büchsenmacher & Jagdmuseum",
            "tourism": "museum",
            "website": "http://www.jagdmuseum-ferlach.at",
            "wheelchair": "no",
            "wikidata": "Q85834726"
          },
          "geometry": {
            "type": "Point",
            "coordinates": [
              14.2998624,
              46.5255458
            ]
          }
        },
        {
          "type": "Feature",
          "properties": {
            "id": "847843118",
            "osm_type": "node",
            "lat": 46.6852949,
            "lon": 14.3470211,
            "addr:city": "Maria Saal",
            "addr:country": "AT",
            "addr:housenumber": "10",
            "addr:postcode": "9063",
            "addr:street": "Museumweg",
            "at_bev:addr_date": "2017-10-01",
            "contact:email": "office.landw-museum@ktn.gv.at",
            "contact:mobile": "+43 463 43540",
            "contact:phone": "+43 4223 2812",
            "contact:website": "http://www.freilichtmuseum-mariasaal.at/",
            "name": "Kärntner Freilichtmuseum",
            "opening_hours": "May 01-Oct 15 10:00-16:00; Jul-Aug 10:00-18:00; Jul-Aug Sa 10:00-16:00",
            "tourism": "museum",
            "wikidata": "Q1454526",
            "wikipedia": "de:Freilichtmuseum Maria Saal"
          },
          "geometry": {
            "type": "Point",
            "coordinates": [
              14.3470211,
              46.6852949
            ]
          }
        },
        {
          "type": "Feature",
          "properties": {
            "id": "1426865723",
            "osm_type": "node",
            "lat": 46.6164923,
            "lon": 14.304934,
            "addr:city": "Klagenfurt am Wörthersee",
            "addr:country": "AT",
            "addr:housenumber": "20",
            "addr:postcode": "9020",
            "addr:street": "Florian-Gröger-Straße",
            "description:de": "Ist auch Austragunsort div.Rock- Blues- und Jazzkonzerte",
            "email": "office@eboardmuseum.com",
            "internet_access": "wlan",
            "name": "Eboardmuseum",
            "phone": "+43 699 19144180",
            "tourism": "museum",
            "website": "https://www.eboardmuseum.com/",
            "wheelchair": "yes",
            "wikidata": "Q1279967",
            "wikipedia": "de:Eboardmuseum"
          },
          "geometry": {
            "type": "Point",
            "coordinates": [
              14.304934,
              46.6164923
            ]
          }
        },
        {
          "type": "Feature",
          "properties": {
            "id": "1430321969",
            "osm_type": "node",
            "lat": 46.6223534,
            "lon": 14.3093807,
            "addr:city": "Klagenfurt am Wörthersee",
            "addr:country": "AT",
            "addr:housenumber": "10/3",
            "addr:postcode": "9020",
            "addr:street": "Lidmanskygasse",
            "name": "Diözesanmuseum",
            "tourism": "museum",
            "wheelchair": "no",
            "wikidata": "Q38059275"
          },
          "geometry": {
            "type": "Point",
            "coordinates": [
              14.3093807,
              46.6223534
            ]
          }
        },
        {
          "type": "Feature",
          "properties": {
            "id": "9358591508",
            "osm_type": "node",
            "lat": 46.5256878,
            "lon": 14.3013191,
            "addr:city": "Ferlach",
            "addr:country": "AT",
            "addr:postcode": "9170",
            "museum": "local",
            "name:de": "Kultur- und Handwerkshaus",
            "name:sl": "Hiša kulture in ročnega dela",
            "tourism": "museum",
            "website": "https://www.kulturundhandwerkshaus.at/kontakt"
          },
          "geometry": {
            "type": "Point",
            "coordinates": [
              14.3013191,
              46.5256878
            ]
          }
        },
        {
          "type": "Feature",
          "properties": {
            "id": "10963204680",
            "osm_type": "node",
            "lat": 46.6165788,
            "lon": 14.3130342,
            "check_date:opening_hours": "2024-09-19",
            "fee": "yes",
            "name": "Robert Musil Museum",
            "opening_hours": "Mo-Fr 10:00-17:00",
            "tourism": "museum",
            "wheelchair": "yes"
          },
          "geometry": {
            "type": "Point",
            "coordinates": [
              14.3130342,
              46.6165788
            ]
          }
        },
        {
          "type": "Feature",
          "properties": {
            "id": "12903208680",
            "osm_type": "node",
            "lat": 46.6220857,
            "lon": 14.3066373,
            "fee": "no",
            "name": "Figuren-Museum für Kaffeebeigaben",
            "opening_hours": "Tu 18:00-20:00; Sa 10:00-12:00",
            "tourism": "museum",
            "website": "https://www.lindefiguren.at/"
          },
          "geometry": {
            "type": "Point",
            "coordinates": [
              14.3066373,
              46.6220857
            ]
          }
        }
      ],
      "children": []
    },
    {
      "bbox": {
        "south": 46.70320525,
        "west": 13.345766,
        "north": 47.033758500000005,
        "east": 14.2994695
      },
      "poiCount": 14,
      "leafCount": 14,
      "averagePosition": [
        13.704813235714285,
        46.85452162142857
      ],
      "data": [
        {
          "type": "Feature",
          "properties": {
            "id": "1401212387",
            "osm_type": "node",
            "lat": 46.8955753,
            "lon": 13.7738841,
            "ele": "1688",
            "name": "Grundalm - Ausstellung Bäume als Überlebenskünstler",
            "operator": "Biosphärenpark Nockberge",
            "phone": "00434275665",
            "tourism": "museum",
            "wheelchair": "yes"
          },
          "geometry": {
            "type": "Point",
            "coordinates": [
              13.7738841,
              46.8955753
            ]
          }
        },
        {
          "type": "Feature",
          "properties": {
            "id": "2403584097",
            "osm_type": "node",
            "lat": 46.9539896,
            "lon": 13.7270304,
            "description": "Hier sehen Sie die österreichweit einzigartige Fossilienausstellung „Versteinerte Welten“. \nIm 3D Kino sehen sie einen Film über den Biosphärenpark Nockberge.",
            "name": "Biosphärenpark-Zentrum Nockalmhof",
            "opening_hours": "May-Oct",
            "operator": "Nockalmstraße;Biosphärenpark Nockberge",
            "tourism": "museum"
          },
          "geometry": {
            "type": "Point",
            "coordinates": [
              13.7270304,
              46.9539896
            ]
          }
        },
        {
          "type": "Feature",
          "properties": {
            "id": "747820409",
            "osm_type": "node",
            "lat": 46.9808623,
            "lon": 14.2173635,
            "name": "Metnitzer Totentanz Museum",
            "tourism": "museum"
          },
          "geometry": {
            "type": "Point",
            "coordinates": [
              14.2173635,
              46.9808623
            ]
          }
        },
        {
          "type": "Feature",
          "properties": {
            "id": "9127916408",
            "osm_type": "node",
            "lat": 46.9816105,
            "lon": 14.2180525,
            "addr:city": "Metnitz",
            "addr:housenumber": "8",
            "addr:postcode": "9363",
            "addr:street": "Birkenweg",
            "email": "brauchtumsmuseum@metnitz.at",
            "museum": "local",
            "name": "Brauchtumsmuseum Metnitz",
            "note": "Öffnungszeiten Oct-Apr nach Voranmeldung",
            "opening_hours": "May-Sep We-Su 10:00-12:00, 14:00-16:00",
            "phone": "+436801277978",
            "source": "https://metnitz.gv.at/buergerservice/kunst-kultur-religion",
            "tourism": "museum",
            "website": "https://metnitz.gv.at/buergerservice/kunst-kultur-religion",
            "wikidata": "Q87646293"
          },
          "geometry": {
            "type": "Point",
            "coordinates": [
              14.2180525,
              46.9816105
            ]
          }
        },
        {
          "type": "Feature",
          "properties": {
            "id": "1424250989",
            "osm_type": "node",
            "lat": 46.8342276,
            "lon": 13.5228094,
            "name": "Foltermuseum Burg Sommeregg",
            "opening_hours": "Mo-Su 10:00-18:00",
            "tourism": "museum",
            "website": "https://www.sommeregg.at/"
          },
          "geometry": {
            "type": "Point",
            "coordinates": [
              13.5228094,
              46.8342276
            ]
          }
        },
        {
          "type": "Feature",
          "properties": {
            "id": "1858460616",
            "osm_type": "node",
            "lat": 46.7965339,
            "lon": 13.4624414,
            "name": "1. Kärntner Handwerksmuseum",
            "tourism": "museum"
          },
          "geometry": {
            "type": "Point",
            "coordinates": [
              13.4624414,
              46.7965339
            ]
          }
        },
        {
          "type": "Feature",
          "properties": {
            "id": "4928686918",
            "osm_type": "node",
            "lat": 46.7976541,
            "lon": 13.4959455,
            "addr:city": "Spittal an der Drau",
            "addr:housenumber": "1",
            "addr:postcode": "9800",
            "addr:street": "Burgplatz",
            "description": "Auf zwei Stockwerken des Schlosses Porcia bietet das Museum für Volkskultur 1001 Möglichkeiten, die Kulturgeschichte Oberkärntens zu bestaunen und zu begreifen. Vom Kinderspiel über Schulgeschichte bis zu den unterschiedlichsten Berufssparten.",
            "name": "Museum für Volkskultur",
            "tourism": "museum",
            "website": "https://www.museum-spittal.com/wissenswertes/schloss-porcia",
            "wikidata": "Q1954685",
            "wikipedia": "de:Museum für Volkskultur (Spittal an der Drau)"
          },
          "geometry": {
            "type": "Point",
            "coordinates": [
              13.4959455,
              46.7976541
            ]
          }
        },
        {
          "type": "Feature",
          "properties": {
            "id": "5054911502",
            "osm_type": "node",
            "lat": 46.8337155,
            "lon": 13.5298487,
            "fee": "yes",
            "name": "Bonsai Museum",
            "opening_hours": "Mo-Sa 10:00-18:00",
            "tourism": "museum"
          },
          "geometry": {
            "type": "Point",
            "coordinates": [
              13.5298487,
              46.8337155
            ]
          }
        },
        {
          "type": "Feature",
          "properties": {
            "id": "12187916814",
            "osm_type": "node",
            "lat": 46.8551949,
            "lon": 13.3534943,
            "name": "Museum Argentum",
            "tourism": "museum",
            "website": "https://museum-argentum.at/"
          },
          "geometry": {
            "type": "Point",
            "coordinates": [
              13.3534943,
              46.8551949
            ]
          }
        },
        {
          "type": "Feature",
          "properties": {
            "id": "830362775",
            "osm_type": "node",
            "lat": 46.8201909,
            "lon": 13.7076113,
            "name": "Türkhaus",
            "tourism": "museum"
          },
          "geometry": {
            "type": "Point",
            "coordinates": [
              13.7076113,
              46.8201909
            ]
          }
        },
        {
          "type": "Feature",
          "properties": {
            "id": "3737271660",
            "osm_type": "node",
            "lat": 46.782363,
            "lon": 13.6585764,
            "name": "Sagamundo - Haus des Erzählens",
            "tourism": "museum"
          },
          "geometry": {
            "type": "Point",
            "coordinates": [
              13.6585764,
              46.782363
            ]
          }
        },
        {
          "type": "Feature",
          "properties": {
            "id": "5704396921",
            "osm_type": "node",
            "lat": 46.7729828,
            "lon": 13.554874,
            "addr:country": "AT",
            "addr:housenumber": "5",
            "addr:place": "Molzbichl",
            "addr:postcode": "9701",
            "email": "museum@carantana.at",
            "name": "Museum Carantana",
            "opening_hours": "Su-Fr 10:00-12:00, 13:00-17:00",
            "phone": "+434767666",
            "tourism": "museum",
            "website": "https://carantana.at/",
            "wikidata": "Q38079341"
          },
          "geometry": {
            "type": "Point",
            "coordinates": [
              13.554874,
              46.7729828
            ]
          }
        },
        {
          "type": "Feature",
          "properties": {
            "id": "5825908336",
            "osm_type": "node",
            "lat": 46.8041202,
            "lon": 13.5705845,
            "name": "Stiftsmuseum Kreuzgang Millstatt",
            "tourism": "museum"
          },
          "geometry": {
            "type": "Point",
            "coordinates": [
              13.5705845,
              46.8041202
            ]
          }
        },
        {
          "type": "Feature",
          "properties": {
            "id": "2613313786",
            "osm_type": "node",
            "lat": 46.8542821,
            "lon": 14.0748693,
            "tourism": "museum"
          },
          "geometry": {
            "type": "Point",
            "coordinates": [
              14.0748693,
              46.8542821
            ]
          }
        }
      ],
      "children": []
    },
    {
      "bbox": {
        "south": 46.70320525,
        "west": 14.2994695,
        "north": 47.033758500000005,
        "east": 15.253173
      },
      "poiCount": 18,
      "leafCount": 18,
      "averagePosition": [
        14.706943277777778,
        46.88881693888889
      ],
      "data": [
        {
          "type": "Feature",
          "properties": {
            "id": "1770240229",
            "osm_type": "node",
            "lat": 46.8373174,
            "lon": 14.5396114,
            "name": "Milcherlebnisswelt Sonnenalm",
            "tourism": "museum"
          },
          "geometry": {
            "type": "Point",
            "coordinates": [
              14.5396114,
              46.8373174
            ]
          }
        },
        {
          "type": "Feature",
          "properties": {
            "id": "4952220263",
            "osm_type": "node",
            "lat": 46.8240374,
            "lon": 14.5485012,
            "name": "Atelier Kraftwerk",
            "opening_hours": "\"nach Vereinbarung\"",
            "tourism": "museum"
          },
          "geometry": {
            "type": "Point",
            "coordinates": [
              14.5485012,
              46.8240374
            ]
          }
        },
        {
          "type": "Feature",
          "properties": {
            "id": "4976963118",
            "osm_type": "node",
            "lat": 46.8479014,
            "lon": 14.5331567,
            "name": "Werksmuseum Witersdorf",
            "tourism": "museum"
          },
          "geometry": {
            "type": "Point",
            "coordinates": [
              14.5331567,
              46.8479014
            ]
          }
        },
        {
          "type": "Feature",
          "properties": {
            "id": "12263162933",
            "osm_type": "node",
            "lat": 46.8362271,
            "lon": 14.8409653,
            "contact:phone": "+43 4352 537333",
            "name": "Museum im Lavanthaus",
            "tourism": "museum",
            "website": "https://www.museum-lavanthaus.at/"
          },
          "geometry": {
            "type": "Point",
            "coordinates": [
              14.8409653,
              46.8362271
            ]
          }
        },
        {
          "type": "Feature",
          "properties": {
            "id": "924121210",
            "osm_type": "node",
            "lat": 46.813127,
            "lon": 15.1963455,
            "addr:city": "Deutschlandsberg",
            "addr:housenumber": "2",
            "addr:postcode": "8530",
            "addr:street": "Burgplatz",
            "email": "info@archeonorico.at",
            "name": "Archeo Norico",
            "tourism": "museum",
            "website": "https://www.archeonorico.at/",
            "wheelchair": "no"
          },
          "geometry": {
            "type": "Point",
            "coordinates": [
              15.1963455,
              46.813127
            ]
          }
        },
        {
          "type": "Feature",
          "properties": {
            "id": "3240930971",
            "osm_type": "node",
            "lat": 46.8477375,
            "lon": 15.1410644,
            "addr:country": "AT",
            "addr:postcode": "8530",
            "contact:website": "https://www.herkhof.at/museum/",
            "name": "Bauernhausmuseum Herk",
            "tourism": "museum",
            "wikidata": "Q811265",
            "wikipedia": "de:Bauernhausmuseum Herk"
          },
          "geometry": {
            "type": "Point",
            "coordinates": [
              15.1410644,
              46.8477375
            ]
          }
        },
        {
          "type": "Feature",
          "properties": {
            "id": "5329558446",
            "osm_type": "node",
            "lat": 46.875438,
            "lon": 14.4739411,
            "addr:city": "Althofen",
            "addr:country": "AT",
            "addr:housenumber": "8",
            "addr:postcode": "9330",
            "addr:street": "Burgstraße",
            "name": "Auer von Welsbach-Museum",
            "phone": "+43 4262 4335",
            "tourism": "museum",
            "website": "http://www.auer-von-welsbach-museum.at/de/impressum",
            "wikidata": "Q37963944"
          },
          "geometry": {
            "type": "Point",
            "coordinates": [
              14.4739411,
              46.875438
            ]
          }
        },
        {
          "type": "Feature",
          "properties": {
            "id": "8948852875",
            "osm_type": "node",
            "lat": 46.9513453,
            "lon": 14.4024675,
            "name": "Stadtmuseum Friesach",
            "tourism": "museum",
            "wikidata": "Q85905269"
          },
          "geometry": {
            "type": "Point",
            "coordinates": [
              14.4024675,
              46.9513453
            ]
          }
        },
        {
          "type": "Feature",
          "properties": {
            "id": "727459806",
            "osm_type": "node",
            "lat": 46.9334343,
            "lon": 14.5709266,
            "name": "Schaubergwerk und Mineralienschau",
            "tourism": "museum"
          },
          "geometry": {
            "type": "Point",
            "coordinates": [
              14.5709266,
              46.9334343
            ]
          }
        },
        {
          "type": "Feature",
          "properties": {
            "id": "746453862",
            "osm_type": "node",
            "lat": 46.933258,
            "lon": 14.5703434,
            "fixme": "exact location",
            "name": "Puppenmuseum",
            "tourism": "museum"
          },
          "geometry": {
            "type": "Point",
            "coordinates": [
              14.5703434,
              46.933258
            ]
          }
        },
        {
          "type": "Feature",
          "properties": {
            "id": "746488957",
            "osm_type": "node",
            "lat": 46.9367743,
            "lon": 14.5479954,
            "addr:postcode": "9375",
            "fee": "yes",
            "name": "Heinrich-Harrer-Museum",
            "opening_hours": "May-Oct Mo-Su, PH 10:00-17:00",
            "toilets:wheelchair": "yes",
            "tourism": "museum",
            "wheelchair": "yes",
            "wikidata": "Q875513",
            "wikimedia_commons": "Category:Heinrich-Harrer-Museum",
            "wikipedia": "de:Heinrich-Harrer-Museum"
          },
          "geometry": {
            "type": "Point",
            "coordinates": [
              14.5479954,
              46.9367743
            ]
          }
        },
        {
          "type": "Feature",
          "properties": {
            "id": "746489590",
            "osm_type": "node",
            "lat": 46.9322985,
            "lon": 14.574745,
            "name": "Jeschofnig",
            "tourism": "museum"
          },
          "geometry": {
            "type": "Point",
            "coordinates": [
              14.574745,
              46.9322985
            ]
          }
        },
        {
          "type": "Feature",
          "properties": {
            "id": "746491824",
            "osm_type": "node",
            "lat": 46.9504504,
            "lon": 14.5645939,
            "tourism": "museum"
          },
          "geometry": {
            "type": "Point",
            "coordinates": [
              14.5645939,
              46.9504504
            ]
          }
        },
        {
          "type": "Feature",
          "properties": {
            "id": "5573337505",
            "osm_type": "node",
            "lat": 47.0105837,
            "lon": 15.1033387,
            "name": "Wöllmißberger Heimatmuseum",
            "phone": "+43 3140 202",
            "tourism": "museum",
            "website": "http://www.st-martin-woellmissberg.at/de-heimatmuseum-127-info.html"
          },
          "geometry": {
            "type": "Point",
            "coordinates": [
              15.1033387,
              47.0105837
            ]
          }
        },
        {
          "type": "Feature",
          "properties": {
            "id": "6439619909",
            "osm_type": "node",
            "lat": 47.0305067,
            "lon": 15.1818723,
            "name": "Burgmuseum",
            "tourism": "museum"
          },
          "geometry": {
            "type": "Point",
            "coordinates": [
              15.1818723,
              47.0305067
            ]
          }
        },
        {
          "type": "Feature",
          "properties": {
            "id": "7137308378",
            "osm_type": "node",
            "lat": 46.9469664,
            "lon": 15.1493499,
            "name": "Museum Waldglashütte",
            "tourism": "museum",
            "website": "https://www.archeonorico.at/index.php/de/das-museum/aussenstelle-museum-waldglashuette"
          },
          "geometry": {
            "type": "Point",
            "coordinates": [
              15.1493499,
              46.9469664
            ]
          }
        },
        {
          "type": "Feature",
          "properties": {
            "id": "2912658822",
            "osm_type": "node",
            "lat": 46.7246968,
            "lon": 14.4294112,
            "addr:city": "Magdalensberg",
            "addr:housenumber": "15",
            "addr:postcode": "9064",
            "addr:street": "Magdalensberg",
            "designation": "Archäologischer Park Magdalensberg",
            "fee": "yes",
            "name": "Archäologischer Park Magdalensberg",
            "source": "www.landesmuseum.ktn.gv.at",
            "tourism": "museum",
            "wikidata": "Q877620",
            "wikipedia": "de:Stadt auf dem Magdalensberg"
          },
          "geometry": {
            "type": "Point",
            "coordinates": [
              14.4294112,
              46.7246968
            ]
          }
        },
        {
          "type": "Feature",
          "properties": {
            "id": "6680289709",
            "osm_type": "node",
            "lat": 46.7666047,
            "lon": 14.3563495,
            "name": "St. Veit Museum",
            "tourism": "museum",
            "website": "https://www.museum-stveit.at/",
            "wheelchair": "yes"
          },
          "geometry": {
            "type": "Point",
            "coordinates": [
              14.3563495,
              46.7666047
            ]
          }
        }
      ],
      "children": []
    }
  ]
}