{
  "bbox": {
    "south": 46.372652,
    "west": 15.253173,
    "north": 47.033758500000005,
    "east": 17.16058
  },
  "poiCount": 89,
  "leafCount": 0,
  "averagePosition": [
    16.112446947191014,
    46.66877345730337
  ],
  "data": [],
  "children": [
    {
      "bbox": {
        "south": 46.372652,
        "west": 15.253173,
        "north": 46.70320525,
        "east": 16.2068765
      },
      "poiCount": 29,
      "leafCount": 29,
      "averagePosition": [
        15.709746624137932,
        46.49476529310345
      ],
      "data": [
        {
          "type": "Feature",
          "properties": {
            "id": "305523475",
            "osm_type": "node",
            "lat": 46.5101584,
            "lon": 15.2673011,
            "name": "Gozdni muzej",
            "tourism": "museum"
          },
          "geometry": {
            "type": "Point",
            "coordinates": [
              15.2673011,
              46.5101584
            ]
          }
        },
        {
          "type": "Feature",
          "properties": {
            "id": "353864056",
            "osm_type": "node",
            "lat": 46.458124,
            "lon": 15.4643826,
            "historic": "yes",
            "name": "Partizanska bolnišnica Jesen",
            "tourism": "museum"
          },
          "geometry": {
            "type": "Point",
            "coordinates": [
              15.4643826,
              46.458124
            ]
          }
        },
        {
          "type": "Feature",
          "properties": {
            "id": "541010385",
            "osm_type": "node",
            "lat": 46.5190539,
            "lon": 15.3204351,
            "description": "muzej NOB",
            "name": "Urbančeva lovska koča",
            "tourism": "museum"
          },
          "geometry": {
            "type": "Point",
            "coordinates": [
              15.3204351,
              46.5190539
            ]
          }
        },
        {
          "type": "Feature",
          "properties": {
            "id": "1509702576",
            "osm_type": "node",
            "lat": 46.4649961,
            "lon": 15.5177909,
            "addr:housenumber": "5",
            "addr:street": "Bojtina",
            "name": "Črna kuhinja",
            "tourism": "museum",
            "wikimedia_commons": "File:ČRNA_KUHINJA.JPG"
          },
          "geometry": {
            "type": "Point",
            "coordinates": [
              15.5177909,
              46.4649961
            ]
          }
        },
        {
          "type": "Feature",
          "properties": {
            "id": "1842772326",
            "osm_type": "node",
            "lat": 46.658929,
            "lon": 15.468632,
            "addr:city": "Schlossberg",
            "addr:country": "AT",
            "name": "Krennmühle",
            "note": "Alte Mühle mit Verkauf von Mehl, Äpfel, Kastanien, Spirituosen",
            "tourism": "museum"
          },
          "geometry": {
            "type": "Point",
            "coordinates": [
              15.468632,
              46.658929
            ]
          }
        },
        {
          "type": "Feature",
          "properties": {
            "id": "10286289408",
            "osm_type": "node",
            "lat": 46.3780915,
            "lon": 15.3841364,
            "name": "Muzej ozkotirne železnice",
            "tourism": "museum"
          },
          "geometry": {
            "type": "Point",
            "coordinates": [
              15.3841364,
              46.3780915
            ]
          }
        },
        {
          "type": "Feature",
          "properties": {
            "id": "11332036314",
            "osm_type": "node",
            "lat": 46.6253473,
            "lon": 15.3006914,
            "addr:city": "Podvelka",
            "addr:housenumber": "3",
            "addr:postcode": "2363",
            "addr:street": "Remšnik",
            "email": "info.sg@kpm.si",
            "fee": "yes",
            "museum": "nature",
            "name": "Muzej mineralov Remšnik",
            "opening_hours": "by_appointment",
            "operator": "Koroški pokrajinski muzej",
            "operator:type": "public",
            "phone": "+386 2 62 12 520",
            "tourism": "museum",
            "website": "https://www.kpm.si/razstave/muzej-mineralov-remsnik/"
          },
          "geometry": {
            "type": "Point",
            "coordinates": [
              15.3006914,
              46.6253473
            ]
          }
        },
        {
          "type": "Feature",
          "properties": {
            "id": "734586347",
            "osm_type": "node",
            "lat": 46.679388,
            "lon": 15.5731392,
            "addr:city": "Zgornja Kungota",
            "addr:housenumber": "12",
            "addr:postcode": "2201",
            "addr:street": "Svečina",
            "name": "Vinogradniški muzej Kebl",
            "opening_hours": "Sa 10:00-16:00; Su 14:00-19:00 \"rain off\"",
            "tourism": "museum"
          },
          "geometry": {
            "type": "Point",
            "coordinates": [
              15.5731392,
              46.679388
            ]
          }
        },
        {
          "type": "Feature",
          "properties": {
            "id": "4176916222",
            "osm_type": "node",
            "lat": 46.5578981,
            "lon": 15.6421391,
            "addr:city": "Maribor",
            "addr:housenumber": "19",
            "addr:postcode": "2000",
            "addr:street": "Koroška cesta",
            "fee": "no",
            "name": "Fotografski muzej Maribor",
            "opening_hours": "Tu-Fr 9:00-17:00; Sa 13:00-17:00",
            "phone": "+386 2 235 2605",
            "tourism": "museum",
            "website": "https://www.facebook.com/FotografskiMuzejMaribor"
          },
          "geometry": {
            "type": "Point",
            "coordinates": [
              15.6421391,
              46.5578981
            ]
          }
        },
        {
          "type": "Feature",
          "properties": {
            "id": "4545614690",
            "osm_type": "node",
            "lat": 46.5604375,
            "lon": 15.6485434,
            "addr:housenumber": "2",
            "addr:postcode": "2000",
            "addr:street": "Grajska ulica",
            "email": "museum@maribor.si",
            "fee": "yes",
            "name": "Pokrajinski muzej",
            "name:en": "Regional museum",
            "name:hu": "Helyi múzeum",
            "name:sl": "Pokrajinski muzej",
            "opening_hours": "Tu-Sa 10:00-18:00",
            "phone": "02 2283551",
            "tourism": "museum",
            "website": "https://museum-mb.si/"
          },
          "geometry": {
            "type": "Point",
            "coordinates": [
              15.6485434,
              46.5604375
            ]
          }
        },
        {
          "type": "Feature",
          "properties": {
            "id": "5173521396",
            "osm_type": "node",
            "lat": 46.4989437,
            "lon": 15.9838083,
            "addr:city": "Juršinci",
            "addr:housenumber": "83",
            "addr:postcode": "2256",
            "addr:street": "Sakušak",
            "contact:phone": "051 260 506",
            "contact:website": "www.jenez-puh.si",
            "fee": "yes",
            "museum": "bicycles and motorcycles made by Puch",
            "name": "Puhov Muzej",
            "name:de": "Johann Puch Museum",
            "opening_hours": "may 1 - oct 31 Sa,Su,Ph 10:00-18:00",
            "operator": "Duštvo Rojaka Janeza Puha Juršinci",
            "operator:de": "Verein des Landesmannes Johann Puch Juršinci",
            "phone": "+386 51 260 506",
            "tourism": "museum",
            "website": "https://www.janez-puh.si/sl/",
            "wheelchair": "no"
          },
          "geometry": {
            "type": "Point",
            "coordinates": [
              15.9838083,
              46.4989437
            ]
          }
        },
        {
          "type": "Feature",
          "properties": {
            "id": "5286258613",
            "osm_type": "node",
            "lat": 46.5478892,
            "lon": 15.6309485,
            "addr:city": "Maribor",
            "addr:housenumber": "15",
            "addr:postcode": "2111",
            "addr:street": "Engelsova ulica",
            "email": "zvezdan.markovic@gmail.com",
            "museum": "military",
            "name": "Vojaški muzej Slovenske Vojske",
            "phone": "+386 2 449 5006",
            "tourism": "museum",
            "website": "https://www.vojaskimuzej.si/main.aspx"
          },
          "geometry": {
            "type": "Point",
            "coordinates": [
              15.6309485,
              46.5478892
            ]
          }
        },
        {
          "type": "Feature",
          "properties": {
            "id": "5368588152",
            "osm_type": "node",
            "lat": 46.523862,
            "lon": 15.6636396,
            "addr:housenumber": "31",
            "addr:postcode": "2000",
            "addr:street": "Perhavčeva ulica",
            "email": "info@conatezno.si",
            "historic": "industrial",
            "name": "Mariborski rovi - cona Tezno",
            "tourism": "museum",
            "website": "https://www.conatezno.si/rovi/"
          },
          "geometry": {
            "type": "Point",
            "coordinates": [
              15.6636396,
              46.523862
            ]
          }
        },
        {
          "type": "Feature",
          "properties": {
            "id": "6163743535",
            "osm_type": "node",
            "lat": 46.5611039,
            "lon": 15.6467434,
            "museum": "tehnology",
            "name": "Radijski muzej Radio City",
            "tourism": "museum"
          },
          "geometry": {
            "type": "Point",
            "coordinates": [
              15.6467434,
              46.5611039
            ]
          }
        },
        {
          "type": "Feature",
          "properties": {
            "id": "6811593925",
            "osm_type": "node",
            "lat": 46.4208251,
            "lon": 15.8689733,
            "fee": "yes",
            "int_name": "Traditional carnival masks in the area of Ptuj",
            "name": "Tradicionalne pustne maske na ptujskem območju",
            "name:de": "Traditionelle Faschingsmasken in Ptuj und Umgebung",
            "name:en": "Traditional carnival masks in the area of Ptuj",
            "name:fr": "Masques de carnaval traditionnels de Ptuj et environs",
            "tourism": "museum"
          },
          "geometry": {
            "type": "Point",
            "coordinates": [
              15.8689733,
              46.4208251
            ]
          }
        },
        {
          "type": "Feature",
          "properties": {
            "id": "8077236287",
            "osm_type": "node",
            "lat": 46.3949787,
            "lon": 15.7263874,
            "addr:city": "Cirkovce",
            "addr:housenumber": "23",
            "addr:postcode": "2326",
            "addr:street": "Dragonja vas",
            "contact:email": "podgorsek@pangea-muzej.si",
            "museum_type": "private",
            "name": "Geološko-paleontološki zasebni muzej Pangea",
            "name:en": "Geological and Paleontological Private Museum Pangea",
            "name:sl": "Geološko-paleontološki zasebni muzej Pangea",
            "tourism": "museum",
            "website": "http://www.pangea-muzej.si"
          },
          "geometry": {
            "type": "Point",
            "coordinates": [
              15.7263874,
              46.3949787
            ]
          }
        },
        {
          "type": "Feature",
          "properties": {
            "id": "10860733759",
            "osm_type": "node",
            "lat": 46.4201846,
            "lon": 15.865607,
            "addr:city": "Ptuj",
            "addr:housenumber": "37",
            "addr:postcode": "2250",
            "addr:street": "Prešernova ulica",
            "museum": "history",
            "name": "Razstavišče Stari zapori",
            "opening_hours": "Tu-Fr 11:00-13:00",
            "operator": "PMPO",
            "phone": "+386 2 787 92 30",
            "tourism": "museum"
          },
          "geometry": {
            "type": "Point",
            "coordinates": [
              15.865607,
              46.4201846
            ]
          }
        },
        {
          "type": "Feature",
          "properties": {
            "id": "10868991093",
            "osm_type": "node",
            "lat": 46.4177616,
            "lon": 15.8546908,
            "museum": "archaeological",
            "name": "III. mitrej Svetšče boga Mitra",
            "operator": "PMPO",
            "tourism": "museum",
            "website": "https://pmpo.si/stalne_zbirke/iii-mitrej/"
          },
          "geometry": {
            "type": "Point",
            "coordinates": [
              15.8546908,
              46.4177616
            ]
          }
        },
        {
          "type": "Feature",
          "properties": {
            "id": "11557730903",
            "osm_type": "node",
            "lat": 46.4198369,
            "lon": 15.8704442,
            "addr:city": "Ptuj",
            "addr:housenumber": "7",
            "addr:postcode": "2250",
            "addr:street": "Murkova ulica",
            "email": "kurentova.hisa@ptuj.si",
            "fee": "yes",
            "name": "Kurentova hiša",
            "operator": "Slovenske nacionalne komisije za UNESCO",
            "tourism": "museum",
            "website": "https://visitptuj.eu/dozivite-ptuj/kultura-in-dediscina/mestne-znamenitosti/kurentova-hisa/"
          },
          "geometry": {
            "type": "Point",
            "coordinates": [
              15.8704442,
              46.4198369
            ]
          }
        },
        {
          "type": "Feature",
          "properties": {
            "id": "11602078873",
            "osm_type": "node",
            "lat": 46.5383521,
            "lon": 15.8264524,
            "addr:city": "Voličina",
            "addr:housenumber": "42",
            "addr:place": "Zavrh",
            "addr:postcode": "2232",
            "museum": "person",
            "name": "Štupičeva vila",
            "tourism": "museum",
            "website": "https://www.rudolfmaister.si/maistrova-pot/zavrh/"
          },
          "geometry": {
            "type": "Point",
            "coordinates": [
              15.8264524,
              46.5383521
            ]
          }
        },
        {
          "type": "Feature",
          "properties": {
            "id": "11629573517",
            "osm_type": "node",
            "lat": 46.4205303,
            "lon": 15.8648539,
            "addr:city": "Ptuj",
            "addr:housenumber": "1",
            "addr:postcode": "2250",
            "addr:street": "Muzejski trg",
            "museum": "history",
            "name": "PMPO Pokrajinski muzej Ptuj Ormož",
            "office": "yes",
            "operator": "MO Ptuj, Občina Ormož",
            "tourism": "museum",
            "website": "https://pmpo.si/"
          },
          "geometry": {
            "type": "Point",
            "coordinates": [
              15.8648539,
              46.4205303
            ]
          }
        },
        {
          "type": "Feature",
          "properties": {
            "id": "11629579369",
            "osm_type": "node",
            "lat": 46.4202431,
            "lon": 15.8655547,
            "addr:city": "Ptuj",
            "addr:housenumber": "37",
            "addr:postcode": "2250",
            "addr:street": "Prešernova ulica",
            "email": "muzej-ptuj.uprava@pmpo.si",
            "museum": "history",
            "name": "PMPO Pokrajinski muzej Ptuj Ormož - uprava",
            "office": "yes",
            "operator": "MO Ptuj, Občina Ormož",
            "tourism": "museum",
            "website": "https://pmpo.si/"
          },
          "geometry": {
            "type": "Point",
            "coordinates": [
              15.8655547,
              46.4202431
            ]
          }
        },
        {
          "type": "Feature",
          "properties": {
            "id": "11629729279",
            "osm_type": "node",
            "lat": 46.4201853,
            "lon": 15.8706864,
            "addr:city": "Ptuj",
            "addr:housenumber": "14",
            "addr:place": "Slovenski trg",
            "addr:postcode": "2250",
            "museum": "lapidarium",
            "name": "Povodnov muzej",
            "tourism": "museum",
            "website": "https://visitptuj.eu/dozivite-ptuj/kultura-in-dediscina/mestne-znamenitosti/povodnov-muzej/"
          },
          "geometry": {
            "type": "Point",
            "coordinates": [
              15.8706864,
              46.4201853
            ]
          }
        },
        {
          "type": "Feature",
          "properties": {
            "id": "11662568407",
            "osm_type": "node",
            "lat": 46.4219496,
            "lon": 15.8667982,
            "addr:city": "Ptuj",
            "addr:housenumber": "11",
            "addr:postcode": "2250",
            "addr:street": "Raičeva ulica",
            "email": "info@kastali.si",
            "museum": "history",
            "name": "Ptujska grajska tiskarna",
            "operator": "Zgodovinsko društvo Kastali",
            "phone": "+386 41 684 910",
            "tourism": "museum",
            "website": "https://kastali.si/ptujska-grajska-tiskarna/"
          },
          "geometry": {
            "type": "Point",
            "coordinates": [
              15.8667982,
              46.4219496
            ]
          }
        },
        {
          "type": "Feature",
          "properties": {
            "id": "11710375444",
            "osm_type": "node",
            "lat": 46.4209722,
            "lon": 15.8650545,
            "addr:city": "Ptuj",
            "addr:housenumber": "2",
            "addr:postcode": "2250",
            "addr:street": "Muzejski trg",
            "museum": "history",
            "name": "PMPO - Arheološki oddelek",
            "office": "yes",
            "operator": "MO Ptuj, Občina Ormož",
            "tourism": "museum",
            "website": "https://pmpo.si/"
          },
          "geometry": {
            "type": "Point",
            "coordinates": [
              15.8650545,
              46.4209722
            ]
          }
        },
        {
          "type": "Feature",
          "properties": {
            "id": "12557351624",
            "osm_type": "node",
            "lat": 46.4517171,
            "lon": 15.8707047,
            "addr:city": "Ptuj",
            "addr:housenumber": "28",
            "addr:postcode": "2250",
            "addr:street": "Mestni Vrh",
            "email": "vinogradniski.muzej@gmail.com",
            "mobile": "+386 41 440 445",
            "museum": "agriculture",
            "name": "Vinogradniški muzej Stara preša",
            "tourism": "museum"
          },
          "geometry": {
            "type": "Point",
            "coordinates": [
              15.8707047,
              46.4517171
            ]
          }
        },
        {
          "type": "Feature",
          "properties": {
            "id": "12770056601",
            "osm_type": "node",
            "lat": 46.5546789,
            "lon": 15.6456952,
            "addr:postcode": "2000",
            "addr:street": "Trg revolucije",
            "name": "Trafika - Muzej za enega",
            "name:en": "Trafika - museum for one",
            "tourism": "museum",
            "website": "https://www.visitmaribor.si/si/kaj-poceti/znamenitosti/9941-trafika-muzej-za-enega"
          },
          "geometry": {
            "type": "Point",
            "coordinates": [
              15.6456952,
              46.5546789
            ]
          }
        },
        {
          "type": "Feature",
          "properties": {
            "id": "2204290219",
            "osm_type": "node",
            "lat": 46.6623324,
            "lon": 16.1604356,
            "addr:city": "Murska Sobota",
            "addr:housenumber": "4",
            "addr:postcode": "9000",
            "addr:street": "Trubarjev drevored",
            "name": "Pomurski muzej",
            "opening_hours": "Tu-Fr 09:00-17:00; Sa 09:00-13:00; Su 14:00-18:00",
            "tourism": "museum",
            "wikidata": "Q12799081",
            "wikipedia": "sl:Pomurski muzej Murska Sobota"
          },
          "geometry": {
            "type": "Point",
            "coordinates": [
              16.1604356,
              46.6623324
            ]
          }
        },
        {
          "type": "Feature",
          "properties": {
            "id": "10743208095",
            "osm_type": "node",
            "lat": 46.419423,
            "lon": 16.0479828,
            "museum": "railway",
            "name": "Železniški muzej Na stanici",
            "operator": "Društvo za ohranjanje dediščine Prleški železničar",
            "tourism": "museum"
          },
          "geometry": {
            "type": "Point",
            "coordinates": [
              16.0479828,
              46.419423
            ]
          }
        }
      ],
      "children": []
    },
    {
      "bbox": {
        "south": 46.372652,
        "west": 16.2068765,
        "north": 46.70320525,
        "east": 17.16058
      },
      "poiCount": 21,
      "leafCount": 21,
      "averagePosition": [
        16.629318828571428,
        46.53964126666666
      ],
      "data": [
        {
          "type": "Feature",
          "properties": {
            "id": "4031090355",
            "osm_type": "node",
            "lat": 46.5667623,
            "lon": 16.4528244,
            "charge": "7 €/person",
            "contact:website": "https://www.gml.si/",
            "fee": "yes",
            "name": "Spominska soba Györgya Zale / Zala György emlékszoba",
            "name:hu": "Zala György emlékszoba",
            "name:sl": "Spominska soba Györgya Zale",
            "tourism": "museum"
          },
          "geometry": {
            "type": "Point",
            "coordinates": [
              16.4528244,
              46.5667623
            ]
          }
        },
        {
          "type": "Feature",
          "properties": {
            "id": "6348439806",
            "osm_type": "node",
            "lat": 46.5048665,
            "lon": 16.447689,
            "addr:city": "Mursko Središće",
            "addr:housenumber": "1",
            "addr:postcode": "40315",
            "addr:street": "Rudarska ulica",
            "name": "Spomen dom rudarstva",
            "name:hu": "Bányászati emlékház",
            "tourism": "museum",
            "website": "http://www.cimper.com.hr"
          },
          "geometry": {
            "type": "Point",
            "coordinates": [
              16.447689,
              46.5048665
            ]
          }
        },
        {
          "type": "Feature",
          "properties": {
            "id": "6989282024",
            "osm_type": "node",
            "lat": 46.4893048,
            "lon": 16.4948418,
            "addr:city": "Križovec",
            "addr:housenumber": "1",
            "addr:street": "Trg međimurske prirode",
            "museum": "nature",
            "name": "Centar za posjetitelje Med dvemi vodami",
            "opening_hours": "Tu-Fr 08:00-15:00; Sa-Su 10:00-17:00",
            "operator": "Međimurska priroda",
            "operator:type": "public",
            "tourism": "museum",
            "website": "https://www.medjimurska-priroda.info/"
          },
          "geometry": {
            "type": "Point",
            "coordinates": [
              16.4948418,
              46.4893048
            ]
          }
        },
        {
          "type": "Feature",
          "properties": {
            "id": "7003131348",
            "osm_type": "node",
            "lat": 46.493324,
            "lon": 16.3979015,
            "addr:city": "Selnica",
            "addr:housenumber": "1",
            "addr:postcode": "40314",
            "addr:street": "Trg bana Josipa Jelačića",
            "museum": "transport",
            "museum_type": "private",
            "name": "Oldtimer Muzej Šardi",
            "tourism": "museum",
            "website": "http://sardi.com.hr/"
          },
          "geometry": {
            "type": "Point",
            "coordinates": [
              16.3979015,
              46.493324
            ]
          }
        },
        {
          "type": "Feature",
          "properties": {
            "id": "7729218541",
            "osm_type": "node",
            "lat": 46.6427447,
            "lon": 16.3744784,
            "level": "1",
            "name:hu": "Deák Ferenc-emlékszoba",
            "tourism": "museum"
          },
          "geometry": {
            "type": "Point",
            "coordinates": [
              16.3744784,
              46.6427447
            ]
          }
        },
        {
          "type": "Feature",
          "properties": {
            "id": "9041554691",
            "osm_type": "node",
            "lat": 46.3893599,
            "lon": 16.4324475,
            "addr:city": "Čakovec",
            "addr:housenumber": "7",
            "addr:street": "Trg Republike",
            "name": "Riznica Međimurja",
            "name:hu": "Muraközi Értéktár",
            "opening_hours": "Tu-Fr 08:00-18:00; Sa,Su 10:00-20:00; Mo,PH off",
            "tourism": "museum",
            "website": "https://riznica.hr/",
            "wheelchair": "yes"
          },
          "geometry": {
            "type": "Point",
            "coordinates": [
              16.4324475,
              46.3893599
            ]
          }
        },
        {
          "type": "Feature",
          "properties": {
            "id": "9077390493",
            "osm_type": "node",
            "lat": 46.61386,
            "lon": 16.4867809,
            "image": "https://drive.google.com/drive/folders/1KRLGZ9PCoi4ku-FIz8Sz0udscZs4Q5lV?usp=sharing",
            "name": "Trianon Múzeum",
            "tourism": "museum"
          },
          "geometry": {
            "type": "Point",
            "coordinates": [
              16.4867809,
              46.61386
            ]
          }
        },
        {
          "type": "Feature",
          "properties": {
            "id": "9970960591",
            "osm_type": "node",
            "lat": 46.4593342,
            "lon": 16.3934539,
            "attraction": "building",
            "name": "Matulov grunt",
            "tourism": "museum"
          },
          "geometry": {
            "type": "Point",
            "coordinates": [
              16.3934539,
              46.4593342
            ]
          }
        },
        {
          "type": "Feature",
          "properties": {
            "id": "10797382053",
            "osm_type": "node",
            "lat": 46.5666697,
            "lon": 16.4511645,
            "addr:city": "Lendava",
            "addr:city:hu": "Lendva",
            "addr:city:sl": "Lendava",
            "addr:housenumber": "52",
            "addr:postcode": "9220",
            "addr:street": "Glavna ulica",
            "addr:street:hu": "Fő - utca",
            "addr:street:sl": "Glavna ulica",
            "contact:website": "https://www.gml.si/",
            "name": "Muzej / Múzeum",
            "name:hu": "Múzeum",
            "name:sl": "Muzej",
            "ref:gurs:hs_mid": "12614497",
            "source:addr": "GURS",
            "source:addr:date": "2001-09-15",
            "tourism": "museum"
          },
          "geometry": {
            "type": "Point",
            "coordinates": [
              16.4511645,
              46.5666697
            ]
          }
        },
        {
          "type": "Feature",
          "properties": {
            "id": "12770406552",
            "osm_type": "node",
            "lat": 46.5666963,
            "lon": 16.4529437,
            "contact:website": "https://www.gml.si/",
            "tourism": "museum"
          },
          "geometry": {
            "type": "Point",
            "coordinates": [
              16.4529437,
              46.5666963
            ]
          }
        },
        {
          "type": "Feature",
          "properties": {
            "id": "1088030700",
            "osm_type": "node",
            "lat": 46.5727737,
            "lon": 16.5943819,
            "fee": "yes",
            "image": "https://drive.google.com/drive/folders/1rLhjfproIFNQ7K7qBrGuct3OVWjKixof?usp=sharing",
            "name": "Vízimalom",
            "opening_hours": "Tu-Sa 10:00-17:00; Su 10:00-14:00",
            "tourism": "museum"
          },
          "geometry": {
            "type": "Point",
            "coordinates": [
              16.5943819,
              46.5727737
            ]
          }
        },
        {
          "type": "Feature",
          "properties": {
            "id": "1789188683",
            "osm_type": "node",
            "lat": 46.6368911,
            "lon": 16.8421716,
            "name": "Deák Ferenc-emlékszoba",
            "tourism": "museum"
          },
          "geometry": {
            "type": "Point",
            "coordinates": [
              16.8421716,
              46.6368911
            ]
          }
        },
        {
          "type": "Feature",
          "properties": {
            "id": "3324625629",
            "osm_type": "node",
            "lat": 46.594866,
            "lon": 16.649478,
            "name": "Öveges József szülőháza",
            "source": "turistautak.hu",
            "tourism": "museum",
            "url": "http://turistautak.hu/poi.php?id=75374"
          },
          "geometry": {
            "type": "Point",
            "coordinates": [
              16.649478,
              46.594866
            ]
          }
        },
        {
          "type": "Feature",
          "properties": {
            "id": "3386310671",
            "osm_type": "node",
            "lat": 46.6801058,
            "lon": 16.7602234,
            "name": "Faluház",
            "phone": "+36 30 451 1641",
            "source": "turistautak.hu",
            "tourism": "museum",
            "url": "http://turistautak.hu/poi.php?id=100114"
          },
          "geometry": {
            "type": "Point",
            "coordinates": [
              16.7602234,
              46.6801058
            ]
          }
        },
        {
          "type": "Feature",
          "properties": {
            "id": "3456437116",
            "osm_type": "node",
            "lat": 46.65407,
            "lon": 16.99402,
            "name": "Kisfaludy Emlékház",
            "source": "turistautak.hu",
            "source:date": "2011-09-19",
            "tourism": "museum",
            "url": "http://turistautak.hu/poi.php?id=98570"
          },
          "geometry": {
            "type": "Point",
            "coordinates": [
              16.99402,
              46.65407
            ]
          }
        },
        {
          "type": "Feature",
          "properties": {
            "id": "3465219368",
            "osm_type": "node",
            "lat": 46.566504,
            "lon": 16.83649,
            "name": "Helytörténeti gyűjtemény",
            "source": "turistautak.hu",
            "source:date": "2011-09-19",
            "tourism": "museum",
            "url": "http://turistautak.hu/poi.php?id=111981"
          },
          "geometry": {
            "type": "Point",
            "coordinates": [
              16.83649,
              46.566504
            ]
          }
        },
        {
          "type": "Feature",
          "properties": {
            "id": "3465220219",
            "osm_type": "node",
            "lat": 46.4695101,
            "lon": 16.7171281,
            "name": "Öreghegyi Pincemúzeum",
            "source": "turistautak.hu",
            "source:date": "2013-09-04",
            "tourism": "museum",
            "url": "http://turistautak.hu/poi.php?id=32425"
          },
          "geometry": {
            "type": "Point",
            "coordinates": [
              16.7171281,
              46.4695101
            ]
          }
        },
        {
          "type": "Feature",
          "properties": {
            "id": "3468083360",
            "osm_type": "node",
            "lat": 46.5211271,
            "lon": 16.5559553,
            "mapillary": "181529990405634",
            "name": "Helytörténeti gyűjtemény",
            "tourism": "museum"
          },
          "geometry": {
            "type": "Point",
            "coordinates": [
              16.5559553,
              46.5211271
            ]
          }
        },
        {
          "type": "Feature",
          "properties": {
            "id": "5715898135",
            "osm_type": "node",
            "lat": 46.4329031,
            "lon": 16.8980903,
            "tourism": "museum"
          },
          "geometry": {
            "type": "Point",
            "coordinates": [
              16.8980903,
              46.4329031
            ]
          }
        },
        {
          "type": "Feature",
          "properties": {
            "id": "6050459589",
            "osm_type": "node",
            "lat": 46.4550652,
            "lon": 16.9908522,
            "addr:city": "Nagykanizsa",
            "addr:housenumber": "5",
            "addr:postcode": "8800",
            "addr:street": "Fő út",
            "fee": "yes",
            "name": "Thúry György Múzeum",
            "tourism": "museum"
          },
          "geometry": {
            "type": "Point",
            "coordinates": [
              16.9908522,
              46.4550652
            ]
          }
        },
        {
          "type": "Feature",
          "properties": {
            "id": "12716859396",
            "osm_type": "node",
            "lat": 46.4557281,
            "lon": 16.992379,
            "addr:city": "Nagykanizsa",
            "addr:housenumber": "3",
            "addr:postcode": "8800",
            "addr:street": "Sugár út",
            "museum": "history",
            "name": "Kanizsai Oldtimer Kerékpár Múzeum",
            "operator": "Kanizsai Oldtimer Kerékpáros Szövetség",
            "tourism": "museum"
          },
          "geometry": {
            "type": "Point",
            "coordinates": [
              16.992379,
              46.4557281
            ]
          }
        }
      ],
      "children": []
    },
    {
      "bbox": {
        "south": 46.70320525,
        "west": 15.253173,
        "north": 47.033758500000005,
        "east": 16.2068765
      },
      "poiCount": 20,
      "leafCount": 20,
      "averagePosition": [
        15.69317019,
        46.868573229999996
      ],
      "data": [
        {
          "type": "Feature",
          "properties": {
            "id": "506737483",
            "osm_type": "node",
            "lat": 46.7583523,
            "lon": 15.4074119,
            "addr:city": "Großklein",
            "addr:country": "AT",
            "addr:housenumber": "23",
            "addr:place": "Mantrach",
            "addr:postcode": "8452",
            "at_bev:addr_date": "2018-10-01",
            "name": "Kürbiskernöl Museum",
            "shop": "pumpkin_seed_oil",
            "shop:de": "Kürbiskernöl",
            "tourism": "museum"
          },
          "geometry": {
            "type": "Point",
            "coordinates": [
              15.4074119,
              46.7583523
            ]
          }
        },
        {
          "type": "Feature",
          "properties": {
            "id": "890453085",
            "osm_type": "node",
            "lat": 46.7354873,
            "lon": 15.4410984,
            "addr:city": "Großklein",
            "addr:country": "AT",
            "addr:housenumber": "10",
            "addr:place": "Großklein",
            "historic": "yes",
            "name": "Hallstattzeitliches Museum",
            "phone": "+436642714414",
            "tourism": "museum",
            "website": "www.archaeo-grossklein.com",
            "wikidata": "Q87575268",
            "wikimedia_commons": "Category:Hallstattzeitliches Museum Großklein",
            "wikipedia": "de:Hallstattzeitliches Museum Großklein"
          },
          "geometry": {
            "type": "Point",
            "coordinates": [
              15.4410984,
              46.7354873
            ]
          }
        },
        {
          "type": "Feature",
          "properties": {
            "id": "10100878059",
            "osm_type": "node",
            "lat": 46.7475618,
            "lon": 15.4064096,
            "historic": "yes",
            "name": "rekonstruiertes Hallstattzeitliches Gehöft",
            "tourism": "museum",
            "wikimedia_commons": "Category:Hallstattzeitliches Gehöft Burgstallkogel"
          },
          "geometry": {
            "type": "Point",
            "coordinates": [
              15.4064096,
              46.7475618
            ]
          }
        },
        {
          "type": "Feature",
          "properties": {
            "id": "11804665261",
            "osm_type": "node",
            "lat": 46.7950213,
            "lon": 15.5271861,
            "fee": "yes",
            "tourism": "museum",
            "wheelchair": "yes"
          },
          "geometry": {
            "type": "Point",
            "coordinates": [
              15.5271861,
              46.7950213
            ]
          }
        },
        {
          "type": "Feature",
          "properties": {
            "id": "924199040",
            "osm_type": "node",
            "lat": 46.764142,
            "lon": 15.9654775,
            "name": "Weinbaumuseum",
            "tourism": "museum"
          },
          "geometry": {
            "type": "Point",
            "coordinates": [
              15.9654775,
              46.764142
            ]
          }
        },
        {
          "type": "Feature",
          "properties": {
            "id": "1835390350",
            "osm_type": "node",
            "lat": 46.718648,
            "lon": 15.553209,
            "name": "Wein Museum",
            "tourism": "museum"
          },
          "geometry": {
            "type": "Point",
            "coordinates": [
              15.553209,
              46.718648
            ]
          }
        },
        {
          "type": "Feature",
          "properties": {
            "id": "2407209653",
            "osm_type": "node",
            "lat": 46.8002103,
            "lon": 15.8857676,
            "email": "BULLDOGWirt@aon.at",
            "name": "Museum nostaligisches Landleben",
            "phone": "+43(0)3473/8267",
            "source": "knowledge",
            "tourism": "museum",
            "website": "http://www.bulldogwirt.at/museum.html"
          },
          "geometry": {
            "type": "Point",
            "coordinates": [
              15.8857676,
              46.8002103
            ]
          }
        },
        {
          "type": "Feature",
          "properties": {
            "id": "2736460728",
            "osm_type": "node",
            "lat": 46.8546544,
            "lon": 15.9035596,
            "name": "Laden-Museum",
            "tourism": "museum"
          },
          "geometry": {
            "type": "Point",
            "coordinates": [
              15.9035596,
              46.8546544
            ]
          }
        },
        {
          "type": "Feature",
          "properties": {
            "id": "10934941829",
            "osm_type": "node",
            "lat": 46.7808729,
            "lon": 15.7678219,
            "name": "Ottersbachmühle",
            "opening_hours": "Fr-Su 11:00+",
            "tourism": "museum",
            "website": "https://www.ottersbachmuehle.at/die-muehle"
          },
          "geometry": {
            "type": "Point",
            "coordinates": [
              15.7678219,
              46.7808729
            ]
          }
        },
        {
          "type": "Feature",
          "properties": {
            "id": "13070830781",
            "osm_type": "node",
            "lat": 46.8004562,
            "lon": 16.0958376,
            "contact:website": "https://grad-goricko.si/",
            "fee": "yes",
            "museum": "war;military;history;nature",
            "museum_type": "regional",
            "name": "Grad pri Gradu",
            "name:en": "Grad Castle",
            "name:fr": "Château de Grad",
            "name:hu": "Felsőlendvai vár",
            "opening_hours": "Apr-Oct PH,Tu-Su 10:00-18:00; Mar,Nov PH,Tu-Su 10:00-16:00; Dec-Jan PH,Mo-Su off",
            "tourism": "museum"
          },
          "geometry": {
            "type": "Point",
            "coordinates": [
              16.0958376,
              46.8004562
            ]
          }
        },
        {
          "type": "Feature",
          "properties": {
            "id": "1743682229",
            "osm_type": "node",
            "lat": 46.9169465,
            "lon": 15.4845678,
            "addr:city": "Werndorf",
            "addr:country": "AT",
            "addr:housenumber": "1",
            "addr:postcode": "8402",
            "addr:street": "Neumühlweg",
            "contact:mobile": "+43 664 2413730",
            "contact:phone": "+43 3135 54261",
            "name": "Fahrradmuseum",
            "source": "survey",
            "tourism": "museum",
            "website": "http://www.steirischemuseen.at/m/Museum/226/Lampl%C2%B4s%20Fahrradmuseum"
          },
          "geometry": {
            "type": "Point",
            "coordinates": [
              15.4845678,
              46.9169465
            ]
          }
        },
        {
          "type": "Feature",
          "properties": {
            "id": "2481348950",
            "osm_type": "node",
            "lat": 46.9703455,
            "lon": 15.3439683,
            "addr:city": "Lieboch",
            "addr:country": "AT",
            "addr:housenumber": "8",
            "addr:postcode": "8501",
            "addr:street": "Bahnhofstraße",
            "contact:email": "info@stef.at",
            "contact:phone": "+43 3136 62330 547",
            "contact:website": "https://www.stef.at/",
            "museum": "railway",
            "name": "Technisches Eisenbahnmuseum Lieboch",
            "opening_hours": "May 01-Oct 26 We-Su 10:30-17:00",
            "railway": "museum",
            "source": "survey",
            "tourism": "museum",
            "wikidata": "Q2399452",
            "wikipedia": "de:Technisches Eisenbahnmuseum Lieboch"
          },
          "geometry": {
            "type": "Point",
            "coordinates": [
              15.3439683,
              46.9703455
            ]
          }
        },
        {
          "type": "Feature",
          "properties": {
            "id": "4708727489",
            "osm_type": "node",
            "lat": 46.9353697,
            "lon": 15.4511679,
            "addr:city": "Wundschuh",
            "addr:housenumber": "21",
            "addr:postcode": "8142",
            "addr:street": "Bachweg",
            "email": "erlebnishof@ehr.at",
            "name": "Erlebnishof Reczek",
            "phone": "+43 3135 53810",
            "toilets:wheelchair": "no",
            "tourism": "museum",
            "website": "https://www.ehr.at/",
            "wheelchair": "no",
            "wikidata": "Q86201622"
          },
          "geometry": {
            "type": "Point",
            "coordinates": [
              15.4511679,
              46.9353697
            ]
          }
        },
        {
          "type": "Feature",
          "properties": {
            "id": "7401992303",
            "osm_type": "node",
            "lat": 46.8965874,
            "lon": 15.2639405,
            "addr:city": "Stainz",
            "addr:housenumber": "1",
            "addr:postcode": "8510",
            "addr:street": "Schloßplatz",
            "museum": "hunting;agriculture",
            "name": "Jagd- und Landwirtschaftsmuseum Schloss Stainz",
            "operator": "Universalmuseum Joanneum GmbH",
            "operator:type": "public",
            "tourism": "museum"
          },
          "geometry": {
            "type": "Point",
            "coordinates": [
              15.2639405,
              46.8965874
            ]
          }
        },
        {
          "type": "Feature",
          "properties": {
            "id": "3208693867",
            "osm_type": "node",
            "lat": 47.0165073,
            "lon": 15.8209669,
            "name": "Gsellmanns Weltmaschine",
            "opening_hours": "Mo 9:00-18:00; We-Su 9:00-18:00",
            "tourism": "museum",
            "website": "https://www.weltmaschine.at/",
            "wikipedia": "de:Weltmaschine des Franz Gsellmann"
          },
          "geometry": {
            "type": "Point",
            "coordinates": [
              15.8209669,
              47.0165073
            ]
          }
        },
        {
          "type": "Feature",
          "properties": {
            "id": "3696396590",
            "osm_type": "node",
            "lat": 46.9893712,
            "lon": 15.83517,
            "addr:city": "Edelsbach bei Feldbach",
            "addr:housenumber": "15",
            "addr:place": "Edelsbach",
            "addr:postcode": "8332",
            "fee": "yes",
            "name": "Österreichisches Brückenbaumuseum",
            "tourism": "museum",
            "wheelchair": "no"
          },
          "geometry": {
            "type": "Point",
            "coordinates": [
              15.83517,
              46.9893712
            ]
          }
        },
        {
          "type": "Feature",
          "properties": {
            "id": "6697515460",
            "osm_type": "node",
            "lat": 47.0050156,
            "lon": 15.9324282,
            "name": "Hexenmuseum",
            "name:hu": "Boszorkánymúzeum",
            "tourism": "museum"
          },
          "geometry": {
            "type": "Point",
            "coordinates": [
              15.9324282,
              47.0050156
            ]
          }
        },
        {
          "type": "Feature",
          "properties": {
            "id": "6697515476",
            "osm_type": "node",
            "lat": 47.0052832,
            "lon": 15.9326296,
            "name": "Waffenmuseum",
            "name:hu": "Fegyvermúzeum",
            "tourism": "museum"
          },
          "geometry": {
            "type": "Point",
            "coordinates": [
              15.9326296,
              47.0052832
            ]
          }
        },
        {
          "type": "Feature",
          "properties": {
            "id": "6697515477",
            "osm_type": "node",
            "lat": 47.0051747,
            "lon": 15.9323639,
            "contact:email": "webdirect@dieriegersburg.at",
            "contact:phone": "+4331538213",
            "contact:website": "https://www.dieriegersburg.at/museen",
            "name": "Burgmuseum",
            "name:hu": "Vártörténeti múzeum",
            "tourism": "museum"
          },
          "geometry": {
            "type": "Point",
            "coordinates": [
              15.9323639,
              47.0051747
            ]
          }
        },
        {
          "type": "Feature",
          "properties": {
            "id": "7781359485",
            "osm_type": "node",
            "lat": 46.875457,
            "lon": 15.9124215,
            "addr:postcode": "8344",
            "fee": "no",
            "name": "Curmuseum Bad Gleichenberg",
            "opening_hours": "Tu,Th,Sa 14:00-16:00",
            "phone": "0664 2250570",
            "tourism": "museum",
            "website": "https://bad-gleichenberg.riskommunal.net/Curmuseumverein_-_Curmuseum_im_Kurpark_20"
          },
          "geometry": {
            "type": "Point",
            "coordinates": [
              15.9124215,
              46.875457
            ]
          }
        }
      ],
      "children": []
    },
    {
      "bbox": {
        "south": 46.70320525,
        "west": 16.2068765,
        "north": 47.033758500000005,
        "east": 17.16058
      },
      "poiCount": 19,
      "leafCount": 19,
      "averagePosition": [
        16.597159315789472,
        46.866774368421055
      ],
      "data": [
        {
          "type": "Feature",
          "properties": {
            "id": "3009518816",
            "osm_type": "node",
            "lat": 46.7601231,
            "lon": 16.3434769,
            "contact:phone": "+36 30 621 0345",
            "name": "Fazekas ház",
            "opening_hours": "Tu 14:00-18:00; We-Sa 10:00-14:00; Su \"by appointment\"",
            "tourism": "museum"
          },
          "geometry": {
            "type": "Point",
            "coordinates": [
              16.3434769,
              46.7601231
            ]
          }
        },
        {
          "type": "Feature",
          "properties": {
            "id": "3459863009",
            "osm_type": "node",
            "lat": 46.736512,
            "lon": 16.368665,
            "fixme": "resurvey (source was old)",
            "name": "Tájház",
            "source": "turistautak.hu",
            "source:date": "2008-12-11",
            "tourism": "museum",
            "url": "http://turistautak.hu/poi.php?id=52653"
          },
          "geometry": {
            "type": "Point",
            "coordinates": [
              16.368665,
              46.736512
            ]
          }
        },
        {
          "type": "Feature",
          "properties": {
            "id": "5814409867",
            "osm_type": "node",
            "lat": 46.8652665,
            "lon": 16.3638475,
            "contact:phone": "+36 30 235 3489;+36 20 918 4312",
            "description": "Nyitva tartási időn kívül előzetes egyeztetés alapján látogatható",
            "name": "Sportmez és sportzászló kiállítás",
            "opening_hours": "Mo-Su 13:00-17:00; PH off",
            "operator": "Szalafő Község Önkormányzata",
            "tourism": "museum"
          },
          "geometry": {
            "type": "Point",
            "coordinates": [
              16.3638475,
              46.8652665
            ]
          }
        },
        {
          "type": "Feature",
          "properties": {
            "id": "6707393662",
            "osm_type": "node",
            "lat": 46.840628,
            "lon": 16.4179622,
            "level": "1",
            "name": "Szikszay Edit néprajzi gyűjtemény és közösségi ház",
            "start_date": "1985",
            "tourism": "museum"
          },
          "geometry": {
            "type": "Point",
            "coordinates": [
              16.4179622,
              46.840628
            ]
          }
        },
        {
          "type": "Feature",
          "properties": {
            "id": "9974422319",
            "osm_type": "node",
            "lat": 46.8029062,
            "lon": 16.3849054,
            "contact:website": "https://www.bajansenye.hu/latnivalok/",
            "name": "Helytörténeti gyűjtemény",
            "operator": "Bajánsenye Község Önkormányzata",
            "start_date": "2011-08",
            "tourism": "museum"
          },
          "geometry": {
            "type": "Point",
            "coordinates": [
              16.3849054,
              46.8029062
            ]
          }
        },
        {
          "type": "Feature",
          "properties": {
            "id": "12137732371",
            "osm_type": "node",
            "lat": 46.7615188,
            "lon": 16.3395332,
            "name": "Czúgh János emlékszoba",
            "tourism": "museum"
          },
          "geometry": {
            "type": "Point",
            "coordinates": [
              16.3395332,
              46.7615188
            ]
          }
        },
        {
          "type": "Feature",
          "properties": {
            "id": "278755300",
            "osm_type": "node",
            "lat": 46.8503759,
            "lon": 16.8281454,
            "fee": "yes",
            "name": "Göcseji Falumúzeum",
            "tourism": "museum"
          },
          "geometry": {
            "type": "Point",
            "coordinates": [
              16.8281454,
              46.8503759
            ]
          }
        },
        {
          "type": "Feature",
          "properties": {
            "id": "2168973588",
            "osm_type": "node",
            "lat": 46.8394738,
            "lon": 16.8548223,
            "addr:city": "Zalaegerszeg",
            "addr:housenumber": "13",
            "addr:postcode": "8900",
            "addr:street": "Wlassics Gyula utca",
            "name": "Magyar Olaj- és Gázipari Múzeum",
            "phone": "+36 92 313 632",
            "tourism": "museum",
            "website": "https://www.olajmuzeum.hu/",
            "wikidata": "Q1162168",
            "wikipedia": "hu:Magyar Olaj- és Gázipari Múzeum"
          },
          "geometry": {
            "type": "Point",
            "coordinates": [
              16.8548223,
              46.8394738
            ]
          }
        },
        {
          "type": "Feature",
          "properties": {
            "id": "3383420293",
            "osm_type": "node",
            "lat": 46.78606,
            "lon": 16.680988,
            "name": "Tájház",
            "source": "turistautak.hu",
            "tourism": "museum",
            "url": "http://turistautak.hu/poi.php?id=108743"
          },
          "geometry": {
            "type": "Point",
            "coordinates": [
              16.680988,
              46.78606
            ]
          }
        },
        {
          "type": "Feature",
          "properties": {
            "id": "6838073788",
            "osm_type": "node",
            "lat": 46.722766,
            "lon": 16.6379085,
            "name": "Pincemúzeum",
            "tourism": "museum"
          },
          "geometry": {
            "type": "Point",
            "coordinates": [
              16.6379085,
              46.722766
            ]
          }
        },
        {
          "type": "Feature",
          "properties": {
            "id": "2129155338",
            "osm_type": "node",
            "lat": 46.8449997,
            "lon": 17.0930567,
            "check_date": "2025-05-09",
            "name": "Deák-kúria Múzeum",
            "opening_hours": "Mo off; Tu-Sa 10:00-17:00; Su 10:00-14:00",
            "source": "http://www.zmmi.hu/deak-ferenc-emlekhaz",
            "tourism": "museum",
            "wheelchair": "limited"
          },
          "geometry": {
            "type": "Point",
            "coordinates": [
              17.0930567,
              46.8449997
            ]
          }
        },
        {
          "type": "Feature",
          "properties": {
            "id": "12823179143",
            "osm_type": "node",
            "lat": 46.8433315,
            "lon": 17.0932044,
            "check_date": "2025-05-09",
            "name": "Babamúzeum",
            "tourism": "museum",
            "wheelchair": "no"
          },
          "geometry": {
            "type": "Point",
            "coordinates": [
              17.0932044,
              46.8433315
            ]
          }
        },
        {
          "type": "Feature",
          "properties": {
            "id": "2908818565",
            "osm_type": "node",
            "lat": 46.930721,
            "lon": 16.5184991,
            "name": "Falumúzeum",
            "tourism": "museum"
          },
          "geometry": {
            "type": "Point",
            "coordinates": [
              16.5184991,
              46.930721
            ]
          }
        },
        {
          "type": "Feature",
          "properties": {
            "id": "5787651953",
            "osm_type": "node",
            "lat": 47.0242768,
            "lon": 16.3216148,
            "contact:email": "info@hobelmuseum.at",
            "contact:facebook": "https://www.facebook.com/FranzSlamasHobelmuseum/",
            "contact:mobile": "+43 664 2706613",
            "contact:website": "http://hobelmuseum.at/",
            "craft": "joiner",
            "museum": "joiner",
            "name": "Franzl’s Werkstatt und Hobelmuseum",
            "operator": "Franz Slama",
            "tourism": "museum"
          },
          "geometry": {
            "type": "Point",
            "coordinates": [
              16.3216148,
              47.0242768
            ]
          }
        },
        {
          "type": "Feature",
          "properties": {
            "id": "13071213958",
            "osm_type": "node",
            "lat": 46.8813556,
            "lon": 16.2673298,
            "contact:facebook": "tuzlepkeokopark",
            "contact:website": "https://tuzlepkeokopark.hu/",
            "name": "Djaustji-Cser emlékház",
            "tourism": "museum"
          },
          "geometry": {
            "type": "Point",
            "coordinates": [
              16.2673298,
              46.8813556
            ]
          }
        },
        {
          "type": "Feature",
          "properties": {
            "id": "1118416616",
            "osm_type": "node",
            "lat": 47.0095393,
            "lon": 16.6062903,
            "contact:email": "cultcent@kormend.hu",
            "contact:phone": "+36 94 445 566",
            "contact:website": "http://www.bok.kormend.hu",
            "name": "Dr. Batthyány-Strattmann László Múzeum",
            "opening_hours": "May-Oct Tu-Su 10:00-18:00; Nov-Apr Tu-Sa 10:00-16:00",
            "tourism": "museum"
          },
          "geometry": {
            "type": "Point",
            "coordinates": [
              16.6062903,
              47.0095393
            ]
          }
        },
        {
          "type": "Feature",
          "properties": {
            "id": "3437351901",
            "osm_type": "node",
            "lat": 47.017584,
            "lon": 16.6115136,
            "name": "Határőrmúzeum",
            "source": "turistautak.hu",
            "tourism": "museum",
            "url": "http://turistautak.hu/poi.php?id=27543"
          },
          "geometry": {
            "type": "Point",
            "coordinates": [
              16.6115136,
              47.017584
            ]
          }
        },
        {
          "type": "Feature",
          "properties": {
            "id": "3470021930",
            "osm_type": "node",
            "lat": 46.941807,
            "lon": 17.0075,
            "name": "Ökológiai bemutatóhely",
            "source": "turistautak.hu",
            "source:date": "2012-05-11",
            "tourism": "museum",
            "url": "http://turistautak.hu/poi.php?id=121991"
          },
          "geometry": {
            "type": "Point",
            "coordinates": [
              17.0075,
              46.941807
            ]
          }
        },
        {
          "type": "Feature",
          "properties": {
            "id": "5816327960",
            "osm_type": "node",
            "lat": 47.0094678,
            "lon": 16.6067639,
            "level": "1",
            "name": "Cipőtörténeti gyűjtemény",
            "opening_hours": "May-Oct Tu-Su 10:00-18:00; Nov-Apr Tu-Sa 10:00-16:00",
            "tourism": "museum"
          },
          "geometry": {
            "type": "Point",
            "coordinates": [
              16.6067639,
              47.0094678
            ]
          }
        }
      ],
      "children": []
    }
  ]
}