{
  "bbox": {
    "south": 47.694865,
    "west": 11.438358999999998,
    "north": 48.355971499999995,
    "east": 13.345766
  },
  "poiCount": 176,
  "leafCount": 0,
  "averagePosition": [
    12.231051857386365,
    48.04129930113636
  ],
  "data": [],
  "children": [
    {
      "bbox": {
        "south": 47.694865,
        "west": 11.438358999999998,
        "north": 48.02541825,
        "east": 12.392062499999998
      },
      "poiCount": 18,
      "leafCount": 18,
      "averagePosition": [
        11.95887745,
        47.81613601666666
      ],
      "data": [
        {
          "type": "Feature",
          "properties": {
            "id": "10871464377",
            "osm_type": "node",
            "lat": 47.8166905,
            "lon": 11.4795351,
            "addr:city": "Königsdorf",
            "addr:country": "DE",
            "addr:housenumber": "6",
            "addr:postcode": "82549",
            "addr:street": "Beuerberger Straße",
            "fee:icom_member": "unknown",
            "name": "Heimatmuseum",
            "opening_hours": "May-Oct: Su 09:30-12:00",
            "tourism": "museum",
            "website": "https://www.gemeinde-koenigsdorf.de/heimatmuseum",
            "wikidata": "Q76628219"
          },
          "geometry": {
            "type": "Point",
            "coordinates": [
              11.4795351,
              47.8166905
            ]
          }
        },
        {
          "type": "Feature",
          "properties": {
            "id": "389021919",
            "osm_type": "node",
            "lat": 47.7029748,
            "lon": 11.8854485,
            "craft": "distillery",
            "description": "Besichtigung & Verkauf",
            "distillery": "whisky",
            "name": "Whisky-Destillerie Slyrs",
            "opening_hours": "May-Oct: Mo-Sa 10:00-18:00, Su 10:00-16:00; Nov-Apr: Mo-Sa 10:00-18:00",
            "shop": "beverages",
            "tourism": "museum",
            "website": "https://slyrs.com/"
          },
          "geometry": {
            "type": "Point",
            "coordinates": [
              11.8854485,
              47.7029748
            ]
          }
        },
        {
          "type": "Feature",
          "properties": {
            "id": "768709828",
            "osm_type": "node",
            "lat": 47.7087348,
            "lon": 11.7567708,
            "alt_name": "Tegernseer Heimatmuseum",
            "description": "Kultur und Geschichte",
            "fee": "yes",
            "fee:icom_member": "unknown",
            "name": "Museum Tegernseer Tal",
            "tourism": "museum",
            "website": "https://www.museumtegernseertal.de/",
            "wheelchair": "no",
            "wikidata": "Q76629559",
            "wikipedia": "de:Museum Tegernseer Tal"
          },
          "geometry": {
            "type": "Point",
            "coordinates": [
              11.7567708,
              47.7087348
            ]
          }
        },
        {
          "type": "Feature",
          "properties": {
            "id": "2371617106",
            "osm_type": "node",
            "lat": 47.734503,
            "lon": 11.8633534,
            "fee": "yes",
            "fee:icom_member": "unknown",
            "name": "Heimatmuseum Schliersee",
            "opening_hours": "Jun-Nov: Tu-Sa 14:00-16:00",
            "tourism": "museum",
            "website": "https://servus-schliersee.de/sehenswuerdigkeiten/heimatmuseum-schliersee/",
            "wikidata": "Q76629429"
          },
          "geometry": {
            "type": "Point",
            "coordinates": [
              11.8633534,
              47.734503
            ]
          }
        },
        {
          "type": "Feature",
          "properties": {
            "id": "3782148362",
            "osm_type": "node",
            "lat": 47.7602287,
            "lon": 11.5579448,
            "addr:city": "Bad Tölz",
            "addr:country": "DE",
            "addr:housenumber": "3",
            "addr:postcode": "83646",
            "addr:street": "Kapellengasteig",
            "contact:email": "info@dasbullevontoelzmuseum.de",
            "contact:website": "http://www.dasbullevontoelzmuseum.de",
            "fee": "yes",
            "fee:icom_member": "unknown",
            "name": "Bulle von Tölz Museum",
            "opening_hours": "Mo-Sa 10:00-18:00; Su,PH 11:00-18:00; Dec 24,Dec 31 off",
            "phone": "+49 8041 7991377",
            "tourism": "museum"
          },
          "geometry": {
            "type": "Point",
            "coordinates": [
              11.5579448,
              47.7602287
            ]
          }
        },
        {
          "type": "Feature",
          "properties": {
            "id": "3802095820",
            "osm_type": "node",
            "lat": 47.7609113,
            "lon": 11.5610325,
            "addr:city": "Bad Tölz",
            "addr:country": "DE",
            "addr:housenumber": "48",
            "addr:postcode": "83646",
            "addr:street": "Marktstraße",
            "contact:email": "stadtmuseum@bad-toelz.de",
            "contact:phone": "+49 8041 793 80 11",
            "contact:website": "https://museum.wolfratshausen.de/",
            "fee": "yes",
            "fee:icom_member": "unknown",
            "name": "Stadtmuseum",
            "opening_hours": "Tu-Su 10:00-17:00; Nov 01 off",
            "tourism": "museum",
            "wheelchair": "yes",
            "wikidata": "Q76627151",
            "wikipedia": "de:Stadtmuseum Bad Tölz"
          },
          "geometry": {
            "type": "Point",
            "coordinates": [
              11.5610325,
              47.7609113
            ]
          }
        },
        {
          "type": "Feature",
          "properties": {
            "id": "312794873",
            "osm_type": "node",
            "lat": 47.8551354,
            "lon": 12.126425,
            "fee": "yes",
            "name": "Holztechnisches Museum",
            "opening_hours": "Tu-Fr 10:00-17:00; Sa 13:00-17:00",
            "phone": "+49 8031 16900",
            "tourism": "museum",
            "website": "https://www.htmverein.de/",
            "wheelchair": "limited",
            "wikidata": "Q76629348"
          },
          "geometry": {
            "type": "Point",
            "coordinates": [
              12.126425,
              47.8551354
            ]
          }
        },
        {
          "type": "Feature",
          "properties": {
            "id": "750533939",
            "osm_type": "node",
            "lat": 47.7272437,
            "lon": 12.1224651,
            "addr:city": "Flintsbach am Inn",
            "addr:country": "DE",
            "addr:housenumber": "5a",
            "addr:postcode": "83126",
            "addr:street": "Kirchplatz",
            "name": "Pfarrmuseum",
            "phone": "+49 8034 707202",
            "toilets:wheelchair": "no",
            "tourism": "museum",
            "website": "https://www.flintsbach.de/flintsbach-erleben-und-entdecken/pfarrmuseum.html",
            "wheelchair": "limited",
            "wheelchair:description": "Pfarrmuseum im Keller; Kirche mit historischem Friedhof stufenlos"
          },
          "geometry": {
            "type": "Point",
            "coordinates": [
              12.1224651,
              47.7272437
            ]
          }
        },
        {
          "type": "Feature",
          "properties": {
            "id": "1098183747",
            "osm_type": "node",
            "lat": 47.8564844,
            "lon": 12.1282344,
            "check_date:opening_hours": "2022-12-08",
            "fee": "yes",
            "name": "Stadtmuseum",
            "opening_hours": "Tu-Sa 10:00-17:00; Su 13:00-17:00",
            "tourism": "museum",
            "wheelchair": "no"
          },
          "geometry": {
            "type": "Point",
            "coordinates": [
              12.1282344,
              47.8564844
            ]
          }
        },
        {
          "type": "Feature",
          "properties": {
            "id": "2277480792",
            "osm_type": "node",
            "lat": 47.7745303,
            "lon": 12.1387578,
            "addr:city": "Neubeuern",
            "addr:housenumber": "4",
            "addr:postcode": "83115",
            "addr:street": "Marktplatz",
            "fee": "no",
            "name": "Innschifffahrtsmuseum",
            "name:en": "Inn Maritime Museum",
            "opening_hours": "Apr-Sep: Tu-Th 10:00-14:00, Sa 09:00-12:00, Oct-Mar: Tu,Th 10:00-14:00",
            "operator": "Gemeinde Neubeuern",
            "phone": "+49 (0)8035-2165",
            "tourism": "museum",
            "website": "http://neubeuern.de/"
          },
          "geometry": {
            "type": "Point",
            "coordinates": [
              12.1387578,
              47.7745303
            ]
          }
        },
        {
          "type": "Feature",
          "properties": {
            "id": "2639744169",
            "osm_type": "node",
            "lat": 47.7658845,
            "lon": 12.3214663,
            "check_date": "2023-08-28",
            "name": "Prientalmuseum",
            "tourism": "museum",
            "wikidata": "Q2109557"
          },
          "geometry": {
            "type": "Point",
            "coordinates": [
              12.3214663,
              47.7658845
            ]
          }
        },
        {
          "type": "Feature",
          "properties": {
            "id": "10106898438",
            "osm_type": "node",
            "lat": 47.8023756,
            "lon": 12.2856882,
            "addr:city": "Frasdorf",
            "addr:country": "DE",
            "addr:housenumber": "7",
            "addr:postcode": "83112",
            "addr:street": "Schulstraße",
            "name": "Dorf- und Höhlenmuseum",
            "opening_hours": "Jul-Aug: Su 16:00-18:00; Oct-Jul: Su[-1] 16:00-18:00",
            "operator": "Heimat-u. Kulturverein Frasdorf e.V.",
            "phone": "+49 8052 179625",
            "tourism": "museum",
            "website": "https://frasdorfmuseen.de/",
            "wheelchair": "no"
          },
          "geometry": {
            "type": "Point",
            "coordinates": [
              12.2856882,
              47.8023756
            ]
          }
        },
        {
          "type": "Feature",
          "properties": {
            "id": "11718104080",
            "osm_type": "node",
            "lat": 47.799298,
            "lon": 12.0724964,
            "fee": "unknown",
            "museum": "history",
            "name": "Fuizn Museum",
            "opening_hours": "unknown",
            "operator": "Nicklheimer Torfkulturverein D´Fuizler e.V.",
            "operator:type": "private",
            "start_date": "2024-03-08",
            "tourism": "museum"
          },
          "geometry": {
            "type": "Point",
            "coordinates": [
              12.0724964,
              47.799298
            ]
          }
        },
        {
          "type": "Feature",
          "properties": {
            "id": "11950032808",
            "osm_type": "node",
            "lat": 47.8688407,
            "lon": 12.0961673,
            "addr:city": "Rosenheim",
            "addr:country": "DE",
            "addr:housenumber": "9",
            "addr:postcode": "83024",
            "addr:street": "Kapellenweg",
            "check_date": "2024-06-01",
            "contact:website": "https://bgs-technikmuseum.de/",
            "fee": "no",
            "name": "Technisches Museum BGS",
            "opening_hours": "Sa[1] 10:00-13:30 ||\"by appointment\"; Nov-Apr off",
            "operator": "Technisches Museum BGS-Rosenheim e.V.",
            "tourism": "museum"
          },
          "geometry": {
            "type": "Point",
            "coordinates": [
              12.0961673,
              47.8688407
            ]
          }
        },
        {
          "type": "Feature",
          "properties": {
            "id": "2326704331",
            "osm_type": "node",
            "lat": 47.8808146,
            "lon": 11.9108567,
            "addr:city": "Bruckmühl",
            "addr:country": "DE",
            "addr:housenumber": "30",
            "addr:postcode": "83052",
            "addr:street": "Bahnhofstraße",
            "fee": "yes",
            "fee:icom_member": "unknown",
            "name": "Tierkundemuseum",
            "opening_hours": "We,Sa,Su 14:00-16:00",
            "phone": "+49 8062 4323",
            "toilets:wheelchair": "yes",
            "tourism": "museum",
            "website": "https://www.naturerlebnis-bruckmuehl.de/",
            "wheelchair": "yes",
            "wikidata": "Q76627272"
          },
          "geometry": {
            "type": "Point",
            "coordinates": [
              11.9108567,
              47.8808146
            ]
          }
        },
        {
          "type": "Feature",
          "properties": {
            "id": "5014380022",
            "osm_type": "node",
            "lat": 47.9865899,
            "lon": 11.8657708,
            "fee:icom_member": "unknown",
            "museum": "local",
            "name": "Heimatmuseum",
            "ref:isil": "DE-MUS-913119",
            "tourism": "museum",
            "wheelchair": "no",
            "wikidata": "Q76627715",
            "wikimedia_commons": "Category:Heimatmuseum (Glonn)"
          },
          "geometry": {
            "type": "Point",
            "coordinates": [
              11.8657708,
              47.9865899
            ]
          }
        },
        {
          "type": "Feature",
          "properties": {
            "id": "5385412784",
            "osm_type": "node",
            "lat": 47.8931687,
            "lon": 11.7798865,
            "fee": "yes",
            "fee:icom_member": "unknown",
            "name": "Orgelzentrum",
            "operator": "Dr. Sixtus Lampl",
            "phone": "+49 8024 4144",
            "tourism": "museum",
            "website": "https://www.lampl-orgelzentrum.com/",
            "wikidata": "Q21563314",
            "wikimedia_commons": "Category:Orgelzentrum Valley",
            "wikipedia": "de:Orgelzentrum Valley"
          },
          "geometry": {
            "type": "Point",
            "coordinates": [
              11.7798865,
              47.8931687
            ]
          }
        },
        {
          "type": "Feature",
          "properties": {
            "id": "2862602350",
            "osm_type": "node",
            "lat": 47.9960394,
            "lon": 12.3074945,
            "addr:city": "Amerang",
            "addr:country": "DE",
            "addr:housenumber": "38",
            "addr:postcode": "83123",
            "addr:street": "Wasserburger Straße",
            "email": "info@efa-mobile-zeiten.de",
            "name": "EFA Mobile Zeiten",
            "opening_hours": "Mar-Nov: We-Su 10:00-17:00",
            "phone": "+49 8075 8141",
            "toilets:wheelchair": "yes",
            "tourism": "museum",
            "website": "https://www.efa-mobile-zeiten.de/",
            "wheelchair": "limited",
            "wikidata": "Q1274463"
          },
          "geometry": {
            "type": "Point",
            "coordinates": [
              12.3074945,
              47.9960394
            ]
          }
        }
      ],
      "children": []
    },
    {
      "bbox": {
        "south": 47.694865,
        "west": 12.392062499999998,
        "north": 48.02541825,
        "east": 13.345766
      },
      "poiCount": 50,
      "leafCount": 50,
      "averagePosition": [
        12.921489044,
        47.840173480000004
      ],
      "data": [
        {
          "type": "Feature",
          "properties": {
            "id": "4280765190",
            "osm_type": "node",
            "lat": 47.8673206,
            "lon": 12.3969349,
            "addr:city": "Chiemsee",
            "addr:country": "DE",
            "addr:housenumber": "3",
            "addr:place": "Herrenchiemsee",
            "addr:postcode": "83209",
            "check_date": "2025-08-13",
            "fee:icom_member": "no",
            "name": "Augustiner-Chorherrenstift",
            "phone": "+49 8051 6887400",
            "toilets:wheelchair": "no",
            "tourism": "museum",
            "website": "https://www.herren-chiemsee.de/",
            "wheelchair": "no",
            "wikidata": "Q1775336",
            "wikipedia": "de:Kloster Herrenchiemsee"
          },
          "geometry": {
            "type": "Point",
            "coordinates": [
              12.3969349,
              47.8673206
            ]
          }
        },
        {
          "type": "Feature",
          "properties": {
            "id": "4523700981",
            "osm_type": "node",
            "lat": 47.8601633,
            "lon": 12.4018332,
            "fee": "yes",
            "fee:icom_member": "no",
            "name": "Ludwig-II-Museum",
            "tourism": "museum",
            "website": "https://www.herrenchiemsee.de/deutsch/n_schloss/l2mus.htm",
            "wheelchair": "yes"
          },
          "geometry": {
            "type": "Point",
            "coordinates": [
              12.4018332,
              47.8601633
            ]
          }
        },
        {
          "type": "Feature",
          "properties": {
            "id": "256004109",
            "osm_type": "node",
            "lat": 47.721022,
            "lon": 12.8773303,
            "addr:city": "Bad Reichenhall",
            "addr:country": "DE",
            "addr:housenumber": "9",
            "addr:postcode": "83435",
            "addr:street": "Alte Saline",
            "fee": "yes",
            "name": "Alte Saline",
            "name:ru": "Музей соли",
            "opening_hours": "Apr-Oct: Mo-Su 10:00-16:00; Nov-Mar: Mo-Su 11:00-15:00",
            "tourism": "museum",
            "wheelchair": "no",
            "wikidata": "Q436166",
            "wikimedia_commons": "Category:Alte Saline (Bad Reichenhall)",
            "wikipedia": "de:Alte Saline"
          },
          "geometry": {
            "type": "Point",
            "coordinates": [
              12.8773303,
              47.721022
            ]
          }
        },
        {
          "type": "Feature",
          "properties": {
            "id": "259167332",
            "osm_type": "node",
            "lat": 47.8380625,
            "lon": 12.9664409,
            "check_date:opening_hours": "2021-05-21",
            "fee": "yes",
            "museum": "railway",
            "name": "Lokwelt",
            "opening_hours": "Fr-Su 10:00-17:00",
            "phone": "+49 (0)8654-771224",
            "railway": "museum",
            "tourism": "museum",
            "website": "https://www.lokwelt.freilassing.de/",
            "wheelchair": "yes",
            "wikidata": "Q284821"
          },
          "geometry": {
            "type": "Point",
            "coordinates": [
              12.9664409,
              47.8380625
            ]
          }
        },
        {
          "type": "Feature",
          "properties": {
            "id": "285322769",
            "osm_type": "node",
            "lat": 47.7421846,
            "lon": 12.9931307,
            "check_date": "2023-08-20",
            "name": "Untersbergmuseum",
            "tourism": "museum",
            "wikidata": "Q84601621"
          },
          "geometry": {
            "type": "Point",
            "coordinates": [
              12.9931307,
              47.7421846
            ]
          }
        },
        {
          "type": "Feature",
          "properties": {
            "id": "721659732",
            "osm_type": "node",
            "lat": 47.742408,
            "lon": 12.9928216,
            "name": "Untersbergmuseum",
            "tourism": "museum",
            "wikidata": "Q84601621"
          },
          "geometry": {
            "type": "Point",
            "coordinates": [
              12.9928216,
              47.742408
            ]
          }
        },
        {
          "type": "Feature",
          "properties": {
            "id": "1676076938",
            "osm_type": "node",
            "lat": 47.8558004,
            "lon": 12.9645923,
            "check_date": "2023-08-22",
            "name": "Schnitzer Motorsport GmbH",
            "tourism": "museum"
          },
          "geometry": {
            "type": "Point",
            "coordinates": [
              12.9645923,
              47.8558004
            ]
          }
        },
        {
          "type": "Feature",
          "properties": {
            "id": "3212404868",
            "osm_type": "node",
            "lat": 47.7646428,
            "lon": 12.6453853,
            "check_date": "2023-08-23",
            "fee": "yes",
            "name": "Heimatmuseum",
            "opening_hours": "Tu-Fr 10:00-12:00",
            "tourism": "museum"
          },
          "geometry": {
            "type": "Point",
            "coordinates": [
              12.6453853,
              47.7646428
            ]
          }
        },
        {
          "type": "Feature",
          "properties": {
            "id": "4541892816",
            "osm_type": "node",
            "lat": 47.8686305,
            "lon": 12.6442223,
            "addr:city": "Traunstein",
            "addr:country": "DE",
            "addr:housenumber": "12",
            "addr:postcode": "83278",
            "addr:street": "Marienstraße",
            "check_date": "2025-09-11",
            "fee": "no",
            "name": "Druckereimuseum",
            "opening_hours": "We 14:00-16:00",
            "operator": "Traunsteiner Tagblatt",
            "tourism": "museum"
          },
          "geometry": {
            "type": "Point",
            "coordinates": [
              12.6442223,
              47.8686305
            ]
          }
        },
        {
          "type": "Feature",
          "properties": {
            "id": "4679750492",
            "osm_type": "node",
            "lat": 47.8694276,
            "lon": 12.6470493,
            "addr:city": "Traunstein",
            "addr:country": "DE",
            "addr:housenumber": "2-3",
            "addr:postcode": "83278",
            "addr:street": "Stadtplatz",
            "check_date": "2025-07-18",
            "fee": "no",
            "name": "Stadtmuseum Heimathaus",
            "opening_hours": "Di.-So. 11.00-17.00",
            "phone": "+49 861 164786",
            "tourism": "museum",
            "website": "https://www.heimathaus-traunstein.de/",
            "wikidata": "Q76629589"
          },
          "geometry": {
            "type": "Point",
            "coordinates": [
              12.6470493,
              47.8694276
            ]
          }
        },
        {
          "type": "Feature",
          "properties": {
            "id": "6052607095",
            "osm_type": "node",
            "lat": 47.810482,
            "lon": 12.6519093,
            "addr:city": "Siegsdorf",
            "addr:country": "DE",
            "addr:housenumber": "53",
            "addr:postcode": "83313",
            "addr:street": "Ruhpoldinger Straße",
            "check_date": "2023-08-23",
            "email": "anfrage@miniatur.museum.de",
            "name": "Miniatur Museum Little HOLLYWOOD",
            "phone": "+49 8662 669934",
            "tourism": "museum",
            "website": "https://www.miniatur-museum.de"
          },
          "geometry": {
            "type": "Point",
            "coordinates": [
              12.6519093,
              47.810482
            ]
          }
        },
        {
          "type": "Feature",
          "properties": {
            "id": "6052619261",
            "osm_type": "node",
            "lat": 47.8220279,
            "lon": 12.6432903,
            "addr:city": "Siegsdorf",
            "addr:country": "DE",
            "addr:housenumber": "2",
            "addr:postcode": "83313",
            "addr:street": "Auenstraße",
            "check_date": "2025-05-15",
            "fee": "no",
            "name": "Christkindlmuseum",
            "opening_hours": "PH,Mo-Su 10:00-18:00",
            "operator": "Südostbayerisches Naturkunde- und Mammut-Museum",
            "tourism": "museum"
          },
          "geometry": {
            "type": "Point",
            "coordinates": [
              12.6432903,
              47.8220279
            ]
          }
        },
        {
          "type": "Feature",
          "properties": {
            "id": "6052629321",
            "osm_type": "node",
            "lat": 47.8122577,
            "lon": 12.6152019,
            "addr:city": "Siegsdorf",
            "addr:country": "DE",
            "addr:housenumber": "1-5",
            "addr:postcode": "83313",
            "addr:street": "Sankt-Primus-Straße",
            "check_date": "2023-08-21",
            "name": "„Wasserwelt“ in Bad Adelholzen",
            "opening_hours": "Mo-Th 08:00-16:00, Fr 08:00-13:00",
            "operator": "Adelholzener Alpenquellen GmbH",
            "tourism": "museum"
          },
          "geometry": {
            "type": "Point",
            "coordinates": [
              12.6152019,
              47.8122577
            ]
          }
        },
        {
          "type": "Feature",
          "properties": {
            "id": "8442525587",
            "osm_type": "node",
            "lat": 47.8670284,
            "lon": 12.6474934,
            "addr:city": "Traunstein",
            "addr:country": "DE",
            "addr:housenumber": "3",
            "addr:postcode": "83278",
            "addr:street": "Kohlbrennerstraße",
            "check_date:opening_hours": "2024-06-05",
            "fee": "no",
            "museum": "history",
            "name": "Ausstellung Soleleitung",
            "opening_hours": "Tu-Th 13:00-16:00; Sa 10:00-12:00",
            "operator": "Stadt Traunstein",
            "tourism": "museum"
          },
          "geometry": {
            "type": "Point",
            "coordinates": [
              12.6474934,
              47.8670284
            ]
          }
        },
        {
          "type": "Feature",
          "properties": {
            "id": "10767301893",
            "osm_type": "node",
            "lat": 47.8453012,
            "lon": 13.0198268,
            "contact:email": "kontakt@weltdergifte.com",
            "contact:phone": "+43 677 63421700",
            "contact:website": "https://weltdergifte.com/",
            "museum": "nature",
            "name": "Welt der Gifte",
            "opening_hours": "Sa 16:00-16:45,17:30-18:15; Su 10:00-10:45,11:30-12:15",
            "tourism": "museum"
          },
          "geometry": {
            "type": "Point",
            "coordinates": [
              13.0198268,
              47.8453012
            ]
          }
        },
        {
          "type": "Feature",
          "properties": {
            "id": "11752583100",
            "osm_type": "node",
            "lat": 47.7591189,
            "lon": 12.6229083,
            "name": "Oldtimer Museum Schnauferlstall",
            "tourism": "museum",
            "website": "https://www.ferienwohnung-grabenhaeusl.de/schnauferlstall"
          },
          "geometry": {
            "type": "Point",
            "coordinates": [
              12.6229083,
              47.7591189
            ]
          }
        },
        {
          "type": "Feature",
          "properties": {
            "id": "268243633",
            "osm_type": "node",
            "lat": 47.8026506,
            "lon": 13.0437708,
            "addr:city": "Salzburg",
            "addr:housenumber": "8",
            "addr:postcode": "5020",
            "addr:street": "Makartplatz",
            "alt_name": "Tanzmeisterhaus",
            "fee": "yes",
            "name": "Mozart Wohnhaus",
            "name:ru": "Дом Моцарта",
            "name:zh": "莫扎特故居",
            "opening_hours": "Jul-Aug: Mo-Su,PH 08:30-19:00; Sep-Jun: Mo-Su,PH 09:00-17:30",
            "phone": "+43-662-874227-40",
            "tourism": "museum",
            "website": "https://mozarteum.at/museums/mozart-wohnhaus/",
            "wheelchair": "no"
          },
          "geometry": {
            "type": "Point",
            "coordinates": [
              13.0437708,
              47.8026506
            ]
          }
        },
        {
          "type": "Feature",
          "properties": {
            "id": "429286016",
            "osm_type": "node",
            "lat": 47.7996438,
            "lon": 13.0399208,
            "check_date": "2024-10-05",
            "check_date:opening_hours": "2024-10-05",
            "fee": "yes",
            "name": "Spielzeugmuseum",
            "opening_hours": "Tu-Su 09:00-17:00",
            "tourism": "museum",
            "wheelchair": "limited",
            "wikidata": "Q1671296",
            "wikipedia": "de:Salzburger Spielzeugmuseum"
          },
          "geometry": {
            "type": "Point",
            "coordinates": [
              13.0399208,
              47.7996438
            ]
          }
        },
        {
          "type": "Feature",
          "properties": {
            "id": "470858038",
            "osm_type": "node",
            "lat": 47.7979648,
            "lon": 13.0475616,
            "check_date": "2023-08-22",
            "fee": "yes",
            "name": "Panorama Museum",
            "name:zh": "全景博物馆",
            "opening_hours": "Mo-Su 09:00-17:00",
            "tourism": "museum",
            "wheelchair": "yes",
            "wikidata": "Q2049718",
            "wikipedia": "de:Panorama Museum Salzburg"
          },
          "geometry": {
            "type": "Point",
            "coordinates": [
              13.0475616,
              47.7979648
            ]
          }
        },
        {
          "type": "Feature",
          "properties": {
            "id": "725098578",
            "osm_type": "node",
            "lat": 47.8156707,
            "lon": 13.0406837,
            "addr:city": "Salzburg",
            "addr:country": "AT",
            "addr:housenumber": "42a",
            "addr:postcode": "5020",
            "addr:street": "Plainstraße",
            "at_bev:addr_date": "2018-10-01",
            "check_date": "2023-08-22",
            "contact:email": "info@bibelwelt.at",
            "contact:phone": "+43 676 87467080",
            "contact:website": "http://www.bibelwelt.at/",
            "entry": "yes",
            "fee": "yes",
            "museum": "religion",
            "museum_type": "private",
            "name": "Bibelwelt",
            "opening_hours": "Th-Sa 10:00-18:00; Su 11:00-18:00; Dec 24, Dec 31, easter -2 days 10:00-13:00; Nov 1 off; Dec 25 off; Jun 1 off",
            "tourism": "museum",
            "wheelchair": "limited",
            "wikidata": "Q93483622"
          },
          "geometry": {
            "type": "Point",
            "coordinates": [
              13.0406837,
              47.8156707
            ]
          }
        },
        {
          "type": "Feature",
          "properties": {
            "id": "801775391",
            "osm_type": "node",
            "lat": 47.7135719,
            "lon": 13.2875447,
            "name": "Puppenstubenmuseum",
            "opening_hours": "Mo-Su 12:00-17:00",
            "tourism": "museum",
            "website": "https://www.hintersee.at/puppenmuseum-salzburgerland.de.htm"
          },
          "geometry": {
            "type": "Point",
            "coordinates": [
              13.2875447,
              47.7135719
            ]
          }
        },
        {
          "type": "Feature",
          "properties": {
            "id": "1396344740",
            "osm_type": "node",
            "lat": 47.7966515,
            "lon": 13.044588,
            "fee": "yes",
            "name": "Katakomben",
            "name:cs": "Katakomby",
            "name:ru": "Катакомбы",
            "name:uk": "Катакомби",
            "tourism": "museum",
            "wheelchair": "no"
          },
          "geometry": {
            "type": "Point",
            "coordinates": [
              13.044588,
              47.7966515
            ]
          }
        },
        {
          "type": "Feature",
          "properties": {
            "id": "2117460957",
            "osm_type": "node",
            "lat": 47.7404758,
            "lon": 13.035889,
            "addr:city": "Grödig",
            "addr:housenumber": "3",
            "addr:postcode": "5082",
            "addr:street": "Hauptstrasse",
            "check_date": "2023-08-20",
            "email": "radiomuseum.groedig@aon.at",
            "name": "Radiomuseum Grödig",
            "opening_hours": "We 15:00-19:00",
            "phone": "+43 (0)6246 72857",
            "tourism": "museum",
            "website": "https://radiomuseum-groedig.at/",
            "wikidata": "Q93257970"
          },
          "geometry": {
            "type": "Point",
            "coordinates": [
              13.035889,
              47.7404758
            ]
          }
        },
        {
          "type": "Feature",
          "properties": {
            "id": "2320389900",
            "osm_type": "node",
            "lat": 47.6967148,
            "lon": 13.1320296,
            "name": "Marmormuseum",
            "opening_hours": "Tu 09:00-11:00; Th,Sa 09:00-17:00",
            "operator": "Gemeinde Adnet",
            "tourism": "museum",
            "website": "http://www.marmormuseum.adnet.at",
            "wikidata": "Q22692953",
            "wikipedia": "de:Marmormuseum Adnet"
          },
          "geometry": {
            "type": "Point",
            "coordinates": [
              13.1320296,
              47.6967148
            ]
          }
        },
        {
          "type": "Feature",
          "properties": {
            "id": "2500080867",
            "osm_type": "node",
            "lat": 47.810064,
            "lon": 13.0322233,
            "addr:city": "Salzburg",
            "addr:housenumber": "31",
            "addr:postcode": "5020",
            "addr:street": "Inge-Morath-Platz",
            "fee": "no",
            "name": "Stadt-Galerie",
            "opening_hours": "Tu,Th,Fr 14:00-18:00; Mo,We,Sa 11:00-15:00",
            "source": "Survey",
            "tourism": "museum",
            "wheelchair": "yes"
          },
          "geometry": {
            "type": "Point",
            "coordinates": [
              13.0322233,
              47.810064
            ]
          }
        },
        {
          "type": "Feature",
          "properties": {
            "id": "3286382554",
            "osm_type": "node",
            "lat": 47.7905912,
            "lon": 13.175487,
            "addr:city": "Ebenau",
            "addr:housenumber": "31",
            "addr:postcode": "5323",
            "addr:street": "Messingstraße",
            "check_date": "2023-08-20",
            "name": "Museum im Fürstenstöckl",
            "note": "Fürsterzbischöfliche Waffenschmiede und Heimatmuseum Öffentliches WC",
            "opening_hours": "Jun-Sep: Tu,Th 10:00-12:00; Sa 14:00-17:00, \"ganzjährig nach Anmeldung\"",
            "operator": "Wilhelm Leitner",
            "source": "http://fuschlsee.salzkammergut.at/oesterreich/poi/401038/museum-im-fuerstenstoeckl-ebenau.html?h=1738",
            "tourism": "museum"
          },
          "geometry": {
            "type": "Point",
            "coordinates": [
              13.175487,
              47.7905912
            ]
          }
        },
        {
          "type": "Feature",
          "properties": {
            "id": "3751663549",
            "osm_type": "node",
            "lat": 47.7982465,
            "lon": 13.0455752,
            "addr:city": "Salzburg",
            "addr:country": "AT",
            "addr:housenumber": "1",
            "addr:postcode": "5020",
            "addr:street": "Residenzplatz",
            "description": "Das Museum in Salzburg ist ein Zentrum barocker Kunst und Kultur: Im DomQuartier in Salzburg wird Architektur, Geschichte, Kunst und Musik in den Prunkräumen der Residenz, der Residenzgalerie, im Dommusen und im Museum St. Peter vereint.",
            "email": "office@domquartier.at",
            "fee": "yes",
            "image": "https://www.domquartier.at/fileadmin/prunkraeume/raeume-gallerien/Innenhof/innenhof-residenz-salzburg.jpg",
            "museum": "history",
            "name": "DomQuartier",
            "opening_hours": "Mo-Su 10:00-18:00",
            "phone": "+43 662 80422109",
            "tourism": "museum",
            "website": "https://www.domquartier.at/",
            "wikidata": "Q18019409",
            "wikipedia": "de:DomQuartier Salzburg"
          },
          "geometry": {
            "type": "Point",
            "coordinates": [
              13.0455752,
              47.7982465
            ]
          }
        },
        {
          "type": "Feature",
          "properties": {
            "id": "3751663551",
            "osm_type": "node",
            "lat": 47.7983574,
            "lon": 13.0457477,
            "addr:city": "Salzburg",
            "addr:housenumber": "1",
            "addr:postcode": "5020",
            "addr:street": "Residenzplatz",
            "check_date": "2023-08-10",
            "description": "Die Residenzgalerie im DomQuartier Salzburg. Europäische Malerei des 16. bis 19. Jahrhunderts bildet den Bestand der Gemäldesammlung des Landes Salzburg.",
            "email": "office@domquartier.at",
            "fee": "yes",
            "name": "Residenzgalerie Salzburg",
            "official_name": "Residenzgalerie Salzburg im DomQuartier",
            "phone": "+43 662 80 42 21 09",
            "toilets": "yes",
            "tourism": "museum",
            "website": "https://www.domquartier.at/residenzgalerie/",
            "wheelchair": "yes",
            "wikidata": "Q1248553"
          },
          "geometry": {
            "type": "Point",
            "coordinates": [
              13.0457477,
              47.7983574
            ]
          }
        },
        {
          "type": "Feature",
          "properties": {
            "id": "4143357124",
            "osm_type": "node",
            "lat": 47.7621462,
            "lon": 13.0602803,
            "audio_guide": "yes",
            "level": "1",
            "name": "Schloss Hellbrunn",
            "name:ru": "Хелльбрунн",
            "name:zh": "海尔布伦宫",
            "tourism": "museum",
            "wikidata": "Q115593"
          },
          "geometry": {
            "type": "Point",
            "coordinates": [
              13.0602803,
              47.7621462
            ]
          }
        },
        {
          "type": "Feature",
          "properties": {
            "id": "4787833494",
            "osm_type": "node",
            "lat": 47.8236185,
            "lon": 13.0396158,
            "addr:city": "Salzburg",
            "addr:housenumber": "30",
            "addr:postcode": "5020",
            "addr:street": "Schillerstraße",
            "description": "Viewpoint to the world of geoinformation",
            "internet_access": "wlan",
            "name": "iDEAS:lab",
            "operator": "Fachbereich für Geoinformatik - Z_GIS, Universität Salzburg",
            "tourism": "museum",
            "website": "https://ideaslab.sbg.ac.at",
            "wheelchair": "yes"
          },
          "geometry": {
            "type": "Point",
            "coordinates": [
              13.0396158,
              47.8236185
            ]
          }
        },
        {
          "type": "Feature",
          "properties": {
            "id": "5834092111",
            "osm_type": "node",
            "lat": 47.7963973,
            "lon": 13.0459185,
            "fee": "no",
            "name": "Almpassage Austellung",
            "tourism": "museum"
          },
          "geometry": {
            "type": "Point",
            "coordinates": [
              13.0459185,
              47.7963973
            ]
          }
        },
        {
          "type": "Feature",
          "properties": {
            "id": "7260491621",
            "osm_type": "node",
            "lat": 47.7972733,
            "lon": 13.0445507,
            "check_date": "2023-08-22",
            "name": "Romanischer Saal",
            "tourism": "museum"
          },
          "geometry": {
            "type": "Point",
            "coordinates": [
              13.0445507,
              47.7972733
            ]
          }
        },
        {
          "type": "Feature",
          "properties": {
            "id": "7922005685",
            "osm_type": "node",
            "lat": 47.8087394,
            "lon": 13.0560546,
            "addr:housenumber": "28-30",
            "addr:postcode": "5020",
            "addr:street": "Sterneckstraße",
            "email": "info@mooncity-salzburg.at",
            "internet_access": "wlan",
            "name": "MOONCITY",
            "opening_hours": "Tu-Fr 10:00-18:00; Sa 10:00-17:00",
            "phone": "+43 662 46817440",
            "tourism": "museum",
            "website": "https://www.mooncity-salzburg.at/"
          },
          "geometry": {
            "type": "Point",
            "coordinates": [
              13.0560546,
              47.8087394
            ]
          }
        },
        {
          "type": "Feature",
          "properties": {
            "id": "8127277649",
            "osm_type": "node",
            "lat": 47.7987931,
            "lon": 13.0470928,
            "addr:city": "Salzburg",
            "addr:country": "AT",
            "addr:housenumber": "2",
            "addr:postcode": "5020",
            "addr:street": "Mozartplatz",
            "check_date": "2025-03-27",
            "check_date:opening_hours": "2025-03-27",
            "contact:email": "info@salzburger-weihnachtsmuseum.at",
            "contact:phone": "+43 662 843523",
            "contact:website": "http://www.salzburger-weihnachtsmuseum.at/",
            "fee": "yes",
            "name": "Salzburger Weihnachtsmuseum",
            "opening_hours": "We-Su 10:00-18:00",
            "tourism": "museum",
            "wikidata": "Q93425433"
          },
          "geometry": {
            "type": "Point",
            "coordinates": [
              13.0470928,
              47.7987931
            ]
          }
        },
        {
          "type": "Feature",
          "properties": {
            "id": "11116588888",
            "osm_type": "node",
            "lat": 47.7951597,
            "lon": 13.047253,
            "name": "Welt der Marionetten",
            "name:en": "World of string puppets",
            "source": "survey",
            "tourism": "museum",
            "website": "https://www.salzburghighlights.at/de/sightseeing-salzburg/welt-der-marionetten/"
          },
          "geometry": {
            "type": "Point",
            "coordinates": [
              13.047253,
              47.7951597
            ]
          }
        },
        {
          "type": "Feature",
          "properties": {
            "id": "12149327201",
            "osm_type": "node",
            "lat": 47.8010453,
            "lon": 13.0662377,
            "addr:housenumber": "12",
            "addr:street": "Gaisbergstraße",
            "name": "LEICA Galerie",
            "tourism": "museum",
            "website": "https://www.leica-galerie-salzburg.com"
          },
          "geometry": {
            "type": "Point",
            "coordinates": [
              13.0662377,
              47.8010453
            ]
          }
        },
        {
          "type": "Feature",
          "properties": {
            "id": "12218741607",
            "osm_type": "node",
            "lat": 47.8148484,
            "lon": 13.2356985,
            "contact:website": "https://www.ploetzhof.at",
            "museum": "history",
            "name": "Ploetzhof",
            "tourism": "museum"
          },
          "geometry": {
            "type": "Point",
            "coordinates": [
              13.2356985,
              47.8148484
            ]
          }
        },
        {
          "type": "Feature",
          "properties": {
            "id": "12757790796",
            "osm_type": "node",
            "lat": 47.8056334,
            "lon": 13.040965,
            "fee": "no",
            "name": "Galerie der Stadt",
            "opening_hours": "Mo-Fr 14:00-18:00; Sa-Su 11:00-15:00",
            "tourism": "museum"
          },
          "geometry": {
            "type": "Point",
            "coordinates": [
              13.040965,
              47.8056334
            ]
          }
        },
        {
          "type": "Feature",
          "properties": {
            "id": "509912634",
            "osm_type": "node",
            "lat": 47.9434299,
            "lon": 12.4927345,
            "fee": "no",
            "historic": "archaeological_site",
            "name": "Keltisches Gehöft",
            "note": "wieso archaeological_site? Hier hat nie ein keltisches Gehöft gestanden.",
            "opening_hours": "24/7",
            "tourism": "museum",
            "website": "https://www.seeon-seebruck.de/keltengehoeft-stoeffling-1",
            "wheelchair": "limited"
          },
          "geometry": {
            "type": "Point",
            "coordinates": [
              12.4927345,
              47.9434299
            ]
          }
        },
        {
          "type": "Feature",
          "properties": {
            "id": "420450527",
            "osm_type": "node",
            "lat": 47.9338518,
            "lon": 12.736871,
            "addr:city": "Waging am See",
            "addr:country": "DE",
            "addr:housenumber": "32",
            "addr:postcode": "83329",
            "addr:street": "Salzburger Straße",
            "check_date": "2023-08-28",
            "contact:website": "http://www.waginger-see.de/de/bajuwarenmuseum-1/",
            "name": "Bajuwarenmuseum",
            "toilets:wheelchair": "yes",
            "tourism": "museum",
            "wheelchair": "yes",
            "wikidata": "Q804216"
          },
          "geometry": {
            "type": "Point",
            "coordinates": [
              12.736871,
              47.9338518
            ]
          }
        },
        {
          "type": "Feature",
          "properties": {
            "id": "1415542665",
            "osm_type": "node",
            "lat": 47.9456986,
            "lon": 12.9360837,
            "addr:city": "Oberndorf bei Salzburg",
            "addr:housenumber": "5",
            "addr:postcode": "5110",
            "addr:street": "Stille Nacht-Platz",
            "email": "museum@oberndorf.salzburg.at",
            "fee": "yes",
            "museum": "history",
            "name": "Stille-Nacht-Museum",
            "opening_hours": "Jan 07-Mar 31: Fr-Su 10:00-18:00, Apr-May: Th-Su 10:00-18:00, Jun: We-Su 10:00-18:00, Jul-Oct: Tu-Su 10:00-18:00, Nov 01-Jan 06: Mo-Su 10:00-18:00, PH 10:00-18:00",
            "operator": "Stadtgemeinde Oberndorf bei Salzburg",
            "operator:type": "government",
            "tourism": "museum",
            "website": "https://www.stille-nacht-kapelle.at",
            "wheelchair": "yes"
          },
          "geometry": {
            "type": "Point",
            "coordinates": [
              12.9360837,
              47.9456986
            ]
          }
        },
        {
          "type": "Feature",
          "properties": {
            "id": "1588155827",
            "osm_type": "node",
            "lat": 47.9692675,
            "lon": 12.9532216,
            "name": "Stille-Nacht-Museum",
            "tourism": "museum"
          },
          "geometry": {
            "type": "Point",
            "coordinates": [
              12.9532216,
              47.9692675
            ]
          }
        },
        {
          "type": "Feature",
          "properties": {
            "id": "3275277550",
            "osm_type": "node",
            "lat": 47.9576269,
            "lon": 12.58839,
            "check_date": "2023-08-28",
            "name": "Stadtarchiv",
            "operator": "Stadt Traunreut",
            "tourism": "museum"
          },
          "geometry": {
            "type": "Point",
            "coordinates": [
              12.58839,
              47.9576269
            ]
          }
        },
        {
          "type": "Feature",
          "properties": {
            "id": "10021578709",
            "osm_type": "node",
            "lat": 47.9512754,
            "lon": 12.8629771,
            "name": "Bauernhofmuseum",
            "tourism": "museum"
          },
          "geometry": {
            "type": "Point",
            "coordinates": [
              12.8629771,
              47.9512754
            ]
          }
        },
        {
          "type": "Feature",
          "properties": {
            "id": "10761413537",
            "osm_type": "node",
            "lat": 48.0033467,
            "lon": 12.537476,
            "museum": "local",
            "name": "Heimatmuseum Gemeinde Altenmarkt",
            "opening_hours": "We 16:00-18:30",
            "operator": "Verein für Heimat und Kultur Altenmarkt-Baumburg Babenden",
            "tourism": "museum",
            "website": "https://www.heimatverein-altenmarkt.de/"
          },
          "geometry": {
            "type": "Point",
            "coordinates": [
              12.537476,
              48.0033467
            ]
          }
        },
        {
          "type": "Feature",
          "properties": {
            "id": "775238692",
            "osm_type": "node",
            "lat": 48.0079064,
            "lon": 13.0844544,
            "check_date": "2023-08-22",
            "description": "Öffnungszeit: nach Voranmeldung +43 664 2371273, Hr. Sulzberger",
            "name": "Zoll- und Heimatmuseum",
            "phone": "+46 664 2371273",
            "tourism": "museum"
          },
          "geometry": {
            "type": "Point",
            "coordinates": [
              13.0844544,
              48.0079064
            ]
          }
        },
        {
          "type": "Feature",
          "properties": {
            "id": "1445607624",
            "osm_type": "node",
            "lat": 47.971,
            "lon": 13.1053757,
            "check_date": "2023-08-22",
            "name": "Stiftsmuseum",
            "tourism": "museum"
          },
          "geometry": {
            "type": "Point",
            "coordinates": [
              13.1053757,
              47.971
            ]
          }
        },
        {
          "type": "Feature",
          "properties": {
            "id": "2631100542",
            "osm_type": "node",
            "lat": 47.9736666,
            "lon": 13.1022086,
            "addr:city": "Mattsee",
            "addr:housenumber": "30",
            "addr:postcode": "5163",
            "addr:street": "Passauer Straße",
            "description": "Porsche Oldtimer Museum und Erlebniswelt: Der fahr(T)raum im Salzburger Seenland in Mattsee ist viel mehr als nur ein Automuseum. Rennsimulator, Oldtimer Ausfahrten und E-Bike Verleih machen die Automobil Ausstellung zu einem besonderen Ausflugsziel und s",
            "email": "office@fahrtraum.at",
            "image": "https://www.fahrtraum.at/wp-content/uploads/2018/02/Logo_transparent.png",
            "museum": "history",
            "name": "fahr(T)raum - Ferdinand Porsche Erlebniswelten",
            "opening_hours": "Mo-Su 10:00-17:00",
            "phone": "+43 6217 59232",
            "start_date": "2013-06-13",
            "tourism": "museum",
            "website": "https://www.fahrtraum.at/",
            "wheelchair": "limited"
          },
          "geometry": {
            "type": "Point",
            "coordinates": [
              13.1022086,
              47.9736666
            ]
          }
        },
        {
          "type": "Feature",
          "properties": {
            "id": "2633592633",
            "osm_type": "node",
            "lat": 47.9362123,
            "lon": 13.0710454,
            "check_date": "2023-08-22",
            "name": "Museum im Einlegerhaus",
            "tourism": "museum",
            "wikidata": "Q87404504"
          },
          "geometry": {
            "type": "Point",
            "coordinates": [
              13.0710454,
              47.9362123
            ]
          }
        },
        {
          "type": "Feature",
          "properties": {
            "id": "4453610081",
            "osm_type": "node",
            "lat": 48.0052559,
            "lon": 13.2185551,
            "description": "Erinnerungsstätte für den 2,58 m größten Europäer, der jemals gelebt hat: Franz Winkelmeierder Riese von Lengau",
            "name": "Riesenmuseum",
            "tourism": "museum",
            "website": "https://riesevonlengau.at/"
          },
          "geometry": {
            "type": "Point",
            "coordinates": [
              13.2185551,
              48.0052559
            ]
          }
        }
      ],
      "children": []
    },
    {
      "bbox": {
        "south": 48.02541825,
        "west": 11.438358999999998,
        "north": 48.355971499999995,
        "east": 12.392062499999998
      },
      "poiCount": 78,
      "leafCount": 0,
      "averagePosition": [
        11.646794738461539,
        48.162997679487184
      ],
      "data": [],
      "children": [
        {
          "bbox": {
            "south": 48.02541825,
            "west": 11.438358999999998,
            "north": 48.190694875,
            "east": 11.915210749999998
          },
          "poiCount": 53,
          "leafCount": 0,
          "averagePosition": [
            11.58881305471698,
            48.13174081509434
          ],
          "data": [],
          "children": [
            {
              "bbox": {
                "south": 48.02541825,
                "west": 11.438358999999998,
                "north": 48.108056562499996,
                "east": 11.676784875
              },
              "poiCount": 6,
              "leafCount": 6,
              "averagePosition": [
                11.613504166666667,
                48.06534211666667
              ],
              "data": [
                {
                  "type": "Feature",
                  "properties": {
                    "id": "384926026",
                    "osm_type": "node",
                    "lat": 48.0428072,
                    "lon": 11.5195282,
                    "addr:city": "Grünwald",
                    "addr:country": "DE",
                    "addr:housenumber": "3",
                    "addr:postcode": "82031",
                    "addr:street": "Zeillerstraße",
                    "entrance": "main",
                    "fee": "yes",
                    "fee:icom_member": "no",
                    "name": "Burgmuseum Grünwald",
                    "opening_hours": "We-Su 10:00-16:30; Dec 01-Mar 14 off",
                    "tourism": "museum",
                    "website": "https://www.archaeologie.bayern/zweigmuseen/gruenwald/",
                    "wheelchair": "no",
                    "wikidata": "Q1015139",
                    "wikipedia": "de:Burgmuseum Grünwald"
                  },
                  "geometry": {
                    "type": "Point",
                    "coordinates": [
                      11.5195282,
                      48.0428072
                    ]
                  }
                },
                {
                  "type": "Feature",
                  "properties": {
                    "id": "250887769",
                    "osm_type": "node",
                    "lat": 48.0610628,
                    "lon": 11.6183891,
                    "fee": "no",
                    "name": "Heimatmuseum",
                    "opening_hours": "Su[2,4] 13:30-16:30",
                    "tourism": "museum",
                    "website": "https://www.heimatmuseum-unterhaching.de/",
                    "wheelchair": "limited",
                    "wikidata": "Q22694390"
                  },
                  "geometry": {
                    "type": "Point",
                    "coordinates": [
                      11.6183891,
                      48.0610628
                    ]
                  }
                },
                {
                  "type": "Feature",
                  "properties": {
                    "id": "253619308",
                    "osm_type": "node",
                    "lat": 48.0459346,
                    "lon": 11.6090967,
                    "check_date": "2023-09-02",
                    "fee": "no",
                    "name": "Keltenhaus",
                    "opening_hours": "\"Führungen können gerne mit dem Heimatpfleger vereinbart werden.\"",
                    "tourism": "museum",
                    "wheelchair": "no"
                  },
                  "geometry": {
                    "type": "Point",
                    "coordinates": [
                      11.6090967,
                      48.0459346
                    ]
                  }
                },
                {
                  "type": "Feature",
                  "properties": {
                    "id": "260432742",
                    "osm_type": "node",
                    "lat": 48.1030126,
                    "lon": 11.6022296,
                    "addr:city": "München",
                    "addr:country": "DE",
                    "addr:housenumber": "20",
                    "addr:postcode": "81549",
                    "addr:street": "Ständlerstraße",
                    "fee": "yes",
                    "fee:icom_member": "unknown",
                    "name": "MVG-Museum",
                    "opening_hours": "2019 Feb 03,2019 Feb 24,2019 Mar 09,2019 Mar 10,2019 Mar 24,2019 Apr 14,2019 Apr 21,2019 May 12,2019 May 26,2019 Jun 08,2019 Jun 09,2019 Jun 23,2019 Jul 07,2019 Jul 28 11:00-17:00; Aug off",
                    "operator": "Münchner Verkehrsgesellschaft",
                    "tourism": "museum",
                    "website": "https://www.mvg.de/ueber-die-mvg/mvg-museum.html",
                    "wheelchair": "limited",
                    "wikidata": "Q280024",
                    "wikipedia": "de:MVG Museum"
                  },
                  "geometry": {
                    "type": "Point",
                    "coordinates": [
                      11.6022296,
                      48.1030126
                    ]
                  }
                },
                {
                  "type": "Feature",
                  "properties": {
                    "id": "311595911",
                    "osm_type": "node",
                    "lat": 48.0645001,
                    "lon": 11.6648782,
                    "addr:city": "Ottobrunn",
                    "addr:country": "DE",
                    "addr:housenumber": "3",
                    "addr:postcode": "85521",
                    "addr:street": "Rathausstraße",
                    "fee": "no",
                    "level": "0",
                    "name": "Otto-König-von-Griechenland-Museum",
                    "opening_hours": "Th 15:00-18:00; Sa 10:00-13:00; Mo,Tu,We,Fr,Su,PH off",
                    "operator": "Gemeinde Ottobrunn",
                    "phone": "+49 89 60808-172",
                    "source": "survey",
                    "start_date": "03.12.1989",
                    "subject:wikidata": "Q77067",
                    "subject:wikipedia": "de:Otto (Griechenland)",
                    "toilets": "yes",
                    "tourism": "museum",
                    "website": "https://www.ottobrunn.de/ottobrunn-erleben/freizeit-geniessen/koenig-otto-museum",
                    "wheelchair": "limited",
                    "wheelchair:description": "Toiletten im Keller über Treppe, im Wolf-Ferrari-Haus eine Alternative",
                    "wikidata": "Q16665613",
                    "wikipedia": "de:Otto-König-von-Griechenland-Museum"
                  },
                  "geometry": {
                    "type": "Point",
                    "coordinates": [
                      11.6648782,
                      48.0645001
                    ]
                  }
                },
                {
                  "type": "Feature",
                  "properties": {
                    "id": "12922086318",
                    "osm_type": "node",
                    "lat": 48.0747354,
                    "lon": 11.6669032,
                    "addr:city": "Neubiberg",
                    "addr:country": "DE",
                    "addr:housenumber": "10",
                    "addr:postcode": "85579",
                    "addr:street": "Kaiserstraße",
                    "fee": "yes",
                    "fee:icom_member": "unknown",
                    "name": "Apothekarium Neubiberg",
                    "opening_hours": "Fr 14:00-18:00; Sa 12:00-16:00",
                    "tourism": "museum",
                    "website": "https://www.apothekarium.de/",
                    "wikidata": "Q134969063"
                  },
                  "geometry": {
                    "type": "Point",
                    "coordinates": [
                      11.6669032,
                      48.0747354
                    ]
                  }
                }
              ],
              "children": []
            },
            {
              "bbox": {
                "south": 48.02541825,
                "west": 11.676784875,
                "north": 48.108056562499996,
                "east": 11.915210749999998
              },
              "poiCount": 3,
              "leafCount": 3,
              "averagePosition": [
                11.827645733333332,
                48.063408333333335
              ],
              "data": [
                {
                  "type": "Feature",
                  "properties": {
                    "id": "492859350",
                    "osm_type": "node",
                    "lat": 48.0473436,
                    "lon": 11.7019513,
                    "fee:icom_member": "unknown",
                    "name": "Lebensraum Kunst",
                    "tourism": "museum"
                  },
                  "geometry": {
                    "type": "Point",
                    "coordinates": [
                      11.7019513,
                      48.0473436
                    ]
                  }
                },
                {
                  "type": "Feature",
                  "properties": {
                    "id": "7891265383",
                    "osm_type": "node",
                    "lat": 48.0684448,
                    "lon": 11.8930034,
                    "addr:city": "Kirchseeon",
                    "addr:country": "DE",
                    "addr:housenumber": "7",
                    "addr:postcode": "85614",
                    "addr:street": "Sportplatzweg",
                    "fee:icom_member": "unknown",
                    "level": "1",
                    "name": "Heimatmuseum Kirchseeon",
                    "opening_hours": "Oct-Mar: Su[2] 14:00-16:00",
                    "operator": "Verein für Heimatkunde Kirchseeon e.V.",
                    "tourism": "museum",
                    "website": "https://www.heimatmuseum-kirchseeon.de/"
                  },
                  "geometry": {
                    "type": "Point",
                    "coordinates": [
                      11.8930034,
                      48.0684448
                    ]
                  }
                },
                {
                  "type": "Feature",
                  "properties": {
                    "id": "9149329015",
                    "osm_type": "node",
                    "lat": 48.0744366,
                    "lon": 11.8879825,
                    "addr:city": "Kirchseeon",
                    "addr:housenumber": "19",
                    "addr:postcode": "85614",
                    "addr:street": "Münchner Straße",
                    "description": "Zugang via Pausenhof über Treppenturm Nähe B304",
                    "fee": "no",
                    "museum": "local",
                    "name": "MASKEUM",
                    "opening_hours": "Jan Sa,Su 10:00-16:00; week 5-13/2 Sa,Su 10:00-16:00",
                    "operator": "Perschten-Stiftung Kirchseeon",
                    "operator:type": "public",
                    "tourism": "museum",
                    "website": "https://www.maskeum.de/"
                  },
                  "geometry": {
                    "type": "Point",
                    "coordinates": [
                      11.8879825,
                      48.0744366
                    ]
                  }
                }
              ],
              "children": []
            },
            {
              "bbox": {
                "south": 48.108056562499996,
                "west": 11.438358999999998,
                "north": 48.190694875,
                "east": 11.676784875
              },
              "poiCount": 41,
              "leafCount": 41,
              "averagePosition": [
                11.557799160975609,
                48.14724683902439
              ],
              "data": [
                {
                  "type": "Feature",
                  "properties": {
                    "id": "296313563",
                    "osm_type": "node",
                    "lat": 48.1602752,
                    "lon": 11.5038365,
                    "contact:email": "museum@musmn.de",
                    "contact:phone": "+49 89 1795890",
                    "contact:website": "https://mmn-muenchen.snsb.de/",
                    "fee": "yes",
                    "fee:icom_member": "no",
                    "museum": "nature",
                    "name": "Mensch und Natur",
                    "name:de": "Museum Mensch und Natur",
                    "opening_hours": "Mo-Fr 09:00-17:00; Sa,Su 09:00-18:00",
                    "toilets:wheelchair": "yes",
                    "tourism": "museum",
                    "wheelchair": "yes",
                    "wikidata": "Q1954475",
                    "wikipedia": "de:Museum Mensch und Natur",
                    "wikipedia:en": "Museum of Man and Nature"
                  },
                  "geometry": {
                    "type": "Point",
                    "coordinates": [
                      11.5038365,
                      48.1602752
                    ]
                  }
                },
                {
                  "type": "Feature",
                  "properties": {
                    "id": "296314458",
                    "osm_type": "node",
                    "lat": 48.1565946,
                    "lon": 11.5044675,
                    "contact:email": "sgvnymphenburg@bsv.bayern.de",
                    "contact:phone": "+49 89 17908-0",
                    "fee": "yes",
                    "fee:icom_member": "no",
                    "name": "Marstallmuseum Nymphenburg",
                    "tourism": "museum",
                    "website": "https://www.schloss-nymphenburg.de/deutsch/marstall/index.htm",
                    "wheelchair": "limited",
                    "wikidata": "Q1902850",
                    "wikipedia": "de:Marstallmuseum Nymphenburg"
                  },
                  "geometry": {
                    "type": "Point",
                    "coordinates": [
                      11.5044675,
                      48.1565946
                    ]
                  }
                },
                {
                  "type": "Feature",
                  "properties": {
                    "id": "1337245468",
                    "osm_type": "node",
                    "lat": 48.1566526,
                    "lon": 11.5046228,
                    "fee": "yes",
                    "fee:icom_member": "no",
                    "layer": "1",
                    "name": "Porzellanmuseum München",
                    "opening_hours": "Apr-Oct Mo-Su 09:00-18:00; Nov-Mar Mo-Su 10:00-16:00",
                    "tourism": "museum",
                    "wheelchair": "yes",
                    "wikidata": "Q2105542",
                    "wikimedia_commons": "Category:Porzellanmuseum München",
                    "wikipedia": "de:Porzellanmuseum München"
                  },
                  "geometry": {
                    "type": "Point",
                    "coordinates": [
                      11.5046228,
                      48.1566526
                    ]
                  }
                },
                {
                  "type": "Feature",
                  "properties": {
                    "id": "2701938189",
                    "osm_type": "node",
                    "lat": 48.1575169,
                    "lon": 11.5090158,
                    "addr:city": "München",
                    "addr:housenumber": "1",
                    "addr:postcode": "80638",
                    "addr:street": "Südliches Schloßrondell",
                    "fee": "yes",
                    "fee:icom_member": "unknown",
                    "fixme": "Die Website https://kreibig-museum.com/ ist nicht erreichbar. Der letzte Snapshot von Archive.org https://web.archive.org/web/20180419001155/https://kreibig-museum.com/#expand ist von 2018. Kann bitte jemand vor Ort prüfen, ob das Museum noch exisitiert.",
                    "name": "Erwin von Kreibig Museum",
                    "opening_hours": "Tu-Su,Sa,Su 14:00-17:00",
                    "operator": "Erwin von Kreibig-Stiftung",
                    "subject:wikipedia": "de:Erwin von Kreibig",
                    "tourism": "museum",
                    "website": "https://museen-in-bayern.de/museen/detailseite-museum/erwin-von-kreibig-museum",
                    "wheelchair": "yes",
                    "wikidata": "Q76628635"
                  },
                  "geometry": {
                    "type": "Point",
                    "coordinates": [
                      11.5090158,
                      48.1575169
                    ]
                  }
                },
                {
                  "type": "Feature",
                  "properties": {
                    "id": "7645803209",
                    "osm_type": "node",
                    "lat": 48.1633541,
                    "lon": 11.4564068,
                    "addr:city": "München",
                    "addr:country": "DE",
                    "addr:housenumber": "15",
                    "addr:postcode": "81247",
                    "addr:street": "Seldweg",
                    "description": "Werke der Kinderbuchillustratorin Binnette Schroeder",
                    "fee": "yes",
                    "fee:icom_member": "unknown",
                    "name": "Binette-Schroeder-Kabinett",
                    "opening_hours": "Mo-Th 10:00-16:00; Fr 10:00-14:00; Sa-Su 14:00-17:00; PH off",
                    "operator": "Internationale Jugendbibliothek",
                    "phone": "+49 89 89 12 11 0",
                    "tourism": "museum",
                    "website": "https://www.ijb.de/ausstellungen/single/binette-schroeder-kabinett"
                  },
                  "geometry": {
                    "type": "Point",
                    "coordinates": [
                      11.4564068,
                      48.1633541
                    ]
                  }
                },
                {
                  "type": "Feature",
                  "properties": {
                    "id": "7660572699",
                    "osm_type": "node",
                    "lat": 48.1628279,
                    "lon": 11.4570457,
                    "addr:city": "München",
                    "addr:country": "DE",
                    "addr:housenumber": "15",
                    "addr:postcode": "81247",
                    "addr:street": "Seldweg",
                    "description": "Nachlass des Kinder- und Bilderbuchautors James Krüss (Anmeldung im Herrenhaus)",
                    "fee:icom_member": "unknown",
                    "name": "James-Krüss-Turm",
                    "opening_hours": "Mo-Th 10:00-16:00; Fr 10:00-14:00; Sa-Su off",
                    "operator": "Internationale Jugendbibliothek",
                    "phone": "+49 89 89 12 11 0",
                    "tourism": "museum",
                    "website": "https://www.ijb.de/ausstellungen/single/james-kruess-turm"
                  },
                  "geometry": {
                    "type": "Point",
                    "coordinates": [
                      11.4570457,
                      48.1628279
                    ]
                  }
                },
                {
                  "type": "Feature",
                  "properties": {
                    "id": "7660572700",
                    "osm_type": "node",
                    "lat": 48.1632327,
                    "lon": 11.4571363,
                    "addr:city": "München",
                    "addr:country": "DE",
                    "addr:housenumber": "15",
                    "addr:postcode": "81247",
                    "addr:street": "Seldweg",
                    "charge": "3 EUR",
                    "description": "Leben und Werk des Kinder- und Jugendbuchautors Michael Ende",
                    "fee": "yes",
                    "fee:icom_member": "unknown",
                    "name": "Michael-Ende-Museum",
                    "opening_hours": "Sa,Su 14:00-17:00",
                    "operator": "Internationale Jugendbibliothek",
                    "phone": "+49 89 89 12 11 0",
                    "source:start_date": "website",
                    "start_date": "1998",
                    "tourism": "museum",
                    "website": "https://www.ijb.de/ausstellungen/single/michael-ende-museum"
                  },
                  "geometry": {
                    "type": "Point",
                    "coordinates": [
                      11.4571363,
                      48.1632327
                    ]
                  }
                },
                {
                  "type": "Feature",
                  "properties": {
                    "id": "13052254557",
                    "osm_type": "node",
                    "lat": 48.1824003,
                    "lon": 11.5308736,
                    "name": "Erlebnismuseum Magic Bavaria",
                    "tourism": "museum"
                  },
                  "geometry": {
                    "type": "Point",
                    "coordinates": [
                      11.5308736,
                      48.1824003
                    ]
                  }
                },
                {
                  "type": "Feature",
                  "properties": {
                    "id": "60013074",
                    "osm_type": "node",
                    "lat": 48.1366906,
                    "lon": 11.5768793,
                    "addr:city": "München",
                    "addr:country": "DE",
                    "addr:housenumber": "15",
                    "addr:postcode": "80331",
                    "addr:street": "Marienplatz",
                    "check_date": "2025-08-06",
                    "check_date:opening_hours": "2025-08-06",
                    "email": "ivan.steiger@freenet.de",
                    "fax": "+49 89 2717014",
                    "fee": "yes",
                    "fee:icom_member": "unknown",
                    "name": "Spielzeugmuseum",
                    "name:de": "Spielzeugmuseum",
                    "name:en": "Toy Museum",
                    "name:fr": "Musée du jouet",
                    "name:ru": "Музей Игрушек",
                    "opening_hours": "Mo-Su,PH 10:00-17:30",
                    "operator": "Ivan Steiger",
                    "phone": "+49 89 2711969",
                    "tourism": "museum",
                    "website": "https://www.spielzeugmuseummuenchen.de/",
                    "wheelchair": "no",
                    "wikidata": "Q76628660"
                  },
                  "geometry": {
                    "type": "Point",
                    "coordinates": [
                      11.5768793,
                      48.1366906
                    ]
                  }
                },
                {
                  "type": "Feature",
                  "properties": {
                    "id": "249814994",
                    "osm_type": "node",
                    "lat": 48.1481129,
                    "lon": 11.572363,
                    "addr:city": "München",
                    "addr:housenumber": "41",
                    "addr:postcode": "80333",
                    "addr:street": "Theresienstraße",
                    "contact:email": "mineralogische.staatssammlung@lrz.uni-muenchen.de",
                    "contact:fax": "+49 89 2180 - 4334",
                    "contact:phone": "+49 89 2180 - 4312",
                    "contact:website": "https://msm.snsb.de/",
                    "description": "Besuchereingang: Marianne-von-Werefkin-Weg",
                    "fee": "yes",
                    "fee:icom_member": "no",
                    "level": "1",
                    "name": "Museum Mineralogia München",
                    "opening_hours": "Tu-Su,PH 13:00-17:00",
                    "tourism": "museum",
                    "wheelchair": "limited",
                    "wikidata": "Q1792764",
                    "wikipedia": "de:Museum Mineralogia München"
                  },
                  "geometry": {
                    "type": "Point",
                    "coordinates": [
                      11.572363,
                      48.1481129
                    ]
                  }
                },
                {
                  "type": "Feature",
                  "properties": {
                    "id": "261030708",
                    "osm_type": "node",
                    "lat": 48.1406325,
                    "lon": 11.5786154,
                    "addr:city": "München",
                    "addr:country": "DE",
                    "addr:housename": "Residenzmuseum",
                    "addr:housenumber": "3",
                    "addr:postcode": "80333",
                    "addr:street": "Max-Joseph-Platz",
                    "check_date": "2025-04-13",
                    "email": "residenzmuenchen@bsv.bayern.de",
                    "fee": "yes",
                    "fee:icom_member": "no",
                    "name": "Residenzmuseum und Schatzkammer",
                    "name:de": "Residenzmuseum und Schatzkammer",
                    "name:en": "Residence Museum and Treasury",
                    "name:it": "Museo della Residenz e Tesoro",
                    "name:zh": "慕尼黑寶物館",
                    "note": "letzter Einlass ist eine Stunde früher",
                    "opening_hours": "Apr 01-Oct 15: 09:00-18:00; Oct 16-Mar 31: 10:00-17:00",
                    "phone": "+49 89 29067-1",
                    "tourism": "museum",
                    "website": "https://www.residenz-muenchen.de/",
                    "wheelchair": "no",
                    "wikidata": "Q2145673",
                    "wikipedia": "de:Residenzmuseum"
                  },
                  "geometry": {
                    "type": "Point",
                    "coordinates": [
                      11.5786154,
                      48.1406325
                    ]
                  }
                },
                {
                  "type": "Feature",
                  "properties": {
                    "id": "305581866",
                    "osm_type": "node",
                    "lat": 48.1433855,
                    "lon": 11.5911498,
                    "addr:city": "München",
                    "addr:housenumber": "3",
                    "addr:postcode": "80538",
                    "addr:street": "Prinzregentenstraße",
                    "email": "bay.nationalmuseum@bnm.mwn.de",
                    "fee": "yes",
                    "fee:icom_member": "no",
                    "name": "Bayerisches Nationalmuseum",
                    "name:de": "Bayerisches Nationalmuseum",
                    "name:es": "Museo Nacional Bávaro",
                    "name:ru": "Баварский национальный музей",
                    "name:zh": "巴伐利亞博物館",
                    "opening_hours": "Tu,We,Fr-Su 10:00-17:00; Th 10:00-20:00",
                    "phone": "+49 89 21 12 40 1",
                    "tourism": "museum",
                    "website": "https://www.bayerisches-nationalmuseum.de/",
                    "wheelchair": "limited",
                    "wikidata": "Q631056",
                    "wikipedia": "de:Bayerisches Nationalmuseum"
                  },
                  "geometry": {
                    "type": "Point",
                    "coordinates": [
                      11.5911498,
                      48.1433855
                    ]
                  }
                },
                {
                  "type": "Feature",
                  "properties": {
                    "id": "307729968",
                    "osm_type": "node",
                    "lat": 48.1412382,
                    "lon": 11.5783094,
                    "addr:country": "DE",
                    "addr:housenumber": "1",
                    "addr:postcode": "80333",
                    "addr:street": "Residenzstraße",
                    "check_date": "2025-04-13",
                    "email": "info@staatliche-muenzsammlung.de",
                    "fee": "yes",
                    "fee:icom_member": "no",
                    "internet_access": "wlan",
                    "internet_access:fee": "no",
                    "internet_access:ssid": "@BayernWLAN",
                    "level": "1",
                    "name": "Staatliche Münzsammlung München",
                    "name:de": "Staatliche Münzsammlung München",
                    "name:en": "State Coin Collection Munich",
                    "opening_hours": "Tu-Su 10:00-17:00",
                    "payment:cash": "yes",
                    "payment:credit_cards": "yes",
                    "payment:debit_cards": "yes",
                    "phone": "+49 89 227221",
                    "tourism": "museum",
                    "website": "https://www.staatliche-muenzsammlung.de/",
                    "wheelchair": "no",
                    "wikidata": "Q28738691"
                  },
                  "geometry": {
                    "type": "Point",
                    "coordinates": [
                      11.5783094,
                      48.1412382
                    ]
                  }
                },
                {
                  "type": "Feature",
                  "properties": {
                    "id": "307729970",
                    "osm_type": "node",
                    "lat": 48.1436723,
                    "lon": 11.5805408,
                    "addr:city": "München",
                    "addr:country": "DE",
                    "addr:housenumber": "4a",
                    "addr:postcode": "80539",
                    "addr:street": "Galeriestraße",
                    "check_date": "2025-04-13",
                    "email": "info@deutschestheatermuseum.de",
                    "fee:icom_member": "no",
                    "name": "Deutsches Theatermuseum",
                    "name:de": "Deutsches Theatermuseum",
                    "name:zh": "慕尼黑王宮",
                    "opening_hours": "Tu-Su 11:00-17:00",
                    "phone": "+49 89 21069128",
                    "toilets:wheelchair": "no",
                    "tourism": "museum",
                    "website": "https://www.deutschestheatermuseum.de/",
                    "wheelchair": "no",
                    "wikidata": "Q1206066",
                    "wikipedia": "de:Deutsches Theatermuseum"
                  },
                  "geometry": {
                    "type": "Point",
                    "coordinates": [
                      11.5805408,
                      48.1436723
                    ]
                  }
                },
                {
                  "type": "Feature",
                  "properties": {
                    "id": "307734040",
                    "osm_type": "node",
                    "lat": 48.1476078,
                    "lon": 11.5640961,
                    "addr:city": "München",
                    "addr:housenumber": "37",
                    "addr:postcode": "80333",
                    "addr:street": "Luisenstraße",
                    "fee": "no",
                    "fee:icom_member": "no",
                    "name": "Geologisches Museum",
                    "opening_hours": "Mo-Th 08:00-16:00; Fr 08:00-14:00",
                    "tourism": "museum",
                    "wheelchair": "yes",
                    "wikidata": "Q1503250",
                    "wikipedia": "de:Geologisches Museum München"
                  },
                  "geometry": {
                    "type": "Point",
                    "coordinates": [
                      11.5640961,
                      48.1476078
                    ]
                  }
                },
                {
                  "type": "Feature",
                  "properties": {
                    "id": "307738674",
                    "osm_type": "node",
                    "lat": 48.1383389,
                    "lon": 11.5715942,
                    "addr:city": "München",
                    "addr:country": "DE",
                    "addr:housenumber": "2",
                    "addr:postcode": "80331",
                    "addr:street": "Neuhauser Straße",
                    "check_date": "2024-11-16",
                    "fax": "+49 89 2904037",
                    "fee": "yes",
                    "fee:icom_member": "unknown",
                    "name": "Deutsches Jagd- und Fischereimuseum",
                    "name:ru": "Немецкий музей охоты и рыболовства",
                    "opening_hours": "Mo-Su 09:30-17:00; Th 09:30-21:00",
                    "payment:cards": "no",
                    "payment:cash": "yes",
                    "payment:credit_cards": "no",
                    "payment:debit_cards": "no",
                    "phone": "+49 89 220522",
                    "tourism": "museum",
                    "website": "https://www.jagd-fischerei-museum.de/",
                    "wheelchair": "no",
                    "wikidata": "Q152966",
                    "wikimedia_commons": "Category:Deutsches Jagd- und Fischereimuseum",
                    "wikipedia": "de:Deutsches Jagd- und Fischereimuseum"
                  },
                  "geometry": {
                    "type": "Point",
                    "coordinates": [
                      11.5715942,
                      48.1383389
                    ]
                  }
                },
                {
                  "type": "Feature",
                  "properties": {
                    "id": "314035226",
                    "osm_type": "node",
                    "lat": 48.1357903,
                    "lon": 11.5805391,
                    "addr:city": "München",
                    "addr:country": "DE",
                    "addr:housenumber": "27",
                    "addr:postcode": "80331",
                    "addr:street": "Tal",
                    "contact:website": "https://www.wow-museum.de",
                    "email": "info@wow-museum.de",
                    "fee": "yes",
                    "fee:icom_member": "yes",
                    "name": "WOW Museum",
                    "opening_hours": "Su-Mo, We-Fr 10:00-20:00; Sa 09:00-20:00; Tu off",
                    "tourism": "museum"
                  },
                  "geometry": {
                    "type": "Point",
                    "coordinates": [
                      11.5805391,
                      48.1357903
                    ]
                  }
                },
                {
                  "type": "Feature",
                  "properties": {
                    "id": "344494568",
                    "osm_type": "node",
                    "lat": 48.1349538,
                    "lon": 11.5816508,
                    "access": "no",
                    "addr:city": "München",
                    "addr:country": "DE",
                    "addr:housenumber": "50",
                    "addr:postcode": "80331",
                    "addr:street": "Tal",
                    "check_date:opening_hours": "2024-06-10",
                    "description": "closed for renovations until mid 2026",
                    "fee": "yes",
                    "fee:icom_member": "unknown",
                    "name": "Valentin-Karlstadt-Musäum",
                    "note": "\"Musäum\" is not a typo",
                    "opening_hours": "2024 Oct 07-2026 Jun 01 closed \"Renovierung bis Mitte 2026\"",
                    "operator": "Stadt München",
                    "operator_type": "public",
                    "phone": "+49 89 223266",
                    "start_date": "1959",
                    "tourism": "museum",
                    "website": "https://www.valentin-karlstadt-musaeum.de/",
                    "wheelchair": "no",
                    "wikidata": "Q264209",
                    "wikipedia": "de:Valentin-Karlstadt-Musäum"
                  },
                  "geometry": {
                    "type": "Point",
                    "coordinates": [
                      11.5816508,
                      48.1349538
                    ]
                  }
                },
                {
                  "type": "Feature",
                  "properties": {
                    "id": "390909981",
                    "osm_type": "node",
                    "lat": 48.1492929,
                    "lon": 11.5790381,
                    "addr:city": "München",
                    "addr:country": "DE",
                    "addr:housenumber": "3",
                    "addr:postcode": "80799",
                    "addr:street": "Schellingstraße",
                    "addr:suburb": "Maxvorstadt",
                    "fee": "no",
                    "name": "A Museum of contemporary art",
                    "opening_hours": "We-Su 12:00-19:00; Mo,Tu,PH off",
                    "tourism": "museum"
                  },
                  "geometry": {
                    "type": "Point",
                    "coordinates": [
                      11.5790381,
                      48.1492929
                    ]
                  }
                },
                {
                  "type": "Feature",
                  "properties": {
                    "id": "443435665",
                    "osm_type": "node",
                    "lat": 48.1328002,
                    "lon": 11.570609,
                    "addr:city": "München",
                    "addr:country": "DE",
                    "addr:housenumber": "9",
                    "addr:postcode": "80331",
                    "addr:street": "Unterer Anger",
                    "check_date:opening_hours": "2023-04-12",
                    "fee": "no",
                    "museum": "technology",
                    "name": "Feuerwehrmuseum",
                    "opening_hours": "Sa 10:00-17:00",
                    "tourism": "museum",
                    "website": "https://stadt.muenchen.de/infos/feuerwehrausstellung-muenchen.html",
                    "wheelchair": "limited"
                  },
                  "geometry": {
                    "type": "Point",
                    "coordinates": [
                      11.570609,
                      48.1328002
                    ]
                  }
                },
                {
                  "type": "Feature",
                  "properties": {
                    "id": "654580309",
                    "osm_type": "node",
                    "lat": 48.145769,
                    "lon": 11.5634415,
                    "check_date:opening_hours": "2025-09-11",
                    "fee": "no",
                    "level": "-1",
                    "name": "Kunstbau",
                    "opening_hours": "Tu,We,Fr-Su 10:00-18:00; Th 10:00-20:00",
                    "tourism": "museum",
                    "wheelchair": "limited",
                    "wikidata": "Q76628637"
                  },
                  "geometry": {
                    "type": "Point",
                    "coordinates": [
                      11.5634415,
                      48.145769
                    ]
                  }
                },
                {
                  "type": "Feature",
                  "properties": {
                    "id": "656253064",
                    "osm_type": "node",
                    "lat": 48.135246,
                    "lon": 11.5802467,
                    "addr:city": "München",
                    "addr:country": "DE",
                    "addr:housenumber": "2",
                    "addr:postcode": "80331",
                    "addr:street": "Sterneckerstraße",
                    "check_date:opening_hours": "2023-02-27",
                    "contact:phone": "+49 89 2424 3941",
                    "contact:website": "https://www.bier-und-oktoberfestmuseum.de/",
                    "fee": "yes",
                    "fee:icom_member": "unknown",
                    "name": "Bier- und Oktoberfestmuseum",
                    "name:ru": "Музей пива и Октоберфеста",
                    "name:zh": "啤酒节博物馆",
                    "opening_hours": "Tu-Sa 13:00-19:00",
                    "operator": "Edith-Haberland-Wagner-Stiftung",
                    "tourism": "museum",
                    "wheelchair": "no",
                    "wikidata": "Q857725",
                    "wikimedia_commons": "Category:Bier- und Oktoberfestmuseum",
                    "wikipedia": "de:Bier- und Oktoberfestmuseum"
                  },
                  "geometry": {
                    "type": "Point",
                    "coordinates": [
                      11.5802467,
                      48.135246
                    ]
                  }
                },
                {
                  "type": "Feature",
                  "properties": {
                    "id": "704397712",
                    "osm_type": "node",
                    "lat": 48.1509389,
                    "lon": 11.5798366,
                    "addr:city": "München",
                    "addr:country": "DE",
                    "addr:housenumber": "1",
                    "addr:postcode": "80539",
                    "addr:street": "Geschwister-Scholl-Platz",
                    "check_date": "2025-07-03",
                    "contact:email": "info@weisse-rose-stiftung.de",
                    "contact:website": "https://www.weisse-rose-stiftung.de/denkstaette-weisse-rose-am-lichthof-der-lmu-muenchen/",
                    "fee": "no",
                    "museum": "history",
                    "name": "DenkStätte Weiße Rose",
                    "opening_hours": "Mo-Fr 10:30-16:30; Sa 11:30-16:00; PH off",
                    "operator": "Weiße Rose Stiftung e.V.",
                    "operator:type": "community",
                    "start_date": "1997-06-28",
                    "subject": "history",
                    "subject:wikidata": "Q153364",
                    "subject:wikipedia": "de:Weiße Rose",
                    "tourism": "museum",
                    "wheelchair": "yes",
                    "wheelchair:description": "Treppenlift nur an der südlichen Eingangstür der DenkStätte",
                    "wikidata": "Q55521383",
                    "wikipedia": "de:DenkStätte Weiße Rose"
                  },
                  "geometry": {
                    "type": "Point",
                    "coordinates": [
                      11.5798366,
                      48.1509389
                    ]
                  }
                },
                {
                  "type": "Feature",
                  "properties": {
                    "id": "719809011",
                    "osm_type": "node",
                    "lat": 48.1706959,
                    "lon": 11.5377973,
                    "fee": "no",
                    "mobile": "+49 176 76 79 82 44",
                    "name": "Borstei-Museum",
                    "opening_hours": "\"Öffnung nach Absprache per e-mail unter post@borstei-museum.de\"",
                    "tourism": "museum",
                    "website": "https://www.borsteimuseum-muenchen.de",
                    "wheelchair": "yes"
                  },
                  "geometry": {
                    "type": "Point",
                    "coordinates": [
                      11.5377973,
                      48.1706959
                    ]
                  }
                },
                {
                  "type": "Feature",
                  "properties": {
                    "id": "953031130",
                    "osm_type": "node",
                    "lat": 48.1256149,
                    "lon": 11.6058401,
                    "check_date:opening_hours": "2024-02-10",
                    "fee": "no",
                    "name": "Pfanni Museum",
                    "note": "Das Kartoffelmuseum ist geschlossen, online zu besichtigen via https://ottoeckart.de/kartoffelmuseum/",
                    "opening_hours": "closed",
                    "tourism": "museum",
                    "website": "https://ottoeckart.de/kartoffelmuseum/",
                    "wheelchair": "yes",
                    "wikidata": "Q832438"
                  },
                  "geometry": {
                    "type": "Point",
                    "coordinates": [
                      11.6058401,
                      48.1256149
                    ]
                  }
                },
                {
                  "type": "Feature",
                  "properties": {
                    "id": "1132403384",
                    "osm_type": "node",
                    "lat": 48.1370351,
                    "lon": 11.5775787,
                    "addr:city": "München",
                    "addr:country": "DE",
                    "addr:housenumber": "3",
                    "addr:postcode": "80331",
                    "addr:street": "Sparkassenstraße",
                    "amenity": "arts_centre",
                    "check_date:opening_hours": "2025-07-31",
                    "fee": "no",
                    "name": "Kunstarkaden",
                    "opening_hours": "Tu-Sa 13:00-19:00",
                    "phone": "+49 89 233 237 84",
                    "toilets:wheelchair": "no",
                    "tourism": "museum",
                    "website": "https://www.muenchen.de/sehenswuerdigkeiten/kunstarkaden",
                    "wheelchair": "limited",
                    "wheelchair:description": "Zugang ebenerdig, innen Rampe mit ca. 15 % Steigung, 1 Handlauf. 2 Behindertenparkplätze im Tal 2, 1 Platz Sparkassenstraße 17. Kein barrierefreies WC."
                  },
                  "geometry": {
                    "type": "Point",
                    "coordinates": [
                      11.5775787,
                      48.1370351
                    ]
                  }
                },
                {
                  "type": "Feature",
                  "properties": {
                    "id": "1132414558",
                    "osm_type": "node",
                    "lat": 48.1381554,
                    "lon": 11.5758936,
                    "addr:city": "München",
                    "addr:country": "DE",
                    "addr:housenumber": "8",
                    "addr:postcode": "80331",
                    "addr:street": "Marienplatz",
                    "amenity": "arts_centre",
                    "email": "rathausgalerie@muenchen.de",
                    "fee": "no",
                    "name": "Rathausgalerie | Kunsthalle",
                    "opening_hours": "Tu-Fr 13:00-19:00; Sa,Su 11:00-19:00",
                    "phone": "+49 89 233 284 08",
                    "tourism": "museum",
                    "website": "https://www.muenchen.de/sehenswuerdigkeiten/rathausgalerie",
                    "wheelchair": "limited"
                  },
                  "geometry": {
                    "type": "Point",
                    "coordinates": [
                      11.5758936,
                      48.1381554
                    ]
                  }
                },
                {
                  "type": "Feature",
                  "properties": {
                    "id": "1270683846",
                    "osm_type": "node",
                    "lat": 48.1827884,
                    "lon": 11.5996874,
                    "check_date": "2025-02-09",
                    "fee": "no",
                    "name": "Ausstellungshalle DomagkAteliers",
                    "note": "Name rührt von der ehemalige Funkkaserne an der Domagkstraße, Gebäude 50 her",
                    "opening_hours": "\"Künstlersonntag jeden 3. Sonntag im Monat von 15-18 Uhr\"",
                    "source": "http://http://www.atelierhaus-domagkpark.de/ausstellungshalle.html",
                    "tourism": "museum",
                    "wheelchair": "limited"
                  },
                  "geometry": {
                    "type": "Point",
                    "coordinates": [
                      11.5996874,
                      48.1827884
                    ]
                  }
                },
                {
                  "type": "Feature",
                  "properties": {
                    "id": "2497837304",
                    "osm_type": "node",
                    "lat": 48.1446864,
                    "lon": 11.5667305,
                    "addr:city": "München",
                    "addr:country": "DE",
                    "addr:housenumber": "10",
                    "addr:postcode": "80333",
                    "addr:street": "Katharina-von-Bora-Straße",
                    "fee": "no",
                    "name": "Museum für Abgüsse klassischer Bildwerke",
                    "opening_hours": "Mo,We,Fr 10:00-18:00; Tu,Th 10:00-20:00",
                    "phone": "+49 89 28927690",
                    "ref:isil": "DE-MUS-192614",
                    "tourism": "museum",
                    "website": "https://www.abgussmuseum.de/",
                    "wheelchair": "limited",
                    "wheelchair:description:de": "separater Eingang kann vom Personal geöffnet werden (siehe Webseite)",
                    "wheelchair:description:en": "separate entrance, contact porter (see website)",
                    "wheelchair:website": "http://www.abgussmuseum.de/de/ihr-besuch#Barrierefreiheit",
                    "wikidata": "Q323280",
                    "wikipedia": "de:Museum für Abgüsse Klassischer Bildwerke"
                  },
                  "geometry": {
                    "type": "Point",
                    "coordinates": [
                      11.5667305,
                      48.1446864
                    ]
                  }
                },
                {
                  "type": "Feature",
                  "properties": {
                    "id": "2503219196",
                    "osm_type": "node",
                    "lat": 48.1304885,
                    "lon": 11.5680434,
                    "description": "Verein für aktuelle Kunst und Kritik",
                    "fee": "no",
                    "name": "Kunstraum",
                    "opening_hours": "We-Su 14:00-19:00",
                    "phone": "+49 89 543 799 00",
                    "tourism": "museum",
                    "website": "https://www.kunstraum-muenchen.de/",
                    "wheelchair": "limited"
                  },
                  "geometry": {
                    "type": "Point",
                    "coordinates": [
                      11.5680434,
                      48.1304885
                    ]
                  }
                },
                {
                  "type": "Feature",
                  "properties": {
                    "id": "2866790927",
                    "osm_type": "node",
                    "lat": 48.1445389,
                    "lon": 11.5663772,
                    "check_date": "2023-06-28",
                    "fee:icom_member": "no",
                    "name": "Staatliche Graphische Sammlung",
                    "opening_hours": "Mo 14:00-17:00; Tu-Th 10:00-13:00, 14:00-17:00; Fr 10:00-13:00",
                    "tourism": "museum",
                    "website": "https://www.sgsm.eu/",
                    "wikidata": "Q464404",
                    "wikipedia": "de:Staatliche Graphische Sammlung München"
                  },
                  "geometry": {
                    "type": "Point",
                    "coordinates": [
                      11.5663772,
                      48.1445389
                    ]
                  }
                },
                {
                  "type": "Feature",
                  "properties": {
                    "id": "4027839155",
                    "osm_type": "node",
                    "lat": 48.1431639,
                    "lon": 11.5892237,
                    "check_date:opening_hours": "2023-09-13",
                    "entrance": "yes",
                    "fee": "yes",
                    "fee:icom_member": "no",
                    "name": "Sammlung Bollert",
                    "opening_hours": "Th-Su 10:00-17:00",
                    "tourism": "museum"
                  },
                  "geometry": {
                    "type": "Point",
                    "coordinates": [
                      11.5892237,
                      48.1431639
                    ]
                  }
                },
                {
                  "type": "Feature",
                  "properties": {
                    "id": "4217510193",
                    "osm_type": "node",
                    "lat": 48.1379753,
                    "lon": 11.5781484,
                    "addr:city": "München",
                    "addr:housenumber": "1",
                    "addr:street": "Alter Hof",
                    "fee": "no",
                    "name": "Ausstellung Münchner Kaiserburg",
                    "opening_hours": "Mo-Sa 10:00-18:00",
                    "toilets:wheelchair": "yes",
                    "tourism": "museum",
                    "website": "https://museen-in-bayern.de/infopoint/muencher-kaiserburg",
                    "wheelchair": "yes",
                    "wikidata": "Q25389131",
                    "wikimedia_commons": "Category:Münchner Kaiserburg"
                  },
                  "geometry": {
                    "type": "Point",
                    "coordinates": [
                      11.5781484,
                      48.1379753
                    ]
                  }
                },
                {
                  "type": "Feature",
                  "properties": {
                    "id": "5223300524",
                    "osm_type": "node",
                    "lat": 48.1469883,
                    "lon": 11.5682823,
                    "addr:city": "München",
                    "addr:country": "DE",
                    "addr:housenumber": "35",
                    "addr:postcode": "80333",
                    "addr:street": "Gabelsbergerstraße",
                    "architect": "Peter Böhm",
                    "architect:wikipedia": "de:Peter_Böhm_(Architekt)",
                    "description": "seit Juni 2013 hier (vorher in der Residenz)",
                    "fee": "yes",
                    "fee:icom_member": "no",
                    "name": "Staatliches Museum Ägyptischer Kunst",
                    "name:en": "State Museum of Egyptian Art",
                    "name:fr": "Musée d'État d'Art égyptien",
                    "name:uk": "Державний музей єгипетського мистецтва",
                    "opening_hours": "Tu 10:00-20:00; We-Su 10:00-18:00",
                    "phone": "+49 89 28927630",
                    "toilets:wheelchair": "yes",
                    "tourism": "museum",
                    "website": "https://smaek.de/",
                    "wheelchair": "yes",
                    "wheelchair:description": "Barrierefreier Zugang befindet sich auf der Rückseite der Portalwand!",
                    "wikidata": "Q464872",
                    "wikipedia": "de:Staatliches Museum Ägyptischer Kunst"
                  },
                  "geometry": {
                    "type": "Point",
                    "coordinates": [
                      11.5682823,
                      48.1469883
                    ]
                  }
                },
                {
                  "type": "Feature",
                  "properties": {
                    "id": "5951675866",
                    "osm_type": "node",
                    "lat": 48.1367011,
                    "lon": 11.570045,
                    "addr:city": "München",
                    "addr:country": "DE",
                    "addr:housenumber": "12",
                    "addr:postcode": "80331",
                    "addr:street": "Hotterstraße",
                    "contact:phone": "+49 89 215 524 310",
                    "contact:website": "https://www.muca.eu/",
                    "fee": "yes",
                    "fee:icom_member": "unknown",
                    "name": "MUCA",
                    "name:de": "Museum of Urban and Contemporary Art (MUCA)",
                    "name:en": "Museum of Urban and Contemporary Art (MUCA)",
                    "opening_hours": "We-Mo 10:00-20:00",
                    "toilets:wheelchair": "no",
                    "tourism": "museum",
                    "wheelchair": "limited",
                    "wikidata": "Q29464448",
                    "wikimedia_commons": "Category:Museum of Urban and Contemporary Art (München)",
                    "wikipedia": "de:Museum of Urban and Contemporary Art"
                  },
                  "geometry": {
                    "type": "Point",
                    "coordinates": [
                      11.570045,
                      48.1367011
                    ]
                  }
                },
                {
                  "type": "Feature",
                  "properties": {
                    "id": "7016954281",
                    "osm_type": "node",
                    "lat": 48.1391647,
                    "lon": 11.5682772,
                    "contact:phone": "+49 89 2199720",
                    "fee": "no",
                    "name": "Museum der Marianischen Männerkongregation",
                    "opening_hours": "Mo-We,Fr-Su 10:00-12:00,16:00-18:30; Th 10:00-12:00,16:00-21:00",
                    "tourism": "museum"
                  },
                  "geometry": {
                    "type": "Point",
                    "coordinates": [
                      11.5682772,
                      48.1391647
                    ]
                  }
                },
                {
                  "type": "Feature",
                  "properties": {
                    "id": "9521573099",
                    "osm_type": "node",
                    "lat": 48.1672287,
                    "lon": 11.5484056,
                    "fee": "no",
                    "museum": "history",
                    "name": "Timofei Fotoausstellung",
                    "tourism": "museum"
                  },
                  "geometry": {
                    "type": "Point",
                    "coordinates": [
                      11.5484056,
                      48.1672287
                    ]
                  }
                },
                {
                  "type": "Feature",
                  "properties": {
                    "id": "11099726845",
                    "osm_type": "node",
                    "lat": 48.1481178,
                    "lon": 11.5740913,
                    "addr:city": "München",
                    "addr:country": "DE",
                    "addr:housenumber": "35a",
                    "addr:postcode": "80333",
                    "addr:street": "Theresienstraße",
                    "contact:email": "info@museum-brandhorst.de",
                    "contact:phone": "+49 89 23805-2286",
                    "contact:website": "https://www.museum-brandhorst.de/",
                    "fee": "yes",
                    "fee:icom_member": "no",
                    "museum": "art",
                    "name": "Museum Brandhorst",
                    "name:de": "Museum Brandhorst",
                    "name:es": "Museo Brandhorst",
                    "name:ru": "Музей Брандхорста",
                    "opening_hours": "Tu,We,Fr-Su 10:00-18:00; Th 10:00-20:00",
                    "toilets:wheelchair": "yes",
                    "tourism": "museum",
                    "wheelchair": "yes",
                    "wikidata": "Q258597",
                    "wikimedia_commons": "Category:Museum Brandhorst",
                    "wikipedia": "de:Museum Brandhorst"
                  },
                  "geometry": {
                    "type": "Point",
                    "coordinates": [
                      11.5740913,
                      48.1481178
                    ]
                  }
                },
                {
                  "type": "Feature",
                  "properties": {
                    "id": "11933309402",
                    "osm_type": "node",
                    "lat": 48.1351078,
                    "lon": 11.5730339,
                    "addr:city": "München",
                    "addr:country": "DE",
                    "addr:housenumber": "1",
                    "addr:postcode": "80331",
                    "addr:street": "Sankt-Jakobs-Platz",
                    "contact:email": "stadtmuseum@muenchen.de",
                    "contact:fax": "+49 89 233-25033",
                    "contact:phone": "+49 89 233-22370",
                    "contact:website": "https://www.muenchner-stadtmuseum.de/",
                    "description": "Wegen Sanierungsarbeiten bis Juni 2027 geschlosen. Siehe: https://www.muenchner-stadtmuseum.de/generalsanierung",
                    "description:en": "Because of renovation closed until june 2027. See: https://www.muenchner-stadtmuseum.de/en/complete-renovation",
                    "fee": "yes",
                    "fee:icom_member": "unknown",
                    "name": "Münchner Stadtmuseum",
                    "name:es": "Museo de la Ciudad",
                    "opening_hours": "\"closed: see description\"",
                    "tourism": "museum",
                    "wheelchair": "yes",
                    "wheelchair:description": "Zugang ebenerdig vom Oberanger (großes Eisentor) über den Hof, rechts Rampe zur Eingangshalle. Lifts zu allen Etagen. 4 Behindertenparkplätze Sendlinger Straße 3. Barrierefreies WC im EG (Euroschloss) und UG. 1 Leihrollstuhl. Im Musikinstrumenten-Museums",
                    "wikidata": "Q452685",
                    "wikimedia_commons": "Category:Münchner Stadtmuseum",
                    "wikipedia": "de:Münchner Stadtmuseum"
                  },
                  "geometry": {
                    "type": "Point",
                    "coordinates": [
                      11.5730339,
                      48.1351078
                    ]
                  }
                },
                {
                  "type": "Feature",
                  "properties": {
                    "id": "11935589855",
                    "osm_type": "node",
                    "lat": 48.1475462,
                    "lon": 11.5718214,
                    "fee": "yes",
                    "fee:icom_member": "no",
                    "museum": "design",
                    "name": "Die neue Sammlung",
                    "name:en": "The design museum",
                    "opening_hours": "Tu-We,Fr-Su 10:00-18:00; Th 10:00-20:00",
                    "tourism": "museum",
                    "website": "https://www.die-neue-sammlung.de",
                    "wikidata": "Q286549",
                    "wikipedia": "en:Die Neue Sammlung"
                  },
                  "geometry": {
                    "type": "Point",
                    "coordinates": [
                      11.5718214,
                      48.1475462
                    ]
                  }
                },
                {
                  "type": "Feature",
                  "properties": {
                    "id": "12849415889",
                    "osm_type": "node",
                    "lat": 48.133799,
                    "lon": 11.5581738,
                    "addr:city": "München",
                    "addr:country": "DE",
                    "addr:housenumber": "54",
                    "addr:postcode": "80336",
                    "addr:street": "Goethestraße",
                    "fee": "yes",
                    "fee:icom_member": "unknown",
                    "name": "VS Interimsquartier des Museums Villa Stuck",
                    "opening_hours": "Tu-Su 12:00-20:00",
                    "tourism": "museum"
                  },
                  "geometry": {
                    "type": "Point",
                    "coordinates": [
                      11.5581738,
                      48.133799
                    ]
                  }
                }
              ],
              "children": []
            },
            {
              "bbox": {
                "south": 48.108056562499996,
                "west": 11.676784875,
                "north": 48.190694875,
                "east": 11.915210749999998
              },
              "poiCount": 3,
              "leafCount": 3,
              "averagePosition": [
                11.7244547,
                48.12095503333333
              ],
              "data": [
                {
                  "type": "Feature",
                  "properties": {
                    "id": "673715731",
                    "osm_type": "node",
                    "lat": 48.1329928,
                    "lon": 11.6966379,
                    "addr:city": "München",
                    "addr:housenumber": "10",
                    "addr:postcode": "81829",
                    "addr:street": "Willy-Brandt-Allee",
                    "contact:email": "info@kindermuseum-muenchen.de",
                    "contact:fax": "+49 89 540464418",
                    "contact:phone": "+49 89 54046440",
                    "contact:website": "https://www.kindermuseum-muenchen.de/",
                    "fee": "yes",
                    "fee:icom_member": "unknown",
                    "museum": "children",
                    "name": "Kindermuseum München",
                    "opening_hours": "Mo-Fr 08:00-17:00",
                    "operator": "Kulturreferats der Landeshauptstadt München",
                    "operator:type": "museum",
                    "tourism": "museum",
                    "wikidata": "Q1741730"
                  },
                  "geometry": {
                    "type": "Point",
                    "coordinates": [
                      11.6966379,
                      48.1329928
                    ]
                  }
                },
                {
                  "type": "Feature",
                  "properties": {
                    "id": "3224611723",
                    "osm_type": "node",
                    "lat": 48.1116942,
                    "lon": 11.7333354,
                    "addr:city": "Haar",
                    "addr:country": "DE",
                    "addr:housenumber": "33",
                    "addr:postcode": "85540",
                    "addr:street": "Leibstraße",
                    "contact:phone": "+49 89 4569919-0",
                    "fee": "no",
                    "name": "Haus der Donauschwaben",
                    "opening_hours": "Mo, Fr 09:00-11:00; We 09:00-15:00",
                    "operator": "Kulturzentrum Haus der Donauschwaben e.V.",
                    "tourism": "museum",
                    "website": "https://www.donauschwaben.bayern/"
                  },
                  "geometry": {
                    "type": "Point",
                    "coordinates": [
                      11.7333354,
                      48.1116942
                    ]
                  }
                },
                {
                  "type": "Feature",
                  "properties": {
                    "id": "5582928237",
                    "osm_type": "node",
                    "lat": 48.1181781,
                    "lon": 11.7433908,
                    "addr:housenumber": "76",
                    "addr:street": "Vockestraße",
                    "check_date": "2022-07-25",
                    "contact:email": "museum@kbo.de",
                    "contact:fax": "+49 89 4562-2960",
                    "contact:phone": "+49 89 4562-2821",
                    "contact:website": "https://kbo-iak.de/ueber-uns/psychiatrie-museum",
                    "fee": "no",
                    "internet_access": "no",
                    "name": "Psychiatriemuseum",
                    "opening_hours": "Su 14:00-16:00",
                    "operator": "Klinikum München-Ost",
                    "payment:cards": "no",
                    "payment:credit_cards": "no",
                    "payment:debit_cards": "no",
                    "tourism": "museum",
                    "wheelchair": "no"
                  },
                  "geometry": {
                    "type": "Point",
                    "coordinates": [
                      11.7433908,
                      48.1181781
                    ]
                  }
                }
              ],
              "children": []
            }
          ]
        },
        {
          "bbox": {
            "south": 48.02541825,
            "west": 11.915210749999998,
            "north": 48.190694875,
            "east": 12.392062499999998
          },
          "poiCount": 5,
          "leafCount": 5,
          "averagePosition": [
            12.07536958,
            48.0843113
          ],
          "data": [
            {
              "type": "Feature",
              "properties": {
                "id": "620383515",
                "osm_type": "node",
                "lat": 48.0729731,
                "lon": 11.9707861,
                "addr:city": "Ebersberg",
                "addr:country": "DE",
                "addr:housenumber": "2",
                "addr:postcode": "85560",
                "addr:street": "August-Birkmaier-Weg",
                "fee": "no",
                "name": "Grabkreuzmuseum M. Bergmeister",
                "opening_hours": "Sa 09:00-12:00",
                "tourism": "museum",
                "website": "https://bergmeister-kunstschmiede.de/p/grabkreuzmuseum/",
                "wheelchair": "no",
                "wikidata": "Q76627452"
              },
              "geometry": {
                "type": "Point",
                "coordinates": [
                  11.9707861,
                  48.0729731
                ]
              }
            },
            {
              "type": "Feature",
              "properties": {
                "id": "2131261751",
                "osm_type": "node",
                "lat": 48.1810526,
                "lon": 11.9782569,
                "fee": "no",
                "museum": "technology",
                "name": "Eicher Museum",
                "opening_hours": "Su 10:00-18:00, May-Oct: Sa 12:00-18:00; Dec 24-26, easter off",
                "operator": "Eicherfreunde Forstern e.V.",
                "phone": "+49 172 5677132",
                "tourism": "museum",
                "website": "http://www.eicherfreunde-forstern.de/",
                "wheelchair": "limited",
                "wikidata": "Q134296531"
              },
              "geometry": {
                "type": "Point",
                "coordinates": [
                  11.9782569,
                  48.1810526
                ]
              }
            },
            {
              "type": "Feature",
              "properties": {
                "id": "6042757554",
                "osm_type": "node",
                "lat": 48.0457008,
                "lon": 11.9640261,
                "addr:city": "Grafing bei München",
                "addr:country": "DE",
                "addr:housenumber": "10",
                "addr:postcode": "85567",
                "addr:street": "Bahnhofstraße",
                "fee:icom_member": "unknown",
                "name": "Museum der Stadt Grafing",
                "opening_hours": "Th 18:00-20:00; Su 14:00-16:00; PH off",
                "operator": "Förderverein Museum der Stadt Grafing e.V.",
                "start_date": "1965",
                "tourism": "museum",
                "website": "https://www.grafing.de/kultur-bildung-soziales/kultur-unterhaltung/ArchivMuseum/museum",
                "wheelchair": "no",
                "wikidata": "Q76627754",
                "wikimedia_commons": "Category:Museum der Stadt Grafing",
                "wikipedia": "de:Museum der Stadt Grafing"
              },
              "geometry": {
                "type": "Point",
                "coordinates": [
                  11.9640261,
                  48.0457008
                ]
              }
            },
            {
              "type": "Feature",
              "properties": {
                "id": "2356606794",
                "osm_type": "node",
                "lat": 48.060491,
                "lon": 12.2313381,
                "addr:city": "Wasserburg am Inn",
                "addr:country": "DE",
                "addr:housenumber": "8",
                "addr:postcode": "83512",
                "addr:street": "Schmidzeile",
                "fee:icom_member": "unknown",
                "name": "Galerie im Ganserhaus",
                "operator": "Arbeitskreis 68",
                "tourism": "museum",
                "website": "https://www.arbeitskreis68.de/",
                "wheelchair": "no"
              },
              "geometry": {
                "type": "Point",
                "coordinates": [
                  12.2313381,
                  48.060491
                ]
              }
            },
            {
              "type": "Feature",
              "properties": {
                "id": "2394875198",
                "osm_type": "node",
                "lat": 48.061339,
                "lon": 12.2324407,
                "addr:city": "Wasserburg am Inn",
                "addr:country": "DE",
                "addr:housenumber": "15",
                "addr:postcode": "83512",
                "addr:street": "Herrengasse",
                "fee": "yes",
                "fee:icom_member": "no",
                "name": "Städtisches Museum Wasserburg",
                "opening_hours": "Oct-Apr Tu-Su 13:00-16:00; May-Sep Tu-Su 13:00-17:00",
                "phone": "+49 8071 925290",
                "toilets:wheelchair": "no",
                "tourism": "museum",
                "website": "https://www.wasserburg.de/museum/startseite/",
                "wheelchair": "no",
                "wikidata": "Q27038208",
                "wikipedia": "de:Museum Wasserburg"
              },
              "geometry": {
                "type": "Point",
                "coordinates": [
                  12.2324407,
                  48.061339
                ]
              }
            }
          ],
          "children": []
        },
        {
          "bbox": {
            "south": 48.190694875,
            "west": 11.438358999999998,
            "north": 48.355971499999995,
            "east": 11.915210749999998
          },
          "poiCount": 18,
          "leafCount": 18,
          "averagePosition": [
            11.640684855555556,
            48.26038451111111
          ],
          "data": [
            {
              "type": "Feature",
              "properties": {
                "id": "653950587",
                "osm_type": "node",
                "lat": 48.2263596,
                "lon": 11.4679543,
                "fee": "yes",
                "fee:icom_member": "unknown",
                "name": "Heimatmuseum Karlsfeld",
                "opening_hours": "May,Jun,Jul,Sep,Oct: Sa 13:00-17:00",
                "tourism": "museum",
                "website": "https://heimatmuseum-karlsfeld.de/",
                "wikidata": "Q76628053"
              },
              "geometry": {
                "type": "Point",
                "coordinates": [
                  11.4679543,
                  48.2263596
                ]
              }
            },
            {
              "type": "Feature",
              "properties": {
                "id": "251071848",
                "osm_type": "node",
                "lat": 48.2284985,
                "lon": 11.6722355,
                "addr:city": "Ismaning",
                "addr:country": "DE",
                "addr:housenumber": "3b",
                "addr:postcode": "85737",
                "addr:street": "Schloßstraße",
                "fee": "yes",
                "fee:icom_member": "no",
                "name": "Kallmann-Museum",
                "opening_hours": "Tu-Sa 14:30-17:00; Su 13:00-17:00",
                "phone": "+49-89-9612948",
                "tourism": "museum",
                "website": "https://kallmann-museum.de/",
                "wikidata": "Q1722508"
              },
              "geometry": {
                "type": "Point",
                "coordinates": [
                  11.6722355,
                  48.2284985
                ]
              }
            },
            {
              "type": "Feature",
              "properties": {
                "id": "775977487",
                "osm_type": "node",
                "lat": 48.332589,
                "lon": 11.6164586,
                "addr:city": "Fürholzen",
                "addr:postcode": "85376",
                "addr:street": "Hetzenhauser Straße",
                "fee:icom_member": "unknown",
                "name": "Ofenladen & Museum",
                "tourism": "museum",
                "wpt_symbol": "Museum"
              },
              "geometry": {
                "type": "Point",
                "coordinates": [
                  11.6164586,
                  48.332589
                ]
              }
            },
            {
              "type": "Feature",
              "properties": {
                "id": "897055752",
                "osm_type": "node",
                "lat": 48.2285292,
                "lon": 11.6729545,
                "fee": "no",
                "name": "Schlossmuseum",
                "opening_hours": "Tu-Sa 14:30-17:00; Su 13:00-17:00",
                "tourism": "museum",
                "website": "https://schlossmuseum-ismaning.de/",
                "wikidata": "Q1301400",
                "wikipedia": "de:Schlossmuseum Ismaning"
              },
              "geometry": {
                "type": "Point",
                "coordinates": [
                  11.6729545,
                  48.2285292
                ]
              }
            },
            {
              "type": "Feature",
              "properties": {
                "id": "1913162143",
                "osm_type": "node",
                "lat": 48.249016,
                "lon": 11.5590862,
                "addr:city": "Oberschleißheim",
                "addr:housenumber": "1",
                "addr:postcode": "85764",
                "addr:street": "Max-Emanuel-Platz",
                "fee:icom_member": "no",
                "name": "Ökumenische Sammlung Gertrud Weinhold",
                "opening_hours": "Apr-Sep Tu-Su 09:00-18:00; Oct-Mar Tu-Su 10:00-16:00; Jan 1,Dec 24,Dec 25,Dec 31 off \"Faschingsdienstag geschlossen \"",
                "operator": "Bayerisches Nationalmuseum",
                "phone": "+49 89 31587212",
                "source": "Für Zugang zum Aufzug an der Kasse melden;Klingel im Durchgang zum Maximilianshof",
                "toilets:wheelchair": "yes",
                "tourism": "museum",
                "website": "https://www.bayerisches-nationalmuseum.de/index.php?id=578",
                "wheelchair": "yes",
                "wikidata": "Q76628972"
              },
              "geometry": {
                "type": "Point",
                "coordinates": [
                  11.5590862,
                  48.249016
                ]
              }
            },
            {
              "type": "Feature",
              "properties": {
                "id": "2119045253",
                "osm_type": "node",
                "lat": 48.3051317,
                "lon": 11.9108451,
                "addr:city": "Erding",
                "addr:housenumber": "1",
                "addr:postcode": "85435",
                "addr:street": "Prielmayerstraße",
                "email": "museum@erding.de",
                "fee": "no",
                "name": "Museum Erding",
                "opening_hours": "Tu-Su 13:00-17:00",
                "operator": "Stadt Erding",
                "phone": "+49 8122 408150",
                "tourism": "museum",
                "website": "https://www.museum-erding.de/",
                "wheelchair": "yes",
                "wikidata": "Q33216127"
              },
              "geometry": {
                "type": "Point",
                "coordinates": [
                  11.9108451,
                  48.3051317
                ]
              }
            },
            {
              "type": "Feature",
              "properties": {
                "id": "2449923681",
                "osm_type": "node",
                "lat": 48.2486892,
                "lon": 11.5590735,
                "addr:city": "Oberschleißheim",
                "addr:housenumber": "1",
                "addr:postcode": "85764",
                "addr:street": "Maximilianshof",
                "fee:icom_member": "no",
                "name": "Sammlung zur Landeskunde Ost- und Westpreußens",
                "opening_hours": "Apr-Sep Tu-Su 09:00-18:00; Oct-Mar Tu-Su 10:00-16:00; Jan 1,Dec 24,Dec 25,Dec 31 off \"Faschingsdienstag geschlossen \"",
                "operator": "Bayerisches Nationalmuseum",
                "phone": "+49 89 31587212",
                "toilets:wheelchair": "yes",
                "tourism": "museum",
                "website": "https://www.bayerisches-nationalmuseum.de/index.php?id=579",
                "wheelchair": "yes"
              },
              "geometry": {
                "type": "Point",
                "coordinates": [
                  11.5590735,
                  48.2486892
                ]
              }
            },
            {
              "type": "Feature",
              "properties": {
                "id": "2449924782",
                "osm_type": "node",
                "lat": 48.2485633,
                "lon": 11.575884,
                "addr:city": "Oberschleißheim",
                "addr:housename": "Schloß Lustheim",
                "addr:housenumber": "1",
                "addr:postcode": "85764",
                "addr:street": "Schloß Lustheim",
                "fee": "yes",
                "fee:icom_member": "no",
                "name": "Meißener Porzellan-Sammlung Stiftung Ernst Schneider",
                "note": "Bayerisches Nationalmuseum Prinzregentenstraße 3 80538 München Schloss- und Gartenverwaltung Schleißheim Max-Emanuel-Platz 1 85764 Oberschleißheim",
                "opening_hours": "Apr-Sep Tu-Su 09:00-18:00; Oct-Mar Tu-Su 10:00-16:00; Jan 1,Dec 24,Dec 25,Dec 31 off \"Faschingsdienstag geschlossen \"",
                "operator": "Bayerisches Nationalmuseum",
                "phone": "+49 89 31 58 72 42",
                "tourism": "museum",
                "website": "https://www.bayerisches-nationalmuseum.de/",
                "wheelchair": "limited",
                "wheelchair:description:de": "Die Musumsräume im Untergeschoss sind mit einer mobilen Treppensteighilfe zugänglich.",
                "wikidata": "Q76628981"
              },
              "geometry": {
                "type": "Point",
                "coordinates": [
                  11.575884,
                  48.2485633
                ]
              }
            },
            {
              "type": "Feature",
              "properties": {
                "id": "2935303788",
                "osm_type": "node",
                "lat": 48.2581415,
                "lon": 11.7832505,
                "addr:city": "Moosinning",
                "addr:country": "DE",
                "addr:housenumber": "74",
                "addr:postcode": "85452",
                "addr:street": "Eicherloher Straße",
                "fee:icom_member": "unknown",
                "name": "Krug- und Porzellan-Museum",
                "survey:date": "2014-06-26",
                "tourism": "museum"
              },
              "geometry": {
                "type": "Point",
                "coordinates": [
                  11.7832505,
                  48.2581415
                ]
              }
            },
            {
              "type": "Feature",
              "properties": {
                "id": "3825378059",
                "osm_type": "node",
                "lat": 48.2198752,
                "lon": 11.6246429,
                "addr:city": "München",
                "addr:housenumber": "5",
                "addr:postcode": "80939",
                "addr:street": "Franz-Beckenbauer-Platz",
                "description": "Eingang über Ebene 2",
                "fee:icom_member": "unknown",
                "level": "3",
                "name": "FC Bayern Museum",
                "opening_hours": "Mo-Su,PH 10:00-18:00; Dec 24-26 off; Dec 31 off; Jan 01 off; \"on matchdays see website\"",
                "tourism": "museum",
                "website": "https://fcbayern.com/museum/de"
              },
              "geometry": {
                "type": "Point",
                "coordinates": [
                  11.6246429,
                  48.2198752
                ]
              }
            },
            {
              "type": "Feature",
              "properties": {
                "id": "4425725572",
                "osm_type": "node",
                "lat": 48.2729332,
                "lon": 11.5701206,
                "contact:email": "heimatmuseum@ush.bayern.de",
                "contact:fax": "+49 89 31009168",
                "contact:phone": "+49 89 31009266",
                "contact:website": "https://www.forum-unterschleissheim.de/museum.html",
                "fee": "yes",
                "fee:icom_member": "unknown",
                "name": "Heimatmuseum Unterschleißheim",
                "opening_hours": "Tu 09:00-12:00; Th 16:00-19:00; Su[1] 13:00-16:00; PH off",
                "tourism": "museum",
                "wikidata": "Q76629633"
              },
              "geometry": {
                "type": "Point",
                "coordinates": [
                  11.5701206,
                  48.2729332
                ]
              }
            },
            {
              "type": "Feature",
              "properties": {
                "id": "4938178542",
                "osm_type": "node",
                "lat": 48.2629784,
                "lon": 11.6731681,
                "addr:city": "Garching bei München",
                "addr:country": "DE",
                "addr:housenumber": "2",
                "addr:postcode": "85748",
                "addr:street": "Boltzmannstraße",
                "contact:website": "https://www.ipp.mpg.de/3855105/besucherzentrum",
                "fee:icom_member": "unknown",
                "internet_access": "wlan;terminal",
                "internet_access:fee": "no",
                "internet_access:ssid": "D2-Gast",
                "name": "IPP Besucherzentrum",
                "name:de": "IPP Besucherzentrum",
                "name:en": "IPP Visitor center",
                "name:it": "IPP centro visitatori",
                "opening_hours": "Mo-Fr 08:00-18:00",
                "operator": "Max-Planck Institut für Plasmaphysik",
                "tourism": "museum",
                "wheelchair": "yes"
              },
              "geometry": {
                "type": "Point",
                "coordinates": [
                  11.6731681,
                  48.2629784
                ]
              }
            },
            {
              "type": "Feature",
              "properties": {
                "id": "5609365983",
                "osm_type": "node",
                "lat": 48.1917041,
                "lon": 11.6437443,
                "addr:city": "Unterföhring",
                "addr:country": "DE",
                "addr:housenumber": "12",
                "addr:postcode": "85774",
                "addr:street": "Bahnhofstraße",
                "fee": "no",
                "name": "Feringer Sach",
                "opening_hours": "We 16:00-19:00; Su[1] 14:00-17:00",
                "operator": "Museum und Heimatverein Unterföhring",
                "tourism": "museum",
                "website": "https://feringer-sach.byseum.de/",
                "wikidata": "Q76629627"
              },
              "geometry": {
                "type": "Point",
                "coordinates": [
                  11.6437443,
                  48.1917041
                ]
              }
            },
            {
              "type": "Feature",
              "properties": {
                "id": "12630648596",
                "osm_type": "node",
                "lat": 48.3071712,
                "lon": 11.91143,
                "addr:city": "Erding",
                "addr:country": "DE",
                "addr:housenumber": "31",
                "addr:postcode": "85435",
                "addr:street": "Landshuter Straße",
                "fee": "no",
                "name": "Museum Franz Xaver Stahl",
                "operator": "Stadt Erding",
                "tourism": "museum",
                "website": "https://www.erding.de/museum-franz-xaver-stahl",
                "wikidata": "Q116142821"
              },
              "geometry": {
                "type": "Point",
                "coordinates": [
                  11.91143,
                  48.3071712
                ]
              }
            },
            {
              "type": "Feature",
              "properties": {
                "id": "12862869634",
                "osm_type": "node",
                "lat": 48.2396542,
                "lon": 11.5505258,
                "fee": "no",
                "name": "Haus der Ost- und Westpreußen",
                "opening_hours": "Tu, Th 09:00-12:00",
                "tourism": "museum",
                "website": "https://owp-stiftung.de/",
                "wikidata": "Q76628977"
              },
              "geometry": {
                "type": "Point",
                "coordinates": [
                  11.5505258,
                  48.2396542
                ]
              }
            },
            {
              "type": "Feature",
              "properties": {
                "id": "12899797032",
                "osm_type": "node",
                "lat": 48.3195248,
                "lon": 11.5559082,
                "addr:city": "Haimhausen",
                "addr:housenumber": "11",
                "addr:postcode": "85778",
                "addr:street": "Pfarrstraße",
                "fee:icom_member": "unknown",
                "name": "Heimatmuseum",
                "tourism": "museum",
                "website": "https://www.heimatmuseum-haimhausen.de/",
                "wikidata": "Q76627810"
              },
              "geometry": {
                "type": "Point",
                "coordinates": [
                  11.5559082,
                  48.3195248
                ]
              }
            },
            {
              "type": "Feature",
              "properties": {
                "id": "12993997910",
                "osm_type": "node",
                "lat": 48.2990689,
                "lon": 11.6241075,
                "building:levels": "-1",
                "fee": "no",
                "museum": "history",
                "name": "Bäuerliche Gerätesammlung",
                "tourism": "museum",
                "website": "https://www.tourismus-kreis-freising.de/attraktionen/baeuerliche-geraetesammlung-auf-dem-gfild-9924fa9950"
              },
              "geometry": {
                "type": "Point",
                "coordinates": [
                  11.6241075,
                  48.2990689
                ]
              }
            },
            {
              "type": "Feature",
              "properties": {
                "id": "13108813194",
                "osm_type": "node",
                "lat": 48.2484932,
                "lon": 11.5609378,
                "name": "Staatsgalerie im Neuen Schloss Schleißheim, Bayerische Staatsgemäldesammlung",
                "tourism": "museum"
              },
              "geometry": {
                "type": "Point",
                "coordinates": [
                  11.5609378,
                  48.2484932
                ]
              }
            }
          ],
          "children": []
        },
        {
          "bbox": {
            "south": 48.190694875,
            "west": 11.915210749999998,
            "north": 48.355971499999995,
            "east": 12.392062499999998
          },
          "poiCount": 2,
          "leafCount": 2,
          "averagePosition": [
            12.1668612,
            48.31153905
          ],
          "data": [
            {
              "type": "Feature",
              "properties": {
                "id": "2129504901",
                "osm_type": "node",
                "lat": 48.3444279,
                "lon": 12.1281385,
                "fee": "yes",
                "fee:icom_member": "unknown",
                "museum": "nature",
                "name": "Urzeitmuseum",
                "source": "bing & bayernatlas",
                "tourism": "museum",
                "website": "https://urzeitmuseum.de",
                "wikidata": "Q116200928",
                "wikipedia": "de:Urzeitmuseum (Taufkirchen)"
              },
              "geometry": {
                "type": "Point",
                "coordinates": [
                  12.1281385,
                  48.3444279
                ]
              }
            },
            {
              "type": "Feature",
              "properties": {
                "id": "11182049381",
                "osm_type": "node",
                "lat": 48.2786502,
                "lon": 12.2055839,
                "fee": "no",
                "name": "Kleines Torfmuseum",
                "opening_hours": "24/7",
                "operator": "Isenia Schützen",
                "tourism": "museum"
              },
              "geometry": {
                "type": "Point",
                "coordinates": [
                  12.2055839,
                  48.2786502
                ]
              }
            }
          ],
          "children": []
        }
      ]
    },
    {
      "bbox": {
        "south": 48.02541825,
        "west": 12.392062499999998,
        "north": 48.355971499999995,
        "east": 13.345766
      },
      "poiCount": 30,
      "leafCount": 30,
      "averagePosition": [
        12.762696366666667,
        48.195191189999996
      ],
      "data": [
        {
          "type": "Feature",
          "properties": {
            "id": "421814540",
            "osm_type": "node",
            "lat": 48.2543422,
            "lon": 12.4133011,
            "description": "Windrad, Dampfmaschine, Pferdekopfpumpe (Erdölförderung 1954-1997)",
            "fee": "no",
            "name": "Industriedenkmal",
            "tourism": "museum"
          },
          "geometry": {
            "type": "Point",
            "coordinates": [
              12.4133011,
              48.2543422
            ]
          }
        },
        {
          "type": "Feature",
          "properties": {
            "id": "861964961",
            "osm_type": "node",
            "lat": 48.2080274,
            "lon": 12.4061064,
            "name": "Stadtmuseum",
            "tourism": "museum",
            "wheelchair": "yes",
            "wikidata": "Q76629700"
          },
          "geometry": {
            "type": "Point",
            "coordinates": [
              12.4061064,
              48.2080274
            ]
          }
        },
        {
          "type": "Feature",
          "properties": {
            "id": "2346549773",
            "osm_type": "node",
            "lat": 48.2401702,
            "lon": 12.5261392,
            "description": "Das schräge \"Mühldorfer Jagdmusseum\" für Jäger und Gejagte. \"... originelle Skurrilitätensammlung.\"",
            "name": "Jagdmusseum",
            "opening_hours": "We 14:00-18:00",
            "operator": "Hans Kotter",
            "tourism": "museum",
            "url": "http://www.muehldorf.de/files/jagdmusseum.pdf",
            "website": "http://www.musseum.de/",
            "wikidata": "Q76628597"
          },
          "geometry": {
            "type": "Point",
            "coordinates": [
              12.5261392,
              48.2401702
            ]
          }
        },
        {
          "type": "Feature",
          "properties": {
            "id": "2633426262",
            "osm_type": "node",
            "lat": 48.0362683,
            "lon": 12.46335,
            "addr:housenumber": "3",
            "addr:street": "Trostberger Straße",
            "museum": "local",
            "name": "Dorfmuseum und Heimatgeschichte Kienberg",
            "tourism": "museum"
          },
          "geometry": {
            "type": "Point",
            "coordinates": [
              12.46335,
              48.0362683
            ]
          }
        },
        {
          "type": "Feature",
          "properties": {
            "id": "11008090301",
            "osm_type": "node",
            "lat": 48.2078231,
            "lon": 12.4059007,
            "name": "Sammlung Peter Schmidt",
            "tourism": "museum",
            "wikidata": "Q119981732"
          },
          "geometry": {
            "type": "Point",
            "coordinates": [
              12.4059007,
              48.2078231
            ]
          }
        },
        {
          "type": "Feature",
          "properties": {
            "id": "11008090302",
            "osm_type": "node",
            "lat": 48.208131,
            "lon": 12.406236,
            "name": "Glasmuseum",
            "tourism": "museum",
            "wikidata": "Q1529702",
            "wikipedia": "de:Glasmuseum Waldkraiburg"
          },
          "geometry": {
            "type": "Point",
            "coordinates": [
              12.406236,
              48.208131
            ]
          }
        },
        {
          "type": "Feature",
          "properties": {
            "id": "11008090303",
            "osm_type": "node",
            "lat": 48.1831405,
            "lon": 12.4270949,
            "fee": "yes",
            "name": "Heimatmuseum Kraiburg am Inn",
            "opening_hours": "\"April bis Oktober: Jeder erste Sonntag im Monat von 14:00 - 17:00. November bis März geschlossen.\"",
            "tourism": "museum",
            "wikidata": "Q76628231"
          },
          "geometry": {
            "type": "Point",
            "coordinates": [
              12.4270949,
              48.1831405
            ]
          }
        },
        {
          "type": "Feature",
          "properties": {
            "id": "289685652",
            "osm_type": "node",
            "lat": 48.1640168,
            "lon": 12.8326409,
            "fee": "yes",
            "name": "Haus der Fotografie",
            "opening_hours": "Apr-Oct Mo-Su 10:00-18:00",
            "tourism": "museum",
            "wheelchair": "yes"
          },
          "geometry": {
            "type": "Point",
            "coordinates": [
              12.8326409,
              48.1640168
            ]
          }
        },
        {
          "type": "Feature",
          "properties": {
            "id": "1488847487",
            "osm_type": "node",
            "lat": 48.2665638,
            "lon": 13.0287341,
            "description": "Das Museum beinhaltet die J. K. Nerud Galerie.",
            "name": "Heimatmuseum Simbach am Inn",
            "opening_hours": "Tu 15:00-17:00; Fr 18:00-20:00",
            "tourism": "museum",
            "wheelchair": "limited",
            "wikidata": "Q76629492"
          },
          "geometry": {
            "type": "Point",
            "coordinates": [
              13.0287341,
              48.2665638
            ]
          }
        },
        {
          "type": "Feature",
          "properties": {
            "id": "1639165762",
            "osm_type": "node",
            "lat": 48.131588,
            "lon": 12.5831304,
            "level": "2",
            "name": "Heimatmuseum",
            "operator": "Heimatbund Garching",
            "tourism": "museum",
            "website": "https://www.heimatbund-garching.de/",
            "wheelchair": "yes"
          },
          "geometry": {
            "type": "Point",
            "coordinates": [
              12.5831304,
              48.131588
            ]
          }
        },
        {
          "type": "Feature",
          "properties": {
            "id": "2178141378",
            "osm_type": "node",
            "lat": 48.227179,
            "lon": 12.6764109,
            "alt_name": "Papst-Benedikt-Schatzkammer",
            "name": "Neue Schatzkammer und Wallfahrtsmuseum",
            "toilets:wheelchair": "yes",
            "tourism": "museum",
            "website": "https://www.gnadenort-altoetting.de/geschichte-institutionen/haus-papst-benedikt",
            "wheelchair": "yes"
          },
          "geometry": {
            "type": "Point",
            "coordinates": [
              12.6764109,
              48.227179
            ]
          }
        },
        {
          "type": "Feature",
          "properties": {
            "id": "2534056118",
            "osm_type": "node",
            "lat": 48.0963333,
            "lon": 12.773464,
            "name": "Gedenkstätte und Museum Franz Jägerstätter",
            "subject:wikidata": "Q45243",
            "subject:wikipedia": "de:Franz Jägerstätter",
            "tourism": "museum"
          },
          "geometry": {
            "type": "Point",
            "coordinates": [
              12.773464,
              48.0963333
            ]
          }
        },
        {
          "type": "Feature",
          "properties": {
            "id": "3708474725",
            "osm_type": "node",
            "lat": 48.0799643,
            "lon": 12.5343601,
            "contact:phone": "+49 8622 220",
            "contact:website": "http://www.chiemgauer-schulmuseum.de",
            "name": "Chiemgauer Schulmuseum",
            "opening_hours": "\"nach Vereinbarung\"",
            "tourism": "museum",
            "wikidata": "Q1072434"
          },
          "geometry": {
            "type": "Point",
            "coordinates": [
              12.5343601,
              48.0799643
            ]
          }
        },
        {
          "type": "Feature",
          "properties": {
            "id": "4551296090",
            "osm_type": "node",
            "lat": 48.0435809,
            "lon": 12.9470941,
            "addr:postcode": "5141",
            "name": "Kleines Moormuseum",
            "operator": "Ludwig Wolfersberger",
            "phone": "004366473857161",
            "tourism": "museum",
            "website": "http://www.arge-kultur.at"
          },
          "geometry": {
            "type": "Point",
            "coordinates": [
              12.9470941,
              48.0435809
            ]
          }
        },
        {
          "type": "Feature",
          "properties": {
            "id": "4661237964",
            "osm_type": "node",
            "lat": 48.2267339,
            "lon": 12.6751481,
            "fee": "yes",
            "museum": "history",
            "name": "Dioramenschau",
            "toilets:wheelchair": "no",
            "tourism": "museum",
            "website": "https://www.altoettinger-marienwerk.de/",
            "wheelchair": "yes",
            "wikidata": "Q76626980"
          },
          "geometry": {
            "type": "Point",
            "coordinates": [
              12.6751481,
              48.2267339
            ]
          }
        },
        {
          "type": "Feature",
          "properties": {
            "id": "4661237968",
            "osm_type": "node",
            "lat": 48.2271629,
            "lon": 12.6743032,
            "check_date": "2023-08-27",
            "name": "Bruder-Konrad-Ausstellung",
            "tourism": "museum"
          },
          "geometry": {
            "type": "Point",
            "coordinates": [
              12.6743032,
              48.2271629
            ]
          }
        },
        {
          "type": "Feature",
          "properties": {
            "id": "4663447327",
            "osm_type": "node",
            "lat": 48.2261518,
            "lon": 12.6776119,
            "check_date": "2023-08-27",
            "name": "Stadtgalerie",
            "toilets:wheelchair": "no",
            "tourism": "museum",
            "wheelchair": "no"
          },
          "geometry": {
            "type": "Point",
            "coordinates": [
              12.6776119,
              48.2261518
            ]
          }
        },
        {
          "type": "Feature",
          "properties": {
            "id": "5200913158",
            "osm_type": "node",
            "lat": 48.2413451,
            "lon": 12.6832028,
            "addr:city": "Neuötting",
            "addr:country": "DE",
            "addr:housenumber": "12",
            "addr:postcode": "84524",
            "addr:street": "Ludwigstraße",
            "check_date": "2023-08-27",
            "name": "Stadtmuseum",
            "opening_hours": "Mo-Fr 09:30-12:00,14:00-17:00; Sa-Su 14:00-17:00",
            "operator": "Stadt Neuötting",
            "phone": "+49 8671 8837113",
            "tourism": "museum",
            "website": "https://www.neuoetting.de/",
            "wikidata": "Q76628783"
          },
          "geometry": {
            "type": "Point",
            "coordinates": [
              12.6832028,
              48.2413451
            ]
          }
        },
        {
          "type": "Feature",
          "properties": {
            "id": "6376821234",
            "osm_type": "node",
            "lat": 48.1563781,
            "lon": 12.8290157,
            "addr:city": "Burghausen",
            "addr:country": "DE",
            "addr:housenumber": "48",
            "addr:postcode": "84489",
            "addr:street": "Burg",
            "fee": "yes",
            "name": "Stadtmuseum Burghausen",
            "opening_hours": "Apr-Oct: Mo-Su,PH 09:00-18:00",
            "phone": "+49 8677 65198",
            "tourism": "museum",
            "wheelchair": "limited"
          },
          "geometry": {
            "type": "Point",
            "coordinates": [
              12.8290157,
              48.1563781
            ]
          }
        },
        {
          "type": "Feature",
          "properties": {
            "id": "6376821235",
            "osm_type": "node",
            "lat": 48.1561993,
            "lon": 12.8293124,
            "addr:city": "Burghausen",
            "addr:country": "DE",
            "addr:housenumber": "48",
            "addr:postcode": "84489",
            "addr:street": "Burg",
            "fee": "yes",
            "fee:icom_member": "no",
            "name": "Staatliches Burgmuseum",
            "opening_hours": "Oct-Mar PH,Mo-Su 10:00-16:00; Apr-Sep PH,Mo-Su 09:00-18:00; \"24.12.,25.12.,31.12.,01.01,Faschingsdienstag closed\"",
            "tourism": "museum",
            "wikidata": "Q76627302"
          },
          "geometry": {
            "type": "Point",
            "coordinates": [
              12.8293124,
              48.1561993
            ]
          }
        },
        {
          "type": "Feature",
          "properties": {
            "id": "6378769610",
            "osm_type": "node",
            "lat": 48.2538161,
            "lon": 12.8419527,
            "addr:city": "Marktl",
            "addr:country": "DE",
            "addr:housenumber": "1",
            "addr:postcode": "84533",
            "addr:street": "Marktplatz",
            "fee": "yes",
            "museum": "local",
            "name": "Heimatmuseum",
            "phone": "+49 8678 8104",
            "ref:isil": "DE-MUS-091818",
            "survey:date": "2019-03-30",
            "tourism": "museum",
            "website": "https://www.marktl.de/deu/heimatmuseum.php"
          },
          "geometry": {
            "type": "Point",
            "coordinates": [
              12.8419527,
              48.2538161
            ]
          }
        },
        {
          "type": "Feature",
          "properties": {
            "id": "6443952449",
            "osm_type": "node",
            "lat": 48.2572372,
            "lon": 12.5883488,
            "addr:city": "Töging am Inn",
            "addr:country": "DE",
            "addr:housenumber": "6",
            "addr:postcode": "84513",
            "addr:street": "Kirchstraße",
            "contact:phone": "+49 8631 90700",
            "name": "Heimatmuseum",
            "tourism": "museum"
          },
          "geometry": {
            "type": "Point",
            "coordinates": [
              12.5883488,
              48.2572372
            ]
          }
        },
        {
          "type": "Feature",
          "properties": {
            "id": "7810350859",
            "osm_type": "node",
            "lat": 48.060839,
            "lon": 12.7631182,
            "name": "Museum Rupertiwinkel",
            "tourism": "museum"
          },
          "geometry": {
            "type": "Point",
            "coordinates": [
              12.7631182,
              48.060839
            ]
          }
        },
        {
          "type": "Feature",
          "properties": {
            "id": "11928077765",
            "osm_type": "node",
            "lat": 48.0454519,
            "lon": 12.8834733,
            "name": "Bauern- und Heimatmuseum",
            "tourism": "museum",
            "website": "https://www.ooemuseen.at/museum/133-bauern-und-heimatmuseum",
            "wikidata": "Q1595621",
            "wikipedia": "de:Bauernmuseum Anthalerstadl"
          },
          "geometry": {
            "type": "Point",
            "coordinates": [
              12.8834733,
              48.0454519
            ]
          }
        },
        {
          "type": "Feature",
          "properties": {
            "id": "12901765762",
            "osm_type": "node",
            "lat": 48.2087559,
            "lon": 12.5911903,
            "fee": "no",
            "name": "Heimatmuseum",
            "tourism": "museum"
          },
          "geometry": {
            "type": "Point",
            "coordinates": [
              12.5911903,
              48.2087559
            ]
          }
        },
        {
          "type": "Feature",
          "properties": {
            "id": "311731295",
            "osm_type": "node",
            "lat": 48.3477467,
            "lon": 13.283184,
            "name": "Schnapsmuseum",
            "tourism": "museum"
          },
          "geometry": {
            "type": "Point",
            "coordinates": [
              13.283184,
              48.3477467
            ]
          }
        },
        {
          "type": "Feature",
          "properties": {
            "id": "957065597",
            "osm_type": "node",
            "lat": 48.3225952,
            "lon": 13.335776,
            "contact:phone": "+43 7758 2255",
            "contact:website": "http://www.museum-obernberg.at/",
            "name": "Heimatmuseum Obernberg am Inn",
            "opening_hours": "May-Oct: Fr-Su 13:30-16:00",
            "tourism": "museum",
            "wheelchair": "no"
          },
          "geometry": {
            "type": "Point",
            "coordinates": [
              13.335776,
              48.3225952
            ]
          }
        },
        {
          "type": "Feature",
          "properties": {
            "id": "1161574487",
            "osm_type": "node",
            "lat": 48.3130325,
            "lon": 13.2631116,
            "name": "Leonhardimuseum Aigen",
            "tourism": "museum"
          },
          "geometry": {
            "type": "Point",
            "coordinates": [
              13.2631116,
              48.3130325
            ]
          }
        },
        {
          "type": "Feature",
          "properties": {
            "id": "2702236829",
            "osm_type": "node",
            "lat": 48.1398132,
            "lon": 13.2272621,
            "name": "Bauernmuseum Sollingerbauer",
            "tourism": "museum",
            "wikidata": "Q106726721"
          },
          "geometry": {
            "type": "Point",
            "coordinates": [
              13.2272621,
              48.1398132
            ]
          }
        },
        {
          "type": "Feature",
          "properties": {
            "id": "11824027018",
            "osm_type": "node",
            "lat": 48.3253481,
            "lon": 13.3109171,
            "addr:city": "Bad Füssing",
            "addr:country": "DE",
            "addr:housenumber": "78",
            "addr:postcode": "94072",
            "addr:street": "Obere Inntalstraße",
            "name": "Motorradmuseum",
            "opening_hours": "MO-Fr 10:00-17:00",
            "tourism": "museum"
          },
          "geometry": {
            "type": "Point",
            "coordinates": [
              13.3109171,
              48.3253481
            ]
          }
        }
      ],
      "children": []
    }
  ]
}