{
  "bbox": {
    "south": 47.033758500000005,
    "west": 15.253173,
    "north": 47.694865,
    "east": 17.16058
  },
  "poiCount": 116,
  "leafCount": 0,
  "averagePosition": [
    16.171851067241377,
    47.370784437931036
  ],
  "data": [],
  "children": [
    {
      "bbox": {
        "south": 47.033758500000005,
        "west": 15.253173,
        "north": 47.36431175,
        "east": 16.2068765
      },
      "poiCount": 37,
      "leafCount": 37,
      "averagePosition": [
        15.617073,
        47.1569934054054
      ],
      "data": [
        {
          "type": "Feature",
          "properties": {
            "id": "107935777",
            "osm_type": "node",
            "lat": 47.04397,
            "lon": 15.43765,
            "addr:city": "Graz",
            "addr:country": "AT",
            "addr:housenumber": "85",
            "addr:postcode": "8020",
            "addr:street": "Puchstraße",
            "fee": "yes",
            "name": "Puchmuseum",
            "opening_hours": "Fr 14:00-17:15; Sa 14:00-18:00; Su 10:00-18:00; PH off",
            "tourism": "museum",
            "website": "https://www.johannpuchmuseum.at/",
            "wikidata": "Q18626384",
            "wikipedia": "de:Johann Puch Museum Graz"
          },
          "geometry": {
            "type": "Point",
            "coordinates": [
              15.43765,
              47.04397
            ]
          }
        },
        {
          "type": "Feature",
          "properties": {
            "id": "283344790",
            "osm_type": "node",
            "lat": 47.2001362,
            "lon": 15.3375596,
            "addr:city": "Deutschfeistritz",
            "addr:country": "AT",
            "addr:housenumber": "2",
            "addr:postcode": "8121",
            "addr:street": "Rudolf-Klug-Gasse",
            "at_bev:addr_date": "2016-10-02",
            "contact:phone": "+43 3127 42 200",
            "contact:website": "http://www.sensenwerk.at",
            "name": "Sensenwerk Deutschfeistritz",
            "source": "geoimage.at MaxRes",
            "tourism": "museum",
            "wikidata": "Q2271305",
            "wikipedia": "de:Sensenwerk Deutschfeistritz"
          },
          "geometry": {
            "type": "Point",
            "coordinates": [
              15.3375596,
              47.2001362
            ]
          }
        },
        {
          "type": "Feature",
          "properties": {
            "id": "492011184",
            "osm_type": "node",
            "lat": 47.0763704,
            "lon": 15.3926306,
            "addr:city": "Graz",
            "addr:country": "AT",
            "addr:housenumber": "90",
            "addr:postcode": "8020",
            "addr:street": "Eggenberger Allee",
            "fee": "yes",
            "name": "Archäologiemuseum Schloss Eggenberg",
            "operator": "Universalmuseum Joanneum",
            "operator:type": "public",
            "tourism": "museum",
            "website": "http://www.museum-joanneum.at/archaeologiemuseum-schloss-eggenberg",
            "wikidata": "Q85933449"
          },
          "geometry": {
            "type": "Point",
            "coordinates": [
              15.3926306,
              47.0763704
            ]
          }
        },
        {
          "type": "Feature",
          "properties": {
            "id": "492011471",
            "osm_type": "node",
            "lat": 47.0738723,
            "lon": 15.3911958,
            "addr:city": "Graz",
            "addr:country": "AT",
            "addr:housenumber": "90",
            "addr:postcode": "8020",
            "addr:street": "Eggenberger Allee",
            "fee": "yes",
            "full_name": "Universalmuseum Joanneum - Alte Galerie, Münzkabinett",
            "name": "Alte Galerie Schloss Eggenberg",
            "opening_hours": "Tu-Su, PH 10:00-18:00",
            "operator": "Universalmuseum Joaneum",
            "operator:type": "public",
            "toilets:wheelchair": "yes",
            "tourism": "museum",
            "website": "https://www.museum-joanneum.at/alte-galerie",
            "wheelchair": "yes"
          },
          "geometry": {
            "type": "Point",
            "coordinates": [
              15.3911958,
              47.0738723
            ]
          }
        },
        {
          "type": "Feature",
          "properties": {
            "id": "675902247",
            "osm_type": "node",
            "lat": 47.0467924,
            "lon": 15.5213663,
            "addr:city": "Hart bei Graz",
            "addr:country": "AT",
            "addr:housenumber": "17",
            "addr:postcode": "8075",
            "addr:street": "Pachernbergweg",
            "fee": "no",
            "level": "0",
            "name": "Mariazellerbahn Modellmuseum",
            "opening_hours:url": "https://www.mariazellerbahn-modell.at/news-termine/",
            "tourism": "museum",
            "website": "https://www.mariazellerbahn-modell.at/"
          },
          "geometry": {
            "type": "Point",
            "coordinates": [
              15.5213663,
              47.0467924
            ]
          }
        },
        {
          "type": "Feature",
          "properties": {
            "id": "890451541",
            "osm_type": "node",
            "lat": 47.0784987,
            "lon": 15.4466638,
            "addr:city": "Graz",
            "addr:country": "AT",
            "addr:housenumber": "18",
            "addr:postcode": "8010",
            "addr:street": "Heinrichstraße",
            "fee": "yes",
            "name": "Hans Gross Kriminalmuseum",
            "opening_hours": "Mo 10:00-15:00; Th 13:00-17:00; PH off",
            "operator": "Uni Graz",
            "phone": "+433163806514",
            "tourism": "museum",
            "website": "https://universitaetsmuseen.uni-graz.at/de/unsere-sammlungen-und-ausstellungen/hans-gross-kriminalmuseum/",
            "wheelchair": "no"
          },
          "geometry": {
            "type": "Point",
            "coordinates": [
              15.4466638,
              47.0784987
            ]
          }
        },
        {
          "type": "Feature",
          "properties": {
            "id": "995938131",
            "osm_type": "node",
            "lat": 47.0716982,
            "lon": 15.4417555,
            "addr:city": "Graz",
            "addr:country": "AT",
            "addr:housenumber": "2",
            "addr:postcode": "8010",
            "addr:street": "Bürgergasse",
            "contact:phone": "+43 316 8041-890",
            "denomination": "roman_catholic",
            "fee": "no",
            "level": "1",
            "name": "Diözesanmuseum Graz",
            "name:de": "Diözesanmuseum Graz",
            "opening_hours": "Tu-Fr 09:00-17:00; Sa,Su,PH 11:00-17:00",
            "religion": "christian",
            "tourism": "museum",
            "website": "http://www.dioezesanmuseum.at",
            "wheelchair": "limited",
            "wikidata": "Q1231897",
            "wikimedia_commons": "Category:Diözesanmuseum Graz",
            "wikipedia": "de:Diözesanmuseum Graz"
          },
          "geometry": {
            "type": "Point",
            "coordinates": [
              15.4417555,
              47.0716982
            ]
          }
        },
        {
          "type": "Feature",
          "properties": {
            "id": "999516246",
            "osm_type": "node",
            "lat": 47.0698025,
            "lon": 15.4398828,
            "addr:city": "Graz",
            "addr:country": "AT",
            "addr:housenumber": "16",
            "addr:postcode": "8010",
            "addr:street": "Herrengasse",
            "contact:email": "landeszeughaus@museum-joanneum.at",
            "contact:phone": "+43 316 8017-9810",
            "fee": "yes",
            "heritage": "2",
            "heritage:operator": "bda",
            "loc_name": "Zeughaus",
            "name": "Landeszeughaus",
            "name:de": "Landeszeughaus",
            "name:en": "Styrian Armoury",
            "name:lv": "Štīrijas arsenāls",
            "name:zh": "盔甲博物馆",
            "opening_hours": "Apr-Oct Tu-Su, PH 10:00-18:00; 24/7 - on arrangement",
            "operator": "Universalmuseum Joanneum",
            "ref:at:bda": "72339",
            "source": "survey",
            "toilets:wheelchair": "yes",
            "tourism": "museum",
            "website": "https://www.museum-joanneum.at/",
            "wheelchair": "yes",
            "wikidata": "Q484911",
            "wikimedia_commons": "Category:Zeughaus (Graz)",
            "wikipedia": "de:Landeszeughaus"
          },
          "geometry": {
            "type": "Point",
            "coordinates": [
              15.4398828,
              47.0698025
            ]
          }
        },
        {
          "type": "Feature",
          "properties": {
            "id": "1029617830",
            "osm_type": "node",
            "lat": 47.0726561,
            "lon": 15.4365183,
            "addr:city": "Graz",
            "addr:country": "AT",
            "addr:housenumber": "18",
            "addr:postcode": "8010",
            "addr:street": "Sackstraße",
            "contact:phone": "+43 316 8727600",
            "email": "grazmuseum@stadt.graz.at",
            "fee": "yes",
            "name": "GrazMuseum",
            "old_name": "Stadtmuseum Graz",
            "opening_hours": "Mo-Su 10:00-18:00",
            "source": "survey",
            "tourism": "museum",
            "website": "https://www.grazmuseum.at/",
            "wheelchair": "yes",
            "wikidata": "Q1368160",
            "wikimedia_commons": "Category:Dauerausstellung 360GRAZ",
            "wikipedia": "de:GrazMuseum"
          },
          "geometry": {
            "type": "Point",
            "coordinates": [
              15.4365183,
              47.0726561
            ]
          }
        },
        {
          "type": "Feature",
          "properties": {
            "id": "1289256625",
            "osm_type": "node",
            "lat": 47.1147983,
            "lon": 15.2665549,
            "addr:city": "Eisbach",
            "addr:postcode": "8112",
            "name": "Kleines Bauernmuseum",
            "tourism": "museum"
          },
          "geometry": {
            "type": "Point",
            "coordinates": [
              15.2665549,
              47.1147983
            ]
          }
        },
        {
          "type": "Feature",
          "properties": {
            "id": "1688850479",
            "osm_type": "node",
            "lat": 47.0778208,
            "lon": 15.4291329,
            "addr:city": "Graz",
            "addr:country": "AT",
            "addr:housenumber": "10",
            "addr:postcode": "8020",
            "addr:street": "Wiener Straße",
            "alt_name": "Museum für Schloss, Schlüssel, Kästchen, Kassetten und Eisenkunstguss",
            "contact:email": "museum@schell-collection.com",
            "contact:fax": "+43 316 715656 38",
            "contact:phone": "+43 316 715656 38",
            "contact:website": "http://www.schell-collection.com/",
            "fee": "yes",
            "name": "Schell Collection",
            "opening_hours": "Mo-Fr 08:00-16:00; Sa 09:00-12:00; Su,PH off",
            "operator": "Hanns und Christof Schell",
            "tourism": "museum",
            "wikidata": "Q85855901"
          },
          "geometry": {
            "type": "Point",
            "coordinates": [
              15.4291329,
              47.0778208
            ]
          }
        },
        {
          "type": "Feature",
          "properties": {
            "id": "1837534428",
            "osm_type": "node",
            "lat": 47.1033736,
            "lon": 15.4155204,
            "addr:city": "Graz",
            "addr:country": "AT",
            "addr:housenumber": "16",
            "addr:postcode": "8045",
            "addr:street": "Weinzöttlstraße",
            "fee": "varies",
            "full_name": "Universalmuseum Joanneum - Studienzentrum Naturkunde",
            "name": "Studienzentrum Naturkunde",
            "operator": "Universalmuseum Joanneum",
            "tourism": "museum",
            "website": "https://www.museum-joanneum.at/naturkundemuseum/sammlungen-forschung"
          },
          "geometry": {
            "type": "Point",
            "coordinates": [
              15.4155204,
              47.1033736
            ]
          }
        },
        {
          "type": "Feature",
          "properties": {
            "id": "1997302613",
            "osm_type": "node",
            "lat": 47.2162814,
            "lon": 15.3432555,
            "name": "Höhlenmuseum",
            "tourism": "museum",
            "wheelchair": "no"
          },
          "geometry": {
            "type": "Point",
            "coordinates": [
              15.3432555,
              47.2162814
            ]
          }
        },
        {
          "type": "Feature",
          "properties": {
            "id": "2484925381",
            "osm_type": "node",
            "lat": 47.0707074,
            "lon": 15.4293805,
            "addr:city": "Graz",
            "addr:country": "AT",
            "addr:housenumber": "19",
            "addr:postcode": "8020",
            "addr:street": "Annenstraße",
            "contact:email": "office@druckzeug.at",
            "contact:website": "http://druckzeug.at",
            "craft": "printer",
            "fee": "no",
            "name": "DruckZeug",
            "tourism": "museum",
            "wikidata": "Q107295308"
          },
          "geometry": {
            "type": "Point",
            "coordinates": [
              15.4293805,
              47.0707074
            ]
          }
        },
        {
          "type": "Feature",
          "properties": {
            "id": "3634139112",
            "osm_type": "node",
            "lat": 47.0736523,
            "lon": 15.4415105,
            "addr:city": "Graz",
            "addr:country": "AT",
            "addr:housenumber": "4",
            "addr:postcode": "8010",
            "addr:street": "Hartiggasse",
            "contact:mobile": "+43 664 435 9311",
            "contact:website": "https://puppenmuseumgraz.at",
            "fee": "yes",
            "name": "ToyToyToy  Spielzeugmuseum Graz",
            "opening_hours": "Mo, We, Fr 09:30-12:30",
            "operator": "Christine Pichler",
            "tourism": "museum",
            "wheelchair": "no"
          },
          "geometry": {
            "type": "Point",
            "coordinates": [
              15.4415105,
              47.0736523
            ]
          }
        },
        {
          "type": "Feature",
          "properties": {
            "id": "4301224957",
            "osm_type": "node",
            "lat": 47.0725403,
            "lon": 15.4367764,
            "addr:city": "Graz",
            "addr:country": "AT",
            "addr:housenumber": "18",
            "addr:postcode": "8010",
            "addr:street": "Sackstraße",
            "contact:email": "geschichte@museum-joanneum.at",
            "contact:fax": "+43 316 8017-9849",
            "contact:phone": "+43 316 8017-9810",
            "fee": "yes",
            "name": "Museum für Geschichte",
            "opening_hours": "Tu-Su,PH 10:00-18:00",
            "operator": "Universalmuseum Joanneum",
            "source": "survey",
            "surveillance": "indoor",
            "toilets:wheelchair": "yes",
            "tourism": "museum",
            "website": "https://www.museum-joanneum.at/museum-fuer-geschichte/",
            "wheelchair": "yes",
            "wikidata": "Q85963218"
          },
          "geometry": {
            "type": "Point",
            "coordinates": [
              15.4367764,
              47.0725403
            ]
          }
        },
        {
          "type": "Feature",
          "properties": {
            "id": "6621992071",
            "osm_type": "node",
            "lat": 47.0737325,
            "lon": 15.391069,
            "addr:city": "Graz",
            "addr:country": "AT",
            "addr:housenumber": "90",
            "addr:postcode": "8020",
            "addr:street": "Eggenberger Allee",
            "description": "nur im Rahmen einer Führung zugänglich",
            "fee": "yes",
            "name": "Prunkräume Schloss Eggenberg",
            "opening_hours": "Tu-Su,PH 10:00-10:05, 11:00-11:05, 12:00-12:05, 14:00-14:05, 15:00-15:05, 16:00-16:05",
            "operator": "Universalmuseum Joanneum",
            "operator:type": "public",
            "tourism": "museum",
            "website": "https://www.museum-joanneum.at/schloss-eggenberg-prunkraeume-und-gaerten/prunkraeume"
          },
          "geometry": {
            "type": "Point",
            "coordinates": [
              15.391069,
              47.0737325
            ]
          }
        },
        {
          "type": "Feature",
          "properties": {
            "id": "7872033559",
            "osm_type": "node",
            "lat": 47.0768894,
            "lon": 15.4321767,
            "access": "private",
            "email": "gerhard.rath@brgkepler.at",
            "fee": "varies",
            "level": "-1",
            "museum": "person",
            "name": "Keplerraum",
            "name:etymology:wikidata": "Q8963",
            "operator": "BRG Kepler",
            "operator:type": "private",
            "operator:wikidata": "Q796934",
            "subject": "Johannes Kepler",
            "subject:wikidata": "Q8963",
            "tourism": "museum",
            "website": "http://www.keplerraum.at/"
          },
          "geometry": {
            "type": "Point",
            "coordinates": [
              15.4321767,
              47.0768894
            ]
          }
        },
        {
          "type": "Feature",
          "properties": {
            "id": "9105410502",
            "osm_type": "node",
            "lat": 47.0685055,
            "lon": 15.4379632,
            "addr:city": "Graz",
            "addr:housenumber": "1",
            "addr:postcode": "8010",
            "addr:street": "Joanneumsviertel",
            "fee": "yes",
            "full_name": "Center of Science Activities",
            "museum": "technology",
            "name": "CoSA",
            "opening_hours": "Tu-Su,PH 10:00-18:00",
            "operator": "Universalmuseum Joanneum GmbH",
            "operator:type": "public",
            "tourism": "museum",
            "website": "https://www.museum-joanneum.at/cosa",
            "wheelchair": "yes"
          },
          "geometry": {
            "type": "Point",
            "coordinates": [
              15.4379632,
              47.0685055
            ]
          }
        },
        {
          "type": "Feature",
          "properties": {
            "id": "11051378863",
            "osm_type": "node",
            "lat": 47.0736402,
            "lon": 15.3913441,
            "addr:city": "Graz",
            "addr:housenumber": "90",
            "addr:postcode": "8020",
            "addr:street": "Eggenberger Allee",
            "fee": "yes",
            "name": "Münzkabinett Schloss Eggenberg",
            "opening_hours": "Tu-Su, PH 10:00-18:00",
            "operator": "Universalmuseum Joanneum",
            "operator:type": "public",
            "tourism": "museum",
            "website": "https://www.museum-joanneum.at/muenzkabinett"
          },
          "geometry": {
            "type": "Point",
            "coordinates": [
              15.3913441,
              47.0736402
            ]
          }
        },
        {
          "type": "Feature",
          "properties": {
            "id": "12575259644",
            "osm_type": "node",
            "lat": 47.0787143,
            "lon": 15.4375053,
            "access": "no",
            "covered": "yes",
            "email": "info@montanmuseum.at",
            "location": "underground",
            "museum": "railway",
            "name": "Montan- und Werksbahnmuseum Graz",
            "note": "Museum aufgrund der Sicherheitbestimmungen für die Öffentlichkeit nicht zugänglich. / No public access for this museum because of safety regulations.",
            "opening_hours": "off",
            "tourism": "museum",
            "website": "https://montanmuseum.at/",
            "wikidata": "Q26705926",
            "wikipedia": "de:Montan- und Werksbahnmuseum Graz"
          },
          "geometry": {
            "type": "Point",
            "coordinates": [
              15.4375053,
              47.0787143
            ]
          }
        },
        {
          "type": "Feature",
          "properties": {
            "id": "441566745",
            "osm_type": "node",
            "lat": 47.104641,
            "lon": 15.7117061,
            "addr:city": "Gleisdorf",
            "addr:country": "AT",
            "addr:housenumber": "1",
            "addr:postcode": "8200",
            "addr:street": "Rathausplatz",
            "contact:email": "museum@gleisdorf.at",
            "name": "Museum im Rathaus",
            "tourism": "museum"
          },
          "geometry": {
            "type": "Point",
            "coordinates": [
              15.7117061,
              47.104641
            ]
          }
        },
        {
          "type": "Feature",
          "properties": {
            "id": "1548575650",
            "osm_type": "node",
            "lat": 47.2860929,
            "lon": 15.9792936,
            "name": "Oldtimer Museum",
            "opening_hours": "Sa-Su 09:30-18:00",
            "tourism": "museum",
            "website": "https://www.radiomuseum.org/museum/a/oldtimermuseum-kroepfl-ges.m.b.h.-hartberg/.html"
          },
          "geometry": {
            "type": "Point",
            "coordinates": [
              15.9792936,
              47.2860929
            ]
          }
        },
        {
          "type": "Feature",
          "properties": {
            "id": "1826029733",
            "osm_type": "node",
            "lat": 47.2156241,
            "lon": 15.753158,
            "email": "museumsleitung@kulm-keltendorf.at",
            "name": "Keltendorf",
            "tourism": "museum",
            "website": "https://www.kulm-keltendorf.at/"
          },
          "geometry": {
            "type": "Point",
            "coordinates": [
              15.753158,
              47.2156241
            ]
          }
        },
        {
          "type": "Feature",
          "properties": {
            "id": "1844495164",
            "osm_type": "node",
            "lat": 47.2734522,
            "lon": 15.6894616,
            "name": "Mineralienmuseum",
            "tourism": "museum"
          },
          "geometry": {
            "type": "Point",
            "coordinates": [
              15.6894616,
              47.2734522
            ]
          }
        },
        {
          "type": "Feature",
          "properties": {
            "id": "2155651779",
            "osm_type": "node",
            "lat": 47.2599672,
            "lon": 15.9709085,
            "name": "Blick ins Universum & Sternwarte",
            "tourism": "museum"
          },
          "geometry": {
            "type": "Point",
            "coordinates": [
              15.9709085,
              47.2599672
            ]
          }
        },
        {
          "type": "Feature",
          "properties": {
            "id": "2155651781",
            "osm_type": "node",
            "lat": 47.259794,
            "lon": 15.9716645,
            "name": "Klimaturm Weltblick",
            "tourism": "museum"
          },
          "geometry": {
            "type": "Point",
            "coordinates": [
              15.9716645,
              47.259794
            ]
          }
        },
        {
          "type": "Feature",
          "properties": {
            "id": "3008367565",
            "osm_type": "node",
            "lat": 47.3540926,
            "lon": 15.6935657,
            "name": "Klangtunnel",
            "opening_hours": "May 01-Oct 31: Th-Su 09:00-17:00",
            "tourism": "museum",
            "website": "http://www.klangtunnel.at"
          },
          "geometry": {
            "type": "Point",
            "coordinates": [
              15.6935657,
              47.3540926
            ]
          }
        },
        {
          "type": "Feature",
          "properties": {
            "id": "5088479072",
            "osm_type": "node",
            "lat": 47.3507718,
            "lon": 15.6934112,
            "indoor:level": "*",
            "name": "Galerie Reitbauer",
            "tourism": "museum",
            "website": "https://www.hans-reitbauer.at/",
            "wheelchair": "no"
          },
          "geometry": {
            "type": "Point",
            "coordinates": [
              15.6934112,
              47.3507718
            ]
          }
        },
        {
          "type": "Feature",
          "properties": {
            "id": "6205106960",
            "osm_type": "node",
            "lat": 47.259277,
            "lon": 15.9714134,
            "name": "Oekopark Erlebnisreich",
            "note": "Oekopark ist auf der Tafel mit Oe und nicht mit Ö geschrieben",
            "opening_hours": "Tu-Su 10:00-16:00",
            "tourism": "museum",
            "website": "https://www.oekopark.at/"
          },
          "geometry": {
            "type": "Point",
            "coordinates": [
              15.9714134,
              47.259277
            ]
          }
        },
        {
          "type": "Feature",
          "properties": {
            "id": "7625491700",
            "osm_type": "node",
            "lat": 47.218629,
            "lon": 15.623422,
            "addr:city": "Weiz",
            "addr:housenumber": "2",
            "addr:postcode": "8160",
            "addr:street": "Südtiroler Platz",
            "name": "Stadtmuseum Weiz",
            "tourism": "museum"
          },
          "geometry": {
            "type": "Point",
            "coordinates": [
              15.623422,
              47.218629
            ]
          }
        },
        {
          "type": "Feature",
          "properties": {
            "id": "8252629754",
            "osm_type": "node",
            "lat": 47.3030561,
            "lon": 15.8335109,
            "description": "European Centre for the History of Physics",
            "fee": "yes",
            "name": "Echophysics",
            "tourism": "museum",
            "wikidata": "Q1280825"
          },
          "geometry": {
            "type": "Point",
            "coordinates": [
              15.8335109,
              47.3030561
            ]
          }
        },
        {
          "type": "Feature",
          "properties": {
            "id": "8252656790",
            "osm_type": "node",
            "lat": 47.3016609,
            "lon": 15.8326332,
            "name": "Particularium",
            "tourism": "museum"
          },
          "geometry": {
            "type": "Point",
            "coordinates": [
              15.8326332,
              47.3016609
            ]
          }
        },
        {
          "type": "Feature",
          "properties": {
            "id": "4244144071",
            "osm_type": "node",
            "lat": 47.158973,
            "lon": 16.1676414,
            "addr:housenumber": "2",
            "addr:postcode": "7551",
            "addr:street": "Sparkassenplatz",
            "fixme": "Is the museum still there or has it turned into the restaurant?",
            "name": "Regional- und Telegraphenmuseum",
            "tourism": "museum"
          },
          "geometry": {
            "type": "Point",
            "coordinates": [
              16.1676414,
              47.158973
            ]
          }
        },
        {
          "type": "Feature",
          "properties": {
            "id": "6299159578",
            "osm_type": "node",
            "lat": 47.3057415,
            "lon": 16.0583612,
            "name": "Schmiede Museum Lafnitztal",
            "tourism": "museum"
          },
          "geometry": {
            "type": "Point",
            "coordinates": [
              16.0583612,
              47.3057415
            ]
          }
        },
        {
          "type": "Feature",
          "properties": {
            "id": "8223902107",
            "osm_type": "node",
            "lat": 47.1995499,
            "lon": 16.1372517,
            "addr:city": "Stinatz",
            "addr:country": "AT",
            "addr:housenumber": "19",
            "addr:street": "Hauptstraße",
            "name": "Heimathaus",
            "tourism": "museum"
          },
          "geometry": {
            "type": "Point",
            "coordinates": [
              16.1372517,
              47.1995499
            ]
          }
        },
        {
          "type": "Feature",
          "properties": {
            "id": "10262494508",
            "osm_type": "node",
            "lat": 47.12298,
            "lon": 16.0468859,
            "name": "Lebenswerkstatt Robert Rogner",
            "tourism": "museum"
          },
          "geometry": {
            "type": "Point",
            "coordinates": [
              16.0468859,
              47.12298
            ]
          }
        }
      ],
      "children": []
    },
    {
      "bbox": {
        "south": 47.033758500000005,
        "west": 16.2068765,
        "north": 47.36431175,
        "east": 17.16058
      },
      "poiCount": 23,
      "leafCount": 23,
      "averagePosition": [
        16.58887818695652,
        47.20542174347826
      ],
      "data": [
        {
          "type": "Feature",
          "properties": {
            "id": "355157689",
            "osm_type": "node",
            "lat": 47.3241761,
            "lon": 16.2789055,
            "name": "Stadtmuseum",
            "tourism": "museum"
          },
          "geometry": {
            "type": "Point",
            "coordinates": [
              16.2789055,
              47.3241761
            ]
          }
        },
        {
          "type": "Feature",
          "properties": {
            "id": "911162357",
            "osm_type": "node",
            "lat": 47.0637122,
            "lon": 16.3284486,
            "addr:city": "Güssing",
            "addr:country": "AT",
            "addr:postcode": "7540",
            "contact:phone": "+43 3322 425 98",
            "name": "Auswanderermuseum/Josef Reichl Museum",
            "tourism": "museum",
            "website": "http://www.burgenlandkultur.at/burgen/db/30",
            "wheelchair": "no"
          },
          "geometry": {
            "type": "Point",
            "coordinates": [
              16.3284486,
              47.0637122
            ]
          }
        },
        {
          "type": "Feature",
          "properties": {
            "id": "1278000410",
            "osm_type": "node",
            "lat": 47.1713446,
            "lon": 16.3845759,
            "name": "Steinmuseum",
            "tourism": "museum"
          },
          "geometry": {
            "type": "Point",
            "coordinates": [
              16.3845759,
              47.1713446
            ]
          }
        },
        {
          "type": "Feature",
          "properties": {
            "id": "1349687524",
            "osm_type": "node",
            "lat": 47.0541049,
            "lon": 16.4582423,
            "addr:city": "Moschendorf",
            "addr:country": "AT",
            "addr:housenumber": "1",
            "addr:postcode": "7546",
            "addr:street": "Pinkataler Weinstraße",
            "name": "Weinmuseum Moschendorf",
            "tourism": "museum"
          },
          "geometry": {
            "type": "Point",
            "coordinates": [
              16.4582423,
              47.0541049
            ]
          }
        },
        {
          "type": "Feature",
          "properties": {
            "id": "1831081478",
            "osm_type": "node",
            "lat": 47.294453,
            "lon": 16.4450279,
            "name": "Kreuzstadl",
            "opening_hours": "24/7",
            "subject:wikidata": "Q1907400",
            "subject:wikipedia": "de:Massaker von Rechnitz#Gedenkst.C3.A4tte Kreuzstadl",
            "tourism": "museum",
            "website": "https://kreuzstadl.net/"
          },
          "geometry": {
            "type": "Point",
            "coordinates": [
              16.4450279,
              47.294453
            ]
          }
        },
        {
          "type": "Feature",
          "properties": {
            "id": "2372998579",
            "osm_type": "node",
            "lat": 47.0630416,
            "lon": 16.2445,
            "addr:city": "Gerersdorf-Sulz",
            "addr:country": "AT",
            "addr:housenumber": "20",
            "addr:postcode": "7542",
            "addr:street": "Museumsstraße",
            "at_bev:addr_date": "2020-10-01",
            "fee": "yes",
            "name": "Freilichtmuseum Gerersdorf",
            "tourism": "museum",
            "website": "https://www.freilichtmuseum-gerersdorf.at/",
            "wheelchair": "no",
            "wikidata": "Q1454512",
            "wikipedia": "de:Freilichtmuseum Ensemble Gerersdorf"
          },
          "geometry": {
            "type": "Point",
            "coordinates": [
              16.2445,
              47.0630416
            ]
          }
        },
        {
          "type": "Feature",
          "properties": {
            "id": "2975663789",
            "osm_type": "node",
            "lat": 47.2038224,
            "lon": 16.4307763,
            "contact:facebook": "ironcurtainmuseum.felsocsatar",
            "contact:website": "https://vasfuggonymuzeum.hu/",
            "name": "Vasfüggöny Múzeum",
            "name:de": "Museum Eiserner Vorhang",
            "operator": "Golyák Sándor",
            "tourism": "museum"
          },
          "geometry": {
            "type": "Point",
            "coordinates": [
              16.4307763,
              47.2038224
            ]
          }
        },
        {
          "type": "Feature",
          "properties": {
            "id": "3430556502",
            "osm_type": "node",
            "lat": 47.3240595,
            "lon": 16.4898037,
            "addr:city": "Bozsok",
            "addr:postcode": "9727",
            "addr:street": "Rákóczi utca",
            "name": "Bozsoki Borház",
            "source": "turistautak.hu",
            "tourism": "museum",
            "url": "http://turistautak.hu/poi.php?id=74075"
          },
          "geometry": {
            "type": "Point",
            "coordinates": [
              16.4898037,
              47.3240595
            ]
          }
        },
        {
          "type": "Feature",
          "properties": {
            "id": "5247455521",
            "osm_type": "node",
            "lat": 47.2599703,
            "lon": 16.2328747,
            "addr:housenumber": "208",
            "addr:postcode": "7501",
            "addr:street": "Unterwart",
            "name": "Heimathaus Unterwart",
            "phone": "+43335234020",
            "tourism": "museum"
          },
          "geometry": {
            "type": "Point",
            "coordinates": [
              16.2328747,
              47.2599703
            ]
          }
        },
        {
          "type": "Feature",
          "properties": {
            "id": "10121381927",
            "osm_type": "node",
            "lat": 47.3355427,
            "lon": 16.2309395,
            "name": "Kurmuseum",
            "tourism": "museum"
          },
          "geometry": {
            "type": "Point",
            "coordinates": [
              16.2309395,
              47.3355427
            ]
          }
        },
        {
          "type": "Feature",
          "properties": {
            "id": "1112948279",
            "osm_type": "node",
            "lat": 47.2522575,
            "lon": 16.9369227,
            "addr:city": "Sárvár",
            "addr:housenumber": "1",
            "addr:postcode": "9600",
            "addr:street": "Várkerület",
            "email": "info@nadasdymuzeum.hu",
            "fee": "yes",
            "name": "Nádasdy Ferenc Vármúzeum",
            "opening_hours": "Tu-Su 09:00-17:00",
            "phone": "+36 95 320 158",
            "tourism": "museum",
            "website": "https://nadasdymuzeum.hu/"
          },
          "geometry": {
            "type": "Point",
            "coordinates": [
              16.9369227,
              47.2522575
            ]
          }
        },
        {
          "type": "Feature",
          "properties": {
            "id": "2390527588",
            "osm_type": "node",
            "lat": 47.2370173,
            "lon": 16.5941033,
            "addr:city": "Szombathely",
            "addr:housenumber": "30",
            "addr:postcode": "9700",
            "addr:street": "Árpád út",
            "name": "Vasi Múzeumfalu Szombathely",
            "phone": "+36 94 311 004",
            "tourism": "museum",
            "website": "http://www.vasimuzeumfalu.hu/hu/hirek"
          },
          "geometry": {
            "type": "Point",
            "coordinates": [
              16.5941033,
              47.2370173
            ]
          }
        },
        {
          "type": "Feature",
          "properties": {
            "id": "2940134281",
            "osm_type": "node",
            "lat": 47.0504858,
            "lon": 16.5512569,
            "name": "Völgyes Ferenc Helytörténeti Gyűjtemény",
            "short_name": "Helytörténeti Gyűjtemény",
            "tourism": "museum"
          },
          "geometry": {
            "type": "Point",
            "coordinates": [
              16.5512569,
              47.0504858
            ]
          }
        },
        {
          "type": "Feature",
          "properties": {
            "id": "2940484127",
            "osm_type": "node",
            "lat": 47.0489788,
            "lon": 16.7994277,
            "addr:city": "Vasvár",
            "addr:housenumber": "1",
            "addr:postcode": "9800",
            "addr:street": "Kossuth Lajos utca",
            "check_date": "2024-03-30",
            "contact:phone": "+36 20 250 2433",
            "email": "info@dominicana.hu",
            "name": "Vasvári Múzeum",
            "opening_hours": "\"by appointment\"",
            "tourism": "museum"
          },
          "geometry": {
            "type": "Point",
            "coordinates": [
              16.7994277,
              47.0489788
            ]
          }
        },
        {
          "type": "Feature",
          "properties": {
            "id": "3158263919",
            "osm_type": "node",
            "lat": 47.2448761,
            "lon": 16.6223776,
            "name": "Távhő Látogatóközpont",
            "tourism": "museum"
          },
          "geometry": {
            "type": "Point",
            "coordinates": [
              16.6223776,
              47.2448761
            ]
          }
        },
        {
          "type": "Feature",
          "properties": {
            "id": "3469861470",
            "osm_type": "node",
            "lat": 47.2179722,
            "lon": 16.9336666,
            "name": "Ikervári Vízierőmű és Múzeum",
            "source": "turistautak.hu",
            "source:date": "2015-03-03",
            "tourism": "museum",
            "url": "http://turistautak.hu/poi.php?id=432"
          },
          "geometry": {
            "type": "Point",
            "coordinates": [
              16.9336666,
              47.2179722
            ]
          }
        },
        {
          "type": "Feature",
          "properties": {
            "id": "3471869158",
            "osm_type": "node",
            "lat": 47.252505,
            "lon": 16.607164,
            "name": "Információs Központ",
            "source": "turistautak.hu",
            "source:date": "2015-03-03",
            "tourism": "museum",
            "url": "http://turistautak.hu/poi.php?id=135503"
          },
          "geometry": {
            "type": "Point",
            "coordinates": [
              16.607164,
              47.252505
            ]
          }
        },
        {
          "type": "Feature",
          "properties": {
            "id": "3471878023",
            "osm_type": "node",
            "lat": 47.215983,
            "lon": 16.639926,
            "name": "Vasi Múzeumi Látványtár",
            "source": "turistautak.hu",
            "source:date": "2013-11-29",
            "tourism": "museum",
            "url": "http://turistautak.hu/poi.php?id=163391"
          },
          "geometry": {
            "type": "Point",
            "coordinates": [
              16.639926,
              47.215983
            ]
          }
        },
        {
          "type": "Feature",
          "properties": {
            "id": "3474960280",
            "osm_type": "node",
            "lat": 47.15587,
            "lon": 16.807445,
            "name": "Helytörténeti Múzeum",
            "source": "turistautak.hu",
            "source:date": "2013-04-06",
            "tourism": "museum",
            "url": "http://turistautak.hu/poi.php?id=152159"
          },
          "geometry": {
            "type": "Point",
            "coordinates": [
              16.807445,
              47.15587
            ]
          }
        },
        {
          "type": "Feature",
          "properties": {
            "id": "6717365872",
            "osm_type": "node",
            "lat": 47.1836284,
            "lon": 16.7491318,
            "addr:city": "Vasszécseny",
            "addr:housenumber": "2",
            "addr:postcode": "9763",
            "addr:street": "Gyöngyös utca",
            "name": "Ásványmúzeum",
            "operator": "Pődör György",
            "operator:type": "public",
            "source": "survey;poet.hu",
            "tourism": "museum"
          },
          "geometry": {
            "type": "Point",
            "coordinates": [
              16.7491318,
              47.1836284
            ]
          }
        },
        {
          "type": "Feature",
          "properties": {
            "id": "9467183823",
            "osm_type": "node",
            "lat": 47.2290497,
            "lon": 16.6215764,
            "name": "Schrammel-gyűjtemény",
            "tourism": "museum"
          },
          "geometry": {
            "type": "Point",
            "coordinates": [
              16.6215764,
              47.2290497
            ]
          }
        },
        {
          "type": "Feature",
          "properties": {
            "id": "2159519716",
            "osm_type": "node",
            "lat": 47.35385,
            "lon": 17.0627819,
            "int_name": "Weöres Sándor Memorialmuseum",
            "name": "Weöres Sándor és Károlyi Amy Emlékmúzeum",
            "phone": "+36 30 609 0389",
            "tourism": "museum"
          },
          "geometry": {
            "type": "Point",
            "coordinates": [
              17.0627819,
              47.35385
            ]
          }
        },
        {
          "type": "Feature",
          "properties": {
            "id": "3487697699",
            "osm_type": "node",
            "lat": 47.187999,
            "lon": 17.094324,
            "name": "Temető emlékpark",
            "source": "turistautak.hu",
            "source:date": "2015-03-03",
            "tourism": "museum",
            "url": "http://turistautak.hu/poi.php?id=78031"
          },
          "geometry": {
            "type": "Point",
            "coordinates": [
              17.094324,
              47.187999
            ]
          }
        }
      ],
      "children": []
    },
    {
      "bbox": {
        "south": 47.36431175,
        "west": 15.253173,
        "north": 47.694865,
        "east": 16.2068765
      },
      "poiCount": 20,
      "leafCount": 20,
      "averagePosition": [
        15.833415395,
        47.569061590000004
      ],
      "data": [
        {
          "type": "Feature",
          "properties": {
            "id": "5271561404",
            "osm_type": "node",
            "lat": 47.4394819,
            "lon": 15.2882626,
            "name": "KUZ",
            "tourism": "museum",
            "website": "https://www.kapfenberg-tourismus.at/en/kapfenbergvoucher/shoppingpartner/53:kulturzentrum-kapfenberg-kuz.html"
          },
          "geometry": {
            "type": "Point",
            "coordinates": [
              15.2882626,
              47.4394819
            ]
          }
        },
        {
          "type": "Feature",
          "properties": {
            "id": "775321100",
            "osm_type": "node",
            "lat": 47.6646875,
            "lon": 15.9537255,
            "name": "Bergbau- und Heimatmuseum Enzenreith",
            "opening_hours": "easter-Oct 26: Sa,Su,PH 10:00-12:00, 13:30-17:00",
            "tourism": "museum"
          },
          "geometry": {
            "type": "Point",
            "coordinates": [
              15.9537255,
              47.6646875
            ]
          }
        },
        {
          "type": "Feature",
          "properties": {
            "id": "1975595294",
            "osm_type": "node",
            "lat": 47.6381732,
            "lon": 15.8257691,
            "fee": "no",
            "name": "Hochstraßenmuseum",
            "tourism": "museum"
          },
          "geometry": {
            "type": "Point",
            "coordinates": [
              15.8257691,
              47.6381732
            ]
          }
        },
        {
          "type": "Feature",
          "properties": {
            "id": "1976926061",
            "osm_type": "node",
            "lat": 47.6453682,
            "lon": 15.8272154,
            "name": "Hochstraßenmuseum",
            "tourism": "museum"
          },
          "geometry": {
            "type": "Point",
            "coordinates": [
              15.8272154,
              47.6453682
            ]
          }
        },
        {
          "type": "Feature",
          "properties": {
            "id": "1976926285",
            "osm_type": "node",
            "lat": 47.642138,
            "lon": 15.828321,
            "fee": "no",
            "name": "Hochstraßenmuseum",
            "opening_hours": "24/7",
            "tourism": "museum",
            "wheelchair": "yes"
          },
          "geometry": {
            "type": "Point",
            "coordinates": [
              15.828321,
              47.642138
            ]
          }
        },
        {
          "type": "Feature",
          "properties": {
            "id": "1976926430",
            "osm_type": "node",
            "lat": 47.6404021,
            "lon": 15.8275088,
            "fee": "no",
            "name": "Hochstraßenmuseum",
            "opening_hours": "24/7",
            "tourism": "museum"
          },
          "geometry": {
            "type": "Point",
            "coordinates": [
              15.8275088,
              47.6404021
            ]
          }
        },
        {
          "type": "Feature",
          "properties": {
            "id": "1976926452",
            "osm_type": "node",
            "lat": 47.6400916,
            "lon": 15.8271157,
            "fee": "no",
            "name": "Hochstraßenmuseum",
            "opening_hours": "24/7",
            "tourism": "museum"
          },
          "geometry": {
            "type": "Point",
            "coordinates": [
              15.8271157,
              47.6400916
            ]
          }
        },
        {
          "type": "Feature",
          "properties": {
            "id": "2007747163",
            "osm_type": "node",
            "lat": 47.4111023,
            "lon": 15.7248389,
            "name": "Bildstein Museum",
            "operator": "gasthof-mosbacher",
            "tourism": "museum"
          },
          "geometry": {
            "type": "Point",
            "coordinates": [
              15.7248389,
              47.4111023
            ]
          }
        },
        {
          "type": "Feature",
          "properties": {
            "id": "2866128900",
            "osm_type": "node",
            "lat": 47.6057682,
            "lon": 15.6721654,
            "addr:city": "Mürzzuschlag",
            "addr:country": "AT",
            "addr:housenumber": "4",
            "addr:postcode": "8680",
            "addr:street": "Wiener Straße",
            "contact:phone": "+43 3852 3434",
            "name": "Brahmsmuseum",
            "tourism": "museum",
            "wikidata": "Q38179723",
            "wikipedia": "de:Brahmsmuseum Mürzzuschlag"
          },
          "geometry": {
            "type": "Point",
            "coordinates": [
              15.6721654,
              47.6057682
            ]
          }
        },
        {
          "type": "Feature",
          "properties": {
            "id": "3655815913",
            "osm_type": "node",
            "lat": 47.6631168,
            "lon": 15.5780845,
            "addr:city": "Neuberg an der Mürz",
            "addr:country": "AT",
            "addr:housenumber": "13",
            "addr:postcode": "8692",
            "addr:street": "Hauptstraße",
            "name": "Naturmuseum Neuberg",
            "opening_hours": "May 1-Oct 26: Mo-Su,PH 10:00-12:00,14:00-16:00",
            "tourism": "museum",
            "website": "http://www.naturmuseum-neuberg.at"
          },
          "geometry": {
            "type": "Point",
            "coordinates": [
              15.5780845,
              47.6631168
            ]
          }
        },
        {
          "type": "Feature",
          "properties": {
            "id": "7660923769",
            "osm_type": "node",
            "lat": 47.4428974,
            "lon": 15.6484647,
            "name": "Museum für bäuerliches Handwerk",
            "operator": "Familie Eggbauer",
            "phone": "+43 676 7356879",
            "tourism": "museum",
            "wikidata": "Q93866512"
          },
          "geometry": {
            "type": "Point",
            "coordinates": [
              15.6484647,
              47.4428974
            ]
          }
        },
        {
          "type": "Feature",
          "properties": {
            "id": "8831851227",
            "osm_type": "node",
            "lat": 47.6368973,
            "lon": 15.8258077,
            "name": "Hochstraßenmuseum",
            "tourism": "museum"
          },
          "geometry": {
            "type": "Point",
            "coordinates": [
              15.8258077,
              47.6368973
            ]
          }
        },
        {
          "type": "Feature",
          "properties": {
            "id": "8831851228",
            "osm_type": "node",
            "lat": 47.6350811,
            "lon": 15.827919,
            "name": "Hochstraßenmuseum",
            "tourism": "museum"
          },
          "geometry": {
            "type": "Point",
            "coordinates": [
              15.827919,
              47.6350811
            ]
          }
        },
        {
          "type": "Feature",
          "properties": {
            "id": "9879326717",
            "osm_type": "node",
            "lat": 47.52524,
            "lon": 15.7783974,
            "name": "Labyrinth Mensch",
            "tourism": "museum"
          },
          "geometry": {
            "type": "Point",
            "coordinates": [
              15.7783974,
              47.52524
            ]
          }
        },
        {
          "type": "Feature",
          "properties": {
            "id": "11051317264",
            "osm_type": "node",
            "lat": 47.5266101,
            "lon": 15.8518335,
            "addr:city": "Rettenegg",
            "addr:housenumber": "8",
            "addr:place": "Feistritzwald",
            "addr:postcode": "8674",
            "museum": "railway",
            "name": "Waldbahn-Ausstellung",
            "opening_hours": "Fr 10:00-20:00, Sa-Su 14:00-20:00",
            "operator": "Gustav Zach",
            "phone": "+43 3336 31288",
            "source": "https://www.rettenegg.at/gemeinde/images/AlteWaldbahn.pdf",
            "subject:wikidata": "Q1402118",
            "tourism": "museum"
          },
          "geometry": {
            "type": "Point",
            "coordinates": [
              15.8518335,
              47.5266101
            ]
          }
        },
        {
          "type": "Feature",
          "properties": {
            "id": "12999206862",
            "osm_type": "node",
            "lat": 47.4849263,
            "lon": 15.7195682,
            "name": "Blasmusikmuseum",
            "tourism": "museum",
            "website": "https://www.mv-ratten.at/blasmusikmuseum/"
          },
          "geometry": {
            "type": "Point",
            "coordinates": [
              15.7195682,
              47.4849263
            ]
          }
        },
        {
          "type": "Feature",
          "properties": {
            "id": "789334170",
            "osm_type": "node",
            "lat": 47.661194,
            "lon": 16.1770837,
            "addr:city": "Thernberg",
            "addr:country": "AT",
            "addr:housenumber": "1",
            "addr:place": "Thernberg-Markt",
            "addr:postcode": "2832",
            "at_bev:addr_date": "2017-10-01",
            "name": "Erzherzog Johann Gedenkraum",
            "tourism": "museum"
          },
          "geometry": {
            "type": "Point",
            "coordinates": [
              16.1770837,
              47.661194
            ]
          }
        },
        {
          "type": "Feature",
          "properties": {
            "id": "1445157493",
            "osm_type": "node",
            "lat": 47.5167553,
            "lon": 16.1945801,
            "name": "Heimatmuseum (Museumsdorf)",
            "tourism": "museum"
          },
          "geometry": {
            "type": "Point",
            "coordinates": [
              16.1945801,
              47.5167553
            ]
          }
        },
        {
          "type": "Feature",
          "properties": {
            "id": "1701378203",
            "osm_type": "node",
            "lat": 47.40543,
            "lon": 16.202,
            "addr:city": "Aschau im Burgenland",
            "addr:country": "AT",
            "addr:housenumber": "2",
            "addr:postcode": "7432",
            "addr:street": "Turmweg",
            "at_bev:addr_date": "2020-10-01",
            "name": "Turmuhren & Bratenwendermuseum",
            "tourism": "museum"
          },
          "geometry": {
            "type": "Point",
            "coordinates": [
              16.202,
              47.40543
            ]
          }
        },
        {
          "type": "Feature",
          "properties": {
            "id": "2247655074",
            "osm_type": "node",
            "lat": 47.5558705,
            "lon": 16.0896467,
            "addr:city": "Aspang-Markt",
            "addr:housenumber": "3a",
            "addr:postcode": "2870",
            "addr:street": "Marienplatz",
            "fee": "yes",
            "museum": "transport",
            "name": "Automobilmuseum",
            "tourism": "museum",
            "website": "https://www.automobilmuseum.at/",
            "wheelchair": "no"
          },
          "geometry": {
            "type": "Point",
            "coordinates": [
              16.0896467,
              47.5558705
            ]
          }
        }
      ],
      "children": []
    },
    {
      "bbox": {
        "south": 47.36431175,
        "west": 16.2068765,
        "north": 47.694865,
        "east": 17.16058
      },
      "poiCount": 36,
      "leafCount": 36,
      "averagePosition": [
        16.66362546111111,
        47.586008525
      ],
      "data": [
        {
          "type": "Feature",
          "properties": {
            "id": "456922048",
            "osm_type": "node",
            "lat": 47.5870113,
            "lon": 16.4684455,
            "fee": "yes",
            "name": "Museum im Schloss Lackenbach",
            "opening_hours": "Mar-Dec: We-Su 09:00-17:00",
            "tourism": "museum",
            "website": "https://esterhazy.at/schloss-lackenbach"
          },
          "geometry": {
            "type": "Point",
            "coordinates": [
              16.4684455,
              47.5870113
            ]
          }
        },
        {
          "type": "Feature",
          "properties": {
            "id": "1407006772",
            "osm_type": "node",
            "lat": 47.6508369,
            "lon": 16.496764,
            "addr:city": "Sopron",
            "addr:housenumber": "14",
            "addr:postcode": "9408",
            "addr:street": "Óbrennbergi út",
            "addr:suburb": "Brennbergbánya",
            "name": "Bányászati Emlékház",
            "opening_hours": "May-Sep: We-Su 14:00-18:00",
            "phone": "+36 99 311 327",
            "tourism": "museum"
          },
          "geometry": {
            "type": "Point",
            "coordinates": [
              16.496764,
              47.6508369
            ]
          }
        },
        {
          "type": "Feature",
          "properties": {
            "id": "1428866616",
            "osm_type": "node",
            "lat": 47.6700105,
            "lon": 16.4992036,
            "addr:city": "Sopron",
            "addr:housenumber": "3",
            "addr:postcode": "9408",
            "addr:street": "Hidegvízvölgy utca",
            "addr:suburb": "Görbehalom",
            "name": "Görbehalmi Bányászmúzeum",
            "phone": "+36 99 354 188",
            "tourism": "museum",
            "website": "http://gorbehalom-banyamuzeum.hu/"
          },
          "geometry": {
            "type": "Point",
            "coordinates": [
              16.4992036,
              47.6700105
            ]
          }
        },
        {
          "type": "Feature",
          "properties": {
            "id": "3466253963",
            "osm_type": "node",
            "lat": 47.6882665,
            "lon": 16.5118023,
            "name": "Tájház Múzeum",
            "source": "turistautak.hu",
            "source:date": "2008-05-14",
            "tourism": "museum",
            "url": "http://turistautak.hu/poi.php?id=37901"
          },
          "geometry": {
            "type": "Point",
            "coordinates": [
              16.5118023,
              47.6882665
            ]
          }
        },
        {
          "type": "Feature",
          "properties": {
            "id": "4210777311",
            "osm_type": "node",
            "lat": 47.5617342,
            "lon": 16.3386722,
            "fixme": "position",
            "name": "Mida Huber Museum",
            "tourism": "museum"
          },
          "geometry": {
            "type": "Point",
            "coordinates": [
              16.3386722,
              47.5617342
            ]
          }
        },
        {
          "type": "Feature",
          "properties": {
            "id": "4405611777",
            "osm_type": "node",
            "lat": 47.5254909,
            "lon": 16.4799971,
            "addr:city": "Stoob",
            "addr:country": "AT",
            "addr:housenumber": "140",
            "addr:postcode": "7344",
            "addr:street": "Hauptstraße",
            "at_bev:addr_date": "2018-10-01",
            "fee": "no",
            "heritage": "2",
            "heritage:operator": "bda",
            "name": "Diözesanmuseum, ehem. evangelischer Pfarrhof",
            "on_the_list:wikipedia": "de:Liste der denkmalgeschützten Objekte in Stoob",
            "ref:at:bda": "50219",
            "tourism": "museum",
            "wikidata": "Q38026343"
          },
          "geometry": {
            "type": "Point",
            "coordinates": [
              16.4799971,
              47.5254909
            ]
          }
        },
        {
          "type": "Feature",
          "properties": {
            "id": "5021891539",
            "osm_type": "node",
            "lat": 47.4474704,
            "lon": 16.3772303,
            "email": "office@fruehmittelalterdorf.at",
            "name": "Freilichtmuseum Frühmittelalterdorf Unterrabnitz",
            "tourism": "museum",
            "website": "http://www.fruehmittelalterdorf.at"
          },
          "geometry": {
            "type": "Point",
            "coordinates": [
              16.3772303,
              47.4474704
            ]
          }
        },
        {
          "type": "Feature",
          "properties": {
            "id": "7057793101",
            "osm_type": "node",
            "lat": 47.446245,
            "lon": 16.5061942,
            "addr:city": "Oberloisdorf",
            "addr:postcode": "7451",
            "addr:street": "Schulgasse",
            "name": "Dorfgemeinschaftshaus-Dorfmuseum",
            "opening_hours": "\"nur nach Vereinbarung\"",
            "tourism": "museum"
          },
          "geometry": {
            "type": "Point",
            "coordinates": [
              16.5061942,
              47.446245
            ]
          }
        },
        {
          "type": "Feature",
          "properties": {
            "id": "11842339969",
            "osm_type": "node",
            "lat": 47.5439418,
            "lon": 16.4466273,
            "addr:postcode": "7343",
            "email": "info@muba-neutal.at",
            "name": "MUBA",
            "phone": "05 7083 770",
            "tourism": "museum",
            "website": "https://neutal.riskommunal.net/muba"
          },
          "geometry": {
            "type": "Point",
            "coordinates": [
              16.4466273,
              47.5439418
            ]
          }
        },
        {
          "type": "Feature",
          "properties": {
            "id": "1415566402",
            "osm_type": "node",
            "lat": 47.3892789,
            "lon": 16.5411348,
            "name": "Patikamúzeum",
            "tourism": "museum"
          },
          "geometry": {
            "type": "Point",
            "coordinates": [
              16.5411348,
              47.3892789
            ]
          }
        },
        {
          "type": "Feature",
          "properties": {
            "id": "1470722561",
            "osm_type": "node",
            "lat": 47.6876468,
            "lon": 16.591798,
            "addr:city": "Sopron",
            "addr:housenumber": "25",
            "addr:postcode": "9400",
            "addr:street": "Várkerület",
            "email": "varosplebania@sopron.hu",
            "name": "Katolikus gyűjtemény",
            "opening_hours": "May-Oct: Tu 14:00-16:00; May-Oct: Th 09:00-11:00",
            "phone": "+36 99 312 221",
            "tourism": "museum"
          },
          "geometry": {
            "type": "Point",
            "coordinates": [
              16.591798,
              47.6876468
            ]
          }
        },
        {
          "type": "Feature",
          "properties": {
            "id": "1470722564",
            "osm_type": "node",
            "lat": 47.6838263,
            "lon": 16.591259,
            "addr:city": "Sopron",
            "addr:housenumber": "2",
            "addr:postcode": "9400",
            "addr:street": "Hátsókapu",
            "name": "Soproni Horváth József gyűjtemény",
            "opening_hours": "Th-Su 10:00-13:00, May-Sep: Sa 15:00-18:00",
            "phone": "+36 99 312 326",
            "tourism": "museum"
          },
          "geometry": {
            "type": "Point",
            "coordinates": [
              16.591259,
              47.6838263
            ]
          }
        },
        {
          "type": "Feature",
          "properties": {
            "id": "1620261094",
            "osm_type": "node",
            "lat": 47.3895932,
            "lon": 16.5385461,
            "charge": "2400 HUF",
            "fee": "yes",
            "tourism": "museum",
            "wheelchair": "yes"
          },
          "geometry": {
            "type": "Point",
            "coordinates": [
              16.5385461,
              47.3895932
            ]
          }
        },
        {
          "type": "Feature",
          "properties": {
            "id": "2397571777",
            "osm_type": "node",
            "lat": 47.4009461,
            "lon": 16.7078361,
            "addr:city": "Csepreg",
            "addr:housenumber": "2",
            "addr:postcode": "9735",
            "addr:street": "Kossuth Lajos utca",
            "name": "Csepregi Városi Múzeum, Helytörténeti Gyűjtemény",
            "phone": "+36 94 365 005",
            "tourism": "museum"
          },
          "geometry": {
            "type": "Point",
            "coordinates": [
              16.7078361,
              47.4009461
            ]
          }
        },
        {
          "type": "Feature",
          "properties": {
            "id": "2436295787",
            "osm_type": "node",
            "lat": 47.685776,
            "lon": 16.591291,
            "addr:city": "Sopron",
            "addr:housenumber": "1",
            "addr:postcode": "9400",
            "addr:street": "Új utca",
            "contact:phone": "+36 20 364 2263",
            "contact:website": "https://forum.scarbantia.com",
            "historic:civilization": "ancient_roman",
            "name": "Scarbantia Fóruma",
            "opening_hours": "Mo-Sa 10:00-18:00; Su 10:00-14:00",
            "tourism": "museum"
          },
          "geometry": {
            "type": "Point",
            "coordinates": [
              16.591291,
              47.685776
            ]
          }
        },
        {
          "type": "Feature",
          "properties": {
            "id": "2436570097",
            "osm_type": "node",
            "lat": 47.689073,
            "lon": 16.592372,
            "addr:city": "Sopron",
            "addr:housenumber": "5",
            "addr:postcode": "9400",
            "addr:street": "Bécsi út",
            "description": "látogatási szándékot előzetesen a 99/311327 telefonon jelezni",
            "name": "Pék-ház",
            "opening_hours": "Apr-Sep: Tu-Su 14:00-18:00",
            "phone": "+36 99 311 327",
            "tourism": "museum",
            "website": "http://muzeum.sopron.hu/"
          },
          "geometry": {
            "type": "Point",
            "coordinates": [
              16.592372,
              47.689073
            ]
          }
        },
        {
          "type": "Feature",
          "properties": {
            "id": "2822178469",
            "osm_type": "node",
            "lat": 47.5931651,
            "lon": 17.0270766,
            "tourism": "museum"
          },
          "geometry": {
            "type": "Point",
            "coordinates": [
              17.0270766,
              47.5931651
            ]
          }
        },
        {
          "type": "Feature",
          "properties": {
            "id": "2992827889",
            "osm_type": "node",
            "lat": 47.6074692,
            "lon": 16.7052045,
            "contact:website": "https://www.eszterhaza.hu/nagycenk/exhibition/istvn-szchenyi-memorial-museum",
            "fee": "yes",
            "name": "Széchenyi István Emlékmúzeum",
            "opening_hours": "Mo-Su 10:00-18:00",
            "tourism": "museum"
          },
          "geometry": {
            "type": "Point",
            "coordinates": [
              16.7052045,
              47.6074692
            ]
          }
        },
        {
          "type": "Feature",
          "properties": {
            "id": "3072137044",
            "osm_type": "node",
            "lat": 47.6871802,
            "lon": 16.5946821,
            "addr:city": "Sopron",
            "addr:housenumber": "11",
            "addr:postcode": "9400",
            "addr:street": "Balfi út",
            "name": "Zettl-Langer gyűjtemény",
            "phone": "+36 99 311 136",
            "tourism": "museum",
            "website": "http://zettl-langer.atw.hu/"
          },
          "geometry": {
            "type": "Point",
            "coordinates": [
              16.5946821,
              47.6871802
            ]
          }
        },
        {
          "type": "Feature",
          "properties": {
            "id": "3439644183",
            "osm_type": "node",
            "lat": 47.5495273,
            "lon": 17.0197819,
            "name": "Csipke Múzeum",
            "source": "turistautak.hu",
            "source:date": "2013-01-20",
            "tourism": "museum",
            "url": "http://turistautak.hu/poi.php?id=123634"
          },
          "geometry": {
            "type": "Point",
            "coordinates": [
              17.0197819,
              47.5495273
            ]
          }
        },
        {
          "type": "Feature",
          "properties": {
            "id": "3465143400",
            "osm_type": "node",
            "lat": 47.38879,
            "lon": 16.5394,
            "contact:phone": "+36 94 563 174;+36 94 563 175",
            "name": "Chernel István Madárvédelmi Mintatelep és Emlékmúzeum",
            "source": "turistautak.hu",
            "source:date": "2011-09-06",
            "tourism": "museum",
            "url": "http://turistautak.hu/poi.php?id=68659"
          },
          "geometry": {
            "type": "Point",
            "coordinates": [
              16.5394,
              47.38879
            ]
          }
        },
        {
          "type": "Feature",
          "properties": {
            "id": "3466247642",
            "osm_type": "node",
            "lat": 47.6157767,
            "lon": 16.8323009,
            "addr:city": "Fertőszéplak",
            "addr:housenumber": "13",
            "addr:postcode": "9436",
            "addr:street": "Soproni utca",
            "fixme": "resurvey (source was old)",
            "name": "Vasúti Lámpamúzeum",
            "source": "turistautak.hu",
            "source:date": "2008-05-14",
            "tourism": "museum",
            "url": "http://turistautak.hu/poi.php?id=9407"
          },
          "geometry": {
            "type": "Point",
            "coordinates": [
              16.8323009,
              47.6157767
            ]
          }
        },
        {
          "type": "Feature",
          "properties": {
            "id": "3466253188",
            "osm_type": "node",
            "lat": 47.6171791,
            "lon": 16.839767,
            "addr:city": "Fertőszéplak",
            "addr:housenumber": "31-39",
            "addr:postcode": "9436",
            "addr:street": "Nagy Lajos király utca",
            "fixme": "resurvey (source was old)",
            "museum": "history",
            "name": "Fertőszéplaki Tájházak",
            "operator": "SSzC Porpáczy Aladár Technikum és Kollégium, Fertőd",
            "operator:type": "government",
            "source": "turistautak.hu",
            "source:date": "2008-08-10",
            "tourism": "museum",
            "url": "http://turistautak.hu/poi.php?id=8848"
          },
          "geometry": {
            "type": "Point",
            "coordinates": [
              16.839767,
              47.6171791
            ]
          }
        },
        {
          "type": "Feature",
          "properties": {
            "id": "3466253956",
            "osm_type": "node",
            "lat": 47.6167504,
            "lon": 16.8352663,
            "addr:city": "Fertőszéplak",
            "addr:housenumber": "1",
            "addr:postcode": "9436",
            "addr:street": "Ady Endre utca",
            "museum": "history",
            "name": "Széchenyi Ferenc szülőháza",
            "source": "turistautak.hu",
            "source:date": "2010-12-05",
            "tourism": "museum",
            "url": "http://turistautak.hu/poi.php?id=8849"
          },
          "geometry": {
            "type": "Point",
            "coordinates": [
              16.8352663,
              47.6167504
            ]
          }
        },
        {
          "type": "Feature",
          "properties": {
            "id": "3885723249",
            "osm_type": "node",
            "lat": 47.6096839,
            "lon": 16.9425091,
            "name": "Kovácsműhely múzeum",
            "tourism": "museum"
          },
          "geometry": {
            "type": "Point",
            "coordinates": [
              16.9425091,
              47.6096839
            ]
          }
        },
        {
          "type": "Feature",
          "properties": {
            "id": "4018481047",
            "osm_type": "node",
            "lat": 47.6852213,
            "lon": 16.588648,
            "addr:city": "Sopron",
            "addr:housenumber": "27",
            "addr:postcode": "9400",
            "addr:street": "Színház utca",
            "fee": "yes",
            "museum": "history",
            "name": "Soproni Evangélikus Múzeum, Levéltár és Könyvtár",
            "opening_hours": "Mo,We 08:00-12:00,13:00-15:00; Sa,Su 14:00-18:00",
            "operator": "Soproni Evangélikus Egyházközség",
            "operator:type": "religious",
            "tourism": "museum",
            "website": "https://sopronigyujtemenyek.lutheran.hu/"
          },
          "geometry": {
            "type": "Point",
            "coordinates": [
              16.588648,
              47.6852213
            ]
          }
        },
        {
          "type": "Feature",
          "properties": {
            "id": "4179357777",
            "osm_type": "node",
            "lat": 47.6672068,
            "lon": 16.8512561,
            "museum": "nature",
            "name": "Látogatóközpont",
            "opening_hours": "Tu-Sa 08:00-16:00",
            "tourism": "museum"
          },
          "geometry": {
            "type": "Point",
            "coordinates": [
              16.8512561,
              47.6672068
            ]
          }
        },
        {
          "type": "Feature",
          "properties": {
            "id": "4179357778",
            "osm_type": "node",
            "lat": 47.6667717,
            "lon": 16.8508851,
            "tourism": "museum"
          },
          "geometry": {
            "type": "Point",
            "coordinates": [
              16.8508851,
              47.6667717
            ]
          }
        },
        {
          "type": "Feature",
          "properties": {
            "id": "4245439253",
            "osm_type": "node",
            "lat": 47.6353545,
            "lon": 16.8658738,
            "addr:city": "Sarród",
            "addr:housenumber": "8",
            "addr:postcode": "9435",
            "addr:street": "Szeder utca",
            "building": "yes",
            "name": "Tájház",
            "phone": "+36 99 537 166",
            "tourism": "museum",
            "website": "http://www.sarrodtajhaz.hu/"
          },
          "geometry": {
            "type": "Point",
            "coordinates": [
              16.8658738,
              47.6353545
            ]
          }
        },
        {
          "type": "Feature",
          "properties": {
            "id": "6401016461",
            "osm_type": "node",
            "lat": 47.5970305,
            "lon": 16.5493026,
            "level": "1",
            "name": "Weinbau- & Fahnenschwinger Museum",
            "opening_hours": "Th-Sa 10:00-12:00,15:00-19:00; Su 14:00-18:00; PH,Mo-We closed || \"nach Vereinbarung\"",
            "toilets": "yes",
            "toilets:wheelchair": "no",
            "tourism": "museum",
            "wheelchair": "no",
            "wheelchair:description": "Museum ist im ersten Stock ohne Aufzug"
          },
          "geometry": {
            "type": "Point",
            "coordinates": [
              16.5493026,
              47.5970305
            ]
          }
        },
        {
          "type": "Feature",
          "properties": {
            "id": "7256174576",
            "osm_type": "node",
            "lat": 47.3887189,
            "lon": 16.5408377,
            "name": "Tábornokház",
            "tourism": "museum"
          },
          "geometry": {
            "type": "Point",
            "coordinates": [
              16.5408377,
              47.3887189
            ]
          }
        },
        {
          "type": "Feature",
          "properties": {
            "id": "9507208569",
            "osm_type": "node",
            "lat": 47.6826897,
            "lon": 16.5832374,
            "addr:city": "Sopron",
            "addr:housenumber": "1",
            "addr:postcode": "9400",
            "addr:street": "Deák tér",
            "fee": "yes",
            "museum": "history",
            "name": "Lenck-villa",
            "opening_hours": "Tu-Su 10:00-18:00",
            "operator": "Soproni Múzeum",
            "tourism": "museum",
            "website": "https://sopronimuzeum.hu/helyszinek/lenck-villa"
          },
          "geometry": {
            "type": "Point",
            "coordinates": [
              16.5832374,
              47.6826897
            ]
          }
        },
        {
          "type": "Feature",
          "properties": {
            "id": "9507238746",
            "osm_type": "node",
            "lat": 47.6851548,
            "lon": 16.5914323,
            "name": "Macskakő gyermekmúeum",
            "tourism": "museum",
            "website": "https://sopronimuzeum.hu/2015/10/14/macskako-gyermekmuzeum/"
          },
          "geometry": {
            "type": "Point",
            "coordinates": [
              16.5914323,
              47.6851548
            ]
          }
        },
        {
          "type": "Feature",
          "properties": {
            "id": "11235496231",
            "osm_type": "node",
            "lat": 47.6346889,
            "lon": 16.6021993,
            "addr:city": "Harka",
            "addr:housenumber": "2",
            "addr:postcode": "9422",
            "addr:street": "Nyéki utca",
            "museum": "local",
            "name": "Harkai Evangélikus múzeum",
            "operator": "Harkai Evangélikus Egyház",
            "tourism": "museum",
            "website": "https://www.muzeumhalozat.hu/muzeumok/evangelikus-muzeum-harka"
          },
          "geometry": {
            "type": "Point",
            "coordinates": [
              16.6021993,
              47.6346889
            ]
          }
        },
        {
          "type": "Feature",
          "properties": {
            "id": "1382079321",
            "osm_type": "node",
            "lat": 47.667214,
            "lon": 17.1338497,
            "building": "yes",
            "name": "Esterházy Madárvárta",
            "operator": "Fertő-Hanság Nemzeti Park",
            "tourism": "museum"
          },
          "geometry": {
            "type": "Point",
            "coordinates": [
              17.1338497,
              47.667214
            ]
          }
        },
        {
          "type": "Feature",
          "properties": {
            "id": "1800727216",
            "osm_type": "node",
            "lat": 47.4535861,
            "lon": 17.1178327,
            "name": "Múzeum",
            "opening_hours": "Fr-Sa 14:00-17:00",
            "tourism": "museum"
          },
          "geometry": {
            "type": "Point",
            "coordinates": [
              17.1178327,
              47.4535861
            ]
          }
        }
      ],
      "children": []
    }
  ]
}