{
  "bbox": {
    "south": 47.033758500000005,
    "west": 13.345766,
    "north": 47.694865,
    "east": 15.253173
  },
  "poiCount": 48,
  "leafCount": 48,
  "averagePosition": [
    14.22233639375,
    47.346028160416665
  ],
  "data": [
    {
      "type": "Feature",
      "properties": {
        "id": "469779427",
        "osm_type": "node",
        "lat": 47.3450606,
        "lon": 13.3909943,
        "addr:city": "Flachau",
        "addr:country": "AT",
        "addr:housenumber": "232",
        "addr:postcode": "5542",
        "addr:street": "Hofgasse",
        "name": "Hermann Maier Fanshop/Museum",
        "tourism": "museum"
      },
      "geometry": {
        "type": "Point",
        "coordinates": [
          13.3909943,
          47.3450606
        ]
      }
    },
    {
      "type": "Feature",
      "properties": {
        "id": "5839462996",
        "osm_type": "node",
        "lat": 47.1560462,
        "lon": 13.5042551,
        "addr:city": "Zederhaus",
        "addr:country": "AT",
        "addr:housenumber": "19",
        "addr:place": "Zederhaus",
        "addr:postcode": "5584",
        "at_bev:addr_date": "2022-10-01",
        "name": "Walcherhäusl",
        "opening_hours": "Th,Su 14:00-17:00",
        "tourism": "museum",
        "website": "https://www.denkmalhof-maurergut.at"
      },
      "geometry": {
        "type": "Point",
        "coordinates": [
          13.5042551,
          47.1560462
        ]
      }
    },
    {
      "type": "Feature",
      "properties": {
        "id": "9017185112",
        "osm_type": "node",
        "lat": 47.1143772,
        "lon": 13.4401829,
        "addr:city": "Muhr",
        "addr:postcode": "5583",
        "museum": "history",
        "name": "Blasnerhof - Landwirtschaftliche Sammlung",
        "operator": "Familie Mandl",
        "operator:type": "private",
        "tourism": "museum",
        "website": "https://service.salzburg.gv.at/museen/detail.do?museumId=2595",
        "wikidata": "Q93494442"
      },
      "geometry": {
        "type": "Point",
        "coordinates": [
          13.4401829,
          47.1143772
        ]
      }
    },
    {
      "type": "Feature",
      "properties": {
        "id": "9017321559",
        "osm_type": "node",
        "lat": 47.0989126,
        "lon": 13.4977807,
        "name": "Zurück zum (M)Ursprung",
        "tourism": "museum",
        "url": "https://www.wandern.com/oesterreich/salzburg/salzburger-lungau/ausflugsziele/museen/ausstellung-m-ursprung/"
      },
      "geometry": {
        "type": "Point",
        "coordinates": [
          13.4977807,
          47.0989126
        ]
      }
    },
    {
      "type": "Feature",
      "properties": {
        "id": "10007800659",
        "osm_type": "node",
        "lat": 47.1677619,
        "lon": 13.4664157,
        "addr:city": "Zederhaus",
        "addr:housenumber": "30",
        "addr:place": "Rothenwand",
        "addr:postcode": "5584",
        "alt_name": "Denkmalhof Maurerhaus",
        "heritage": "2",
        "historic": "heritage",
        "museum": "local_history",
        "name": "Denkmalhof Maurergut",
        "opening_hours": "So & Mi 14-17",
        "operator": "Gemeinde Zederhaus",
        "operator:type": "public",
        "tourism": "museum",
        "website": "https://www.denkmalhof-maurergut.at/",
        "wikidata": "Q37918400"
      },
      "geometry": {
        "type": "Point",
        "coordinates": [
          13.4664157,
          47.1677619
        ]
      }
    },
    {
      "type": "Feature",
      "properties": {
        "id": "807115267",
        "osm_type": "node",
        "lat": 47.1121734,
        "lon": 14.0259365,
        "name": "Holzmuseum",
        "opening_hours": "May-Jun,Sep-Oct: 10:00-16:00,Jul-Aug: 10:00-17:00",
        "tourism": "museum",
        "wheelchair": "no"
      },
      "geometry": {
        "type": "Point",
        "coordinates": [
          14.0259365,
          47.1121734
        ]
      }
    },
    {
      "type": "Feature",
      "properties": {
        "id": "1174617941",
        "osm_type": "node",
        "lat": 47.3153496,
        "lon": 13.6851989,
        "name": "Nickelmuseum Hopfriesen",
        "tourism": "museum"
      },
      "geometry": {
        "type": "Point",
        "coordinates": [
          13.6851989,
          47.3153496
        ]
      }
    },
    {
      "type": "Feature",
      "properties": {
        "id": "4608515673",
        "osm_type": "node",
        "lat": 47.1501802,
        "lon": 13.7438629,
        "name": "Pfarr- und Wallfahrtsmuseum",
        "tourism": "museum"
      },
      "geometry": {
        "type": "Point",
        "coordinates": [
          13.7438629,
          47.1501802
        ]
      }
    },
    {
      "type": "Feature",
      "properties": {
        "id": "10005457599",
        "osm_type": "node",
        "lat": 47.1503458,
        "lon": 13.7507858,
        "addr:city": "Mariapfarr",
        "addr:housenumber": "562",
        "addr:postcode": "5571",
        "addr:street": "Miesdorf",
        "museum": "art",
        "name": "Hausmuseum",
        "opening_hours": "nach Vereinbarung",
        "operator": "Thérèse Mathieu, Octaaf Van Swalm",
        "operator:type": "private_non_profit",
        "tourism": "museum",
        "website": "https://hausmuseum.at/"
      },
      "geometry": {
        "type": "Point",
        "coordinates": [
          13.7507858,
          47.1503458
        ]
      }
    },
    {
      "type": "Feature",
      "properties": {
        "id": "12058711234",
        "osm_type": "node",
        "lat": 47.0989115,
        "lon": 13.6402142,
        "fee": "yes",
        "mobile": "+4367762948866",
        "name": "Kaufhausmuseum",
        "opening_hours": "Mo 10:00-12:00, Th 16:00-18:00, Sa 14:00-16:00",
        "phone": "+4364778238",
        "tourism": "museum"
      },
      "geometry": {
        "type": "Point",
        "coordinates": [
          13.6402142,
          47.0989115
        ]
      }
    },
    {
      "type": "Feature",
      "properties": {
        "id": "2963021665",
        "osm_type": "node",
        "lat": 47.2517752,
        "lon": 14.486567,
        "fee": "yes",
        "name": "Besucherbergwerk Oberzeiring",
        "tourism": "museum",
        "website": "https://www.silbergruben.at/"
      },
      "geometry": {
        "type": "Point",
        "coordinates": [
          14.486567,
          47.2517752
        ]
      }
    },
    {
      "type": "Feature",
      "properties": {
        "id": "6620338419",
        "osm_type": "node",
        "lat": 47.0727694,
        "lon": 14.4258066,
        "addr:city": "Neumarkt in der Steiermark",
        "addr:country": "AT",
        "addr:housenumber": "1",
        "addr:postcode": "8820",
        "addr:street": "Hauptplatz",
        "name": "NaLeMu - NaturLese Museum",
        "operator": "Naturpark Zirbitzkogel -Grebenzen",
        "tourism": "museum"
      },
      "geometry": {
        "type": "Point",
        "coordinates": [
          14.4258066,
          47.0727694
        ]
      }
    },
    {
      "type": "Feature",
      "properties": {
        "id": "6620359098",
        "osm_type": "node",
        "lat": 47.0668356,
        "lon": 14.4297088,
        "addr:city": "Neumarkt in der Steiermark",
        "addr:country": "AT",
        "addr:housenumber": "102",
        "addr:place": "Sankt Marein bei Neumarkt",
        "addr:postcode": "8820",
        "at_bev:addr_date": "2018-10-01",
        "name": "Novum Forum",
        "tourism": "museum"
      },
      "geometry": {
        "type": "Point",
        "coordinates": [
          14.4297088,
          47.0668356
        ]
      }
    },
    {
      "type": "Feature",
      "properties": {
        "id": "10169728773",
        "osm_type": "node",
        "lat": 47.1505087,
        "lon": 14.4132216,
        "name": "Museum Heimatkreis",
        "tourism": "museum"
      },
      "geometry": {
        "type": "Point",
        "coordinates": [
          14.4132216,
          47.1505087
        ]
      }
    },
    {
      "type": "Feature",
      "properties": {
        "id": "890502655",
        "osm_type": "node",
        "lat": 47.2022642,
        "lon": 14.6829514,
        "addr:city": "Fohnsdorf",
        "addr:housenumber": "10",
        "addr:postcode": "8753",
        "addr:street": "Schachtweg",
        "name": "Bergbaumuseum-Fohnsdorf",
        "phone": "+4335734647",
        "tourism": "museum",
        "website": "https://www.bergbaumuseum-fohnsdorf.at/"
      },
      "geometry": {
        "type": "Point",
        "coordinates": [
          14.6829514,
          47.2022642
        ]
      }
    },
    {
      "type": "Feature",
      "properties": {
        "id": "1617661077",
        "osm_type": "node",
        "lat": 47.197253,
        "lon": 14.7531436,
        "addr:city": "Zeltweg",
        "addr:country": "AT",
        "addr:housenumber": "Hangar - 8",
        "addr:postcode": "8740",
        "addr:street": "Fliegerhorst Hinterstoisser",
        "email": "mlfz@hgm.at",
        "museum": "military",
        "name": "Militärluftfahrtmuseum Zeltweg",
        "opening_hours": "Tu-Su 09:00-17:00",
        "operator": "Heeresgeschichtliches Museum",
        "phone": "+43 664 8876 3887",
        "tourism": "museum",
        "website": "https://www.hgm.at/ausstellungen/standorte-und-aussenstellen/zeltweg",
        "wikidata": "Q87477483"
      },
      "geometry": {
        "type": "Point",
        "coordinates": [
          14.7531436,
          47.197253
        ]
      }
    },
    {
      "type": "Feature",
      "properties": {
        "id": "1617847912",
        "osm_type": "node",
        "lat": 47.1691948,
        "lon": 14.6637052,
        "addr:city": "Judenburg",
        "addr:country": "AT",
        "addr:district": "Murtal",
        "addr:housenumber": "27",
        "addr:postcode": "8750",
        "addr:street": "Kaserngasse",
        "at_bev:addr_date": "2017-04-07",
        "contact:phone": "+43 3572 85053",
        "fee": "yes",
        "name": "Stadtmuseum Judenburg",
        "opening_hours": "Sep-Jun: Mo-Fr 09:00-14:00; Jul-Aug: Mo 09:00 -12:00; Tu-Sa 09:00-17:00",
        "tourism": "museum",
        "website": "https://www.judenburg.com/cms/Stadtmuseum_Judenburg.asp?n=13"
      },
      "geometry": {
        "type": "Point",
        "coordinates": [
          14.6637052,
          47.1691948
        ]
      }
    },
    {
      "type": "Feature",
      "properties": {
        "id": "3042020859",
        "osm_type": "node",
        "lat": 47.2686951,
        "lon": 14.6941705,
        "fee": "yes",
        "museum": "transport",
        "name": "VW-Käfermuseum Gaal",
        "tourism": "museum",
        "website": "http://www.kaefermuseum.at",
        "wheelchair": "yes",
        "wikimedia_commons": "Category:VW-Käfermuseum Gaal"
      },
      "geometry": {
        "type": "Point",
        "coordinates": [
          14.6941705,
          47.2686951
        ]
      }
    },
    {
      "type": "Feature",
      "properties": {
        "id": "4893712632",
        "osm_type": "node",
        "lat": 47.1686903,
        "lon": 14.6633716,
        "addr:city": "Judenburg",
        "addr:country": "AT",
        "addr:housenumber": "1",
        "addr:postcode": "8750",
        "addr:street": "Murtalerplatz",
        "contact:facebook": "https://www.facebook.com/puchmuseum.judenburg",
        "contact:phone": "+43 3572 47 127",
        "name": "Puchmuseum Judenburg",
        "opening_hours": "Apr-Oct:We-Su 09:00-17:00",
        "tourism": "museum",
        "website": "https://puchmuseum.at/"
      },
      "geometry": {
        "type": "Point",
        "coordinates": [
          14.6633716,
          47.1686903
        ]
      }
    },
    {
      "type": "Feature",
      "properties": {
        "id": "12754440601",
        "osm_type": "node",
        "lat": 47.3167902,
        "lon": 14.976995,
        "museum": "history",
        "name": "Museum der FF St. Stefan",
        "operator": "Feuerwehr St. Stefan ob Leoben",
        "tourism": "museum"
      },
      "geometry": {
        "type": "Point",
        "coordinates": [
          14.976995,
          47.3167902
        ]
      }
    },
    {
      "type": "Feature",
      "properties": {
        "id": "845705232",
        "osm_type": "node",
        "lat": 47.0715512,
        "lon": 15.1317947,
        "name": "Glasmuseum",
        "tourism": "museum"
      },
      "geometry": {
        "type": "Point",
        "coordinates": [
          15.1317947,
          47.0715512
        ]
      }
    },
    {
      "type": "Feature",
      "properties": {
        "id": "5254162367",
        "osm_type": "node",
        "lat": 47.0552118,
        "lon": 15.1055464,
        "addr:city": "Rosental an der Kainach",
        "addr:postcode": "8582",
        "contact:phone": "+43 3142 222 42",
        "description": "Besichtigung täglich nach telefonischer Voranmeldung in der Zeit vom 1. Mai bis 31. Oktober.",
        "name": "Bergbaumuseum Karlschacht",
        "tourism": "museum",
        "website": "https://www.rosental-kainach.at/das-museum/"
      },
      "geometry": {
        "type": "Point",
        "coordinates": [
          15.1055464,
          47.0552118
        ]
      }
    },
    {
      "type": "Feature",
      "properties": {
        "id": "6479112076",
        "osm_type": "node",
        "lat": 47.1018011,
        "lon": 15.1754129,
        "name": "Kelten- und Römermuseum Södingberg",
        "opening_hours": "Mo,We 07:30-13:00,14:00-18:00",
        "operator": "Gemeindeamt Geistthal-Södingberg",
        "tourism": "museum"
      },
      "geometry": {
        "type": "Point",
        "coordinates": [
          15.1754129,
          47.1018011
        ]
      }
    },
    {
      "type": "Feature",
      "properties": {
        "id": "8331671742",
        "osm_type": "node",
        "lat": 47.0735051,
        "lon": 15.1595664,
        "name": "Franz Weiß Museum",
        "tourism": "museum"
      },
      "geometry": {
        "type": "Point",
        "coordinates": [
          15.1595664,
          47.0735051
        ]
      }
    },
    {
      "type": "Feature",
      "properties": {
        "id": "10273458069",
        "osm_type": "node",
        "lat": 47.0830557,
        "lon": 15.1248801,
        "addr:city": "Bärnbach",
        "addr:country": "AT",
        "addr:housenumber": "68",
        "addr:postcode": "8572",
        "addr:street": "Hauptstraße",
        "name": "Burgenkundliche Museum",
        "tourism": "museum"
      },
      "geometry": {
        "type": "Point",
        "coordinates": [
          15.1248801,
          47.0830557
        ]
      }
    },
    {
      "type": "Feature",
      "properties": {
        "id": "1184554207",
        "osm_type": "node",
        "lat": 47.3856658,
        "lon": 13.465667,
        "addr:city": "Radstadt",
        "addr:country": "AT",
        "addr:street": "Schießturm",
        "name": "Kapuzinerturm",
        "tourism": "museum",
        "wikidata": "Q37926453"
      },
      "geometry": {
        "type": "Point",
        "coordinates": [
          13.465667,
          47.3856658
        ]
      }
    },
    {
      "type": "Feature",
      "properties": {
        "id": "1184554240",
        "osm_type": "node",
        "lat": 47.3875426,
        "lon": 13.4581668,
        "addr:city": "Radstadt",
        "addr:country": "AT",
        "addr:housenumber": "1",
        "addr:postcode": "5550",
        "addr:street": "Schloßstraße",
        "fee": "yes",
        "int_name": "Schloss Lerchen",
        "name": "Schloß Lerchen",
        "tourism": "museum",
        "wikidata": "Q15844484",
        "wikipedia": "de:Schloss Lerchen"
      },
      "geometry": {
        "type": "Point",
        "coordinates": [
          13.4581668,
          47.3875426
        ]
      }
    },
    {
      "type": "Feature",
      "properties": {
        "id": "5001678938",
        "osm_type": "node",
        "lat": 47.3856958,
        "lon": 13.4625918,
        "name": "Radstädter Radgarten",
        "opening_hours": "24/7",
        "tourism": "museum"
      },
      "geometry": {
        "type": "Point",
        "coordinates": [
          13.4625918,
          47.3856958
        ]
      }
    },
    {
      "type": "Feature",
      "properties": {
        "id": "1283055817",
        "osm_type": "node",
        "lat": 47.421799,
        "lon": 13.6543615,
        "addr:city": "Ramsau am Dachstein",
        "addr:postcode": "8972",
        "name": "Zeitroas - Ramsau am Dachstein",
        "tourism": "museum"
      },
      "geometry": {
        "type": "Point",
        "coordinates": [
          13.6543615,
          47.421799
        ]
      }
    },
    {
      "type": "Feature",
      "properties": {
        "id": "2963021672",
        "osm_type": "node",
        "lat": 47.6514124,
        "lon": 13.739155,
        "addr:city": "Altaussee",
        "addr:country": "AT",
        "addr:housenumber": "25",
        "addr:postcode": "8992",
        "addr:street": "Lichtersberg",
        "alt_name": "Salzbergwerk Altausee",
        "fee": "yes",
        "historic": "mine",
        "name": "Salzwelten Altaussee",
        "opening_hours:url": "https://tickets.salzwelten.at/en/3/date",
        "operator": "Salzwelten GmbH",
        "phone": "+4361322002400",
        "resource": "salt",
        "tourism": "museum",
        "website": "https://salzwelten.at/en/altaussee",
        "wheelchair": "no",
        "wikidata": "Q1635896",
        "wikimedia_commons": "Category:Altaussee salt mine",
        "wikipedia": "de:Salzbergwerk Altaussee"
      },
      "geometry": {
        "type": "Point",
        "coordinates": [
          13.739155,
          47.6514124
        ]
      }
    },
    {
      "type": "Feature",
      "properties": {
        "id": "4766732678",
        "osm_type": "node",
        "lat": 47.5560719,
        "lon": 13.6452871,
        "check_date": "2024-07-19",
        "name": "Salzwelten Hallstatt",
        "opening_hours": "Apr-Oct: Mo-Su 09:00-18:00; Nov-Mar: Mo-Su 09:00-16:30",
        "operator": "Salzwelten GmbH",
        "tourism": "museum",
        "website": "https://www.salzwelten.at/de/hallstatt/preise-oeffnungszeiten",
        "wheelchair": "yes"
      },
      "geometry": {
        "type": "Point",
        "coordinates": [
          13.6452871,
          47.5560719
        ]
      }
    },
    {
      "type": "Feature",
      "properties": {
        "id": "6780568726",
        "osm_type": "node",
        "lat": 47.4434561,
        "lon": 13.9028107,
        "addr:city": "Gröbming",
        "addr:country": "AT",
        "addr:housenumber": "251",
        "addr:postcode": "8962",
        "addr:street": "Dr. F. X. Mayr-Straße",
        "at_bev:addr_date": "2018-10-01",
        "fee": "no",
        "name": "Museum Gröbming",
        "opening_hours": "Mo-Su,PH 11:00-16:00",
        "phone": "+436643003771",
        "tourism": "museum",
        "website": "https://www.groebming.at/de/museum/"
      },
      "geometry": {
        "type": "Point",
        "coordinates": [
          13.9028107,
          47.4434561
        ]
      }
    },
    {
      "type": "Feature",
      "properties": {
        "id": "7046869945",
        "osm_type": "node",
        "lat": 47.6424644,
        "lon": 13.6115548,
        "name": "Holzknechtmuseum",
        "tourism": "museum"
      },
      "geometry": {
        "type": "Point",
        "coordinates": [
          13.6115548,
          47.6424644
        ]
      }
    },
    {
      "type": "Feature",
      "properties": {
        "id": "7046870705",
        "osm_type": "node",
        "lat": 47.6425658,
        "lon": 13.6133802,
        "name": "Heimat- und Landlermuseum",
        "tourism": "museum",
        "wikidata": "Q38122956"
      },
      "geometry": {
        "type": "Point",
        "coordinates": [
          13.6133802,
          47.6425658
        ]
      }
    },
    {
      "type": "Feature",
      "properties": {
        "id": "7059868186",
        "osm_type": "node",
        "lat": 47.668702,
        "lon": 13.6108164,
        "addr:city": "Bad Goisern am Hallstättersee",
        "addr:housenumber": "1",
        "addr:place": "Anzenau",
        "addr:postcode": "4822",
        "name": "Freilichtmuseum Anzenaumühle",
        "tourism": "museum"
      },
      "geometry": {
        "type": "Point",
        "coordinates": [
          13.6108164,
          47.668702
        ]
      }
    },
    {
      "type": "Feature",
      "properties": {
        "id": "10567829451",
        "osm_type": "node",
        "lat": 47.4103356,
        "lon": 13.7686938,
        "addr:city": "Haus",
        "addr:postcode": "8967",
        "addr:street": "Schloßplatz",
        "name": "Wintersportmuseum",
        "opening_hours": "Tu 10:00-12:00, We 16:00-18:00",
        "tourism": "museum"
      },
      "geometry": {
        "type": "Point",
        "coordinates": [
          13.7686938,
          47.4103356
        ]
      }
    },
    {
      "type": "Feature",
      "properties": {
        "id": "12150359621",
        "osm_type": "node",
        "lat": 47.4095034,
        "lon": 13.9662232,
        "museum": "local;climate_change",
        "tourism": "museum"
      },
      "geometry": {
        "type": "Point",
        "coordinates": [
          13.9662232,
          47.4095034
        ]
      }
    },
    {
      "type": "Feature",
      "properties": {
        "id": "939075375",
        "osm_type": "node",
        "lat": 47.574332,
        "lon": 14.4627312,
        "changing_table": "yes",
        "changing_table:location": "wheelchair_toilet",
        "check_date": "2022-08-26",
        "fee": "yes",
        "name": "Museum Stift Admont",
        "toilets": "yes",
        "toilets:wheelchair": "yes",
        "tourism": "museum",
        "website": "https://www.stiftadmont.at/",
        "wheelchair": "yes"
      },
      "geometry": {
        "type": "Point",
        "coordinates": [
          14.4627312,
          47.574332
        ]
      }
    },
    {
      "type": "Feature",
      "properties": {
        "id": "3663462774",
        "osm_type": "node",
        "lat": 47.6641526,
        "lon": 14.3386836,
        "addr:city": "Spital am Pyhrn",
        "addr:country": "AT",
        "addr:housenumber": "1",
        "addr:postcode": "4582",
        "addr:street": "Stiftsplatz",
        "contact:phone": "+43 7563 249",
        "fee": "yes",
        "name": "Zwischen Himmel und Erde",
        "opening_hours": "Mo-Su 09:00-12:00, 14:00-17:00",
        "tourism": "museum",
        "website": "https://www.urlaubsregion-pyhrn-priel.at/oesterreich/poi/430016421/zwischen-himmel-und-erde-gerlinde-kaltenbrunner-und-die-welt-der-8000er.html?h=8451"
      },
      "geometry": {
        "type": "Point",
        "coordinates": [
          14.3386836,
          47.6641526
        ]
      }
    },
    {
      "type": "Feature",
      "properties": {
        "id": "6510654803",
        "osm_type": "node",
        "lat": 47.6600937,
        "lon": 14.3383317,
        "addr:city": "Spital am Pyhrn",
        "addr:country": "AT",
        "addr:housenumber": "7",
        "addr:postcode": "4582",
        "addr:street": "Fischerweg",
        "contact:phone": "+43 7563 289",
        "description": "Privatmuseum; Sammlung von cirka 1.400 verschiedenen Kaffeekannen aus allen Teilen der Welt.",
        "name": "Kaffeekannen Museum",
        "tourism": "museum",
        "website": "https://www.urlaubsregion-pyhrn-priel.at/aktivitaeten/das-ganze-jahr/museumswelt.html#sort=title+asc"
      },
      "geometry": {
        "type": "Point",
        "coordinates": [
          14.3383317,
          47.6600937
        ]
      }
    },
    {
      "type": "Feature",
      "properties": {
        "id": "8737147262",
        "osm_type": "node",
        "lat": 47.5186817,
        "lon": 14.0814566,
        "addr:city": "Trautenfels",
        "addr:housenumber": "1",
        "addr:postcode": "8951",
        "addr:street": "Trautenfels",
        "fee": "yes",
        "museum": "landscape",
        "name": "Schloss Trautenfels",
        "tourism": "museum",
        "website": "https://www.museum-joanneum.at/schloss-trautenfels/",
        "wheelchair": "yes",
        "wikimedia_commons": "Category:Museum of Trautenfels Castle"
      },
      "geometry": {
        "type": "Point",
        "coordinates": [
          14.0814566,
          47.5186817
        ]
      }
    },
    {
      "type": "Feature",
      "properties": {
        "id": "8959264719",
        "osm_type": "node",
        "lat": 47.6648383,
        "lon": 14.3386987,
        "fee": "yes",
        "name": "Modelleisenbahnmuseum Spital am Pyhrn",
        "opening_hours": "Sa 14:00-18:00",
        "operator": "Modellbahnclub Spital am Pyhrn",
        "tourism": "museum",
        "website": "https://www.modellbahnclub-pyhrn-priel.at/"
      },
      "geometry": {
        "type": "Point",
        "coordinates": [
          14.3386987,
          47.6648383
        ]
      }
    },
    {
      "type": "Feature",
      "properties": {
        "id": "1344348691",
        "osm_type": "node",
        "lat": 47.6090769,
        "lon": 14.7431837,
        "name": "Köhlerzentrum",
        "tourism": "museum"
      },
      "geometry": {
        "type": "Point",
        "coordinates": [
          14.7431837,
          47.6090769
        ]
      }
    },
    {
      "type": "Feature",
      "properties": {
        "id": "1794360106",
        "osm_type": "node",
        "lat": 47.6602264,
        "lon": 14.9888302,
        "name": "Museum HochQuellenWasser",
        "tourism": "museum",
        "website": "http://www.wasserleitungsmuseum.at",
        "wikidata": "Q87646269"
      },
      "geometry": {
        "type": "Point",
        "coordinates": [
          14.9888302,
          47.6602264
        ]
      }
    },
    {
      "type": "Feature",
      "properties": {
        "id": "2327419793",
        "osm_type": "node",
        "lat": 47.5416257,
        "lon": 14.8882068,
        "name": "Kripperlmuseum",
        "tourism": "museum",
        "xmas:feature": "crib_museum"
      },
      "geometry": {
        "type": "Point",
        "coordinates": [
          14.8882068,
          47.5416257
        ]
      }
    },
    {
      "type": "Feature",
      "properties": {
        "id": "2992074357",
        "osm_type": "node",
        "lat": 47.6680833,
        "lon": 14.7866041,
        "name": "GeoZentrum",
        "tourism": "museum",
        "website": "https://geodorf.com/"
      },
      "geometry": {
        "type": "Point",
        "coordinates": [
          14.7866041,
          47.6680833
        ]
      }
    },
    {
      "type": "Feature",
      "properties": {
        "id": "4642637652",
        "osm_type": "node",
        "lat": 47.5424139,
        "lon": 14.8858226,
        "addr:city": "Eisenerz",
        "addr:housenumber": "1",
        "addr:postcode": "8790",
        "addr:street": "Schulstraße",
        "contact:phone": "+43 664 624 1691",
        "name": "Österreichisches Post- und Telegraphenmuseum",
        "opening_hours": "May-Oct: We-Sa 09:00-17:00",
        "tourism": "museum",
        "website": "https://www.postmuseum.at/"
      },
      "geometry": {
        "type": "Point",
        "coordinates": [
          14.8858226,
          47.5424139
        ]
      }
    },
    {
      "type": "Feature",
      "properties": {
        "id": "6139039106",
        "osm_type": "node",
        "lat": 47.541592,
        "lon": 14.8884206,
        "fee": "yes",
        "name": "Stadtmuseum",
        "tourism": "museum",
        "website": "https://museumsstadt.at"
      },
      "geometry": {
        "type": "Point",
        "coordinates": [
          14.8884206,
          47.541592
        ]
      }
    }
  ],
  "children": []
}