{
  "bbox": {
    "south": 46.372652,
    "west": 9.530952,
    "north": 47.033758500000005,
    "east": 11.438358999999998
  },
  "poiCount": 91,
  "leafCount": 0,
  "averagePosition": [
    10.596233639560438,
    46.68474873076923
  ],
  "data": [],
  "children": [
    {
      "bbox": {
        "south": 46.372652,
        "west": 9.530952,
        "north": 46.70320525,
        "east": 10.484655499999999
      },
      "poiCount": 14,
      "leafCount": 14,
      "averagePosition": [
        9.955487664285714,
        46.53637831428572
      ],
      "data": [
        {
          "type": "Feature",
          "properties": {
            "id": "845672961",
            "osm_type": "node",
            "lat": 46.4014585,
            "lon": 9.6907824,
            "addr:city": "Bregaglia",
            "addr:postcode": "7516",
            "addr:street": "Via Giovanni Segantini",
            "fee": "no",
            "name": "Museo Belvedere",
            "opening_hours": "Jul-Oct 10:00-17:00",
            "operator": "Pro Natura Grigioni",
            "payment:coins": "yes",
            "tourism": "museum"
          },
          "geometry": {
            "type": "Point",
            "coordinates": [
              9.6907824,
              46.4014585
            ]
          }
        },
        {
          "type": "Feature",
          "properties": {
            "id": "951427707",
            "osm_type": "node",
            "lat": 46.5972865,
            "lon": 9.9653398,
            "name": "Badilatti caferama Kaffeemuseum",
            "opening_hours": "Mo-Fr 15:00-18:00",
            "operator": "Kaffee Badilatti + Co. AG",
            "tourism": "museum",
            "website": "https://www.cafe-badilatti.ch/kaffee-museum/caferama.html"
          },
          "geometry": {
            "type": "Point",
            "coordinates": [
              9.9653398,
              46.5972865
            ]
          }
        },
        {
          "type": "Feature",
          "properties": {
            "id": "2108923441",
            "osm_type": "node",
            "lat": 46.5949159,
            "lon": 9.5947567,
            "fee": "yes",
            "name": "Museum Regiunal Savognin",
            "opening_hours": "Tu 16:30-18:00; Th 17:30-19:00",
            "opening_hours:summer": "Tu 19:30-21:00; Th 15:00-18:00",
            "opening_hours:winter": "Tu 16:30-18:00",
            "phone": "+41786561313",
            "tourism": "museum",
            "website": "https://www.museumsavognin.ch/"
          },
          "geometry": {
            "type": "Point",
            "coordinates": [
              9.5947567,
              46.5949159
            ]
          }
        },
        {
          "type": "Feature",
          "properties": {
            "id": "5532890868",
            "osm_type": "node",
            "lat": 46.497464,
            "lon": 9.8560318,
            "addr:city": "St. Moritz",
            "addr:housenumber": "35",
            "addr:postcode": "7500",
            "addr:street": "Via Dimlej",
            "name": "Mili Weber",
            "tourism": "museum",
            "website": "https://www.miliweber.ch/",
            "wikidata": "Q27488996"
          },
          "geometry": {
            "type": "Point",
            "coordinates": [
              9.8560318,
              46.497464
            ]
          }
        },
        {
          "type": "Feature",
          "properties": {
            "id": "5539556683",
            "osm_type": "node",
            "lat": 46.4939637,
            "lon": 9.8352421,
            "addr:city": "St. Moritz",
            "addr:housenumber": "39",
            "addr:postcode": "7500",
            "addr:street": "Via dal Bagn",
            "name": "Museum Engiadinais",
            "opening_hours": "Th-Su 11:00-17:00",
            "phone": "+41 81 833 43 33",
            "tourism": "museum",
            "website": "https://www.museum-engiadinais.ch/"
          },
          "geometry": {
            "type": "Point",
            "coordinates": [
              9.8352421,
              46.4939637
            ]
          }
        },
        {
          "type": "Feature",
          "properties": {
            "id": "7764619811",
            "osm_type": "node",
            "lat": 46.6751811,
            "lon": 9.6823208,
            "museum": "local",
            "name": "Small Railway Museum Filisur",
            "tourism": "museum"
          },
          "geometry": {
            "type": "Point",
            "coordinates": [
              9.6823208,
              46.6751811
            ]
          }
        },
        {
          "type": "Feature",
          "properties": {
            "id": "9950614999",
            "osm_type": "node",
            "lat": 46.4029475,
            "lon": 9.6953048,
            "name": "Atelier Segantini",
            "tourism": "museum",
            "wikidata": "Q29784551"
          },
          "geometry": {
            "type": "Point",
            "coordinates": [
              9.6953048,
              46.4029475
            ]
          }
        },
        {
          "type": "Feature",
          "properties": {
            "id": "10604586695",
            "osm_type": "node",
            "lat": 46.4291819,
            "lon": 9.7632699,
            "fee": "yes",
            "name": "Sils Museum",
            "opening_hours": "Tu-Su 16:00-18:00",
            "operator": "Andrea Robbi Stiftung",
            "seasonal": "summer",
            "tourism": "museum"
          },
          "geometry": {
            "type": "Point",
            "coordinates": [
              9.7632699,
              46.4291819
            ]
          }
        },
        {
          "type": "Feature",
          "properties": {
            "id": "12628620735",
            "osm_type": "node",
            "lat": 46.6954599,
            "lon": 9.5358377,
            "addr:city": "Vaz/Obervaz",
            "addr:housenumber": "2",
            "addr:postcode": "7082",
            "addr:street": "Voa da Solis",
            "name": "Museum Vaz/Obervaz",
            "tourism": "museum",
            "website": "https://museumvaz-lenzerheide.ch/",
            "wheelchair": "no"
          },
          "geometry": {
            "type": "Point",
            "coordinates": [
              9.5358377,
              46.6954599
            ]
          }
        },
        {
          "type": "Feature",
          "properties": {
            "id": "687017823",
            "osm_type": "node",
            "lat": 46.6295118,
            "lon": 10.4488866,
            "check_date": "2024-03-07",
            "email": "visit-museum@muestair.ch",
            "fax": "+41 81 858 62 92",
            "fee": "yes",
            "museum": "history",
            "museum_type": "municipal",
            "name": "Klostermuseum Müstair",
            "name:de": "Klostermuseum Müstair",
            "name:en": "Museum of the Convent Muestair",
            "name:it": "Museo del convento Müstair",
            "opening_hours": "Mo-Sa 09:00-17:00; PH,Su 13:30-17:00",
            "phone": "+41 81 851 62 28",
            "toilets": "yes",
            "toilets:access": "customers",
            "tourism": "museum",
            "website": "https://www.muestair.ch/zu-besuch/museum/",
            "wheelchair": "yes",
            "wikidata": "Q27489653"
          },
          "geometry": {
            "type": "Point",
            "coordinates": [
              10.4488866,
              46.6295118
            ]
          }
        },
        {
          "type": "Feature",
          "properties": {
            "id": "1733410777",
            "osm_type": "node",
            "lat": 46.4744364,
            "lon": 10.3701322,
            "name": "Museo Mineralogico Naturalistico Valli di Bormio",
            "tourism": "museum",
            "wikidata": "Q65934114"
          },
          "geometry": {
            "type": "Point",
            "coordinates": [
              10.3701322,
              46.4744364
            ]
          }
        },
        {
          "type": "Feature",
          "properties": {
            "id": "2457713463",
            "osm_type": "node",
            "lat": 46.6014649,
            "lon": 10.424367,
            "check_date": "2024-03-11",
            "name": "Museum 14/18",
            "tourism": "museum",
            "website": "https://www.stelvio-umbrail.ch/"
          },
          "geometry": {
            "type": "Point",
            "coordinates": [
              10.424367,
              46.6014649
            ]
          }
        },
        {
          "type": "Feature",
          "properties": {
            "id": "4477485228",
            "osm_type": "node",
            "lat": 46.5466099,
            "lon": 10.1383657,
            "addr:country": "IT",
            "addr:housenumber": "51",
            "addr:street": "Via Domenion",
            "description": "Museo Livigno Trepalle",
            "email": "mus@livigno.eu",
            "fee": "yes",
            "name": "Mus!",
            "name:ru": "Музей Ливиньо и Трепалле",
            "opening_hours": "Mo-We 15:00-19:00; Su 14:00-18:00",
            "phone": "+390342970296",
            "source": "survey",
            "tourism": "museum"
          },
          "geometry": {
            "type": "Point",
            "coordinates": [
              10.1383657,
              46.5466099
            ]
          }
        },
        {
          "type": "Feature",
          "properties": {
            "id": "13009520464",
            "osm_type": "node",
            "lat": 46.4694144,
            "lon": 10.3761898,
            "addr:housenumber": "25",
            "addr:street": "Via Buon Consiglio",
            "check_date": "2025-07-18",
            "name": "Museo Civico Di Bormio",
            "tourism": "museum",
            "wikidata": "Q55376872"
          },
          "geometry": {
            "type": "Point",
            "coordinates": [
              10.3761898,
              46.4694144
            ]
          }
        }
      ],
      "children": []
    },
    {
      "bbox": {
        "south": 46.372652,
        "west": 10.484655499999999,
        "north": 46.70320525,
        "east": 11.438358999999998
      },
      "poiCount": 39,
      "leafCount": 39,
      "averagePosition": [
        11.074383205128205,
        46.56133007692308
      ],
      "data": [
        {
          "type": "Feature",
          "properties": {
            "id": "691990931",
            "osm_type": "node",
            "lat": 46.5120435,
            "lon": 10.9239477,
            "name": "Talmuseum",
            "tourism": "museum",
            "wikidata": "Q55352717"
          },
          "geometry": {
            "type": "Point",
            "coordinates": [
              10.9239477,
              46.5120435
            ]
          }
        },
        {
          "type": "Feature",
          "properties": {
            "id": "2498730461",
            "osm_type": "node",
            "lat": 46.6177223,
            "lon": 10.8599952,
            "addr:city": "Latsch - Laces",
            "addr:city:de": "Latsch",
            "addr:city:it": "Laces",
            "addr:housenumber": "44",
            "addr:postcode": "39021",
            "addr:street": "Hauptstraße - Via Centrale",
            "addr:street:de": "Hauptstraße",
            "addr:street:it": "Via Centrale",
            "name": "Habsburger Museum",
            "phone": "+39 0473 623182",
            "tourism": "museum",
            "wikidata": "Q73487477"
          },
          "geometry": {
            "type": "Point",
            "coordinates": [
              10.8599952,
              46.6177223
            ]
          }
        },
        {
          "type": "Feature",
          "properties": {
            "id": "2517394314",
            "osm_type": "node",
            "lat": 46.6711706,
            "lon": 10.5565948,
            "fee": "yes",
            "name": "Ausstellung im Turm",
            "opening_hours": "Jun 15-Jul 09: Tu-Fr 10:00-12:00; Jul 10-Aug 31: Mo-Fr 10:00-12:00,14:00-17:00; Sep 01-Oct 31: Tu-Fr 10:00-12:00,13:30-16:00; PH off",
            "tourism": "museum",
            "wheelchair": "yes"
          },
          "geometry": {
            "type": "Point",
            "coordinates": [
              10.5565948,
              46.6711706
            ]
          }
        },
        {
          "type": "Feature",
          "properties": {
            "id": "3033947874",
            "osm_type": "node",
            "lat": 46.5710867,
            "lon": 10.7957462,
            "addr:city": "Martell",
            "addr:city:de": "Martell",
            "addr:housenumber": "246",
            "addr:postcode": "39020",
            "addr:street": "Trattla",
            "check_date": "2023-07-11",
            "email": "info@culturamartell.com",
            "fax": "+39 0473 745256",
            "fee": "yes",
            "name": "Nationalparkhaus culturamartell - Centro visite culturamartell",
            "name:de": "Nationalparkhaus culturamartell",
            "name:it": "Centro visite culturamartell",
            "phone": "+39 0473 745027",
            "tourism": "museum",
            "website": "http://www.stelviopark.bz.it/culturamartell/"
          },
          "geometry": {
            "type": "Point",
            "coordinates": [
              10.7957462,
              46.5710867
            ]
          }
        },
        {
          "type": "Feature",
          "properties": {
            "id": "3081910206",
            "osm_type": "node",
            "lat": 46.3862999,
            "lon": 10.6806941,
            "name": "Il Bosco degli Urogalli",
            "tourism": "museum"
          },
          "geometry": {
            "type": "Point",
            "coordinates": [
              10.6806941,
              46.3862999
            ]
          }
        },
        {
          "type": "Feature",
          "properties": {
            "id": "3131848456",
            "osm_type": "node",
            "lat": 46.6701517,
            "lon": 10.5528826,
            "fee": "yes",
            "name": "Paul-Flora-Museum",
            "phone": "+39 0473 831288",
            "tourism": "museum",
            "wikidata": "Q71827401"
          },
          "geometry": {
            "type": "Point",
            "coordinates": [
              10.5528826,
              46.6701517
            ]
          }
        },
        {
          "type": "Feature",
          "properties": {
            "id": "3196031528",
            "osm_type": "node",
            "lat": 46.6793356,
            "lon": 10.5315333,
            "description": "Das Museum selbst befindet sich in der Scheune der Pfarrei Laatsch. In der Bäckerei Schuster ist nur die Anmeldung.",
            "email": "thomas@mmklas.it",
            "fax": "+39 0473 830551",
            "fee": "no",
            "name": "Heimatmuseum Laatsch - Museo locale di Laudes",
            "name:de": "Heimatmuseum Laatsch",
            "name:it": "Museo locale di Laudes",
            "opening_hours": "Apr-Oct: We,Th 16:00-18:00",
            "phone": "+39 339 7394976",
            "tourism": "museum",
            "wheelchair": "yes",
            "wikidata": "Q55351985"
          },
          "geometry": {
            "type": "Point",
            "coordinates": [
              10.5315333,
              46.6793356
            ]
          }
        },
        {
          "type": "Feature",
          "properties": {
            "id": "4359220730",
            "osm_type": "node",
            "lat": 46.4007047,
            "lon": 10.6273834,
            "name": "Museo Punta Linke (I guerra mondiale)",
            "tourism": "museum",
            "website": "https://www.museopejo.it/il-museo-di-punta-linke/"
          },
          "geometry": {
            "type": "Point",
            "coordinates": [
              10.6273834,
              46.4007047
            ]
          }
        },
        {
          "type": "Feature",
          "properties": {
            "id": "11036898566",
            "osm_type": "node",
            "lat": 46.480738,
            "lon": 10.6792334,
            "fee": "no",
            "museum": "war;military",
            "name": "Badhaus-Museum",
            "name:de": "Badhaus-Museum",
            "operator": "Gemeinde Martell - Commune di Martello",
            "operator:de": "Gemeinde Martell",
            "tourism": "museum"
          },
          "geometry": {
            "type": "Point",
            "coordinates": [
              10.6792334,
              46.480738
            ]
          }
        },
        {
          "type": "Feature",
          "properties": {
            "id": "12299010121",
            "osm_type": "node",
            "lat": 46.6104488,
            "lon": 10.5752622,
            "change": "1 EUR",
            "fee": "yes",
            "name": "Museo all'aperto di Lorenz Kuntner",
            "opening_hours": "24/7",
            "tourism": "museum"
          },
          "geometry": {
            "type": "Point",
            "coordinates": [
              10.5752622,
              46.6104488
            ]
          }
        },
        {
          "type": "Feature",
          "properties": {
            "id": "12455804653",
            "osm_type": "node",
            "lat": 46.6506191,
            "lon": 10.9972266,
            "addr:city": "Naturns - Naturno",
            "addr:housenumber": "1",
            "addr:postcode": "39025",
            "addr:street": "Bernardin Astfäller Platz",
            "email": "info.tg@provinz.bz.it",
            "fee": "no",
            "name": "Naturparkhaus Texelgruppe - Centro visite Gruppo di Tessa",
            "name:de": "Naturparkhaus Texelgruppe",
            "name:it": "Centro visite Gruppo di Tessa",
            "opening_hours": "May 04-Nov 29",
            "phone": "+39 0473 668201",
            "tourism": "museum",
            "website": "https://nature-parks.province.bz.it/en/texelgruppe-gruppo-di-tessa-nature-park-visitor-center"
          },
          "geometry": {
            "type": "Point",
            "coordinates": [
              10.9972266,
              46.6506191
            ]
          }
        },
        {
          "type": "Feature",
          "properties": {
            "id": "279294217",
            "osm_type": "node",
            "lat": 46.4806545,
            "lon": 11.3049582,
            "addr:city": "Bolzano - Bozen",
            "addr:country": "IT",
            "addr:housename": "Castel Firmiano - Schloss Sigmundskron",
            "addr:housename:de": "Schloss Sigmundskron",
            "addr:housename:en": "Sigmundskron Castle",
            "addr:housename:it": "Castel Firmiano",
            "addr:housenumber": "53",
            "addr:postcode": "39100",
            "addr:street": "Via Castel Firmiano - Sigmundskroner Straße",
            "email": "info@messner-mountain-museum.it",
            "fax": "+39 0471 633884",
            "fee": "yes",
            "name": "Messner Mountain Museum Firmian",
            "operator": "Messner Mountain Museum GmbH",
            "phone": "+39 0471 631264",
            "short_name": "MMM Firmian",
            "tourism": "museum",
            "website": "https://www.messner-mountain-museum.it/de/firmian/",
            "wheelchair": "no",
            "wikidata": "Q55351762",
            "wikimedia_commons": "Category:Messner Mountain Museum Firmian",
            "wikipedia": "de:Messner Mountain Museum Firmian"
          },
          "geometry": {
            "type": "Point",
            "coordinates": [
              11.3049582,
              46.4806545
            ]
          }
        },
        {
          "type": "Feature",
          "properties": {
            "id": "725562669",
            "osm_type": "node",
            "lat": 46.4230555,
            "lon": 11.1469654,
            "name": "Musei di Ronzone",
            "tourism": "museum"
          },
          "geometry": {
            "type": "Point",
            "coordinates": [
              11.1469654,
              46.4230555
            ]
          }
        },
        {
          "type": "Feature",
          "properties": {
            "id": "736899603",
            "osm_type": "node",
            "lat": 46.6943278,
            "lon": 11.1445176,
            "description": "Südtiroler Landesmuseum für Kultur- und Landesgeschichte",
            "fee": "yes",
            "name": "Schloss Tirol - Castel Tirolo",
            "name:de": "Schloss Tirol",
            "name:fr": "Château Tyrol",
            "name:it": "Castel Tirolo",
            "tourism": "museum",
            "website": "https://www.schlosstirol.it/",
            "wikidata": "Q15131764"
          },
          "geometry": {
            "type": "Point",
            "coordinates": [
              11.1445176,
              46.6943278
            ]
          }
        },
        {
          "type": "Feature",
          "properties": {
            "id": "760263777",
            "osm_type": "node",
            "lat": 46.684545,
            "lon": 11.0736259,
            "addr:city": "Partschins - Parcines",
            "addr:housenumber": "10",
            "addr:postcode": "39020",
            "addr:street": "Huben-Straße - Via Huben",
            "email": "info@typewritermuseum.com",
            "museum": "technology",
            "name": "Schreibmaschinenmuseum",
            "opening_hours": "Apr-Oct: Mo 14:00-18:00; Tu-Fr 10:00-12:00, 14:00-18:00; Sa 10:00-12:00; Su, PH off; Nov-Mar: Tu 10:00-12:00",
            "operator": "Schreibmaschinenmuseum Peter Mitterhofer",
            "operator:type": "private",
            "phone": "+39 0473 967581",
            "tourism": "museum",
            "website": "https://www.schreibmaschinenmuseum.com/museo-storia/",
            "wikidata": "Q17592733"
          },
          "geometry": {
            "type": "Point",
            "coordinates": [
              11.0736259,
              46.684545
            ]
          }
        },
        {
          "type": "Feature",
          "properties": {
            "id": "1774367486",
            "osm_type": "node",
            "lat": 46.6716304,
            "lon": 11.1623247,
            "email": "info@kunstmeranoarte.org",
            "fee": "yes",
            "name": "Kunsthaus Meran",
            "opening_hours": "Tu-Sa 10:00-18:00; Su 11:00-18:00; PH 11:00-18:00",
            "phone": "+39 0473 212643",
            "tourism": "museum",
            "website": "https://www.kunstmeranoarte.org/",
            "wheelchair": "limited",
            "wheelchair:description": "Aufzug wird vom Personal bedient",
            "wikidata": "Q1316490"
          },
          "geometry": {
            "type": "Point",
            "coordinates": [
              11.1623247,
              46.6716304
            ]
          }
        },
        {
          "type": "Feature",
          "properties": {
            "id": "1860079744",
            "osm_type": "node",
            "lat": 46.5283148,
            "lon": 11.1115024,
            "addr:city": "Unsere Liebe Frau im Walde-St. Felix - Senale-San Felice",
            "addr:postcode": "39010",
            "addr:street": "Strada Statale 238 del Passo di Palade",
            "contact:email": "info@gampengallery.it",
            "contact:mobile": "+39 331 7019338",
            "contact:phone": "+39 0463 886321",
            "contact:website": "https://gampen-bunker.merano-suedtirol.it",
            "description:it": "All'interno di una delle gallerie è custodita la mostra di minerali costituita da oltre 2.500 reperti provenienti da tutto il mondo. La galleria d’ingresso del bunker è adibita a spazio espositivo di mostre fotografiche di vario genere.",
            "museum": "military",
            "name": "Gampen Bunker - Bunker di Passo Palade",
            "name:de": "Gampen Bunker",
            "name:it": "Bunker di Passo Palade",
            "opening_hours": "May: Sa-Su 10:00-17:00; Jun 01-15: Fr-Su 10:00-17:00; Jun 16-Sep 15: Mo-Su 10:00-17:00; Sep 16-Oct 31: Fr-Su 10:00-17:00",
            "tourism": "museum"
          },
          "geometry": {
            "type": "Point",
            "coordinates": [
              11.1115024,
              46.5283148
            ]
          }
        },
        {
          "type": "Feature",
          "properties": {
            "id": "1885120329",
            "osm_type": "node",
            "lat": 46.4561685,
            "lon": 11.2592058,
            "addr:housenumber": "24",
            "addr:street": "Johann-Georg-Plazer-Strasse",
            "amenity": "community_centre",
            "email": "wirtschaft.kultur@eppan.eu",
            "fee": "no",
            "name": "Lanserhaus",
            "name:de": "Lanserhaus",
            "name:it": "Lanserhaus",
            "opening_hours": "Tu-Fr 15:00-18:00; Sa, Su 10:00-12:00, 15:00-18:00",
            "phone": "+390471667566",
            "tourism": "museum",
            "website": "https://www.eppan.eu/de/Lanserhaus",
            "wikidata": "Q107149279"
          },
          "geometry": {
            "type": "Point",
            "coordinates": [
              11.2592058,
              46.4561685
            ]
          }
        },
        {
          "type": "Feature",
          "properties": {
            "id": "2518957272",
            "osm_type": "node",
            "lat": 46.4994684,
            "lon": 11.3541861,
            "email:de": "mm@handelskammer.bz.it",
            "email:it": "mm@camcom.bz.it",
            "fax": "+39 0471 945601",
            "fee": "yes",
            "name": "Museo Mercantile - Merkantilmuseum",
            "name:de": "Merkantilmuseum",
            "name:it": "Museo Mercantile",
            "opening_hours": "Mo-Sa 10:00-12:30; Th 10:00-13:00, 14:00-16:00",
            "phone": "+39 0471 945702",
            "tourism": "museum",
            "website": "https://www.camcom.bz.it/it/servizi/museo-mercantile",
            "wikidata": "Q1381160",
            "wikimedia_commons": "Category:Merkantilmuseum Bozen",
            "wikipedia": "de:Merkantilmuseum"
          },
          "geometry": {
            "type": "Point",
            "coordinates": [
              11.3541861,
              46.4994684
            ]
          }
        },
        {
          "type": "Feature",
          "properties": {
            "id": "2637209033",
            "osm_type": "node",
            "lat": 46.4974398,
            "lon": 11.3545436,
            "fee": "yes",
            "name": "Tesoro del Duomo di Bolzano - Domschatzkammer Bozen",
            "name:de": "Domschatzkammer Bozen",
            "name:it": "Tesoro del Duomo di Bolzano",
            "tourism": "museum",
            "wikidata": "Q29015517",
            "wikipedia": "de:Domschatzkammer Bozen"
          },
          "geometry": {
            "type": "Point",
            "coordinates": [
              11.3545436,
              46.4974398
            ]
          }
        },
        {
          "type": "Feature",
          "properties": {
            "id": "2749566764",
            "osm_type": "node",
            "lat": 46.4736524,
            "lon": 11.3221623,
            "addr:city": "Bolzano - Bozen",
            "addr:city:de": "Bozen",
            "addr:city:it": "Bolzano",
            "addr:housenumber": "13",
            "addr:postcode": "39100",
            "addr:street": "Via Giotto - Giottostraße",
            "addr:street:de": "Giottostraße",
            "addr:street:it": "Via Giotto",
            "email:de": "abteilung.hochbau@provinz.bz.it",
            "email:it": "ripartizione.edilizia@provincia.bz.it",
            "fee": "no",
            "name": "Archimod",
            "phone": "+39 0471 412 330",
            "tourism": "museum"
          },
          "geometry": {
            "type": "Point",
            "coordinates": [
              11.3221623,
              46.4736524
            ]
          }
        },
        {
          "type": "Feature",
          "properties": {
            "id": "2749744426",
            "osm_type": "node",
            "lat": 46.5720954,
            "lon": 11.2164372,
            "addr:city": "Gargazon - Gargazzone",
            "addr:city:de": "Gargazon",
            "addr:city:it": "Gargazzone",
            "addr:housenumber": "26",
            "addr:postcode": "39010",
            "addr:street": "Reichsstraße - Via Nazionale",
            "addr:street:de": "Reichsstraße",
            "addr:street:it": "Via Nazionale",
            "email": "orchideenwelt@raffeiner.net",
            "fax": "+39 0471 200722",
            "name": "Orchideenwelt",
            "opening_hours": "Mo-Su 10:00-18:00",
            "phone": "+39 0471 920218",
            "tourism": "museum",
            "website": "https://www.raffeiner.net/"
          },
          "geometry": {
            "type": "Point",
            "coordinates": [
              11.2164372,
              46.5720954
            ]
          }
        },
        {
          "type": "Feature",
          "properties": {
            "id": "2755800654",
            "osm_type": "node",
            "lat": 46.6726335,
            "lon": 11.1587625,
            "addr:city": "Meran - Merano",
            "addr:city:de": "Meran",
            "addr:city:it": "Merano",
            "addr:housenumber": "2",
            "addr:postcode": "39012",
            "addr:street": "Meinhardstraße - Via Mainardo",
            "addr:street:de": "Meinhardstraße",
            "addr:street:it": "Via Mainardo",
            "email": "info@museia.it",
            "fee": "yes",
            "museum": "ethnography",
            "name": "Frauenmuseum - Museum delle Donne",
            "name:de": "Frauenmuseum",
            "name:en": "Women's Museum",
            "name:it": "Museo delle Donne",
            "opening_hours": "Tu,We 10:00-13:00; Th,Fr 10:00-17:00; Sa 10:00-13:00; Su,PH off",
            "phone": "+39 0473 231216",
            "tourism": "museum",
            "website": "https://www.museia.it/",
            "wheelchair": "yes",
            "wikidata": "Q1451820",
            "wikipedia": "de:Frauenmuseum Meran"
          },
          "geometry": {
            "type": "Point",
            "coordinates": [
              11.1587625,
              46.6726335
            ]
          }
        },
        {
          "type": "Feature",
          "properties": {
            "id": "2755813233",
            "osm_type": "node",
            "lat": 46.6715117,
            "lon": 11.1658098,
            "addr:city": "Meran - Merano",
            "addr:city:de": "Meran",
            "addr:city:it": "Merano",
            "addr:housenumber": "6",
            "addr:place": "Pfarrplatz - Piazza di Duomo",
            "addr:postcode": "39012",
            "addr:street:de": "Pfarrplatz",
            "addr:street:it": "Piazza Duomo",
            "email": "museum@gemeinde.meran.bz.it",
            "fee": "yes",
            "name": "Palais Mamming Museum",
            "name:de": "Palais Mamming Museum",
            "toilets:wheelchair": "yes",
            "tourism": "museum",
            "website": "https://www.palaismamming.it/",
            "wheelchair": "yes",
            "wikidata": "Q19838997"
          },
          "geometry": {
            "type": "Point",
            "coordinates": [
              11.1658098,
              46.6715117
            ]
          }
        },
        {
          "type": "Feature",
          "properties": {
            "id": "3012337358",
            "osm_type": "node",
            "lat": 46.669223,
            "lon": 11.0591555,
            "addr:city": "Rablà BZ",
            "addr:country": "IT",
            "addr:housenumber": "3",
            "addr:postcode": "39020",
            "addr:street": "Geroldplatz - Piazza Gerold",
            "contact:email": "info@eisenbahnwelt.it",
            "contact:fax": "+39 0473 521 526",
            "contact:phone": "+39 0473 521 460",
            "description:de": "Größte digitale Modelleisenbahnanlage Italiens - Südtirol in Miniatur - 1:87",
            "fee": "yes",
            "museum": "railway",
            "name": "Eisenbahnwelt - Mondotreno",
            "name:de": "Eisenbahnwelt",
            "name:it": "Mondotreno",
            "opening_hours": "Mar-Dec Su-Fr 10:00-17:00; Sa off",
            "tourism": "museum",
            "website": "http://www.eisenbahnwelt.eu/",
            "wheelchair": "limited"
          },
          "geometry": {
            "type": "Point",
            "coordinates": [
              11.0591555,
              46.669223
            ]
          }
        },
        {
          "type": "Feature",
          "properties": {
            "id": "3077209879",
            "osm_type": "node",
            "lat": 46.6774647,
            "lon": 11.2310584,
            "tourism": "museum"
          },
          "geometry": {
            "type": "Point",
            "coordinates": [
              11.2310584,
              46.6774647
            ]
          }
        },
        {
          "type": "Feature",
          "properties": {
            "id": "3731174727",
            "osm_type": "node",
            "lat": 46.671653,
            "lon": 11.0805177,
            "fee": "yes",
            "museum_type": "private",
            "name": "K. u. K. Museum Bad Egart - Museo reale e imperiale Bad Egart",
            "name:de": "K. u. K. Museum Bad Egart",
            "name:it": "Museo reale e imperiale Bad Egart",
            "phone": "+39 0473 967342",
            "source": "survey",
            "source:date": "2019-05-07",
            "tourism": "museum",
            "website": "https://www.onkeltaa.com/bad-egarts-museumswelt-k-u-k-museum/",
            "wikidata": "Q55677368",
            "wikipedia": "de:K.u.k. Museum Bad Egart"
          },
          "geometry": {
            "type": "Point",
            "coordinates": [
              11.0805177,
              46.671653
            ]
          }
        },
        {
          "type": "Feature",
          "properties": {
            "id": "3822370213",
            "osm_type": "node",
            "lat": 46.4125273,
            "lon": 11.2465359,
            "addr:housenumber": "1",
            "addr:street": "Goldgasse",
            "description": "open 1st of April till mid of November\nclosed on public holidays",
            "email": "weinmuseum@landesmuseen.it",
            "name": "Weinmuseum - Museo provinciale del vino",
            "name:de": "Weinmuseum",
            "name:it": "Museo provinciale del vino",
            "opening_hours": "Tu-Sa 10:00-17:00",
            "phone": "+390471963168",
            "tourism": "museum",
            "website": "https://www.museo-del-vino.it",
            "wikidata": "Q55351863"
          },
          "geometry": {
            "type": "Point",
            "coordinates": [
              11.2465359,
              46.4125273
            ]
          }
        },
        {
          "type": "Feature",
          "properties": {
            "id": "4245063096",
            "osm_type": "node",
            "lat": 46.5004931,
            "lon": 11.3448719,
            "addr:city": "Bolzano - Bozen",
            "addr:postcode": "39100",
            "addr:street": "Piazza della Vittoria - Siegesplatz",
            "email": "monument@gemeinde.bozen.it",
            "fee": "no",
            "name": "BZ '18-'45",
            "opening_hours": "Apr-Sep Tu-Su 11:00-13:00,14:00-17:00; Apr-Sep Th 15:00-21:00; Oct-Mar Tu-Sa 10:30-12:30,14:30-16:30; Oct-Mar Su 10:30-12:00,15:00-17:00; easter off; Dec 24,25,31,Jan 01 off",
            "opening_hours:url": "http://www.siegesdenkmal.com/de/infos/oeffnungs-zeiten.html",
            "operator": "Ministero dei beni e delle attività culturali e del turismo, Autonome Provinz Bozen-Südtirol - Provincia autonoma di Bolzano – Alto Adige, Città di Bolzano - Stadt Bozen",
            "tourism": "museum",
            "website": "https://www.siegesdenkmal.com/",
            "website:de": "http://www.siegesdenkmal.com",
            "website:it": "http://www.monumentoallavittoria.com",
            "wheelchair": "yes"
          },
          "geometry": {
            "type": "Point",
            "coordinates": [
              11.3448719,
              46.5004931
            ]
          }
        },
        {
          "type": "Feature",
          "properties": {
            "id": "4409756812",
            "osm_type": "node",
            "lat": 46.6084765,
            "lon": 11.1682885,
            "contact:mobile": "+39 389 679 4823",
            "email": "kleines.museum@gmail.com",
            "fee": "no",
            "name": "Kleines Museum in Lana - Piccolo Museo a Lana",
            "name:de": "Kleines Museum in Lana",
            "name:it": "Piccolo Museo a Lana",
            "note": "this is realy the name of the museum!",
            "opening_hours": "\"Das Museum ist ganzjährig auf Anfrage geöffnet\"",
            "tourism": "museum"
          },
          "geometry": {
            "type": "Point",
            "coordinates": [
              11.1682885,
              46.6084765
            ]
          }
        },
        {
          "type": "Feature",
          "properties": {
            "id": "4728979210",
            "osm_type": "node",
            "lat": 46.5011176,
            "lon": 11.3570956,
            "addr:city": "Bolzano - Bozen",
            "addr:housenumber": "1",
            "addr:postcode": "39100",
            "addr:street": "Via dei Bottai - Bindergasse",
            "check_date": "2023-11-12",
            "email": "info@naturmuseum.it",
            "fax": "+39 0471 412979",
            "fee": "yes",
            "name": "Museo Scienze Naturali - Naturmuseum",
            "name:de": "Naturmuseum Südtirol",
            "name:it": "Museo Scienze Naturali Alto Adige",
            "name:lld": "Museum Natöra Südtirol",
            "opening_hours": "Tu-Su 10:00-18:00; Mo off",
            "phone": "+39 0471 412964",
            "toilets:wheelchair": "yes",
            "tourism": "museum",
            "website": "https://www.natura.museum/",
            "wheelchair": "yes",
            "wikidata": "Q1251366",
            "wikimedia_commons": "Category:Naturmuseum Südtirol",
            "wikipedia": "de:Naturmuseum Südtirol"
          },
          "geometry": {
            "type": "Point",
            "coordinates": [
              11.3570956,
              46.5011176
            ]
          }
        },
        {
          "type": "Feature",
          "properties": {
            "id": "4988575986",
            "osm_type": "node",
            "lat": 46.5884021,
            "lon": 11.1468923,
            "addr:city": "Lana",
            "addr:hamlet": "Völlan - Foiana",
            "addr:housenumber": "2",
            "addr:postcode": "39011",
            "addr:street": "Badlweg - Via dei Bagni",
            "name": "Bauernmuseum Völlan - Museo contadino di Foiana",
            "name:de": "Bauernmuseum Völlan",
            "name:it": "Museo contadino di Foiana",
            "tourism": "museum"
          },
          "geometry": {
            "type": "Point",
            "coordinates": [
              11.1468923,
              46.5884021
            ]
          }
        },
        {
          "type": "Feature",
          "properties": {
            "id": "5891555080",
            "osm_type": "node",
            "lat": 46.4690581,
            "lon": 11.3314601,
            "addr:city": "Bolzano - Bozen",
            "addr:housenumber": "8",
            "addr:postcode": "39100",
            "addr:street": "Via Johann Kravogl - Johann-Kravogl-Straße",
            "contact:email": "cinemuseum@virgilio.it",
            "name": "Cinè Museum",
            "opening_hours": "Jan-Jun,Sep-Dec: Tu,We,Fr,Sa 09:30-12:00,15:00-18:00",
            "tourism": "museum",
            "website": "http://www.cinemuseum.eu/",
            "wheelchair": "yes",
            "wikidata": "Q98086645"
          },
          "geometry": {
            "type": "Point",
            "coordinates": [
              11.3314601,
              46.4690581
            ]
          }
        },
        {
          "type": "Feature",
          "properties": {
            "id": "6434733431",
            "osm_type": "node",
            "lat": 46.6919621,
            "lon": 11.1480489,
            "fee": "yes",
            "museum": "agriculture",
            "name": "Landwirtschaftsmuseum Brunnenburg",
            "opening_hours": "Apr 1-Oct 31, Su-Th 10:00-17:00; Fr-Sa off; PH 10:00-17:00; PH Fr-Sa off",
            "tourism": "museum",
            "website": "https://www.brunnenburg.net/",
            "wikidata": "Q55352695"
          },
          "geometry": {
            "type": "Point",
            "coordinates": [
              11.1480489,
              46.6919621
            ]
          }
        },
        {
          "type": "Feature",
          "properties": {
            "id": "9591520871",
            "osm_type": "node",
            "lat": 46.4779877,
            "lon": 11.338803,
            "addr:city": "Bolzano - Bozen",
            "addr:housenumber": "161",
            "addr:postcode": "39100",
            "addr:street": "Via Claudia Augusta - Claudia-Augusta-Straße",
            "museum": "technology",
            "name": "Turbina Francis Turbine (1925 Marlengo - Marling)",
            "name:de": "Francis-Turbine (1925 Marling)",
            "tourism": "museum"
          },
          "geometry": {
            "type": "Point",
            "coordinates": [
              11.338803,
              46.4779877
            ]
          }
        },
        {
          "type": "Feature",
          "properties": {
            "id": "11210575884",
            "osm_type": "node",
            "lat": 46.4388544,
            "lon": 11.1375221,
            "contact:phone": "+39 0463 850000",
            "contact:website": "https://www.visitvaldinon.it/it/poi/canyon-rio-sass",
            "entrance": "yes",
            "fee": "yes",
            "museum": "open_air",
            "name": "Canyon Rio Sass",
            "opening_hours": "Mo-Su 09:00-12:30, 13:30-16:30",
            "outdoor": "yes",
            "tourism": "museum",
            "wikidata": "Q34147272",
            "wikipedia": "it:Canyon rio Sass"
          },
          "geometry": {
            "type": "Point",
            "coordinates": [
              11.1375221,
              46.4388544
            ]
          }
        },
        {
          "type": "Feature",
          "properties": {
            "id": "12012251000",
            "osm_type": "node",
            "lat": 46.6672651,
            "lon": 11.1853095,
            "fee": "yes",
            "name": "Weinbau Museum Rametz",
            "opening_hours": "Mo-Fr 10:00-17:00; Sa,Su 10:00-12:00",
            "tourism": "museum",
            "website": "https://www.rametz.com/de/weingut-erleben/"
          },
          "geometry": {
            "type": "Point",
            "coordinates": [
              11.1853095,
              46.6672651
            ]
          }
        },
        {
          "type": "Feature",
          "properties": {
            "id": "12087738031",
            "osm_type": "node",
            "lat": 46.4535807,
            "lon": 11.2475726,
            "alt_name:it": "Museo Castel Palù",
            "description": "Museum of medieval everyday culture",
            "description:de": "Museum für mittelalterliche Alltagskultur",
            "description:it": "Museo di cultura medievale",
            "email": "info@moos-schulthaus.it",
            "mobile": "+39 335 7068118",
            "museum": "history",
            "name": "Museum Schloss Moos-Schulthaus - Museo Castel Moos-Schulthaus",
            "name:de": "Museum Schloss Moos-Schulthaus",
            "name:it": "Museo Castel Moos-Schulthaus",
            "operator": "Stiftung Walther Amonn",
            "operator:type": "private",
            "phone": "+39 0471 053906",
            "tourism": "museum",
            "website": "https://www.moos-schulthaus.it/"
          },
          "geometry": {
            "type": "Point",
            "coordinates": [
              11.2475726,
              46.4535807
            ]
          }
        },
        {
          "type": "Feature",
          "properties": {
            "id": "12712609814",
            "osm_type": "node",
            "lat": 46.487989,
            "lon": 11.322312,
            "contact:facebook": "https://www.museion.it/it/iniziative/6107-cubo-garrutti",
            "name": "Cubo Garutti - Museion",
            "opening_hours": "24/7",
            "tourism": "museum"
          },
          "geometry": {
            "type": "Point",
            "coordinates": [
              11.322312,
              46.487989
            ]
          }
        }
      ],
      "children": []
    },
    {
      "bbox": {
        "south": 46.70320525,
        "west": 9.530952,
        "north": 47.033758500000005,
        "east": 10.484655499999999
      },
      "poiCount": 23,
      "leafCount": 23,
      "averagePosition": [
        9.94948315652174,
        46.86694733913044
      ],
      "data": [
        {
          "type": "Feature",
          "properties": {
            "id": "431318397",
            "osm_type": "node",
            "lat": 46.8696852,
            "lon": 9.8848873,
            "name": "Heimatmuseum Nutli Hüschi",
            "tourism": "museum",
            "wikidata": "Q2005588"
          },
          "geometry": {
            "type": "Point",
            "coordinates": [
              9.8848873,
              46.8696852
            ]
          }
        },
        {
          "type": "Feature",
          "properties": {
            "id": "2609729281",
            "osm_type": "node",
            "lat": 46.7748802,
            "lon": 9.6606166,
            "addr:city": "Arosa",
            "addr:housenumber": "26",
            "addr:postcode": "7050",
            "addr:street": "Eggastrasse",
            "name": "Heimatmuseum Schanfigg",
            "tourism": "museum",
            "wikidata": "Q2230948",
            "wikipedia": "de:Schanfigger Heimatmuseum"
          },
          "geometry": {
            "type": "Point",
            "coordinates": [
              9.6606166,
              46.7748802
            ]
          }
        },
        {
          "type": "Feature",
          "properties": {
            "id": "2868132601",
            "osm_type": "node",
            "lat": 46.793556,
            "lon": 9.8204866,
            "addr:country": "CH",
            "addr:housenumber": "43",
            "addr:street": "Promenade",
            "fee": "yes",
            "name": "Wintersport-Museum Davos",
            "tourism": "museum",
            "website": "https://www.wintersportmuseum.ch/",
            "wheelchair": "yes",
            "wikidata": "Q27480014"
          },
          "geometry": {
            "type": "Point",
            "coordinates": [
              9.8204866,
              46.793556
            ]
          }
        },
        {
          "type": "Feature",
          "properties": {
            "id": "3221982239",
            "osm_type": "node",
            "lat": 46.8550783,
            "lon": 9.5369196,
            "name": "Weinbaumuseum Torculum",
            "tourism": "museum",
            "website": "https://www.chur.graubuenden.ch/de/uebersicht-ausflugsziele/torculum-weinbaumuseum",
            "wikidata": "Q1386293"
          },
          "geometry": {
            "type": "Point",
            "coordinates": [
              9.5369196,
              46.8550783
            ]
          }
        },
        {
          "type": "Feature",
          "properties": {
            "id": "4718424366",
            "osm_type": "node",
            "lat": 46.8513419,
            "lon": 9.5322962,
            "contact:website": "http://www.buendner-kunstmuseum.ch/",
            "local_language": "de",
            "museum": "art",
            "name": "Bündner Kunstmuseum",
            "name:de": "Bündner Kunstmuseum",
            "name:it": "Museo d'arte dei Grigioni",
            "name:rm": "Museum d'art dal Grischun",
            "opening_hours": "Tu,We,Fr-Su 10:00-17:00; Th 10:00-20:00",
            "tourism": "museum",
            "wikidata": "Q1020806",
            "wikipedia": "de:Bündner Kunstmuseum"
          },
          "geometry": {
            "type": "Point",
            "coordinates": [
              9.5322962,
              46.8513419
            ]
          }
        },
        {
          "type": "Feature",
          "properties": {
            "id": "6109289717",
            "osm_type": "node",
            "lat": 46.8481312,
            "lon": 9.5336033,
            "contact:phone": "+41 812574840",
            "contact:website": "https://raetischesmuseum.gr.ch/",
            "local_language": "de",
            "name": "Rätisches Museum",
            "name:de": "Rätisches Museum",
            "name:it": "Museo Retico",
            "name:rm": "Museum Retic",
            "opening_hours": "Tu-Su 10:00-17:00",
            "operator": "Kanton Graubünden",
            "tourism": "museum",
            "wikidata": "Q2178552",
            "wikipedia": "de:Rätisches Museum"
          },
          "geometry": {
            "type": "Point",
            "coordinates": [
              9.5336033,
              46.8481312
            ]
          }
        },
        {
          "type": "Feature",
          "properties": {
            "id": "6578662342",
            "osm_type": "node",
            "lat": 46.7133135,
            "lon": 9.7587479,
            "name": "Bergbaumuseum",
            "tourism": "museum"
          },
          "geometry": {
            "type": "Point",
            "coordinates": [
              9.7587479,
              46.7133135
            ]
          }
        },
        {
          "type": "Feature",
          "properties": {
            "id": "10007090019",
            "osm_type": "node",
            "lat": 46.7936508,
            "lon": 9.8204784,
            "addr:country": "CH",
            "addr:housenumber": "43",
            "addr:street": "Promenade",
            "name": "Medizinmuseum",
            "opening_hours": "Tu,Th 17:00-19:00",
            "tourism": "museum",
            "website": "https://www.medizinmuseum-davos.com",
            "wheelchair": "limited",
            "wikidata": "Q27480010"
          },
          "geometry": {
            "type": "Point",
            "coordinates": [
              9.8204784,
              46.7936508
            ]
          }
        },
        {
          "type": "Feature",
          "properties": {
            "id": "282881826",
            "osm_type": "node",
            "lat": 46.7176281,
            "lon": 10.3262149,
            "name": "Schmelzra",
            "tourism": "museum",
            "wikidata": "Q1954485"
          },
          "geometry": {
            "type": "Point",
            "coordinates": [
              10.3262149,
              46.7176281
            ]
          }
        },
        {
          "type": "Feature",
          "properties": {
            "id": "1976354995",
            "osm_type": "node",
            "lat": 46.7756478,
            "lon": 10.1538461,
            "museum_type": "regional",
            "name": "Schellen-Ursli-Museum",
            "opening_hours": "24/7",
            "operator": "Hotel Meisser",
            "tourism": "museum",
            "wheelchair": "no"
          },
          "geometry": {
            "type": "Point",
            "coordinates": [
              10.1538461,
              46.7756478
            ]
          }
        },
        {
          "type": "Feature",
          "properties": {
            "id": "2987768830",
            "osm_type": "node",
            "lat": 46.842583,
            "lon": 10.3641144,
            "name": "Museum local",
            "name:de": "Ortsmuseum Vnà",
            "name:rm": "Museum local",
            "tourism": "museum"
          },
          "geometry": {
            "type": "Point",
            "coordinates": [
              10.3641144,
              46.842583
            ]
          }
        },
        {
          "type": "Feature",
          "properties": {
            "id": "4756816109",
            "osm_type": "node",
            "lat": 46.8172692,
            "lon": 10.3381145,
            "addr:city": "Sent",
            "addr:country": "CH",
            "addr:housenumber": "154",
            "addr:postcode": "7554",
            "addr:street": "Plaz",
            "name": "Alberto Giacometti Museum",
            "tourism": "museum",
            "website": "http://www.alberto-giacometti-museum.ch"
          },
          "geometry": {
            "type": "Point",
            "coordinates": [
              10.3381145,
              46.8172692
            ]
          }
        },
        {
          "type": "Feature",
          "properties": {
            "id": "6186625586",
            "osm_type": "node",
            "lat": 46.7505366,
            "lon": 10.0813622,
            "email": "contact@muzeumsusch.ch",
            "fee": "yes",
            "name": "Muzeum Susch",
            "opening_hours": "Su, Th-Fr 12:00-17:00; Sa 11:00-18:00",
            "phone": "+41 81 861 03 03",
            "tourism": "museum",
            "website": "https://www.muzeumsusch.ch/",
            "wikidata": "Q60421113",
            "wikipedia": "de:Muzeum Susch"
          },
          "geometry": {
            "type": "Point",
            "coordinates": [
              10.0813622,
              46.7505366
            ]
          }
        },
        {
          "type": "Feature",
          "properties": {
            "id": "8949551931",
            "osm_type": "node",
            "lat": 46.7870749,
            "lon": 10.2881608,
            "name": "Hotel Waldhaus",
            "tourism": "museum"
          },
          "geometry": {
            "type": "Point",
            "coordinates": [
              10.2881608,
              46.7870749
            ]
          }
        },
        {
          "type": "Feature",
          "properties": {
            "id": "10061005608",
            "osm_type": "node",
            "lat": 46.8163709,
            "lon": 10.3361731,
            "name": "Museum Sent",
            "tourism": "museum"
          },
          "geometry": {
            "type": "Point",
            "coordinates": [
              10.3361731,
              46.8163709
            ]
          }
        },
        {
          "type": "Feature",
          "properties": {
            "id": "3660778305",
            "osm_type": "node",
            "lat": 47.0134814,
            "lon": 9.5452033,
            "fee": "yes",
            "name": "Heidihaus",
            "tourism": "museum",
            "website": "https://www.heididorf.ch/"
          },
          "geometry": {
            "type": "Point",
            "coordinates": [
              9.5452033,
              47.0134814
            ]
          }
        },
        {
          "type": "Feature",
          "properties": {
            "id": "3943448094",
            "osm_type": "node",
            "lat": 46.9822833,
            "lon": 9.64751,
            "name": "Prättigauer Heimatmuseum",
            "tourism": "museum",
            "wikidata": "Q2115239",
            "wikipedia:de": "Prättigauer Heimatmuseum"
          },
          "geometry": {
            "type": "Point",
            "coordinates": [
              9.64751,
              46.9822833
            ]
          }
        },
        {
          "type": "Feature",
          "properties": {
            "id": "4599546793",
            "osm_type": "node",
            "lat": 47.013517,
            "lon": 9.5460436,
            "fee": "yes",
            "name": "Heidis Alphütte",
            "tourism": "museum"
          },
          "geometry": {
            "type": "Point",
            "coordinates": [
              9.5460436,
              47.013517
            ]
          }
        },
        {
          "type": "Feature",
          "properties": {
            "id": "6902359283",
            "osm_type": "node",
            "lat": 46.9986677,
            "lon": 9.5579303,
            "addr:city": "Jenins",
            "addr:housenumber": "2b",
            "addr:postcode": "7307",
            "addr:street": "Verduonig",
            "name": "Greisinger Museum",
            "tourism": "museum",
            "wikidata": "Q27889488"
          },
          "geometry": {
            "type": "Point",
            "coordinates": [
              9.5579303,
              46.9986677
            ]
          }
        },
        {
          "type": "Feature",
          "properties": {
            "id": "1797002772",
            "osm_type": "node",
            "lat": 46.9565123,
            "lon": 10.3849936,
            "addr:city": "Samnaun-Compatsch",
            "addr:housenumber": "22",
            "addr:postcode": "7562",
            "addr:street": "Plan Strasse",
            "museum": "local",
            "name": "Talmuseum Samnaun",
            "phone": "+41 81 861 88 30",
            "tourism": "museum",
            "website": "https://www.graubuenden.ch/de/regionen-entdecken/engadin-samnaun-val-muestair/talmuseum-samnaun"
          },
          "geometry": {
            "type": "Point",
            "coordinates": [
              10.3849936,
              46.9565123
            ]
          }
        },
        {
          "type": "Feature",
          "properties": {
            "id": "4625594741",
            "osm_type": "node",
            "lat": 46.9681588,
            "lon": 10.1839104,
            "addr:city": "Galtür",
            "addr:country": "AT",
            "addr:housenumber": "29c",
            "addr:place": "Winkl",
            "addr:postcode": "6563",
            "email": "info@alpinarium.at",
            "name": "Alpinarium Galtür",
            "opening_hours": "Tu-Su 10:00-18:00; Mo off \"Bei Schlechtwetter öffnen wir auch an Montagen die Ausstellung ''DIE MAUER''!\"",
            "phone": "+43(0)544320000",
            "toilets:wheelchair": "yes",
            "tourism": "museum",
            "website": "https://www.alpinarium.at/",
            "wheelchair": "yes",
            "wikidata": "Q61762656"
          },
          "geometry": {
            "type": "Point",
            "coordinates": [
              10.1839104,
              46.9681588
            ]
          }
        },
        {
          "type": "Feature",
          "properties": {
            "id": "4692262968",
            "osm_type": "node",
            "lat": 47.0114206,
            "lon": 10.2908576,
            "contact:phone": "+43 5444 5417",
            "contact:website": "http://www.ischgl.com/de/more/information/ischgl-a-z/seilbahnmuseum_az76588",
            "name": "Seilbahnmuseum",
            "opening_hours": "We 16:00-19:00",
            "tourism": "museum",
            "wikidata": "Q61762411"
          },
          "geometry": {
            "type": "Point",
            "coordinates": [
              10.2908576,
              47.0114206
            ]
          }
        },
        {
          "type": "Feature",
          "properties": {
            "id": "8936268920",
            "osm_type": "node",
            "lat": 46.9890001,
            "lon": 10.2456419,
            "level": "1",
            "name": "Paznauner Bauernmuseum",
            "source": "LT",
            "tourism": "museum",
            "wikidata": "Q93839489"
          },
          "geometry": {
            "type": "Point",
            "coordinates": [
              10.2456419,
              46.9890001
            ]
          }
        }
      ],
      "children": []
    },
    {
      "bbox": {
        "south": 46.70320525,
        "west": 10.484655499999999,
        "north": 47.033758500000005,
        "east": 11.438358999999998
      },
      "poiCount": 15,
      "leafCount": 15,
      "averagePosition": [
        10.942758419999999,
        46.864745086666666
      ],
      "data": [
        {
          "type": "Feature",
          "properties": {
            "id": "5137758631",
            "osm_type": "node",
            "lat": 46.7057786,
            "lon": 10.5200594,
            "name": "Ora et Labora",
            "tourism": "museum"
          },
          "geometry": {
            "type": "Point",
            "coordinates": [
              10.5200594,
              46.7057786
            ]
          }
        },
        {
          "type": "Feature",
          "properties": {
            "id": "416031063",
            "osm_type": "node",
            "lat": 46.9131654,
            "lon": 10.4930579,
            "alt_name": "Straßensperre Nauders",
            "castle_type": "fortress",
            "castle_type:de": "festung",
            "historic": "castle",
            "name": "Festung Nauders",
            "opening_hours": "We,Su 15:00+",
            "start_date": "1834",
            "tourism": "museum",
            "wikidata": "Q2354954",
            "wikimedia_commons": "Category:Festung Nauders",
            "wikipedia": "de:Straßensperre Nauders"
          },
          "geometry": {
            "type": "Point",
            "coordinates": [
              10.4930579,
              46.9131654
            ]
          }
        },
        {
          "type": "Feature",
          "properties": {
            "id": "1121542393",
            "osm_type": "node",
            "lat": 46.887134,
            "lon": 10.5032488,
            "fee": "yes",
            "name": "Schloss Naudersberg",
            "tourism": "museum"
          },
          "geometry": {
            "type": "Point",
            "coordinates": [
              10.5032488,
              46.887134
            ]
          }
        },
        {
          "type": "Feature",
          "properties": {
            "id": "4548689660",
            "osm_type": "node",
            "lat": 46.9675525,
            "lon": 10.5408372,
            "name": "Heimatmuseum Pfunds",
            "tourism": "museum",
            "wikidata": "Q93437353"
          },
          "geometry": {
            "type": "Point",
            "coordinates": [
              10.5408372,
              46.9675525
            ]
          }
        },
        {
          "type": "Feature",
          "properties": {
            "id": "5244794529",
            "osm_type": "node",
            "lat": 46.9335415,
            "lon": 10.995555,
            "addr:city": "Sölden",
            "addr:country": "AT",
            "addr:housenumber": "7",
            "addr:postcode": "6450",
            "addr:street": "Gaislachalm",
            "name": "Mineralienmuseum Silbertal",
            "tourism": "museum"
          },
          "geometry": {
            "type": "Point",
            "coordinates": [
              10.995555,
              46.9335415
            ]
          }
        },
        {
          "type": "Feature",
          "properties": {
            "id": "5741672435",
            "osm_type": "node",
            "lat": 46.9420005,
            "lon": 10.9669237,
            "addr:city": "Sölden",
            "addr:housenumber": "115",
            "addr:postcode": "6450",
            "addr:street": "Dorfstraße",
            "name": "007 Elements",
            "opening_hours": "Mo-Su 09:00-16:30",
            "operator": "Bergbahn Solden",
            "operator:type": "private",
            "tourism": "museum",
            "wikidata": "Q102468073"
          },
          "geometry": {
            "type": "Point",
            "coordinates": [
              10.9669237,
              46.9420005
            ]
          }
        },
        {
          "type": "Feature",
          "properties": {
            "id": "274246235",
            "osm_type": "node",
            "lat": 46.9285658,
            "lon": 11.2710618,
            "contact:website": "https://www.bergbaumuseum.it/en/ridnaun/location-ridnaun-911.html",
            "name": "Landesbergbaumuseum Ridnaun-Schneeberg",
            "tourism": "museum"
          },
          "geometry": {
            "type": "Point",
            "coordinates": [
              11.2710618,
              46.9285658
            ]
          }
        },
        {
          "type": "Feature",
          "properties": {
            "id": "540151358",
            "osm_type": "node",
            "lat": 46.8930751,
            "lon": 11.3493658,
            "ele": "1070",
            "fee": "yes",
            "name": "Landesmuseum für Jagd und Fischerei - Museo provinciale della caccia e della pesca",
            "name:de": "Schloss Wolfsthurn - Südtiroler Landesmuseum für Jagd und Fischerei",
            "name:it": "Castel Wolfsthurn - Museo provinciale della caccia e della pesca",
            "opening_hours": "Tu-Sa 10:00-17:00; Su 13:00-17:00",
            "tourism": "museum",
            "website": "https://www.wolfsthurn.it/",
            "wikidata": "Q15131763",
            "wikipedia": "de:Südtiroler Landesmuseum für Jagd und Fischerei"
          },
          "geometry": {
            "type": "Point",
            "coordinates": [
              11.3493658,
              46.8930751
            ]
          }
        },
        {
          "type": "Feature",
          "properties": {
            "id": "1930989104",
            "osm_type": "node",
            "lat": 46.8902523,
            "lon": 11.4327062,
            "addr:city": "Sterzing - Vipiteno",
            "addr:city:de": "Sterzing",
            "addr:city:it": "Vipiteno",
            "addr:housenumber": "11",
            "addr:postcode": "39049",
            "addr:street": "Deutschhausstraße - Via della Commenda",
            "addr:street:de": "Deutschhausstraße",
            "addr:street:it": "Via della Commenda",
            "name": "Stadt- und Multschermuseum",
            "tourism": "museum",
            "wikidata": "Q55352779"
          },
          "geometry": {
            "type": "Point",
            "coordinates": [
              11.4327062,
              46.8902523
            ]
          }
        },
        {
          "type": "Feature",
          "properties": {
            "id": "4246197751",
            "osm_type": "node",
            "lat": 46.9097542,
            "lon": 11.0533089,
            "addr:city": "Hochgurgl",
            "addr:housenumber": "8",
            "addr:postcode": "6456",
            "addr:street": "Timmelsjochstraße",
            "ele": "2175",
            "email": "crosspoint@tophochgurgl.com",
            "fee": "yes",
            "museum": "transport",
            "name": "Motorcycle Museum",
            "opening_hours": "Mo-Su 10:00-17:00",
            "operator": "Basilius Praxmarer",
            "phone": "+43 0 5256 62 111",
            "tourism": "museum",
            "website": "https://www.crosspoint.tirol/",
            "wheelchair": "yes",
            "wikidata": "Q66335196",
            "wikipedia": "de:Top Mountain Motorcycle Museum"
          },
          "geometry": {
            "type": "Point",
            "coordinates": [
              11.0533089,
              46.9097542
            ]
          }
        },
        {
          "type": "Feature",
          "properties": {
            "id": "1739076436",
            "osm_type": "node",
            "lat": 46.7242849,
            "lon": 10.856532,
            "addr:city": "Senales",
            "addr:housenumber": "163",
            "addr:postcode": "39020",
            "addr:street": "Madonna",
            "description": "Archäologisches Freilichtmuseum mit Besucherzentrum. Wie Ötzi, der Mann aus dem Eis, hier vor 5.300 Jahren gelebt hat und wo er gefunden wurde, ist Thema der Ausstellungen und des Mitmach-Tagesprogramms mit Vorführungen und Aktivitäten.",
            "fee": "yes",
            "museum": "history",
            "name": "ArcheoParc",
            "opening_hours": "Mo-Su 10:00-17:00",
            "tourism": "museum",
            "website": "https://www.archeoparc.it/",
            "wheelchair": "yes",
            "wheelchair:description": "Eingangstür ohne elektrische Unterstützung, nicht alle Außenexponate sind mit dem Rollstuhl zugänglich, kein Behindertenparkplatz direkt vor dem Archeparc",
            "wikidata": "Q70341726"
          },
          "geometry": {
            "type": "Point",
            "coordinates": [
              10.856532,
              46.7242849
            ]
          }
        },
        {
          "type": "Feature",
          "properties": {
            "id": "4644517093",
            "osm_type": "node",
            "lat": 46.8083651,
            "lon": 10.542066,
            "name": "Museum Vinschger Oberland - Museo Alta Val Venosta",
            "name:de": "Museum Vinschger Oberland",
            "name:it": "Museo Alta Val Venosta",
            "tourism": "museum",
            "wikidata": "Q52729826"
          },
          "geometry": {
            "type": "Point",
            "coordinates": [
              10.542066,
              46.8083651
            ]
          }
        },
        {
          "type": "Feature",
          "properties": {
            "id": "774652350",
            "osm_type": "node",
            "lat": 46.8150995,
            "lon": 11.2523635,
            "name": "Museum Passeier",
            "opening_hours": "Tu 14:00-16:00; Th 14:00-16:00",
            "tourism": "museum",
            "wheelchair": "no",
            "wikidata": "Q55352622"
          },
          "geometry": {
            "type": "Point",
            "coordinates": [
              11.2523635,
              46.8150995
            ]
          }
        },
        {
          "type": "Feature",
          "properties": {
            "id": "1871763544",
            "osm_type": "node",
            "lat": 46.8325687,
            "lon": 11.1654217,
            "addr:city": "Moos in Passeier - Moso in Passiria",
            "addr:city:de": "Moos in Passeier",
            "addr:city:it": "Moso in Passiria",
            "addr:housenumber": "29a",
            "addr:postcode": "39013",
            "addr:street": "Dorf",
            "email": "info@bunker-mooseum.it",
            "fax": "+39 0473 648 703",
            "fee": "yes",
            "name": "Bunker Mooseum",
            "opening_hours": "Tu-Su 10:00-17:00",
            "phone": "+39 0473 648 529",
            "tourism": "museum",
            "website": "http://www.bunker-mooseum.it/",
            "wheelchair": "no"
          },
          "geometry": {
            "type": "Point",
            "coordinates": [
              11.1654217,
              46.8325687
            ]
          }
        },
        {
          "type": "Feature",
          "properties": {
            "id": "8953580206",
            "osm_type": "node",
            "lat": 46.8200382,
            "lon": 11.1988684,
            "fee": "no",
            "name": "Das \"Polt-Werk\"",
            "opening_hours": "24/7",
            "tourism": "museum"
          },
          "geometry": {
            "type": "Point",
            "coordinates": [
              11.1988684,
              46.8200382
            ]
          }
        }
      ],
      "children": []
    }
  ]
}