{
  "bbox": {
    "south": 47.694865,
    "west": 13.345766,
    "north": 48.355971499999995,
    "east": 15.253173
  },
  "poiCount": 99,
  "leafCount": 0,
  "averagePosition": [
    14.262733946464646,
    48.0768412040404
  ],
  "data": [],
  "children": [
    {
      "bbox": {
        "south": 47.694865,
        "west": 13.345766,
        "north": 48.02541825,
        "east": 14.2994695
      },
      "poiCount": 29,
      "leafCount": 29,
      "averagePosition": [
        13.725318248275862,
        47.90208506551724
      ],
      "data": [
        {
          "type": "Feature",
          "properties": {
            "id": "801770560",
            "osm_type": "node",
            "lat": 47.7654521,
            "lon": 13.3654814,
            "addr:city": "Sankt Gilgen",
            "addr:country": "AT",
            "addr:housenumber": "11",
            "addr:postcode": "5340",
            "addr:street": "Aberseestraße",
            "contact:email": "con.takt@hoerart.at",
            "contact:mobile": "+43 676 30 58 148",
            "contact:phone": "+43 6227 8235",
            "contact:website": "https://www.hoerart.at/",
            "fee": "yes",
            "name": "Musikinstrumente-Museum der Völker",
            "opening_hours": "Jan 07 - May 31 Mo-Th 09:00-11:00, 15:00-18:00; Fr 09:00-11:00; Su 15:00-18:00; Dec 01-Jan 06 Mo-Fr 09:00-11:00, 14:00-17:00",
            "tourism": "museum",
            "website": "https://www.hoerart.at/",
            "wheelchair": "no",
            "wikidata": "Q16832652",
            "wikipedia": "de:Kulturhaus Sankt Gilgen"
          },
          "geometry": {
            "type": "Point",
            "coordinates": [
              13.3654814,
              47.7654521
            ]
          }
        },
        {
          "type": "Feature",
          "properties": {
            "id": "896378307",
            "osm_type": "node",
            "lat": 47.8562219,
            "lon": 13.3508918,
            "name": "Österreichisches Pfahlbaumuseum und Klostermuseum",
            "operator": "Heimatbund Mondsee",
            "tourism": "museum"
          },
          "geometry": {
            "type": "Point",
            "coordinates": [
              13.3508918,
              47.8562219
            ]
          }
        },
        {
          "type": "Feature",
          "properties": {
            "id": "5211856131",
            "osm_type": "node",
            "lat": 47.7406523,
            "lon": 13.4438265,
            "addr:city": "St. Wolfgang im Salzkammergut",
            "addr:country": "AT",
            "addr:housenumber": "123",
            "addr:postcode": "5360",
            "addr:street": "Markt",
            "name": "Puppenmuseum St. Wolfgang",
            "opening_hours": "We-Mo 11:00-18:00; Tu 08:00-12:00",
            "tourism": "museum",
            "website": "https://www.dorf-alm.at/"
          },
          "geometry": {
            "type": "Point",
            "coordinates": [
              13.4438265,
              47.7406523
            ]
          }
        },
        {
          "type": "Feature",
          "properties": {
            "id": "6154011542",
            "osm_type": "node",
            "lat": 47.8041786,
            "lon": 13.4890042,
            "name": "Kunst am Klimtplatz",
            "tourism": "museum"
          },
          "geometry": {
            "type": "Point",
            "coordinates": [
              13.4890042,
              47.8041786
            ]
          }
        },
        {
          "type": "Feature",
          "properties": {
            "id": "12000367249",
            "osm_type": "node",
            "lat": 47.7655607,
            "lon": 13.3654684,
            "addr:city": "St. Gilgen am Wolfgangsee",
            "addr:housenumber": "11",
            "addr:postcode": "5340",
            "addr:street": "Aberseestraße",
            "museum": "art",
            "name": "Museum Zinkenbacher Malerkolonie",
            "tourism": "museum",
            "website": "https://www.malerkolonie.at/"
          },
          "geometry": {
            "type": "Point",
            "coordinates": [
              13.3654684,
              47.7655607
            ]
          }
        },
        {
          "type": "Feature",
          "properties": {
            "id": "393899102",
            "osm_type": "node",
            "lat": 47.8131712,
            "lon": 13.7717316,
            "addr:city": "Ebensee am Traunsee",
            "addr:housenumber": "5",
            "addr:postcode": "4802",
            "addr:street": "Kirchengasse",
            "museum": "history",
            "name": "Zeitgeschichte Museum",
            "operator": "BM für Inneres, Marktgemeinde Ebensee am Traunsee",
            "phone": "+43 6133 5601",
            "toilets:wheelchair": "yes",
            "tourism": "museum",
            "website": "http://www.memorial-ebensee.at",
            "wheelchair": "limited"
          },
          "geometry": {
            "type": "Point",
            "coordinates": [
              13.7717316,
              47.8131712
            ]
          }
        },
        {
          "type": "Feature",
          "properties": {
            "id": "1372840023",
            "osm_type": "node",
            "lat": 47.8456366,
            "lon": 13.7907218,
            "fee": "yes",
            "name": "Handarbeitsmuseum",
            "tourism": "museum"
          },
          "geometry": {
            "type": "Point",
            "coordinates": [
              13.7907218,
              47.8456366
            ]
          }
        },
        {
          "type": "Feature",
          "properties": {
            "id": "2378057018",
            "osm_type": "node",
            "lat": 47.8067114,
            "lon": 13.7647233,
            "barrier": "entrance",
            "name": "Solewegstube Wimmersberg",
            "opening_hours": "May-Oct",
            "tourism": "museum",
            "wheelchair": "no"
          },
          "geometry": {
            "type": "Point",
            "coordinates": [
              13.7647233,
              47.8067114
            ]
          }
        },
        {
          "type": "Feature",
          "properties": {
            "id": "9046166989",
            "osm_type": "node",
            "lat": 47.7166916,
            "lon": 13.6177482,
            "addr:city": "Bad Ischl",
            "addr:country": "AT",
            "addr:postcode": "4820",
            "addr:street": "Im Kaiserpark",
            "contact:email": "photomuseum@landesmuseum.at",
            "contact:fax": "+43 6132 24 42 24",
            "contact:phone": "+43 6132 24 422",
            "contact:website": "http://www.landesmuseum.at",
            "name": "Marmorschlößl Fotomuseum",
            "opening_hours": "Apr 01 - Oct 31 Mo-Su 09:30-17:00",
            "tourism": "museum",
            "wikidata": "Q1902260",
            "wikimedia_commons": "Category:Marmorschlössl",
            "wikipedia": "de:Marmorschlössl"
          },
          "geometry": {
            "type": "Point",
            "coordinates": [
              13.6177482,
              47.7166916
            ]
          }
        },
        {
          "type": "Feature",
          "properties": {
            "id": "12337158071",
            "osm_type": "node",
            "lat": 47.8310979,
            "lon": 13.5492509,
            "addr:city": "Steinbach am Attersee",
            "addr:housenumber": "5",
            "addr:postcode": "4853",
            "addr:street": "Steinbach",
            "email": "naturpark@attersee-traunsee.at",
            "fee": "no",
            "museum": "nature",
            "name": "Auf dem Laufsteg ins Zwetschkenreich",
            "operator": "Verein Naturpark Attersee-Traunsee",
            "operator:type": "private_non_profit",
            "tourism": "museum"
          },
          "geometry": {
            "type": "Point",
            "coordinates": [
              13.5492509,
              47.8310979
            ]
          }
        },
        {
          "type": "Feature",
          "properties": {
            "id": "851570492",
            "osm_type": "node",
            "lat": 47.9842705,
            "lon": 13.4907505,
            "addr:city": "Vöcklamarkt",
            "addr:country": "AT",
            "addr:housenumber": "3",
            "addr:place": "Walchen",
            "addr:postcode": "4870",
            "name": "Kinderweltmuseum Schloss Walchen",
            "opening_hours": "10:00-17:00",
            "tourism": "museum",
            "website": "http://www.kinderweltmuseum.at",
            "wikidata": "Q2740868",
            "wikipedia": "de:Kinderweltmuseum Schloss Walchen"
          },
          "geometry": {
            "type": "Point",
            "coordinates": [
              13.4907505,
              47.9842705
            ]
          }
        },
        {
          "type": "Feature",
          "properties": {
            "id": "5632678422",
            "osm_type": "node",
            "lat": 47.9379088,
            "lon": 13.4852733,
            "addr:city": "St. Georgen im Attergau",
            "addr:housenumber": "9",
            "addr:postcode": "4880",
            "addr:street": "Agergasse",
            "name": "Museum Aignerhaus",
            "phone": "+43 699 10229547",
            "tourism": "museum",
            "website": "http://www.attergau-zeitreise.at/Aignerhaus.htm",
            "wikidata": "Q37965591"
          },
          "geometry": {
            "type": "Point",
            "coordinates": [
              13.4852733,
              47.9379088
            ]
          }
        },
        {
          "type": "Feature",
          "properties": {
            "id": "5632684721",
            "osm_type": "node",
            "lat": 47.933305,
            "lon": 13.4914765,
            "addr:postcode": "4880",
            "name": "Pfarrmuseum",
            "phone": "+43 699 10229547",
            "tourism": "museum",
            "website": "http://www.attergau-zeitreise.at/Pfarrmuseum.htm",
            "wikidata": "Q38052591"
          },
          "geometry": {
            "type": "Point",
            "coordinates": [
              13.4914765,
              47.933305
            ]
          }
        },
        {
          "type": "Feature",
          "properties": {
            "id": "30588050",
            "osm_type": "node",
            "lat": 47.9053189,
            "lon": 13.9636499,
            "museum": "history",
            "name": "Kriminalmuseum",
            "operator": "SEYRL OEG",
            "operator:type": "private",
            "tourism": "museum"
          },
          "geometry": {
            "type": "Point",
            "coordinates": [
              13.9636499,
              47.9053189
            ]
          }
        },
        {
          "type": "Feature",
          "properties": {
            "id": "1309789153",
            "osm_type": "node",
            "lat": 48.0074111,
            "lon": 13.6549897,
            "name": "Heimathaus",
            "tourism": "museum",
            "wheelchair": "no",
            "wheelchair:description": "Stufe beim Eingang",
            "wikidata": "Q23689533"
          },
          "geometry": {
            "type": "Point",
            "coordinates": [
              13.6549897,
              48.0074111
            ]
          }
        },
        {
          "type": "Feature",
          "properties": {
            "id": "1855223603",
            "osm_type": "node",
            "lat": 48.0076064,
            "lon": 13.6521879,
            "addr:city": "Vöcklabruck",
            "addr:country": "AT",
            "addr:housenumber": "8a",
            "addr:postcode": "4840",
            "addr:street": "Salzburger Straße",
            "name": "Museum der Heimatvertriebenen",
            "phone": "07672/20549",
            "tourism": "museum",
            "website": "https://www.voecklabruck.at/kunst-kultur/huebmerhaus",
            "wheelchair": "no"
          },
          "geometry": {
            "type": "Point",
            "coordinates": [
              13.6521879,
              48.0076064
            ]
          }
        },
        {
          "type": "Feature",
          "properties": {
            "id": "1881393097",
            "osm_type": "node",
            "lat": 48.009514,
            "lon": 13.6550885,
            "name": "Alte Stadtmauer",
            "tourism": "museum",
            "wheelchair": "yes"
          },
          "geometry": {
            "type": "Point",
            "coordinates": [
              13.6550885,
              48.009514
            ]
          }
        },
        {
          "type": "Feature",
          "properties": {
            "id": "2401175162",
            "osm_type": "node",
            "lat": 47.9609426,
            "lon": 14.0108965,
            "name": "Museum Bartlhaus - Schrift- und Heimatmuseum",
            "tourism": "museum"
          },
          "geometry": {
            "type": "Point",
            "coordinates": [
              14.0108965,
              47.9609426
            ]
          }
        },
        {
          "type": "Feature",
          "properties": {
            "id": "3740335075",
            "osm_type": "node",
            "lat": 47.9925817,
            "lon": 13.9007893,
            "addr:city": "Vorchdorf",
            "addr:country": "AT",
            "addr:housenumber": "31",
            "addr:place": "Peintal",
            "addr:postcode": "4655",
            "email": "office@motorradmuseum-vorchdorf.at",
            "name": "Motorradmuseum Vorchdorf",
            "tourism": "museum",
            "website": "http://www.motorradmuseum-vorchdorf.at"
          },
          "geometry": {
            "type": "Point",
            "coordinates": [
              13.9007893,
              47.9925817
            ]
          }
        },
        {
          "type": "Feature",
          "properties": {
            "id": "3804207173",
            "osm_type": "node",
            "lat": 47.9492083,
            "lon": 13.5945083,
            "designation": "Pfahlbau-Pavillon, Pfahlbau am Attersee",
            "fee": "no",
            "name": "Pfahlbau-Pavillon",
            "opening_hours": "PH,Mo-Su 00:00-24:00",
            "source": "www.pfahlbau.at",
            "toilets:wheelchair": "no",
            "tourism": "museum",
            "wheelchair": "yes"
          },
          "geometry": {
            "type": "Point",
            "coordinates": [
              13.5945083,
              47.9492083
            ]
          }
        },
        {
          "type": "Feature",
          "properties": {
            "id": "3837106978",
            "osm_type": "node",
            "lat": 47.9463061,
            "lon": 13.5941689,
            "addr:city": "Schörfling am Attersee",
            "addr:housenumber": "32",
            "addr:postcode": "4861",
            "addr:street": "Hauptstraße",
            "check_date": "2025-06-16",
            "email": "info@klimt-am-attersee.at",
            "name": "Gustav Klimt Zentrum",
            "phone": "+ 43 664 8283990",
            "toilets:wheelchair": "yes",
            "tourism": "museum",
            "website": "https://www.klimt-am-attersee.at/",
            "wheelchair": "yes",
            "wikidata": "Q29344824"
          },
          "geometry": {
            "type": "Point",
            "coordinates": [
              13.5941689,
              47.9463061
            ]
          }
        },
        {
          "type": "Feature",
          "properties": {
            "id": "4441826317",
            "osm_type": "node",
            "lat": 48.0030707,
            "lon": 13.9225868,
            "name": "Email-Museum Vorchdorf",
            "tourism": "museum"
          },
          "geometry": {
            "type": "Point",
            "coordinates": [
              13.9225868,
              48.0030707
            ]
          }
        },
        {
          "type": "Feature",
          "properties": {
            "id": "5633695952",
            "osm_type": "node",
            "lat": 47.9952003,
            "lon": 13.7958146,
            "name": "Schaukraftwerk Gschröff",
            "tourism": "museum"
          },
          "geometry": {
            "type": "Point",
            "coordinates": [
              13.7958146,
              47.9952003
            ]
          }
        },
        {
          "type": "Feature",
          "properties": {
            "id": "10793780705",
            "osm_type": "node",
            "lat": 47.9184385,
            "lon": 13.8011458,
            "fee": "yes",
            "name": "Kammerhofmuseum",
            "tourism": "museum"
          },
          "geometry": {
            "type": "Point",
            "coordinates": [
              13.8011458,
              47.9184385
            ]
          }
        },
        {
          "type": "Feature",
          "properties": {
            "id": "13024638778",
            "osm_type": "node",
            "lat": 47.9915153,
            "lon": 13.7968098,
            "name": "Kulturzentrum ALFA Steyrermühl",
            "tourism": "museum"
          },
          "geometry": {
            "type": "Point",
            "coordinates": [
              13.7968098,
              47.9915153
            ]
          }
        },
        {
          "type": "Feature",
          "properties": {
            "id": "13093133725",
            "osm_type": "node",
            "lat": 47.9056965,
            "lon": 13.9642568,
            "museum": "history",
            "name": "Museum für österreichische Zeitgeschichte",
            "operator": "SEYRL OEG",
            "operator:type": "private",
            "tourism": "museum"
          },
          "geometry": {
            "type": "Point",
            "coordinates": [
              13.9642568,
              47.9056965
            ]
          }
        },
        {
          "type": "Feature",
          "properties": {
            "id": "582853972",
            "osm_type": "node",
            "lat": 47.8843124,
            "lon": 14.2593491,
            "name": "Museum im Dorf",
            "tourism": "museum",
            "wikidata": "Q86304343"
          },
          "geometry": {
            "type": "Point",
            "coordinates": [
              14.2593491,
              47.8843124
            ]
          }
        },
        {
          "type": "Feature",
          "properties": {
            "id": "4226283857",
            "osm_type": "node",
            "lat": 47.9129683,
            "lon": 14.2247056,
            "tourism": "museum"
          },
          "geometry": {
            "type": "Point",
            "coordinates": [
              14.2247056,
              47.9129683
            ]
          }
        },
        {
          "type": "Feature",
          "properties": {
            "id": "7775147218",
            "osm_type": "node",
            "lat": 47.9695172,
            "lon": 14.2669333,
            "name": "Krippenhaus",
            "tourism": "museum",
            "xmas:feature": "crib_museum"
          },
          "geometry": {
            "type": "Point",
            "coordinates": [
              14.2669333,
              47.9695172
            ]
          }
        }
      ],
      "children": []
    },
    {
      "bbox": {
        "south": 47.694865,
        "west": 14.2994695,
        "north": 48.02541825,
        "east": 15.253173
      },
      "poiCount": 12,
      "leafCount": 12,
      "averagePosition": [
        14.725003966666668,
        47.91092578333333
      ],
      "data": [
        {
          "type": "Feature",
          "properties": {
            "id": "10816715278",
            "osm_type": "node",
            "lat": 47.7204306,
            "lon": 14.3328283,
            "addr:city": "Windischgarsten",
            "addr:housenumber": "7",
            "addr:postcode": "4580",
            "addr:street": "Museumstraße",
            "email": "johannathallinger@hotmail.com",
            "museum": "history",
            "name": "Heimatmuseum Windischgarsten",
            "opening_hours": "May-Oct: We 15:00-17:00; Su 10:00-12:00",
            "phone": "+43 7562 5266",
            "tourism": "museum"
          },
          "geometry": {
            "type": "Point",
            "coordinates": [
              14.3328283,
              47.7204306
            ]
          }
        },
        {
          "type": "Feature",
          "properties": {
            "id": "3524221010",
            "osm_type": "node",
            "lat": 47.8602372,
            "lon": 15.0244071,
            "name": "Hammerherrenmuseum",
            "opening_hours:note": "Museumsbesuch erfolgt nur mittels Führung",
            "service_times": "Jun-Sep Tu-Su 10:00; 11:15",
            "tourism": "museum",
            "website": "https://www.lunz.at/de/kunst-kultur/museen/hammerherrenmuseum.html"
          },
          "geometry": {
            "type": "Point",
            "coordinates": [
              15.0244071,
              47.8602372
            ]
          }
        },
        {
          "type": "Feature",
          "properties": {
            "id": "527917628",
            "osm_type": "node",
            "lat": 47.8930358,
            "lon": 14.4626413,
            "addr:city": "Reichraming",
            "addr:postcode": "4462",
            "name": "Messingmuseum",
            "operator": "Kulturverein Bachaufwärts",
            "tourism": "museum"
          },
          "geometry": {
            "type": "Point",
            "coordinates": [
              14.4626413,
              47.8930358
            ]
          }
        },
        {
          "type": "Feature",
          "properties": {
            "id": "583378930",
            "osm_type": "node",
            "lat": 47.8895571,
            "lon": 14.4612583,
            "name": "Forstmuseum-Reichraming",
            "tourism": "museum",
            "wheelchair": "no",
            "wikidata": "Q38100531"
          },
          "geometry": {
            "type": "Point",
            "coordinates": [
              14.4612583,
              47.8895571
            ]
          }
        },
        {
          "type": "Feature",
          "properties": {
            "id": "1259267402",
            "osm_type": "node",
            "lat": 47.9289003,
            "lon": 14.354196,
            "name": "Info Center Museumsdorf Trattenbach",
            "tourism": "museum",
            "website": "https://www.tal-der-feitelmacher.at/",
            "wikidata": "Q67656195"
          },
          "geometry": {
            "type": "Point",
            "coordinates": [
              14.354196,
              47.9289003
            ]
          }
        },
        {
          "type": "Feature",
          "properties": {
            "id": "3941265536",
            "osm_type": "node",
            "lat": 47.9629721,
            "lon": 14.7737673,
            "addr:city": "Waidhofen an der Ybbs",
            "addr:country": "AT",
            "addr:housenumber": "2",
            "addr:postcode": "3340",
            "addr:street": "Schlossweg",
            "name": "5-Elemente-Museum",
            "opening_hours": "We-Su 09:00-16:00",
            "tourism": "museum",
            "website": "https://schloss-rothschild.at/5-elemente-museum",
            "wheelchair": "yes"
          },
          "geometry": {
            "type": "Point",
            "coordinates": [
              14.7737673,
              47.9629721
            ]
          }
        },
        {
          "type": "Feature",
          "properties": {
            "id": "4563434989",
            "osm_type": "node",
            "lat": 47.8811211,
            "lon": 14.5414698,
            "addr:city": "Großraming",
            "addr:country": "AT",
            "addr:housenumber": "36",
            "addr:postcode": "4463",
            "addr:street": "Rodelsbach",
            "name": "Kutschenmuseum Gruber",
            "opening_hours": "Mo-Su 10:00-12:00, 14:00-16:00",
            "phone": "004372548283",
            "tourism": "museum",
            "website": "http://www.johannesgruber.com",
            "wikidata": "Q86909933"
          },
          "geometry": {
            "type": "Point",
            "coordinates": [
              14.5414698,
              47.8811211
            ]
          }
        },
        {
          "type": "Feature",
          "properties": {
            "id": "6131278299",
            "osm_type": "node",
            "lat": 47.9454415,
            "lon": 14.7996823,
            "addr:city": "Waidhofen an der Ybbs",
            "addr:housenumber": "6",
            "addr:postcode": "3340",
            "addr:street": "Kreilhofstraße",
            "name": "Museales Schaukraftwerk Schwellöd",
            "tourism": "museum"
          },
          "geometry": {
            "type": "Point",
            "coordinates": [
              14.7996823,
              47.9454415
            ]
          }
        },
        {
          "type": "Feature",
          "properties": {
            "id": "6239605045",
            "osm_type": "node",
            "lat": 47.9614687,
            "lon": 14.773968,
            "addr:city": "Waidhofen an der Ybbs",
            "addr:country": "AT",
            "addr:housenumber": "32",
            "addr:postcode": "3340",
            "addr:street": "Oberer Stadtplatz",
            "name": "Stadtmuseum",
            "opening_hours": "We-Su 09:00-16:00",
            "tourism": "museum"
          },
          "geometry": {
            "type": "Point",
            "coordinates": [
              14.773968,
              47.9614687
            ]
          }
        },
        {
          "type": "Feature",
          "properties": {
            "id": "11951890971",
            "osm_type": "node",
            "lat": 47.9962381,
            "lon": 14.7629492,
            "fee": "yes",
            "name": "Schatzkammer",
            "tourism": "museum",
            "wheelchair": "no"
          },
          "geometry": {
            "type": "Point",
            "coordinates": [
              14.7629492,
              47.9962381
            ]
          }
        },
        {
          "type": "Feature",
          "properties": {
            "id": "4941154339",
            "osm_type": "node",
            "lat": 48.0053807,
            "lon": 15.1673554,
            "name": "Schützenscheibenmuseum",
            "tourism": "museum",
            "wikidata": "Q1665804"
          },
          "geometry": {
            "type": "Point",
            "coordinates": [
              15.1673554,
              48.0053807
            ]
          }
        },
        {
          "type": "Feature",
          "properties": {
            "id": "6587223173",
            "osm_type": "node",
            "lat": 47.8863262,
            "lon": 15.2455246,
            "name": "Holzknechtmuseum",
            "tourism": "museum"
          },
          "geometry": {
            "type": "Point",
            "coordinates": [
              15.2455246,
              47.8863262
            ]
          }
        }
      ],
      "children": []
    },
    {
      "bbox": {
        "south": 48.02541825,
        "west": 13.345766,
        "north": 48.355971499999995,
        "east": 14.2994695
      },
      "poiCount": 23,
      "leafCount": 23,
      "averagePosition": [
        13.915512534782609,
        48.20778485652174
      ],
      "data": [
        {
          "type": "Feature",
          "properties": {
            "id": "1903226091",
            "osm_type": "node",
            "lat": 48.3129439,
            "lon": 13.454033,
            "addr:city": "Ort im Innkreis",
            "addr:country": "AT",
            "addr:housenumber": "17",
            "addr:place": "Osternach",
            "addr:postcode": "4974",
            "email": "bauernmuseum@hotmail.com",
            "name": "Bauern Museum",
            "opening_hours": "May-Oct: Sa,Su 14:00-16:00",
            "phone": "+4377518342",
            "tourism": "museum",
            "website": "https://bauernmuseumosternach.wordpress.com/"
          },
          "geometry": {
            "type": "Point",
            "coordinates": [
              13.454033,
              48.3129439
            ]
          }
        },
        {
          "type": "Feature",
          "properties": {
            "id": "3427394010",
            "osm_type": "node",
            "lat": 48.2313239,
            "lon": 13.4969275,
            "name": "Feuerwehrmuseum",
            "tourism": "museum"
          },
          "geometry": {
            "type": "Point",
            "coordinates": [
              13.4969275,
              48.2313239
            ]
          }
        },
        {
          "type": "Feature",
          "properties": {
            "id": "413447082",
            "osm_type": "node",
            "lat": 48.2447551,
            "lon": 13.7983861,
            "email": "kulturama@gmx.at",
            "name": "Kulturama",
            "phone": "+43 680-1260749",
            "tourism": "museum",
            "website": "https://www.kulturama.at/schloss_tollet.htm"
          },
          "geometry": {
            "type": "Point",
            "coordinates": [
              13.7983861,
              48.2447551
            ]
          }
        },
        {
          "type": "Feature",
          "properties": {
            "id": "490174610",
            "osm_type": "node",
            "lat": 48.1566027,
            "lon": 14.0280363,
            "fee": "yes",
            "name": "Burgmuseum",
            "tourism": "museum",
            "wheelchair": "yes"
          },
          "geometry": {
            "type": "Point",
            "coordinates": [
              14.0280363,
              48.1566027
            ]
          }
        },
        {
          "type": "Feature",
          "properties": {
            "id": "573453327",
            "osm_type": "node",
            "lat": 48.0637264,
            "lon": 13.9044418,
            "entrance": "yes",
            "name": "Freilichtmuseum Hackenschmiede",
            "note": "Geöffnet jden zweiten und vierten Samstag im Monat; oder Voranmeldung am Gemeindeamt +43-7245-250550",
            "opening_hours": "Sa 10:00-11:00",
            "tourism": "museum",
            "wikidata": "Q37976679"
          },
          "geometry": {
            "type": "Point",
            "coordinates": [
              13.9044418,
              48.0637264
            ]
          }
        },
        {
          "type": "Feature",
          "properties": {
            "id": "1583591383",
            "osm_type": "node",
            "lat": 48.23241,
            "lon": 13.608076,
            "name": "Furthmühlenmuseum",
            "tourism": "museum"
          },
          "geometry": {
            "type": "Point",
            "coordinates": [
              13.608076,
              48.23241
            ]
          }
        },
        {
          "type": "Feature",
          "properties": {
            "id": "1588879629",
            "osm_type": "node",
            "lat": 48.303252,
            "lon": 13.6330808,
            "addr:housenumber": "92",
            "addr:postcode": "4752",
            "addr:street": "Mühlgasse",
            "check_date:opening_hours": "2025-03-10",
            "fee": "yes",
            "name": "Holz- und Werkzeugmuseum Lignorama",
            "opening_hours": "Fr,Sa,Su,PH 10:00-17:00",
            "tourism": "museum",
            "website": "https://www.lignorama.com/",
            "wikidata": "Q87482930"
          },
          "geometry": {
            "type": "Point",
            "coordinates": [
              13.6330808,
              48.303252
            ]
          }
        },
        {
          "type": "Feature",
          "properties": {
            "id": "2095716301",
            "osm_type": "node",
            "lat": 48.157117,
            "lon": 14.0216865,
            "fee": "yes",
            "name": "Medienkulturhaus",
            "tourism": "museum"
          },
          "geometry": {
            "type": "Point",
            "coordinates": [
              14.0216865,
              48.157117
            ]
          }
        },
        {
          "type": "Feature",
          "properties": {
            "id": "2162754893",
            "osm_type": "node",
            "lat": 48.0889505,
            "lon": 13.5620259,
            "addr:city": "Ampflwang im Hausruckwald",
            "addr:country": "AT",
            "addr:housenumber": "29",
            "addr:postcode": "4843",
            "addr:street": "Bahnhofstraße",
            "email": "info@lokpark.at",
            "name": "Lokpark Ampflwang",
            "phone": "+43 664 5087664",
            "railway": "museum",
            "tourism": "museum",
            "website": "https://www.oegeg.at/normalspur/lokpark-ampflwang/"
          },
          "geometry": {
            "type": "Point",
            "coordinates": [
              13.5620259,
              48.0889505
            ]
          }
        },
        {
          "type": "Feature",
          "properties": {
            "id": "3155259248",
            "osm_type": "node",
            "lat": 48.0638566,
            "lon": 13.9030861,
            "fee": "yes",
            "name": "Tempus",
            "opening_hours": "We 15:00-18:00; Sa 09:00-12:00",
            "tourism": "museum",
            "wikidata": "Q86201632"
          },
          "geometry": {
            "type": "Point",
            "coordinates": [
              13.9030861,
              48.0638566
            ]
          }
        },
        {
          "type": "Feature",
          "properties": {
            "id": "3217026461",
            "osm_type": "node",
            "lat": 48.1491325,
            "lon": 13.9975141,
            "addr:city": "Wels",
            "addr:country": "AT",
            "addr:housenumber": "101",
            "addr:postcode": "4600",
            "addr:street": "Lichtenegger Straße",
            "name": "Feuerwehroldtimerverein",
            "operator": "Freiwillige Feuerwehr Wels",
            "tourism": "museum"
          },
          "geometry": {
            "type": "Point",
            "coordinates": [
              13.9975141,
              48.1491325
            ]
          }
        },
        {
          "type": "Feature",
          "properties": {
            "id": "3607007804",
            "osm_type": "node",
            "lat": 48.0787479,
            "lon": 13.8552939,
            "name": "Schiffleutmuseum",
            "tourism": "museum",
            "wikidata": "Q16003208",
            "wikimedia_commons": "File:Schiffleutmuseum.jpg",
            "wikipedia": "de:Schiffleutmuseum"
          },
          "geometry": {
            "type": "Point",
            "coordinates": [
              13.8552939,
              48.0787479
            ]
          }
        },
        {
          "type": "Feature",
          "properties": {
            "id": "4342022189",
            "osm_type": "node",
            "lat": 48.1126295,
            "lon": 14.0192675,
            "name": "Max Schwediauer Kunstmühle",
            "tourism": "museum"
          },
          "geometry": {
            "type": "Point",
            "coordinates": [
              14.0192675,
              48.1126295
            ]
          }
        },
        {
          "type": "Feature",
          "properties": {
            "id": "4840560580",
            "osm_type": "node",
            "lat": 48.2085056,
            "lon": 13.6056286,
            "addr:city": "Pram",
            "addr:country": "AT",
            "addr:housenumber": "6",
            "addr:place": "Gries",
            "addr:postcode": "4742",
            "at_bev:addr_date": "2016-10-02",
            "name": "Schmied z'Gries - Handwerkermuseum",
            "tourism": "museum"
          },
          "geometry": {
            "type": "Point",
            "coordinates": [
              13.6056286,
              48.2085056
            ]
          }
        },
        {
          "type": "Feature",
          "properties": {
            "id": "6653005038",
            "osm_type": "node",
            "lat": 48.1216307,
            "lon": 13.6731747,
            "name": "Bergknappenkapelle Kohlgrube",
            "tourism": "museum"
          },
          "geometry": {
            "type": "Point",
            "coordinates": [
              13.6731747,
              48.1216307
            ]
          }
        },
        {
          "type": "Feature",
          "properties": {
            "id": "12358063211",
            "osm_type": "node",
            "lat": 48.3182676,
            "lon": 13.6288645,
            "fee": "no",
            "name": "Museum Flixeder",
            "tourism": "museum"
          },
          "geometry": {
            "type": "Point",
            "coordinates": [
              13.6288645,
              48.3182676
            ]
          }
        },
        {
          "type": "Feature",
          "properties": {
            "id": "302214113",
            "osm_type": "node",
            "lat": 48.3057359,
            "lon": 14.2879438,
            "amenity": "arts_centre",
            "contact:phone": "+43 732 70701920",
            "contact:website": "http://www.zahnmuseum-linz.at",
            "fee": "no",
            "name": "Zahnheilkundemuseum",
            "opening_hours": "Mo-Fr 09:00-13:00,14:00-18:00",
            "tourism": "museum"
          },
          "geometry": {
            "type": "Point",
            "coordinates": [
              14.2879438,
              48.3057359
            ]
          }
        },
        {
          "type": "Feature",
          "properties": {
            "id": "2827124013",
            "osm_type": "node",
            "lat": 48.2093828,
            "lon": 14.2909339,
            "name": "Anton Bruckner Museum",
            "tourism": "museum",
            "wikidata": "Q28735571"
          },
          "geometry": {
            "type": "Point",
            "coordinates": [
              14.2909339,
              48.2093828
            ]
          }
        },
        {
          "type": "Feature",
          "properties": {
            "id": "7371325937",
            "osm_type": "node",
            "lat": 48.1960615,
            "lon": 14.1285628,
            "name": "Museum Marchtrenk",
            "tourism": "museum"
          },
          "geometry": {
            "type": "Point",
            "coordinates": [
              14.1285628,
              48.1960615
            ]
          }
        },
        {
          "type": "Feature",
          "properties": {
            "id": "10969050870",
            "osm_type": "node",
            "lat": 48.302577,
            "lon": 14.2836832,
            "name": "Tiger Line Linz",
            "opening_hours": "Th 15:00-18:00",
            "tourism": "museum"
          },
          "geometry": {
            "type": "Point",
            "coordinates": [
              14.2836832,
              48.302577
            ]
          }
        },
        {
          "type": "Feature",
          "properties": {
            "id": "12092446779",
            "osm_type": "node",
            "lat": 48.3024297,
            "lon": 14.2904364,
            "addr:city": "Linz",
            "addr:housenumber": "31",
            "addr:postcode": "4020",
            "addr:street": "Landstraße",
            "email": "cdb83@gmx.at",
            "instagram": "korefstiftung",
            "mobile": "+43 / 660 / 1430334",
            "museum": "local",
            "name": "Clubgalerie der Dr. Ernst Koref-Stiftung",
            "opening_hours": "Mo-Fr 08:00-19:00, Sa 10:00-17:00",
            "operator": "Dr. Ernst Koref-Stiftung",
            "operator:type": "public",
            "phone": "+43 / 732 / 774007",
            "tourism": "museum"
          },
          "geometry": {
            "type": "Point",
            "coordinates": [
              14.2904364,
              48.3024297
            ]
          }
        },
        {
          "type": "Feature",
          "properties": {
            "id": "12666454248",
            "osm_type": "node",
            "lat": 48.3061219,
            "lon": 14.2868837,
            "addr:housenumber": "1",
            "addr:street": "Hauptplatz",
            "name": "Zahnmuseum",
            "tourism": "museum"
          },
          "geometry": {
            "type": "Point",
            "coordinates": [
              14.2868837,
              48.3061219
            ]
          }
        },
        {
          "type": "Feature",
          "properties": {
            "id": "12666476853",
            "osm_type": "node",
            "lat": 48.312891,
            "lon": 14.2988212,
            "addr:city": "Linz",
            "addr:housenumber": "3",
            "addr:postcode": "4020",
            "addr:street": "Peter-Behrens-Platz",
            "name": "Schaudepot der Museen der Stadt Linz",
            "operator": "Stadt Linz",
            "tourism": "museum"
          },
          "geometry": {
            "type": "Point",
            "coordinates": [
              14.2988212,
              48.312891
            ]
          }
        }
      ],
      "children": []
    },
    {
      "bbox": {
        "south": 48.02541825,
        "west": 14.2994695,
        "north": 48.355971499999995,
        "east": 15.253173
      },
      "poiCount": 35,
      "leafCount": 35,
      "averagePosition": [
        14.777702731428572,
        48.192475748571425
      ],
      "data": [
        {
          "type": "Feature",
          "properties": {
            "id": "297580153",
            "osm_type": "node",
            "lat": 48.2139223,
            "lon": 14.4797366,
            "addr:city": "Enns",
            "addr:country": "AT",
            "addr:housenumber": "19",
            "addr:postcode": "4470",
            "addr:street": "Hauptplatz",
            "contact:email": "office@museum-lauriacum.at",
            "contact:facebook": "museumlauriacum",
            "contact:instagram": "museumlauriacum",
            "contact:phone": "+43722385362",
            "contact:website": "https://museum-lauriacum.at",
            "name": "Museum Lauriacum",
            "source": "survey",
            "tourism": "museum",
            "wikidata": "Q29897087"
          },
          "geometry": {
            "type": "Point",
            "coordinates": [
              14.4797366,
              48.2139223
            ]
          }
        },
        {
          "type": "Feature",
          "properties": {
            "id": "628168800",
            "osm_type": "node",
            "lat": 48.1991655,
            "lon": 14.356955,
            "name": "OÖ Jagdmuseum (Schloss Hohenbrunn)",
            "tourism": "museum"
          },
          "geometry": {
            "type": "Point",
            "coordinates": [
              14.356955,
              48.1991655
            ]
          }
        },
        {
          "type": "Feature",
          "properties": {
            "id": "958307921",
            "osm_type": "node",
            "lat": 48.2868763,
            "lon": 14.3718759,
            "name": "Schlossmuseum",
            "tourism": "museum"
          },
          "geometry": {
            "type": "Point",
            "coordinates": [
              14.3718759,
              48.2868763
            ]
          }
        },
        {
          "type": "Feature",
          "properties": {
            "id": "1413926602",
            "osm_type": "node",
            "lat": 48.1441418,
            "lon": 14.3907013,
            "addr:city": "Hofkirchen im Traunkreis",
            "addr:country": "AT",
            "addr:housenumber": "15",
            "addr:postcode": "4492",
            "addr:street": "Ipfmühlstraße",
            "museum": "history",
            "name": "Sattler Mauseum",
            "phone": "*43 7225 6205",
            "tourism": "museum",
            "website": "https://www.sattlermuseum.at/"
          },
          "geometry": {
            "type": "Point",
            "coordinates": [
              14.3907013,
              48.1441418
            ]
          }
        },
        {
          "type": "Feature",
          "properties": {
            "id": "2600964515",
            "osm_type": "node",
            "lat": 48.240552,
            "lon": 14.5156227,
            "name": "Mauthausener Heimatmuseum",
            "note": "zusätzlich das Trophäen–, Gerstmayr und Apothekenmuseum",
            "tourism": "museum"
          },
          "geometry": {
            "type": "Point",
            "coordinates": [
              14.5156227,
              48.240552
            ]
          }
        },
        {
          "type": "Feature",
          "properties": {
            "id": "2620080159",
            "osm_type": "node",
            "lat": 48.0422155,
            "lon": 14.420742,
            "fee": "yes",
            "name": "Stollen der Erinnerung",
            "opening_hours": "Mo-Fr 09:00-17:00; Sa,Su,PH 10:00-17:00",
            "operator": "Verein Museum Arbeitswelt",
            "tourism": "museum",
            "wikidata": "Q18413262",
            "wikipedia": "de:Stollen der Erinnerung"
          },
          "geometry": {
            "type": "Point",
            "coordinates": [
              14.420742,
              48.0422155
            ]
          }
        },
        {
          "type": "Feature",
          "properties": {
            "id": "3763436613",
            "osm_type": "node",
            "lat": 48.3183527,
            "lon": 14.4737845,
            "contact:website": "http://www.museum-katsdorf.at/",
            "name": "Karden- und Heimatmuseum Katsdorf",
            "tourism": "museum",
            "wikidata": "Q18413187"
          },
          "geometry": {
            "type": "Point",
            "coordinates": [
              14.4737845,
              48.3183527
            ]
          }
        },
        {
          "type": "Feature",
          "properties": {
            "id": "3923334828",
            "osm_type": "node",
            "lat": 48.03915,
            "lon": 14.4078332,
            "name": "Steyrtal Museumsbahn (dampf)",
            "tourism": "museum",
            "website": "https://www.oegeg.at/schmalspur-steyrtalbahn/"
          },
          "geometry": {
            "type": "Point",
            "coordinates": [
              14.4078332,
              48.03915
            ]
          }
        },
        {
          "type": "Feature",
          "properties": {
            "id": "4802493334",
            "osm_type": "node",
            "lat": 48.2850858,
            "lon": 14.3723639,
            "addr:city": "Steyregg",
            "addr:housenumber": "11",
            "addr:postcode": "4221",
            "addr:street": "Stadtturmgasse",
            "name": "Stadtturm Heimatmuseum",
            "opening_hours": "May-Sep: Su 10:00-12:00 || \"nach Vereinbarung\"",
            "operator": "Heimatverein Steyregg",
            "phone": "+43 732 640677",
            "tourism": "museum",
            "website": "https://www.tiscover.com/at/guide/5,de/objectId,SIG568539at,parentId,RGN111161at/intern.html",
            "wheelchair": "no"
          },
          "geometry": {
            "type": "Point",
            "coordinates": [
              14.3723639,
              48.2850858
            ]
          }
        },
        {
          "type": "Feature",
          "properties": {
            "id": "8094967620",
            "osm_type": "node",
            "lat": 48.0369002,
            "lon": 14.4179058,
            "fee": "yes",
            "name": "Museum der Stadt Steyr",
            "opening_hours": "We-Sa 10:00-17:00; PH,Su 10:00-16:00",
            "tourism": "museum",
            "website": "https://www.steyr.at/Stadtmuseum"
          },
          "geometry": {
            "type": "Point",
            "coordinates": [
              14.4179058,
              48.0369002
            ]
          }
        },
        {
          "type": "Feature",
          "properties": {
            "id": "10700324495",
            "osm_type": "node",
            "lat": 48.2704926,
            "lon": 14.4483312,
            "museum": "local",
            "name": "Heimathaus",
            "tourism": "museum"
          },
          "geometry": {
            "type": "Point",
            "coordinates": [
              14.4483312,
              48.2704926
            ]
          }
        },
        {
          "type": "Feature",
          "properties": {
            "id": "12668552597",
            "osm_type": "node",
            "lat": 48.2783507,
            "lon": 14.3212601,
            "addr:city": "Linz",
            "addr:housenumber": "1",
            "addr:postcode": "4020",
            "addr:street": "voestalpine-Straße",
            "fee": "no",
            "name": "Zeitgeschichte MUSEUM",
            "tourism": "museum"
          },
          "geometry": {
            "type": "Point",
            "coordinates": [
              14.3212601,
              48.2783507
            ]
          }
        },
        {
          "type": "Feature",
          "properties": {
            "id": "620825745",
            "osm_type": "node",
            "lat": 48.1750474,
            "lon": 14.5339197,
            "contact:phone": "+43 74355 8660",
            "name": "Geschichtliches Museum St.Valentin",
            "tourism": "museum",
            "website": "https://valentinmuseum.at/museum",
            "wikidata": "Q87193287"
          },
          "geometry": {
            "type": "Point",
            "coordinates": [
              14.5339197,
              48.1750474
            ]
          }
        },
        {
          "type": "Feature",
          "properties": {
            "id": "760183720",
            "osm_type": "node",
            "lat": 48.2263415,
            "lon": 14.8531879,
            "name": "Oberösterreichisches Schifffahrtsmuseum",
            "toilets:wheelchair": "yes",
            "tourism": "museum",
            "wheelchair": "limited",
            "wikidata": "Q84347234"
          },
          "geometry": {
            "type": "Point",
            "coordinates": [
              14.8531879,
              48.2263415
            ]
          }
        },
        {
          "type": "Feature",
          "properties": {
            "id": "2125629013",
            "osm_type": "node",
            "lat": 48.2554384,
            "lon": 14.6281875,
            "name": "Steinbrecherhaus",
            "tourism": "museum",
            "wikidata": "Q2340077"
          },
          "geometry": {
            "type": "Point",
            "coordinates": [
              14.6281875,
              48.2554384
            ]
          }
        },
        {
          "type": "Feature",
          "properties": {
            "id": "2125645408",
            "osm_type": "node",
            "lat": 48.2482328,
            "lon": 14.6339313,
            "contact:email": "heimathaus-stadtmuseum@perg.at",
            "contact:phone": "+43 650 54 27 786",
            "name": "Heimathaus und Stadtmuseum",
            "opening_hours": "Sa-Su 14:00-17:00",
            "tourism": "museum",
            "website": "https://www.pergmuseum.at/",
            "wikidata": "Q86201633"
          },
          "geometry": {
            "type": "Point",
            "coordinates": [
              14.6339313,
              48.2482328
            ]
          }
        },
        {
          "type": "Feature",
          "properties": {
            "id": "3077892496",
            "osm_type": "node",
            "lat": 48.0570539,
            "lon": 14.8539188,
            "addr:city": "Neuhofen an der Ybbs",
            "addr:housenumber": "1",
            "addr:postcode": "3364",
            "addr:street": "Millenniumsplatz",
            "contact:email": "office@ostarrichi-kulturhof.at",
            "contact:phone": "+43 7475 52700-40",
            "contact:website": "https://www.ostarrichi-kulturhof.at/",
            "name": "Ostarrichi-Kulturhof",
            "tourism": "museum",
            "wheelchair": "yes"
          },
          "geometry": {
            "type": "Point",
            "coordinates": [
              14.8539188,
              48.0570539
            ]
          }
        },
        {
          "type": "Feature",
          "properties": {
            "id": "6562890284",
            "osm_type": "node",
            "lat": 48.2674181,
            "lon": 14.6874863,
            "tourism": "museum"
          },
          "geometry": {
            "type": "Point",
            "coordinates": [
              14.6874863,
              48.2674181
            ]
          }
        },
        {
          "type": "Feature",
          "properties": {
            "id": "7577157971",
            "osm_type": "node",
            "lat": 48.3074593,
            "lon": 14.6174314,
            "addr:city": "Tragwein",
            "addr:housenumber": "7",
            "addr:place": "Kriechbaum",
            "addr:postcode": "4284",
            "museum": "nature",
            "name": "Bergbaumuseum Kaolinum",
            "opening_hours": "Sa-Su,PH 14:00-17:00",
            "tourism": "museum"
          },
          "geometry": {
            "type": "Point",
            "coordinates": [
              14.6174314,
              48.3074593
            ]
          }
        },
        {
          "type": "Feature",
          "properties": {
            "id": "9959214178",
            "osm_type": "node",
            "lat": 48.2132073,
            "lon": 14.9059248,
            "fixme": "Lage im Gebäude",
            "tourism": "museum"
          },
          "geometry": {
            "type": "Point",
            "coordinates": [
              14.9059248,
              48.2132073
            ]
          }
        },
        {
          "type": "Feature",
          "properties": {
            "id": "11703364047",
            "osm_type": "node",
            "lat": 48.207435,
            "lon": 14.7898885,
            "addr:city": "Saxen",
            "addr:housenumber": "7",
            "addr:place": "Saxen",
            "addr:postcode": "4351",
            "museum": "person",
            "name": "Strindberg Museum",
            "tourism": "museum",
            "website": "https://www.strindbergmuseum.at/"
          },
          "geometry": {
            "type": "Point",
            "coordinates": [
              14.7898885,
              48.207435
            ]
          }
        },
        {
          "type": "Feature",
          "properties": {
            "id": "11954352832",
            "osm_type": "node",
            "lat": 48.0359427,
            "lon": 14.6544152,
            "fee": "yes",
            "tourism": "museum"
          },
          "geometry": {
            "type": "Point",
            "coordinates": [
              14.6544152,
              48.0359427
            ]
          }
        },
        {
          "type": "Feature",
          "properties": {
            "id": "457342393",
            "osm_type": "node",
            "lat": 48.3181505,
            "lon": 15.198682,
            "name": "Folterkammer",
            "tourism": "museum"
          },
          "geometry": {
            "type": "Point",
            "coordinates": [
              15.198682,
              48.3181505
            ]
          }
        },
        {
          "type": "Feature",
          "properties": {
            "id": "1859284421",
            "osm_type": "node",
            "lat": 48.2428386,
            "lon": 15.2025866,
            "check_date": "2023-05-28",
            "payment:mastercard": "yes",
            "payment:visa": "yes",
            "tourism": "museum"
          },
          "geometry": {
            "type": "Point",
            "coordinates": [
              15.2025866,
              48.2428386
            ]
          }
        },
        {
          "type": "Feature",
          "properties": {
            "id": "2316293558",
            "osm_type": "node",
            "lat": 48.3174357,
            "lon": 15.1990009,
            "name": "Museum für Rechtsgeschichte",
            "tourism": "museum"
          },
          "geometry": {
            "type": "Point",
            "coordinates": [
              15.1990009,
              48.3174357
            ]
          }
        },
        {
          "type": "Feature",
          "properties": {
            "id": "2393336230",
            "osm_type": "node",
            "lat": 48.079422,
            "lon": 15.1366243,
            "fee": "yes",
            "name": "Ausstellungsraum",
            "tourism": "museum"
          },
          "geometry": {
            "type": "Point",
            "coordinates": [
              15.1366243,
              48.079422
            ]
          }
        },
        {
          "type": "Feature",
          "properties": {
            "id": "3435506966",
            "osm_type": "node",
            "lat": 48.0570911,
            "lon": 15.1341773,
            "alt_name": "Museum im Ledererhaus",
            "level": "0;1;2",
            "name": "Heimatmuseum",
            "opening_hours": "May 01 - Oct 26",
            "tourism": "museum",
            "website": "https://www.purgstall-erlauf.gv.at/Tourismus/Museen/Museum_im_Ledererhaus",
            "wikidata": "Q87404502"
          },
          "geometry": {
            "type": "Point",
            "coordinates": [
              15.1341773,
              48.0570911
            ]
          }
        },
        {
          "type": "Feature",
          "properties": {
            "id": "3791982657",
            "osm_type": "node",
            "lat": 48.1783792,
            "lon": 15.0846007,
            "name": "Stadtmuseum",
            "tourism": "museum"
          },
          "geometry": {
            "type": "Point",
            "coordinates": [
              15.0846007,
              48.1783792
            ]
          }
        },
        {
          "type": "Feature",
          "properties": {
            "id": "3793158345",
            "osm_type": "node",
            "lat": 48.1782761,
            "lon": 15.0847349,
            "contact:phone": "+43 7412 52612",
            "fee": "yes",
            "name": "Fahrradmuseum",
            "opening_hours": "Jun-Sep: Mo-Su 10:00-13:00,14:00-17:00",
            "tourism": "museum",
            "website": "https://fahrradmuseum.ybbs.at/",
            "wheelchair": "limited"
          },
          "geometry": {
            "type": "Point",
            "coordinates": [
              15.0847349,
              48.1782761
            ]
          }
        },
        {
          "type": "Feature",
          "properties": {
            "id": "4640534614",
            "osm_type": "node",
            "lat": 48.1823794,
            "lon": 15.1831756,
            "addr:city": "Erlauf",
            "addr:country": "AT",
            "addr:housenumber": "3",
            "addr:postcode": "3253",
            "addr:street": "Kirchenplatz",
            "alt_name": "Erlauf Erinnert - Museum der Friedensgemeinde Erlauf",
            "name": "Friedensmuseum",
            "phone": "+43 2757 610 53",
            "tourism": "museum",
            "website": "http://www.erlauferinnert.at/",
            "wheelchair": "yes"
          },
          "geometry": {
            "type": "Point",
            "coordinates": [
              15.1831756,
              48.1823794
            ]
          }
        },
        {
          "type": "Feature",
          "properties": {
            "id": "4958324470",
            "osm_type": "node",
            "lat": 48.2096795,
            "lon": 15.1592995,
            "addr:city": "Krummnußbaum",
            "addr:country": "AT",
            "addr:housenumber": "48",
            "addr:postcode": "3375",
            "addr:street": "Hauptstraße",
            "at_bev:addr_date": "2017-04-07",
            "email": "nusseum@j-peham.com",
            "name": "nusseum",
            "opening_hours": "May-Oct: Sa 13:00-17:00; May-Oct: Su,PH 10:00-17:00",
            "phone": "+43 676 3510528",
            "tourism": "museum",
            "website": "https://www.niederoesterreich.at/ausflugsziele/a-nusseum-krummnussbaum"
          },
          "geometry": {
            "type": "Point",
            "coordinates": [
              15.1592995,
              48.2096795
            ]
          }
        },
        {
          "type": "Feature",
          "properties": {
            "id": "5368912847",
            "osm_type": "node",
            "lat": 48.2114933,
            "lon": 15.2103648,
            "addr:city": "Pöchlarn",
            "addr:country": "AT",
            "addr:housenumber": "9",
            "addr:postcode": "3380",
            "addr:street": "Sandtorgasse",
            "name": "Tischlereimuseum",
            "phone": "+43 2757 23 10",
            "tourism": "museum",
            "website": "https://www.poechlarn.at/Tischlermuseum"
          },
          "geometry": {
            "type": "Point",
            "coordinates": [
              15.2103648,
              48.2114933
            ]
          }
        },
        {
          "type": "Feature",
          "properties": {
            "id": "8248293681",
            "osm_type": "node",
            "lat": 48.2116354,
            "lon": 15.2068833,
            "addr:city": "Pöchlarn",
            "addr:country": "AT",
            "addr:housenumber": "29",
            "addr:postcode": "3380",
            "addr:street": "Regensburger Straße",
            "name": "Kokoschka-Haus",
            "phone": "+43 2757 7656",
            "tourism": "museum",
            "website": "https://www.oskarkokoschka.at/",
            "wikidata": "Q1148101",
            "wikipedia": "de:Kokoschka-Haus"
          },
          "geometry": {
            "type": "Point",
            "coordinates": [
              15.2068833,
              48.2116354
            ]
          }
        },
        {
          "type": "Feature",
          "properties": {
            "id": "8916465321",
            "osm_type": "node",
            "lat": 48.0653141,
            "lon": 15.1347161,
            "name": "Feuerwehr Museum Purgstall",
            "tourism": "museum"
          },
          "geometry": {
            "type": "Point",
            "coordinates": [
              15.1347161,
              48.0653141
            ]
          }
        },
        {
          "type": "Feature",
          "properties": {
            "id": "9374750437",
            "osm_type": "node",
            "lat": 48.1357745,
            "lon": 15.149346,
            "addr:city": "Wieselburg",
            "addr:country": "AT",
            "addr:housenumber": "1",
            "addr:postcode": "3250",
            "addr:street": "Dr.-Beurle-Straße",
            "name": "Brauereimuseum Wieselburg",
            "tourism": "museum"
          },
          "geometry": {
            "type": "Point",
            "coordinates": [
              15.149346,
              48.1357745
            ]
          }
        }
      ],
      "children": []
    }
  ]
}