{
  "bbox": {
    "south": 47.694865,
    "west": 9.530952,
    "north": 48.355971499999995,
    "east": 11.438358999999998
  },
  "poiCount": 133,
  "leafCount": 0,
  "averagePosition": [
    10.411375755639098,
    48.0230259293233
  ],
  "data": [],
  "children": [
    {
      "bbox": {
        "south": 47.694865,
        "west": 9.530952,
        "north": 48.02541825,
        "east": 10.484655499999999
      },
      "poiCount": 35,
      "leafCount": 35,
      "averagePosition": [
        9.992970251428572,
        47.84776053428571
      ],
      "data": [
        {
          "type": "Feature",
          "properties": {
            "id": "343831971",
            "osm_type": "node",
            "lat": 47.703449,
            "lon": 9.5491105,
            "name": "Museum im Schloss",
            "opening_hours:signed": "no",
            "tourism": "museum",
            "wheelchair": "no",
            "wikipedia": "de:Humpisschloss"
          },
          "geometry": {
            "type": "Point",
            "coordinates": [
              9.5491105,
              47.703449
            ]
          }
        },
        {
          "type": "Feature",
          "properties": {
            "id": "427927753",
            "osm_type": "node",
            "lat": 47.764625,
            "lon": 9.5968813,
            "addr:city": "Ravensburg",
            "addr:housenumber": "7",
            "addr:postcode": "88214",
            "addr:street": "Torplatz",
            "lastcheck": "2017-02-06",
            "name": "Heimatmuseum Eschach",
            "opening_hours": "Geschlossen Seit März 2021",
            "tourism": "museum",
            "wikidata": "Q34333156"
          },
          "geometry": {
            "type": "Point",
            "coordinates": [
              9.5968813,
              47.764625
            ]
          }
        },
        {
          "type": "Feature",
          "properties": {
            "id": "665157746",
            "osm_type": "node",
            "lat": 47.8068601,
            "lon": 9.6407103,
            "addr:city": "Weingarten",
            "addr:country": "DE",
            "addr:housenumber": "28",
            "addr:postcode": "88250",
            "addr:street": "Karlstraße",
            "description": "Archäologisches Museum",
            "email": "museen@weingarten-online.de",
            "fee": "yes",
            "internet_access": "wlan",
            "name": "Alamannenmuseum",
            "opening_hours": "We-Su 14:00-17:00; Mo-Tu off; PH 14:00-17:00; Dec 25-Jan 01 off; Jan 06 off; Nov 01 off",
            "phone": "+49 751 49343",
            "tourism": "museum",
            "website": "https://www.weingarten-online.de/,Lde/Startseite/Kultur+_+Museen/Alamannenmuseum.html",
            "wikidata": "Q1313295"
          },
          "geometry": {
            "type": "Point",
            "coordinates": [
              9.6407103,
              47.8068601
            ]
          }
        },
        {
          "type": "Feature",
          "properties": {
            "id": "1182558743",
            "osm_type": "node",
            "lat": 47.8229343,
            "lon": 10.0260856,
            "fee": "yes",
            "name": "Elektrotechnisches Museum Leutkirch e.V.",
            "opening_hours": "\"nach Vereinbarung\"",
            "tourism": "museum",
            "website": "https://www.etm-leutkirch.de/",
            "wikidata": "Q76631425"
          },
          "geometry": {
            "type": "Point",
            "coordinates": [
              10.0260856,
              47.8229343
            ]
          }
        },
        {
          "type": "Feature",
          "properties": {
            "id": "2124818893",
            "osm_type": "node",
            "lat": 47.7885923,
            "lon": 9.8817302,
            "addr:street": "Neues Schloss",
            "museum": "living_history",
            "name": "Heimatmuseum",
            "tourism": "museum"
          },
          "geometry": {
            "type": "Point",
            "coordinates": [
              9.8817302,
              47.7885923
            ]
          }
        },
        {
          "type": "Feature",
          "properties": {
            "id": "2519885647",
            "osm_type": "node",
            "lat": 47.7589823,
            "lon": 9.712031,
            "fee": "yes",
            "name": "Museum auf der Burg",
            "operator": "Gemeinde Waldburg",
            "tourism": "museum",
            "wheelchair": "no"
          },
          "geometry": {
            "type": "Point",
            "coordinates": [
              9.712031,
              47.7589823
            ]
          }
        },
        {
          "type": "Feature",
          "properties": {
            "id": "4716718092",
            "osm_type": "node",
            "lat": 47.8253744,
            "lon": 9.6505813,
            "fee": "yes",
            "name": "Kardel und Zunftmuseum",
            "name:de": "Kardel und Zunftmuseum",
            "opening_hours": "Su[2] 15:00-17:00",
            "tourism": "museum"
          },
          "geometry": {
            "type": "Point",
            "coordinates": [
              9.6505813,
              47.8253744
            ]
          }
        },
        {
          "type": "Feature",
          "properties": {
            "id": "4827939021",
            "osm_type": "node",
            "lat": 47.821799,
            "lon": 9.7937081,
            "addr:city": "Wolfegg",
            "addr:country": "DE",
            "addr:housenumber": "1",
            "addr:street": "Fritz-B.-Busch-Weg",
            "check_date": "2025-08-09",
            "email": "info@automuseum-wolfegg.de",
            "fee": "yes",
            "name": "Automuseum",
            "opening_hours": "Mar 23-Nov 10: Mo-Su 11:00-18:00; Nov 11-Mar 22: Mo-Fr 13:00-17:00; Nov 11-Mar 22: Sa,Su,PH 11:00-17:00",
            "payment:cash": "yes",
            "payment:cryptocurrencies": "no",
            "payment:electronic_purses": "no",
            "payment:girocard": "yes",
            "phone": "+49 7527 9210390",
            "tourism": "museum",
            "website": "https://www.automuseum-wolfegg.de/",
            "wikidata": "Q59504283"
          },
          "geometry": {
            "type": "Point",
            "coordinates": [
              9.7937081,
              47.821799
            ]
          }
        },
        {
          "type": "Feature",
          "properties": {
            "id": "4829451841",
            "osm_type": "node",
            "lat": 47.821778,
            "lon": 9.7924056,
            "fee": "yes",
            "name": "Automuseum 2",
            "tourism": "museum"
          },
          "geometry": {
            "type": "Point",
            "coordinates": [
              9.7924056,
              47.821778
            ]
          }
        },
        {
          "type": "Feature",
          "properties": {
            "id": "12308209909",
            "osm_type": "node",
            "lat": 47.8112032,
            "lon": 9.6435023,
            "name": "Museum für Klosterkultur",
            "opening_hours": "Fr-Su 14:00-17:00; Mo-Th,PH off",
            "phone": "+49 751 405 255",
            "tourism": "museum"
          },
          "geometry": {
            "type": "Point",
            "coordinates": [
              9.6435023,
              47.8112032
            ]
          }
        },
        {
          "type": "Feature",
          "properties": {
            "id": "662942560",
            "osm_type": "node",
            "lat": 47.7236799,
            "lon": 10.3202607,
            "addr:city": "Kempten (Allgäu)",
            "addr:country": "DE",
            "addr:housenumber": "1",
            "addr:postcode": "87435",
            "addr:street": "Burghalde",
            "check_date": "2023-12-30",
            "fee": "yes",
            "name": "Allgäuer Burgenmuseum",
            "tourism": "museum",
            "website": "https://www.allgaeuer-burgenmuseum.de/",
            "wheelchair": "limited",
            "wikidata": "Q76628110"
          },
          "geometry": {
            "type": "Point",
            "coordinates": [
              10.3202607,
              47.7236799
            ]
          }
        },
        {
          "type": "Feature",
          "properties": {
            "id": "671351568",
            "osm_type": "node",
            "lat": 47.7275046,
            "lon": 10.3118318,
            "fee": "no",
            "museum": "history",
            "name": "Kempten-Museum im Zumsteinhaus",
            "opening_hours": "Tu-Su 10:00-18:00",
            "toilets:wheelchair": "yes",
            "tourism": "museum",
            "website": "https://kempten-museum.de/",
            "wheelchair": "yes",
            "wikidata": "Q109677340",
            "wikipedia": "de:Römisches Museum Kempten"
          },
          "geometry": {
            "type": "Point",
            "coordinates": [
              10.3118318,
              47.7275046
            ]
          }
        },
        {
          "type": "Feature",
          "properties": {
            "id": "1303251574",
            "osm_type": "node",
            "lat": 47.7252684,
            "lon": 10.3194001,
            "addr:city": "Kempten (Allgäu)",
            "addr:country": "DE",
            "addr:postcode": "87435",
            "addr:street": "Sankt-Mang-Platz",
            "contact:phone": "+49 831 9 60 22 02",
            "fee": "yes",
            "level": "-1",
            "name": "Erasmuskapelle",
            "opening_hours": "\"bis auf weiteres geschlossen\"",
            "tourism": "museum",
            "website": "https://erasmuskapelle-kempten.de/",
            "wheelchair": "no",
            "wikidata": "Q1348111",
            "wikipedia": "de:Erasmuskapelle"
          },
          "geometry": {
            "type": "Point",
            "coordinates": [
              10.3194001,
              47.7252684
            ]
          }
        },
        {
          "type": "Feature",
          "properties": {
            "id": "2332030465",
            "osm_type": "node",
            "lat": 47.745404,
            "lon": 10.2322381,
            "check_date:opening_hours": "2025-09-15",
            "fee": "no",
            "name": "Heimatmuseum",
            "opening_hours": "Mo-We,Fr 09:00-12:00, Mo 16:00-18:00, We 14:00-16:00",
            "tourism": "museum"
          },
          "geometry": {
            "type": "Point",
            "coordinates": [
              10.2322381,
              47.745404
            ]
          }
        },
        {
          "type": "Feature",
          "properties": {
            "id": "2521427581",
            "osm_type": "node",
            "lat": 47.7285902,
            "lon": 10.312693,
            "fee": "no",
            "level": "0",
            "name": "Hofgartensaal (Ausstellungen)",
            "tourism": "museum"
          },
          "geometry": {
            "type": "Point",
            "coordinates": [
              10.312693,
              47.7285902
            ]
          }
        },
        {
          "type": "Feature",
          "properties": {
            "id": "4189540090",
            "osm_type": "node",
            "lat": 47.7295143,
            "lon": 10.3100337,
            "addr:city": "Kempten (Allgäu)",
            "addr:country": "DE",
            "addr:housenumber": "5",
            "addr:postcode": "87439",
            "addr:street": "Memminger Straße",
            "alt_name": "Stiftsmälzerei",
            "image": "File:Kunsthalle Kempten 1.jpg",
            "name": "Kunsthalle Kempten",
            "phone": "+49 831 2525-200",
            "tourism": "museum",
            "website": "https://www.kunsthalle-kempten.de/",
            "wikidata": "Q2348844",
            "wikimedia_commons": "Category:Stiftsmälzerei",
            "wikipedia": "de:Stiftsmälzerei"
          },
          "geometry": {
            "type": "Point",
            "coordinates": [
              10.3100337,
              47.7295143
            ]
          }
        },
        {
          "type": "Feature",
          "properties": {
            "id": "6790243496",
            "osm_type": "node",
            "lat": 47.7680573,
            "lon": 10.4038459,
            "email": "susi.vogl@wildpoldsried.de",
            "museum": "local",
            "name": "Dorfmuseum",
            "phone": "+49 (0)8304-9205-0",
            "tourism": "museum",
            "website": "https://www.wildpoldsried.de/index.shtml?dorfmuseum"
          },
          "geometry": {
            "type": "Point",
            "coordinates": [
              10.4038459,
              47.7680573
            ]
          }
        },
        {
          "type": "Feature",
          "properties": {
            "id": "7512828440",
            "osm_type": "node",
            "lat": 47.8472326,
            "lon": 10.4194684,
            "addr:city": "Obergünzburg",
            "addr:country": "DE",
            "addr:housenumber": "2",
            "addr:postcode": "87634",
            "addr:street": "Unterer Markt",
            "contact:email": "info@suedseesammlung.de",
            "contact:fax": "+49 8372 90040",
            "contact:phone": "+49 8372 8239",
            "museum": "history",
            "name": "Historisches Museum - Südseesammlung",
            "opening_hours": "Th-Su 14:00-17:00",
            "tourism": "museum",
            "website": "https://www.suedseesammlung.de/",
            "wheelchair": "yes"
          },
          "geometry": {
            "type": "Point",
            "coordinates": [
              10.4194684,
              47.8472326
            ]
          }
        },
        {
          "type": "Feature",
          "properties": {
            "id": "10614325393",
            "osm_type": "node",
            "lat": 47.7502938,
            "lon": 10.1162517,
            "addr:city": "Leutkirch im Allgäu",
            "addr:housenumber": "9",
            "addr:place": "Schmidsfelden",
            "addr:suburb": "Winterstetten",
            "fee": "yes",
            "name": "Glashütte Schmidsfelden im Allgäu",
            "operator": "Glas:Schmidsfelden e.K",
            "source": "Datenübernahme von Gebäude",
            "tourism": "museum",
            "website": "https://www.schmidsfelden.net/",
            "wikidata": "Q130772420"
          },
          "geometry": {
            "type": "Point",
            "coordinates": [
              10.1162517,
              47.7502938
            ]
          }
        },
        {
          "type": "Feature",
          "properties": {
            "id": "11307990662",
            "osm_type": "node",
            "lat": 47.7294691,
            "lon": 10.3115167,
            "fee": "yes",
            "name": "Marstall Kempten",
            "tourism": "museum",
            "website": "https://marstall-kempten.de"
          },
          "geometry": {
            "type": "Point",
            "coordinates": [
              10.3115167,
              47.7294691
            ]
          }
        },
        {
          "type": "Feature",
          "properties": {
            "id": "342065303",
            "osm_type": "node",
            "lat": 47.906272,
            "lon": 9.8836913,
            "fee": "yes",
            "name": "Sepp-Mahler-Museum",
            "opening_hours": "Su 14:00-17:00; PH 14:00-17:00",
            "tourism": "museum"
          },
          "geometry": {
            "type": "Point",
            "coordinates": [
              9.8836913,
              47.906272
            ]
          }
        },
        {
          "type": "Feature",
          "properties": {
            "id": "345265608",
            "osm_type": "node",
            "lat": 47.9112407,
            "lon": 9.8705845,
            "addr:postcode": "88410",
            "fee": "yes",
            "name": "Haidgauer Torfwerk",
            "opening_hours": "\"Siehe Aushang Torfmuseum\"",
            "tourism": "museum",
            "website": "https://torfbahn.de/"
          },
          "geometry": {
            "type": "Point",
            "coordinates": [
              9.8705845,
              47.9112407
            ]
          }
        },
        {
          "type": "Feature",
          "properties": {
            "id": "1119787886",
            "osm_type": "node",
            "lat": 47.9341638,
            "lon": 9.5406408,
            "name": "Geschichts- und Heimatmuseum Altshausen",
            "tourism": "museum",
            "wheelchair": "no"
          },
          "geometry": {
            "type": "Point",
            "coordinates": [
              9.5406408,
              47.9341638
            ]
          }
        },
        {
          "type": "Feature",
          "properties": {
            "id": "1688975533",
            "osm_type": "node",
            "lat": 47.9210464,
            "lon": 9.7540602,
            "addr:city": "Bad Waldsee",
            "addr:country": "DE",
            "addr:housenumber": "40",
            "addr:postcode": "88339",
            "addr:street": "Hauptstraße",
            "check_date": "2025-07-03",
            "email": "h.leissle@museumimkornhaus.de",
            "fee": "no",
            "name": "Museum im Kornhaus",
            "opening_hours": "Fr-Su 13:30-17:30",
            "phone": "+49 7524 94 1311",
            "tourism": "museum",
            "website": "http://www.museum-bad-waldsee.de/",
            "wheelchair": "yes"
          },
          "geometry": {
            "type": "Point",
            "coordinates": [
              9.7540602,
              47.9210464
            ]
          }
        },
        {
          "type": "Feature",
          "properties": {
            "id": "1937843773",
            "osm_type": "node",
            "lat": 47.9206026,
            "lon": 9.7517802,
            "addr:city": "Bad Waldsee",
            "addr:country": "DE",
            "addr:housenumber": "8",
            "addr:postcode": "88339",
            "addr:street": "Bleichestraße",
            "description": "open every 2 weeks on wednesdays",
            "name": "Fasnet- und Ölmühlenmuseum",
            "opening_hours": "We 14:30-18:00",
            "phone": "+49 7524 94 13 42",
            "tourism": "museum"
          },
          "geometry": {
            "type": "Point",
            "coordinates": [
              9.7517802,
              47.9206026
            ]
          }
        },
        {
          "type": "Feature",
          "properties": {
            "id": "2180014681",
            "osm_type": "node",
            "lat": 47.9528122,
            "lon": 9.6373487,
            "addr:city": "Aulendorf",
            "addr:housenumber": "8",
            "addr:street": "Schulgäßle",
            "fee": "yes",
            "name": "Bürgermuseum im alten Kino",
            "operator": "Traditio e.V.",
            "source": "Maps4BW ( LGL, www.lgl-bw.de) / Bing",
            "tourism": "museum"
          },
          "geometry": {
            "type": "Point",
            "coordinates": [
              9.6373487,
              47.9528122
            ]
          }
        },
        {
          "type": "Feature",
          "properties": {
            "id": "3031485468",
            "osm_type": "node",
            "lat": 48.0041568,
            "lon": 9.6582212,
            "name": "Bierkrugmuseum",
            "tourism": "museum"
          },
          "geometry": {
            "type": "Point",
            "coordinates": [
              9.6582212,
              48.0041568
            ]
          }
        },
        {
          "type": "Feature",
          "properties": {
            "id": "301006263",
            "osm_type": "node",
            "lat": 48.0001475,
            "lon": 10.1343857,
            "addr:city": "Buxheim",
            "addr:housenumber": "15",
            "addr:postcode": "87740",
            "addr:street": "An der Kartause",
            "fee": "yes",
            "name": "Kartausenmuseum",
            "opening_hours": "Apr-Nov: Mo-Su,PH 10:00-17:00",
            "tourism": "museum",
            "website": "https://www.kartause-buxheim.de/",
            "wikidata": "Q76627333"
          },
          "geometry": {
            "type": "Point",
            "coordinates": [
              10.1343857,
              48.0001475
            ]
          }
        },
        {
          "type": "Feature",
          "properties": {
            "id": "390493343",
            "osm_type": "node",
            "lat": 47.9861553,
            "lon": 10.1795086,
            "addr:city": "Memmingen",
            "addr:country": "DE",
            "addr:housenumber": "8",
            "addr:postcode": "87700",
            "addr:street": "Zangmeisterstraße",
            "check_date": "2025-05-26",
            "contact:website": "https://zeitmaschine-stadtmuseum-mm.de/",
            "email": "stadtmuseum@memmingen.de",
            "fee": "no",
            "museum": "local",
            "name": "Stadtmuseum",
            "opening_hours": "PH,Tu-Su 11:00-17:00",
            "phone": "+49 8331 850134",
            "tourism": "museum",
            "wikidata": "Q76628495"
          },
          "geometry": {
            "type": "Point",
            "coordinates": [
              10.1795086,
              47.9861553
            ]
          }
        },
        {
          "type": "Feature",
          "properties": {
            "id": "390512785",
            "osm_type": "node",
            "lat": 47.9848643,
            "lon": 10.1786078,
            "check_date": "2023-09-30",
            "fee": "no",
            "museum": "history",
            "name": "Antoniter-Museum",
            "opening_hours": "Tu-Su,PH 11:00-17:00",
            "tourism": "museum",
            "website": "https://www.memmingen.de/museen-antonierhaus.html",
            "wikidata": "Q15051414",
            "wikipedia": "de:Antoniter-Museum"
          },
          "geometry": {
            "type": "Point",
            "coordinates": [
              10.1786078,
              47.9848643
            ]
          }
        },
        {
          "type": "Feature",
          "properties": {
            "id": "392751371",
            "osm_type": "node",
            "lat": 47.986525,
            "lon": 10.1865586,
            "addr:city": "Memmingen",
            "addr:housenumber": "1",
            "addr:postcode": "87700",
            "addr:street": "Bahnhofstraße",
            "email": "info@mewo-kunsthalle.de",
            "fee": "no",
            "museum": "art",
            "name": "MEWO Kunsthalle",
            "opening_hours": "PH,Tu-Su 11:00-17:00",
            "phone": "+49 8331 850771",
            "tourism": "museum",
            "website": "https://www.mewo-kunsthalle.de/",
            "wikidata": "Q14544723",
            "wikipedia": "de:MEWO Kunsthalle"
          },
          "geometry": {
            "type": "Point",
            "coordinates": [
              10.1865586,
              47.986525
            ]
          }
        },
        {
          "type": "Feature",
          "properties": {
            "id": "890261280",
            "osm_type": "node",
            "lat": 47.902654,
            "lon": 10.1249145,
            "fee": "yes",
            "name": "Bauernhofmuseum Eingang",
            "tourism": "museum",
            "wheelchair": "limited"
          },
          "geometry": {
            "type": "Point",
            "coordinates": [
              10.1249145,
              47.902654
            ]
          }
        },
        {
          "type": "Feature",
          "properties": {
            "id": "2134716395",
            "osm_type": "node",
            "lat": 47.9029044,
            "lon": 10.1239789,
            "addr:city": "Kronburg",
            "addr:housenumber": "8",
            "addr:postcode": "87758",
            "addr:street": "Museumstraße",
            "addr:suburb": "Illerbeuren",
            "fee": "yes",
            "name": "Schwäbisches Bauernhofmuseum Illerbeuren",
            "phone": "+4983941455",
            "tourism": "museum",
            "website": "https://www.bauernhofmuseum.de/",
            "wikidata": "Q1424850",
            "wikipedia": "de:Schwäbisches Bauernhofmuseum"
          },
          "geometry": {
            "type": "Point",
            "coordinates": [
              10.1239789,
              47.9029044
            ]
          }
        },
        {
          "type": "Feature",
          "properties": {
            "id": "11903321314",
            "osm_type": "node",
            "lat": 47.9725369,
            "lon": 10.2066915,
            "fee": "yes",
            "name": "Benninger Ried Museum",
            "opening_hours": "Apr-Oct Sa,Su 14:00-18:00",
            "tourism": "museum",
            "website": "https://www.benninger-ried.de/de/museum.php"
          },
          "geometry": {
            "type": "Point",
            "coordinates": [
              10.2066915,
              47.9725369
            ]
          }
        },
        {
          "type": "Feature",
          "properties": {
            "id": "12648379874",
            "osm_type": "node",
            "lat": 47.984925,
            "lon": 10.1787,
            "fee": "no",
            "museum": "art",
            "name": "Strigel-Museum",
            "opening_hours": "Tu-Su,PH 11:00-17:00",
            "tourism": "museum",
            "website": "https://www.memmingen.de/museen-antonierhaus.html",
            "wikidata": "Q14541290",
            "wikipedia": "de:Strigel-Museum"
          },
          "geometry": {
            "type": "Point",
            "coordinates": [
              10.1787,
              47.984925
            ]
          }
        }
      ],
      "children": []
    },
    {
      "bbox": {
        "south": 47.694865,
        "west": 10.484655499999999,
        "north": 48.02541825,
        "east": 11.438358999999998
      },
      "poiCount": 33,
      "leafCount": 33,
      "averagePosition": [
        10.925831324242424,
        47.8333467060606
      ],
      "data": [
        {
          "type": "Feature",
          "properties": {
            "id": "416971213",
            "osm_type": "node",
            "lat": 47.8126814,
            "lon": 10.8952987,
            "name": "Stadtmuseum",
            "opening_hours": "We-Su 14:00-17:00; Th off; Fr off",
            "tourism": "museum",
            "website": "http://www.historischer-verein-schongau.de/stadtmuseum.html",
            "wikidata": "Q15130127"
          },
          "geometry": {
            "type": "Point",
            "coordinates": [
              10.8952987,
              47.8126814
            ]
          }
        },
        {
          "type": "Feature",
          "properties": {
            "id": "817139442",
            "osm_type": "node",
            "lat": 47.7787479,
            "lon": 10.6205584,
            "name": "Riesengebirgsmuseum, Stadtmuseum",
            "tourism": "museum"
          },
          "geometry": {
            "type": "Point",
            "coordinates": [
              10.6205584,
              47.7787479
            ]
          }
        },
        {
          "type": "Feature",
          "properties": {
            "id": "1810308139",
            "osm_type": "node",
            "lat": 47.829027,
            "lon": 10.8741016,
            "fee": "no",
            "name": "Strumpfmuseum",
            "tourism": "museum"
          },
          "geometry": {
            "type": "Point",
            "coordinates": [
              10.8741016,
              47.829027
            ]
          }
        },
        {
          "type": "Feature",
          "properties": {
            "id": "3270625611",
            "osm_type": "node",
            "lat": 47.697559,
            "lon": 10.6013585,
            "name": "Ausstellung im Bahnhofsgebäude",
            "operator": "Gemeinde Lengenwang",
            "tourism": "museum"
          },
          "geometry": {
            "type": "Point",
            "coordinates": [
              10.6013585,
              47.697559
            ]
          }
        },
        {
          "type": "Feature",
          "properties": {
            "id": "5834285685",
            "osm_type": "node",
            "lat": 47.7932635,
            "lon": 10.9309979,
            "fee": "no",
            "name": "Museum im Klösterle",
            "opening_hours": "We 14:00-17:00",
            "tourism": "museum",
            "website": "https://www.peiting.de/tourismus/kultur/peiting/museum-im-kloesterle",
            "wikidata": "Q76629067"
          },
          "geometry": {
            "type": "Point",
            "coordinates": [
              10.9309979,
              47.7932635
            ]
          }
        },
        {
          "type": "Feature",
          "properties": {
            "id": "6461307736",
            "osm_type": "node",
            "lat": 47.8148298,
            "lon": 10.6218075,
            "addr:housename": "Baschtlehaus",
            "name": "Hirten- und Heimatmuseum",
            "opening_hours": "su[1] 14:00-16:00",
            "phone": "+4983422707",
            "tourism": "museum"
          },
          "geometry": {
            "type": "Point",
            "coordinates": [
              10.6218075,
              47.8148298
            ]
          }
        },
        {
          "type": "Feature",
          "properties": {
            "id": "9023025718",
            "osm_type": "node",
            "lat": 47.7007226,
            "lon": 10.8605203,
            "addr:postcode": "86989",
            "name": "Kamera Museum Steingaden",
            "opening_hours": "Th 14:00-18:00",
            "tourism": "museum"
          },
          "geometry": {
            "type": "Point",
            "coordinates": [
              10.8605203,
              47.7007226
            ]
          }
        },
        {
          "type": "Feature",
          "properties": {
            "id": "9740895149",
            "osm_type": "node",
            "lat": 47.7744053,
            "lon": 10.5934294,
            "name": "Eisenbahnmuseum Allgäu",
            "tourism": "museum",
            "website": "http://www.eisenbahn-museum-allgaeu.de"
          },
          "geometry": {
            "type": "Point",
            "coordinates": [
              10.5934294,
              47.7744053
            ]
          }
        },
        {
          "type": "Feature",
          "properties": {
            "id": "9921547347",
            "osm_type": "node",
            "lat": 47.8361206,
            "lon": 10.8276128,
            "addr:city": "Schwabsoien",
            "addr:housenumber": "2",
            "addr:postcode": "86987",
            "addr:street": "Am Elder",
            "name": "Kutschenmuseum Schwabsoien",
            "tourism": "museum"
          },
          "geometry": {
            "type": "Point",
            "coordinates": [
              10.8276128,
              47.8361206
            ]
          }
        },
        {
          "type": "Feature",
          "properties": {
            "id": "9968023407",
            "osm_type": "node",
            "lat": 47.8367324,
            "lon": 10.8238505,
            "addr:housenumber": "28",
            "addr:street": "Schmiedestr",
            "description": "1. und 3. Sonntag 14-16 Uhr geöffnet",
            "fee": "no",
            "name": "Hammerschmiede Museum",
            "tourism": "museum"
          },
          "geometry": {
            "type": "Point",
            "coordinates": [
              10.8238505,
              47.8367324
            ]
          }
        },
        {
          "type": "Feature",
          "properties": {
            "id": "10681379812",
            "osm_type": "node",
            "lat": 47.6980216,
            "lon": 10.796246,
            "addr:city": "Lechbruck am See",
            "addr:housenumber": "8–10",
            "addr:postcode": "86983",
            "addr:street": "Weidach",
            "name": "Flößermuseum Lechbruck",
            "opening_hours": "Apr-Sep: Th 17:30-19:00; Apr-Sep: Su 16:00-18:00",
            "tourism": "museum",
            "website": "https://floesser-lechbruck.de/",
            "wikidata": "Q16319029",
            "wikipedia": "de:Flößermuseum (Lechbruck am See)"
          },
          "geometry": {
            "type": "Point",
            "coordinates": [
              10.796246,
              47.6980216
            ]
          }
        },
        {
          "type": "Feature",
          "properties": {
            "id": "11101471857",
            "osm_type": "node",
            "lat": 47.7010391,
            "lon": 10.8624853,
            "addr:city": "Steingaden",
            "addr:country": "DE",
            "addr:housenumber": "3",
            "addr:postcode": "86989",
            "addr:street": "Prämonstratenserstraße",
            "name": "Klostermuseum im Pfarrhof",
            "opening_hours": "Apr-Sep: Tu,Th 15:00-17:00",
            "tourism": "museum",
            "website": "https://www.steingaden.de/tourismus-kultur/sehenswuerdigkeiten/klostermuseum-im-pfarrhof",
            "wikidata": "Q16832582",
            "wikipedia": "de:Klostermuseum im Pfarrhof"
          },
          "geometry": {
            "type": "Point",
            "coordinates": [
              10.8624853,
              47.7010391
            ]
          }
        },
        {
          "type": "Feature",
          "properties": {
            "id": "12107859091",
            "osm_type": "node",
            "lat": 47.723697,
            "lon": 10.5571195,
            "name": "Museumsstadl",
            "tourism": "museum"
          },
          "geometry": {
            "type": "Point",
            "coordinates": [
              10.5571195,
              47.723697
            ]
          }
        },
        {
          "type": "Feature",
          "properties": {
            "id": "427102938",
            "osm_type": "node",
            "lat": 47.8393121,
            "lon": 11.1422511,
            "addr:city": "Weilheim in Oberbayern",
            "addr:housenumber": "1",
            "addr:postcode": "82362",
            "addr:street": "Marienplatz",
            "fee": "no",
            "name": "Stadtmuseum Weilheim",
            "name:etymology:wikidata": "Q76629750",
            "opening_hours": "Tu-Sa 10:00-17:00, Su,PH 14:00-17:00",
            "tourism": "museum",
            "wheelchair": "limited"
          },
          "geometry": {
            "type": "Point",
            "coordinates": [
              11.1422511,
              47.8393121
            ]
          }
        },
        {
          "type": "Feature",
          "properties": {
            "id": "897383754",
            "osm_type": "node",
            "lat": 47.7157904,
            "lon": 11.1511383,
            "name": "Heimatmuseum Uffing",
            "tourism": "museum",
            "wikidata": "Q76629625"
          },
          "geometry": {
            "type": "Point",
            "coordinates": [
              11.1511383,
              47.7157904
            ]
          }
        },
        {
          "type": "Feature",
          "properties": {
            "id": "3423648793",
            "osm_type": "node",
            "lat": 47.753467,
            "lon": 11.3746364,
            "addr:city": "Penzberg",
            "addr:country": "DE",
            "addr:housenumber": "36",
            "addr:postcode": "82377",
            "addr:street": "Karlstraße",
            "description": "Im Untergeschoß der Realschule, Zugang über Schulhof",
            "fee:icom_member": "unknown",
            "name": "Bergwerksmuseum Penzberg",
            "opening_hours": "Tu-Th 10:00-17:00; Sa-Su 10:00-17:00",
            "operator": "Stadt Penzberg",
            "phone": "+49 8856 813400",
            "tourism": "museum",
            "website": "https://www.bergwerksmuseum-penzberg.de/",
            "wheelchair": "no",
            "wikidata": "Q76629070"
          },
          "geometry": {
            "type": "Point",
            "coordinates": [
              11.3746364,
              47.753467
            ]
          }
        },
        {
          "type": "Feature",
          "properties": {
            "id": "3589818881",
            "osm_type": "node",
            "lat": 47.7483207,
            "lon": 11.2553111,
            "addr:city": "Obersöchering",
            "addr:housenumber": "2",
            "addr:place": "Reinthal",
            "addr:postcode": "82395",
            "fee:icom_member": "unknown",
            "name": "Bauernhofmuseum Reinthal",
            "tourism": "museum",
            "website": "https://www.museumscafe-reinthal.de/Museum/"
          },
          "geometry": {
            "type": "Point",
            "coordinates": [
              11.2553111,
              47.7483207
            ]
          }
        },
        {
          "type": "Feature",
          "properties": {
            "id": "7097944960",
            "osm_type": "node",
            "lat": 47.7544211,
            "lon": 11.3719001,
            "addr:city": "Penzberg",
            "addr:country": "DE",
            "addr:housenumber": "1",
            "addr:postcode": "82377",
            "addr:street": "Am Museum",
            "fee": "yes",
            "fee:icom_member": "unknown",
            "name": "Stadtmuseum Penzberg",
            "opening_hours": "PH,Tu-Su 10:00-17:00",
            "operator": "Stadt Penzberg",
            "phone": "+49 8856 813480",
            "toilets:wheelchair": "yes",
            "tourism": "museum",
            "website": "https://www.museum-penzberg.de/",
            "wheelchair": "no",
            "wikidata": "Q50561854",
            "wikipedia": "de:Museum Penzberg"
          },
          "geometry": {
            "type": "Point",
            "coordinates": [
              11.3719001,
              47.7544211
            ]
          }
        },
        {
          "type": "Feature",
          "properties": {
            "id": "7959775363",
            "osm_type": "node",
            "lat": 47.7972677,
            "lon": 11.0578982,
            "addr:city": "Peißenberg",
            "addr:country": "DE",
            "addr:housenumber": "2",
            "addr:postcode": "82380",
            "addr:street": "Tiefstollen",
            "museum": "history",
            "name": "Bergbaumuseum Peißenberg",
            "operator": "Marktgemeinde Peißenberg",
            "tourism": "museum",
            "website": "https://www.bergbaumuseum-peissenberg.de/",
            "wikidata": "Q76629063"
          },
          "geometry": {
            "type": "Point",
            "coordinates": [
              11.0578982,
              47.7972677
            ]
          }
        },
        {
          "type": "Feature",
          "properties": {
            "id": "11407813617",
            "osm_type": "node",
            "lat": 47.8377998,
            "lon": 11.1447323,
            "addr:city": "Weilheim in Oberbayern",
            "addr:country": "DE",
            "addr:housenumber": "6",
            "addr:postcode": "82362",
            "addr:street": "Petelgasse",
            "fee": "yes",
            "fee:icom_member": "unknown",
            "name": "Weilheimer Krippenmuseum",
            "opening_hours": "\"1. Advent bis Mitte Januar Fr,Sa,So 14-17. Winterferien täglich 14-17. 1. Weihnachtsfeiertag und Sylvester geschlossen. Ab 5 Personen Sonderführungen nach Absprache.\"",
            "tourism": "museum",
            "website": "https://weilheimer-krippenmuseum.de/",
            "wikidata": "Q123741931"
          },
          "geometry": {
            "type": "Point",
            "coordinates": [
              11.1447323,
              47.8377998
            ]
          }
        },
        {
          "type": "Feature",
          "properties": {
            "id": "12446146077",
            "osm_type": "node",
            "lat": 47.811496,
            "lon": 11.1302215,
            "description": "Sammlung zur religiösen Kunst und Volksfrömmigkeit, der Naturkunde, der Malerei und der ländlichen Alltagskultur",
            "fee": "yes",
            "fee:icom_member": "unknown",
            "name": "Museum Polling",
            "operator": "Heimatverein Polling e.V.",
            "tourism": "museum",
            "website": "http://www.museumpolling.de/index.htm"
          },
          "geometry": {
            "type": "Point",
            "coordinates": [
              11.1302215,
              47.811496
            ]
          }
        },
        {
          "type": "Feature",
          "properties": {
            "id": "13121616948",
            "osm_type": "node",
            "lat": 47.7083258,
            "lon": 11.4009107,
            "check_date": "2025-09-05",
            "name": "Zentrum Gebirgsschützen Bayern",
            "opening_hours": "Mo-Fr off; Sa-Su 11:00-16:00",
            "tourism": "museum"
          },
          "geometry": {
            "type": "Point",
            "coordinates": [
              11.4009107,
              47.7083258
            ]
          }
        },
        {
          "type": "Feature",
          "properties": {
            "id": "393136305",
            "osm_type": "node",
            "lat": 48.0013875,
            "lon": 10.5054594,
            "name": "Heimatmuseum \"Taverne\"",
            "tourism": "museum"
          },
          "geometry": {
            "type": "Point",
            "coordinates": [
              10.5054594,
              48.0013875
            ]
          }
        },
        {
          "type": "Feature",
          "properties": {
            "id": "674938705",
            "osm_type": "node",
            "lat": 47.9139455,
            "lon": 10.6372128,
            "name": "Isergebirgs-Museum",
            "tourism": "museum",
            "wheelchair": "yes"
          },
          "geometry": {
            "type": "Point",
            "coordinates": [
              10.6372128,
              47.9139455
            ]
          }
        },
        {
          "type": "Feature",
          "properties": {
            "id": "4973456909",
            "osm_type": "node",
            "lat": 48.0054284,
            "lon": 10.5912268,
            "name": "Allgäuer Fisch-Museum",
            "opening_hours": "\"nach telefonischer Vereinbarung\"",
            "phone": "+49 8247 1377",
            "tourism": "museum",
            "wikidata": "Q76627157"
          },
          "geometry": {
            "type": "Point",
            "coordinates": [
              10.5912268,
              48.0054284
            ]
          }
        },
        {
          "type": "Feature",
          "properties": {
            "id": "5380314493",
            "osm_type": "node",
            "lat": 47.8797467,
            "lon": 10.6193219,
            "email": "stadtmuseum@kaufbeuren.de",
            "fee": "yes",
            "name": "Stadtmuseum",
            "opening_hours": "Tu-Su 10:00-17:00",
            "phone": "+4983419668390",
            "toilets:wheelchair": "yes",
            "tourism": "museum",
            "website": "https://stadtmuseum-kaufbeuren.de/",
            "wheelchair": "yes",
            "wikidata": "Q21484622",
            "wikipedia": "de:Stadtmuseum Kaufbeuren"
          },
          "geometry": {
            "type": "Point",
            "coordinates": [
              10.6193219,
              47.8797467
            ]
          }
        },
        {
          "type": "Feature",
          "properties": {
            "id": "5454064736",
            "osm_type": "node",
            "lat": 48.0039001,
            "lon": 10.6061323,
            "fee": "no",
            "museum": "history",
            "museum_type": "photography",
            "name": "Süddeutsches Fotomuseum",
            "opening_hours": "Tu 15:00-20:00",
            "tourism": "museum",
            "website": "https://www.sueddeutsches-fotomuseum.de/",
            "wheelchair": "no"
          },
          "geometry": {
            "type": "Point",
            "coordinates": [
              10.6061323,
              48.0039001
            ]
          }
        },
        {
          "type": "Feature",
          "properties": {
            "id": "5726731329",
            "osm_type": "node",
            "lat": 48.0032127,
            "lon": 10.5948839,
            "alt_name": "Kneipp-Museum Bad Wörishofen",
            "contact:email": "kneippmuseum@bad-woerishofen.de",
            "contact:phone": "+49 8247 395613",
            "contact:website": "https://www.kneippmuseum.de",
            "name": "Sebastian-Kneipp-Museum",
            "opening_hours": "Dec 26 - Jan 06 Tu - Su 15:00-17:00, We 10:00-13:00; Feb 01 - Nov 15 Tu-Su 15:00-18:00, We 10:00-12:00",
            "tourism": "museum",
            "wikidata": "Q76627160"
          },
          "geometry": {
            "type": "Point",
            "coordinates": [
              10.5948839,
              48.0032127
            ]
          }
        },
        {
          "type": "Feature",
          "properties": {
            "id": "1439128480",
            "osm_type": "node",
            "lat": 47.9367855,
            "lon": 11.0905341,
            "addr:city": "Dießen am Ammersee",
            "addr:country": "DE",
            "addr:housenumber": "1",
            "addr:place": "Ziegelstadl",
            "addr:postcode": "86911",
            "fee:icom_member": "unknown",
            "name": "Carl-Orff-Museum",
            "tourism": "museum",
            "website": "https://co-mu.de/",
            "wikidata": "Q29413573"
          },
          "geometry": {
            "type": "Point",
            "coordinates": [
              11.0905341,
              47.9367855
            ]
          }
        },
        {
          "type": "Feature",
          "properties": {
            "id": "2642029307",
            "osm_type": "node",
            "lat": 47.9149167,
            "lon": 11.4188849,
            "addr:city": "Wolfratshausen",
            "addr:country": "DE",
            "addr:housenumber": "10",
            "addr:postcode": "82515",
            "addr:street": "Untermarkt",
            "fee": "yes",
            "fee:icom_member": "unknown",
            "name": "Museum Wolfratshausen",
            "opening_hours": "Mo,Tu off; We,Fr,Sa 10:00-16:00; Th 10:00-17:00; Su 14:00-17:00; PH \"Feiertags evtl. abweichende Öffnungszeiten\"",
            "tourism": "museum",
            "website": "https://museum.wolfratshausen.de/",
            "wikidata": "Q76629817"
          },
          "geometry": {
            "type": "Point",
            "coordinates": [
              11.4188849,
              47.9149167
            ]
          }
        },
        {
          "type": "Feature",
          "properties": {
            "id": "5692728153",
            "osm_type": "node",
            "lat": 47.9470799,
            "lon": 11.103645,
            "addr:city": "Dießen am Ammersee",
            "addr:country": "DE",
            "addr:housenumber": "14",
            "addr:postcode": "86911",
            "addr:street": "Johannisstraße",
            "fee": "no",
            "name": "Oldtimer Privatsammlung",
            "tourism": "museum"
          },
          "geometry": {
            "type": "Point",
            "coordinates": [
              11.103645,
              47.9470799
            ]
          }
        },
        {
          "type": "Feature",
          "properties": {
            "id": "9985682827",
            "osm_type": "node",
            "lat": 47.961939,
            "lon": 11.3068044,
            "alt_name": "Sisi-Museum",
            "contact:email": "sisi-museum@web.de",
            "contact:phone": "+49 8157 925932",
            "fee": "yes",
            "fee:icom_member": "unknown",
            "height": "13",
            "name": "Kaiserin-Elisabeth-Museum",
            "old_name": "Sammlung Heinemann",
            "opening_hours": "May 01-Oct 15: Fr,Sa,Su,PH 12:00-18:00; Oct 16-Apr 30 off || \"Gruppentermine grundsätzlich n. V. außerhalb der Öffnungszeiten; auch außerhalb der Saison möglich\"",
            "operator": "Kaiserin Elisabeth Museum Possenhofen e.V.",
            "roof:colour": "#745A5D",
            "roof:material": "roof_tiles",
            "roof:shape": "hipped",
            "tourism": "museum",
            "website": "https://www.kaiserin-elisabeth-museum-ev.de/",
            "wikidata": "Q1721656",
            "wikipedia": "de:Kaiserin Elisabeth Museum"
          },
          "geometry": {
            "type": "Point",
            "coordinates": [
              11.3068044,
              47.961939
            ]
          }
        },
        {
          "type": "Feature",
          "properties": {
            "id": "12748747059",
            "osm_type": "node",
            "lat": 47.9690515,
            "lon": 11.1839421,
            "addr:city": "Andechs",
            "addr:housenumber": "1",
            "addr:postcode": "82346",
            "addr:street": "Kientalstraße",
            "addr:suburb": "Erling",
            "alt_name": "Am Spritzenhaus",
            "fee:icom_member": "unknown",
            "name": "Feuerwehr-Museum",
            "tourism": "museum"
          },
          "geometry": {
            "type": "Point",
            "coordinates": [
              11.1839421,
              47.9690515
            ]
          }
        }
      ],
      "children": []
    },
    {
      "bbox": {
        "south": 48.02541825,
        "west": 9.530952,
        "north": 48.355971499999995,
        "east": 10.484655499999999
      },
      "poiCount": 37,
      "leafCount": 37,
      "averagePosition": [
        9.94718582972973,
        48.228531313513514
      ],
      "data": [
        {
          "type": "Feature",
          "properties": {
            "id": "492667415",
            "osm_type": "node",
            "lat": 48.2851508,
            "lon": 9.5866083,
            "description:de": "Technikmuseum",
            "description:en": "technical museum",
            "name": "Technikmuseum Alte Säge",
            "tourism": "museum",
            "website": "https://www.outdooractive.com/de/poi/schwaebische-alb/alte-saege-mundingen/1635198/"
          },
          "geometry": {
            "type": "Point",
            "coordinates": [
              9.5866083,
              48.2851508
            ]
          }
        },
        {
          "type": "Feature",
          "properties": {
            "id": "595508541",
            "osm_type": "node",
            "lat": 48.2835168,
            "lon": 9.7231806,
            "email": "museum@ehingen.de",
            "fax": "+49 7391 503 4531",
            "name": "Museum Ehingen",
            "opening_hours": "Su 14:00-17:00; We 10:00-12:00; 14:00-17:00",
            "operator": "Stadt Ehingen",
            "phone": "+49 7391 503 531",
            "tourism": "museum",
            "website": "https://museum.ehingen.de/"
          },
          "geometry": {
            "type": "Point",
            "coordinates": [
              9.7231806,
              48.2835168
            ]
          }
        },
        {
          "type": "Feature",
          "properties": {
            "id": "698063109",
            "osm_type": "node",
            "lat": 48.2464457,
            "lon": 9.6140715,
            "fee": "yes",
            "image": "https://commons.wikimedia.org/wiki/File:Kalkofen_Untermarchtal,_Baden-Württemberg.jpg",
            "museum": "history",
            "name": "Kalkofenmuseum Untermarchtal",
            "opening_hours": "So 13:00-17:00",
            "operator": "Schwäbischer Heimatbund",
            "operator:type": "private",
            "tourism": "museum",
            "website": "https://schwaebischer-heimatbund.de/denkmalschutz-baukultur/eigene-kulturdenkmale/kalkofen-untermarchtal/",
            "wikidata": "Q108394298",
            "wikimedia_commons": "Category:Kalkofenmuseum (Untermarchtal)"
          },
          "geometry": {
            "type": "Point",
            "coordinates": [
              9.6140715,
              48.2464457
            ]
          }
        },
        {
          "type": "Feature",
          "properties": {
            "id": "1382862637",
            "osm_type": "node",
            "lat": 48.1863423,
            "lon": 9.6918198,
            "name": "Krippenmuseum",
            "toilets:wheelchair": "yes",
            "tourism": "museum",
            "website": "https://www.krippen-museum.de/",
            "wheelchair": "yes",
            "wikidata": "Q1779336",
            "wikipedia": "de:Krippenmuseum (Oberstadion)",
            "xmas:feature": "crib_museum"
          },
          "geometry": {
            "type": "Point",
            "coordinates": [
              9.6918198,
              48.1863423
            ]
          }
        },
        {
          "type": "Feature",
          "properties": {
            "id": "1665035990",
            "osm_type": "node",
            "lat": 48.2419796,
            "lon": 9.5773046,
            "name": "Maschinen unterm Münster",
            "tourism": "museum"
          },
          "geometry": {
            "type": "Point",
            "coordinates": [
              9.5773046,
              48.2419796
            ]
          }
        },
        {
          "type": "Feature",
          "properties": {
            "id": "1745146558",
            "osm_type": "node",
            "lat": 48.2367012,
            "lon": 9.6434371,
            "name": "Städtisches Museum",
            "tourism": "museum",
            "wheelchair": "no"
          },
          "geometry": {
            "type": "Point",
            "coordinates": [
              9.6434371,
              48.2367012
            ]
          }
        },
        {
          "type": "Feature",
          "properties": {
            "id": "1765108142",
            "osm_type": "node",
            "lat": 48.2847276,
            "lon": 9.7268501,
            "name": "Städtische Galerie",
            "tourism": "museum"
          },
          "geometry": {
            "type": "Point",
            "coordinates": [
              9.7268501,
              48.2847276
            ]
          }
        },
        {
          "type": "Feature",
          "properties": {
            "id": "1771682910",
            "osm_type": "node",
            "lat": 48.3095572,
            "lon": 9.5692082,
            "name": "Modemuseum Feigel",
            "tourism": "museum"
          },
          "geometry": {
            "type": "Point",
            "coordinates": [
              9.5692082,
              48.3095572
            ]
          }
        },
        {
          "type": "Feature",
          "properties": {
            "id": "1771691979",
            "osm_type": "node",
            "lat": 48.2624419,
            "lon": 9.7350773,
            "name": "Museum im alten Brauhaus",
            "tourism": "museum"
          },
          "geometry": {
            "type": "Point",
            "coordinates": [
              9.7350773,
              48.2624419
            ]
          }
        },
        {
          "type": "Feature",
          "properties": {
            "id": "1771694264",
            "osm_type": "node",
            "lat": 48.2689122,
            "lon": 9.8332879,
            "name": "Römermuseum in der Schule",
            "tourism": "museum",
            "wikidata": "Q2179619",
            "wikipedia": "de:Römermuseum in der Schule Rißtissen"
          },
          "geometry": {
            "type": "Point",
            "coordinates": [
              9.8332879,
              48.2689122
            ]
          }
        },
        {
          "type": "Feature",
          "properties": {
            "id": "1771695458",
            "osm_type": "node",
            "lat": 48.2645414,
            "lon": 9.6042782,
            "name": "Besenmuseum",
            "tourism": "museum"
          },
          "geometry": {
            "type": "Point",
            "coordinates": [
              9.6042782,
              48.2645414
            ]
          }
        },
        {
          "type": "Feature",
          "properties": {
            "id": "1771697414",
            "osm_type": "node",
            "lat": 48.2814512,
            "lon": 9.7190334,
            "name": "Kunstsammlung Franz Hermann Widmer",
            "tourism": "museum"
          },
          "geometry": {
            "type": "Point",
            "coordinates": [
              9.7190334,
              48.2814512
            ]
          }
        },
        {
          "type": "Feature",
          "properties": {
            "id": "2337661008",
            "osm_type": "node",
            "lat": 48.2307213,
            "lon": 9.8878731,
            "fee": "yes",
            "name": "Museum \"Christen und Juden\"",
            "tourism": "museum"
          },
          "geometry": {
            "type": "Point",
            "coordinates": [
              9.8878731,
              48.2307213
            ]
          }
        },
        {
          "type": "Feature",
          "properties": {
            "id": "2351534045",
            "osm_type": "node",
            "lat": 48.2289334,
            "lon": 9.8859449,
            "addr:city": "Laupheim",
            "addr:country": "DE",
            "addr:housenumber": "17",
            "addr:postcode": "88471",
            "addr:street": "Marktplatz",
            "name": "Städtische Galerie",
            "source": "Maps4BW ( LGL, www.lgl-bw.de) / Bing",
            "tourism": "museum"
          },
          "geometry": {
            "type": "Point",
            "coordinates": [
              9.8859449,
              48.2289334
            ]
          }
        },
        {
          "type": "Feature",
          "properties": {
            "id": "2439826884",
            "osm_type": "node",
            "lat": 48.3230284,
            "lon": 9.8855937,
            "description": "Das Museum kann nach Vereinbarung von Mai bis Oktober von Gruppen besucht werden.",
            "name": "Schlossmuseum",
            "source": "https://www.tourismus.alb-donau-kreis.de/en/urlaubsthemen/schl%C3%B6sser-burgen/schloss-erbach",
            "tourism": "museum"
          },
          "geometry": {
            "type": "Point",
            "coordinates": [
              9.8855937,
              48.3230284
            ]
          }
        },
        {
          "type": "Feature",
          "properties": {
            "id": "2464441579",
            "osm_type": "node",
            "lat": 48.1856669,
            "lon": 9.6909295,
            "name": "Christoph-von-Schmid-Gedenkstätte",
            "tourism": "museum"
          },
          "geometry": {
            "type": "Point",
            "coordinates": [
              9.6909295,
              48.1856669
            ]
          }
        },
        {
          "type": "Feature",
          "properties": {
            "id": "2466661747",
            "osm_type": "node",
            "lat": 48.30607,
            "lon": 9.9926744,
            "email": "werners.radiobude@web.de",
            "name": "Radiomuseum",
            "opening_hours": "\"nach Vereinbarung\"",
            "operator": "Werner Hauf",
            "phone": "+49 7346 2800",
            "tourism": "museum",
            "website": "https://www.staig.de/de/freizeit/museen-ausstellungen/radiomuseum.php"
          },
          "geometry": {
            "type": "Point",
            "coordinates": [
              9.9926744,
              48.30607
            ]
          }
        },
        {
          "type": "Feature",
          "properties": {
            "id": "3259497499",
            "osm_type": "node",
            "lat": 48.1727817,
            "lon": 9.8652567,
            "addr:city": "Mietingen",
            "addr:housenumber": "19",
            "addr:postcode": "88487",
            "addr:street": "Baltringer Hauptstraße",
            "addr:suburb": "Baltringen",
            "email": "info@baltringer-haufen.de",
            "fee": "no",
            "museum": "local",
            "name": "Erinnerungsstätte Baltringer Haufen – Bauernkrieg in Oberschwaben",
            "opening_hours": "Mo,Th,Fr 08:30-12:00; Tu 08:30-12:00,16:30-18:00",
            "operator": "Baltringer Haufen – Freunde der Heimatgeschichte e. V.",
            "operator:type": "community",
            "phone": "+497356 2578",
            "tourism": "museum",
            "website": "https://baltringer-haufen.de/erinnerungsstaette/",
            "wheelchair": "no",
            "wikidata": "Q76631573"
          },
          "geometry": {
            "type": "Point",
            "coordinates": [
              9.8652567,
              48.1727817
            ]
          }
        },
        {
          "type": "Feature",
          "properties": {
            "id": "4791924657",
            "osm_type": "node",
            "lat": 48.1601886,
            "lon": 9.5551098,
            "museum": "oldtimer",
            "name": "Museumle",
            "opening_hours": "Su[1] 14:00-17:00 || \"und nach Vereinbarung\"",
            "operator": "Fam. Anton Kegel",
            "phone": "+49 7374 353",
            "survey:date": "2017-04-13",
            "tourism": "museum",
            "website": "http://www.museumle.de/"
          },
          "geometry": {
            "type": "Point",
            "coordinates": [
              9.5551098,
              48.1601886
            ]
          }
        },
        {
          "type": "Feature",
          "properties": {
            "id": "6668059755",
            "osm_type": "node",
            "lat": 48.0714113,
            "lon": 9.9477815,
            "name": "Museum der Waschfrauen",
            "opening_hours": "May-Oct: Su 11:30-16:00",
            "operator": "Ochsenhauser Waschfrauen",
            "tourism": "museum",
            "website": "http://neu.waschfrauen.de"
          },
          "geometry": {
            "type": "Point",
            "coordinates": [
              9.9477815,
              48.0714113
            ]
          }
        },
        {
          "type": "Feature",
          "properties": {
            "id": "9095254289",
            "osm_type": "node",
            "lat": 48.0646758,
            "lon": 9.9504636,
            "addr:city": "Ochsenhausen",
            "addr:postcode": "88416",
            "addr:street": "Schloßbezirk",
            "name": "Klostermuseum Ochsenhausen",
            "opening_hours": "Apr 01-Oct 31: Tu-Su, PH 12:00-17:00",
            "tourism": "museum",
            "wikidata": "Q1776456"
          },
          "geometry": {
            "type": "Point",
            "coordinates": [
              9.9504636,
              48.0646758
            ]
          }
        },
        {
          "type": "Feature",
          "properties": {
            "id": "13134966272",
            "osm_type": "node",
            "lat": 48.2246775,
            "lon": 9.8769502,
            "name": "Tresormuseum Laupheim",
            "operator": "Eberhard Gall",
            "tourism": "museum",
            "website": "https://www.tresormuseum-laupheim.de"
          },
          "geometry": {
            "type": "Point",
            "coordinates": [
              9.8769502,
              48.2246775
            ]
          }
        },
        {
          "type": "Feature",
          "properties": {
            "id": "323981048",
            "osm_type": "node",
            "lat": 48.1430309,
            "lon": 10.2547508,
            "addr:city": "Babenhausen",
            "addr:country": "DE",
            "addr:postcode": "87727",
            "name": "Fuggermuseum",
            "tourism": "museum",
            "wikidata": "Q76627071"
          },
          "geometry": {
            "type": "Point",
            "coordinates": [
              10.2547508,
              48.1430309
            ]
          }
        },
        {
          "type": "Feature",
          "properties": {
            "id": "412384133",
            "osm_type": "node",
            "lat": 48.274688,
            "lon": 10.227833,
            "name": "Klostermuseum Roggenburg",
            "tourism": "museum",
            "wikidata": "Q76629331"
          },
          "geometry": {
            "type": "Point",
            "coordinates": [
              10.227833,
              48.274688
            ]
          }
        },
        {
          "type": "Feature",
          "properties": {
            "id": "494436568",
            "osm_type": "node",
            "lat": 48.0581436,
            "lon": 10.3198616,
            "name": "Dorfschulmuseum",
            "tourism": "museum"
          },
          "geometry": {
            "type": "Point",
            "coordinates": [
              10.3198616,
              48.0581436
            ]
          }
        },
        {
          "type": "Feature",
          "properties": {
            "id": "600341151",
            "osm_type": "node",
            "lat": 48.245195,
            "lon": 10.3691872,
            "addr:city": "Krumbach (Schwaben)",
            "addr:country": "DE",
            "addr:housenumber": "3-5",
            "addr:postcode": "86381",
            "addr:street": "Heinrich-Sinz-Straße",
            "name": "Mittelschwäbisches Heimatmuseum",
            "opening_hours": "Th-Su 14:00-17:00",
            "tourism": "museum",
            "wikidata": "Q1768678",
            "wikipedia": "de:Mittelschwäbisches Heimatmuseum"
          },
          "geometry": {
            "type": "Point",
            "coordinates": [
              10.3691872,
              48.245195
            ]
          }
        },
        {
          "type": "Feature",
          "properties": {
            "id": "919721459",
            "osm_type": "node",
            "lat": 48.1199337,
            "lon": 10.1268523,
            "fee": "no",
            "name": "Museumsturm Archäologie",
            "opening_hours": "Apr-Oct: Sa,Su,PH 10:00-17:00",
            "tourism": "museum"
          },
          "geometry": {
            "type": "Point",
            "coordinates": [
              10.1268523,
              48.1199337
            ]
          }
        },
        {
          "type": "Feature",
          "properties": {
            "id": "936011541",
            "osm_type": "node",
            "lat": 48.2221882,
            "lon": 10.1109475,
            "addr:city": "Illertissen",
            "addr:country": "DE",
            "addr:housename": "Vöhlinschloss",
            "addr:housenumber": "23",
            "addr:postcode": "89257",
            "addr:street": "Schloßallee",
            "attraction": "tourism",
            "fee": "no",
            "level": "0",
            "museum": "agriculture",
            "name": "Bayerisches Bienenmuseum Illertissen, Sammlung Forster",
            "opening_hours": "Th-Su; PH 13:00-17:00",
            "operator": "Landkreis Neu-Ulm",
            "subject": "beekeeping;apiculture",
            "tourism": "museum",
            "website": "http://www.landkreis.neu-ulm.de/de/bienenmuseum-illertissen.html",
            "wheelchair": "yes",
            "wikidata": "Q76628007"
          },
          "geometry": {
            "type": "Point",
            "coordinates": [
              10.1109475,
              48.2221882
            ]
          }
        },
        {
          "type": "Feature",
          "properties": {
            "id": "936011694",
            "osm_type": "node",
            "lat": 48.2222221,
            "lon": 10.1108429,
            "addr:city": "Illertissen",
            "addr:country": "DE",
            "addr:housename": "Vöhlinschloss",
            "addr:housenumber": "23",
            "addr:postcode": "89257",
            "addr:street": "Schloßallee",
            "description": "Geschichten und Geschichte im Schloss",
            "fee": "no",
            "level": "1",
            "museum": "local",
            "name": "MuseumIllertissen",
            "old_name": "Heimatmuseum",
            "opening_hours": "Th-Su,PH 13:00-17:00",
            "operator": "Stadt Illertissen",
            "ref:isil": "DE-MUS-186510",
            "tourism": "museum",
            "url": "http://www.heimatpflege-illertissen.de/html/das_museum.html",
            "wheelchair": "yes",
            "wikidata": "Q76628003"
          },
          "geometry": {
            "type": "Point",
            "coordinates": [
              10.1108429,
              48.2222221
            ]
          }
        },
        {
          "type": "Feature",
          "properties": {
            "id": "1115808499",
            "osm_type": "node",
            "lat": 48.3279521,
            "lon": 10.3705786,
            "name": "Hammerschmiede Naichen und Stockerhof",
            "opening_hours": "easter-Nov Su[1]: Su 13:00-17:00; Su[1,3] 13:00-17:00 \"Schmiedevorführung\"",
            "phone": "+49 8283 928606 (nur während der Öffnungszeiten); ansonsten: +49 8238 3001-16 (Schwäbisches Volkskundemuseum Oberschönenfeld)",
            "tourism": "museum",
            "website": "http://www.hammerschmiede-naichen.de/",
            "wikidata": "Q1573818",
            "wikipedia": "de:Hammerschmiede Naichen"
          },
          "geometry": {
            "type": "Point",
            "coordinates": [
              10.3705786,
              48.3279521
            ]
          }
        },
        {
          "type": "Feature",
          "properties": {
            "id": "2276227208",
            "osm_type": "node",
            "lat": 48.303961,
            "lon": 10.1611519,
            "name": "Archäologische Sammlung",
            "tourism": "museum"
          },
          "geometry": {
            "type": "Point",
            "coordinates": [
              10.1611519,
              48.303961
            ]
          }
        },
        {
          "type": "Feature",
          "properties": {
            "id": "2495183278",
            "osm_type": "node",
            "lat": 48.3045659,
            "lon": 10.1596835,
            "fee": "yes",
            "name": "Heimatmuseum",
            "tourism": "museum",
            "wheelchair": "no"
          },
          "geometry": {
            "type": "Point",
            "coordinates": [
              10.1596835,
              48.3045659
            ]
          }
        },
        {
          "type": "Feature",
          "properties": {
            "id": "3093536510",
            "osm_type": "node",
            "lat": 48.2411121,
            "lon": 10.1333413,
            "addr:city": "Illertissen",
            "addr:country": "DE",
            "addr:housenumber": "1",
            "addr:postcode": "89257",
            "addr:street": "Jungviehweide",
            "contact:phone": "+49 7303 9524747",
            "fee": "no",
            "name": "Museum der Gartenkultur",
            "opening_hours": "11:00-17:00",
            "operator": "Stiftung Gartenkultur",
            "toilets:wheelchair": "yes",
            "tourism": "museum",
            "url": "http://www.stiftung-gartenkultur.org",
            "website": "https://museum-der-gartenkultur.de/",
            "wheelchair": "yes",
            "wikidata": "Q15835876",
            "wikipedia": "de:Museum der Gartenkultur"
          },
          "geometry": {
            "type": "Point",
            "coordinates": [
              10.1333413,
              48.2411121
            ]
          }
        },
        {
          "type": "Feature",
          "properties": {
            "id": "4394183349",
            "osm_type": "node",
            "lat": 48.2807605,
            "lon": 10.4705435,
            "addr:city": "Thannhausen",
            "addr:country": "DE",
            "addr:housenumber": "16",
            "addr:postcode": "86470",
            "addr:street": "Edmund-Zimmermann-Straße",
            "contact:website": "http://www.tuchmacherhaus.de",
            "name": "Heimatmuseum im Tuchmacherhaus",
            "tourism": "museum",
            "wikidata": "Q76629564"
          },
          "geometry": {
            "type": "Point",
            "coordinates": [
              10.4705435,
              48.2807605
            ]
          }
        },
        {
          "type": "Feature",
          "properties": {
            "id": "6579196245",
            "osm_type": "node",
            "lat": 48.2706344,
            "lon": 10.2414887,
            "fee": "no",
            "name": "Krippenausstellung",
            "opening_hours": "Winter",
            "tourism": "museum",
            "xmas:feature": "crib_museum"
          },
          "geometry": {
            "type": "Point",
            "coordinates": [
              10.2414887,
              48.2706344
            ]
          }
        },
        {
          "type": "Feature",
          "properties": {
            "id": "8852550631",
            "osm_type": "node",
            "lat": 48.2520267,
            "lon": 10.3575365,
            "name": "Wachsmuseum",
            "tourism": "museum",
            "wikidata": "Q1620006",
            "wikipedia": "de:Wachsmuseum Krumbach"
          },
          "geometry": {
            "type": "Point",
            "coordinates": [
              10.3575365,
              48.2520267
            ]
          }
        },
        {
          "type": "Feature",
          "properties": {
            "id": "11373416782",
            "osm_type": "node",
            "lat": 48.0693216,
            "lon": 10.068542,
            "fee": "no",
            "name": "Krippen-Weg",
            "opening_hours": "10:00-17:00 Uhr \"außer Karfreitag, Karsamstag, Heiligabend\"",
            "tourism": "museum",
            "website": "https://www.kloster-bonlanden.de/krippen-weg/",
            "wheelchair": "yes",
            "xmas:feature": "crib_museum"
          },
          "geometry": {
            "type": "Point",
            "coordinates": [
              10.068542,
              48.0693216
            ]
          }
        }
      ],
      "children": []
    },
    {
      "bbox": {
        "south": 48.02541825,
        "west": 10.484655499999999,
        "north": 48.355971499999995,
        "east": 11.438358999999998
      },
      "poiCount": 28,
      "leafCount": 28,
      "averagePosition": [
        10.941453832142857,
        48.1940975
      ],
      "data": [
        {
          "type": "Feature",
          "properties": {
            "id": "477889588",
            "osm_type": "node",
            "lat": 48.0470129,
            "lon": 10.4866834,
            "addr:city": "Mindelheim",
            "addr:housenumber": "9",
            "addr:postcode": "87719",
            "addr:street": "Hungerbachgasse",
            "name": "Turmuhrenmuseum",
            "opening_hours": "We,Su[-1] 14:00-17:00",
            "tourism": "museum"
          },
          "geometry": {
            "type": "Point",
            "coordinates": [
              10.4866834,
              48.0470129
            ]
          }
        },
        {
          "type": "Feature",
          "properties": {
            "id": "1831191606",
            "osm_type": "node",
            "lat": 48.0473351,
            "lon": 10.489249,
            "name": "Heimatmuseum",
            "opening_hours:signed": "no",
            "tourism": "museum",
            "wheelchair": "no"
          },
          "geometry": {
            "type": "Point",
            "coordinates": [
              10.489249,
              48.0473351
            ]
          }
        },
        {
          "type": "Feature",
          "properties": {
            "id": "1831191608",
            "osm_type": "node",
            "lat": 48.0461327,
            "lon": 10.4852507,
            "addr:housenumber": "4",
            "addr:street": "Hermelestraße",
            "fee": "yes",
            "name": "Mindelheimer Museen:Textilmuseum, Archäologiemuseum, Krippenmuseum, Carl-Millner-Galerie",
            "opening_hours": "Tu-Su,PH 10:00-12:00,14:00-17:00",
            "operator": "Kulturamt Mindelheim",
            "operator:type": "public",
            "tourism": "museum",
            "xmas:feature": "crib_museum"
          },
          "geometry": {
            "type": "Point",
            "coordinates": [
              10.4852507,
              48.0461327
            ]
          }
        },
        {
          "type": "Feature",
          "properties": {
            "id": "2183271162",
            "osm_type": "node",
            "lat": 48.2929859,
            "lon": 10.5262116,
            "addr:city": "Ziemetshausen",
            "addr:country": "DE",
            "addr:housenumber": "7a",
            "addr:postcode": "86473",
            "addr:street": "Friedhofstraße",
            "contact:website": "http://www.webereimuseum-ziemetshausen.de/",
            "museum": "technology",
            "name": "Webereimuseum",
            "operator": "Heimatverein Ziemetshausen",
            "operator:type": "association",
            "tourism": "museum"
          },
          "geometry": {
            "type": "Point",
            "coordinates": [
              10.5262116,
              48.2929859
            ]
          }
        },
        {
          "type": "Feature",
          "properties": {
            "id": "2183271173",
            "osm_type": "node",
            "lat": 48.2933703,
            "lon": 10.5268178,
            "addr:city": "Ziemetshausen",
            "addr:country": "DE",
            "addr:housenumber": "2",
            "addr:postcode": "86473",
            "addr:street": "Friedhofstraße",
            "contact:website": "http://www.schreinereimuseum-ziemetshausen.de/",
            "name": "Handwerkermuseum",
            "tourism": "museum"
          },
          "geometry": {
            "type": "Point",
            "coordinates": [
              10.5268178,
              48.2933703
            ]
          }
        },
        {
          "type": "Feature",
          "properties": {
            "id": "3294556161",
            "osm_type": "node",
            "lat": 48.2929922,
            "lon": 10.52574,
            "museum": "local",
            "name": "Heimatmuseum",
            "tourism": "museum"
          },
          "geometry": {
            "type": "Point",
            "coordinates": [
              10.52574,
              48.2929922
            ]
          }
        },
        {
          "type": "Feature",
          "properties": {
            "id": "11355315882",
            "osm_type": "node",
            "lat": 48.0407286,
            "lon": 10.4871405,
            "addr:city": "Mindelheim",
            "addr:housenumber": "33",
            "addr:postcode": "87719",
            "addr:street": "Georgenstraße",
            "facebook": "https://www.facebook.com/mielemuseummindelheim/",
            "museum": "history",
            "name": "Miele Museum Mindelheim",
            "opening_hours": "We[1]15:00-18:00; We[3]15:00-18:00",
            "operator": "Kulturfabrik auf der Insel",
            "tourism": "museum",
            "website": "https://kulturfabrik-mindelheim.de/"
          },
          "geometry": {
            "type": "Point",
            "coordinates": [
              10.4871405,
              48.0407286
            ]
          }
        },
        {
          "type": "Feature",
          "properties": {
            "id": "393368027",
            "osm_type": "node",
            "lat": 48.2712565,
            "lon": 10.8855796,
            "addr:city": "Königsbrunn",
            "addr:country": "DE",
            "addr:housenumber": "1",
            "addr:postcode": "86343",
            "addr:street": "Königsallee",
            "name": "Naturmuseum Königsbrunn",
            "tourism": "museum",
            "website": "https://naturmuseum-koenigsbrunn.de",
            "wheelchair": "unknown"
          },
          "geometry": {
            "type": "Point",
            "coordinates": [
              10.8855796,
              48.2712565
            ]
          }
        },
        {
          "type": "Feature",
          "properties": {
            "id": "620827688",
            "osm_type": "node",
            "lat": 48.3432754,
            "lon": 10.8692664,
            "addr:city": "Augsburg",
            "addr:country": "DE",
            "addr:housenumber": "5",
            "addr:postcode": "86199",
            "addr:street": "Von-Cobres-Straße",
            "entrance": "yes",
            "name": "Heimatmuseum Stadt- und Landkreis Neudek im Erzgebirge",
            "tourism": "museum",
            "wikidata": "Q1595660",
            "wikipedia": "de:Heimatmuseum für Stadt und Landkreis Neudek"
          },
          "geometry": {
            "type": "Point",
            "coordinates": [
              10.8692664,
              48.3432754
            ]
          }
        },
        {
          "type": "Feature",
          "properties": {
            "id": "1122698767",
            "osm_type": "node",
            "lat": 48.348322,
            "lon": 10.5955699,
            "addr:city": "Dinkelscherben",
            "addr:country": "DE",
            "addr:housenumber": "27",
            "addr:postcode": "86424",
            "addr:street": "Augsburger Straße",
            "name": "Heimatmuseum Dinkelscherben",
            "opening_hours": "Su[1] 13:00-16:00",
            "tourism": "museum",
            "website": "http://www.dinkelscherben.de/index.php/dinkelscherben/kultur-musik/heimatmuseum",
            "wheelchair": "limited",
            "wikidata": "Q76627414"
          },
          "geometry": {
            "type": "Point",
            "coordinates": [
              10.5955699,
              48.348322
            ]
          }
        },
        {
          "type": "Feature",
          "properties": {
            "id": "1208877257",
            "osm_type": "node",
            "lat": 48.2688294,
            "lon": 10.891022,
            "name": "Archäologisches Museum Königsbrunn",
            "tourism": "museum",
            "wheelchair": "no",
            "wikidata": "Q636987",
            "wikipedia": "de:Archäologisches Museum Königsbrunn"
          },
          "geometry": {
            "type": "Point",
            "coordinates": [
              10.891022,
              48.2688294
            ]
          }
        },
        {
          "type": "Feature",
          "properties": {
            "id": "2420560332",
            "osm_type": "node",
            "lat": 48.3479319,
            "lon": 10.8947164,
            "disused:bunker_type": "personnel_shelter",
            "disused:military": "bunker",
            "disused:name": "Reichsbahnbunker",
            "fee": "no",
            "location": "underground",
            "name": "Ausstellungsbunker",
            "opening_hours": "May-Oct: Su 10:00-16:00; May-Oct: Mo-Sa off; Nov-Apr: off",
            "operator": "Bahnpark Augsburg gGmbH",
            "tourism": "museum",
            "wheelchair": "no"
          },
          "geometry": {
            "type": "Point",
            "coordinates": [
              10.8947164,
              48.3479319
            ]
          }
        },
        {
          "type": "Feature",
          "properties": {
            "id": "2466746206",
            "osm_type": "node",
            "lat": 48.0503976,
            "lon": 10.870925,
            "check_date:opening_hours": "2024-08-20",
            "email": "herkomer-museum@landsberg.de",
            "fee": "5,00 €; 2,50 €",
            "name": "Herkomer Museum",
            "opening_hours": "May-Oct: Tu-Su 13:00-18:00; Nov-Apr: Sa,Su 12:00-17:00",
            "phone": "+49 8191 128251",
            "source": "bing;local knowledge",
            "tourism": "museum",
            "website": "https://herkomer.de/",
            "wheelchair": "yes"
          },
          "geometry": {
            "type": "Point",
            "coordinates": [
              10.870925,
              48.0503976
            ]
          }
        },
        {
          "type": "Feature",
          "properties": {
            "id": "3826806560",
            "osm_type": "node",
            "lat": 48.3464466,
            "lon": 10.9359407,
            "addr:housenumber": "49",
            "addr:street": "Am Eiskanal",
            "name": "Augsburger Kanumuseum",
            "tourism": "museum",
            "wheelchair": "no",
            "wikidata": "Q315807",
            "wikipedia": "de:Augsburger Eiskanal"
          },
          "geometry": {
            "type": "Point",
            "coordinates": [
              10.9359407,
              48.3464466
            ]
          }
        },
        {
          "type": "Feature",
          "properties": {
            "id": "4309926436",
            "osm_type": "node",
            "lat": 48.1785888,
            "lon": 10.8463894,
            "name": "Militärgeschichtliche Sammlung Lechfeld",
            "opening_hours": "Su[1] 11:00-17:00",
            "operator": "Förderverein Bundeswehrstandort Lechfeld e.V.",
            "phone": "+49 8232 9071515",
            "tourism": "museum",
            "website": "https://www.mgs-lechfeld.de/",
            "wheelchair": "no"
          },
          "geometry": {
            "type": "Point",
            "coordinates": [
              10.8463894,
              48.1785888
            ]
          }
        },
        {
          "type": "Feature",
          "properties": {
            "id": "9908837657",
            "osm_type": "node",
            "lat": 48.3481557,
            "lon": 10.8944,
            "addr:city": "Augsburg",
            "addr:country": "DE",
            "addr:housenumber": "22c",
            "addr:postcode": "86159",
            "addr:street": "Firnhaberstraße",
            "addr:suburb": "Hochfeld",
            "check_date": "2024-08-09",
            "contact:instagram": "https://www.instagram.com/bahnpark.augsburg/",
            "fee": "yes",
            "fee:icom_member": "yes",
            "historic": "railway",
            "museum": "railway",
            "name": "Bahnpark Augsburg",
            "opening_hours": "Tu-Su 10:00-16:00; Mo off",
            "phone": "+49821450447100",
            "railway": "museum",
            "tourism": "museum",
            "website": "https://www.bahnpark-augsburg.de/",
            "wikidata": "Q304379",
            "wikimedia_commons": "Category:Bahnpark Augsburg",
            "wikipedia": "de:Bahnpark Augsburg"
          },
          "geometry": {
            "type": "Point",
            "coordinates": [
              10.8944,
              48.3481557
            ]
          }
        },
        {
          "type": "Feature",
          "properties": {
            "id": "35151576",
            "osm_type": "node",
            "lat": 48.1159087,
            "lon": 11.2062224,
            "check_date": "2024-02-24",
            "fee": "yes",
            "fee:icom_member": "no",
            "name": "Bauernhofmuseum Jexhof",
            "opening_hours": "Tu-Sa 13:00-17:00; Su,PH 11:00-18:00",
            "tourism": "museum",
            "website": "https://www.jexhof.de/",
            "wikidata": "Q811279",
            "wikipedia": "de:Bauernhofmuseum Jexhof"
          },
          "geometry": {
            "type": "Point",
            "coordinates": [
              11.2062224,
              48.1159087
            ]
          }
        },
        {
          "type": "Feature",
          "properties": {
            "id": "287609408",
            "osm_type": "node",
            "lat": 48.1940365,
            "lon": 11.3708388,
            "addr:city": "Gröbenzell",
            "addr:country": "DE",
            "addr:housenumber": "3",
            "addr:postcode": "82194",
            "addr:street": "Rathausstraße",
            "fee": "no",
            "name": "Heimat- und Torfmuseum",
            "opening_hours": "Su 10:00-12:00",
            "toilets:wheelchair": "yes",
            "tourism": "museum",
            "website": "https://www.torfmuseum.de/",
            "wheelchair": "yes",
            "wheelchair:description": "Behinderten-WC im UG der \"Alten Schule\""
          },
          "geometry": {
            "type": "Point",
            "coordinates": [
              11.3708388,
              48.1940365
            ]
          }
        },
        {
          "type": "Feature",
          "properties": {
            "id": "316078129",
            "osm_type": "node",
            "lat": 48.1689658,
            "lon": 11.2493169,
            "addr:city": "Fürstenfeldbruck",
            "addr:country": "DE",
            "addr:housenumber": "6",
            "addr:postcode": "82256",
            "addr:street": "Fürstenfeld",
            "contact:website": "https://www.museumffb.de/",
            "email": "museum@fuerstenfeldbruck.de",
            "fee": "yes",
            "fee:icom_member": "unknown",
            "name": "Museum Fürstenfeldbruck",
            "opening_hours": "Tu-Sa 13:00-17:00; Su,PH 11:00-17:00",
            "operator": "Stadt Fürstenfeldbruck",
            "phone": "+49 8141 611313",
            "ref:isil": "DE-MUS-469518",
            "tourism": "museum",
            "wheelchair": "yes",
            "wikidata": "Q76627610",
            "wikipedia": "de:Museum Fürstenfeldbruck"
          },
          "geometry": {
            "type": "Point",
            "coordinates": [
              11.2493169,
              48.1689658
            ]
          }
        },
        {
          "type": "Feature",
          "properties": {
            "id": "350381176",
            "osm_type": "node",
            "lat": 48.1664596,
            "lon": 11.3196598,
            "fee": "no",
            "name": "Pfefferminzmuseum",
            "tourism": "museum",
            "website": "https://www.minzmuseum.de/",
            "wikidata": "Q2083455"
          },
          "geometry": {
            "type": "Point",
            "coordinates": [
              11.3196598,
              48.1664596
            ]
          }
        },
        {
          "type": "Feature",
          "properties": {
            "id": "391502180",
            "osm_type": "node",
            "lat": 48.1720366,
            "lon": 11.2595235,
            "fee": "yes",
            "fee:icom_member": "unknown",
            "name": "Feldbahnmuseum",
            "tourism": "museum",
            "website": "https://mec-ffb.de/"
          },
          "geometry": {
            "type": "Point",
            "coordinates": [
              11.2595235,
              48.1720366
            ]
          }
        },
        {
          "type": "Feature",
          "properties": {
            "id": "394815173",
            "osm_type": "node",
            "lat": 48.2592677,
            "lon": 11.4343699,
            "addr:city": "Dachau",
            "addr:country": "DE",
            "addr:housenumber": "3",
            "addr:postcode": "85221",
            "addr:street": "Augsburger Straße",
            "fee": "yes",
            "fee:icom_member": "no",
            "name": "Bezirksmuseum Dachau",
            "opening_hours": "Tu-Fr 11:00-17:00; Sa,Su 13:00-17:00",
            "phone": "+49 8131 5675 0",
            "tourism": "museum",
            "website": "https://www.dachauer-galerien-museen.de/",
            "wheelchair": "limited",
            "wikidata": "Q854283",
            "wikipedia": "de:Bezirksmuseum Dachau"
          },
          "geometry": {
            "type": "Point",
            "coordinates": [
              11.4343699,
              48.2592677
            ]
          }
        },
        {
          "type": "Feature",
          "properties": {
            "id": "533741223",
            "osm_type": "node",
            "lat": 48.1689864,
            "lon": 11.2482875,
            "fee:icom_member": "unknown",
            "name": "Energiemuseum",
            "operator": "Stadtwerke Fürstenfeldbruck",
            "phone": "+49 8141 401 0",
            "tourism": "museum",
            "wheelchair": "limited"
          },
          "geometry": {
            "type": "Point",
            "coordinates": [
              11.2482875,
              48.1689864
            ]
          }
        },
        {
          "type": "Feature",
          "properties": {
            "id": "1376020331",
            "osm_type": "node",
            "lat": 48.0946097,
            "lon": 11.0436944,
            "addr:city": "Sankt Ottilien",
            "addr:housenumber": "1",
            "addr:postcode": "86941",
            "addr:street": "Erzabtei",
            "check_date:opening_hours": "2024-05-30",
            "fee": "no",
            "name": "Missionsmuseum",
            "name:ko": "상트오틸리엔수도원 선교박물관",
            "opening_hours": "Tu-Su 10:00-17:00",
            "tourism": "museum",
            "website": "https://www.missionsmuseum.de/",
            "wheelchair": "yes",
            "wikidata": "Q1939100"
          },
          "geometry": {
            "type": "Point",
            "coordinates": [
              11.0436944,
              48.0946097
            ]
          }
        },
        {
          "type": "Feature",
          "properties": {
            "id": "1376020332",
            "osm_type": "node",
            "lat": 48.0962841,
            "lon": 11.0422916,
            "addr:city": "Eresing",
            "addr:housenumber": "11",
            "addr:postcode": "86941",
            "addr:street": "Erzabtei",
            "addr:suburb": "Sankt Ottilien",
            "description": "Eintrittspreise (Entrance fees): Kinder ab 8 Jahre (Children from 8 years) - 1,00 Euro Erwachsene (Adults) - 2,00 Euro",
            "email": "mail@ottilien.de",
            "fax": "+49 8193 71332",
            "fee": "yes",
            "fee:icom_member": "unknown",
            "name": "Nähmaschinen-Museum",
            "name:ko": "재봉틀 박물관",
            "opening_hours": "May-Oct: Mo-Sa 10:00-17:00; Su 10:30-17:00; Nov-Apr: Mo-Sa 10:00-16:00; Su 10:30-16:00",
            "phone": "+49 8193 71-307",
            "start_date": "2007-09-28",
            "tourism": "museum",
            "website": "https://www.erzabtei.de/naehmaschinenmuseum"
          },
          "geometry": {
            "type": "Point",
            "coordinates": [
              11.0422916,
              48.0962841
            ]
          }
        },
        {
          "type": "Feature",
          "properties": {
            "id": "2045160828",
            "osm_type": "node",
            "lat": 48.1031579,
            "lon": 11.4191666,
            "fee:icom_member": "unknown",
            "name": "Deutsches Skimuseum",
            "tourism": "museum",
            "website": "https://www.ski-online.de/",
            "wikidata": "Q76629100"
          },
          "geometry": {
            "type": "Point",
            "coordinates": [
              11.4191666,
              48.1031579
            ]
          }
        },
        {
          "type": "Feature",
          "properties": {
            "id": "7635859420",
            "osm_type": "node",
            "lat": 48.2170482,
            "lon": 11.2632445,
            "contact:website": "https://wirtshaus-maisach.de/raeuber-kneissl-museum-im-braeustueberl-maisach/",
            "fee": "no",
            "name": "Räuber-Kneißl-Museum",
            "opening_hours": "\"Öffnungszeiten variieren, da die Museumsräume auch anderweitig genutzt werden\"",
            "operator": "Bräustüberl Maisach",
            "tourism": "museum"
          },
          "geometry": {
            "type": "Point",
            "coordinates": [
              11.2632445,
              48.2170482
            ]
          }
        },
        {
          "type": "Feature",
          "properties": {
            "id": "9759815594",
            "osm_type": "node",
            "lat": 48.1142072,
            "lon": 11.293189,
            "fee": "no",
            "name": "SchichtWerk",
            "opening_hours": "Tu 10:00-12:00; Su[2] 14:00-17:00; PH,SH off",
            "operator": "Zeitreise Gilching e.V.",
            "tourism": "museum",
            "website": "https://schichtwerk-gilching.de/",
            "wikidata": "Q114310457"
          },
          "geometry": {
            "type": "Point",
            "coordinates": [
              11.293189,
              48.1142072
            ]
          }
        }
      ],
      "children": []
    }
  ]
}