{
  "bbox": {
    "south": 46.372652,
    "west": 11.438358999999998,
    "north": 47.033758500000005,
    "east": 13.345766
  },
  "poiCount": 76,
  "leafCount": 0,
  "averagePosition": [
    12.28226968289474,
    46.65683554210526
  ],
  "data": [],
  "children": [
    {
      "bbox": {
        "south": 46.372652,
        "west": 11.438358999999998,
        "north": 46.70320525,
        "east": 12.392062499999998
      },
      "poiCount": 25,
      "leafCount": 25,
      "averagePosition": [
        11.909811036,
        46.521986304
      ],
      "data": [
        {
          "type": "Feature",
          "properties": {
            "id": "1802051052",
            "osm_type": "node",
            "lat": 46.5782563,
            "lon": 11.514296,
            "name": "Tiermuseum",
            "tourism": "museum"
          },
          "geometry": {
            "type": "Point",
            "coordinates": [
              11.514296,
              46.5782563
            ]
          }
        },
        {
          "type": "Feature",
          "properties": {
            "id": "2584236673",
            "osm_type": "node",
            "lat": 46.4859601,
            "lon": 11.4554414,
            "name": "Heimat Museeum Steinegg - Museo di Collepietra",
            "name:de": "Heimat Museeum Steinegg",
            "name:it": "Museo di Collepietra",
            "source": "http://www.musei-altoadige.it/it/musei.asp?muspo_id=613",
            "tourism": "museum"
          },
          "geometry": {
            "type": "Point",
            "coordinates": [
              11.4554414,
              46.4859601
            ]
          }
        },
        {
          "type": "Feature",
          "properties": {
            "id": "4408535598",
            "osm_type": "node",
            "lat": 46.5175913,
            "lon": 11.5029119,
            "fee": "no",
            "name": "Pfarrmuseum und Archeologiemuseum Völs - Museo parrocchiale e Museo archeologico di Fiè",
            "name:de": "Pfarrmuseum und Archeologiemuseum Völs",
            "name:it": "Museo parrocchiale e Museo archeologico di Fiè",
            "opening_hours": "Mo 18:00-18:30,18:30-19:00; Th 09:00-10:00,10:00-11:00,11:30-12:00",
            "phone": "+39 0471 725 087",
            "tourism": "museum"
          },
          "geometry": {
            "type": "Point",
            "coordinates": [
              11.5029119,
              46.5175913
            ]
          }
        },
        {
          "type": "Feature",
          "properties": {
            "id": "302392417",
            "osm_type": "node",
            "lat": 46.652708,
            "lon": 11.6201911,
            "email": "info@mineralienmuseum-teis.it",
            "fax": "+39 0472 844544",
            "name": "Mineralien Museum - Museo Mineralogico",
            "name:de": "Mineralien Museum",
            "name:it": "Museo Mineralogico",
            "phone": "+39 0472 844522",
            "tourism": "museum",
            "website": "https://www.mineralienmuseum-teis.it/",
            "wikidata": "Q1280995"
          },
          "geometry": {
            "type": "Point",
            "coordinates": [
              11.6201911,
              46.652708
            ]
          }
        },
        {
          "type": "Feature",
          "properties": {
            "id": "2363309438",
            "osm_type": "node",
            "lat": 46.6540774,
            "lon": 11.5435376,
            "ele": "1300",
            "fee": "yes",
            "name": "Bergwerk Villanders - Miniera Villandro",
            "name:de": "Bergwerk Villanders",
            "name:it": "Miniera Villandro",
            "opening_hours": "Open from Easter until the end of October; Tu,Th 10:00-10:29,14:00-14:29; Su 10:00-10:29",
            "operator": "Kultur- und Museumsverein Villanders",
            "phone": "+39 345 3115661",
            "tourism": "museum",
            "website": "https://www.bergwerk.it/",
            "wikidata": "Q22691332",
            "wikipedia": "de:Bergwerk Villanders"
          },
          "geometry": {
            "type": "Point",
            "coordinates": [
              11.5435376,
              46.6540774
            ]
          }
        },
        {
          "type": "Feature",
          "properties": {
            "id": "2453992857",
            "osm_type": "node",
            "lat": 46.570741,
            "lon": 11.9322734,
            "fee": "yes",
            "name": "Museum Ladin Ursus ladinicus",
            "opening_hours": "Tu-Su 10:00-18:00",
            "tourism": "museum",
            "wikidata": "Q105085144"
          },
          "geometry": {
            "type": "Point",
            "coordinates": [
              11.9322734,
              46.570741
            ]
          }
        },
        {
          "type": "Feature",
          "properties": {
            "id": "2636971069",
            "osm_type": "node",
            "lat": 46.6483066,
            "lon": 11.6019098,
            "contact:mobile": "+39 348 774 7339",
            "email": "info@dorfmuseum-gufidaun.it",
            "fee": "yes",
            "name": "Dorfmuseum Gufidaun - Museo locale di Gudon",
            "name:de": "Dorfmuseum Gufidaun",
            "name:it": "Museo locale di Gudon",
            "phone": "+39 0472 847 399",
            "tourism": "museum",
            "website": "https://www.dorfmuseum-gufidaun.it/"
          },
          "geometry": {
            "type": "Point",
            "coordinates": [
              11.6019098,
              46.6483066
            ]
          }
        },
        {
          "type": "Feature",
          "properties": {
            "id": "3686635068",
            "osm_type": "node",
            "lat": 46.6804937,
            "lon": 11.8929282,
            "addr:city": "San Martin de Tor - St. Martin in Thurn - San Martino in Badia",
            "addr:housenumber": "65",
            "addr:postcode": "39030",
            "addr:street": "Strada Tor",
            "email": "info@museumladin.it",
            "fax": "+39 0474 524 263",
            "fee": "yes",
            "name": "Museum Ladin Ćiastel de Tor",
            "name:de": "Museum Ladin Ćiastel de Tor",
            "name:it": "Museum Ladin Ćiastel de Tor",
            "name:lld": "Museum Ladin Ćiastel de Tor",
            "opening_hours": "Mo-Sa 10:00-18:00; Su 14:00-18:00",
            "phone": "+39 0474 524 020",
            "tourism": "museum",
            "website": "https://www.museumladin.it/it/default.asp",
            "wikidata": "Q14592607",
            "wikipedia": "de:Museum Ladin"
          },
          "geometry": {
            "type": "Point",
            "coordinates": [
              11.8929282,
              46.6804937
            ]
          }
        },
        {
          "type": "Feature",
          "properties": {
            "id": "5602488231",
            "osm_type": "node",
            "lat": 46.4376588,
            "lon": 11.8793706,
            "fee": "no",
            "name": "Museo Marmolada Grande Guerra",
            "opening_hours": "Mo-Su 09:00-16:00",
            "tourism": "museum"
          },
          "geometry": {
            "type": "Point",
            "coordinates": [
              11.8793706,
              46.4376588
            ]
          }
        },
        {
          "type": "Feature",
          "properties": {
            "id": "6383644378",
            "osm_type": "node",
            "lat": 46.6945763,
            "lon": 11.9359512,
            "name": "Fanes-Sennes-Braies UNESCO Museum",
            "tourism": "museum"
          },
          "geometry": {
            "type": "Point",
            "coordinates": [
              11.9359512,
              46.6945763
            ]
          }
        },
        {
          "type": "Feature",
          "properties": {
            "id": "7505760985",
            "osm_type": "node",
            "lat": 46.6358925,
            "lon": 11.7655749,
            "name": "Dolomites UNESCO Info Point Zans",
            "tourism": "museum"
          },
          "geometry": {
            "type": "Point",
            "coordinates": [
              11.7655749,
              46.6358925
            ]
          }
        },
        {
          "type": "Feature",
          "properties": {
            "id": "8891086186",
            "osm_type": "node",
            "lat": 46.5738835,
            "lon": 11.6745514,
            "addr:city": "Urtijëi - St. Ulrich in Gröden - Ortisei",
            "addr:housenumber": "83",
            "addr:postcode": "39046",
            "addr:street": "Streda Rezia",
            "email": "info@museumgherdeina.it",
            "fax": "+39 0471 789798",
            "fee": "yes",
            "museum": "history",
            "name": "Museum Gherdëina",
            "name:de": "Museum Gröden",
            "phone": "+39 0471 797554",
            "tourism": "museum",
            "website": "https://www.museumgherdeina.it/",
            "wikidata": "Q823048",
            "wikimedia_commons": "Category:Museum Gherdëina",
            "wikipedia": "en:Museum Gherdëina"
          },
          "geometry": {
            "type": "Point",
            "coordinates": [
              11.6745514,
              46.5738835
            ]
          }
        },
        {
          "type": "Feature",
          "properties": {
            "id": "8929467921",
            "osm_type": "node",
            "lat": 46.4231294,
            "lon": 11.6796956,
            "addr:housenumber": "9",
            "addr:state": "32",
            "addr:street": "Strada de Sen Jan",
            "air_conditioning": "yes",
            "contact:email": "museo@istladin.net",
            "contact:phone": "+39 0462 760182",
            "kids_area": "yes",
            "museum": "person;history",
            "museum_type": "regional",
            "name": "Museo Ladin de Fascia  - Museo ladino di Fassa",
            "name:it": "Museo ladino di Fassa",
            "name:lld": "Museo Ladin de Fascia",
            "opening_hours": "Dec 01-Apr 01 Mo-Fr,Su 15:00-19:00; Sep 11-Oct 11 Mo-Fr,Su 15:00-19:00; Jun 10-Sep 10 We 10:00-12:00,15:00-19:00; Sa closed; Oct 12-Nov 30 Mo-Fr,Su closed; Apr 02-Jun 09 Mo-Fr,Su closed; PH closed",
            "ref:vatin": "IT00379240229",
            "toilets": "yes",
            "toilets:access": "customers",
            "toilets:wheelchair": "yes",
            "tourism": "museum",
            "website": "https://www.istladin.net",
            "wheelchair": "yes"
          },
          "geometry": {
            "type": "Point",
            "coordinates": [
              11.6796956,
              46.4231294
            ]
          }
        },
        {
          "type": "Feature",
          "properties": {
            "id": "9383867344",
            "osm_type": "node",
            "lat": 46.4821431,
            "lon": 11.952444,
            "addr:city": "Livinallongo del Col di Lana",
            "addr:housenumber": "78",
            "addr:postcode": "32020",
            "addr:street": "Via Pieve",
            "museum": "history",
            "name": "Museo Ladino",
            "tourism": "museum"
          },
          "geometry": {
            "type": "Point",
            "coordinates": [
              11.952444,
              46.4821431
            ]
          }
        },
        {
          "type": "Feature",
          "properties": {
            "id": "11123827583",
            "osm_type": "node",
            "lat": 46.3772191,
            "lon": 11.6686278,
            "name": "Museo \"La Grande Guerra\"",
            "tourism": "museum"
          },
          "geometry": {
            "type": "Point",
            "coordinates": [
              11.6686278,
              46.3772191
            ]
          }
        },
        {
          "type": "Feature",
          "properties": {
            "id": "11123837490",
            "osm_type": "node",
            "lat": 46.3733446,
            "lon": 11.6570332,
            "name": "La Gran Vera: museo prima guerra mondiale",
            "tourism": "museum",
            "website": "https://www.granvera.it/"
          },
          "geometry": {
            "type": "Point",
            "coordinates": [
              11.6570332,
              46.3733446
            ]
          }
        },
        {
          "type": "Feature",
          "properties": {
            "id": "1987840007",
            "osm_type": "node",
            "lat": 46.4272401,
            "lon": 12.374518,
            "addr:city": "Pieve di Cadore",
            "addr:housenumber": "15",
            "addr:postcode": "32044",
            "addr:street": "Via Arsenale",
            "contact:email": "info@museodellocchiale.it",
            "contact:phone": "+39.0435.500213",
            "name": "Museo dell'occhiale",
            "source": "Survay",
            "tourism": "museum",
            "website": "https://www.museodellocchiale.it/",
            "wikidata": "Q3868028",
            "wikipedia": "it:Museo dell'occhiale"
          },
          "geometry": {
            "type": "Point",
            "coordinates": [
              12.374518,
              46.4272401
            ]
          }
        },
        {
          "type": "Feature",
          "properties": {
            "id": "2460538192",
            "osm_type": "node",
            "lat": 46.701489,
            "lon": 12.35043,
            "name": "Rudolf Stolz Museum",
            "tourism": "museum",
            "wikidata": "Q55352661"
          },
          "geometry": {
            "type": "Point",
            "coordinates": [
              12.35043,
              46.701489
            ]
          }
        },
        {
          "type": "Feature",
          "properties": {
            "id": "3843872312",
            "osm_type": "node",
            "lat": 46.3968902,
            "lon": 12.3553759,
            "addr:city": "Perarolo di Cadore",
            "name": "Museo del Cidolo",
            "tourism": "museum"
          },
          "geometry": {
            "type": "Point",
            "coordinates": [
              12.3553759,
              46.3968902
            ]
          }
        },
        {
          "type": "Feature",
          "properties": {
            "id": "3857674672",
            "osm_type": "node",
            "lat": 46.3889299,
            "lon": 12.2886988,
            "dog": "no",
            "name": "Museo del Ferro",
            "opening_hours": "We-Mo 10:30-13:00, 15:30-18:00; Tu 15:30-18:00",
            "tourism": "museum",
            "wikidata": "Q67382363"
          },
          "geometry": {
            "type": "Point",
            "coordinates": [
              12.2886988,
              46.3889299
            ]
          }
        },
        {
          "type": "Feature",
          "properties": {
            "id": "3986594154",
            "osm_type": "node",
            "lat": 46.4559197,
            "lon": 12.2074569,
            "museum": "railway;history",
            "museum_type": "municipal",
            "name": "Museo delle tradizioni popolari",
            "tourism": "museum",
            "wheelchair": "limited"
          },
          "geometry": {
            "type": "Point",
            "coordinates": [
              12.2074569,
              46.4559197
            ]
          }
        },
        {
          "type": "Feature",
          "properties": {
            "id": "5713505431",
            "osm_type": "node",
            "lat": 46.5403879,
            "lon": 12.1314212,
            "addr:city": "Cortina d'Ampezzo",
            "addr:housenumber": "1",
            "addr:postcode": "32043",
            "addr:street": "Via Marangoi",
            "name": "Museo Paleontologico Rinaldo Zardini",
            "tourism": "museum"
          },
          "geometry": {
            "type": "Point",
            "coordinates": [
              12.1314212,
              46.5403879
            ]
          }
        },
        {
          "type": "Feature",
          "properties": {
            "id": "5713505432",
            "osm_type": "node",
            "lat": 46.5401397,
            "lon": 12.1311087,
            "name": "Museo Etnografico Regole d'Ampezzo",
            "tourism": "museum",
            "wikidata": "Q25052128"
          },
          "geometry": {
            "type": "Point",
            "coordinates": [
              12.1311087,
              46.5401397
            ]
          }
        },
        {
          "type": "Feature",
          "properties": {
            "id": "9666317111",
            "osm_type": "node",
            "lat": 46.4286325,
            "lon": 12.3750035,
            "museum": "archaeological",
            "name": "MARC - Museo Archeologico Cadorino",
            "tourism": "museum",
            "wikidata": "Q55358992",
            "wikipedia": "it:MARC - Museo Archeologico Cadorino"
          },
          "geometry": {
            "type": "Point",
            "coordinates": [
              12.3750035,
              46.4286325
            ]
          }
        },
        {
          "type": "Feature",
          "properties": {
            "id": "12229574987",
            "osm_type": "node",
            "lat": 46.3840469,
            "lon": 12.2545248,
            "name": "Messner Mountain Museum",
            "tourism": "museum"
          },
          "geometry": {
            "type": "Point",
            "coordinates": [
              12.2545248,
              46.3840469
            ]
          }
        }
      ],
      "children": []
    },
    {
      "bbox": {
        "south": 46.372652,
        "west": 12.392062499999998,
        "north": 46.70320525,
        "east": 13.345766
      },
      "poiCount": 19,
      "leafCount": 19,
      "averagePosition": [
        12.824732331578948,
        46.52899175789474
      ],
      "data": [
        {
          "type": "Feature",
          "properties": {
            "id": "967061093",
            "osm_type": "node",
            "lat": 46.4857969,
            "lon": 12.441202,
            "addr:city": "Lozzo di Cadore",
            "addr:housenumber": "404",
            "addr:postcode": "32040",
            "addr:street": "Via Padre Marino da Cadore",
            "fee": "no",
            "name": "Museo della Latteria",
            "opening_hours": "Jul-Aug Tu-Su 17:00-19:00",
            "tourism": "museum",
            "wikidata": "Q30894932"
          },
          "geometry": {
            "type": "Point",
            "coordinates": [
              12.441202,
              46.4857969
            ]
          }
        },
        {
          "type": "Feature",
          "properties": {
            "id": "2178647184",
            "osm_type": "node",
            "lat": 46.5995617,
            "lon": 12.491882,
            "addr:city": "Dosoledo",
            "addr:country": "IT",
            "addr:housenumber": "2",
            "addr:postcode": "32040",
            "addr:street": "Piazza Tiziano",
            "name": "Algudnei - Spazi per la cultura ladina del Comelico",
            "note": "Il responsabile è il sig. Arrigo De Martin Mattiò",
            "operator": "Andrea T",
            "phone": "+39 3470021283",
            "tourism": "museum",
            "website": "https://www.algudnei.it/",
            "wheelchair": "yes"
          },
          "geometry": {
            "type": "Point",
            "coordinates": [
              12.491882,
              46.5995617
            ]
          }
        },
        {
          "type": "Feature",
          "properties": {
            "id": "6460981285",
            "osm_type": "node",
            "lat": 46.5524081,
            "lon": 12.4409848,
            "name": "Palazzo Corte Metto",
            "tourism": "museum"
          },
          "geometry": {
            "type": "Point",
            "coordinates": [
              12.4409848,
              46.5524081
            ]
          }
        },
        {
          "type": "Feature",
          "properties": {
            "id": "9700293511",
            "osm_type": "node",
            "lat": 46.6011228,
            "lon": 12.4799873,
            "name": "Museo della Cultura Alpina e Ladina del Comelico",
            "old_name": "Scuola Elementare Don Bosco",
            "tourism": "museum",
            "website": "https://www.valcomelicodolomiti.it/museo-cultura-alpina-ladina-del-comelico.html"
          },
          "geometry": {
            "type": "Point",
            "coordinates": [
              12.4799873,
              46.6011228
            ]
          }
        },
        {
          "type": "Feature",
          "properties": {
            "id": "534687547",
            "osm_type": "node",
            "lat": 46.4074067,
            "lon": 13.0144123,
            "addr:city": "Tolmezzo",
            "addr:housenumber": "2",
            "addr:postcode": "33028",
            "addr:street": "Via della Vittoria",
            "fee": "yes",
            "name": "Museo Carnico delle Arti Popolari \"Michele Gortani\"",
            "opening_hours": "Tu-Fr 09:00-13:00,15:00-18:00; Sa-Su 10:00-13:00,15:00-18:00",
            "phone": "+39 0433 43233",
            "tourism": "museum",
            "website": "https://www.museocarnico.it/"
          },
          "geometry": {
            "type": "Point",
            "coordinates": [
              13.0144123,
              46.4074067
            ]
          }
        },
        {
          "type": "Feature",
          "properties": {
            "id": "702492922",
            "osm_type": "node",
            "lat": 46.6715897,
            "lon": 12.9997663,
            "addr:city": "Kötschach-Mauthen",
            "addr:country": "AT",
            "addr:housenumber": "390",
            "addr:place": "Kötschach",
            "addr:postcode": "9640",
            "addr:street": "Kötschach",
            "email": "museum@dolomitenfreunde.at",
            "fee": "yes",
            "name": "Museum 1915-1918",
            "phone": "+43 4715 851332",
            "tourism": "museum",
            "website": "https://www.dolomitenfreunde.at/museum",
            "wikidata": "Q15867361",
            "wikipedia": "de:Museum 1915–18"
          },
          "geometry": {
            "type": "Point",
            "coordinates": [
              12.9997663,
              46.6715897
            ]
          }
        },
        {
          "type": "Feature",
          "properties": {
            "id": "2453455435",
            "osm_type": "node",
            "lat": 46.4926121,
            "lon": 12.8621624,
            "name": "Museo Naturalistico ed Esposizione Faunistica",
            "tourism": "museum",
            "wikidata": "Q73484535"
          },
          "geometry": {
            "type": "Point",
            "coordinates": [
              12.8621624,
              46.4926121
            ]
          }
        },
        {
          "type": "Feature",
          "properties": {
            "id": "2453455442",
            "osm_type": "node",
            "lat": 46.4928024,
            "lon": 12.8619378,
            "name": "Segheria Veneziana e Museo del Legno",
            "tourism": "museum",
            "wikidata": "Q72684529"
          },
          "geometry": {
            "type": "Point",
            "coordinates": [
              12.8619378,
              46.4928024
            ]
          }
        },
        {
          "type": "Feature",
          "properties": {
            "id": "2558515157",
            "osm_type": "node",
            "lat": 46.4565275,
            "lon": 12.8811373,
            "name": "Museo della miniera di Cludinico",
            "tourism": "museum",
            "website": "http://www.minieradicludinico.it",
            "wikidata": "Q69560725"
          },
          "geometry": {
            "type": "Point",
            "coordinates": [
              12.8811373,
              46.4565275
            ]
          }
        },
        {
          "type": "Feature",
          "properties": {
            "id": "2599764363",
            "osm_type": "node",
            "lat": 46.4660141,
            "lon": 12.707828,
            "addr:city": "Sauris",
            "addr:country": "IT",
            "addr:hamlet": "Sauris di Sotto",
            "addr:postcode": "33020",
            "name": "Centro Storiografico Museo di Sant'Osvaldo",
            "tourism": "museum"
          },
          "geometry": {
            "type": "Point",
            "coordinates": [
              12.707828,
              46.4660141
            ]
          }
        },
        {
          "type": "Feature",
          "properties": {
            "id": "2619436308",
            "osm_type": "node",
            "lat": 46.3939931,
            "lon": 12.8671696,
            "name": "Preone 200 milioni di anni",
            "tourism": "museum"
          },
          "geometry": {
            "type": "Point",
            "coordinates": [
              12.8671696,
              46.3939931
            ]
          }
        },
        {
          "type": "Feature",
          "properties": {
            "id": "3355587490",
            "osm_type": "node",
            "lat": 46.423738,
            "lon": 12.5805579,
            "name": "Museo rurale fornese",
            "tourism": "museum"
          },
          "geometry": {
            "type": "Point",
            "coordinates": [
              12.5805579,
              46.423738
            ]
          }
        },
        {
          "type": "Feature",
          "properties": {
            "id": "6242640633",
            "osm_type": "node",
            "lat": 46.526893,
            "lon": 12.98684,
            "tourism": "museum"
          },
          "geometry": {
            "type": "Point",
            "coordinates": [
              12.98684,
              46.526893
            ]
          }
        },
        {
          "type": "Feature",
          "properties": {
            "id": "11586789746",
            "osm_type": "node",
            "lat": 46.580887,
            "lon": 12.5765032,
            "name": "Museo Etnografico",
            "tourism": "museum"
          },
          "geometry": {
            "type": "Point",
            "coordinates": [
              12.5765032,
              46.580887
            ]
          }
        },
        {
          "type": "Feature",
          "properties": {
            "id": "11989104745",
            "osm_type": "node",
            "lat": 46.5711863,
            "lon": 12.7132992,
            "alt_name": "Casa Puicher s’Kottlars",
            "contact:city": "Sappada",
            "contact:housenumber": "17",
            "contact:place": "Borgota Cretta",
            "contact:postcode": "33012",
            "name": "Casa-Museo della Civiltà contadina",
            "tourism": "museum",
            "website": "https://www.plodn.info/casa_museo.php"
          },
          "geometry": {
            "type": "Point",
            "coordinates": [
              12.7132992,
              46.5711863
            ]
          }
        },
        {
          "type": "Feature",
          "properties": {
            "id": "2047979882",
            "osm_type": "node",
            "lat": 46.6624595,
            "lon": 13.0790202,
            "fee": "yes",
            "name": "Geopark",
            "tourism": "museum"
          },
          "geometry": {
            "type": "Point",
            "coordinates": [
              13.0790202,
              46.6624595
            ]
          }
        },
        {
          "type": "Feature",
          "properties": {
            "id": "2366129988",
            "osm_type": "node",
            "lat": 46.4478762,
            "lon": 13.3156254,
            "name": "Museo del territorio",
            "tourism": "museum",
            "website": "https://www.comune.dogna.ud.it/it/vivere-il-comune-69050/luoghi-69051/il-museo-del-territorio-72900",
            "wikidata": "Q68660455"
          },
          "geometry": {
            "type": "Point",
            "coordinates": [
              13.3156254,
              46.4478762
            ]
          }
        },
        {
          "type": "Feature",
          "properties": {
            "id": "2422472367",
            "osm_type": "node",
            "lat": 46.5305533,
            "lon": 13.115498,
            "addr:city": "Paularo",
            "addr:housenumber": "13",
            "addr:postcode": "33027",
            "addr:street": "Via tenente Silvano Sbrizzai",
            "name": "Ecomuseo I Mistîrs",
            "tourism": "museum",
            "wikidata": "Q70343977"
          },
          "geometry": {
            "type": "Point",
            "coordinates": [
              13.115498,
              46.5305533
            ]
          }
        },
        {
          "type": "Feature",
          "properties": {
            "id": "11151467939",
            "osm_type": "node",
            "lat": 46.687415,
            "lon": 13.2541006,
            "fee": "yes",
            "name": "Schmiede",
            "opening_hours": "\"Nach Vereinbarung\"",
            "tourism": "museum",
            "wheelchair": "yes"
          },
          "geometry": {
            "type": "Point",
            "coordinates": [
              13.2541006,
              46.687415
            ]
          }
        }
      ],
      "children": []
    },
    {
      "bbox": {
        "south": 46.70320525,
        "west": 11.438358999999998,
        "north": 47.033758500000005,
        "east": 12.392062499999998
      },
      "poiCount": 20,
      "leafCount": 20,
      "averagePosition": [
        11.99212241,
        46.830806530000004
      ],
      "data": [
        {
          "type": "Feature",
          "properties": {
            "id": "3465052257",
            "osm_type": "node",
            "lat": 46.99497,
            "lon": 11.5014297,
            "fee": "no",
            "name": "Plessi Museum",
            "opening_hours": "PH,Mo-Su 06:00-22:00",
            "tourism": "museum",
            "wheelchair": "limited",
            "wikidata": "Q69319959"
          },
          "geometry": {
            "type": "Point",
            "coordinates": [
              11.5014297,
              46.99497
            ]
          }
        },
        {
          "type": "Feature",
          "properties": {
            "id": "471369847",
            "osm_type": "node",
            "lat": 46.9951712,
            "lon": 11.9810013,
            "addr:city": "Steinhaus - Cadipietra",
            "addr:housenumber": "103",
            "addr:postcode": "39030",
            "addr:street": "Klausbergstraße - Via Klausberg",
            "email": "kornkasten@bergbaumuseum.it",
            "fax": "+39 0474 651326",
            "fee": "yes",
            "name": "Südtiroler Bergbaumuseum Kornkasten Steinhaus - Museo provinciale delle miniere Granaio Cadipietra",
            "name:de": "Südtiroler Bergbaumuseum Kornkasten Steinhaus",
            "name:it": "Museo provinciale delle miniere Granaio Cadipietra",
            "phone": "+39 0474 651043",
            "tourism": "museum"
          },
          "geometry": {
            "type": "Point",
            "coordinates": [
              11.9810013,
              46.9951712
            ]
          }
        },
        {
          "type": "Feature",
          "properties": {
            "id": "810265383",
            "osm_type": "node",
            "lat": 46.9893069,
            "lon": 11.9604605,
            "addr:city": "Ahrntal - Valle Aurina",
            "addr:city:de": "Ahrntal",
            "addr:city:it": "Valle Aurina",
            "addr:housenumber": "101",
            "addr:place": "St. Johann - San Giovanni",
            "addr:place:de": "St. Johann",
            "addr:place:it": "San Giovanni",
            "addr:postcode": "39030",
            "addr:street": "Mühlegg",
            "email": "info@arturkirchler.com",
            "fax": "+39 0474 652 011",
            "fee": "yes",
            "name": "Mineralienmuseum Kirchler - Museo mineralogico Kirchler",
            "name:de": "Mineralienmuseum Kirchler",
            "name:it": "Museo mineralogico Kirchler",
            "operator": "Familie Kirchler",
            "phone": "+39 0474 652 145",
            "tourism": "museum",
            "website": "https://www.mineralienmuseum.com/"
          },
          "geometry": {
            "type": "Point",
            "coordinates": [
              11.9604605,
              46.9893069
            ]
          }
        },
        {
          "type": "Feature",
          "properties": {
            "id": "2565532052",
            "osm_type": "node",
            "lat": 46.9197338,
            "lon": 11.9527005,
            "name": "Naturparkhaus Rieser-Ferner-Ahrn",
            "tourism": "museum"
          },
          "geometry": {
            "type": "Point",
            "coordinates": [
              11.9527005,
              46.9197338
            ]
          }
        },
        {
          "type": "Feature",
          "properties": {
            "id": "12247282955",
            "osm_type": "node",
            "lat": 47.0036076,
            "lon": 11.6697373,
            "museum": "archaeological",
            "name": "PfitscherJoch grenzenlos",
            "tourism": "museum",
            "website": "https://www.naturparke.tirol/naturparkhaeuser/naturparkhaeuser-zillertaler-alpen/pfitscherjoch-grenzenlos-auf-der-lavitzalm/"
          },
          "geometry": {
            "type": "Point",
            "coordinates": [
              11.6697373,
              47.0036076
            ]
          }
        },
        {
          "type": "Feature",
          "properties": {
            "id": "1567322202",
            "osm_type": "node",
            "lat": 47.0209376,
            "lon": 12.361854,
            "addr:city": "Prägraten am Großvenediger",
            "addr:country": "AT",
            "addr:housenumber": "9a",
            "addr:place": "Bichl",
            "addr:postcode": "9974",
            "name": "Oberbichlerhof",
            "source": "Nationalpark Hohe Tauern, Nationalparkverwaltung",
            "tourism": "museum",
            "website": "http://www.oberbichlerhof.at",
            "wikidata": "Q94098790"
          },
          "geometry": {
            "type": "Point",
            "coordinates": [
              12.361854,
              47.0209376
            ]
          }
        },
        {
          "type": "Feature",
          "properties": {
            "id": "5954805491",
            "osm_type": "node",
            "lat": 46.9163475,
            "lon": 12.3308832,
            "fee": "no",
            "name": "Zirbenmuseum",
            "tourism": "museum"
          },
          "geometry": {
            "type": "Point",
            "coordinates": [
              12.3308832,
              46.9163475
            ]
          }
        },
        {
          "type": "Feature",
          "properties": {
            "id": "1656300332",
            "osm_type": "node",
            "lat": 46.7943657,
            "lon": 11.9395263,
            "addr:city": "Bruneck - Brunico",
            "addr:country": "IT",
            "addr:housenumber": "2",
            "addr:postcode": "39031",
            "addr:street": "Schlossweg - Vicolo Castello",
            "alt_name": "MMM Ripa",
            "email": "ripa@messner-mountain-museum.it",
            "fax": "+39 0474 410 525",
            "fee": "yes",
            "name": "Messner Mountain Museum Ripa",
            "opening_hours": "May Su [2]-Nov Su [1] We-Mo 10:00-18:00; Dec 07-Apr 25 We-Mo 10:00-18:00; Tu off",
            "phone": "+39 0474 410 220",
            "tourism": "museum",
            "website": "https://www.messner-mountain-museum.it/",
            "wikidata": "Q1637348",
            "wikipedia": "it:Messner Mountain Museum"
          },
          "geometry": {
            "type": "Point",
            "coordinates": [
              11.9395263,
              46.7943657
            ]
          }
        },
        {
          "type": "Feature",
          "properties": {
            "id": "2388163533",
            "osm_type": "node",
            "lat": 46.7166139,
            "lon": 11.6582709,
            "addr:city": "Brixen - Bressanone",
            "addr:city:de": "Brixen",
            "addr:city:it": "Bressanone",
            "addr:housenumber": "4",
            "addr:postcode": "39042",
            "addr:street": "Adlerbrückengasse - Via Ponte Aquila",
            "email": "contact@pharmaziemuseum.it",
            "fax": "+39 0472 832777",
            "fee": "yes",
            "name": "Pharmaziemuseum - Museo della Farmacia",
            "name:de": "Pharmaziemuseum",
            "name:en": "Pharmacy Museum",
            "name:it": "Museo della Farmacia",
            "opening_hours": "Tu,We 14:00-18:00; Sa 11:00-18:00; Jul-Aug: Mo-Fr 11:00-18:00; Sa 11:00-16:00",
            "phone": "+39 0472 209112",
            "tourism": "museum",
            "website:de": "www.pharmaziemuseum.it",
            "website:it": "www.museofarmacia.it",
            "wikidata": "Q2085142",
            "wikipedia": "it:Museo della farmacia di Bressanone"
          },
          "geometry": {
            "type": "Point",
            "coordinates": [
              11.6582709,
              46.7166139
            ]
          }
        },
        {
          "type": "Feature",
          "properties": {
            "id": "2560951233",
            "osm_type": "node",
            "lat": 46.7147023,
            "lon": 11.6556498,
            "addr:city": "Brixen - Bressanone",
            "addr:housenumber": "2",
            "addr:postcode": "39042",
            "addr:street": "Hofburgplatz - P.zza Vescovado",
            "check_date": "2023-08-03",
            "email": "info@hofburg.it",
            "fax": "+39 0472 208 282",
            "fee": "yes",
            "name": "Diözesanmuseum - Museo Diocesano",
            "name:de": "Diözesanmuseum Hofburg Brixen",
            "name:it": "Museo Diocesano Palazzo Vescovile",
            "opening_hours": "Oct-May 10:00-17:00; Jun-Sep 10:00-18:30",
            "phone": "+39 0472 830 505",
            "tourism": "museum",
            "website": "https://www.hofburg.it/",
            "wikidata": "Q1383080",
            "wikipedia": "it:Museo diocesano (Bressanone)"
          },
          "geometry": {
            "type": "Point",
            "coordinates": [
              11.6556498,
              46.7147023
            ]
          }
        },
        {
          "type": "Feature",
          "properties": {
            "id": "2749650579",
            "osm_type": "node",
            "lat": 46.7962818,
            "lon": 11.9410338,
            "addr:city": "Bruneck - Brunico",
            "addr:city:de": "Bruneck",
            "addr:city:it": "Brunico",
            "addr:housenumber": "1",
            "addr:postcode": "39031",
            "addr:street": "Bruder-Willram-Straße - Via Bruder Willram",
            "addr:street:de": "Bruder-Willram-Straße",
            "addr:street:it": "Via Bruder Willram",
            "check_date": "2024-03-09",
            "email": "info@stadtmuseum-bruneck.it",
            "fax": "+39 0474 410 685",
            "fee": "yes",
            "fee:conditional": "no @ age < 6",
            "fixme": "Museum umbenannt, neue Website eck.museum, alles anpassen",
            "name": "Eck Museum of Art",
            "name:de": "Stadtmuseum Bruneck",
            "name:it": "Museo Civico di Brunico",
            "opening_hours": "Mo,We,Fr,Su off; Tu,Th 10:00-16:00; Sa 10:00-12:00",
            "phone": "+39 0474 553 292",
            "tourism": "museum",
            "website": "http://www.stadtmuseum-bruneck.it/",
            "wheelchair": "yes",
            "wikidata": "Q67183022"
          },
          "geometry": {
            "type": "Point",
            "coordinates": [
              11.9410338,
              46.7962818
            ]
          }
        },
        {
          "type": "Feature",
          "properties": {
            "id": "7690997760",
            "osm_type": "node",
            "lat": 46.8119141,
            "lon": 11.8850496,
            "addr:city": "Pfalzen - Falzes",
            "addr:city:de": "Pfalzen",
            "addr:city:it": "Falzes",
            "addr:housenumber": "1",
            "addr:postcode": "39030",
            "addr:street": "Anselm-Sparber-Straße - Via Anselm Sparber",
            "addr:street:de": "Anselm-Sparber-Straße",
            "addr:street:it": "Via Anselm Sparber",
            "description": "Einmalig in Südtirol! Das Puppenmuseum in Pfalzen entführt den Besucher in eine fantasievolle, spielerische Welt. Die Ausstellung beinhaltet verschiedene Puppenhäuser, Spielpuppen, Kasperlpuppen, Trachtenpuppen, u.v.m. \n\nEintritt frei!",
            "fee": "no",
            "name": "Puppenmuseum",
            "opening_hours": "24/7",
            "phone": "+39 0474 538833",
            "tourism": "museum",
            "website": "https://www.bruneck.com/de/infos/puppenmuseum_2531"
          },
          "geometry": {
            "type": "Point",
            "coordinates": [
              11.8850496,
              46.8119141
            ]
          }
        },
        {
          "type": "Feature",
          "properties": {
            "id": "8287034381",
            "osm_type": "node",
            "lat": 46.773425,
            "lon": 11.687477,
            "email": "schloss.rodenegg@gmail.com",
            "mobile": "+39 391 748 94 92",
            "name": "Schloss Rodenegg - Castel Rodengo",
            "name:de": "Schloss Rodenegg",
            "name:en": "Castle Rodenegg",
            "name:it": "Castel Rodengo",
            "note": "nur mit Führung - solo visite guidate - only guided tours",
            "opening_hours": "May 01-Oct 10 Su-Fr 11:30+,14:30+; Jul 15-Aug 31 Su-Fr 16:00+",
            "phone": "+39 0472 454056",
            "tourism": "museum"
          },
          "geometry": {
            "type": "Point",
            "coordinates": [
              11.687477,
              46.773425
            ]
          }
        },
        {
          "type": "Feature",
          "properties": {
            "id": "12477141327",
            "osm_type": "node",
            "lat": 46.7829535,
            "lon": 11.9021858,
            "addr:housenumber": "9",
            "addr:postcode": "39030",
            "addr:street": "Josef-Renzler-Straße - Via Josef Renzler",
            "alt_name": "Museum Mansio Sebatum",
            "alt_name:de": "Museum Mansio Sebatum;Archäologiemuseum Mansio Sebatum",
            "alt_name:en": "Mansio Sebatum Archaeological Museum",
            "alt_name:it": "Museo Archeologico Mansio Sebatum",
            "email": "info@mansio-sebatum.it",
            "level": "0",
            "name": "Mansio Sebatum",
            "opening_hours": "Sep-Jun Mo-Fr 09:00-12:00,15:00-18:00; Jul-Aug Mo-Sa 09:00-13:00,15:00-18:00; Su,PH off",
            "phone": "+39 0474 538196",
            "reservation": "no",
            "tourism": "museum",
            "website": "https://www.mansio-sebatum.it/"
          },
          "geometry": {
            "type": "Point",
            "coordinates": [
              11.9021858,
              46.7829535
            ]
          }
        },
        {
          "type": "Feature",
          "properties": {
            "id": "279714556",
            "osm_type": "node",
            "lat": 46.7382406,
            "lon": 12.1675824,
            "contact:city": "Niederdorf - Villabassa",
            "contact:city:de": "Niederdorf",
            "contact:city:it": "Villabassa",
            "contact:housenumber": "8",
            "contact:postcode": "39039",
            "contact:street": "Hans-Wassermann-Straße - Via Hans Wassermann",
            "contact:street:de": "Hans-Wassermann-Straße",
            "contact:street:it": "Via Hans Wassermann",
            "fee": "yes",
            "museum": "local",
            "name": "Fremdenverkehrsmuseum Haus Wassermann - Museo del Turismo Wassermann",
            "name:de": "Fremdenverkehrsmuseum Haus Wassermann",
            "name:it": "Museo del Turismo Wassermann",
            "operator": "Gemeinde Niederdorf - Comune di Villabassa",
            "operator:de": "Gemeinde Niederdorf",
            "operator:it": "Comune di Villabassa",
            "operator:wikidata": "Q504724",
            "phone": "+39 0474 745133",
            "tourism": "museum"
          },
          "geometry": {
            "type": "Point",
            "coordinates": [
              12.1675824,
              46.7382406
            ]
          }
        },
        {
          "type": "Feature",
          "properties": {
            "id": "2333490604",
            "osm_type": "node",
            "lat": 46.7330928,
            "lon": 12.2801391,
            "email": "info@dolomythos.com",
            "fax": "+39 0474 913092",
            "fee": "yes",
            "name": "Dolomythos",
            "phone": "+39 0474 913462",
            "tourism": "museum",
            "website": "https://www.dolomythos.com/",
            "wikidata": "Q55352608"
          },
          "geometry": {
            "type": "Point",
            "coordinates": [
              12.2801391,
              46.7330928
            ]
          }
        },
        {
          "type": "Feature",
          "properties": {
            "id": "2333490721",
            "osm_type": "node",
            "lat": 46.7334493,
            "lon": 12.2790179,
            "name": "Ortsmuseum",
            "tourism": "museum",
            "wikidata": "Q55352615"
          },
          "geometry": {
            "type": "Point",
            "coordinates": [
              12.2790179,
              46.7334493
            ]
          }
        },
        {
          "type": "Feature",
          "properties": {
            "id": "5815747525",
            "osm_type": "node",
            "lat": 46.7281601,
            "lon": 12.2445911,
            "addr:city": "Toblach - Dobbiaco",
            "addr:housenumber": "19",
            "addr:postcode": "39034",
            "addr:street": "Pustertaler Straße - Via Val Pusteria",
            "addr:unit": "Maso Baumann",
            "email": "dolomiten.bunkermuseum@gmail.com",
            "museum": "military",
            "name": "Bunker Museum",
            "opening_hours": "Jul 01-Sep 15: Mo-Sa 14:00-18:00; Su off",
            "operator": "Bunker Museum",
            "phone": "+39 349 8767196",
            "tourism": "museum",
            "website": "https://www.bunkermuseum.net/"
          },
          "geometry": {
            "type": "Point",
            "coordinates": [
              12.2445911,
              46.7281601
            ]
          }
        },
        {
          "type": "Feature",
          "properties": {
            "id": "12055305245",
            "osm_type": "node",
            "lat": 46.7298226,
            "lon": 12.218529,
            "charge": "5 EUR/person",
            "charge:conditional": "no @ < 8 years",
            "check_date": "2024-07-13",
            "museum": "technology",
            "name": "Schaukäserei Drei Zinnen",
            "opening_hours": "Mo-Sa 08:00-19:00; Su 10:00-18:00",
            "phone": "+39 474971300",
            "strapline": "World of cheese",
            "toilets": "yes",
            "tourism": "museum",
            "website": "https://3zinnen.it/de/uber-uns/schaukaserei/"
          },
          "geometry": {
            "type": "Point",
            "coordinates": [
              12.218529,
              46.7298226
            ]
          }
        },
        {
          "type": "Feature",
          "properties": {
            "id": "13043125499",
            "osm_type": "node",
            "lat": 46.7230343,
            "lon": 12.225329,
            "check_date": "2024-11-04",
            "email": "info.dz@provinz.bz.it",
            "fax": "+39 0474 973 974",
            "fee": "no",
            "name": "Naturparkhaus Drei Zinnen - Centro visite del Parco Naturale Tre Cime",
            "name:de": "Naturparkhaus Drei Zinnen",
            "name:it": "Centro visite del Parco Naturale Tre Cime",
            "old_name": "Grand Hotel Toblach",
            "phone": "+39 0474 973 017",
            "tourism": "museum"
          },
          "geometry": {
            "type": "Point",
            "coordinates": [
              12.225329,
              46.7230343
            ]
          }
        }
      ],
      "children": []
    },
    {
      "bbox": {
        "south": 46.70320525,
        "west": 12.392062499999998,
        "north": 47.033758500000005,
        "east": 13.345766
      },
      "poiCount": 12,
      "leafCount": 12,
      "averagePosition": [
        12.682904791666667,
        46.85023913333333
      ],
      "data": [
        {
          "type": "Feature",
          "properties": {
            "id": "9807283664",
            "osm_type": "node",
            "lat": 46.9967851,
            "lon": 12.4439478,
            "fee": "no",
            "name": "Skulpturenpark Virgen",
            "opening_hours": "24/7",
            "tourism": "museum"
          },
          "geometry": {
            "type": "Point",
            "coordinates": [
              12.4439478,
              46.9967851
            ]
          }
        },
        {
          "type": "Feature",
          "properties": {
            "id": "11622656778",
            "osm_type": "node",
            "lat": 47.0031407,
            "lon": 12.4578086,
            "addr:city": "Virgen",
            "addr:country": "AT",
            "addr:housenumber": "77",
            "addr:postcode": "9972",
            "addr:street": "Virgental Straße",
            "contact:facebook": "https://maps.osttirol.com/v2/de/gdi_winter/2d/-1/detail/18.602704630123075/47.003249897392806/12.45763312915824/-1/98522544/",
            "museum": "history",
            "name": "NP-Ausstellung \"Virgen - Jenseits der Zeit\"",
            "operator": "Nationalpark Hohe Tauern",
            "operator:type": "public",
            "tourism": "museum"
          },
          "geometry": {
            "type": "Point",
            "coordinates": [
              12.4578086,
              47.0031407
            ]
          }
        },
        {
          "type": "Feature",
          "properties": {
            "id": "517399104",
            "osm_type": "node",
            "lat": 47.0014928,
            "lon": 12.6453673,
            "name": "Heimatmuseum",
            "tourism": "museum",
            "wheelchair": "yes"
          },
          "geometry": {
            "type": "Point",
            "coordinates": [
              12.6453673,
              47.0014928
            ]
          }
        },
        {
          "type": "Feature",
          "properties": {
            "id": "1567364310",
            "osm_type": "node",
            "lat": 47.0012685,
            "lon": 12.6449508,
            "fee": "yes",
            "name": "Glocknerhaus Kals",
            "tourism": "museum",
            "wikidata": "Q94101780"
          },
          "geometry": {
            "type": "Point",
            "coordinates": [
              12.6449508,
              47.0012685
            ]
          }
        },
        {
          "type": "Feature",
          "properties": {
            "id": "9031501814",
            "osm_type": "node",
            "lat": 46.7491016,
            "lon": 12.4491031,
            "addr:city": "Heinfels",
            "addr:housenumber": "196",
            "addr:postcode": "9919",
            "addr:street": "Panzendorf",
            "name": "Loacker Museum",
            "tourism": "museum"
          },
          "geometry": {
            "type": "Point",
            "coordinates": [
              12.4491031,
              46.7491016
            ]
          }
        },
        {
          "type": "Feature",
          "properties": {
            "id": "11410831559",
            "osm_type": "node",
            "lat": 46.7510818,
            "lon": 12.4397204,
            "addr:city": "Heinfels",
            "addr:housenumber": "1",
            "addr:postcode": "9919",
            "addr:street": "Panzendorf",
            "email": "info@burg-heinfels.com",
            "mobile": "+43 664 16 77 078",
            "museum": "history",
            "name": "Museum Burg Heinfels",
            "tourism": "museum",
            "website": "https://www.burg-heinfels.com"
          },
          "geometry": {
            "type": "Point",
            "coordinates": [
              12.4397204,
              46.7510818
            ]
          }
        },
        {
          "type": "Feature",
          "properties": {
            "id": "1376104920",
            "osm_type": "node",
            "lat": 46.7482534,
            "lon": 12.9693932,
            "tourism": "museum"
          },
          "geometry": {
            "type": "Point",
            "coordinates": [
              12.9693932,
              46.7482534
            ]
          }
        },
        {
          "type": "Feature",
          "properties": {
            "id": "1670151129",
            "osm_type": "node",
            "lat": 46.832175,
            "lon": 12.7489978,
            "addr:city": "Lienz",
            "addr:country": "AT",
            "addr:housenumber": "1",
            "addr:postcode": "9900",
            "addr:street": "Schloßberg",
            "at_bev:addr_date": "2017-10-01",
            "name": "Museum Schloss Bruck",
            "tourism": "museum",
            "website": "https://www.museum-schlossbruck.at/"
          },
          "geometry": {
            "type": "Point",
            "coordinates": [
              12.7489978,
              46.832175
            ]
          }
        },
        {
          "type": "Feature",
          "properties": {
            "id": "5081330579",
            "osm_type": "node",
            "lat": 46.7861098,
            "lon": 12.6395925,
            "addr:city": "Assling",
            "addr:country": "AT",
            "addr:housenumber": "28",
            "addr:place": "Unterassling",
            "addr:postcode": "9911",
            "name": "Archäologieraum Assling",
            "operator": "Gemeinde Assling",
            "tourism": "museum",
            "website": "https://www.assling.at/bildungkultur/sehenswuerdigkeiten/68-archaeologieraum.html",
            "wikidata": "Q87482946"
          },
          "geometry": {
            "type": "Point",
            "coordinates": [
              12.6395925,
              46.7861098
            ]
          }
        },
        {
          "type": "Feature",
          "properties": {
            "id": "5841490867",
            "osm_type": "node",
            "lat": 46.8279683,
            "lon": 12.7712615,
            "alt_name": "Eisenbahnmuseum Südbahn Heizhaus Lienz",
            "fee": "yes",
            "museum": "railway",
            "name": "Eisenbahn Museum Südbahn Heizhaus Lienz",
            "operator": "Eisenbahnfreunde Lienz",
            "tourism": "museum",
            "website": "https://ebfl.at"
          },
          "geometry": {
            "type": "Point",
            "coordinates": [
              12.7712615,
              46.8279683
            ]
          }
        },
        {
          "type": "Feature",
          "properties": {
            "id": "6721845175",
            "osm_type": "node",
            "lat": 46.7574177,
            "lon": 13.0143172,
            "name": "Bäuerles Mühle",
            "tourism": "museum"
          },
          "geometry": {
            "type": "Point",
            "coordinates": [
              13.0143172,
              46.7574177
            ]
          }
        },
        {
          "type": "Feature",
          "properties": {
            "id": "7667135190",
            "osm_type": "node",
            "lat": 46.7480749,
            "lon": 12.9703973,
            "addr:city": "Oberdrauburg",
            "addr:country": "AT",
            "addr:housenumber": "27",
            "addr:postcode": "9781",
            "addr:street": "Marktstraße",
            "charge": "6€",
            "email": "info@vannis-vogelwelt.at",
            "fee": "yes",
            "name": "Vanni's Vogelwelt",
            "operator": "Vanni Bianchi / Adriana Fausto",
            "phone": "+43 660 5013014",
            "tourism": "museum",
            "website": "https://www.vannis-vogelwelt.at/"
          },
          "geometry": {
            "type": "Point",
            "coordinates": [
              12.9703973,
              46.7480749
            ]
          }
        }
      ],
      "children": []
    }
  ]
}