{
  "bbox": {
    "south": 47.033758500000005,
    "west": 9.530952,
    "north": 47.694865,
    "east": 11.438358999999998
  },
  "poiCount": 144,
  "leafCount": 0,
  "averagePosition": [
    10.44088848263889,
    47.41838589652778
  ],
  "data": [],
  "children": [
    {
      "bbox": {
        "south": 47.033758500000005,
        "west": 9.530952,
        "north": 47.36431175,
        "east": 10.484655499999999
      },
      "poiCount": 20,
      "leafCount": 20,
      "averagePosition": [
        9.81683404,
        47.26024513
      ],
      "data": [
        {
          "type": "Feature",
          "properties": {
            "id": "357361853",
            "osm_type": "node",
            "lat": 47.2363858,
            "lon": 9.5994891,
            "addr:city": "Feldkirch",
            "addr:country": "AT",
            "addr:housenumber": "1",
            "addr:postcode": "6800",
            "addr:street": "Burggasse",
            "contact:email": "verwaltung.museum@schattenburg.at",
            "contact:fax": "+43 5522 71982 10",
            "contact:phone": "+43 5522 71982",
            "contact:website": "https://www.schattenburg.at",
            "fee": "yes",
            "name": "Heimatpflege- und Museumsverein Schattenburg",
            "opening_hours": "Jan-Mar Tu-Fr 13:30-16:00; Sa, Su, PH 11:00-16:00; Apr-Oct Mo-Fr 09:00-12:00, 13:30-17:00; Sa, Su, PH 10:00-17:00; Nov, Dec Sa, Su, PH 11:00-16:00",
            "tourism": "museum"
          },
          "geometry": {
            "type": "Point",
            "coordinates": [
              9.5994891,
              47.2363858
            ]
          }
        },
        {
          "type": "Feature",
          "properties": {
            "id": "473699123",
            "osm_type": "node",
            "lat": 47.0803367,
            "lon": 9.9188664,
            "addr:city": "Schruns",
            "addr:country": "AT",
            "addr:housenumber": "15",
            "addr:postcode": "6780",
            "addr:street": "Kirchplatz",
            "description": "kulturgeschichtliches Museum",
            "email": "museen@montafon.at",
            "fee": "yes",
            "level": "1",
            "name": "Montafoner Heimatmuseum",
            "opening_hours": "Jan 2-Apr 19 Tu-Fr 15:00-18:00",
            "phone": "+43 5556 74723",
            "toilets:wheelchair": "no",
            "tourism": "museum",
            "website": "https://stand-montafon.at/kultur-wissenschaft/montafoner-museen/montafoner-heimatmuseum-schruns",
            "wheelchair": "no",
            "wikidata": "Q27588954",
            "wikipedia": "de:Montafoner Heimatmuseum Schruns"
          },
          "geometry": {
            "type": "Point",
            "coordinates": [
              9.9188664,
              47.0803367
            ]
          }
        },
        {
          "type": "Feature",
          "properties": {
            "id": "761534749",
            "osm_type": "node",
            "lat": 47.1184826,
            "lon": 9.5428822,
            "addr:city": "Triesenberg",
            "addr:country": "LI",
            "addr:housenumber": "5",
            "addr:postcode": "9497",
            "addr:street": "Schlossstrasse",
            "name": "Walsermuseum",
            "opening_hours": "Mo-Fr 08:00-12:00,13:30-18:00; Sa 08:00-12:00",
            "operator": "Gemeinde Triesenberg",
            "tourism": "museum",
            "wikidata": "Q64718187",
            "wikimedia_commons": "Category:Walsermuseum Triesenberg",
            "wikipedia": "de:Walsermuseum Triesenberg"
          },
          "geometry": {
            "type": "Point",
            "coordinates": [
              9.5428822,
              47.1184826
            ]
          }
        },
        {
          "type": "Feature",
          "properties": {
            "id": "886432016",
            "osm_type": "node",
            "lat": 47.2829373,
            "lon": 9.5429474,
            "name": "Ortsmuseum",
            "ref": "15",
            "tourism": "museum"
          },
          "geometry": {
            "type": "Point",
            "coordinates": [
              9.5429474,
              47.2829373
            ]
          }
        },
        {
          "type": "Feature",
          "properties": {
            "id": "886432025",
            "osm_type": "node",
            "lat": 47.2936557,
            "lon": 9.5371964,
            "name": "Biermuseum",
            "ref": "14",
            "tourism": "museum"
          },
          "geometry": {
            "type": "Point",
            "coordinates": [
              9.5371964,
              47.2936557
            ]
          }
        },
        {
          "type": "Feature",
          "properties": {
            "id": "1124841229",
            "osm_type": "node",
            "lat": 47.3605953,
            "lon": 9.6917135,
            "addr:city": "Hohenems",
            "addr:country": "AT",
            "addr:housenumber": "11",
            "addr:postcode": "6845",
            "addr:street": "Sägerstraße",
            "description": "Technisches Museum",
            "email": "kontakt@museum-stoffels-saege-muehle.at",
            "name": "Stoffels Säge-Mühle",
            "opening_hours": "Apr 25-Oct 31: 09:00-18:00",
            "phone": "+43(0)557672434",
            "tourism": "museum",
            "website": "https://www.museum-stoffels-saege-muehle.at/",
            "wikidata": "Q86495722"
          },
          "geometry": {
            "type": "Point",
            "coordinates": [
              9.6917135,
              47.3605953
            ]
          }
        },
        {
          "type": "Feature",
          "properties": {
            "id": "1132180295",
            "osm_type": "node",
            "lat": 47.1303705,
            "lon": 10.0306722,
            "addr:city": "Wald am Arlberg",
            "addr:country": "AT",
            "addr:housenumber": "11",
            "addr:postcode": "6752",
            "addr:street": "Obere Gasse",
            "contact:email": "christof.thoeny@a1.net",
            "contact:phone": "+43 5585 201",
            "contact:website": "http://www.vorarlbergmuseen.at/museen/klostertalmuseum-wald-am-arlberg/",
            "description": "Kulturgeschichtliches Museum",
            "name": "Klostertalmuseum",
            "opening_hours": "May-Oct: We,Su 14:00-17:00 || \"nach Vereinbarung\"",
            "tourism": "museum",
            "wikidata": "Q1776496",
            "wikipedia": "de:Klostertal-Museum"
          },
          "geometry": {
            "type": "Point",
            "coordinates": [
              10.0306722,
              47.1303705
            ]
          }
        },
        {
          "type": "Feature",
          "properties": {
            "id": "2177531922",
            "osm_type": "node",
            "lat": 47.3305696,
            "lon": 9.60305,
            "contact:email": "gemeinde@koblach.at",
            "contact:phone": "+43 5523 628 75",
            "contact:website": "https://museenvorarlberg.at/museum.php?s=museum-urgeschichte-koblach",
            "fee": "no",
            "name": "Museum Urgeschichte Koblach",
            "tourism": "museum",
            "wikidata": "Q26203867"
          },
          "geometry": {
            "type": "Point",
            "coordinates": [
              9.60305,
              47.3305696
            ]
          }
        },
        {
          "type": "Feature",
          "properties": {
            "id": "2371779882",
            "osm_type": "node",
            "lat": 47.3520275,
            "lon": 9.6202863,
            "name": "Alamannen-Museumsdorf",
            "operator": "Alamannische Brauchtums- und Kulturgemeinschaft Vorarlberg",
            "tourism": "museum",
            "website": "https://www.alamannenkreis.com/museumsdorf/",
            "wikidata": "Q104693069"
          },
          "geometry": {
            "type": "Point",
            "coordinates": [
              9.6202863,
              47.3520275
            ]
          }
        },
        {
          "type": "Feature",
          "properties": {
            "id": "5512411414",
            "osm_type": "node",
            "lat": 47.2234533,
            "lon": 9.8340953,
            "addr:city": "Blons",
            "addr:country": "AT",
            "addr:housenumber": "17a",
            "addr:place": "Blons",
            "addr:postcode": "6723",
            "at_bev:addr_date": "2017-10-01",
            "contact:website": "https://museenvorarlberg.at/museum.php?s=puppenmuseum-blons",
            "name": "Puppenmuseum Blons",
            "tourism": "museum",
            "wikidata": "Q87056485"
          },
          "geometry": {
            "type": "Point",
            "coordinates": [
              9.8340953,
              47.2234533
            ]
          }
        },
        {
          "type": "Feature",
          "properties": {
            "id": "7216241490",
            "osm_type": "node",
            "lat": 47.3639694,
            "lon": 9.6898834,
            "addr:city": "Hohenems",
            "addr:housenumber": "6",
            "addr:postcode": "6845",
            "addr:street": "Marktstraße",
            "email": "info@schubertiade.at",
            "name": "Nibelungenmuseum",
            "operator": "Schubertiade GmbH",
            "tourism": "museum",
            "website": "https://www.schubertiade.at/de/seiten/nibelungen-museum-hohenems.html"
          },
          "geometry": {
            "type": "Point",
            "coordinates": [
              9.6898834,
              47.3639694
            ]
          }
        },
        {
          "type": "Feature",
          "properties": {
            "id": "7223502867",
            "osm_type": "node",
            "lat": 47.3494275,
            "lon": 9.6719491,
            "addr:city": "Hohenems",
            "addr:country": "AT",
            "addr:housenumber": "2/A01",
            "addr:postcode": "6845",
            "addr:street": "Schwefelbadstraße",
            "email": "mail@ottenkunstraum.at",
            "museum": "art",
            "name": "Otten Kunstraum",
            "phone": "+43 5576 90400",
            "tourism": "museum",
            "website": "http://ottenkunstraum.at"
          },
          "geometry": {
            "type": "Point",
            "coordinates": [
              9.6719491,
              47.3494275
            ]
          }
        },
        {
          "type": "Feature",
          "properties": {
            "id": "9573020034",
            "osm_type": "node",
            "lat": 47.3572017,
            "lon": 9.5666682,
            "fee": "no",
            "name": "Schollenmühle",
            "note": "Torfabbau",
            "tourism": "museum",
            "wheelchair": "limited"
          },
          "geometry": {
            "type": "Point",
            "coordinates": [
              9.5666682,
              47.3572017
            ]
          }
        },
        {
          "type": "Feature",
          "properties": {
            "id": "9725127286",
            "osm_type": "node",
            "lat": 47.2190635,
            "lon": 9.6291128,
            "addr:city": "Frastanz",
            "addr:country": "AT",
            "addr:housenumber": "3c",
            "addr:postcode": "6820",
            "addr:street": "Obere Lände",
            "contact:email": "office@museumswelt.com",
            "contact:phone": "+43 5522 51816",
            "name": "Vorarlberger Museumswelt",
            "opening_hours": "We,Sa 13:00-17:00",
            "tourism": "museum",
            "website": "https://www.museumswelt.com/",
            "wikidata": "Q15526129"
          },
          "geometry": {
            "type": "Point",
            "coordinates": [
              9.6291128,
              47.2190635
            ]
          }
        },
        {
          "type": "Feature",
          "properties": {
            "id": "12484247601",
            "osm_type": "node",
            "lat": 47.3223039,
            "lon": 9.9971484,
            "addr:city": "Au",
            "addr:country": "AT",
            "addr:housenumber": "39",
            "addr:place": "Rehmen",
            "addr:postcode": "6883",
            "name": "Barockbaumeister-Museum",
            "tourism": "museum",
            "website": "https://barockbaumeister.at/",
            "wikidata": "Q108690634"
          },
          "geometry": {
            "type": "Point",
            "coordinates": [
              9.9971484,
              47.3223039
            ]
          }
        },
        {
          "type": "Feature",
          "properties": {
            "id": "12623507936",
            "osm_type": "node",
            "lat": 47.2805881,
            "lon": 9.891223,
            "name": "FIS Skimuseum",
            "opening_hours": "Jun 15-Oct 15,Dec-15-Apr 15 Tu,Fr 14:00-17:00",
            "phone": "+43 664 4538196",
            "tourism": "museum",
            "website": "https://www.damuels.at/de/walsertal/kulisse-pfarrhof-fis-skimuseum-damuels.html",
            "wikidata": "Q85760236",
            "wikipedia": "de:FIS-Skimuseum Damüls"
          },
          "geometry": {
            "type": "Point",
            "coordinates": [
              9.891223,
              47.2805881
            ]
          }
        },
        {
          "type": "Feature",
          "properties": {
            "id": "12992298941",
            "osm_type": "node",
            "lat": 47.312189,
            "lon": 10.0162504,
            "level": "1",
            "name": "Felder Museum",
            "opening_hours": "Mo 16:00-18:00; Th 09:00-11:00; Fr 17:00-19:00; Su 09:30-11:30",
            "tourism": "museum"
          },
          "geometry": {
            "type": "Point",
            "coordinates": [
              10.0162504,
              47.312189
            ]
          }
        },
        {
          "type": "Feature",
          "properties": {
            "id": "5485533967",
            "osm_type": "node",
            "lat": 47.1538253,
            "lon": 10.1795958,
            "name": "Hall Of Fame",
            "operator": "Ski Arlberg",
            "tourism": "museum",
            "website": "https://www.skiarlberg.at/de/Lech-Oberlech-Zuers/Wintertainment/Hall-of-Fame"
          },
          "geometry": {
            "type": "Point",
            "coordinates": [
              10.1795958,
              47.1538253
            ]
          }
        },
        {
          "type": "Feature",
          "properties": {
            "id": "5897596541",
            "osm_type": "node",
            "lat": 47.1480127,
            "lon": 10.339793,
            "name": "Kunstraum Pettneu",
            "tourism": "museum",
            "website": "https://www.kunstraum-pettneu.at/",
            "wheelchair": "yes",
            "wikidata": "Q1792599",
            "wikipedia": "de:Kunstraum Pettneu"
          },
          "geometry": {
            "type": "Point",
            "coordinates": [
              10.339793,
              47.1480127
            ]
          }
        },
        {
          "type": "Feature",
          "properties": {
            "id": "7241974631",
            "osm_type": "node",
            "lat": 47.2895072,
            "lon": 10.4338579,
            "addr:housenumber": "47",
            "addr:street": "Elbigenalp",
            "fee": "yes",
            "name": "Wunderkammer Elbigenalp",
            "phone": "+43 5634 20024",
            "tourism": "museum",
            "website": "https://wunderkammer.tirol",
            "wheelchair": "yes",
            "wikidata": "Q85839533"
          },
          "geometry": {
            "type": "Point",
            "coordinates": [
              10.4338579,
              47.2895072
            ]
          }
        }
      ],
      "children": []
    },
    {
      "bbox": {
        "south": 47.033758500000005,
        "west": 10.484655499999999,
        "north": 47.36431175,
        "east": 11.438358999999998
      },
      "poiCount": 39,
      "leafCount": 39,
      "averagePosition": [
        11.167189882051282,
        47.232054246153844
      ],
      "data": [
        {
          "type": "Feature",
          "properties": {
            "id": "1132265010",
            "osm_type": "node",
            "lat": 47.1353486,
            "lon": 10.5686376,
            "addr:city": "Landeck",
            "addr:country": "AT",
            "addr:housenumber": "2",
            "addr:postcode": "6500",
            "addr:street": "Schloßweg",
            "description": "Schlossmuseum",
            "email": "office@schlosslandeck.at",
            "name": "Museum Schloss Landeck",
            "opening_hours": "2011 Jul-Aug: Mo-Su 10:00-17:00",
            "phone": "+43(0)544263202",
            "tourism": "museum",
            "website": "https://www.schlosslandeck.at/",
            "wheelchair": "no",
            "wikidata": "Q93839252"
          },
          "geometry": {
            "type": "Point",
            "coordinates": [
              10.5686376,
              47.1353486
            ]
          }
        },
        {
          "type": "Feature",
          "properties": {
            "id": "1667611009",
            "osm_type": "node",
            "lat": 47.2580581,
            "lon": 10.7744553,
            "name": "Knappenwelt Gurgltal",
            "tourism": "museum",
            "website": "https://knappenwelt.at/",
            "wikidata": "Q50285676"
          },
          "geometry": {
            "type": "Point",
            "coordinates": [
              10.7744553,
              47.2580581
            ]
          }
        },
        {
          "type": "Feature",
          "properties": {
            "id": "2679303650",
            "osm_type": "node",
            "lat": 47.0380726,
            "lon": 10.6086169,
            "name": "Pfarrmuseum Serfaus",
            "tourism": "museum",
            "wikidata": "Q87647608"
          },
          "geometry": {
            "type": "Point",
            "coordinates": [
              10.6086169,
              47.0380726
            ]
          }
        },
        {
          "type": "Feature",
          "properties": {
            "id": "4299227864",
            "osm_type": "node",
            "lat": 47.2616095,
            "lon": 10.7539866,
            "addr:city": "Tarrenz",
            "addr:country": "AT",
            "addr:housenumber": "1",
            "addr:postcode": "6464",
            "addr:street": "Griesegg",
            "name": "BierMythos",
            "operator": "Brauerei Schloss Starkenberg Betriebs GmbH",
            "tourism": "museum",
            "website": "https://www.starkenberger.at/"
          },
          "geometry": {
            "type": "Point",
            "coordinates": [
              10.7539866,
              47.2616095
            ]
          }
        },
        {
          "type": "Feature",
          "properties": {
            "id": "10766159501",
            "osm_type": "node",
            "lat": 47.1197094,
            "lon": 10.6284028,
            "addr:city": "Fließ",
            "addr:country": "AT",
            "addr:housenumber": "89",
            "addr:postcode": "6521",
            "addr:street": "Dorf",
            "name": "Dokumentationszentrum Via Claudia Augusta",
            "opening_hours": "Tu-Su 10:00-12:00,15:00-17:00",
            "source": "geoimage.at",
            "tourism": "museum"
          },
          "geometry": {
            "type": "Point",
            "coordinates": [
              10.6284028,
              47.1197094
            ]
          }
        },
        {
          "type": "Feature",
          "properties": {
            "id": "10883123670",
            "osm_type": "node",
            "lat": 47.0840443,
            "lon": 10.9448503,
            "addr:city": "Längenfeld",
            "addr:country": "AT",
            "addr:housenumber": "23a - 23b",
            "addr:place": "Lehn",
            "name": "Gedächtnisspeicher Ötztal Museen",
            "tourism": "museum",
            "website": "https://oetztalermuseen.at/gedachtnisspeicher/",
            "wheelchair": "no"
          },
          "geometry": {
            "type": "Point",
            "coordinates": [
              10.9448503,
              47.0840443
            ]
          }
        },
        {
          "type": "Feature",
          "properties": {
            "id": "11597995369",
            "osm_type": "node",
            "lat": 47.3151082,
            "lon": 10.8364557,
            "name": "Krippengalerie",
            "tourism": "museum"
          },
          "geometry": {
            "type": "Point",
            "coordinates": [
              10.8364557,
              47.3151082
            ]
          }
        },
        {
          "type": "Feature",
          "properties": {
            "id": "11804437090",
            "osm_type": "node",
            "lat": 47.3144558,
            "lon": 10.8398599,
            "addr:city": "Nassereith",
            "addr:housenumber": "81a",
            "addr:postcode": "6465",
            "addr:street": "Sachsengasse",
            "name": "Fasnachtsmuseum",
            "operator": "Museeumsverein Nassereith",
            "tourism": "museum"
          },
          "geometry": {
            "type": "Point",
            "coordinates": [
              10.8398599,
              47.3144558
            ]
          }
        },
        {
          "type": "Feature",
          "properties": {
            "id": "11897498461",
            "osm_type": "node",
            "lat": 47.3118917,
            "lon": 11.003047,
            "name": "Krippenherberge Wildermieming",
            "opening_hours": "Dec-Feb",
            "tourism": "museum",
            "website": "http://www.krippenherberge.at/",
            "wikidata": "Q94586372"
          },
          "geometry": {
            "type": "Point",
            "coordinates": [
              11.003047,
              47.3118917
            ]
          }
        },
        {
          "type": "Feature",
          "properties": {
            "id": "12124277854",
            "osm_type": "node",
            "lat": 47.1642643,
            "lon": 10.9100596,
            "name": "Oldtimer Museum Route 59",
            "opening_hours": "Th-Su 10:00-18:00",
            "tourism": "museum"
          },
          "geometry": {
            "type": "Point",
            "coordinates": [
              10.9100596,
              47.1642643
            ]
          }
        },
        {
          "type": "Feature",
          "properties": {
            "id": "12245038567",
            "osm_type": "node",
            "lat": 47.0601548,
            "lon": 10.7504343,
            "museum": "history",
            "name": "Flügelmuseum Nufels",
            "tourism": "museum",
            "website": "https://www.kaunertal.com/de/Ihr-Kaunertal/Orte-Sehenswuerdigkeiten/Kaunertal-A-Z/Fluegelmuseum-Nufels_i-3009",
            "wikidata": "Q93840791"
          },
          "geometry": {
            "type": "Point",
            "coordinates": [
              10.7504343,
              47.0601548
            ]
          }
        },
        {
          "type": "Feature",
          "properties": {
            "id": "12245038568",
            "osm_type": "node",
            "lat": 47.0529743,
            "lon": 10.7503511,
            "name": "Talmuseum Kaunertal",
            "operator": "Hotel Weisseespitze",
            "tourism": "museum",
            "website": "https://www.kaunertal.com/de/Ihr-Kaunertal/Orte-Sehenswuerdigkeiten/Kaunertal-A-Z/Talmuseum-Kaunertal_i-2972",
            "wikidata": "Q93437094"
          },
          "geometry": {
            "type": "Point",
            "coordinates": [
              10.7503511,
              47.0529743
            ]
          }
        },
        {
          "type": "Feature",
          "properties": {
            "id": "103128011",
            "osm_type": "node",
            "lat": 47.2686574,
            "lon": 11.3932692,
            "addr:city": "Innsbruck",
            "addr:country": "AT",
            "addr:housenumber": "15",
            "addr:postcode": "6020",
            "addr:street": "Herzog-Friedrich-Straße",
            "contact:phone": "+43 512 53601441",
            "contact:website": "https://www.innsbruck.gv.at/goldenesdachl",
            "email": "goldenes.dachl@innsbruck.gv.at",
            "fee": "yes",
            "int_name": "Golden Roof Museum",
            "level": "2",
            "name": "Museum Goldenes Dachl",
            "name:ar": "السطح الذهبي",
            "name:de": "Museum Goldenes Dachl",
            "name:en": "Golden Roof Museum",
            "opening_hours": "May-Sep: Mo-Su 10:00-17:00; Oct-Apr: Tu-Su 10:00-17:00",
            "toilets": "yes",
            "toilets:access": "customers",
            "toilets:wheelchair": "yes",
            "tourism": "museum",
            "website": "https://www.innsbruck.info/sehenswuerdigkeiten/sightseeing/historische-bauten/detail/infrastruktur/goldenes-dachl-innsbruck.html",
            "wheelchair": "yes",
            "wikidata": "Q700208",
            "wikipedia": "de:Goldenes Dachl"
          },
          "geometry": {
            "type": "Point",
            "coordinates": [
              11.3932692,
              47.2686574
            ]
          }
        },
        {
          "type": "Feature",
          "properties": {
            "id": "312708485",
            "osm_type": "node",
            "lat": 47.2688635,
            "lon": 11.3948986,
            "addr:city": "Innsbruck",
            "addr:country": "AT",
            "addr:housenumber": "1",
            "addr:postcode": "6020",
            "addr:street": "Rennweg",
            "check_date": "2025-07-29",
            "check_date:opening_hours": "2025-07-29",
            "contact:email": "hofburg.ibk@burghauptmannschaft.at",
            "contact:phone": "+43 1536 49814111",
            "contact:website": "http://www.hofburg-innsbruck.at/",
            "fee": "yes",
            "name": "Hofburg",
            "name:ru": "Хофбург",
            "opening_hours": "Mo-Su 09:00-17:00",
            "tourism": "museum",
            "wheelchair": "yes",
            "wikidata": "Q356289",
            "wikipedia": "de:Hofburg (Innsbruck)"
          },
          "geometry": {
            "type": "Point",
            "coordinates": [
              11.3948986,
              47.2688635
            ]
          }
        },
        {
          "type": "Feature",
          "properties": {
            "id": "370371730",
            "osm_type": "node",
            "lat": 47.2533271,
            "lon": 11.3979066,
            "addr:city": "Innsbruck",
            "addr:country": "AT",
            "addr:housenumber": "4",
            "addr:postcode": "6020",
            "addr:street": "Pater-Reinisch-Weg",
            "addr:suburb": "Wilten",
            "contact:phone": "+43 664 11 16 001",
            "museum": "railway",
            "name": "Localbahnmuseum",
            "opening_hours": "May-Oct Sa 09:00-17:00",
            "railway": "museum",
            "tourism": "museum",
            "website": "https://www.tmb.at/",
            "wheelchair": "no",
            "wikidata": "Q2436269",
            "wikipedia": "de:Tiroler Museumsbahnen"
          },
          "geometry": {
            "type": "Point",
            "coordinates": [
              11.3979066,
              47.2533271
            ]
          }
        },
        {
          "type": "Feature",
          "properties": {
            "id": "440637462",
            "osm_type": "node",
            "lat": 47.2518157,
            "lon": 11.3273764,
            "amenity": "townhall",
            "fee": "no",
            "name": "Thurnfels",
            "tourism": "museum",
            "wheelchair": "limited",
            "wikidata": "Q85596465"
          },
          "geometry": {
            "type": "Point",
            "coordinates": [
              11.3273764,
              47.2518157
            ]
          }
        },
        {
          "type": "Feature",
          "properties": {
            "id": "595350802",
            "osm_type": "node",
            "lat": 47.2661153,
            "lon": 11.3909655,
            "addr:city": "Innsbruck",
            "addr:country": "AT",
            "addr:housenumber": "8",
            "addr:postcode": "6020",
            "addr:street": "Adolf-Pichler-Platz",
            "contact:email": "fotoforum@aon.at",
            "contact:phone": "+43 512 664 18 75 808",
            "contact:website": "http://www.fotoforumwest.at/",
            "fee": "no",
            "name": "Fotoforum West",
            "opening_hours": "Tu-Fr 15:00-19:00; Sa 10:00-13:00",
            "phone": "+43 660 5646550",
            "source": "website",
            "tourism": "museum",
            "website": "http://www.fotoforum.cc",
            "wheelchair": "yes"
          },
          "geometry": {
            "type": "Point",
            "coordinates": [
              11.3909655,
              47.2661153
            ]
          }
        },
        {
          "type": "Feature",
          "properties": {
            "id": "599186233",
            "osm_type": "node",
            "lat": 47.256286,
            "lon": 11.398137,
            "addr:city": "Innsbruck",
            "addr:country": "AT",
            "addr:housenumber": "53",
            "addr:postcode": "6020",
            "addr:street": "Leopoldstraße",
            "addr:suburb": "Wilten",
            "check_date": "2025-05-18",
            "contact:email": "museum@grassmair.at",
            "contact:phone": "+43 512 59416 37",
            "contact:website": "http://www.grassmayr.at",
            "fee": "yes",
            "name": "Glockengießerei Grassmayr",
            "opening_hours": "Mo-Fr 10:00-16:00; May-Oct Sa 10:00-16:00; PH off",
            "operator": "Grassmayr Glockengießerei GmbH",
            "phone": "+43 512 59416",
            "tourism": "museum",
            "website": "https://www.grassmayr.at",
            "wheelchair": "yes",
            "wikidata": "Q1531870",
            "wikipedia": "de:Glockengießerei Grassmayr (Innsbruck)"
          },
          "geometry": {
            "type": "Point",
            "coordinates": [
              11.398137,
              47.256286
            ]
          }
        },
        {
          "type": "Feature",
          "properties": {
            "id": "614236395",
            "osm_type": "node",
            "lat": 47.2691042,
            "lon": 11.3927081,
            "addr:city": "Innsbruck",
            "addr:country": "AT",
            "addr:housenumber": "2",
            "addr:postcode": "6020",
            "addr:street": "Badgasse",
            "check_date": "2025-01-12",
            "contact:email": "post.stadtarchiv@innsbruck.gv.at",
            "contact:phone": "+43 512 5360 1400",
            "name": "Stadtmuseum - Stadtarchiv",
            "name:en": "Townmuseum - Stadtarchiv",
            "opening_hours": "Su-Th 09:00-12:00, 13:00-17:00; Fr 09:00-13:00",
            "phone": "+43 512 5360 1400",
            "tourism": "museum",
            "website": "https://www.innsbruck.gv.at/page.cfm?vpath=bildung--kultur/stadtarchiv",
            "wheelchair": "yes",
            "wheelchair:description": "Barrierefreier Zugang über Herzog-Friedrich-Straße 3",
            "wikidata": "Q38065871"
          },
          "geometry": {
            "type": "Point",
            "coordinates": [
              11.3927081,
              47.2691042
            ]
          }
        },
        {
          "type": "Feature",
          "properties": {
            "id": "1627685433",
            "osm_type": "node",
            "lat": 47.2736651,
            "lon": 11.2418286,
            "addr:city": "Zirl",
            "addr:country": "AT",
            "addr:housenumber": "2",
            "addr:postcode": "6170",
            "addr:street": "Dorfplatz",
            "name": "Heimatmuseum",
            "opening_hours": "Tu,We 09:00-12:00; Jan Sa,Su 14:00-17:00; PH off; Nov 2 off",
            "tourism": "museum",
            "wheelchair": "no",
            "wikidata": "Q37817927"
          },
          "geometry": {
            "type": "Point",
            "coordinates": [
              11.2418286,
              47.2736651
            ]
          }
        },
        {
          "type": "Feature",
          "properties": {
            "id": "1675846853",
            "osm_type": "node",
            "lat": 47.3032542,
            "lon": 11.0958196,
            "addr:city": "Oberhofen im Inntal",
            "addr:country": "AT",
            "addr:housenumber": "17",
            "addr:postcode": "6406",
            "addr:street": "Franz-Mader-Straße",
            "museum": "history",
            "name": "Dorfmuseum",
            "opening_hours": "Jun-Oct We 15:00-17:00 || \"nach Vereinbarung\"",
            "source": "website",
            "tourism": "museum",
            "website": "https://museum-oberhofen.at",
            "wikidata": "Q94586692"
          },
          "geometry": {
            "type": "Point",
            "coordinates": [
              11.0958196,
              47.3032542
            ]
          }
        },
        {
          "type": "Feature",
          "properties": {
            "id": "1831883433",
            "osm_type": "node",
            "lat": 47.1534219,
            "lon": 11.3478682,
            "addr:city": "Fulpmes",
            "addr:country": "AT",
            "addr:housenumber": "11",
            "addr:postcode": "6166",
            "addr:street": "Bahnstraße",
            "fee": "yes",
            "name": "Tiroler Krippenmuseum",
            "phone": "+43 5225 62908",
            "tourism": "museum",
            "website": "https://www.krippenmuseum.at/",
            "wikidata": "Q94584647",
            "xmas:feature": "crib_museum"
          },
          "geometry": {
            "type": "Point",
            "coordinates": [
              11.3478682,
              47.1534219
            ]
          }
        },
        {
          "type": "Feature",
          "properties": {
            "id": "1836565801",
            "osm_type": "node",
            "lat": 47.1277749,
            "lon": 11.3344504,
            "addr:city": "Neustift im Stubaital",
            "addr:country": "AT",
            "addr:housenumber": "5",
            "addr:postcode": "6167",
            "addr:street": "Stubaitalstraße",
            "name": "Heimatmuseum „Forsterhaus“",
            "tourism": "museum",
            "website": "https://www.stubai.at/de/stubaital/sehenswuerdigkeiten/heimatmuseum",
            "wikidata": "Q37738160"
          },
          "geometry": {
            "type": "Point",
            "coordinates": [
              11.3344504,
              47.1277749
            ]
          }
        },
        {
          "type": "Feature",
          "properties": {
            "id": "1996216679",
            "osm_type": "node",
            "lat": 47.269426,
            "lon": 11.4155202,
            "addr:city": "Innsbruck",
            "addr:country": "AT",
            "addr:housenumber": "19a",
            "addr:postcode": "6020",
            "addr:street": "Kravoglstraße",
            "addr:suburb": "Pradl",
            "alt_name": "Radiomuseum Schuchter",
            "contact:email": "radiomuseum1931@gmx.at",
            "fee": "yes",
            "level": "0",
            "name": "Radiomuseum Schuchter Innsbruck",
            "opening_hours": "Mo 10:00-13:00, 14:00-17:00; PH off",
            "operator": "Verein Radiomuseum Innsbruck",
            "phone": "+43 676 5537553",
            "short_name": "Radiomuseum",
            "start_date": "2014",
            "tourism": "museum",
            "website": "https://www.radiomuseum-innsbruck.com/",
            "wheelchair": "yes",
            "wikidata": "Q86898467"
          },
          "geometry": {
            "type": "Point",
            "coordinates": [
              11.4155202,
              47.269426
            ]
          }
        },
        {
          "type": "Feature",
          "properties": {
            "id": "2320463223",
            "osm_type": "node",
            "lat": 47.235657,
            "lon": 11.299027,
            "name": "Raetermuseum Hohe Birga",
            "opening_hours": "May-Oct Fr 17:00-19:00; May-Oct Sa 15:00-18:00; May-Oct Su 16:00-18:00",
            "operator": "Verein Archaeotop Hohe Birga",
            "phone": "+43 5234 33233-25",
            "subject:wikidata": "Q1545095",
            "subject:wikipedia": "de:Hohe Birga",
            "tourism": "museum",
            "website": "http://www.hohe-birga.at/",
            "wikidata": "Q87477479",
            "wikimedia_commons": "File:RaetermuseumBirgitz 01.jpg"
          },
          "geometry": {
            "type": "Point",
            "coordinates": [
              11.299027,
              47.235657
            ]
          }
        },
        {
          "type": "Feature",
          "properties": {
            "id": "2887325007",
            "osm_type": "node",
            "lat": 47.2606705,
            "lon": 11.3875467,
            "addr:city": "Innsbruck",
            "addr:country": "AT",
            "addr:housenumber": "15",
            "addr:postcode": "6020",
            "addr:street": "Müllerstraße",
            "addr:suburb": "Wilten",
            "check_date:opening_hours": "2023-11-16",
            "contact:email": "romed.hoermann@i-med.ac.at",
            "contact:website": "http://www.anatomie-innsbruck.at",
            "fee": "no",
            "level": "1",
            "name": "Anatomisches Museum",
            "opening_hours": "Th 15:30-18:00; PH off",
            "tourism": "museum",
            "url": "http://www.anatomie-innsbruck.at/klinisch-funktionelle-anatomie/museum/",
            "wheelchair": "yes",
            "wikidata": "Q60041677"
          },
          "geometry": {
            "type": "Point",
            "coordinates": [
              11.3875467,
              47.2606705
            ]
          }
        },
        {
          "type": "Feature",
          "properties": {
            "id": "3221332425",
            "osm_type": "node",
            "lat": 47.2634691,
            "lon": 11.3967841,
            "addr:city": "Innsbruck",
            "addr:country": "AT",
            "addr:housenumber": "23",
            "addr:postcode": "6020",
            "addr:street": "Wilhelm-Greil-Straße",
            "check_date:opening_hours": "2025-05-18",
            "contact:email": "office@audioversum.at",
            "contact:phone": "+43 57 78899",
            "contact:website": "http://www.audioversum.at",
            "fee": "yes",
            "name": "Audioversum",
            "opening_hours": "Tu-Su 10:00-18:00",
            "operator": "MED-EL Elektromedizinische Geräte Gesellschaft m.b.H.",
            "phone": "+43 57 78899",
            "tourism": "museum",
            "website": "https://www.audioversum.at/",
            "wheelchair": "yes",
            "wikidata": "Q15784345",
            "wikipedia": "de:Audioversum"
          },
          "geometry": {
            "type": "Point",
            "coordinates": [
              11.3967841,
              47.2634691
            ]
          }
        },
        {
          "type": "Feature",
          "properties": {
            "id": "3325770725",
            "osm_type": "node",
            "lat": 47.1553494,
            "lon": 11.3481741,
            "fee": "yes",
            "museum": "history",
            "name": "Schmiedemuseum",
            "seasonal": "summer",
            "tourism": "museum",
            "website": "https://www.fulpmes.gv.at/Schmiedemuseum",
            "wikidata": "Q94585307"
          },
          "geometry": {
            "type": "Point",
            "coordinates": [
              11.3481741,
              47.1553494
            ]
          }
        },
        {
          "type": "Feature",
          "properties": {
            "id": "4726154415",
            "osm_type": "node",
            "lat": 47.2442669,
            "lon": 11.2491153,
            "addr:city": "Oberperfuss",
            "addr:country": "AT",
            "addr:housename": "Peter-Anich-Haus",
            "addr:housenumber": "30",
            "addr:postcode": "6173",
            "addr:street": "Riedl",
            "contact:email": "oberperfuss@innsbruck.info",
            "contact:phone": "+43 5232 81 489",
            "contact:website": "http://www.innsbruck.info/perfuss",
            "fee": "no",
            "name": "Anich-Hueber-Museum",
            "tourism": "museum",
            "wheelchair": "no",
            "wikidata": "Q37763080"
          },
          "geometry": {
            "type": "Point",
            "coordinates": [
              11.2491153,
              47.2442669
            ]
          }
        },
        {
          "type": "Feature",
          "properties": {
            "id": "5471207154",
            "osm_type": "node",
            "lat": 47.2738789,
            "lon": 11.4155976,
            "addr:city": "Innsbruck",
            "addr:country": "AT",
            "addr:housenumber": "11",
            "addr:postcode": "6020",
            "addr:street": "Oswald-Redlich-Straße",
            "addr:suburb": "Pradl",
            "alt_name": "Radiomuseum Roggenhofer",
            "fee": "no",
            "level": "0",
            "name": "Radiomuseum Radiowelt",
            "phone": "+43 664 800931111",
            "short_name": "Radiomuseum",
            "start_date": "2005-10",
            "tourism": "museum",
            "was:operator": "Peter & Doris Roggenhofer",
            "website": "https://www.radiowelt-radiomuseum.at/"
          },
          "geometry": {
            "type": "Point",
            "coordinates": [
              11.4155976,
              47.2738789
            ]
          }
        },
        {
          "type": "Feature",
          "properties": {
            "id": "7086432785",
            "osm_type": "node",
            "lat": 47.2680616,
            "lon": 11.3885304,
            "check_date": "2025-01-02",
            "email": "galerie@mathiasmayr.com",
            "fee": "no",
            "name": "Galerie Mathias Mayr",
            "opening_hours": "Tu-Fr 10:00-12:00,15:00-18:00",
            "phone": "+436507817100",
            "tourism": "museum",
            "website": "http://mathiasmayr.com"
          },
          "geometry": {
            "type": "Point",
            "coordinates": [
              11.3885304,
              47.2680616
            ]
          }
        },
        {
          "type": "Feature",
          "properties": {
            "id": "7745538084",
            "osm_type": "node",
            "lat": 47.3069359,
            "lon": 11.0733962,
            "fee": "no",
            "name": "Fasnacht- und Heimatmuseum Telfs",
            "opening_hours": "Th 14:00-17:00; Fr 17:00-20:00; Sa 09:00-12:00",
            "tourism": "museum",
            "website": "https://www.telfs.at/Museum_im_Noaflhaus"
          },
          "geometry": {
            "type": "Point",
            "coordinates": [
              11.0733962,
              47.3069359
            ]
          }
        },
        {
          "type": "Feature",
          "properties": {
            "id": "8476915976",
            "osm_type": "node",
            "lat": 47.2270185,
            "lon": 11.3774487,
            "addr:city": "Mutters",
            "addr:country": "AT",
            "addr:housenumber": "12",
            "addr:postcode": "6162",
            "addr:street": "Kirchplatz",
            "museum": "art",
            "name": "NIMU - Artur Nikodem Museum",
            "tourism": "museum",
            "website": "https://nimu-nikodemmuseum.at/",
            "wikidata": "Q94585314"
          },
          "geometry": {
            "type": "Point",
            "coordinates": [
              11.3774487,
              47.2270185
            ]
          }
        },
        {
          "type": "Feature",
          "properties": {
            "id": "9152360376",
            "osm_type": "node",
            "lat": 47.3314003,
            "lon": 11.1100233,
            "name": "Bergbauernmuseum",
            "tourism": "museum"
          },
          "geometry": {
            "type": "Point",
            "coordinates": [
              11.1100233,
              47.3314003
            ]
          }
        },
        {
          "type": "Feature",
          "properties": {
            "id": "9801944923",
            "osm_type": "node",
            "lat": 47.2925373,
            "lon": 11.3794804,
            "addr:city": "Innsbruck",
            "addr:housenumber": "36",
            "addr:postcode": "6020",
            "addr:street": "Umbrückleralmweg",
            "museum": "nature",
            "name": "Naturraum Karwendel",
            "opening_hours": "Tu-Su 09:00-18:00",
            "operator": "Stadt Innsbruck;Naturpark Karwendel",
            "operator:type": "public;association",
            "tourism": "museum"
          },
          "geometry": {
            "type": "Point",
            "coordinates": [
              11.3794804,
              47.2925373
            ]
          }
        },
        {
          "type": "Feature",
          "properties": {
            "id": "10653852040",
            "osm_type": "node",
            "lat": 47.2844335,
            "lon": 11.4141913,
            "name": "Kraftwerk der Rauchmühle",
            "note": "sporadisch geöffnet",
            "opening_hours": "off",
            "tourism": "museum"
          },
          "geometry": {
            "type": "Point",
            "coordinates": [
              11.4141913,
              47.2844335
            ]
          }
        },
        {
          "type": "Feature",
          "properties": {
            "id": "11034502653",
            "osm_type": "node",
            "lat": 47.2808062,
            "lon": 11.3983161,
            "name": "Museum Weiherburg",
            "operator": "Tiroler Landesmuseen",
            "tourism": "museum"
          },
          "geometry": {
            "type": "Point",
            "coordinates": [
              11.3983161,
              47.2808062
            ]
          }
        },
        {
          "type": "Feature",
          "properties": {
            "id": "11356427913",
            "osm_type": "node",
            "lat": 47.2621808,
            "lon": 11.3839167,
            "fee": "no",
            "fixme": "Position",
            "museum": "history",
            "name": "Archäologisches Museum Innsbruck",
            "opening_hours": "on request",
            "operator": "Universität Innsbruck",
            "tourism": "museum",
            "website": "https://www.uibk.ac.at/archaeologie-museum/index.html.de",
            "wikidata": "Q87404499"
          },
          "geometry": {
            "type": "Point",
            "coordinates": [
              11.3839167,
              47.2621808
            ]
          }
        },
        {
          "type": "Feature",
          "properties": {
            "id": "11834032378",
            "osm_type": "node",
            "lat": 47.2860468,
            "lon": 11.398952,
            "fee": "yes",
            "museum": "transport",
            "name": "Das kleine Seilbahnmuseum",
            "tourism": "museum",
            "website": "https://nordkette.com/top-of-innsbruck/hungerburgbahn/seilbahnmuseum/",
            "wikidata": "Q94616714"
          },
          "geometry": {
            "type": "Point",
            "coordinates": [
              11.398952,
              47.2860468
            ]
          }
        }
      ],
      "children": []
    },
    {
      "bbox": {
        "south": 47.36431175,
        "west": 9.530952,
        "north": 47.694865,
        "east": 10.484655499999999
      },
      "poiCount": 51,
      "leafCount": 0,
      "averagePosition": [
        9.878259898039216,
        47.5213016745098
      ],
      "data": [],
      "children": [
        {
          "bbox": {
            "south": 47.36431175,
            "west": 9.530952,
            "north": 47.529588375,
            "east": 10.007803749999999
          },
          "poiCount": 18,
          "leafCount": 18,
          "averagePosition": [
            9.673234155555555,
            47.4212727
          ],
          "data": [
            {
              "type": "Feature",
              "properties": {
                "id": "7216241492",
                "osm_type": "node",
                "lat": 47.3653325,
                "lon": 9.6892218,
                "addr:city": "Hohenems",
                "addr:housenumber": "15",
                "addr:postcode": "6845",
                "addr:street": "Marktstraße",
                "email": "info@schubertiade.at",
                "name": "Schubertiade-Museum",
                "operator": "Schubertiade GmbH",
                "tourism": "museum",
                "website": "https://www.schubertiade.at/de/seiten/schubertiade-museum-hohenems.html"
              },
              "geometry": {
                "type": "Point",
                "coordinates": [
                  9.6892218,
                  47.3653325
                ]
              }
            },
            {
              "type": "Feature",
              "properties": {
                "id": "7216241493",
                "osm_type": "node",
                "lat": 47.3643849,
                "lon": 9.6892571,
                "addr:city": "Hohenems",
                "addr:housenumber": "1",
                "addr:postcode": "6845",
                "addr:street": "Schweizer Straße",
                "email": "info@schubertiade.at",
                "museum": "person",
                "name": "Elisabeth-Schwarzkopf-Museum",
                "operator": "Schubertiade GmbH",
                "tourism": "museum",
                "website": "https://www.schubertiade.at/de/seiten/elisabeth-schwarzkopf-museum.html"
              },
              "geometry": {
                "type": "Point",
                "coordinates": [
                  9.6892571,
                  47.3643849
                ]
              }
            },
            {
              "type": "Feature",
              "properties": {
                "id": "7216241494",
                "osm_type": "node",
                "lat": 47.3645311,
                "lon": 9.6894307,
                "addr:city": "Hohenems",
                "addr:housenumber": "5",
                "addr:postcode": "6845",
                "addr:street": "Marktstraße",
                "email": "info@schubertiade.at",
                "museum": "person",
                "name": "Legge-Museum",
                "operator": "Schubertiade GmbH",
                "tourism": "museum",
                "website": "https://www.schubertiade.at/de/seiten/legge-museum-hohenems.html"
              },
              "geometry": {
                "type": "Point",
                "coordinates": [
                  9.6894307,
                  47.3645311
                ]
              }
            },
            {
              "type": "Feature",
              "properties": {
                "id": "7216241496",
                "osm_type": "node",
                "lat": 47.3652789,
                "lon": 9.6892336,
                "addr:city": "Hohenems",
                "addr:housenumber": "15",
                "addr:postcode": "6845",
                "addr:street": "Marktstraße",
                "email": "info@schubertiade.at",
                "name": "Schuhmacher-Museum",
                "operator": "Schubertiade GmbH",
                "tourism": "museum",
                "website": "https://www.schubertiade.at/de/seiten/schuhmacher-museum-hohenems.html"
              },
              "geometry": {
                "type": "Point",
                "coordinates": [
                  9.6892336,
                  47.3652789
                ]
              }
            },
            {
              "type": "Feature",
              "properties": {
                "id": "7216241498",
                "osm_type": "node",
                "lat": 47.3711391,
                "lon": 9.6752718,
                "addr:city": "Hohenems",
                "addr:country": "AT",
                "addr:housenumber": "20",
                "addr:postcode": "6845",
                "addr:street": "Markus-Sittikus-Straße",
                "email": "info@arche-noah-museum.at",
                "name": "Arche Noah - Sammlung Kunst & Natur",
                "operator": "Arche Noah - Sammlung Kunst & Natur gemeinnützige GmbH",
                "tourism": "museum",
                "website": "https://www.arche-noah-museum.at/"
              },
              "geometry": {
                "type": "Point",
                "coordinates": [
                  9.6752718,
                  47.3711391
                ]
              }
            },
            {
              "type": "Feature",
              "properties": {
                "id": "330889988",
                "osm_type": "node",
                "lat": 47.4303617,
                "lon": 9.6551595,
                "name": "Stickereimuseum",
                "tourism": "museum",
                "website": "https://s-mak.at/"
              },
              "geometry": {
                "type": "Point",
                "coordinates": [
                  9.6551595,
                  47.4303617
                ]
              }
            },
            {
              "type": "Feature",
              "properties": {
                "id": "1124817477",
                "osm_type": "node",
                "lat": 47.504903,
                "lon": 9.7530541,
                "addr:city": "Bregenz",
                "addr:country": "AT",
                "addr:housenumber": "4",
                "addr:postcode": "6900",
                "addr:street": "Steinbruchgasse",
                "description": "Technisches Museum",
                "email": "office@pfaenderbahn.at",
                "fee": "yes",
                "name": "Pfänderbahn-Museum",
                "opening_hours": "08:00-19:00; Nov 10-21: \"closed\"",
                "phone": "+43 5574 42 16 00",
                "tourism": "museum",
                "website": "https://www.pfaenderbahn.at/",
                "wheelchair": "yes"
              },
              "geometry": {
                "type": "Point",
                "coordinates": [
                  9.7530541,
                  47.504903
                ]
              }
            },
            {
              "type": "Feature",
              "properties": {
                "id": "1130811411",
                "osm_type": "node",
                "lat": 47.4158138,
                "lon": 9.8511848,
                "addr:city": "Schwarzenberg",
                "addr:country": "AT",
                "addr:housenumber": "34",
                "addr:place": "Brand",
                "addr:postcode": "6867",
                "at_bev:addr_date": "2021-10-01",
                "description": "Kunstmuseum",
                "email": "museum.schwarzenberg@aon.at",
                "fee": "yes",
                "name": "Angelika Kauffmann Museum",
                "phone": "+43(0)55123570",
                "tourism": "museum",
                "website": "http://www.angelika-kauffmann.com/",
                "wheelchair": "limited",
                "wikidata": "Q18694541"
              },
              "geometry": {
                "type": "Point",
                "coordinates": [
                  9.8511848,
                  47.4158138
                ]
              }
            },
            {
              "type": "Feature",
              "properties": {
                "id": "1690334118",
                "osm_type": "node",
                "lat": 47.4118001,
                "lon": 9.7425873,
                "addr:city": "Dornbirn",
                "addr:country": "AT",
                "addr:housenumber": "33",
                "addr:postcode": "6850",
                "addr:street": "Marktstraße",
                "designation": "Architektur",
                "email": "info@v-a-i.at",
                "fax": "+43 5572 51169 9548",
                "name": "vai Vorarlberger Architektur Institut",
                "opening_hours": "Tu-Fr 14:00-17:00; Th 14:00-20:00; Sa 11:00-15:00",
                "opening_hours:office": "Mo - Fr 09:00 - 12:00",
                "operator": "Gemeinnützige Vorarlberger Architektur Dienstleistung GmbH",
                "phone": "+43 5572 51169",
                "toilets:wheelchair": "no",
                "tourism": "museum",
                "website": "https://v-a-i.at/",
                "wheelchair": "yes"
              },
              "geometry": {
                "type": "Point",
                "coordinates": [
                  9.7425873,
                  47.4118001
                ]
              }
            },
            {
              "type": "Feature",
              "properties": {
                "id": "1972927178",
                "osm_type": "node",
                "lat": 47.4533341,
                "lon": 9.5520797,
                "addr:city": "Wolfhalden",
                "addr:country": "CH",
                "addr:housenumber": "61",
                "addr:postcode": "9427",
                "addr:street": "Kronenstrasse",
                "contact:phone": "+41 71 891 21 42",
                "contact:website": "http://museumwolfhalden.ch/",
                "name": "Museum Wolfhalden",
                "opening_hours": "May-Oct Su 10:00-12:00",
                "tourism": "museum",
                "wikidata": "Q27489895"
              },
              "geometry": {
                "type": "Point",
                "coordinates": [
                  9.5520797,
                  47.4533341
                ]
              }
            },
            {
              "type": "Feature",
              "properties": {
                "id": "2429299941",
                "osm_type": "node",
                "lat": 47.4117129,
                "lon": 9.7425633,
                "fee:price": "4",
                "name": "Flatz Museum",
                "opening_hours": "Fr 15:00-17:00; Sa 11:00-17:00",
                "subject": "arts",
                "toilets:wheelchair": "no",
                "tourism": "museum",
                "website": "https://www.flatzmuseum.at/",
                "wheelchair": "yes",
                "wikidata": "Q85760256"
              },
              "geometry": {
                "type": "Point",
                "coordinates": [
                  9.7425633,
                  47.4117129
                ]
              }
            },
            {
              "type": "Feature",
              "properties": {
                "id": "2606146608",
                "osm_type": "node",
                "lat": 47.4660156,
                "lon": 9.5671409,
                "name": "Ortsmuseum",
                "tourism": "museum",
                "website": "http://www.ortsmuseum-thal.ch"
              },
              "geometry": {
                "type": "Point",
                "coordinates": [
                  9.5671409,
                  47.4660156
                ]
              }
            },
            {
              "type": "Feature",
              "properties": {
                "id": "2607485642",
                "osm_type": "node",
                "lat": 47.4884466,
                "lon": 9.5557438,
                "addr:city": "Altenrhein",
                "addr:country": "CH",
                "addr:housenumber": "11",
                "addr:postcode": "9423",
                "addr:street": "Flughafenstrasse",
                "contact:email": "info@fliegermuseum.ch",
                "contact:facebook": "https://www.facebook.com/fliegermuseum.altenrhein",
                "contact:phone": "+41 79 123 33 66",
                "contact:website": "https://www.fliegermuseum.ch/",
                "loc_name": "Fliegermuseum",
                "museum": "aerospace",
                "name": "FFA Museum – Fliegermuseum Fahrzeugmuseum Altenrhein",
                "tourism": "museum",
                "wikidata": "Q1428564"
              },
              "geometry": {
                "type": "Point",
                "coordinates": [
                  9.5557438,
                  47.4884466
                ]
              }
            },
            {
              "type": "Feature",
              "properties": {
                "id": "3577032597",
                "osm_type": "node",
                "lat": 47.4514654,
                "lon": 9.8280969,
                "addr:city": "Alberschwende",
                "addr:country": "AT",
                "addr:housenumber": "579",
                "addr:place": "Hof",
                "addr:postcode": "6861",
                "name": "Heimatmuseum Alberschwende",
                "tourism": "museum",
                "website": "https://www.alberschwende.at/museum.html"
              },
              "geometry": {
                "type": "Point",
                "coordinates": [
                  9.8280969,
                  47.4514654
                ]
              }
            },
            {
              "type": "Feature",
              "properties": {
                "id": "5389728535",
                "osm_type": "node",
                "lat": 47.4125996,
                "lon": 9.7443929,
                "addr:city": "Dornbirn",
                "addr:country": "AT",
                "addr:housenumber": "2",
                "addr:postcode": "6850",
                "addr:street": "Dr. Waibel Straße",
                "check_date:opening_hours": "2024-03-17",
                "contact:phone": "+43 5572 3777 200",
                "email": "erlebniswelt@mohrenbrauerei.at",
                "fee": "yes",
                "name": "Mohren Biererlebniswelt",
                "opening_hours": "Th 10:00-20:00; Fr,Sa 10:00-18:00; Su 10:00-17:00",
                "operator": "Mohrenbrauerei Vertriebs KG",
                "toilets:wheelchair": "yes",
                "tourism": "museum",
                "website": "https://www.mohrenbrauerei.at/de/erlebniswelt-mohren",
                "wheelchair": "yes"
              },
              "geometry": {
                "type": "Point",
                "coordinates": [
                  9.7443929,
                  47.4125996
                ]
              }
            },
            {
              "type": "Feature",
              "properties": {
                "id": "9878464552",
                "osm_type": "node",
                "lat": 47.4445312,
                "lon": 9.5348614,
                "addr:city": "Heiden",
                "addr:country": "CH",
                "addr:housenumber": "5",
                "addr:postcode": "9410",
                "addr:street": "Kirchplatz",
                "fee": "yes",
                "name": "Museum Heiden",
                "opening_hours": "Apr-Oct: We-Su 14:00-17:00; Nov-Mar Sa,Su 14:00-17:00",
                "tourism": "museum",
                "website": "https://www.museum-heiden.ch"
              },
              "geometry": {
                "type": "Point",
                "coordinates": [
                  9.5348614,
                  47.4445312
                ]
              }
            },
            {
              "type": "Feature",
              "properties": {
                "id": "11522031678",
                "osm_type": "node",
                "lat": 47.4533106,
                "lon": 9.5517601,
                "tourism": "museum"
              },
              "geometry": {
                "type": "Point",
                "coordinates": [
                  9.5517601,
                  47.4533106
                ]
              }
            },
            {
              "type": "Feature",
              "properties": {
                "id": "12990191169",
                "osm_type": "node",
                "lat": 47.4079475,
                "lon": 9.6071751,
                "addr:full": "Steigstrasse 17, 9436 Balgach",
                "building": "yes",
                "name": "Ortsmuseum",
                "tourism": "museum"
              },
              "geometry": {
                "type": "Point",
                "coordinates": [
                  9.6071751,
                  47.4079475
                ]
              }
            }
          ],
          "children": []
        },
        {
          "bbox": {
            "south": 47.36431175,
            "west": 10.007803749999999,
            "north": 47.529588375,
            "east": 10.484655499999999
          },
          "poiCount": 9,
          "leafCount": 9,
          "averagePosition": [
            10.31427151111111,
            47.48132521111111
          ],
          "data": [
            {
              "type": "Feature",
              "properties": {
                "id": "364890560",
                "osm_type": "node",
                "lat": 47.4062393,
                "lon": 10.2810153,
                "addr:city": "Oberstdorf",
                "addr:country": "DE",
                "addr:housenumber": "13",
                "addr:postcode": "87561",
                "addr:street": "Oststraße",
                "contact:phone": "+49 8322 5470",
                "fee": "yes",
                "name": "Heimatmuseum Oberstdorf",
                "source": "survey",
                "tourism": "museum",
                "website": "https://www.heimatmuseum-oberstdorf.de/",
                "wheelchair": "no",
                "wikidata": "Q1595612",
                "wikipedia": "de:Heimatmuseum (Oberstdorf)"
              },
              "geometry": {
                "type": "Point",
                "coordinates": [
                  10.2810153,
                  47.4062393
                ]
              }
            },
            {
              "type": "Feature",
              "properties": {
                "id": "436605528",
                "osm_type": "node",
                "lat": 47.4748316,
                "lon": 10.4083773,
                "email": "kutschenmuseum@web.de",
                "fee": "yes",
                "name": "Kutschenmuseum Hinterstein",
                "opening_hours": "Mo-Su 8:00-20:00",
                "operator": "Martin Weber",
                "tourism": "museum",
                "wikidata": "Q1324758",
                "wikipedia": "de:Kutschenmuseum Hinterstein"
              },
              "geometry": {
                "type": "Point",
                "coordinates": [
                  10.4083773,
                  47.4748316
                ]
              }
            },
            {
              "type": "Feature",
              "properties": {
                "id": "1802527933",
                "osm_type": "node",
                "lat": 47.5099146,
                "lon": 10.2792388,
                "addr:city": "Sonthofen",
                "addr:country": "DE",
                "addr:housenumber": "1",
                "addr:postcode": "87527",
                "addr:street": "Sonnenstraße",
                "fee": "yes",
                "name": "AlpenStadtMuseum Sonthofen",
                "opening_hours": "Tu-Su 10:00-18:00",
                "operator": "Stadt Sonthofen",
                "phone": "+49 8321 3300",
                "tourism": "museum",
                "website": "https://www.alpenstadtmuseum.de/",
                "wheelchair": "yes",
                "wikimedia_commons": "File:20250523 xl 1122-AlpenStadtMuseum Sonthofen (28033).jpg"
              },
              "geometry": {
                "type": "Point",
                "coordinates": [
                  10.2792388,
                  47.5099146
                ]
              }
            },
            {
              "type": "Feature",
              "properties": {
                "id": "1802527938",
                "osm_type": "node",
                "lat": 47.5119001,
                "lon": 10.2718578,
                "check_date:opening_hours": "2023-11-08",
                "name": "MBZ-Modell Bahn Zentrum - Stellwerk \"Süd\"",
                "opening_hours:signed": "no",
                "tourism": "museum"
              },
              "geometry": {
                "type": "Point",
                "coordinates": [
                  10.2718578,
                  47.5119001
                ]
              }
            },
            {
              "type": "Feature",
              "properties": {
                "id": "1802527939",
                "osm_type": "node",
                "lat": 47.5095007,
                "lon": 10.2766419,
                "addr:city": "Sonthofen",
                "addr:country": "DE",
                "addr:housenumber": "10",
                "addr:postcode": "87527",
                "addr:street": "Oberstdorfer Straße",
                "contact:phone": "+49 8321 87717",
                "contact:website": "https://www.minimobil-museum.de/",
                "fax": "+49 8321 4464",
                "name": "Mini-Mobil Museum",
                "opening_hours": "We-Fr,Su,PH 11:00-17:00; Nov 15-Dec 26: off; Feb 15-Mar 15: off",
                "tourism": "museum"
              },
              "geometry": {
                "type": "Point",
                "coordinates": [
                  10.2766419,
                  47.5095007
                ]
              }
            },
            {
              "type": "Feature",
              "properties": {
                "id": "1802527941",
                "osm_type": "node",
                "lat": 47.5120471,
                "lon": 10.2788395,
                "fee": "no",
                "long_name": "Museum der Schirme \"Schirme im Wandel der Zeit\"",
                "name": "Museum der Schirme",
                "opening_hours": "Mo-Sa 09:30-12:00, Mo-Fr 14:30-17:00",
                "phone": "+49 8321 619241",
                "tourism": "museum",
                "url": "https://www.alpsee-gruenten.de/museen/pois/ALP/394fa398-dffa-4b56-bd21-03d095140618/museum-der-schirme/"
              },
              "geometry": {
                "type": "Point",
                "coordinates": [
                  10.2788395,
                  47.5120471
                ]
              }
            },
            {
              "type": "Feature",
              "properties": {
                "id": "3544652628",
                "osm_type": "node",
                "lat": 47.4077579,
                "lon": 10.2778579,
                "addr:city": "Oberstdorf",
                "addr:country": "DE",
                "addr:housenumber": "1",
                "addr:postcode": "87561",
                "addr:street": "Marktplatz",
                "contact:phone": "+49 8322 95 94 84",
                "contact:website": "https://www.bergschau.com",
                "fee": "no",
                "name": "Bergschau",
                "opening_hours": "Mo-Su 14:00-18:00; Nov 07-Dec 01 Mo-Th off",
                "tourism": "museum",
                "wheelchair": "no"
              },
              "geometry": {
                "type": "Point",
                "coordinates": [
                  10.2778579,
                  47.4077579
                ]
              }
            },
            {
              "type": "Feature",
              "properties": {
                "id": "4266068586",
                "osm_type": "node",
                "lat": 47.4978804,
                "lon": 10.3807082,
                "name": "Heimat- und Handwerksmuseum Hindelang",
                "opening_hours": "We-Mo 10:00-18:00",
                "tourism": "museum",
                "website": "https://www.heimatdienst-hindelang.de/"
              },
              "geometry": {
                "type": "Point",
                "coordinates": [
                  10.3807082,
                  47.4978804
                ]
              }
            },
            {
              "type": "Feature",
              "properties": {
                "id": "6857826415",
                "osm_type": "node",
                "lat": 47.5018552,
                "lon": 10.3739069,
                "contact:email": "info@heimatdienst-hindelang.de",
                "name": "Nagelschmiede",
                "tourism": "museum",
                "website": "https://www.badhindelang.de/bergdoerfer/veranstaltungen-traditionen/veranstaltungskalender/veranstaltungen/HIN/a2f5a683-fbbf-4679-b194-bdf5a1903a6d/besichtigung-der-ostrachtaler-nagelschmiede"
              },
              "geometry": {
                "type": "Point",
                "coordinates": [
                  10.3739069,
                  47.5018552
                ]
              }
            }
          ],
          "children": []
        },
        {
          "bbox": {
            "south": 47.529588375,
            "west": 9.530952,
            "north": 47.694865,
            "east": 10.007803749999999
          },
          "poiCount": 17,
          "leafCount": 17,
          "averagePosition": [
            9.715845388235294,
            47.6178243882353
          ],
          "data": [
            {
              "type": "Feature",
              "properties": {
                "id": "274868855",
                "osm_type": "node",
                "lat": 47.5977863,
                "lon": 9.5387664,
                "addr:city": "Langenargen",
                "addr:country": "DE",
                "addr:housenumber": "20",
                "addr:postcode": "88085",
                "addr:street": "Marktplatz",
                "description": "Kunstmuseum",
                "name": "Museum Langenargen",
                "opening_hours": "Apr-Oct: Tu-Su 10:00-12:00,14:00-17:00",
                "phone": "+49 7543 2200",
                "tourism": "museum",
                "website": "http://museum-langenargen.de",
                "wheelchair": "no"
              },
              "geometry": {
                "type": "Point",
                "coordinates": [
                  9.5387664,
                  47.5977863
                ]
              }
            },
            {
              "type": "Feature",
              "properties": {
                "id": "275655497",
                "osm_type": "node",
                "lat": 47.5828875,
                "lon": 9.8485878,
                "name": "Handwerkermuseum",
                "tourism": "museum"
              },
              "geometry": {
                "type": "Point",
                "coordinates": [
                  9.8485878,
                  47.5828875
                ]
              }
            },
            {
              "type": "Feature",
              "properties": {
                "id": "366910826",
                "osm_type": "node",
                "lat": 47.6718997,
                "lon": 9.5886357,
                "addr:city": "Tettnang",
                "addr:country": "DE",
                "addr:housenumber": "43",
                "addr:postcode": "88069",
                "addr:street": "Montfortstraße",
                "check_date": "2025-06-23",
                "description": "Kulturgeschichtliches Museum",
                "fee": "yes",
                "name": "Stadtmuseum Tettnang",
                "opening_hours": "closed",
                "phone": "+49 7542 510150",
                "tourism": "museum",
                "website": "https://www.tettnang.de/de/besuchen/sehenswuerdigkeiten/stadtmuseum/",
                "wheelchair": "no",
                "wikidata": "Q76632137"
              },
              "geometry": {
                "type": "Point",
                "coordinates": [
                  9.5886357,
                  47.6718997
                ]
              }
            },
            {
              "type": "Feature",
              "properties": {
                "id": "369025176",
                "osm_type": "node",
                "lat": 47.6900084,
                "lon": 9.616016,
                "addr:city": "Tettnang",
                "addr:country": "DE",
                "addr:housenumber": "22",
                "addr:postcode": "88069",
                "addr:street": "Hopfengut",
                "addr:suburb": "Siggenweiler",
                "contact:email": "mail@hopfengut.de",
                "contact:facebook": "https://www.facebook.com/hopfenmuseum/",
                "contact:fax": "+49 7542 953553",
                "contact:instagram": "https://www.instagram.com/hopfengut_no_20",
                "contact:phone": "+49 7542 952206",
                "fee": "yes",
                "museum": "agriculture",
                "name": "Hopfenmuseum",
                "opening_hours": "Tu-Su 10:30-17:00",
                "operator": "Hopfengut No20 GbR",
                "tourism": "museum",
                "website": "https://www.hopfengut.de",
                "wheelchair": "no",
                "wikidata": "Q76632139"
              },
              "geometry": {
                "type": "Point",
                "coordinates": [
                  9.616016,
                  47.6900084
                ]
              }
            },
            {
              "type": "Feature",
              "properties": {
                "id": "654054701",
                "osm_type": "node",
                "lat": 47.5579698,
                "lon": 9.6611838,
                "amenity": "arts_centre",
                "fee": "yes",
                "name": "Friedensräume",
                "opening_hours": "Tu-Sa 10:00-17:00; Su 14:00-17:00; PH 14:00-17:00; Mo off; Sep-Mar off",
                "tourism": "museum",
                "website": "https://www.friedens-raeume.de",
                "wheelchair": "limited",
                "wikidata": "Q28803311",
                "wikipedia": "de:Friedensmuseum Lindau"
              },
              "geometry": {
                "type": "Point",
                "coordinates": [
                  9.6611838,
                  47.5579698
                ]
              }
            },
            {
              "type": "Feature",
              "properties": {
                "id": "1124717004",
                "osm_type": "node",
                "lat": 47.6697358,
                "lon": 9.5846343,
                "addr:city": "Tettnang",
                "addr:country": "DE",
                "addr:housenumber": "1",
                "addr:postcode": "88069",
                "addr:street": "Montfortplatz",
                "charge": "7 EUR",
                "description": "Kostenlose Führungen stündlich während der Öffnungszeiten zwischen 11-16 Uhr.",
                "email": "tourist-info@tettnang.de",
                "fee": "yes",
                "museum": "history",
                "name": "Schlossmuseum",
                "opening_hours": "Apr-Oct: Tu-Su,PH 11:00-17:00",
                "phone": "+49 7542 952555",
                "tourism": "museum",
                "website": "https://www.schloss-tettnang.de/besuchsinformation",
                "wheelchair": "no"
              },
              "geometry": {
                "type": "Point",
                "coordinates": [
                  9.5846343,
                  47.6697358
                ]
              }
            },
            {
              "type": "Feature",
              "properties": {
                "id": "1124731537",
                "osm_type": "node",
                "lat": 47.6315239,
                "lon": 9.7132337,
                "addr:city": "Achberg",
                "addr:country": "DE",
                "addr:housenumber": "2",
                "addr:postcode": "88147",
                "addr:street": "Achberg",
                "description": "Schloßmuseum",
                "email": "info@schloss-achberg.de",
                "name": "Schloß Achberg",
                "opening_hours": "Apr 26-Oct 12: Fr 14:00-18:00; Apr 26-Oct 12: Sa,Su,PH 10:00-18:00 || Su,PH 14:30+ \"Schlossführungen Gruppenführungen nach Vereinbarung auch außerhalb der Öffnungszeiten\"",
                "phone": "+49 751 859510",
                "tourism": "museum",
                "website": "https://www.schloss-achberg.de/"
              },
              "geometry": {
                "type": "Point",
                "coordinates": [
                  9.7132337,
                  47.6315239
                ]
              }
            },
            {
              "type": "Feature",
              "properties": {
                "id": "1124737318",
                "osm_type": "node",
                "lat": 47.6875525,
                "lon": 9.8356305,
                "addr:city": "Wangen im Allgäu",
                "addr:country": "DE",
                "addr:housenumber": "1",
                "addr:postcode": "88239",
                "addr:street": "Eselberg",
                "description": "Kulturgeschichtliches Museum",
                "email": "tourist@wangen.de",
                "fee": "yes",
                "name": "Städtische Museen Wangen im Allgäu",
                "opening_hours": "Apr 01-Oct 31: Tu-Fr,Su 14:00-17:00; Sa 11:00-17:00",
                "phone": "+49 7522 74115",
                "tourism": "museum",
                "website": "https://www.wangen.de"
              },
              "geometry": {
                "type": "Point",
                "coordinates": [
                  9.8356305,
                  47.6875525
                ]
              }
            },
            {
              "type": "Feature",
              "properties": {
                "id": "1813001034",
                "osm_type": "node",
                "lat": 47.6719794,
                "lon": 9.5885218,
                "addr:city": "Tettnang",
                "addr:country": "DE",
                "addr:housenumber": "41",
                "addr:postcode": "88069",
                "addr:street": "Montfortstraße",
                "check_date": "2025-06-05",
                "description": "Elektronikmuseum",
                "email": "info@emuseum-tettnang.de",
                "fee": "yes",
                "level": "1;2",
                "name": "Elektronikmuseum Tettnang",
                "opening_hours": "Apr-Oct: Tu-Su 14:00-18:00",
                "operator": "Förderverein des Elektronikmuseums Tettnang e.V.",
                "payment:cash": "yes",
                "payment:cryptocurrencies": "no",
                "payment:electronic_purses": "no",
                "phone": "+49175 736 837 0",
                "start_date": "2002",
                "tourism": "museum",
                "website": "https://www.emuseum-tettnang.de/",
                "wheelchair": "no",
                "wikidata": "Q106784930"
              },
              "geometry": {
                "type": "Point",
                "coordinates": [
                  9.5885218,
                  47.6719794
                ]
              }
            },
            {
              "type": "Feature",
              "properties": {
                "id": "3475007146",
                "osm_type": "node",
                "lat": 47.6048058,
                "lon": 9.8912777,
                "addr:city": "Lindenberg im Allgäu",
                "addr:country": "DE",
                "addr:housenumber": "1",
                "addr:postcode": "88161",
                "addr:street": "Museumsplatz",
                "charge": "7 EUR",
                "check_date": "2024-09-08",
                "contact:email": "hutmuseum@lindenberg.de",
                "contact:phone": "+49 8381 9284320",
                "contact:website": "https://www.deutsches-hutmuseum.de/",
                "fee": "yes",
                "internet_access": "wlan",
                "internet_access:fee": "no",
                "name": "Deutsches Hutmuseum",
                "opening_hours": "Tu-Su 09:30-17:00",
                "ref:isil": "DE-MUS-260717",
                "toilets:wheelchair": "yes",
                "tourism": "museum",
                "wheelchair": "yes"
              },
              "geometry": {
                "type": "Point",
                "coordinates": [
                  9.8912777,
                  47.6048058
                ]
              }
            },
            {
              "type": "Feature",
              "properties": {
                "id": "6065865722",
                "osm_type": "node",
                "lat": 47.6620332,
                "lon": 9.9306475,
                "addr:city": "Argenbühl",
                "addr:housenumber": "3",
                "addr:postcode": "88260",
                "addr:street": "Dorfplatz",
                "fee": "yes",
                "name": "Musikmuseum Eglofs",
                "opening_hours": "May-Oct: Su 10:00-12:00,13:30-16:00",
                "tourism": "museum",
                "website": "http://museen.de/allgaeu-schwaebisches-musikmuseum-eglofs-argenbuehl.html"
              },
              "geometry": {
                "type": "Point",
                "coordinates": [
                  9.9306475,
                  47.6620332
                ]
              }
            },
            {
              "type": "Feature",
              "properties": {
                "id": "6301902627",
                "osm_type": "node",
                "lat": 47.5456957,
                "lon": 9.6811511,
                "addr:city": "Lindau (Bodensee)",
                "addr:country": "DE",
                "addr:housenumber": "52",
                "addr:postcode": "88131",
                "addr:street": "Maximilianstraße",
                "check_date:opening_hours": "2025-07-26",
                "email": "museum@lindau.de",
                "fee": "yes",
                "museum": "art",
                "name": "Kunstforum Hundertwasser",
                "old_name": "Kunstmuseum am Inselbahnhof",
                "opening_hours": "Mo-Su 10:00-18:00",
                "operator": "Stadt Lindau (B)",
                "operator:type": "public",
                "phone": "+49 8382 274747850",
                "toilets:wheelchair": "yes",
                "tourism": "museum",
                "website": "https://kultur.lindau.de/kunstforum/",
                "wheelchair": "yes"
              },
              "geometry": {
                "type": "Point",
                "coordinates": [
                  9.6811511,
                  47.5456957
                ]
              }
            },
            {
              "type": "Feature",
              "properties": {
                "id": "8080996888",
                "osm_type": "node",
                "lat": 47.5748608,
                "lon": 9.6090962,
                "addr:city": "Nonnenhorn",
                "addr:housenumber": "4",
                "addr:postcode": "88149",
                "addr:street": "Seehalde",
                "charge": "no",
                "check_date": "2024-10-03",
                "fee": "no",
                "name": "Dorfmuseum",
                "tourism": "museum",
                "website": "http://www.museum-nonnenhorn.de/"
              },
              "geometry": {
                "type": "Point",
                "coordinates": [
                  9.6090962,
                  47.5748608
                ]
              }
            },
            {
              "type": "Feature",
              "properties": {
                "id": "8148318712",
                "osm_type": "node",
                "lat": 47.5667636,
                "lon": 9.6299332,
                "museum": "local_history",
                "name": "Im Malhaus",
                "opening_hours": "We-Fr 10:30-12:30; Sa 14:30-17:00; Su 10:30-12:30,14:30-17:00",
                "tourism": "museum",
                "website": "http://www.museum-im-malhaus.de/",
                "wikidata": "Q1954715",
                "wikipedia": "de:Museum im Malhaus"
              },
              "geometry": {
                "type": "Point",
                "coordinates": [
                  9.6299332,
                  47.5667636
                ]
              }
            },
            {
              "type": "Feature",
              "properties": {
                "id": "8757568278",
                "osm_type": "node",
                "lat": 47.5625641,
                "lon": 9.9428234,
                "contact:website": "https://www.heimatdienst-oberreute.de",
                "name": "Heimatstube",
                "tourism": "museum"
              },
              "geometry": {
                "type": "Point",
                "coordinates": [
                  9.9428234,
                  47.5625641
                ]
              }
            },
            {
              "type": "Feature",
              "properties": {
                "id": "12101304107",
                "osm_type": "node",
                "lat": 47.677766,
                "lon": 9.8226372,
                "fee": "no",
                "name": "Wasserkraftwerk",
                "opening_hours": "Su[2] 14:00-17:00",
                "tourism": "museum"
              },
              "geometry": {
                "type": "Point",
                "coordinates": [
                  9.8226372,
                  47.677766
                ]
              }
            },
            {
              "type": "Feature",
              "properties": {
                "id": "13026806593",
                "osm_type": "node",
                "lat": 47.5471821,
                "lon": 9.6865953,
                "addr:city": "Lindau (Bodensee)",
                "addr:country": "DE",
                "addr:housenumber": "6",
                "addr:postcode": "88131",
                "addr:street": "Marktplatz",
                "description": "Kulturgeschichtliches Museum",
                "email": "museum@lindau.de",
                "fee": "yes",
                "name": "Cavazzen Museum",
                "opening_hours": "Tu-Su 10:00-18:00; Mo closed",
                "operator": "Stadt Lindau (B)",
                "operator:type": "public",
                "phone": "+49 8382 918810",
                "tourism": "museum",
                "website": "https://kultur.lindau.de/cavazzen-museum/",
                "wheelchair": "limited",
                "wikidata": "Q15848825",
                "wikipedia": "de:Stadtmuseum Lindau"
              },
              "geometry": {
                "type": "Point",
                "coordinates": [
                  9.6865953,
                  47.5471821
                ]
              }
            }
          ],
          "children": []
        },
        {
          "bbox": {
            "south": 47.529588375,
            "west": 10.007803749999999,
            "north": 47.694865,
            "east": 10.484655499999999
          },
          "poiCount": 7,
          "leafCount": 7,
          "averagePosition": [
            10.239317828571428,
            47.59550504285715
          ],
          "data": [
            {
              "type": "Feature",
              "properties": {
                "id": "486090911",
                "osm_type": "node",
                "lat": 47.5555466,
                "lon": 10.0238818,
                "fee": "yes",
                "name": "Heimatmuseum \"Beim Strumpfar\"",
                "opening_hours": "We,Fr 15:00-17:00; Su 10:00-12:00",
                "tourism": "museum",
                "website": "https://www.allgaeu.de/a-heimatmuseum-beim-strumpfar"
              },
              "geometry": {
                "type": "Point",
                "coordinates": [
                  10.0238818,
                  47.5555466
                ]
              }
            },
            {
              "type": "Feature",
              "properties": {
                "id": "338331767",
                "osm_type": "node",
                "lat": 47.5618338,
                "lon": 10.2212963,
                "alt_name": "Museum Hofmühle",
                "name": "Heimatmuseum Hofmühle",
                "tourism": "museum",
                "wheelchair": "limited"
              },
              "geometry": {
                "type": "Point",
                "coordinates": [
                  10.2212963,
                  47.5618338
                ]
              }
            },
            {
              "type": "Feature",
              "properties": {
                "id": "1124744660",
                "osm_type": "node",
                "lat": 47.6943502,
                "lon": 10.0415526,
                "addr:city": "Isny im Allgäu",
                "addr:country": "DE",
                "addr:housenumber": "40",
                "addr:postcode": "88316",
                "addr:street": "Wassertorstraße",
                "description": "Kulturgeschichtliches Museum",
                "email": "info@rathaus.isny.de",
                "name": "Wassertormuseum",
                "opening_hours": "Mo 19:00+; We 14:00+; Su 10:00+ || \"Führung, Sonderführungen nach Vereinbarung.\"",
                "phone": "+49 7562 93434",
                "tourism": "museum",
                "website": "https://www.isny.de/kultur/sehenswuerdigkeiten/museen/wassertor-museum.html"
              },
              "geometry": {
                "type": "Point",
                "coordinates": [
                  10.0415526,
                  47.6943502
                ]
              }
            },
            {
              "type": "Feature",
              "properties": {
                "id": "1637981138",
                "osm_type": "node",
                "lat": 47.602211,
                "lon": 10.4156499,
                "contact:phone": "+49 8365 70 21 99",
                "contact:website": "https://www.wertach.de",
                "name": "Heimatmuseum",
                "tourism": "museum"
              },
              "geometry": {
                "type": "Point",
                "coordinates": [
                  10.4156499,
                  47.602211
                ]
              }
            },
            {
              "type": "Feature",
              "properties": {
                "id": "4181871934",
                "osm_type": "node",
                "lat": 47.5390313,
                "lon": 10.3219168,
                "email": "info@erzgruben.de",
                "fax": "+49 8321 - 672222",
                "fee": "yes",
                "name": "Museumsdorf Erzgruben",
                "opening_hours": "May-Oct PH,We-Mo 10:00-17:00",
                "operator": "Erzgruben Burgberg e.V.",
                "phone": "+49 8321 - 7884646",
                "tourism": "museum",
                "website": "https://www.erzgruben.de/erz/erz_and/erz_and.htm",
                "wheelchair": "no"
              },
              "geometry": {
                "type": "Point",
                "coordinates": [
                  10.3219168,
                  47.5390313
                ]
              }
            },
            {
              "type": "Feature",
              "properties": {
                "id": "7242824471",
                "osm_type": "node",
                "lat": 47.5693635,
                "lon": 10.1929857,
                "check_date": "2025-05-27",
                "fee": "no",
                "museum": "nature",
                "name": "Naturparkzentrum Nagelfluhkette",
                "opening_hours": "Apr-Oct: 10:00-18:00; Nov-Mar: 10:00-16:00; Dec 24-25 off, Jan 01 off",
                "phone": "+49 8323 99 88 77",
                "toilets:wheelchair": "yes",
                "tourism": "museum",
                "website": "https://nagelfluhkette.info/",
                "wheelchair": "yes"
              },
              "geometry": {
                "type": "Point",
                "coordinates": [
                  10.1929857,
                  47.5693635
                ]
              }
            },
            {
              "type": "Feature",
              "properties": {
                "id": "7881308293",
                "osm_type": "node",
                "lat": 47.6461989,
                "lon": 10.4579417,
                "fee": "yes",
                "museum": "nature",
                "name": "Allgäuer Steinerlebniswelt",
                "tourism": "museum",
                "website": "https://www.steinerlebniswelt.de/68/willkommen"
              },
              "geometry": {
                "type": "Point",
                "coordinates": [
                  10.4579417,
                  47.6461989
                ]
              }
            }
          ],
          "children": []
        }
      ]
    },
    {
      "bbox": {
        "south": 47.36431175,
        "west": 10.484655499999999,
        "north": 47.694865,
        "east": 11.438358999999998
      },
      "poiCount": 34,
      "leafCount": 34,
      "averagePosition": [
        10.818811779411766,
        47.57076957352941
      ],
      "data": [
        {
          "type": "Feature",
          "properties": {
            "id": "1944195304",
            "osm_type": "node",
            "lat": 47.4980898,
            "lon": 10.5181813,
            "addr:city": "Tannheim",
            "addr:country": "AT",
            "addr:housenumber": "6",
            "addr:postcode": "6675",
            "addr:street": "Höf",
            "alt_name": "Felixe Minas Haus",
            "contact:email": "kultur@tannheim.tirol.gv.at",
            "description:de": "Führungen ohne Voranmeldung",
            "fee": "yes",
            "museum": "local",
            "name": "Felixé Mina`s Haus",
            "opening_hours": "Mo 10:45, Th-Fr 16:00",
            "phone": "+43 5675 620360",
            "tourism": "museum",
            "website": "https://www.tannheimertal.at/felixe-minas-haus",
            "wikidata": "Q37993916"
          },
          "geometry": {
            "type": "Point",
            "coordinates": [
              10.5181813,
              47.4980898
            ]
          }
        },
        {
          "type": "Feature",
          "properties": {
            "id": "4990751708",
            "osm_type": "node",
            "lat": 47.6219088,
            "lon": 10.4992611,
            "contact:phone": "+49 8361 3 09 77",
            "contact:website": "https://www.monica-meyer-nusser.de",
            "description": "Eingang über Hotel Post",
            "name": "Ostereier-Museum",
            "opening_hours": "Mo-Su 10:00-20:00",
            "tourism": "museum",
            "wheelchair": "limited"
          },
          "geometry": {
            "type": "Point",
            "coordinates": [
              10.4992611,
              47.6219088
            ]
          }
        },
        {
          "type": "Feature",
          "properties": {
            "id": "9405220606",
            "osm_type": "node",
            "lat": 47.6212975,
            "lon": 10.5015017,
            "fee": "no",
            "name": "Skimuseum",
            "tourism": "museum"
          },
          "geometry": {
            "type": "Point",
            "coordinates": [
              10.5015017,
              47.6212975
            ]
          }
        },
        {
          "type": "Feature",
          "properties": {
            "id": "9407125686",
            "osm_type": "node",
            "lat": 47.6212055,
            "lon": 10.502907,
            "addr:city": "Nesselwang",
            "addr:housenumber": "13",
            "addr:postcode": "87484",
            "addr:street": "Füssener Straße",
            "museum": "local",
            "name": "Heimathaus",
            "tourism": "museum",
            "wikidata": "Q76628709"
          },
          "geometry": {
            "type": "Point",
            "coordinates": [
              10.502907,
              47.6212055
            ]
          }
        },
        {
          "type": "Feature",
          "properties": {
            "id": "523126186",
            "osm_type": "node",
            "lat": 47.5665982,
            "lon": 10.6994589,
            "addr:city": "Füssen",
            "addr:housenumber": "3",
            "addr:postcode": "87629",
            "addr:street": "Lechhalde",
            "fee": "yes",
            "name": "Museum der Stadt Füssen",
            "name:zh": "福森博物館",
            "opening_hours": "Apr-Oct: Tu-Su 11:00-17:00; Nov-Mar: Fr-Su 13:00-16:00",
            "phone": "+49 8362 90314",
            "toilets:wheelchair": "yes",
            "tourism": "museum",
            "website": "https://www.stadt-fuessen.de/Kultur/Museen-und-Kunst/Museum-der-Stadt",
            "wheelchair": "yes",
            "wikidata": "Q76627637",
            "wikipedia": "de:Museum der Stadt Füssen"
          },
          "geometry": {
            "type": "Point",
            "coordinates": [
              10.6994589,
              47.5665982
            ]
          }
        },
        {
          "type": "Feature",
          "properties": {
            "id": "1158561154",
            "osm_type": "node",
            "lat": 47.6046296,
            "lon": 10.5869409,
            "fee": "no",
            "name": "Burgenmuseum Eisenberg",
            "opening_hours": "easter-Oct: Sa,Su,PH 14:00-17:00, Jul-Aug: We 14:00-17:00",
            "tourism": "museum",
            "wikidata": "Q76627485"
          },
          "geometry": {
            "type": "Point",
            "coordinates": [
              10.5869409,
              47.6046296
            ]
          }
        },
        {
          "type": "Feature",
          "properties": {
            "id": "1820804485",
            "osm_type": "node",
            "lat": 47.4908549,
            "lon": 10.7174499,
            "fee": "yes",
            "name": "Grünes Haus",
            "tourism": "museum",
            "wikidata": "Q120728837",
            "wikipedia": "de:Museum im Grünen Haus"
          },
          "geometry": {
            "type": "Point",
            "coordinates": [
              10.7174499,
              47.4908549
            ]
          }
        },
        {
          "type": "Feature",
          "properties": {
            "id": "1944143853",
            "osm_type": "node",
            "lat": 47.42088,
            "lon": 10.7915262,
            "addr:city": "Bichlbach",
            "addr:country": "AT",
            "addr:housenumber": "31",
            "addr:postcode": "6621",
            "addr:street": "Wahl",
            "contact:phone": "+43 5674 5205",
            "contact:website": "http://www.zunftmuseum.at",
            "name": "Zunftmuseum",
            "tourism": "museum",
            "wikidata": "Q93436934"
          },
          "geometry": {
            "type": "Point",
            "coordinates": [
              10.7915262,
              47.42088
            ]
          }
        },
        {
          "type": "Feature",
          "properties": {
            "id": "2478171571",
            "osm_type": "node",
            "lat": 47.5698908,
            "lon": 10.5917603,
            "addr:city": "Pfronten",
            "addr:postcode": "87459",
            "fee": "no",
            "name": "Museum Falkenstein",
            "tourism": "museum"
          },
          "geometry": {
            "type": "Point",
            "coordinates": [
              10.5917603,
              47.5698908
            ]
          }
        },
        {
          "type": "Feature",
          "properties": {
            "id": "3010949533",
            "osm_type": "node",
            "lat": 47.6029582,
            "lon": 10.5368164,
            "addr:city": "Pfronten",
            "addr:country": "DE",
            "addr:housenumber": "18",
            "addr:postcode": "87459",
            "addr:street": "Kreuzleweg",
            "addr:suburb": "Kappel",
            "name": "Allgäuer Steinerlebniswelt",
            "phone": "+49 8363 926612",
            "tourism": "museum",
            "website": "https://www.steinerlebniswelt.de/",
            "wheelchair": "no"
          },
          "geometry": {
            "type": "Point",
            "coordinates": [
              10.5368164,
              47.6029582
            ]
          }
        },
        {
          "type": "Feature",
          "properties": {
            "id": "3326316790",
            "osm_type": "node",
            "lat": 47.6516788,
            "lon": 10.6063135,
            "addr:city": "Seeg",
            "addr:housenumber": "66",
            "addr:postcode": "87637",
            "addr:street": "Hauptstraße",
            "fee": "yes",
            "name": "Erlebnisimkerei",
            "tourism": "museum"
          },
          "geometry": {
            "type": "Point",
            "coordinates": [
              10.6063135,
              47.6516788
            ]
          }
        },
        {
          "type": "Feature",
          "properties": {
            "id": "3326316792",
            "osm_type": "node",
            "lat": 47.6516997,
            "lon": 10.606539,
            "addr:city": "Seeg",
            "addr:housenumber": "66",
            "addr:postcode": "87637",
            "addr:street": "Hauptstraße",
            "fee": "yes",
            "name": "Heimatmuseum Seeg",
            "tourism": "museum",
            "wikidata": "Q76629479"
          },
          "geometry": {
            "type": "Point",
            "coordinates": [
              10.606539,
              47.6516997
            ]
          }
        },
        {
          "type": "Feature",
          "properties": {
            "id": "4985695631",
            "osm_type": "node",
            "lat": 47.4212151,
            "lon": 10.9843044,
            "fee": "yes",
            "name": "Faszination Erlebnismuseum Zugspitze",
            "opening_hours": "Mo-Su 09:00-17:00",
            "tourism": "museum"
          },
          "geometry": {
            "type": "Point",
            "coordinates": [
              10.9843044,
              47.4212151
            ]
          }
        },
        {
          "type": "Feature",
          "properties": {
            "id": "6013596131",
            "osm_type": "node",
            "lat": 47.4089774,
            "lon": 10.7496083,
            "name": "Heimatmuseeum",
            "tourism": "museum"
          },
          "geometry": {
            "type": "Point",
            "coordinates": [
              10.7496083,
              47.4089774
            ]
          }
        },
        {
          "type": "Feature",
          "properties": {
            "id": "8629343352",
            "osm_type": "node",
            "lat": 47.5961137,
            "lon": 10.5378285,
            "fee": "no",
            "museum": "history",
            "museum_type": "municipal",
            "name": "Heumuseum Pfrontener Wiesheustadel",
            "opening_hours": "24/7",
            "tourism": "museum",
            "wheelchair": "limited",
            "wikimedia_commons": "Category:Heumuseum Pfrontener Wiesheustadel"
          },
          "geometry": {
            "type": "Point",
            "coordinates": [
              10.5378285,
              47.5961137
            ]
          }
        },
        {
          "type": "Feature",
          "properties": {
            "id": "8797478108",
            "osm_type": "node",
            "lat": 47.5578108,
            "lon": 10.6928012,
            "addr:city": "Füssen",
            "addr:country": "DE",
            "addr:housenumber": "10",
            "addr:postcode": "87629",
            "addr:street": "Tiroler Straße",
            "contact:email": "info@walderlebniszentrum.eu",
            "contact:phone": "+49 8341 9002-2150",
            "contact:website": "https://www.walderlebniszentrum.eu/",
            "fee": "no",
            "museum": "nature",
            "name": "Walderlebniszentrum Ziegelwies",
            "opening_hours": "Mo-Su 09:00-19:30",
            "toilets:wheelchair": "yes",
            "tourism": "museum",
            "wheelchair": "yes"
          },
          "geometry": {
            "type": "Point",
            "coordinates": [
              10.6928012,
              47.5578108
            ]
          }
        },
        {
          "type": "Feature",
          "properties": {
            "id": "8911591190",
            "osm_type": "node",
            "lat": 47.3976954,
            "lon": 10.9169309,
            "alt_name": "Museum im Spinnhof",
            "name": "Ehrwalder Heimatmuseum",
            "source": "LT",
            "tourism": "museum"
          },
          "geometry": {
            "type": "Point",
            "coordinates": [
              10.9169309,
              47.3976954
            ]
          }
        },
        {
          "type": "Feature",
          "properties": {
            "id": "9671623399",
            "osm_type": "node",
            "lat": 47.5559781,
            "lon": 10.6254313,
            "addr:city": "Vils",
            "addr:housenumber": "15",
            "addr:postcode": "6682",
            "addr:street": "Ritterweg",
            "museum": "history",
            "name": "Hammerschmiede",
            "opening_hours": "May-Oct: We 13:30-15:00",
            "tourism": "museum",
            "website": "https://hammerschmiede-vils.at/"
          },
          "geometry": {
            "type": "Point",
            "coordinates": [
              10.6254313,
              47.5559781
            ]
          }
        },
        {
          "type": "Feature",
          "properties": {
            "id": "10156470217",
            "osm_type": "node",
            "lat": 47.5482082,
            "lon": 10.6296073,
            "addr:city": "Vils",
            "addr:country": "AT",
            "addr:housenumber": "17",
            "addr:postcode": "6682",
            "addr:street": "Stadtgasse",
            "name": "Stadtmuseum",
            "tourism": "museum",
            "wikidata": "Q1725826",
            "wikipedia": "de:Museum der Stadt Vils"
          },
          "geometry": {
            "type": "Point",
            "coordinates": [
              10.6296073,
              47.5482082
            ]
          }
        },
        {
          "type": "Feature",
          "properties": {
            "id": "10968732922",
            "osm_type": "node",
            "lat": 47.5826782,
            "lon": 10.7343627,
            "addr:city": "Schwangau",
            "addr:housenumber": "11",
            "addr:postcode": "87645",
            "addr:street": "Tassiloweg",
            "name": "Feuerwehrmuseum Schwangau",
            "opening_hours": "May-Sep: We 15:00-17:00",
            "tourism": "museum",
            "wikidata": "Q76629463"
          },
          "geometry": {
            "type": "Point",
            "coordinates": [
              10.7343627,
              47.5826782
            ]
          }
        },
        {
          "type": "Feature",
          "properties": {
            "id": "10970451738",
            "osm_type": "node",
            "lat": 47.6547442,
            "lon": 10.7190926,
            "addr:city": "Roßhaupten",
            "addr:housenumber": "1",
            "addr:postcode": "87672",
            "addr:street": "Hauptstraße",
            "name": "Dorfmuseum",
            "tourism": "museum",
            "website": "https://gemeinde.rosshaupten.de/vereine/dorfmuseum",
            "wikidata": "Q16318889",
            "wikipedia": "de:Dorfmuseum im Pfannerhaus"
          },
          "geometry": {
            "type": "Point",
            "coordinates": [
              10.7190926,
              47.6547442
            ]
          }
        },
        {
          "type": "Feature",
          "properties": {
            "id": "10983774784",
            "osm_type": "node",
            "lat": 47.5535573,
            "lon": 10.7362242,
            "addr:city": "Schwangau",
            "addr:country": "DE",
            "addr:housenumber": "27",
            "addr:postcode": "87645",
            "addr:street": "Alpseestraße",
            "addr:suburb": "Hohenschwangau",
            "fee": "yes",
            "name": "Museum der bayerischen Könige",
            "name:en": "Museum of the Bavarian Kings",
            "name:zh": "巴伐利亞國王博物館",
            "toilets:wheelchair": "yes",
            "tourism": "museum",
            "website": "https://www.hohenschwangau.de/museum_der_bayerischen_koenige.html",
            "wheelchair": "yes",
            "wikidata": "Q15122158",
            "wikipedia": "de:Museum der bayerischen Könige"
          },
          "geometry": {
            "type": "Point",
            "coordinates": [
              10.7362242,
              47.5535573
            ]
          }
        },
        {
          "type": "Feature",
          "properties": {
            "id": "11065411507",
            "osm_type": "node",
            "lat": 47.6412275,
            "lon": 10.831061,
            "addr:city": "Halblech",
            "addr:housenumber": "3",
            "addr:postcode": "87642",
            "addr:street": "Am Feuerhaus",
            "name": "Dorfmuseum",
            "tourism": "museum",
            "wikidata": "Q76627814"
          },
          "geometry": {
            "type": "Point",
            "coordinates": [
              10.831061,
              47.6412275
            ]
          }
        },
        {
          "type": "Feature",
          "properties": {
            "id": "12145102216",
            "osm_type": "node",
            "lat": 47.6908607,
            "lon": 10.994942,
            "name": "Museum im Bierlinghaus",
            "operator": "Gemeinde Bad Bayersoien",
            "phone": "+49 8845 703060",
            "tourism": "museum",
            "website": "https://www.gemeinde-bad-bayersoien.de/einrichtungen/museum"
          },
          "geometry": {
            "type": "Point",
            "coordinates": [
              10.994942,
              47.6908607
            ]
          }
        },
        {
          "type": "Feature",
          "properties": {
            "id": "12282100812",
            "osm_type": "node",
            "lat": 47.6158971,
            "lon": 11.0267003,
            "name": "Wetzsteinmuseum",
            "tourism": "museum"
          },
          "geometry": {
            "type": "Point",
            "coordinates": [
              11.0267003,
              47.6158971
            ]
          }
        },
        {
          "type": "Feature",
          "properties": {
            "id": "299499722",
            "osm_type": "node",
            "lat": 47.44263,
            "lon": 11.2604958,
            "contact:website": "http://www.geigenbaumuseum-mittenwald.de/",
            "name": "Geigenbau-Museum",
            "opening_hours:url": "http://www.geigenbaumuseum-mittenwald.de/index.php?id=76",
            "tourism": "museum",
            "wikidata": "Q29413558"
          },
          "geometry": {
            "type": "Point",
            "coordinates": [
              11.2604958,
              47.44263
            ]
          }
        },
        {
          "type": "Feature",
          "properties": {
            "id": "847299784",
            "osm_type": "node",
            "lat": 47.5985646,
            "lon": 11.0633022,
            "email": "museum@gemeinde-oberammergau.de",
            "fax": "+498822 / 9 49 88 12",
            "fee": "yes",
            "name": "Oberammergau Museum",
            "opening_hours": "Tu-Su 10:00-17:00",
            "phone": "+49882294136",
            "tourism": "museum",
            "website": "https://www.oberammergaumuseum.de",
            "wheelchair": "yes"
          },
          "geometry": {
            "type": "Point",
            "coordinates": [
              11.0633022,
              47.5985646
            ]
          }
        },
        {
          "type": "Feature",
          "properties": {
            "id": "1453428054",
            "osm_type": "node",
            "lat": 47.4481468,
            "lon": 11.0442358,
            "fee": "no",
            "image": "https://commons.wikimedia.org/wiki/File:H%C3%B6llentalmuseum.jpg",
            "name": "Höllental Museum",
            "tourism": "museum"
          },
          "geometry": {
            "type": "Point",
            "coordinates": [
              11.0442358,
              47.4481468
            ]
          }
        },
        {
          "type": "Feature",
          "properties": {
            "id": "4331972690",
            "osm_type": "node",
            "lat": 47.6774287,
            "lon": 11.2030936,
            "addr:city": "Murnau a.Staffelsee",
            "contact:city": "Murnau am Staffelsee",
            "contact:housenumber": "4-5",
            "contact:postcode": "82418",
            "contact:street": "Schlosshof",
            "name": "Schlossmuseum Murnau",
            "phone": "+49 8841 476201",
            "toilets:wheelchair": "yes",
            "tourism": "museum",
            "website": "https://schlossmuseum-murnau.de/",
            "wheelchair": "yes",
            "wikidata": "Q2244929"
          },
          "geometry": {
            "type": "Point",
            "coordinates": [
              11.2030936,
              47.6774287
            ]
          }
        },
        {
          "type": "Feature",
          "properties": {
            "id": "7004594614",
            "osm_type": "node",
            "lat": 47.6187969,
            "lon": 11.0360375,
            "addr:city": "Unterammergau",
            "addr:country": "DE",
            "addr:housenumber": "32",
            "addr:postcode": "82497",
            "addr:street": "Weiherweg",
            "email": "info@lartor.de",
            "fee": "yes",
            "name": "mSE Kunsthalle",
            "opening_hours": "Mo-Su 08:00-17:00",
            "phone": "+498822939910",
            "tourism": "museum",
            "website": "https://www.mse-kunsthalle.de/",
            "wheelchair": "yes"
          },
          "geometry": {
            "type": "Point",
            "coordinates": [
              11.0360375,
              47.6187969
            ]
          }
        },
        {
          "type": "Feature",
          "properties": {
            "id": "7366418064",
            "osm_type": "node",
            "lat": 47.6323278,
            "lon": 11.232335,
            "addr:city": "Ohlstadt",
            "addr:country": "DE",
            "addr:housenumber": "22",
            "addr:postcode": "82441",
            "addr:street": "von-Kaulbach-Straße",
            "fee": "yes",
            "name": "Dorfmuseum Ohlstadt im Kaulbachhaus",
            "opening_hours": "Apr-Oct: We,Sa 15:00-17:00",
            "tourism": "museum",
            "wheelchair": "no"
          },
          "geometry": {
            "type": "Point",
            "coordinates": [
              11.232335,
              47.6323278
            ]
          }
        },
        {
          "type": "Feature",
          "properties": {
            "id": "9929888204",
            "osm_type": "node",
            "lat": 47.6888771,
            "lon": 11.1856749,
            "name": "Staffelseemuseum",
            "tourism": "museum",
            "website": "https://staffelseemuseum.de/",
            "wikidata": "Q76629481"
          },
          "geometry": {
            "type": "Point",
            "coordinates": [
              11.1856749,
              47.6888771
            ]
          }
        },
        {
          "type": "Feature",
          "properties": {
            "id": "12304979630",
            "osm_type": "node",
            "lat": 47.6596402,
            "lon": 11.3692593,
            "fee": "yes",
            "name": "Museum im Schusterhaus",
            "opening_hours": "May-Sep: Fr-Su 11:00-16:30",
            "tourism": "museum",
            "website": "https://www.zwei-seen-land.de/museum-im-schusterhaus",
            "wikidata": "Q130752159"
          },
          "geometry": {
            "type": "Point",
            "coordinates": [
              11.3692593,
              47.6596402
            ]
          }
        },
        {
          "type": "Feature",
          "properties": {
            "id": "12590591212",
            "osm_type": "node",
            "lat": 47.4930979,
            "lon": 11.1076155,
            "addr:city": "Garmisch-Partenkirchen",
            "addr:country": "DE",
            "addr:housenumber": "19",
            "addr:postcode": "82467",
            "addr:street": "Schnitzschulstraße",
            "name": "Richard-Strauß-Institut",
            "tourism": "museum",
            "website": "www.richard-strauss-institut.de",
            "wheelchair": "no"
          },
          "geometry": {
            "type": "Point",
            "coordinates": [
              11.1076155,
              47.4930979
            ]
          }
        }
      ],
      "children": []
    }
  ]
}