{
  "bbox": {
    "south": 48.355971499999995,
    "west": 11.438358999999998,
    "north": 49.017078,
    "east": 13.345766
  },
  "poiCount": 98,
  "leafCount": 0,
  "averagePosition": [
    12.342478978571428,
    48.682715557142856
  ],
  "data": [],
  "children": [
    {
      "bbox": {
        "south": 48.355971499999995,
        "west": 11.438358999999998,
        "north": 48.68652475,
        "east": 12.392062499999998
      },
      "poiCount": 37,
      "leafCount": 37,
      "averagePosition": [
        11.932481862162163,
        48.491208045945946
      ],
      "data": [
        {
          "type": "Feature",
          "properties": {
            "id": "2451361313",
            "osm_type": "node",
            "lat": 48.5278296,
            "lon": 11.5018453,
            "addr:city": "Pfaffenhofen a.d. Ilm",
            "addr:housenumber": "36",
            "addr:postcode": "85276",
            "addr:street": "Scheyerer Straße",
            "amenity": "bar",
            "indoor_seating": "yes",
            "name": "PAF'S",
            "opening_hours": "Tu-Th 18:00-24:00, Fr-Sa 18:00-02:00",
            "operator": "PAF´S GmbH: Christian Aiglstorfer",
            "outdoor_seating": "yes",
            "phone": "+49 8441 8792368",
            "smoking": "no",
            "website": "https://www.pafs-bar.de/",
            "wheelchair": "no"
          },
          "geometry": {
            "type": "Point",
            "coordinates": [
              11.5018453,
              48.5278296
            ]
          }
        },
        {
          "type": "Feature",
          "properties": {
            "id": "3776214999",
            "osm_type": "node",
            "lat": 48.528993,
            "lon": 11.5079312,
            "addr:city": "Pfaffenhofen a.d. Ilm",
            "addr:housenumber": "2a",
            "addr:postcode": "85276",
            "addr:street": "Untere Stadtmauer",
            "amenity": "bar",
            "name": "Ilmbar",
            "phone": "+49 176 91386869",
            "smoking": "yes"
          },
          "geometry": {
            "type": "Point",
            "coordinates": [
              11.5079312,
              48.528993
            ]
          }
        },
        {
          "type": "Feature",
          "properties": {
            "id": "9100062939",
            "osm_type": "node",
            "lat": 48.4261102,
            "lon": 11.5183907,
            "amenity": "bar",
            "name": "Cotta-Bar",
            "opening_hours": "Mo-Sa 22:00-01:00: PH off"
          },
          "geometry": {
            "type": "Point",
            "coordinates": [
              11.5183907,
              48.4261102
            ]
          }
        },
        {
          "type": "Feature",
          "properties": {
            "id": "9694696700",
            "osm_type": "node",
            "lat": 48.5299473,
            "lon": 11.506691,
            "addr:city": "Pfaffenhofen a.d. Ilm",
            "addr:housenumber": "20",
            "addr:postcode": "85276",
            "addr:street": "Hauptplatz",
            "amenity": "bar",
            "description": "Cocktail- und Weinbar",
            "indoor_seating": "yes",
            "name": "1197",
            "opening_hours": "Tu-Sa 18:00-24:00",
            "outdoor_seating": "yes"
          },
          "geometry": {
            "type": "Point",
            "coordinates": [
              11.506691,
              48.5299473
            ]
          }
        },
        {
          "type": "Feature",
          "properties": {
            "id": "457939626",
            "osm_type": "node",
            "lat": 48.4004645,
            "lon": 11.7548882,
            "addr:city": "Freising",
            "addr:country": "DE",
            "addr:housenumber": "1",
            "addr:postcode": "85356",
            "addr:street": "Luitpoldanlage",
            "amenity": "bar",
            "name": "Nachtcafe Freising",
            "opening_hours": "Fr,Sa 21:00+",
            "toilets:wheelchair": "yes",
            "website": "https://www.nachtcafe-freising.de/",
            "wheelchair": "yes"
          },
          "geometry": {
            "type": "Point",
            "coordinates": [
              11.7548882,
              48.4004645
            ]
          }
        },
        {
          "type": "Feature",
          "properties": {
            "id": "582494453",
            "osm_type": "node",
            "lat": 48.3890869,
            "lon": 11.764346,
            "addr:city": "Freising",
            "addr:country": "DE",
            "addr:housenumber": "84",
            "addr:postcode": "85356",
            "addr:street": "Erdinger Straße",
            "amenity": "bar",
            "check_date": "2024-07-08",
            "cuisine": "burger;currywurst",
            "description": "Spielhalle & Sportbar",
            "email": "SASchoeffmann@aol.com",
            "name": "Ceasars Palace Sportbar",
            "opening_hours": "Mo-Su 09:00-24:00; Mo-Th 11:00-14:00,17:00-22:00 open \"Warme Küche\"; Fr 11:00-14:00,17:00-23:30 open \"Warme Küche\"; Sa 12:30-23:30 open \"Warme Küche\"; Su,PH 12:30-22:00 open \"Warme Küche\"",
            "phone": "+49-8161-989-2501",
            "takeaway": "yes",
            "website": "https://www.ceasars-palace-freising.de/"
          },
          "geometry": {
            "type": "Point",
            "coordinates": [
              11.764346,
              48.3890869
            ]
          }
        },
        {
          "type": "Feature",
          "properties": {
            "id": "626668640",
            "osm_type": "node",
            "lat": 48.3964881,
            "lon": 11.75423,
            "addr:city": "Freising",
            "addr:country": "DE",
            "addr:housenumber": "29",
            "addr:postcode": "85356",
            "addr:street": "Erdinger Straße",
            "amenity": "bar",
            "contact:phone": "+49 8161 9897681",
            "cuisine": "burger;friture;pizza",
            "darts:type": "steel;e_darts",
            "description": "Cafe, Bistro, Bar, Billard, Dart, Kicker",
            "name": "Billard Tower",
            "opening_hours": "Tu-Th 16:00-00:00; Fr 16:00-01:00; Sa 15:00-01:00; Su 15:00-23:00",
            "smoking": "isolated",
            "sport": "billiards;darts",
            "website:menu": "https://digitalmenucheck.com/6b40324d-4af4-43fb-9c79-efa08d90d8f1",
            "wheelchair": "no"
          },
          "geometry": {
            "type": "Point",
            "coordinates": [
              11.75423,
              48.3964881
            ]
          }
        },
        {
          "type": "Feature",
          "properties": {
            "id": "1594541076",
            "osm_type": "node",
            "lat": 48.6000612,
            "lon": 11.62873,
            "addr:city": "Wolnzach",
            "addr:country": "DE",
            "addr:housenumber": "36",
            "addr:postcode": "85283",
            "addr:street": "Preysingstraße",
            "amenity": "bar",
            "name": "Zum Muck",
            "opening_hours": "Su-Th 18:00-01:00; Fr-Sa 18:00-02:00"
          },
          "geometry": {
            "type": "Point",
            "coordinates": [
              11.62873,
              48.6000612
            ]
          }
        },
        {
          "type": "Feature",
          "properties": {
            "id": "2041766861",
            "osm_type": "node",
            "lat": 48.6835001,
            "lon": 11.6120331,
            "addr:housenumber": "5",
            "addr:postcode": "85290",
            "addr:street": "Stadtplatz",
            "amenity": "bar",
            "name": "Bar Paparazzi",
            "opening_hours": "Tu-Th 14:00-00:00; Fr-Sa 14:00-02:00; Su 14:00-23:00",
            "operator": "Vincenzo Bruni",
            "outdoor_seating": "yes",
            "website": "http://www.bar-paparazzi.de",
            "wheelchair": "no"
          },
          "geometry": {
            "type": "Point",
            "coordinates": [
              11.6120331,
              48.6835001
            ]
          }
        },
        {
          "type": "Feature",
          "properties": {
            "id": "3832197089",
            "osm_type": "node",
            "lat": 48.4011041,
            "lon": 11.7416872,
            "addr:city": "Freising",
            "addr:country": "DE",
            "addr:housenumber": "21",
            "addr:postcode": "85354",
            "addr:street": "Ziegelgasse",
            "amenity": "bar",
            "brewery": "Augustiner Bräu München",
            "check_date:opening_hours": "2024-10-27",
            "indoor_seating": "yes",
            "name": "Bierstüberl",
            "opening_hours": "Mo-Su 11:00-02:00+",
            "operator": "Wolfgang \"Schmucki\" Schmuck",
            "outdoor_seating": "no",
            "phone": "+49 176 80113925",
            "toilets:wheelchair": "no",
            "wheelchair": "limited"
          },
          "geometry": {
            "type": "Point",
            "coordinates": [
              11.7416872,
              48.4011041
            ]
          }
        },
        {
          "type": "Feature",
          "properties": {
            "id": "5859436936",
            "osm_type": "node",
            "lat": 48.4018077,
            "lon": 11.7492402,
            "addr:city": "Freising",
            "addr:country": "DE",
            "addr:housename": "Altstadtgalerien",
            "addr:housenumber": "5",
            "addr:postcode": "85354",
            "addr:street": "Angerbadergasse",
            "amenity": "bar",
            "check_date": "2025-08-28",
            "indoor_seating": "yes",
            "name": "Maxis Bar",
            "opening_hours": "Mo-Su 18:00-24:00",
            "outdoor_seating": "yes",
            "phone": "+49-8161-549698",
            "website": "https://www.maxis-bar.de/"
          },
          "geometry": {
            "type": "Point",
            "coordinates": [
              11.7492402,
              48.4018077
            ]
          }
        },
        {
          "type": "Feature",
          "properties": {
            "id": "6092973192",
            "osm_type": "node",
            "lat": 48.4675116,
            "lon": 11.9379827,
            "addr:city": "Moosburg a.d. Isar",
            "addr:country": "DE",
            "addr:housenumber": "4",
            "addr:postcode": "85368",
            "addr:street": "Auf dem Gries",
            "amenity": "bar",
            "check_date": "2025-02-21",
            "indoor_seating": "yes",
            "name": "LariFari",
            "opening_hours:signed": "no",
            "operator": "Benjamin Sabanovic",
            "outdoor_seating": "yes",
            "smoking": "outside",
            "wheelchair": "no"
          },
          "geometry": {
            "type": "Point",
            "coordinates": [
              11.9379827,
              48.4675116
            ]
          }
        },
        {
          "type": "Feature",
          "properties": {
            "id": "6700803502",
            "osm_type": "node",
            "lat": 48.3995449,
            "lon": 11.7412235,
            "addr:city": "Freising",
            "addr:country": "DE",
            "addr:housenumber": "28",
            "addr:postcode": "85354",
            "addr:street": "Obere Hauptstraße",
            "alt_name": "Baricentro",
            "amenity": "bar",
            "check_date": "2025-06-30",
            "level": "0",
            "name": "Bar i Centro",
            "opening_hours": "off",
            "panoramax": "210584e8-9c89-49a7-bb57-85bcba2e01a2",
            "wheelchair": "no"
          },
          "geometry": {
            "type": "Point",
            "coordinates": [
              11.7412235,
              48.3995449
            ]
          }
        },
        {
          "type": "Feature",
          "properties": {
            "id": "6700843033",
            "osm_type": "node",
            "lat": 48.3999373,
            "lon": 11.742255,
            "addr:city": "Freising",
            "addr:country": "DE",
            "addr:housenumber": "16",
            "addr:postcode": "85354",
            "addr:street": "Obere Hauptstraße",
            "amenity": "bar",
            "check_date": "2025-08-28",
            "contact:facebook": "https://www.facebook.com/Hansibar-628811113829220/",
            "cuisine": "wine",
            "email": "info@hansibar-freising.de",
            "indoor_seating": "yes",
            "internet_access": "wlan",
            "internet_access:fee": "no",
            "level": "0",
            "mapillary": "187926353653235",
            "name": "Hansibar",
            "name:en": "Hansibar",
            "opening_hours": "Tu 17:00-22:00; We-Fr 11:00-14:00,17:00-22:00; Sa 10:00-15:00,18:00-23:00; Su,PH off",
            "outdoor_seating": "yes",
            "payment:cash": "yes",
            "payment:credit_cards": "yes",
            "payment:ec": "yes",
            "payment:nfc": "yes",
            "phone": "+49 8161 4017834",
            "toilets:wheelchair": "no",
            "website": "http://hansibar-freising.de",
            "wheelchair": "limited"
          },
          "geometry": {
            "type": "Point",
            "coordinates": [
              11.742255,
              48.3999373
            ]
          }
        },
        {
          "type": "Feature",
          "properties": {
            "id": "6747298613",
            "osm_type": "node",
            "lat": 48.4710437,
            "lon": 11.9319818,
            "addr:city": "Moosburg a.d. Isar",
            "addr:country": "DE",
            "addr:housenumber": "50",
            "addr:postcode": "85368",
            "addr:street": "Bahnhofstraße",
            "amenity": "bar",
            "check_date": "2025-07-26",
            "check_date:opening_hours": "2024-06-17",
            "indoor_seating": "yes",
            "name": "Danys Sportsbar",
            "opening_hours": "Mo 10:00-20:00, Tu-Th 15:00-23:00, Fr,Sa 11:00-01:00, Su,PH 11:00-22:00",
            "operator": "Daniel Christ",
            "outdoor_seating": "yes",
            "phone": "+49 8761 759217"
          },
          "geometry": {
            "type": "Point",
            "coordinates": [
              11.9319818,
              48.4710437
            ]
          }
        },
        {
          "type": "Feature",
          "properties": {
            "id": "7126085897",
            "osm_type": "node",
            "lat": 48.4662902,
            "lon": 11.9385943,
            "addr:city": "Moosburg a.d. Isar",
            "addr:country": "DE",
            "addr:housenumber": "5",
            "addr:postcode": "85368",
            "addr:street": "Landshuter Straße",
            "amenity": "bar",
            "brewery": "Guinness;Augustiner_Bräu_München",
            "check_date": "2025-07-26",
            "cuisine": "burger",
            "delivery": "yes",
            "diet:vegetarian": "yes",
            "email": "happy@thecornerhouse.de",
            "indoor_seating": "yes",
            "name": "The Corner House",
            "opening_hours": "Su-Th 17:30-23:00; Fr,Sa 17:30-24:00; Mo off",
            "operator": "Andreas Mühlbacher",
            "outdoor_seating": "yes",
            "payment:credit_cards": "yes",
            "payment:debit_cards": "yes",
            "phone": "+49 8761 7293046",
            "takeaway": "yes",
            "toilets:wheelchair": "yes",
            "website": "https://thecornerhouse.de/",
            "wheelchair": "yes"
          },
          "geometry": {
            "type": "Point",
            "coordinates": [
              11.9385943,
              48.4662902
            ]
          }
        },
        {
          "type": "Feature",
          "properties": {
            "id": "7777389208",
            "osm_type": "node",
            "lat": 48.4022781,
            "lon": 11.7495093,
            "addr:city": "Freising",
            "addr:country": "DE",
            "addr:housenumber": "16",
            "addr:postcode": "85354",
            "addr:street": "General-von-Nagel-Straße",
            "amenity": "bar",
            "contact:facebook": "https://www.facebook.com/bonnieandclydeclassicbar/",
            "name": "Bonnie and Clyde",
            "opening_hours": "Mo-Th 19:00-02:00; Fr-Sa 19:00-04:00; Su off",
            "start_date": "2020",
            "survey:date": "2021-10-01"
          },
          "geometry": {
            "type": "Point",
            "coordinates": [
              11.7495093,
              48.4022781
            ]
          }
        },
        {
          "type": "Feature",
          "properties": {
            "id": "8164044755",
            "osm_type": "node",
            "lat": 48.4677732,
            "lon": 11.9339466,
            "addr:city": "Moosburg a.d. Isar",
            "addr:country": "DE",
            "addr:housenumber": "7 b",
            "addr:postcode": "85368",
            "addr:street": "Grabensepperlweg",
            "amenity": "bar",
            "check_date": "2025-07-26",
            "indoor_seating": "yes",
            "name": "Sportcafe 23",
            "note": "Bahnhofstraße / Grabensepperlweg",
            "opening_hours": "Tu-Fr 14:00-24:00, Sa,Su,PH 12:00-24:00",
            "operator": "Hikmet Ardak",
            "outdoor_seating": "no"
          },
          "geometry": {
            "type": "Point",
            "coordinates": [
              11.9339466,
              48.4677732
            ]
          }
        },
        {
          "type": "Feature",
          "properties": {
            "id": "9399378798",
            "osm_type": "node",
            "lat": 48.399699,
            "lon": 11.7428128,
            "addr:city": "Freising",
            "addr:country": "DE",
            "addr:housenumber": "1",
            "addr:postcode": "85354",
            "addr:street": "Obere Domberggasse",
            "amenity": "bar",
            "check_date": "2025-05-29",
            "min_age": "18",
            "name": "CP1",
            "opening_hours": "Mo-Su 14:00-03:00",
            "phone": "+49-8161-9898290",
            "website": "https://www.ceasars-palace-freising.de/cp1/"
          },
          "geometry": {
            "type": "Point",
            "coordinates": [
              11.7428128,
              48.399699
            ]
          }
        },
        {
          "type": "Feature",
          "properties": {
            "id": "11462156294",
            "osm_type": "node",
            "lat": 48.4010184,
            "lon": 11.7435278,
            "addr:city": "Freising",
            "addr:country": "DE",
            "addr:housenumber": "2",
            "addr:postcode": "85354",
            "addr:street": "Marienplatz",
            "amenity": "bar",
            "check_date": "2023-12-28",
            "cuisine": "international;spanish",
            "indoor_seating": "yes",
            "level": "1",
            "name": "La Cueva",
            "operator": "Sebastian Gronau und Michael Jaeger",
            "outdoor_seating": "yes",
            "smoking": "outside",
            "wheelchair": "no"
          },
          "geometry": {
            "type": "Point",
            "coordinates": [
              11.7435278,
              48.4010184
            ]
          }
        },
        {
          "type": "Feature",
          "properties": {
            "id": "444701953",
            "osm_type": "node",
            "lat": 48.4500298,
            "lon": 12.3546129,
            "amenity": "bar",
            "contact:facebook": "https://www.facebook.com/sohovilsbiburg/",
            "contact:phone": "+49 179 1331232",
            "name": "SoHo Bar & Lounge",
            "opening_hours": "Th 19:00-01:00, Fr,Sa 19:00-05:00",
            "wheelchair": "no"
          },
          "geometry": {
            "type": "Point",
            "coordinates": [
              12.3546129,
              48.4500298
            ]
          }
        },
        {
          "type": "Feature",
          "properties": {
            "id": "829148824",
            "osm_type": "node",
            "lat": 48.534878,
            "lon": 12.1494069,
            "addr:city": "Landshut",
            "addr:country": "DE",
            "addr:housenumber": "51",
            "addr:postcode": "84028",
            "addr:street": "Ländgasse",
            "amenity": "bar",
            "check_date": "2024-12-21",
            "end_date": "2024-05",
            "name": "Taverne im Vitztumb",
            "opening_hours": "Th-Mo 15:00-22:00",
            "phone": "+49 171 1835650",
            "reservation": "yes",
            "website": "https://taverne-im-vitztumb.de/",
            "wheelchair": "limited"
          },
          "geometry": {
            "type": "Point",
            "coordinates": [
              12.1494069,
              48.534878
            ]
          }
        },
        {
          "type": "Feature",
          "properties": {
            "id": "921126845",
            "osm_type": "node",
            "lat": 48.5397804,
            "lon": 12.1509258,
            "addr:city": "Landshut",
            "addr:housenumber": "676",
            "addr:postcode": "84028",
            "addr:street": "Zweibrückenstraße",
            "amenity": "bar",
            "check_date": "2016-04-02",
            "name": "Shisha-Lounge Bombay",
            "wheelchair": "no"
          },
          "geometry": {
            "type": "Point",
            "coordinates": [
              12.1509258,
              48.5397804
            ]
          }
        },
        {
          "type": "Feature",
          "properties": {
            "id": "1961436534",
            "osm_type": "node",
            "lat": 48.6139941,
            "lon": 12.1848199,
            "amenity": "bar",
            "designation": "private exclusive bar",
            "name": "Boxa's Kellerbar",
            "wifi": "no"
          },
          "geometry": {
            "type": "Point",
            "coordinates": [
              12.1848199,
              48.6139941
            ]
          }
        },
        {
          "type": "Feature",
          "properties": {
            "id": "3286610522",
            "osm_type": "node",
            "lat": 48.5407555,
            "lon": 12.1504144,
            "addr:city": "Landshut",
            "addr:country": "DE",
            "addr:housenumber": "696",
            "addr:postcode": "84028",
            "addr:street": "Zweibrückenstraße",
            "amenity": "bar",
            "check_date": "2023-11-21",
            "name": "Piccolo Bar"
          },
          "geometry": {
            "type": "Point",
            "coordinates": [
              12.1504144,
              48.5407555
            ]
          }
        },
        {
          "type": "Feature",
          "properties": {
            "id": "3893716211",
            "osm_type": "node",
            "lat": 48.532998,
            "lon": 12.1503332,
            "addr:city": "Landshut",
            "addr:country": "DE",
            "addr:housenumber": "180",
            "addr:postcode": "84028",
            "addr:street": "Altstadt",
            "amenity": "bar",
            "drive_in": "no",
            "name": "Tikuna",
            "opening_hours": "Th 20:00-01:00, Fr,Sa 20:00-03:00",
            "start_date": "2023-10"
          },
          "geometry": {
            "type": "Point",
            "coordinates": [
              12.1503332,
              48.532998
            ]
          }
        },
        {
          "type": "Feature",
          "properties": {
            "id": "3900672643",
            "osm_type": "node",
            "lat": 48.5344158,
            "lon": 12.1527694,
            "addr:city": "Landshut",
            "addr:housenumber": "229",
            "addr:postcode": "84028",
            "addr:street": "Kirchgasse",
            "amenity": "bar",
            "check_date": "2023-09-08",
            "email": "info@portucalis.de",
            "name": "Portucalis Weinbar",
            "opening_hours": "Tu-Fr 16:00-00:00; Sa 11:00-00:00",
            "operator": "Katja Niemeier Santos",
            "outdoor_seating": "yes",
            "phone": "+49 871 27549000",
            "website": "https://www.portucalis.de/",
            "wheelchair": "yes"
          },
          "geometry": {
            "type": "Point",
            "coordinates": [
              12.1527694,
              48.5344158
            ]
          }
        },
        {
          "type": "Feature",
          "properties": {
            "id": "3973566534",
            "osm_type": "node",
            "lat": 48.4472865,
            "lon": 12.3481858,
            "addr:city": "Vilsbiburg",
            "addr:country": "DE",
            "addr:postcode": "84137",
            "amenity": "bar",
            "contact:phone": "+49 171 9677358",
            "name": "VIB Lounge",
            "opening_hours": "Tu-Th 17:30-23:00; Fr,Sa 17:30-23:00; PH,Su 17:30-22:00; Mo off"
          },
          "geometry": {
            "type": "Point",
            "coordinates": [
              12.3481858,
              48.4472865
            ]
          }
        },
        {
          "type": "Feature",
          "properties": {
            "id": "5809338254",
            "osm_type": "node",
            "lat": 48.5350616,
            "lon": 12.1517212,
            "addr:city": "Landshut",
            "addr:housenumber": "264",
            "addr:postcode": "84028",
            "addr:street": "Schirmgasse",
            "amenity": "bar",
            "check_date": "2025-06-18",
            "cocktails": "yes",
            "name": "Enkis",
            "reservation": "recommended",
            "toilets:wheelchair": "no",
            "wheelchair": "yes"
          },
          "geometry": {
            "type": "Point",
            "coordinates": [
              12.1517212,
              48.5350616
            ]
          }
        },
        {
          "type": "Feature",
          "properties": {
            "id": "9842152449",
            "osm_type": "node",
            "lat": 48.5344068,
            "lon": 12.1472777,
            "addr:city": "Landshut",
            "addr:country": "DE",
            "addr:housenumber": "2",
            "addr:postcode": "84028",
            "addr:street": "Preysingallee",
            "amenity": "bar",
            "name": "Sandora Garten"
          },
          "geometry": {
            "type": "Point",
            "coordinates": [
              12.1472777,
              48.5344068
            ]
          }
        },
        {
          "type": "Feature",
          "properties": {
            "id": "10889826901",
            "osm_type": "node",
            "lat": 48.5379893,
            "lon": 12.1542096,
            "amenity": "bar",
            "check_date": "2024-05-27",
            "name": "Flamingo"
          },
          "geometry": {
            "type": "Point",
            "coordinates": [
              12.1542096,
              48.5379893
            ]
          }
        },
        {
          "type": "Feature",
          "properties": {
            "id": "11047962549",
            "osm_type": "node",
            "lat": 48.5358917,
            "lon": 12.15022,
            "addr:city": "Landshut",
            "addr:country": "DE",
            "addr:housenumber": "132",
            "addr:postcode": "84028",
            "addr:street": "Ländgasse",
            "amenity": "bar",
            "name": "PHX - Phönix Bar",
            "opening_hours": "We-Sa 18:00-23:00, Su 11:00-18:00",
            "start_date": "2023-08"
          },
          "geometry": {
            "type": "Point",
            "coordinates": [
              12.15022,
              48.5358917
            ]
          }
        },
        {
          "type": "Feature",
          "properties": {
            "id": "11047962551",
            "osm_type": "node",
            "lat": 48.5358178,
            "lon": 12.150043,
            "addr:city": "Landshut",
            "addr:country": "DE",
            "addr:housenumber": "135",
            "addr:postcode": "84028",
            "addr:street": "Ländgasse",
            "amenity": "bar",
            "name": "Karls Bar",
            "website": "https://das-karls.de/bar/"
          },
          "geometry": {
            "type": "Point",
            "coordinates": [
              12.150043,
              48.5358178
            ]
          }
        },
        {
          "type": "Feature",
          "properties": {
            "id": "11496902197",
            "osm_type": "node",
            "lat": 48.5331577,
            "lon": 12.1509914,
            "addr:housenumber": "195b",
            "addr:place": "Altstadt",
            "amenity": "bar",
            "name": "BARföG",
            "opening_hours": "Th-Sa 20:00-02:00",
            "start_date": "2023-06"
          },
          "geometry": {
            "type": "Point",
            "coordinates": [
              12.1509914,
              48.5331577
            ]
          }
        },
        {
          "type": "Feature",
          "properties": {
            "id": "12092582705",
            "osm_type": "node",
            "lat": 48.5357065,
            "lon": 12.1497458,
            "addr:city": "Landshut",
            "addr:housenumber": "138",
            "addr:postcode": "84028",
            "addr:street": "Ländgasse",
            "amenity": "bar",
            "name": "Stethaimer Keller",
            "opening_hours": "Mo-Su 14:00-05:00"
          },
          "geometry": {
            "type": "Point",
            "coordinates": [
              12.1497458,
              48.5357065
            ]
          }
        },
        {
          "type": "Feature",
          "properties": {
            "id": "12422926705",
            "osm_type": "node",
            "lat": 48.5355079,
            "lon": 12.1514537,
            "addr:housenumber": "297",
            "addr:street": "Altstadt",
            "amenity": "bar",
            "cocktails": "yes",
            "contact:email": "info@physikus.bar",
            "contact:phone": "+49 871 26261",
            "contact:website": "https://physikus.bar/",
            "name": "Physikus Cocktail Chemistry",
            "opening_hours": "Th-Sa 20:00-03:00",
            "operator": "Michelangelo GmbH & Co. KG"
          },
          "geometry": {
            "type": "Point",
            "coordinates": [
              12.1514537,
              48.5355079
            ]
          }
        },
        {
          "type": "Feature",
          "properties": {
            "id": "12924780754",
            "osm_type": "node",
            "lat": 48.5365312,
            "lon": 12.1528515,
            "addr:city": "Landshut",
            "addr:country": "DE",
            "addr:housenumber": "342a",
            "addr:postcode": "84028",
            "addr:street": "Taubengäßchen",
            "amenity": "bar",
            "check_date": "2016-03-27",
            "name": "Cataleya",
            "wheelchair": "limited"
          },
          "geometry": {
            "type": "Point",
            "coordinates": [
              12.1528515,
              48.5365312
            ]
          }
        }
      ],
      "children": []
    },
    {
      "bbox": {
        "south": 48.355971499999995,
        "west": 12.392062499999998,
        "north": 48.68652475,
        "east": 13.345766
      },
      "poiCount": 15,
      "leafCount": 15,
      "averagePosition": [
        12.803205646666667,
        48.51236201333333
      ],
      "data": [
        {
          "type": "Feature",
          "properties": {
            "id": "3181284576",
            "osm_type": "node",
            "lat": 48.3567183,
            "lon": 13.3113653,
            "amenity": "bar",
            "name": "Vinothek \"Zur Weinpress\"",
            "website": "https://www.ortners-lindenhof.de/"
          },
          "geometry": {
            "type": "Point",
            "coordinates": [
              13.3113653,
              48.3567183
            ]
          }
        },
        {
          "type": "Feature",
          "properties": {
            "id": "650329410",
            "osm_type": "node",
            "lat": 48.6294648,
            "lon": 12.5009665,
            "addr:city": "Dingolfing",
            "addr:country": "DE",
            "addr:housenumber": "4",
            "addr:postcode": "84130",
            "addr:street": "Dr.-Josef-Hastreiter-Straße",
            "amenity": "bar",
            "name": "Bel Air",
            "opening_hours": "Tu-Th 20:00-00:00; Fr-Su 19:00-03:00",
            "operator": "Klaus",
            "outdoor_seating": "yes",
            "phone": "+49 8731 40403",
            "smoking": "outside",
            "toilets:wheelchair": "no",
            "wheelchair": "limited"
          },
          "geometry": {
            "type": "Point",
            "coordinates": [
              12.5009665,
              48.6294648
            ]
          }
        },
        {
          "type": "Feature",
          "properties": {
            "id": "1747552799",
            "osm_type": "node",
            "lat": 48.6296025,
            "lon": 12.4961401,
            "addr:city": "Dingolfing",
            "addr:postcode": "84130",
            "amenity": "bar",
            "name": "Alcasa"
          },
          "geometry": {
            "type": "Point",
            "coordinates": [
              12.4961401,
              48.6296025
            ]
          }
        },
        {
          "type": "Feature",
          "properties": {
            "id": "12827859527",
            "osm_type": "node",
            "lat": 48.5069874,
            "lon": 12.4278229,
            "addr:city": "Gerzen",
            "addr:housenumber": "2",
            "addr:postcode": "84175",
            "addr:street": "Hofmarkplatz",
            "amenity": "bar",
            "name": "Gasthaus Kaspar",
            "outdoor_seating": "no"
          },
          "geometry": {
            "type": "Point",
            "coordinates": [
              12.4278229,
              48.5069874
            ]
          }
        },
        {
          "type": "Feature",
          "properties": {
            "id": "849917266",
            "osm_type": "node",
            "lat": 48.4164708,
            "lon": 12.8907989,
            "amenity": "bar",
            "name": "Kaminbar",
            "opening_hours": "Mo-Su 20:00-24:00"
          },
          "geometry": {
            "type": "Point",
            "coordinates": [
              12.8907989,
              48.4164708
            ]
          }
        },
        {
          "type": "Feature",
          "properties": {
            "id": "2684251598",
            "osm_type": "node",
            "lat": 48.4028479,
            "lon": 12.7495484,
            "addr:city": "Eggenfelden",
            "addr:country": "DE",
            "addr:housenumber": "68",
            "addr:postcode": "84307",
            "addr:street": "Landshuter Straße",
            "amenity": "bar",
            "check_date:currency:XBT": "2023-01-31",
            "currency:XBT": "yes",
            "email": "peter@cosmo-bar.de",
            "name": "Cosmo Bar + Lounge",
            "opening_hours": "Tu 19:00-01:00, We 19:00-02:00, Fr-Sa 19:00-03:00, Su 19:00-01:00",
            "payment:lightning": "no",
            "payment:lightning_contactless": "no",
            "payment:onchain": "yes",
            "phone": "+49 8721 910780",
            "website": "https://www.cosmo-bar.de/"
          },
          "geometry": {
            "type": "Point",
            "coordinates": [
              12.7495484,
              48.4028479
            ]
          }
        },
        {
          "type": "Feature",
          "properties": {
            "id": "3079604312",
            "osm_type": "node",
            "lat": 48.6697914,
            "lon": 12.6929994,
            "amenity": "bar",
            "name": "Mexan-Cantina Cohibar"
          },
          "geometry": {
            "type": "Point",
            "coordinates": [
              12.6929994,
              48.6697914
            ]
          }
        },
        {
          "type": "Feature",
          "properties": {
            "id": "3193531190",
            "osm_type": "node",
            "lat": 48.4878007,
            "lon": 12.8276054,
            "addr:housenumber": "47",
            "addr:street": "Baron-Riederer-Straße",
            "amenity": "bar",
            "operator": "Engel Naturbrennerei"
          },
          "geometry": {
            "type": "Point",
            "coordinates": [
              12.8276054,
              48.4878007
            ]
          }
        },
        {
          "type": "Feature",
          "properties": {
            "id": "3899756261",
            "osm_type": "node",
            "lat": 48.4002856,
            "lon": 12.7467739,
            "addr:city": "Eggenfelden",
            "addr:country": "DE",
            "addr:housenumber": "55",
            "addr:postcode": "84307",
            "addr:street": "Schellenbruckplatz",
            "amenity": "bar",
            "contact:email": "info@fun-partyarena.de",
            "contact:facebook": "https://fb.com/FunPartyArena",
            "contact:phone": "+49 8721 125 493",
            "contact:website": "https://www.fun-eggenfelden.de/",
            "name": "FUN-Die Party Arena",
            "toilets:wheelchair": "no",
            "wheelchair": "limited"
          },
          "geometry": {
            "type": "Point",
            "coordinates": [
              12.7467739,
              48.4002856
            ]
          }
        },
        {
          "type": "Feature",
          "properties": {
            "id": "3915277987",
            "osm_type": "node",
            "lat": 48.4032638,
            "lon": 12.7628597,
            "amenity": "bar",
            "check_date": "2016-01-18",
            "name": "il gelato",
            "toilets:wheelchair": "no",
            "wheelchair": "yes"
          },
          "geometry": {
            "type": "Point",
            "coordinates": [
              12.7628597,
              48.4032638
            ]
          }
        },
        {
          "type": "Feature",
          "properties": {
            "id": "3930331161",
            "osm_type": "node",
            "lat": 48.403326,
            "lon": 12.7517819,
            "addr:city": "Eggenfelden",
            "addr:country": "DE",
            "addr:housenumber": "2 1/2",
            "addr:postcode": "84307",
            "addr:street": "Bahnhofstraße",
            "amenity": "bar",
            "check_date": "2016-01-18",
            "name": "Azzuro Bar Pizzeria"
          },
          "geometry": {
            "type": "Point",
            "coordinates": [
              12.7517819,
              48.403326
            ]
          }
        },
        {
          "type": "Feature",
          "properties": {
            "id": "5076055964",
            "osm_type": "node",
            "lat": 48.6697909,
            "lon": 12.6923039,
            "addr:city": "Landau an der Isar",
            "addr:country": "DE",
            "addr:housenumber": "6",
            "addr:postcode": "94405",
            "addr:street": "Marienplatz",
            "amenity": "bar",
            "description": "Cocktail & Music Bar",
            "name": "Blue Lounge",
            "opening_hours": "Mo off, Tu-Th 16:00-02:00, Fr-Sa 16:00-05:00, Su 16:00-00:00",
            "phone": "+49 1573 4044774",
            "smoking": "no"
          },
          "geometry": {
            "type": "Point",
            "coordinates": [
              12.6923039,
              48.6697909
            ]
          }
        },
        {
          "type": "Feature",
          "properties": {
            "id": "6841793189",
            "osm_type": "node",
            "lat": 48.6730124,
            "lon": 12.6944799,
            "addr:city": "Landau an der Isar",
            "addr:country": "DE",
            "addr:housenumber": "96",
            "addr:postcode": "94405",
            "addr:street": "Hauptstraße",
            "air_conditioning": "yes",
            "amenity": "bar",
            "brewery": "various",
            "description": "Shishabar",
            "email": "info@lama-landau.de",
            "internet_access": "wlan",
            "name": "Lama - Landau mal anders",
            "opening_hours": "Mo-Su 15:00-24:00",
            "outdoor_seating": "yes",
            "phone": "+49 160 4068254",
            "smoking": "dedicated",
            "website": "https://lama-landau.de/"
          },
          "geometry": {
            "type": "Point",
            "coordinates": [
              12.6944799,
              48.6730124
            ]
          }
        },
        {
          "type": "Feature",
          "properties": {
            "id": "608676549",
            "osm_type": "node",
            "lat": 48.4028625,
            "lon": 13.3113995,
            "amenity": "bar",
            "loc_name": "Love",
            "name": "Love Story Club - We love you"
          },
          "geometry": {
            "type": "Point",
            "coordinates": [
              13.3113995,
              48.4028625
            ]
          }
        },
        {
          "type": "Feature",
          "properties": {
            "id": "12926301806",
            "osm_type": "node",
            "lat": 48.6332052,
            "lon": 13.191239,
            "amenity": "bar",
            "indoor_seating": "no",
            "name": "Beach Bar",
            "opening_hours": "Th,Fr 16:00-23:00; Sa,Su 13:00-23:00",
            "outdoor_seating": "beach"
          },
          "geometry": {
            "type": "Point",
            "coordinates": [
              13.191239,
              48.6332052
            ]
          }
        }
      ],
      "children": []
    },
    {
      "bbox": {
        "south": 48.68652475,
        "west": 11.438358999999998,
        "north": 49.017078,
        "east": 12.392062499999998
      },
      "poiCount": 19,
      "leafCount": 19,
      "averagePosition": [
        11.917749968421052,
        48.89342384736842
      ],
      "data": [
        {
          "type": "Feature",
          "properties": {
            "id": "1798834306",
            "osm_type": "node",
            "lat": 48.7619688,
            "lon": 11.4385747,
            "amenity": "bar",
            "name": "Der Beach Club",
            "opening_hours": "Fr-Su,PH 12:00-20:30, Mo-Th 14:00-20:30",
            "website": "https://www.wonnemar.de/ingolstadt/beach-club/der-beach-club.html",
            "wheelchair": "limited"
          },
          "geometry": {
            "type": "Point",
            "coordinates": [
              11.4385747,
              48.7619688
            ]
          }
        },
        {
          "type": "Feature",
          "properties": {
            "id": "2825310201",
            "osm_type": "node",
            "lat": 48.8111187,
            "lon": 11.501432,
            "addr:city": "Kösching",
            "addr:country": "DE",
            "addr:housenumber": "1",
            "addr:postcode": "85092",
            "addr:street": "Untere Marktstraße",
            "amenity": "bar",
            "name": "BAR & CAFÉ Pogo",
            "opening_hours": "Mo-We 08:00-23:00, Th 08:00-24:00, Fr-Sa 08:00-01:00, Su 14:00-23:00",
            "phone": "+49 8456 9668350"
          },
          "geometry": {
            "type": "Point",
            "coordinates": [
              11.501432,
              48.8111187
            ]
          }
        },
        {
          "type": "Feature",
          "properties": {
            "id": "5216709921",
            "osm_type": "node",
            "lat": 48.771075,
            "lon": 11.4401876,
            "amenity": "bar",
            "name": "Pilsquelle",
            "toilets:wheelchair": "no",
            "wheelchair": "no"
          },
          "geometry": {
            "type": "Point",
            "coordinates": [
              11.4401876,
              48.771075
            ]
          }
        },
        {
          "type": "Feature",
          "properties": {
            "id": "2294385082",
            "osm_type": "node",
            "lat": 48.81422,
            "lon": 11.8456279,
            "addr:city": "Abensberg",
            "addr:country": "DE",
            "addr:housenumber": "1",
            "addr:postcode": "93326",
            "addr:street": "Graf-Niclas-Straße",
            "amenity": "bar",
            "name": "Coronita",
            "old_name": "D'Latern",
            "opening_hours": "Fr,Sa 20:00-03:00",
            "website": "http://www.coronita-bar.de/"
          },
          "geometry": {
            "type": "Point",
            "coordinates": [
              11.8456279,
              48.81422
            ]
          }
        },
        {
          "type": "Feature",
          "properties": {
            "id": "7277100597",
            "osm_type": "node",
            "lat": 48.8193493,
            "lon": 11.7881973,
            "addr:city": "Neustadt an der Donau",
            "addr:country": "DE",
            "addr:housenumber": "6",
            "addr:postcode": "93333",
            "addr:street": "Am Brunnenforum",
            "addr:suburb": "Bad Gögging",
            "amenity": "bar",
            "name": "Kellerbar Holzwurm",
            "operator": "Joseph Eisenschenk"
          },
          "geometry": {
            "type": "Point",
            "coordinates": [
              11.7881973,
              48.8193493
            ]
          }
        },
        {
          "type": "Feature",
          "properties": {
            "id": "7280706058",
            "osm_type": "node",
            "lat": 48.808948,
            "lon": 11.6900861,
            "addr:city": "Pförring",
            "addr:housenumber": "7",
            "addr:postcode": "85104",
            "addr:street": "Neustädter Straße",
            "amenity": "bar",
            "name": "Wunderlich",
            "toilets:wheelchair": "no",
            "wheelchair": "yes"
          },
          "geometry": {
            "type": "Point",
            "coordinates": [
              11.6900861,
              48.808948
            ]
          }
        },
        {
          "type": "Feature",
          "properties": {
            "id": "11198496996",
            "osm_type": "node",
            "lat": 48.8154435,
            "lon": 11.8457709,
            "amenity": "bar",
            "name": "Kuchl Bar",
            "outdoor_seating": "yes"
          },
          "geometry": {
            "type": "Point",
            "coordinates": [
              11.8457709,
              48.8154435
            ]
          }
        },
        {
          "type": "Feature",
          "properties": {
            "id": "5029530071",
            "osm_type": "node",
            "lat": 48.691845,
            "lon": 12.2032293,
            "addr:city": "Ergoldsbach",
            "addr:country": "DE",
            "addr:housenumber": "10",
            "addr:postcode": "84061",
            "addr:street": "Rottenburger Straße",
            "amenity": "bar",
            "internet_access": "wlan",
            "name": "Blueline Musikcafé Gaststätte",
            "opening_hours": "Mo-Su 09:00-02:00",
            "outdoor_seating": "yes",
            "phone": "+49 8771 408154",
            "smoking": "outside",
            "website": "https://blueline-musikcafe.9gg.de/"
          },
          "geometry": {
            "type": "Point",
            "coordinates": [
              12.2032293,
              48.691845
            ]
          }
        },
        {
          "type": "Feature",
          "properties": {
            "id": "5320562421",
            "osm_type": "node",
            "lat": 48.7357469,
            "lon": 12.1910683,
            "amenity": "bar",
            "name": "Eddy’s",
            "opening_hours": "Tu-Th 13:00-23:00,Fr-Sa 13:00-24:00,Su 13:00-22:00"
          },
          "geometry": {
            "type": "Point",
            "coordinates": [
              12.1910683,
              48.7357469
            ]
          }
        },
        {
          "type": "Feature",
          "properties": {
            "id": "12264459074",
            "osm_type": "node",
            "lat": 48.9185918,
            "lon": 11.8714216,
            "amenity": "bar",
            "name": "OTTO's Weinbar & Vinothek",
            "opening_hours": "We-Su 18:00-23:00",
            "smoking": "outside"
          },
          "geometry": {
            "type": "Point",
            "coordinates": [
              11.8714216,
              48.9185918
            ]
          }
        },
        {
          "type": "Feature",
          "properties": {
            "id": "12539943488",
            "osm_type": "node",
            "lat": 48.9404995,
            "lon": 11.8620227,
            "addr:city": "Ihrlerstein",
            "addr:housenumber": "1",
            "addr:postcode": "93346",
            "addr:street": "Hauptstraße",
            "alt_name": "Schneider's Inn;Schneiders Inn",
            "amenity": "bar",
            "brewery": "schneider_weisse",
            "name": "Schneiders' Inn",
            "opening_hours": "Tu-Su 18:00-02:00"
          },
          "geometry": {
            "type": "Point",
            "coordinates": [
              11.8620227,
              48.9404995
            ]
          }
        },
        {
          "type": "Feature",
          "properties": {
            "id": "542560592",
            "osm_type": "node",
            "lat": 49.0166878,
            "lon": 12.0959919,
            "addr:city": "Regensburg",
            "addr:country": "DE",
            "addr:housenumber": "9",
            "addr:postcode": "93047",
            "addr:street": "Obermünsterstraße",
            "amenity": "bar",
            "check_date": "2025-05-26",
            "name": "da Silva",
            "opening_hours": "Tu, Th-Sa 21:00-02:00",
            "toilets:wheelchair": "no",
            "wheelchair": "limited"
          },
          "geometry": {
            "type": "Point",
            "coordinates": [
              12.0959919,
              49.0166878
            ]
          }
        },
        {
          "type": "Feature",
          "properties": {
            "id": "1372005059",
            "osm_type": "node",
            "lat": 49.013535,
            "lon": 12.055427,
            "amenity": "bar",
            "name": "Brazil",
            "opening_hours": "Mo,Tu 10:00-23:00, We,Th 10:00-24:00, Fr 10:00-01:00, Sa 17:00-01:00, Su 17:00-23:00",
            "operator": "H. Kehl KG",
            "toilets:wheelchair": "no",
            "website": "https://www.bar-brazil.de/",
            "wheelchair": "limited"
          },
          "geometry": {
            "type": "Point",
            "coordinates": [
              12.055427,
              49.013535
            ]
          }
        },
        {
          "type": "Feature",
          "properties": {
            "id": "1653823224",
            "osm_type": "node",
            "lat": 49.0071065,
            "lon": 12.0998751,
            "addr:city": "Regensburg",
            "addr:country": "DE",
            "addr:housenumber": "20",
            "addr:postcode": "93053",
            "addr:street": "Galgenbergstraße",
            "amenity": "bar",
            "indoor_seating": "yes",
            "name": "Cartoon",
            "opening_hours": "\"nur für geschlossene Veranstaltungen reservierbar\"",
            "operator": "Alte Mälzerei e.V.",
            "outdoor_seating": "no",
            "source": "wheelmap-import",
            "website": "http://www.alte-maelzerei.de/de/gastro.php",
            "wheelchair": "yes",
            "wheelchair:description:de": "Ebenerdiger Hintereingang"
          },
          "geometry": {
            "type": "Point",
            "coordinates": [
              12.0998751,
              49.0071065
            ]
          }
        },
        {
          "type": "Feature",
          "properties": {
            "id": "3185004797",
            "osm_type": "node",
            "lat": 49.0147199,
            "lon": 12.1061433,
            "amenity": "bar",
            "check_date:opening_hours": "2024-07-23",
            "indoor_seating": "yes",
            "name": "Mamonia Lounge",
            "opening_hours:signed": "no",
            "outdoor_seating": "yes"
          },
          "geometry": {
            "type": "Point",
            "coordinates": [
              12.1061433,
              49.0147199
            ]
          }
        },
        {
          "type": "Feature",
          "properties": {
            "id": "4186114918",
            "osm_type": "node",
            "lat": 49.0101513,
            "lon": 12.0911052,
            "addr:city": "Regensburg",
            "addr:country": "DE",
            "addr:housenumber": "7",
            "addr:postcode": "93051",
            "addr:street": "Friedenstraße",
            "amenity": "bar",
            "indoor_seating": "yes",
            "name": "Hotelbar Hansa",
            "operator": "Hansa Apart-Hotel Regensburg Betriebsgesellschaft mbH",
            "outdoor_seating": "no",
            "website": "https://www.hansa-apart-hotel.de/de/gastronomie/hotelbar-hansa.html",
            "wheelchair": "yes"
          },
          "geometry": {
            "type": "Point",
            "coordinates": [
              12.0911052,
              49.0101513
            ]
          }
        },
        {
          "type": "Feature",
          "properties": {
            "id": "4957283050",
            "osm_type": "node",
            "lat": 49.0157858,
            "lon": 12.0987765,
            "addr:postcode": "93047",
            "amenity": "bar",
            "name": "Vincent",
            "opening_hours": "\"nur für Hotelgäste\"",
            "phone": "+49 941 3822 5598"
          },
          "geometry": {
            "type": "Point",
            "coordinates": [
              12.0987765,
              49.0157858
            ]
          }
        },
        {
          "type": "Feature",
          "properties": {
            "id": "4992814073",
            "osm_type": "node",
            "lat": 49.0147319,
            "lon": 12.1254851,
            "addr:city": "Regensburg",
            "addr:country": "DE",
            "addr:housenumber": "19",
            "addr:postcode": "93055",
            "addr:street": "Alte Straubinger Straße",
            "amenity": "bar",
            "name": "Checkpoint Bar"
          },
          "geometry": {
            "type": "Point",
            "coordinates": [
              12.1254851,
              49.0147319
            ]
          }
        },
        {
          "type": "Feature",
          "properties": {
            "id": "13003762171",
            "osm_type": "node",
            "lat": 48.9935284,
            "lon": 12.0868269,
            "amenity": "bar",
            "name": "O-Heim Bar"
          },
          "geometry": {
            "type": "Point",
            "coordinates": [
              12.0868269,
              48.9935284
            ]
          }
        }
      ],
      "children": []
    },
    {
      "bbox": {
        "south": 48.68652475,
        "west": 12.392062499999998,
        "north": 49.017078,
        "east": 13.345766
      },
      "poiCount": 27,
      "leafCount": 27,
      "averagePosition": [
        12.947250996296296,
        48.891516429629625
      ],
      "data": [
        {
          "type": "Feature",
          "properties": {
            "id": "939156571",
            "osm_type": "node",
            "lat": 48.8339039,
            "lon": 12.9617036,
            "addr:city": "Deggendorf",
            "addr:housenumber": "5",
            "addr:postcode": "94469",
            "addr:street": "Oberer Stadtplatz",
            "amenity": "bar",
            "indoor_seating": "yes",
            "name": "C2 Coffee & Cocktails",
            "opening_hours": "Mo-Fr 00:00-02:00,11:00-24:00; Sa 00:00-03:00,11:00-24:00; Su 00:00-03:00,14:00-24:00",
            "outdoor_seating": "yes",
            "phone": "+49-991-2705235",
            "wheelchair": "no"
          },
          "geometry": {
            "type": "Point",
            "coordinates": [
              12.9617036,
              48.8339039
            ]
          }
        },
        {
          "type": "Feature",
          "properties": {
            "id": "959476309",
            "osm_type": "node",
            "lat": 48.8338549,
            "lon": 12.9615879,
            "addr:city": "Deggendorf",
            "addr:country": "DE",
            "addr:housenumber": "5",
            "addr:postcode": "94469",
            "addr:street": "Oberer Stadtplatz",
            "amenity": "bar",
            "ele": "336.01",
            "name": "Weinbeisl",
            "phone": "+49-991-285583",
            "wheelchair": "limited"
          },
          "geometry": {
            "type": "Point",
            "coordinates": [
              12.9615879,
              48.8338549
            ]
          }
        },
        {
          "type": "Feature",
          "properties": {
            "id": "2323725671",
            "osm_type": "node",
            "lat": 48.831409,
            "lon": 12.9619274,
            "addr:housenumber": "8",
            "addr:street": "Michael-Fischer-Platz",
            "amenity": "bar",
            "contact:email": "info@flair-deggendorf.de",
            "contact:phone": "+49 991 37216718",
            "indoor_seating": "yes",
            "name": "FLAIR",
            "opening_hours": "Fr, Sa 21:00-02:00",
            "outdoor_seating": "no",
            "wheelchair": "no"
          },
          "geometry": {
            "type": "Point",
            "coordinates": [
              12.9619274,
              48.831409
            ]
          }
        },
        {
          "type": "Feature",
          "properties": {
            "id": "2326441614",
            "osm_type": "node",
            "lat": 48.8308816,
            "lon": 12.9614034,
            "addr:housenumber": "52",
            "addr:street": "Westlicher Stadtgraben",
            "amenity": "bar",
            "check_date": "2025-02-22",
            "contact:instagram": "https://www.instagram.com/__tittytwister_/",
            "min_age": "18",
            "name": "Titty Twister",
            "opening_hours": "Fr,Sa 20:00-04:00",
            "operator": "Wagner Stefan"
          },
          "geometry": {
            "type": "Point",
            "coordinates": [
              12.9614034,
              48.8308816
            ]
          }
        },
        {
          "type": "Feature",
          "properties": {
            "id": "2339889018",
            "osm_type": "node",
            "lat": 48.8333393,
            "lon": 12.963687,
            "addr:city": "Deggendorf",
            "addr:country": "DE",
            "addr:housenumber": "16",
            "addr:postcode": "94469",
            "addr:street": "Pfleggasse",
            "amenity": "bar",
            "name": "Sam's Bar"
          },
          "geometry": {
            "type": "Point",
            "coordinates": [
              12.963687,
              48.8333393
            ]
          }
        },
        {
          "type": "Feature",
          "properties": {
            "id": "2339977885",
            "osm_type": "node",
            "lat": 48.8365785,
            "lon": 12.9626813,
            "addr:city": "Deggendorf",
            "addr:country": "DE",
            "addr:housenumber": "14",
            "addr:postcode": "94469",
            "addr:street": "Amanstraße",
            "amenity": "bar",
            "indoor_seating": "yes",
            "name": "Spontan",
            "opening_hours": "Tu,Th-Sa 20:00-18:00+",
            "outdoor_seating": "yes",
            "phone": "+49-991-3830303",
            "wheelchair": "no"
          },
          "geometry": {
            "type": "Point",
            "coordinates": [
              12.9626813,
              48.8365785
            ]
          }
        },
        {
          "type": "Feature",
          "properties": {
            "id": "2340028567",
            "osm_type": "node",
            "lat": 48.8338982,
            "lon": 12.9596193,
            "addr:city": "Deggendorf",
            "addr:country": "DE",
            "addr:housenumber": "26",
            "addr:postcode": "94469",
            "addr:street": "Bahnhofstraße",
            "amenity": "bar",
            "contact:mobile": "+4917667345082",
            "name": "Harmonie Imbiss & Bar"
          },
          "geometry": {
            "type": "Point",
            "coordinates": [
              12.9596193,
              48.8338982
            ]
          }
        },
        {
          "type": "Feature",
          "properties": {
            "id": "2340031062",
            "osm_type": "node",
            "lat": 48.8321612,
            "lon": 12.9588152,
            "addr:city": "Deggendorf",
            "addr:country": "DE",
            "addr:housenumber": "16",
            "addr:postcode": "94469",
            "addr:street": "Veilchengasse",
            "amenity": "bar",
            "name": "First Floor"
          },
          "geometry": {
            "type": "Point",
            "coordinates": [
              12.9588152,
              48.8321612
            ]
          }
        },
        {
          "type": "Feature",
          "properties": {
            "id": "2340033710",
            "osm_type": "node",
            "lat": 48.8330891,
            "lon": 12.9623903,
            "addr:city": "Deggendorf",
            "addr:country": "DE",
            "addr:housenumber": "9",
            "addr:postcode": "94469",
            "addr:street": "Luitpoldplatz",
            "amenity": "bar",
            "brewery": "Deggendorfer Brauhaus",
            "contact:email": "Luitpoldbar@gmx.de",
            "contact:phone": "+49 991 99599799",
            "indoor_seating": "yes",
            "name": "Luitpold",
            "operator": "Alexandra Kulla",
            "outdoor_seating": "no"
          },
          "geometry": {
            "type": "Point",
            "coordinates": [
              12.9623903,
              48.8330891
            ]
          }
        },
        {
          "type": "Feature",
          "properties": {
            "id": "3416375367",
            "osm_type": "node",
            "lat": 48.8295714,
            "lon": 12.94823,
            "addr:city": "Deggendorf",
            "addr:housenumber": "62",
            "addr:postcode": "94469",
            "addr:street": "Eginger Straße",
            "alt_name": "Donau Strandbar",
            "amenity": "bar",
            "contact:email": "info@am-gastro.de",
            "contact:facebook": "https://m.facebook.com/strandbar.deggendorf",
            "cuisine": "snack;pinsa",
            "description": "Öffnungszeiten gelten im Frühling/Sommer bei schönem Wetter, bei Regen häufig geschlossen.",
            "indoor_seating": "no",
            "name": "Strandbar",
            "opening_hours": "Mo-Fr 11:00-23:00; Sa, Su 10:00-23:00",
            "operator": "Alexander & Matthias Passow",
            "outdoor_seating": "beach",
            "seasonal": "spring;summer;autumn",
            "wheelchair": "yes"
          },
          "geometry": {
            "type": "Point",
            "coordinates": [
              12.94823,
              48.8295714
            ]
          }
        },
        {
          "type": "Feature",
          "properties": {
            "id": "3848579311",
            "osm_type": "node",
            "lat": 48.8318866,
            "lon": 12.9629022,
            "addr:city": "Deggendorf",
            "addr:housenumber": "4",
            "addr:postcode": "94469",
            "addr:street": "Rosengasse",
            "amenity": "bar",
            "contact:email": "service@minibar-deggendorf.de",
            "contact:phone": "+49 171 6945739",
            "contact:website": "https://minibar-deggendorf.de/",
            "drink:espresso": "yes",
            "name": "Mini Bar",
            "opening_hours": "Th-Sa 20:00-02:00",
            "operator": "Markus Sandweger"
          },
          "geometry": {
            "type": "Point",
            "coordinates": [
              12.9629022,
              48.8318866
            ]
          }
        },
        {
          "type": "Feature",
          "properties": {
            "id": "10004526796",
            "osm_type": "node",
            "lat": 48.8306805,
            "lon": 12.9583949,
            "addr:housenumber": "1",
            "addr:street": "Edlmairstraße",
            "amenity": "bar",
            "contact:email": "info@dallas-tagesbar.de",
            "contact:website": "https://dallas-tagesbar.de/",
            "cuisine": "cheese;ham",
            "drink:coffee": "yes",
            "drink:espresso": "yes",
            "drink:wine": "yes",
            "level": "0",
            "name": "Dallas",
            "opening_hours": "Tu, We 10:00-20:00; Th, Fr 10:00-01:00; Sa 09:00-01:00",
            "operator": "André KARL",
            "outdoor_seating": "yes",
            "payment:credit_cards": "yes",
            "payment:debit_cards": "yes"
          },
          "geometry": {
            "type": "Point",
            "coordinates": [
              12.9583949,
              48.8306805
            ]
          }
        },
        {
          "type": "Feature",
          "properties": {
            "id": "413435476",
            "osm_type": "node",
            "lat": 48.8818073,
            "lon": 12.5696728,
            "addr:city": "Straubing",
            "addr:postcode": "94315",
            "amenity": "bar",
            "name": "Feinkost Trocchia",
            "shop": "deli"
          },
          "geometry": {
            "type": "Point",
            "coordinates": [
              12.5696728,
              48.8818073
            ]
          }
        },
        {
          "type": "Feature",
          "properties": {
            "id": "1615776470",
            "osm_type": "node",
            "lat": 48.8807862,
            "lon": 12.5617585,
            "addr:city": "Straubing",
            "addr:housenumber": "22",
            "addr:postcode": "94315",
            "addr:street": "Regensburger Straße",
            "amenity": "bar",
            "name": "Sommerkeller",
            "toilets:wheelchair": "yes",
            "website": "https://www.sommerkeller-straubing.de/",
            "wheelchair": "yes",
            "wheelchair:description": "Enge Toiletten; eine Stufe am Eingang. Über Hintereingang keine Stufe."
          },
          "geometry": {
            "type": "Point",
            "coordinates": [
              12.5617585,
              48.8807862
            ]
          }
        },
        {
          "type": "Feature",
          "properties": {
            "id": "2373981943",
            "osm_type": "node",
            "lat": 48.8805226,
            "lon": 12.569325,
            "addr:city": "Straubing",
            "addr:country": "DE",
            "addr:housenumber": "5",
            "addr:postcode": "94315",
            "addr:street": "Am Platzl",
            "amenity": "bar",
            "name": "Saitensprung"
          },
          "geometry": {
            "type": "Point",
            "coordinates": [
              12.569325,
              48.8805226
            ]
          }
        },
        {
          "type": "Feature",
          "properties": {
            "id": "3598116004",
            "osm_type": "node",
            "lat": 48.8807925,
            "lon": 12.5643695,
            "addr:city": "Straubing",
            "addr:housenumber": "3",
            "addr:postcode": "94315",
            "addr:street": "Oberer-Thor-Platz",
            "amenity": "bar",
            "name": "I Due Sassi"
          },
          "geometry": {
            "type": "Point",
            "coordinates": [
              12.5643695,
              48.8807925
            ]
          }
        },
        {
          "type": "Feature",
          "properties": {
            "id": "4193285425",
            "osm_type": "node",
            "lat": 48.882104,
            "lon": 12.5658113,
            "addr:city": "Straubing",
            "addr:country": "DE",
            "addr:housenumber": "15",
            "addr:postcode": "94315",
            "addr:street": "Jesuitengasse",
            "amenity": "bar",
            "name": "Carlitos",
            "phone": "+49 171 5680394"
          },
          "geometry": {
            "type": "Point",
            "coordinates": [
              12.5658113,
              48.882104
            ]
          }
        },
        {
          "type": "Feature",
          "properties": {
            "id": "5321083151",
            "osm_type": "node",
            "lat": 48.9074545,
            "lon": 12.6928008,
            "amenity": "bar",
            "name": "Trautinger's Bar",
            "survey:date": "2018-01-04"
          },
          "geometry": {
            "type": "Point",
            "coordinates": [
              12.6928008,
              48.9074545
            ]
          }
        },
        {
          "type": "Feature",
          "properties": {
            "id": "12132965701",
            "osm_type": "node",
            "lat": 48.8802857,
            "lon": 12.5689723,
            "amenity": "bar",
            "name": "Lola Bar",
            "opening_hours": "Fr-Sa 20:00-04:00"
          },
          "geometry": {
            "type": "Point",
            "coordinates": [
              12.5689723,
              48.8802857
            ]
          }
        },
        {
          "type": "Feature",
          "properties": {
            "id": "3060044201",
            "osm_type": "node",
            "lat": 48.9856562,
            "lon": 13.303634,
            "addr:city": "Frauenau",
            "addr:housenumber": "20",
            "addr:postcode": "94258",
            "addr:street": "Moosaustraße",
            "amenity": "bar",
            "cuisine": "regional",
            "name": "Gistl",
            "phone": "+49 9926 180895",
            "smoking": "outside",
            "website": "http://www.bild-werk-frauenau.de/de/stage/"
          },
          "geometry": {
            "type": "Point",
            "coordinates": [
              13.303634,
              48.9856562
            ]
          }
        },
        {
          "type": "Feature",
          "properties": {
            "id": "4353160363",
            "osm_type": "node",
            "lat": 49.0144321,
            "lon": 13.2272023,
            "addr:housenumber": "9",
            "addr:street": "Dr.-Schott-Straße",
            "amenity": "bar",
            "indoor_seating": "yes",
            "name": "Bierstüberl am Kinoplatz",
            "outdoor_seating": "yes"
          },
          "geometry": {
            "type": "Point",
            "coordinates": [
              13.2272023,
              49.0144321
            ]
          }
        },
        {
          "type": "Feature",
          "properties": {
            "id": "4353160371",
            "osm_type": "node",
            "lat": 49.0136292,
            "lon": 13.2274245,
            "amenity": "bar",
            "name": "Spinnradl"
          },
          "geometry": {
            "type": "Point",
            "coordinates": [
              13.2274245,
              49.0136292
            ]
          }
        },
        {
          "type": "Feature",
          "properties": {
            "id": "4358048127",
            "osm_type": "node",
            "lat": 48.9698023,
            "lon": 13.1268442,
            "addr:city": "Regen",
            "addr:country": "DE",
            "addr:housenumber": "25",
            "addr:postcode": "94209",
            "addr:street": "Stadtplatz",
            "amenity": "bar",
            "check_date": "2024-05-17",
            "indoor_seating": "yes",
            "name": "Jeff",
            "outdoor_seating": "yes"
          },
          "geometry": {
            "type": "Point",
            "coordinates": [
              13.1268442,
              48.9698023
            ]
          }
        },
        {
          "type": "Feature",
          "properties": {
            "id": "5045346378",
            "osm_type": "node",
            "lat": 48.9876119,
            "lon": 13.3005439,
            "addr:city": "Frauenau",
            "addr:housenumber": "5",
            "addr:postcode": "94258",
            "addr:street": "Bahnhofstraße",
            "amenity": "bar",
            "indoor_seating": "yes",
            "name": "Ädäm's",
            "opening_hours": "Fr-Sa 18:00-01:00; Th 18:00-24:00; Su 14:00-18:00",
            "outdoor_seating": "veranda",
            "website": "https://www.cocktailerie.de"
          },
          "geometry": {
            "type": "Point",
            "coordinates": [
              13.3005439,
              48.9876119
            ]
          }
        },
        {
          "type": "Feature",
          "properties": {
            "id": "5552810428",
            "osm_type": "node",
            "lat": 48.8878845,
            "lon": 13.3135128,
            "amenity": "bar",
            "name": "Bifangal's Hittn"
          },
          "geometry": {
            "type": "Point",
            "coordinates": [
              13.3135128,
              48.8878845
            ]
          }
        },
        {
          "type": "Feature",
          "properties": {
            "id": "12007364997",
            "osm_type": "node",
            "lat": 49.0125575,
            "lon": 13.2334234,
            "addr:city": "Zwiesel",
            "addr:housenumber": "16",
            "addr:postcode": "94227",
            "addr:street": "Prälat-Neun-Straße",
            "amenity": "bar",
            "indoor_seating": "yes",
            "name": "Glashaus Bar",
            "outdoor_seating": "yes",
            "phone": "+49151 75012906"
          },
          "geometry": {
            "type": "Point",
            "coordinates": [
              13.2334234,
              49.0125575
            ]
          }
        },
        {
          "type": "Feature",
          "properties": {
            "id": "12137194011",
            "osm_type": "node",
            "lat": 49.0143629,
            "lon": 13.2271391,
            "addr:city": "Zwiesel",
            "addr:housenumber": "9",
            "addr:postcode": "94227",
            "addr:street": "Dr.-Schott-Straße",
            "amenity": "bar",
            "email": "diebuhnezwiesel@gmail.com",
            "facebook": "https://www.facebook.com/people/Die-B%C3%BChne/100088819994564",
            "name": "Die Bühne",
            "opening_hours": "Mo-Sa 11:00-23:00",
            "phone": "+49 160 4950363"
          },
          "geometry": {
            "type": "Point",
            "coordinates": [
              13.2271391,
              49.0143629
            ]
          }
        }
      ],
      "children": []
    }
  ]
}