{
  "bbox": {
    "south": 47.694865,
    "west": 9.530952,
    "north": 48.355971499999995,
    "east": 11.438358999999998
  },
  "poiCount": 166,
  "leafCount": 0,
  "averagePosition": [
    10.571033539156627,
    48.00896526204819
  ],
  "data": [],
  "children": [
    {
      "bbox": {
        "south": 47.694865,
        "west": 9.530952,
        "north": 48.02541825,
        "east": 10.484655499999999
      },
      "poiCount": 47,
      "leafCount": 47,
      "averagePosition": [
        10.043222693617022,
        47.81618633829787
      ],
      "data": [
        {
          "type": "Feature",
          "properties": {
            "id": "292827852",
            "osm_type": "node",
            "lat": 47.8082711,
            "lon": 9.6470637,
            "addr:city": "Weingarten",
            "addr:housenumber": "1",
            "addr:postcode": "88250",
            "addr:street": "St.-Longinus-Straße",
            "amenity": "bar",
            "brewery": "Brauerei_Härle",
            "check_date": "2023-11-03",
            "min_age": "18",
            "name": "alibi - Café & Bar",
            "opening_hours": "Mo,We,Th 20:00-01:00; Fr 20:00-05:00; PH 20:00-01:00; SH 20:00-01:00",
            "opening_hours:covid19": "Mi,Fr 20:00 - 01:00",
            "operator": "alibi - studentischer Kulturverein e.V.",
            "smoking": "outside",
            "website": "https://www.alibi-wgt.de",
            "wheelchair": "limited"
          },
          "geometry": {
            "type": "Point",
            "coordinates": [
              9.6470637,
              47.8082711
            ]
          }
        },
        {
          "type": "Feature",
          "properties": {
            "id": "634387368",
            "osm_type": "node",
            "lat": 47.7869156,
            "lon": 9.6079094,
            "addr:city": "Ravensburg",
            "addr:housenumber": "1",
            "addr:postcode": "88212",
            "addr:street": "Am Alten Gaswerk",
            "amenity": "bar",
            "check_date": "2025-08-31",
            "check_date:smoking": "2025-08-31",
            "indoor_seating": "yes",
            "name": "Kantine",
            "opening_hours": "Su-Fr 11:30-14:00, 18:00-23:00; Sa 18:00-23:00",
            "outdoor_seating": "yes",
            "phone": "+49 751 3542390",
            "smoking": "outside",
            "website": "https://www.kantine-ravensburg.de/",
            "wheelchair": "no"
          },
          "geometry": {
            "type": "Point",
            "coordinates": [
              9.6079094,
              47.7869156
            ]
          }
        },
        {
          "type": "Feature",
          "properties": {
            "id": "1022918164",
            "osm_type": "node",
            "lat": 47.8046707,
            "lon": 9.6380045,
            "amenity": "bar",
            "name": "Schinderhannes",
            "toilets:wheelchair": "no",
            "wheelchair": "limited"
          },
          "geometry": {
            "type": "Point",
            "coordinates": [
              9.6380045,
              47.8046707
            ]
          }
        },
        {
          "type": "Feature",
          "properties": {
            "id": "1607059336",
            "osm_type": "node",
            "lat": 47.8076228,
            "lon": 9.6424501,
            "addr:city": "Weingarten",
            "addr:housenumber": "2",
            "addr:postcode": "88250",
            "addr:street": "Broner Platz",
            "amenity": "bar",
            "name": "Kultur Bar Impuls",
            "opening_hours": "Tu-Fr 09:30-23:00; Sa 10:00-23:00; Su-Mo off",
            "operator": "Sharam Ashghari",
            "phone": "+49 751 95895219",
            "website": "https://www.kulturbarimpuls.de/"
          },
          "geometry": {
            "type": "Point",
            "coordinates": [
              9.6424501,
              47.8076228
            ]
          }
        },
        {
          "type": "Feature",
          "properties": {
            "id": "2132878526",
            "osm_type": "node",
            "lat": 47.78026,
            "lon": 9.6137426,
            "addr:housenumber": "6",
            "addr:street": "Marienplatz",
            "amenity": "bar",
            "entrance": "yes",
            "indoor_seating": "yes",
            "name": "Lüderitz",
            "outdoor_seating": "yes",
            "phone": "+49 751 14151",
            "smoking": "outside",
            "toilets:wheelchair": "no",
            "wheelchair": "no"
          },
          "geometry": {
            "type": "Point",
            "coordinates": [
              9.6137426,
              47.78026
            ]
          }
        },
        {
          "type": "Feature",
          "properties": {
            "id": "2823409352",
            "osm_type": "node",
            "lat": 47.782394,
            "lon": 9.6127878,
            "addr:city": "Ravensburg",
            "addr:housenumber": "1",
            "addr:postcode": "88212",
            "addr:street": "Seelbruckstraße",
            "amenity": "bar",
            "name": "Dubai Shisha Lounge",
            "opening_hours": "Mo-Su 00:00-03:00,11:00-24:00",
            "phone": "+49 751 351384"
          },
          "geometry": {
            "type": "Point",
            "coordinates": [
              9.6127878,
              47.782394
            ]
          }
        },
        {
          "type": "Feature",
          "properties": {
            "id": "2964630812",
            "osm_type": "node",
            "lat": 47.8274132,
            "lon": 9.6397858,
            "addr:city": "Baienfurt",
            "addr:housenumber": "50",
            "addr:postcode": "88255",
            "addr:street": "Breite Straße",
            "amenity": "bar",
            "name": "Achperle",
            "phone": "+49 751 44118"
          },
          "geometry": {
            "type": "Point",
            "coordinates": [
              9.6397858,
              47.8274132
            ]
          }
        },
        {
          "type": "Feature",
          "properties": {
            "id": "5145866434",
            "osm_type": "node",
            "lat": 47.7809916,
            "lon": 9.6141408,
            "amenity": "bar",
            "check_date:opening_hours": "2023-02-22",
            "name": "Bistro Ziel",
            "opening_hours": "Mo-Fr 17:00-24:00; Sa,Su 00:00-02:00,17:00-24:00",
            "opening_hours:signed": "no",
            "phone": "+49 751 36602784"
          },
          "geometry": {
            "type": "Point",
            "coordinates": [
              9.6141408,
              47.7809916
            ]
          }
        },
        {
          "type": "Feature",
          "properties": {
            "id": "5157856571",
            "osm_type": "node",
            "lat": 47.7830525,
            "lon": 9.6128225,
            "amenity": "bar",
            "indoor_seating": "yes",
            "name": "Rincón",
            "outdoor_seating": "no",
            "phone": "+49 751 36602895",
            "smoking": "no"
          },
          "geometry": {
            "type": "Point",
            "coordinates": [
              9.6128225,
              47.7830525
            ]
          }
        },
        {
          "type": "Feature",
          "properties": {
            "id": "5339012273",
            "osm_type": "node",
            "lat": 47.780392,
            "lon": 9.6138817,
            "amenity": "bar",
            "indoor_seating": "yes",
            "name": "Seven - Eight - Niners",
            "outdoor_seating": "yes",
            "smoking": "outside"
          },
          "geometry": {
            "type": "Point",
            "coordinates": [
              9.6138817,
              47.780392
            ]
          }
        },
        {
          "type": "Feature",
          "properties": {
            "id": "5832549890",
            "osm_type": "node",
            "lat": 47.7830553,
            "lon": 9.6125071,
            "addr:city": "Ravensburg",
            "addr:housenumber": "16",
            "addr:postcode": "88212",
            "addr:street": "Rosenstraße",
            "amenity": "bar",
            "contact:facebook": "https://facebook.com/aurumbar",
            "contact:instagram": "https://instagram.com/aurum_bar",
            "contact:phone": "+49 751 1859644",
            "contact:website": "https://aurum-bar.jimdo.com",
            "indoor_seating": "yes",
            "name": "Aurum",
            "opening_hours": "We-Sa 20:00-02:00",
            "outdoor_seating": "yes",
            "smoking": "outside"
          },
          "geometry": {
            "type": "Point",
            "coordinates": [
              9.6125071,
              47.7830553
            ]
          }
        },
        {
          "type": "Feature",
          "properties": {
            "id": "12952350028",
            "osm_type": "node",
            "lat": 47.8060563,
            "lon": 9.6382431,
            "addr:city": "Weingarten",
            "addr:housenumber": "21",
            "addr:postcode": "88250",
            "addr:street": "Liebfrauenstraße",
            "amenity": "bar",
            "brewery": "no",
            "description": "Unisex Toilette",
            "name": "Queer Hotspot",
            "opening_hours": "Tu 18:00 - 22:00",
            "toilets:unisex": "yes"
          },
          "geometry": {
            "type": "Point",
            "coordinates": [
              9.6382431,
              47.8060563
            ]
          }
        },
        {
          "type": "Feature",
          "properties": {
            "id": "475528734",
            "osm_type": "node",
            "lat": 47.7243296,
            "lon": 10.3154196,
            "addr:city": "Kempten (Allgäu)",
            "addr:country": "DE",
            "addr:housenumber": "2",
            "addr:postcode": "87435",
            "addr:street": "Beethovenstraße",
            "amenity": "bar",
            "brewery": "Zötler",
            "check_date": "2024-01-01",
            "contact:phone": "+49 831 20593786",
            "contact:website": "https://www.kuenstlerhaus-kempten.de/",
            "description": "Cafe, Bar, Bühne",
            "indoor_seating": "yes",
            "name": "Künstlerhaus",
            "opening_hours": "Mo-Th 10:00-23:00; Fr,Sa 10:00-24:00; Su off",
            "outdoor_seating": "yes",
            "toilets:wheelchair": "yes",
            "wheelchair": "yes"
          },
          "geometry": {
            "type": "Point",
            "coordinates": [
              10.3154196,
              47.7243296
            ]
          }
        },
        {
          "type": "Feature",
          "properties": {
            "id": "475529133",
            "osm_type": "node",
            "lat": 47.7259661,
            "lon": 10.315746,
            "amenity": "bar",
            "brewery": "Allgäuer Brauhaus",
            "name": "Glamour",
            "website": "http://www.glamour-kempten.de"
          },
          "geometry": {
            "type": "Point",
            "coordinates": [
              10.315746,
              47.7259661
            ]
          }
        },
        {
          "type": "Feature",
          "properties": {
            "id": "475529811",
            "osm_type": "node",
            "lat": 47.7261546,
            "lon": 10.316645,
            "amenity": "bar",
            "brewery": "Allgäuer Brauhaus",
            "name": "Solo Bar",
            "opening_hours": "Tu-Th 11:00-23:00, Fr 11:00-01:00, Sa 10:00-01:00, Su 10:00-18:00",
            "toilets:wheelchair": "no",
            "website": "https://nova-kempten.de/solo-bar/",
            "wheelchair": "limited"
          },
          "geometry": {
            "type": "Point",
            "coordinates": [
              10.316645,
              47.7261546
            ]
          }
        },
        {
          "type": "Feature",
          "properties": {
            "id": "475529921",
            "osm_type": "node",
            "lat": 47.7277794,
            "lon": 10.3171005,
            "addr:city": "Kempten (Allgäu)",
            "addr:country": "DE",
            "addr:housenumber": "2",
            "addr:postcode": "87435",
            "addr:street": "Grabengasse",
            "amenity": "bar",
            "brewery": "Aktienbrauerei Kaufbeuren",
            "name": "Cheers Bistro"
          },
          "geometry": {
            "type": "Point",
            "coordinates": [
              10.3171005,
              47.7277794
            ]
          }
        },
        {
          "type": "Feature",
          "properties": {
            "id": "475530080",
            "osm_type": "node",
            "lat": 47.7276421,
            "lon": 10.3170433,
            "amenity": "bar",
            "brewery": "Allgäuer Brauhaus",
            "name": "JIM JIM",
            "wheelchair": "limited"
          },
          "geometry": {
            "type": "Point",
            "coordinates": [
              10.3170433,
              47.7276421
            ]
          }
        },
        {
          "type": "Feature",
          "properties": {
            "id": "475531287",
            "osm_type": "node",
            "lat": 47.7240427,
            "lon": 10.3205563,
            "amenity": "bar",
            "brewery": "Der Hirschbräu;Augustiner Bräu München;Allgäuer Brauhaus",
            "check_date:opening_hours": "2023-09-09",
            "name": "Ritterkeller",
            "opening_hours": "Mo-Th 20:00-24:00, Fr,Sa 20:00-02:00+",
            "opening_hours:signed": "no",
            "smoking": "yes",
            "toilets:wheelchair": "no",
            "website": "https://www.der-ritterkeller.de/",
            "wheelchair": "limited"
          },
          "geometry": {
            "type": "Point",
            "coordinates": [
              10.3205563,
              47.7240427
            ]
          }
        },
        {
          "type": "Feature",
          "properties": {
            "id": "475531870",
            "osm_type": "node",
            "lat": 47.7260294,
            "lon": 10.3189214,
            "addr:city": "Kempten (Allgäu)",
            "addr:country": "DE",
            "addr:housenumber": "2",
            "addr:postcode": "87435",
            "addr:street": "Rathausplatz",
            "amenity": "bar",
            "brewery": "Allgäuer Brauhaus",
            "name": "Rakete",
            "toilets:wheelchair": "no",
            "wheelchair": "limited"
          },
          "geometry": {
            "type": "Point",
            "coordinates": [
              10.3189214,
              47.7260294
            ]
          }
        },
        {
          "type": "Feature",
          "properties": {
            "id": "480670424",
            "osm_type": "node",
            "lat": 47.7254824,
            "lon": 10.3167361,
            "amenity": "bar",
            "name": "Puro Club",
            "website": "http://www.puro-kempten.de",
            "wheelchair": "limited"
          },
          "geometry": {
            "type": "Point",
            "coordinates": [
              10.3167361,
              47.7254824
            ]
          }
        },
        {
          "type": "Feature",
          "properties": {
            "id": "480670876",
            "osm_type": "node",
            "lat": 47.7252904,
            "lon": 10.3168037,
            "amenity": "bar",
            "name": "Vinum",
            "opening_hours": "Mo-Sa 11:00-14:00,18:00-24:00+",
            "website": "http://www.vinum-kempten.de",
            "wheelchair": "limited"
          },
          "geometry": {
            "type": "Point",
            "coordinates": [
              10.3168037,
              47.7252904
            ]
          }
        },
        {
          "type": "Feature",
          "properties": {
            "id": "480671845",
            "osm_type": "node",
            "lat": 47.7267777,
            "lon": 10.3178132,
            "amenity": "bar",
            "brewery": "Allgäuer Brauhaus",
            "name": "Diskothek Pegasus"
          },
          "geometry": {
            "type": "Point",
            "coordinates": [
              10.3178132,
              47.7267777
            ]
          }
        },
        {
          "type": "Feature",
          "properties": {
            "id": "490530260",
            "osm_type": "node",
            "lat": 47.7224879,
            "lon": 10.3116701,
            "amenity": "bar",
            "brewery": "Zötler",
            "name": "Mozartstüble",
            "phone": "+491738529050",
            "wheelchair": "limited"
          },
          "geometry": {
            "type": "Point",
            "coordinates": [
              10.3116701,
              47.7224879
            ]
          }
        },
        {
          "type": "Feature",
          "properties": {
            "id": "663623516",
            "osm_type": "node",
            "lat": 47.7215094,
            "lon": 10.3218156,
            "addr:city": "Kempten (Allgäu)",
            "addr:country": "DE",
            "addr:housenumber": "10",
            "addr:postcode": "87435",
            "addr:street": "Jenischstraße",
            "amenity": "bar",
            "brewery": "Meckatzer",
            "name": "Centro Italiano"
          },
          "geometry": {
            "type": "Point",
            "coordinates": [
              10.3218156,
              47.7215094
            ]
          }
        },
        {
          "type": "Feature",
          "properties": {
            "id": "663773034",
            "osm_type": "node",
            "lat": 47.7245942,
            "lon": 10.322125,
            "addr:city": "Kempten (Allgäu)",
            "addr:country": "DE",
            "addr:housenumber": "1",
            "addr:postcode": "87435",
            "addr:street": "Burgstraße",
            "amenity": "bar",
            "bar": "yes",
            "contact:email": "illerstueble.kempten@gmail.com",
            "contact:phone": "+49 160 560 2691",
            "contact:website": "https://sportsbar-illerstueble.de/",
            "contact:website:menu": "https://sportsbar-illerstueble.de/wp-content/uploads/2023/08/Speisekarte-Illerstueble-4.pdf",
            "cuisine": "burger;kaffee;cocktail",
            "name": "Illerstüble Bar Sportsbar Restaurant Cafe",
            "opening_hours": "So-Th 11:00-23:00; Fr-Sa 11:00-02:00",
            "outdoor_seating": "yes"
          },
          "geometry": {
            "type": "Point",
            "coordinates": [
              10.322125,
              47.7245942
            ]
          }
        },
        {
          "type": "Feature",
          "properties": {
            "id": "863426338",
            "osm_type": "node",
            "lat": 47.7325626,
            "lon": 10.3102439,
            "amenity": "bar",
            "brewery": "Aktienbrauerei Kaufbeuren",
            "check_date": "2025-05-30",
            "name": "Da Salvatore"
          },
          "geometry": {
            "type": "Point",
            "coordinates": [
              10.3102439,
              47.7325626
            ]
          }
        },
        {
          "type": "Feature",
          "properties": {
            "id": "4832550536",
            "osm_type": "node",
            "lat": 47.7254232,
            "lon": 10.3229619,
            "amenity": "bar",
            "indoor_seating": "no",
            "name": "fiume Sommerbar an der Iller",
            "name:en": "fiume Sommerbar",
            "outdoor_seating": "yes",
            "toilets:wheelchair": "yes",
            "wheelchair": "yes"
          },
          "geometry": {
            "type": "Point",
            "coordinates": [
              10.3229619,
              47.7254232
            ]
          }
        },
        {
          "type": "Feature",
          "properties": {
            "id": "4850306421",
            "osm_type": "node",
            "lat": 47.72729,
            "lon": 10.310545,
            "addr:city": "Kempten (Allgäu)",
            "addr:country": "DE",
            "addr:housenumber": "10",
            "addr:postcode": "87435",
            "addr:street": "Poststraße",
            "amenity": "bar",
            "name": "The Kitchen Bar",
            "wheelchair": "no",
            "wheelchair:description": "Wegen Eingangstreppe nicht mit dem Rollstuhl befahrbar."
          },
          "geometry": {
            "type": "Point",
            "coordinates": [
              10.310545,
              47.72729
            ]
          }
        },
        {
          "type": "Feature",
          "properties": {
            "id": "4850314521",
            "osm_type": "node",
            "lat": 47.727443,
            "lon": 10.310426,
            "addr:city": "Kempten (Allgäu)",
            "addr:country": "DE",
            "addr:housenumber": "10",
            "addr:postcode": "87435",
            "addr:street": "Poststraße",
            "amenity": "bar",
            "name": "The Kitchen Bar",
            "wheelchair": "no",
            "wheelchair:description": "Wegen Eingangstreppe nicht mit dem Rollstuhl zugänglich​."
          },
          "geometry": {
            "type": "Point",
            "coordinates": [
              10.310426,
              47.727443
            ]
          }
        },
        {
          "type": "Feature",
          "properties": {
            "id": "4850519024",
            "osm_type": "node",
            "lat": 47.7241638,
            "lon": 10.3213988,
            "addr:city": "Kempten (Allgäu)",
            "addr:country": "DE",
            "addr:housenumber": "44",
            "addr:postcode": "87435",
            "addr:street": "Webergasse",
            "amenity": "bar",
            "name": "Die Bar",
            "opening_hours": "Mo-Th 12:00-24:00, Fr,Sa 12:00-02:00, Su 12:00-24:00",
            "toilets:wheelchair": "no",
            "wheelchair": "no",
            "wheelchair:description": "Eingangstür hat ca. 7-10 cm Absatz."
          },
          "geometry": {
            "type": "Point",
            "coordinates": [
              10.3213988,
              47.7241638
            ]
          }
        },
        {
          "type": "Feature",
          "properties": {
            "id": "6617781346",
            "osm_type": "node",
            "lat": 47.7239702,
            "lon": 10.3105865,
            "addr:city": "Kempten (Allgäu)",
            "addr:country": "DE",
            "addr:housenumber": "1",
            "addr:postcode": "87435",
            "addr:street": "Salzstraße",
            "amenity": "bar",
            "name": "Nightz Cocktailbar"
          },
          "geometry": {
            "type": "Point",
            "coordinates": [
              10.3105865,
              47.7239702
            ]
          }
        },
        {
          "type": "Feature",
          "properties": {
            "id": "6698973256",
            "osm_type": "node",
            "lat": 47.7255749,
            "lon": 10.3190553,
            "addr:postcode": "87435",
            "amenity": "bar",
            "name": "Kara Brew Bar",
            "opening_hours": "Tu-We 10:00-20:00; Th-Sa 10:00-22:00",
            "phone": "+49 831 59036640",
            "toilets:wheelchair": "no",
            "wheelchair": "yes"
          },
          "geometry": {
            "type": "Point",
            "coordinates": [
              10.3190553,
              47.7255749
            ]
          }
        },
        {
          "type": "Feature",
          "properties": {
            "id": "9308972821",
            "osm_type": "node",
            "lat": 47.8488335,
            "lon": 10.4351851,
            "amenity": "bar",
            "brewery": "Hacker-Pschorr",
            "name": "GoIn"
          },
          "geometry": {
            "type": "Point",
            "coordinates": [
              10.4351851,
              47.8488335
            ]
          }
        },
        {
          "type": "Feature",
          "properties": {
            "id": "1446844705",
            "osm_type": "node",
            "lat": 47.9229254,
            "lon": 9.7520659,
            "addr:city": "Bad Waldsee",
            "addr:country": "DE",
            "addr:housenumber": "9",
            "addr:postcode": "88339",
            "addr:street": "Biberacher Straße",
            "amenity": "bar",
            "contact:facebook": "100063475647001",
            "name": "Bar4You",
            "wheelchair": "no"
          },
          "geometry": {
            "type": "Point",
            "coordinates": [
              9.7520659,
              47.9229254
            ]
          }
        },
        {
          "type": "Feature",
          "properties": {
            "id": "1939447992",
            "osm_type": "node",
            "lat": 47.9192396,
            "lon": 9.7558194,
            "addr:city": "Bad Waldsee",
            "addr:country": "DE",
            "addr:housenumber": "4",
            "addr:postcode": "88339",
            "addr:street": "Herrgottsgasse",
            "amenity": "bar",
            "contact:facebook": "https://www.facebook.com/ChicagoBarRestaurant",
            "email": "hi@chicago-bar.com",
            "lastcheck": "2022-09-18",
            "name": "Chicago Bar & Restaurant",
            "opening_hours": "Th 16:30-01:00; Fr,Sa 16:30-02:00",
            "outdoor_seating": "yes"
          },
          "geometry": {
            "type": "Point",
            "coordinates": [
              9.7558194,
              47.9192396
            ]
          }
        },
        {
          "type": "Feature",
          "properties": {
            "id": "4972329425",
            "osm_type": "node",
            "lat": 47.9211832,
            "lon": 9.7553285,
            "addr:city": "Bad Waldsee",
            "addr:country": "DE",
            "addr:housenumber": "8",
            "addr:postcode": "88339",
            "addr:street": "Ulrich-Kuderer-Straße",
            "amenity": "bar",
            "name": "Kuderer",
            "operator": "Tuncay Caba",
            "outdoor_seating": "yes"
          },
          "geometry": {
            "type": "Point",
            "coordinates": [
              9.7553285,
              47.9211832
            ]
          }
        },
        {
          "type": "Feature",
          "properties": {
            "id": "6143195345",
            "osm_type": "node",
            "lat": 47.9594328,
            "lon": 9.6525031,
            "amenity": "bar",
            "name": "Mischwerk",
            "opening_hours": "Mo-Th 14:00-23:00; Su 14:00-23:00; Fr-Sa 14:00-24:00",
            "operator": "Hofgut Tiergarten",
            "website": "https://www.hofgut-tiergarten.com/bar-mischwerk/"
          },
          "geometry": {
            "type": "Point",
            "coordinates": [
              9.6525031,
              47.9594328
            ]
          }
        },
        {
          "type": "Feature",
          "properties": {
            "id": "6267652398",
            "osm_type": "node",
            "lat": 47.9194173,
            "lon": 9.755166,
            "addr:city": "Bad Waldsee",
            "addr:country": "DE",
            "addr:housenumber": "23",
            "addr:postcode": "88339",
            "addr:street": "Ravensburger Straße",
            "amenity": "bar",
            "email": "wolf@amadeus-badwaldsee.de",
            "name": "Amadeus",
            "opening_hours": "Mo-Th 00:00-01:00,11:00-14:00,17:00-24:00; Fr 00:00-02:00,11:00-14:00,17:00-24:00; Sa 00:00-02:00,17:00-24:00; Su 00:00-01:00,17:00-24:00",
            "outdoor_seating": "yes",
            "phone": "+49 7524 409 20 39",
            "smoking": "outside",
            "website": "https://www.amadeus-badwaldsee.de/"
          },
          "geometry": {
            "type": "Point",
            "coordinates": [
              9.755166,
              47.9194173
            ]
          }
        },
        {
          "type": "Feature",
          "properties": {
            "id": "11459292568",
            "osm_type": "node",
            "lat": 47.9521045,
            "lon": 9.6360171,
            "amenity": "bar",
            "name": "Heuboda",
            "opening_hours": "We 16:30-02:00; Fr 14:00-02:00; Su 16:30-02:00",
            "website": "https://www.heuboda-aulendorf.de/"
          },
          "geometry": {
            "type": "Point",
            "coordinates": [
              9.6360171,
              47.9521045
            ]
          }
        },
        {
          "type": "Feature",
          "properties": {
            "id": "2562925782",
            "osm_type": "node",
            "lat": 47.9826875,
            "lon": 10.1810495,
            "addr:city": "Memmingen",
            "addr:housenumber": "3",
            "addr:postcode": "87700",
            "addr:street": "Baumstraße",
            "amenity": "bar",
            "indoor_seating": "yes",
            "name": "Rockbar",
            "opening_hours": "Th 18:00-22:00; Fr,Sa 18:00-03:00",
            "outdoor_seating": "no"
          },
          "geometry": {
            "type": "Point",
            "coordinates": [
              10.1810495,
              47.9826875
            ]
          }
        },
        {
          "type": "Feature",
          "properties": {
            "id": "2941727801",
            "osm_type": "node",
            "lat": 47.9827455,
            "lon": 10.180223,
            "amenity": "bar",
            "check_date": "2023-11-17",
            "indoor_seating": "yes",
            "name": "Uno",
            "opening_hours": "Mo-Th 19:00-01:00, Fr,Sa 19:00-05:00, Su 19:00-03:00",
            "outdoor_seating": "no"
          },
          "geometry": {
            "type": "Point",
            "coordinates": [
              10.180223,
              47.9827455
            ]
          }
        },
        {
          "type": "Feature",
          "properties": {
            "id": "6223483887",
            "osm_type": "node",
            "lat": 47.9836082,
            "lon": 10.1848204,
            "amenity": "bar",
            "check_date": "2023-11-23",
            "name": "Grünes Haus"
          },
          "geometry": {
            "type": "Point",
            "coordinates": [
              10.1848204,
              47.9836082
            ]
          }
        },
        {
          "type": "Feature",
          "properties": {
            "id": "7112389078",
            "osm_type": "node",
            "lat": 47.986154,
            "lon": 10.1843552,
            "amenity": "bar",
            "check_date": "2023-12-27",
            "indoor_seating": "yes",
            "name": "City Pub",
            "opening_hours": "Tu-Su 16:00-23:00",
            "outdoor_seating": "yes"
          },
          "geometry": {
            "type": "Point",
            "coordinates": [
              10.1843552,
              47.986154
            ]
          }
        },
        {
          "type": "Feature",
          "properties": {
            "id": "7413379372",
            "osm_type": "node",
            "lat": 47.983268,
            "lon": 10.1835113,
            "amenity": "bar",
            "check_date": "2023-11-17",
            "name": "Münchner Kindl"
          },
          "geometry": {
            "type": "Point",
            "coordinates": [
              10.1835113,
              47.983268
            ]
          }
        },
        {
          "type": "Feature",
          "properties": {
            "id": "10560852124",
            "osm_type": "node",
            "lat": 47.9833467,
            "lon": 10.1823731,
            "addr:city": "Memmingen",
            "addr:country": "DE",
            "addr:housenumber": "6",
            "addr:postcode": "87700",
            "addr:street": "Schrannenplatz",
            "amenity": "bar",
            "contact:facebook": "https://fb.com/chaplin.skylounge",
            "indoor_seating": "yes",
            "name": "Chaplin Sky Lounge",
            "opening_hours": "Mo-Th 12:00-24:00, Sa 17:00-02:00, Su 17:00-24:00",
            "outdoor_seating": "yes"
          },
          "geometry": {
            "type": "Point",
            "coordinates": [
              10.1823731,
              47.9833467
            ]
          }
        },
        {
          "type": "Feature",
          "properties": {
            "id": "11428522359",
            "osm_type": "node",
            "lat": 47.9847295,
            "lon": 10.1844126,
            "addr:city": "Memmingen",
            "addr:housenumber": "20",
            "addr:postcode": "87700",
            "addr:street": "Kuttelgasse",
            "amenity": "bar",
            "brewery": "various",
            "cuisine": "hot_dog",
            "indoor_seating": "yes",
            "min_age": "16",
            "name": "Treff",
            "opening_hours": "Mo-Su 11:00-02:00",
            "outdoor_seating": "no",
            "phone": "+49 8331 4539",
            "website": "https://www.treff.de/"
          },
          "geometry": {
            "type": "Point",
            "coordinates": [
              10.1844126,
              47.9847295
            ]
          }
        },
        {
          "type": "Feature",
          "properties": {
            "id": "13144833401",
            "osm_type": "node",
            "lat": 47.9854735,
            "lon": 10.1816841,
            "addr:housenumber": "15",
            "addr:postcode": "87700",
            "addr:street": "Kramerstraße",
            "amenity": "bar",
            "cuisine": "arab;coffee_shop;spanish",
            "name": "Manuel",
            "opening_hours": "Mo-We 09:00-21:00; Th-Sa 09:00-23:00"
          },
          "geometry": {
            "type": "Point",
            "coordinates": [
              10.1816841,
              47.9854735
            ]
          }
        }
      ],
      "children": []
    },
    {
      "bbox": {
        "south": 47.694865,
        "west": 10.484655499999999,
        "north": 48.02541825,
        "east": 11.438358999999998
      },
      "poiCount": 40,
      "leafCount": 40,
      "averagePosition": [
        10.9351386,
        47.8825898675
      ],
      "data": [
        {
          "type": "Feature",
          "properties": {
            "id": "1401843716",
            "osm_type": "node",
            "lat": 47.7785964,
            "lon": 10.6201629,
            "addr:city": "Marktoberdorf",
            "addr:country": "DE",
            "addr:housenumber": "12",
            "addr:postcode": "87616",
            "addr:street": "Eberle-Kögl-Straße",
            "amenity": "bar",
            "description": "Shisha Bar",
            "name": "Smokes",
            "outdoor_seating": "yes"
          },
          "geometry": {
            "type": "Point",
            "coordinates": [
              10.6201629,
              47.7785964
            ]
          }
        },
        {
          "type": "Feature",
          "properties": {
            "id": "2295056193",
            "osm_type": "node",
            "lat": 47.7789157,
            "lon": 10.8186709,
            "amenity": "bar",
            "indoor_seating": "yes",
            "name": "Pudlwirt",
            "outdoor_seating": "yes",
            "wheelchair": "limited"
          },
          "geometry": {
            "type": "Point",
            "coordinates": [
              10.8186709,
              47.7789157
            ]
          }
        },
        {
          "type": "Feature",
          "properties": {
            "id": "5372748617",
            "osm_type": "node",
            "lat": 47.7777995,
            "lon": 10.6174748,
            "amenity": "bar",
            "email": "info@konterkaffee.de",
            "name": "KonterKaffee",
            "opening_hours": "Apr-Oct We-Su 17:00-01:00; Nov-Mar We-Su 19:00-01:00",
            "website": "https://www.konterkaffee.de"
          },
          "geometry": {
            "type": "Point",
            "coordinates": [
              10.6174748,
              47.7777995
            ]
          }
        },
        {
          "type": "Feature",
          "properties": {
            "id": "5864236702",
            "osm_type": "node",
            "lat": 47.7779847,
            "lon": 10.6150081,
            "addr:city": "Marktoberdorf",
            "addr:country": "DE",
            "addr:housenumber": "23",
            "addr:postcode": "87616",
            "addr:street": "Georg-Fischer-Straße",
            "amenity": "bar",
            "brewery": "various",
            "name": "Cicero",
            "opening_hours": "Tu-Sa 19:00-00:00",
            "outdoor_seating": "yes",
            "smoking": "outside"
          },
          "geometry": {
            "type": "Point",
            "coordinates": [
              10.6150081,
              47.7779847
            ]
          }
        },
        {
          "type": "Feature",
          "properties": {
            "id": "9937645324",
            "osm_type": "node",
            "lat": 47.8720278,
            "lon": 10.6132035,
            "addr:city": "Kaufbeuren",
            "addr:country": "DE",
            "addr:housenumber": "15",
            "addr:postcode": "87600",
            "addr:street": "Apfeltranger Straße",
            "amenity": "bar",
            "name": "M*A*S*H The Soldiers Pub",
            "opening_hours": "We 18:00-02:00",
            "outdoor_seating": "yes"
          },
          "geometry": {
            "type": "Point",
            "coordinates": [
              10.6132035,
              47.8720278
            ]
          }
        },
        {
          "type": "Feature",
          "properties": {
            "id": "762962344",
            "osm_type": "node",
            "lat": 47.8600704,
            "lon": 11.1494321,
            "addr:city": "Weilheim in Oberbayern",
            "addr:country": "DE",
            "addr:postcode": "82362",
            "addr:street": "Sportplatzweg",
            "amenity": "bar",
            "name": "SV Unterhausen Sporthaus"
          },
          "geometry": {
            "type": "Point",
            "coordinates": [
              11.1494321,
              47.8600704
            ]
          }
        },
        {
          "type": "Feature",
          "properties": {
            "id": "4622645073",
            "osm_type": "node",
            "lat": 47.7524723,
            "lon": 11.3758955,
            "addr:city": "Penzberg",
            "addr:country": "DE",
            "addr:housenumber": "28",
            "addr:postcode": "82377",
            "addr:street": "Karlstraße",
            "amenity": "bar",
            "contact:facebook": "https://www.facebook.com/Tims-Bar-763924630298465/",
            "contact:phone": "+49 172 4702331",
            "name": "Tim's Bar",
            "opening_hours": "Tu-We 16:00-02:00, Th 16:00-05:00, Fr-Sa 14:00-05:00, Su 14:00-02:00",
            "outdoor_seating": "no",
            "smoking": "outside"
          },
          "geometry": {
            "type": "Point",
            "coordinates": [
              11.3758955,
              47.7524723
            ]
          }
        },
        {
          "type": "Feature",
          "properties": {
            "id": "4622645074",
            "osm_type": "node",
            "lat": 47.748004,
            "lon": 11.3748962,
            "addr:city": "Penzberg",
            "addr:country": "DE",
            "addr:housenumber": "19",
            "addr:postcode": "82377",
            "addr:street": "Ludwig-März-Straße",
            "amenity": "bar",
            "contact:facebook": "https://www.facebook.com/dabisbar",
            "disused:website": "http://www.dabis-bar.de/",
            "name": "Dabis Bar",
            "opening_hours": "Fr 21:00-24:00;Sa 00:00-02:00,21:00-24:00;Su 00:00-02:00;PH 00:00-02:00",
            "outdoor_seating": "no",
            "smoking": "outside"
          },
          "geometry": {
            "type": "Point",
            "coordinates": [
              11.3748962,
              47.748004
            ]
          }
        },
        {
          "type": "Feature",
          "properties": {
            "id": "4784510621",
            "osm_type": "node",
            "lat": 47.7510327,
            "lon": 11.3762118,
            "addr:city": "Penzberg",
            "addr:country": "DE",
            "addr:housenumber": "5",
            "addr:postcode": "82377",
            "addr:street": "Friedrich-Ebert-Straße",
            "amenity": "bar",
            "contact:facebook": "https://www.facebook.com/minerscocktailbar/",
            "name": "Miner's",
            "wheelchair": "no"
          },
          "geometry": {
            "type": "Point",
            "coordinates": [
              11.3762118,
              47.7510327
            ]
          }
        },
        {
          "type": "Feature",
          "properties": {
            "id": "5290110653",
            "osm_type": "node",
            "lat": 47.8321939,
            "lon": 11.1272084,
            "addr:city": "Weilheim in Oberbayern",
            "addr:country": "DE",
            "addr:housenumber": "17",
            "addr:postcode": "82362",
            "addr:street": "Holzhofstraße",
            "amenity": "bar",
            "name": "Step' in Cocktail & Sportsbar",
            "phone": "+49 (0) 8 81 - 80 80",
            "website": "http://stepin-weilheim.de/",
            "wheelchair": "limited"
          },
          "geometry": {
            "type": "Point",
            "coordinates": [
              11.1272084,
              47.8321939
            ]
          }
        },
        {
          "type": "Feature",
          "properties": {
            "id": "6764618537",
            "osm_type": "node",
            "lat": 47.8421696,
            "lon": 11.1425748,
            "addr:city": "Weilheim in Oberbayern",
            "addr:country": "DE",
            "addr:housenumber": "17b",
            "addr:postcode": "82362",
            "addr:street": "Münchener Straße",
            "amenity": "bar",
            "min_age": "18",
            "name": "Escos Bar",
            "phone": "+49 881 92799333"
          },
          "geometry": {
            "type": "Point",
            "coordinates": [
              11.1425748,
              47.8421696
            ]
          }
        },
        {
          "type": "Feature",
          "properties": {
            "id": "6775214706",
            "osm_type": "node",
            "lat": 47.83702,
            "lon": 11.1417035,
            "addr:city": "Weilheim in Oberbayern",
            "addr:country": "DE",
            "addr:housenumber": "32",
            "addr:postcode": "82362",
            "addr:street": "Pöltnerstraße",
            "amenity": "bar",
            "name": "Cocktail Bar Oase",
            "opening_hours": "Su-Mo, Th 18:00-01:00; Fr-Sa 18:00-02:30",
            "outdoor_seating": "yes",
            "payment:cash": "yes",
            "phone": "+49 881 8414",
            "smoking": "outside"
          },
          "geometry": {
            "type": "Point",
            "coordinates": [
              11.1417035,
              47.83702
            ]
          }
        },
        {
          "type": "Feature",
          "properties": {
            "id": "6976526969",
            "osm_type": "node",
            "lat": 47.8405039,
            "lon": 11.1424375,
            "addr:city": "Weilheim in Oberbayern",
            "addr:housenumber": "4",
            "addr:postcode": "82362",
            "addr:street": "Mittlerer Graben",
            "amenity": "bar",
            "check_date": "2025-09-11",
            "name": "Dolce Vita",
            "opening_hours": "Mo-Fr 17:00-23:59; Sa 18:00-23:59",
            "phone": "+49 881 64982",
            "wheelchair": "limited"
          },
          "geometry": {
            "type": "Point",
            "coordinates": [
              11.1424375,
              47.8405039
            ]
          }
        },
        {
          "type": "Feature",
          "properties": {
            "id": "8062835921",
            "osm_type": "node",
            "lat": 47.8370847,
            "lon": 11.1407673,
            "amenity": "bar",
            "name": "Greither 9",
            "opening_hours": "Th 16:00-22:00; Fr, Sa 18:00-22:00"
          },
          "geometry": {
            "type": "Point",
            "coordinates": [
              11.1407673,
              47.8370847
            ]
          }
        },
        {
          "type": "Feature",
          "properties": {
            "id": "871116148",
            "osm_type": "node",
            "lat": 47.8827368,
            "lon": 10.6205701,
            "amenity": "bar",
            "level": "1",
            "wheelchair": "yes"
          },
          "geometry": {
            "type": "Point",
            "coordinates": [
              10.6205701,
              47.8827368
            ]
          }
        },
        {
          "type": "Feature",
          "properties": {
            "id": "961374115",
            "osm_type": "node",
            "lat": 47.8791102,
            "lon": 10.6197772,
            "amenity": "bar",
            "name": "Goldfisch",
            "wheelchair": "no"
          },
          "geometry": {
            "type": "Point",
            "coordinates": [
              10.6197772,
              47.8791102
            ]
          }
        },
        {
          "type": "Feature",
          "properties": {
            "id": "2192193959",
            "osm_type": "node",
            "lat": 47.878153,
            "lon": 10.624588,
            "amenity": "bar",
            "cuisine": "pizza",
            "delivery": "no",
            "name": "Allgäuer Stuben",
            "opening_hours": "18:00-21:00",
            "smoking": "outside",
            "takeaway": "no"
          },
          "geometry": {
            "type": "Point",
            "coordinates": [
              10.624588,
              47.878153
            ]
          }
        },
        {
          "type": "Feature",
          "properties": {
            "id": "3765846201",
            "osm_type": "node",
            "lat": 47.8999033,
            "lon": 10.6423484,
            "amenity": "bar",
            "name": "Melodrom - Discothek",
            "operator": "Melodrom GmbH",
            "smoking": "outside"
          },
          "geometry": {
            "type": "Point",
            "coordinates": [
              10.6423484,
              47.8999033
            ]
          }
        },
        {
          "type": "Feature",
          "properties": {
            "id": "4640705489",
            "osm_type": "node",
            "lat": 47.8784545,
            "lon": 10.6198384,
            "amenity": "bar",
            "name": "Zoigl Kaufbeuren",
            "name:de": "Zoigl Kaufbeuren",
            "name:en": "Zoigl Kaufbeuren",
            "wheelchair": "no"
          },
          "geometry": {
            "type": "Point",
            "coordinates": [
              10.6198384,
              47.8784545
            ]
          }
        },
        {
          "type": "Feature",
          "properties": {
            "id": "4864788799",
            "osm_type": "node",
            "lat": 48.006284,
            "lon": 10.5955928,
            "amenity": "bar",
            "name": "Chaplin II"
          },
          "geometry": {
            "type": "Point",
            "coordinates": [
              10.5955928,
              48.006284
            ]
          }
        },
        {
          "type": "Feature",
          "properties": {
            "id": "5905819847",
            "osm_type": "node",
            "lat": 47.8788075,
            "lon": 10.6212863,
            "amenity": "bar",
            "name": "Piccobella",
            "operator": "Sandra Mitzel"
          },
          "geometry": {
            "type": "Point",
            "coordinates": [
              10.6212863,
              47.8788075
            ]
          }
        },
        {
          "type": "Feature",
          "properties": {
            "id": "7172222112",
            "osm_type": "node",
            "lat": 47.882102,
            "lon": 10.6197599,
            "amenity": "bar",
            "check_date": "2020-01-30",
            "name": "buron-eck"
          },
          "geometry": {
            "type": "Point",
            "coordinates": [
              10.6197599,
              47.882102
            ]
          }
        },
        {
          "type": "Feature",
          "properties": {
            "id": "7887228873",
            "osm_type": "node",
            "lat": 47.881208,
            "lon": 10.6237147,
            "amenity": "bar",
            "name": "Spital"
          },
          "geometry": {
            "type": "Point",
            "coordinates": [
              10.6237147,
              47.881208
            ]
          }
        },
        {
          "type": "Feature",
          "properties": {
            "id": "7977167943",
            "osm_type": "node",
            "lat": 47.8802588,
            "lon": 10.6243262,
            "amenity": "bar",
            "name": "Waterloo"
          },
          "geometry": {
            "type": "Point",
            "coordinates": [
              10.6243262,
              47.8802588
            ]
          }
        },
        {
          "type": "Feature",
          "properties": {
            "id": "8434220015",
            "osm_type": "node",
            "lat": 47.8817544,
            "lon": 10.6243353,
            "amenity": "bar",
            "check_date": "2022-10-06",
            "name": "4 Friends - Drink & Ink",
            "operator": "Markus Fröschl und Daniel Ellenrieder",
            "shop": "tattoo",
            "wheelchair": "limited"
          },
          "geometry": {
            "type": "Point",
            "coordinates": [
              10.6243353,
              47.8817544
            ]
          }
        },
        {
          "type": "Feature",
          "properties": {
            "id": "8450435800",
            "osm_type": "node",
            "lat": 47.8801993,
            "lon": 10.6232035,
            "amenity": "bar",
            "name": "Soundbar Zum Glocke"
          },
          "geometry": {
            "type": "Point",
            "coordinates": [
              10.6232035,
              47.8801993
            ]
          }
        },
        {
          "type": "Feature",
          "properties": {
            "id": "10081305450",
            "osm_type": "node",
            "lat": 47.9122671,
            "lon": 10.6349716,
            "amenity": "bar",
            "name": "Times Square Musikcafe",
            "opening_hours": "Mo-Th 17:00-23:00; Fr-Sa 17:00-01:00",
            "operator": "Ralf Szidat"
          },
          "geometry": {
            "type": "Point",
            "coordinates": [
              10.6349716,
              47.9122671
            ]
          }
        },
        {
          "type": "Feature",
          "properties": {
            "id": "10081320696",
            "osm_type": "node",
            "lat": 47.8828439,
            "lon": 10.6226796,
            "amenity": "bar",
            "name": "Instroke Billard, Snooker, Dart",
            "opening_hours": "Tu,Su 19:00-24:00",
            "sport": "billiards; darts; snooker"
          },
          "geometry": {
            "type": "Point",
            "coordinates": [
              10.6226796,
              47.8828439
            ]
          }
        },
        {
          "type": "Feature",
          "properties": {
            "id": "10547893391",
            "osm_type": "node",
            "lat": 47.8788613,
            "lon": 10.6235116,
            "addr:city": "Kaufbeuren",
            "addr:country": "DE",
            "addr:housenumber": "23",
            "addr:postcode": "87600",
            "addr:street": "Ringweg",
            "amenity": "bar",
            "contact:facebook": "https://fb.com/roundhouse.kf",
            "min_age": "18",
            "name": "Roundhouse",
            "opening_hours": "Fr-Sa 23:00-05:00"
          },
          "geometry": {
            "type": "Point",
            "coordinates": [
              10.6235116,
              47.8788613
            ]
          }
        },
        {
          "type": "Feature",
          "properties": {
            "id": "394939237",
            "osm_type": "node",
            "lat": 47.909943,
            "lon": 11.4222003,
            "addr:city": "Wolfratshausen",
            "addr:country": "DE",
            "addr:housenumber": "1",
            "addr:postcode": "82515",
            "addr:street": "Geltinger Straße",
            "amenity": "bar",
            "brewery": "various",
            "name": "Cabana",
            "opening_hours": "Mo-Th 18:00-01:00, Fr-Sa 18:00-03:00, Su 18:00-01:00",
            "outdoor_seating": "yes",
            "phone": "+49 8171 410750",
            "smoking": "outside",
            "website": "https://cabana-wolfratshausen.de/",
            "wheelchair": "no"
          },
          "geometry": {
            "type": "Point",
            "coordinates": [
              11.4222003,
              47.909943
            ]
          }
        },
        {
          "type": "Feature",
          "properties": {
            "id": "446805683",
            "osm_type": "node",
            "lat": 47.9093258,
            "lon": 11.2766936,
            "amenity": "bar",
            "name": "Flimmis Bistro",
            "opening_hours": "Fr,Sa 18:00-01:00, Su 18:00-23:00",
            "wheelchair": "no"
          },
          "geometry": {
            "type": "Point",
            "coordinates": [
              11.2766936,
              47.9093258
            ]
          }
        },
        {
          "type": "Feature",
          "properties": {
            "id": "875218621",
            "osm_type": "node",
            "lat": 47.9957467,
            "lon": 11.1711258,
            "amenity": "bar",
            "indoor_seating": "yes",
            "name": "Kiez",
            "opening_hours": "Su-Th 09:00-24:00, Fr,Sa 09:00-01:00",
            "outdoor_seating": "yes",
            "payment:credit_cards": "yes",
            "payment:debit_cards": "yes"
          },
          "geometry": {
            "type": "Point",
            "coordinates": [
              11.1711258,
              47.9957467
            ]
          }
        },
        {
          "type": "Feature",
          "properties": {
            "id": "877565218",
            "osm_type": "node",
            "lat": 48.0056422,
            "lon": 11.1731759,
            "amenity": "bar",
            "name": "Spiel Oase",
            "wheelchair": "no"
          },
          "geometry": {
            "type": "Point",
            "coordinates": [
              11.1731759,
              48.0056422
            ]
          }
        },
        {
          "type": "Feature",
          "properties": {
            "id": "1812344174",
            "osm_type": "node",
            "lat": 48.0228271,
            "lon": 11.0937417,
            "addr:city": "Utting am Ammersee",
            "addr:country": "DE",
            "addr:housenumber": "2",
            "addr:postcode": "86919",
            "addr:street": "Bahnhofsplatz",
            "addr:suburb": "Utting",
            "amenity": "bar",
            "check_date": "2024-08-31",
            "contact:email": "info@gleis3utting.de",
            "contact:facebook": "https://www.facebook.com/gleis3utting/",
            "contact:phone": "+49 8806 9596710",
            "name": "Gleis 3",
            "note": "ehemals 1. Klasse",
            "opening_hours": "Mo,Su 10:00-22:00; Tu-Th 10:00-23:00; Fr-Sa 10:00-24:00",
            "payment:cash": "only",
            "source": "survey",
            "toilets:wheelchair": "no",
            "wheelchair": "no"
          },
          "geometry": {
            "type": "Point",
            "coordinates": [
              11.0937417,
              48.0228271
            ]
          }
        },
        {
          "type": "Feature",
          "properties": {
            "id": "3567204257",
            "osm_type": "node",
            "lat": 47.997317,
            "lon": 11.3433928,
            "addr:city": "Starnberg",
            "addr:housenumber": "5",
            "addr:postcode": "82319",
            "addr:street": "Maximilianstraße",
            "amenity": "bar",
            "contact:phone": "+49 8151 9718381",
            "name": "Boston Café & Cocktailbar",
            "website": "https://www.bostonbar.de/",
            "wheelchair": "no"
          },
          "geometry": {
            "type": "Point",
            "coordinates": [
              11.3433928,
              47.997317
            ]
          }
        },
        {
          "type": "Feature",
          "properties": {
            "id": "3638699696",
            "osm_type": "node",
            "lat": 47.993758,
            "lon": 11.3400126,
            "addr:city": "Starnberg",
            "addr:housenumber": "1",
            "addr:postcode": "82319",
            "addr:street": "Seepromenade",
            "amenity": "bar",
            "name": "Hugos Beach Club Undosa",
            "opening_hours": "10:00-01:00",
            "phone": "+49 (0) 8151 99 89 30",
            "website": "http://www.hugos-beachclub.de/"
          },
          "geometry": {
            "type": "Point",
            "coordinates": [
              11.3400126,
              47.993758
            ]
          }
        },
        {
          "type": "Feature",
          "properties": {
            "id": "5349705843",
            "osm_type": "node",
            "lat": 47.9484713,
            "lon": 11.1047322,
            "addr:city": "Dießen am Ammersee",
            "addr:country": "DE",
            "addr:housenumber": "12",
            "addr:postcode": "86911",
            "addr:street": "Mühlstraße",
            "air_conditioning": "no",
            "amenity": "bar",
            "brewery": "yes",
            "microbrewery": "yes",
            "name": "CraftBräu",
            "opening_hours": "Tu,Th 18:00-22:00",
            "smoking": "outside",
            "website": "http://craft-braeu.com"
          },
          "geometry": {
            "type": "Point",
            "coordinates": [
              11.1047322,
              47.9484713
            ]
          }
        },
        {
          "type": "Feature",
          "properties": {
            "id": "7626149187",
            "osm_type": "node",
            "lat": 47.9046622,
            "lon": 11.4324197,
            "addr:city": "Wolfratshausen",
            "addr:country": "DE",
            "addr:housenumber": "54",
            "addr:postcode": "82515",
            "addr:street": "Hans-Urmiller-Ring",
            "amenity": "bar",
            "name": "Puzzles-Wor - Die Bar"
          },
          "geometry": {
            "type": "Point",
            "coordinates": [
              11.4324197,
              47.9046622
            ]
          }
        },
        {
          "type": "Feature",
          "properties": {
            "id": "9589770180",
            "osm_type": "node",
            "lat": 47.9496855,
            "lon": 11.1034858,
            "addr:city": "Dießen am Ammersee",
            "addr:country": "DE",
            "addr:housenumber": "23",
            "addr:postcode": "86911",
            "addr:street": "Prinz-Ludwig-Straße",
            "air_conditioning": "no",
            "amenity": "bar",
            "email": "goody@ludi.bar",
            "name": "Ludwig Bar",
            "opening_hours": "We-Th 17:00-23:59; Fr-Sa 15:00-02:00",
            "payment:credit_cards": "yes",
            "payment:debit_cards": "yes",
            "smoking": "outside"
          },
          "geometry": {
            "type": "Point",
            "coordinates": [
              11.1034858,
              47.9496855
            ]
          }
        },
        {
          "type": "Feature",
          "properties": {
            "id": "12871289237",
            "osm_type": "node",
            "lat": 47.9973962,
            "lon": 11.3484127,
            "amenity": "bar",
            "name": "Ganz am Ufer",
            "outdoor_seating": "yes",
            "website": "https://www.bucentaurkulturcafe.de/"
          },
          "geometry": {
            "type": "Point",
            "coordinates": [
              11.3484127,
              47.9973962
            ]
          }
        }
      ],
      "children": []
    },
    {
      "bbox": {
        "south": 48.02541825,
        "west": 9.530952,
        "north": 48.355971499999995,
        "east": 10.484655499999999
      },
      "poiCount": 28,
      "leafCount": 28,
      "averagePosition": [
        10.070989060714286,
        48.20134375357143
      ],
      "data": [
        {
          "type": "Feature",
          "properties": {
            "id": "545000300",
            "osm_type": "node",
            "lat": 48.2829237,
            "lon": 9.7252382,
            "amenity": "bar",
            "name": "Times",
            "outdoor_seating": "yes",
            "wheelchair": "no"
          },
          "geometry": {
            "type": "Point",
            "coordinates": [
              9.7252382,
              48.2829237
            ]
          }
        },
        {
          "type": "Feature",
          "properties": {
            "id": "715763141",
            "osm_type": "node",
            "lat": 48.2840547,
            "lon": 9.7263392,
            "amenity": "bar",
            "name": "YAMAS"
          },
          "geometry": {
            "type": "Point",
            "coordinates": [
              9.7263392,
              48.2840547
            ]
          }
        },
        {
          "type": "Feature",
          "properties": {
            "id": "1516706011",
            "osm_type": "node",
            "lat": 48.0977668,
            "lon": 9.7883535,
            "amenity": "bar",
            "contact:email": "info@cafebar-bc.de",
            "contact:instagram": "cafebarbc",
            "contact:phone": "+49 7351 5292897",
            "name": "Casa",
            "opening_hours": "Mo-Th 08:00-24:00; Fr 08:00-24:00; Sa 00:00-01:00, 08:00-24:00; Su 00:00-01:00, 11:00-24:00"
          },
          "geometry": {
            "type": "Point",
            "coordinates": [
              9.7883535,
              48.0977668
            ]
          }
        },
        {
          "type": "Feature",
          "properties": {
            "id": "1646592848",
            "osm_type": "node",
            "lat": 48.2234554,
            "lon": 9.8827385,
            "amenity": "bar",
            "name": "Schwimmbadkneipe",
            "wheelchair": "no"
          },
          "geometry": {
            "type": "Point",
            "coordinates": [
              9.8827385,
              48.2234554
            ]
          }
        },
        {
          "type": "Feature",
          "properties": {
            "id": "2728307086",
            "osm_type": "node",
            "lat": 48.3515258,
            "lon": 9.9724596,
            "amenity": "bar"
          },
          "geometry": {
            "type": "Point",
            "coordinates": [
              9.9724596,
              48.3515258
            ]
          }
        },
        {
          "type": "Feature",
          "properties": {
            "id": "3928994419",
            "osm_type": "node",
            "lat": 48.1010231,
            "lon": 9.7834424,
            "addr:city": "Biberach an der Riß",
            "addr:housenumber": "1",
            "addr:postcode": "88400",
            "addr:street": "Birkenharder Straße",
            "amenity": "bar",
            "contact:email": "kontakt@biberkeller.de",
            "contact:facebook": "Biberkeller",
            "contact:instagram": "biberkeller",
            "contact:phone": "+49 7351 5789911",
            "contact:website": "https://www.biberkeller.de/",
            "name": "Biberkeller",
            "opening_hours": "Mo-We, Su off; Th-Sa 17:00-24:00"
          },
          "geometry": {
            "type": "Point",
            "coordinates": [
              9.7834424,
              48.1010231
            ]
          }
        },
        {
          "type": "Feature",
          "properties": {
            "id": "7846567358",
            "osm_type": "node",
            "lat": 48.0983795,
            "lon": 9.7908166,
            "amenity": "bar",
            "name": "Meeting Bistro & Bar"
          },
          "geometry": {
            "type": "Point",
            "coordinates": [
              9.7908166,
              48.0983795
            ]
          }
        },
        {
          "type": "Feature",
          "properties": {
            "id": "7846577092",
            "osm_type": "node",
            "lat": 48.0977194,
            "lon": 9.7865573,
            "addr:housenumber": "4",
            "addr:street": "Engelgasse",
            "amenity": "bar",
            "contact:facebook": "labodegabc",
            "contact:instagram": "la.bodega.bc",
            "contact:phone": "+49 160 96212887",
            "name": "La Bodega",
            "opening_hours": "Fr-Sa 21:00-04:00; Mo-Th off"
          },
          "geometry": {
            "type": "Point",
            "coordinates": [
              9.7865573,
              48.0977194
            ]
          }
        },
        {
          "type": "Feature",
          "properties": {
            "id": "10102901714",
            "osm_type": "node",
            "lat": 48.1010475,
            "lon": 9.7922713,
            "addr:city": "Biberach an der Riß",
            "addr:housenumber": "26",
            "addr:postcode": "88400",
            "addr:street": "Bahnhofstraße",
            "amenity": "bar",
            "check_date": "2025-08-04",
            "contact:email": "minibar-bc@web.de",
            "contact:mobile": "+49 172 9305764",
            "contact:website": "https://www.minibar-bc.de",
            "name": "minibar-club"
          },
          "geometry": {
            "type": "Point",
            "coordinates": [
              9.7922713,
              48.1010475
            ]
          }
        },
        {
          "type": "Feature",
          "properties": {
            "id": "12479013075",
            "osm_type": "node",
            "lat": 48.1007292,
            "lon": 9.7944399,
            "amenity": "bar",
            "name": "Frederick's"
          },
          "geometry": {
            "type": "Point",
            "coordinates": [
              9.7944399,
              48.1007292
            ]
          }
        },
        {
          "type": "Feature",
          "properties": {
            "id": "12479020206",
            "osm_type": "node",
            "lat": 48.1027923,
            "lon": 9.7951242,
            "amenity": "bar",
            "name": "Casablanca Deluxe Shishabar"
          },
          "geometry": {
            "type": "Point",
            "coordinates": [
              9.7951242,
              48.1027923
            ]
          }
        },
        {
          "type": "Feature",
          "properties": {
            "id": "12886018574",
            "osm_type": "node",
            "lat": 48.1851747,
            "lon": 9.890224,
            "addr:city": "Mietingen",
            "addr:housenumber": "4",
            "addr:postcode": "88487",
            "addr:street": "Messerschmittstraße",
            "amenity": "bar",
            "brewery": "gold_ochsen_original;berg_bier;laupheimer_hell;laupheimer_weise",
            "min_age": "16",
            "name": "Club 20 Mietingen"
          },
          "geometry": {
            "type": "Point",
            "coordinates": [
              9.890224,
              48.1851747
            ]
          }
        },
        {
          "type": "Feature",
          "properties": {
            "id": "280474983",
            "osm_type": "node",
            "lat": 48.1339134,
            "lon": 10.0801746,
            "addr:city": "Kirchberg an der Iller",
            "addr:housenumber": "4",
            "addr:postcode": "88486",
            "addr:street": "Untere Gasse",
            "amenity": "bar",
            "cuisine": "medieval",
            "name": "Pilsbar Dorfstüble",
            "smoking": "yes",
            "website": "http://www.pilsbar-dorfstueble.de/"
          },
          "geometry": {
            "type": "Point",
            "coordinates": [
              10.0801746,
              48.1339134
            ]
          }
        },
        {
          "type": "Feature",
          "properties": {
            "id": "366284468",
            "osm_type": "node",
            "lat": 48.2839132,
            "lon": 10.4691021,
            "addr:city": "Thannhausen",
            "addr:country": "DE",
            "addr:housenumber": "21",
            "addr:postcode": "86470",
            "addr:street": "Bahnhofstraße",
            "amenity": "bar",
            "name": "Elias Bar und Café",
            "phone": "+49 8281 999122",
            "wheelchair": "yes"
          },
          "geometry": {
            "type": "Point",
            "coordinates": [
              10.4691021,
              48.2839132
            ]
          }
        },
        {
          "type": "Feature",
          "properties": {
            "id": "2109804891",
            "osm_type": "node",
            "lat": 48.2836933,
            "lon": 10.4696484,
            "addr:city": "Thannhausen",
            "addr:country": "DE",
            "addr:housenumber": "20",
            "addr:postcode": "86470",
            "addr:street": "Bahnhofstraße",
            "amenity": "bar",
            "contact:facebook": "https://www.facebook.com/profile.php?id=100086234211710",
            "contact:instagram": "tagos_bar",
            "email": "tagosoffical@gmail.com",
            "image": "https://lh3.googleusercontent.com/p/AF1QipPdRcK2sp2qKUJvbZYcT6f6SRPpGNW243bFOEqp=s680-w680-h510",
            "min_age": "18",
            "name": "TAGO'S",
            "opening_hours": "So-Do 18:00-23:00 Fr-Sa18:00-01:00",
            "phone": "015146374080",
            "shisha": "yes"
          },
          "geometry": {
            "type": "Point",
            "coordinates": [
              10.4696484,
              48.2836933
            ]
          }
        },
        {
          "type": "Feature",
          "properties": {
            "id": "2131967498",
            "osm_type": "node",
            "lat": 48.1206626,
            "lon": 10.2256955,
            "amenity": "bar"
          },
          "geometry": {
            "type": "Point",
            "coordinates": [
              10.2256955,
              48.1206626
            ]
          }
        },
        {
          "type": "Feature",
          "properties": {
            "id": "2435856390",
            "osm_type": "node",
            "lat": 48.0795019,
            "lon": 10.129899,
            "amenity": "bar",
            "name": "Pilsbar Mascotchen",
            "website": "https://www.pilsbar-mascotchen.de/"
          },
          "geometry": {
            "type": "Point",
            "coordinates": [
              10.129899,
              48.0795019
            ]
          }
        },
        {
          "type": "Feature",
          "properties": {
            "id": "2502539719",
            "osm_type": "node",
            "lat": 48.3097619,
            "lon": 10.1570127,
            "addr:city": "Weißenhorn",
            "addr:country": "DE",
            "addr:housenumber": "33",
            "addr:postcode": "89264",
            "addr:street": "Günzburger Straße",
            "amenity": "bar",
            "contact:phone": "+49 170 9977165",
            "name": "PEPITO Cafe Bistro Cocktailbar",
            "not:brand:wikidata": "Q662845",
            "website": "http://www.pepito-weissenhorn.de/",
            "wheelchair": "no"
          },
          "geometry": {
            "type": "Point",
            "coordinates": [
              10.1570127,
              48.3097619
            ]
          }
        },
        {
          "type": "Feature",
          "properties": {
            "id": "3200752719",
            "osm_type": "node",
            "lat": 48.2834527,
            "lon": 10.4693882,
            "amenity": "bar",
            "name": "B 13"
          },
          "geometry": {
            "type": "Point",
            "coordinates": [
              10.4693882,
              48.2834527
            ]
          }
        },
        {
          "type": "Feature",
          "properties": {
            "id": "3280947105",
            "osm_type": "node",
            "lat": 48.1618065,
            "lon": 10.1132767,
            "amenity": "bar",
            "name": "Zum Trödler",
            "opening_hours": "Mo-Th 16:00-01:00; Fr 16:00-03:00; Sa 10:00-03:00; Su 10:00-24:00"
          },
          "geometry": {
            "type": "Point",
            "coordinates": [
              10.1132767,
              48.1618065
            ]
          }
        },
        {
          "type": "Feature",
          "properties": {
            "id": "4667311172",
            "osm_type": "node",
            "lat": 48.2775082,
            "lon": 10.078543,
            "amenity": "bar",
            "name": "Culas"
          },
          "geometry": {
            "type": "Point",
            "coordinates": [
              10.078543,
              48.2775082
            ]
          }
        },
        {
          "type": "Feature",
          "properties": {
            "id": "4689303474",
            "osm_type": "node",
            "lat": 48.3238368,
            "lon": 10.0447022,
            "amenity": "bar",
            "name": "City Treff"
          },
          "geometry": {
            "type": "Point",
            "coordinates": [
              10.0447022,
              48.3238368
            ]
          }
        },
        {
          "type": "Feature",
          "properties": {
            "id": "4727355448",
            "osm_type": "node",
            "lat": 48.1374871,
            "lon": 10.4016761,
            "amenity": "bar",
            "name": "Riabakeller",
            "opening_hours": "off \"geschlossene Gesellschaft - nur auf Einladung\"",
            "operator": "die Breitenbrunner Jugend",
            "outdoor_seating": "no",
            "smoking": "yes"
          },
          "geometry": {
            "type": "Point",
            "coordinates": [
              10.4016761,
              48.1374871
            ]
          }
        },
        {
          "type": "Feature",
          "properties": {
            "id": "5017674118",
            "osm_type": "node",
            "lat": 48.2228234,
            "lon": 10.1050711,
            "amenity": "bar",
            "contact:phone": "+49 7303 1596740",
            "name": "L'Angolo Caffé & Vino Bar",
            "opening_hours": "Tu-Th 09:00-23:00; Fr-Sa 09:00-23:59; Su 14:00-21:00",
            "operator": "Marco Arduini"
          },
          "geometry": {
            "type": "Point",
            "coordinates": [
              10.1050711,
              48.2228234
            ]
          }
        },
        {
          "type": "Feature",
          "properties": {
            "id": "7603517714",
            "osm_type": "node",
            "lat": 48.1459444,
            "lon": 10.256869,
            "amenity": "bar",
            "contact:facebook": "https://www.facebook.com/ShishaBabenhausen/",
            "contact:phone": "+49 176 84854515",
            "name": "No Name Shisha Lounge"
          },
          "geometry": {
            "type": "Point",
            "coordinates": [
              10.256869,
              48.1459444
            ]
          }
        },
        {
          "type": "Feature",
          "properties": {
            "id": "7622779053",
            "osm_type": "node",
            "lat": 48.2921632,
            "lon": 10.4454145,
            "addr:city": "Thannhausen",
            "addr:country": "DE",
            "addr:housenumber": "38",
            "addr:postcode": "86470",
            "addr:street": "Edelstetter Straße",
            "amenity": "bar",
            "cuisine": "burger",
            "description": "Essen und Trinken an der Bar",
            "name": "TURNCABLE"
          },
          "geometry": {
            "type": "Point",
            "coordinates": [
              10.4454145,
              48.2921632
            ]
          }
        },
        {
          "type": "Feature",
          "properties": {
            "id": "11274655078",
            "osm_type": "node",
            "lat": 48.3117752,
            "lon": 10.4535155,
            "addr:city": "Münsterhausen",
            "addr:housenumber": "30",
            "addr:postcode": "86505",
            "addr:street": "Hauptstraße",
            "amenity": "bar",
            "min_age": "18",
            "name": "METROPOL Bar & Lounge",
            "opening_hours": "Montag Geschlossen Di-Do 20:00-01:00 Fr-Sa 20:00-02:00 So 20:00-00:00"
          },
          "geometry": {
            "type": "Point",
            "coordinates": [
              10.4535155,
              48.3117752
            ]
          }
        },
        {
          "type": "Feature",
          "properties": {
            "id": "12757243946",
            "osm_type": "node",
            "lat": 48.2427892,
            "lon": 10.3597004,
            "amenity": "bar",
            "name": "Pilsbar Schmidde"
          },
          "geometry": {
            "type": "Point",
            "coordinates": [
              10.3597004,
              48.2427892
            ]
          }
        }
      ],
      "children": []
    },
    {
      "bbox": {
        "south": 48.02541825,
        "west": 10.484655499999999,
        "north": 48.355971499999995,
        "east": 11.438358999999998
      },
      "poiCount": 51,
      "leafCount": 0,
      "averagePosition": [
        11.046409082352941,
        48.18012266274509
      ],
      "data": [],
      "children": [
        {
          "bbox": {
            "south": 48.02541825,
            "west": 10.484655499999999,
            "north": 48.190694875,
            "east": 10.961507249999999
          },
          "poiCount": 18,
          "leafCount": 18,
          "averagePosition": [
            10.799691261111112,
            48.08671166111111
          ],
          "data": [
            {
              "type": "Feature",
              "properties": {
                "id": "1496611150",
                "osm_type": "node",
                "lat": 48.0470147,
                "lon": 10.4870055,
                "addr:city": "Mindelheim",
                "addr:housenumber": "7",
                "addr:postcode": "87719",
                "addr:street": "Hungerbachgasse",
                "amenity": "bar",
                "indoor_seating": "yes",
                "name": "Hörbar-Club",
                "opening_hours": "\"zu Veranstaltungen\"",
                "outdoor_seating": "no",
                "wheelchair": "yes"
              },
              "geometry": {
                "type": "Point",
                "coordinates": [
                  10.4870055,
                  48.0470147
                ]
              }
            },
            {
              "type": "Feature",
              "properties": {
                "id": "392056676",
                "osm_type": "node",
                "lat": 48.1768533,
                "lon": 10.7608864,
                "addr:city": "Schwabmünchen",
                "addr:country": "DE",
                "addr:housenumber": "2",
                "addr:postcode": "86830",
                "addr:street": "Bahnhofstraße",
                "amenity": "bar",
                "check_date:opening_hours": "2024-05-30",
                "description": "Cocktails, Weine und Essen wie mexikanisch oder Pizza",
                "name": "Style",
                "opening_hours": "Tu-Su 17:00-24:00",
                "phone": "+49 8232 956876",
                "website": "https://www.cocktailbar-style.de/"
              },
              "geometry": {
                "type": "Point",
                "coordinates": [
                  10.7608864,
                  48.1768533
                ]
              }
            },
            {
              "type": "Feature",
              "properties": {
                "id": "392056678",
                "osm_type": "node",
                "lat": 48.1780914,
                "lon": 10.7587084,
                "addr:city": "Schwabmünchen",
                "addr:country": "DE",
                "addr:housenumber": "7",
                "addr:postcode": "86830",
                "addr:street": "Schrannenplatz",
                "amenity": "bar",
                "name": "Zullis Kneipe",
                "opening_hours": "We-Sa 18:00-01:00",
                "wheelchair": "limited"
              },
              "geometry": {
                "type": "Point",
                "coordinates": [
                  10.7587084,
                  48.1780914
                ]
              }
            },
            {
              "type": "Feature",
              "properties": {
                "id": "717298821",
                "osm_type": "node",
                "lat": 48.1773229,
                "lon": 10.7622419,
                "addr:city": "Schwabmünchen",
                "addr:country": "DE",
                "addr:housenumber": "11",
                "addr:postcode": "86830",
                "addr:street": "Bahnhofstraße",
                "amenity": "bar",
                "name": "Schwabilon",
                "opening_hours": "Mo,Tu,Th-Sa 17:00-22:00",
                "wheelchair": "limited"
              },
              "geometry": {
                "type": "Point",
                "coordinates": [
                  10.7622419,
                  48.1773229
                ]
              }
            },
            {
              "type": "Feature",
              "properties": {
                "id": "761733585",
                "osm_type": "node",
                "lat": 48.0501538,
                "lon": 10.8776989,
                "amenity": "bar",
                "name": "Pit´s Theatercafé",
                "phone": "+49 172 6223385",
                "source": "local knowledge"
              },
              "geometry": {
                "type": "Point",
                "coordinates": [
                  10.8776989,
                  48.0501538
                ]
              }
            },
            {
              "type": "Feature",
              "properties": {
                "id": "1070449656",
                "osm_type": "node",
                "lat": 48.0493354,
                "lon": 10.8760584,
                "amenity": "bar",
                "name": "Heaven",
                "toilets:wheelchair": "no",
                "wheelchair": "limited"
              },
              "geometry": {
                "type": "Point",
                "coordinates": [
                  10.8760584,
                  48.0493354
                ]
              }
            },
            {
              "type": "Feature",
              "properties": {
                "id": "1480288929",
                "osm_type": "node",
                "lat": 48.0439162,
                "lon": 10.8626099,
                "addr:city": "Landsberg am Lech",
                "addr:country": "DE",
                "addr:housenumber": "82",
                "addr:postcode": "86899",
                "addr:street": "Hindenburgring",
                "amenity": "bar",
                "name": "Billard Cafe Amadeus"
              },
              "geometry": {
                "type": "Point",
                "coordinates": [
                  10.8626099,
                  48.0439162
                ]
              }
            },
            {
              "type": "Feature",
              "properties": {
                "id": "1649197996",
                "osm_type": "node",
                "lat": 48.0505392,
                "lon": 10.8779718,
                "amenity": "bar",
                "name": "Das Foyer",
                "phone": "+49 8191 3055976",
                "wheelchair": "limited"
              },
              "geometry": {
                "type": "Point",
                "coordinates": [
                  10.8779718,
                  48.0505392
                ]
              }
            },
            {
              "type": "Feature",
              "properties": {
                "id": "1792289515",
                "osm_type": "node",
                "lat": 48.0482015,
                "lon": 10.8831769,
                "addr:city": "Landsberg am Lech",
                "addr:country": "DE",
                "addr:housenumber": "1 1/3",
                "addr:postcode": "86899",
                "addr:street": "Weilheimer Straße",
                "amenity": "bar",
                "name": "No Name Bar",
                "outdoor_seating": "yes"
              },
              "geometry": {
                "type": "Point",
                "coordinates": [
                  10.8831769,
                  48.0482015
                ]
              }
            },
            {
              "type": "Feature",
              "properties": {
                "id": "1829066202",
                "osm_type": "node",
                "lat": 48.0476481,
                "lon": 10.8759395,
                "addr:city": "Landsberg am Lech",
                "addr:postcode": "86899",
                "amenity": "bar",
                "name": "Zim-Mer",
                "wheelchair": "limited"
              },
              "geometry": {
                "type": "Point",
                "coordinates": [
                  10.8759395,
                  48.0476481
                ]
              }
            },
            {
              "type": "Feature",
              "properties": {
                "id": "2468450061",
                "osm_type": "node",
                "lat": 48.1759395,
                "lon": 10.5968997,
                "addr:city": "Mittelneufnach",
                "addr:housenumber": "2",
                "addr:postcode": "86868",
                "addr:street": "Kirchweg",
                "amenity": "bar",
                "fax": "+49 8262 960320",
                "name": "Cocktailbar M86",
                "opening_hours": "We-Sa 19:00-01:00, Su 18:00-23:00",
                "operator": "Frank Zott",
                "phone": "+49 8262 960319",
                "website": "http://www.adler-m86.de/"
              },
              "geometry": {
                "type": "Point",
                "coordinates": [
                  10.5968997,
                  48.1759395
                ]
              }
            },
            {
              "type": "Feature",
              "properties": {
                "id": "2525468726",
                "osm_type": "node",
                "lat": 48.0567223,
                "lon": 10.8710181,
                "amenity": "bar",
                "name": "Moritz - Cocktailbar, Lounge & Club",
                "phone": "+49 8191 9707050",
                "toilets:wheelchair": "no",
                "website": "https://www.moritz-landsberg.de/",
                "wheelchair": "no"
              },
              "geometry": {
                "type": "Point",
                "coordinates": [
                  10.8710181,
                  48.0567223
                ]
              }
            },
            {
              "type": "Feature",
              "properties": {
                "id": "3578553455",
                "osm_type": "node",
                "lat": 48.0461358,
                "lon": 10.8848045,
                "amenity": "bar",
                "outdoor_seating": "yes"
              },
              "geometry": {
                "type": "Point",
                "coordinates": [
                  10.8848045,
                  48.0461358
                ]
              }
            },
            {
              "type": "Feature",
              "properties": {
                "id": "5358623043",
                "osm_type": "node",
                "lat": 48.0503817,
                "lon": 10.8773642,
                "amenity": "bar",
                "email": "info@sonderbar.com",
                "fax": "+49 8191 9735494",
                "name": "Sonderbar",
                "phone": "+49 8191 5821",
                "source": "local knowledge",
                "website": "https://sonderbar.com/",
                "wheelchair": "no"
              },
              "geometry": {
                "type": "Point",
                "coordinates": [
                  10.8773642,
                  48.0503817
                ]
              }
            },
            {
              "type": "Feature",
              "properties": {
                "id": "5368401019",
                "osm_type": "node",
                "lat": 48.0555943,
                "lon": 10.875572,
                "addr:city": "Landsberg am Lech",
                "addr:country": "DE",
                "addr:housenumber": "4",
                "addr:postcode": "86899",
                "addr:street": "Augsburger Straße",
                "amenity": "bar",
                "name": "Sportbar am Lech"
              },
              "geometry": {
                "type": "Point",
                "coordinates": [
                  10.875572,
                  48.0555943
                ]
              }
            },
            {
              "type": "Feature",
              "properties": {
                "id": "6393063512",
                "osm_type": "node",
                "lat": 48.1774077,
                "lon": 10.7667211,
                "addr:city": "Schwabmünchen",
                "addr:country": "DE",
                "addr:housenumber": "34",
                "addr:postcode": "86830",
                "addr:street": "Bahnhofstraße",
                "amenity": "bar",
                "name": "Rainbow-Bar",
                "opening_hours": "Fr,Sa 22:00-05:00",
                "outdoor_seating": "no",
                "wheelchair": "no"
              },
              "geometry": {
                "type": "Point",
                "coordinates": [
                  10.7667211,
                  48.1774077
                ]
              }
            },
            {
              "type": "Feature",
              "properties": {
                "id": "8771967358",
                "osm_type": "node",
                "lat": 48.0609694,
                "lon": 10.6406732,
                "amenity": "bar",
                "name": "Pilsbar Ambiente"
              },
              "geometry": {
                "type": "Point",
                "coordinates": [
                  10.6406732,
                  48.0609694
                ]
              }
            },
            {
              "type": "Feature",
              "properties": {
                "id": "9949146663",
                "osm_type": "node",
                "lat": 48.0685827,
                "lon": 10.8590923,
                "addr:city": "Landsberg am Lech",
                "addr:country": "DE",
                "addr:housenumber": "9",
                "addr:postcode": "86899",
                "addr:street": "Lechwiesenstraße",
                "amenity": "bar",
                "email": "info@chaos-bar.de",
                "name": "CHAOS BAR LOUNGE CAFÉ",
                "phone": "+49 8191 9707262",
                "source": "local knowledge",
                "website": "http://www.chaos-bar.de/"
              },
              "geometry": {
                "type": "Point",
                "coordinates": [
                  10.8590923,
                  48.0685827
                ]
              }
            }
          ],
          "children": []
        },
        {
          "bbox": {
            "south": 48.02541825,
            "west": 10.961507249999999,
            "north": 48.190694875,
            "east": 11.438358999999998
          },
          "poiCount": 10,
          "leafCount": 10,
          "averagePosition": [
            11.33202651,
            48.106951859999995
          ],
          "data": [
            {
              "type": "Feature",
              "properties": {
                "id": "1138936869",
                "osm_type": "node",
                "lat": 48.1006757,
                "lon": 11.2930136,
                "amenity": "bar",
                "contact:facebook": "https://www.facebook.com/giltico",
                "level": "-1",
                "name": "Giltico Bar & Lounge",
                "opening_hours": "Th-Sa 20:00+",
                "operator": "Christos Tsiapalos",
                "wheelchair": "no"
              },
              "geometry": {
                "type": "Point",
                "coordinates": [
                  11.2930136,
                  48.1006757
                ]
              }
            },
            {
              "type": "Feature",
              "properties": {
                "id": "1254655323",
                "osm_type": "node",
                "lat": 48.1771034,
                "lon": 11.2539175,
                "addr:city": "Fürstenfeldbruck",
                "addr:housenumber": "11",
                "addr:postcode": "82256",
                "addr:street": "Schöngeisinger Straße",
                "alt_name": "Musik und Cocktail-Bar",
                "amenity": "bar",
                "name": "Luftraum",
                "opening_hours": "Mo-Fr 18:00+, Sa 20:00+",
                "phone": "+49 8141 225094",
                "website": "http://www.luftraum-ffb.de/index2.html"
              },
              "geometry": {
                "type": "Point",
                "coordinates": [
                  11.2539175,
                  48.1771034
                ]
              }
            },
            {
              "type": "Feature",
              "properties": {
                "id": "1369805744",
                "osm_type": "node",
                "lat": 48.0672244,
                "lon": 11.3803882,
                "addr:city": "Gauting",
                "addr:housenumber": "4",
                "addr:postcode": "82131",
                "addr:street": "Hauptplatz",
                "amenity": "bar",
                "name": "Mia san's",
                "opening_hours": "Tu-Su 15:00-01:00",
                "phone": "+49 898504188"
              },
              "geometry": {
                "type": "Point",
                "coordinates": [
                  11.3803882,
                  48.0672244
                ]
              }
            },
            {
              "type": "Feature",
              "properties": {
                "id": "2617493092",
                "osm_type": "node",
                "lat": 48.1004051,
                "lon": 11.2918883,
                "amenity": "bar",
                "contact:fax": "+49 8105 2419012",
                "contact:phone": "+49 8105 2419011",
                "name": "Zinnkrug",
                "opening_hours": "Tu-Su 17:00+; Mo off",
                "operator": "Familie Keizers"
              },
              "geometry": {
                "type": "Point",
                "coordinates": [
                  11.2918883,
                  48.1004051
                ]
              }
            },
            {
              "type": "Feature",
              "properties": {
                "id": "3481053958",
                "osm_type": "node",
                "lat": 48.0659759,
                "lon": 11.3797337,
                "addr:city": "Gauting",
                "addr:housenumber": "3",
                "addr:postcode": "82131",
                "addr:street": "Starnberger Straße",
                "amenity": "bar",
                "name": "Plan B",
                "phone": "+49 89 8939 9124"
              },
              "geometry": {
                "type": "Point",
                "coordinates": [
                  11.3797337,
                  48.0659759
                ]
              }
            },
            {
              "type": "Feature",
              "properties": {
                "id": "4944328416",
                "osm_type": "node",
                "lat": 48.1032995,
                "lon": 11.4205403,
                "amenity": "bar",
                "name": "Nachteule",
                "opening_hours": "Mo-Sa 20:00-18:00+"
              },
              "geometry": {
                "type": "Point",
                "coordinates": [
                  11.4205403,
                  48.1032995
                ]
              }
            },
            {
              "type": "Feature",
              "properties": {
                "id": "7029517888",
                "osm_type": "node",
                "lat": 48.1877418,
                "lon": 11.383475,
                "amenity": "bar",
                "name": "Stockwerk"
              },
              "geometry": {
                "type": "Point",
                "coordinates": [
                  11.383475,
                  48.1877418
                ]
              }
            },
            {
              "type": "Feature",
              "properties": {
                "id": "9787606691",
                "osm_type": "node",
                "lat": 48.0630377,
                "lon": 11.1982762,
                "amenity": "bar",
                "email": "Anton@Aumiller-Events.de",
                "mobile": "+49 151 16543378",
                "name": "Pfeiffer-Stüberl",
                "opening_hours": "Mo-Su 18:30-23:30",
                "website": "https://www.aumiller-events.de/"
              },
              "geometry": {
                "type": "Point",
                "coordinates": [
                  11.1982762,
                  48.0630377
                ]
              }
            },
            {
              "type": "Feature",
              "properties": {
                "id": "10184353040",
                "osm_type": "node",
                "lat": 48.1685027,
                "lon": 11.3599239,
                "amenity": "bar",
                "name": "Golf City Event Stadl"
              },
              "geometry": {
                "type": "Point",
                "coordinates": [
                  11.3599239,
                  48.1685027
                ]
              }
            },
            {
              "type": "Feature",
              "properties": {
                "id": "10740699077",
                "osm_type": "node",
                "lat": 48.0355524,
                "lon": 11.3591084,
                "amenity": "bar",
                "name": "Uferlos Kiosk & Bar",
                "operator": "Forsthaus Mühltal",
                "outdoor_seating": "yes",
                "website": "https://www.forsthaus.bayern/uferlos"
              },
              "geometry": {
                "type": "Point",
                "coordinates": [
                  11.3591084,
                  48.0355524
                ]
              }
            }
          ],
          "children": []
        },
        {
          "bbox": {
            "south": 48.190694875,
            "west": 10.484655499999999,
            "north": 48.355971499999995,
            "east": 10.961507249999999
          },
          "poiCount": 9,
          "leafCount": 9,
          "averagePosition": [
            10.87783918888889,
            48.312610766666666
          ],
          "data": [
            {
              "type": "Feature",
              "properties": {
                "id": "1121320115",
                "osm_type": "node",
                "lat": 48.3404606,
                "lon": 10.8682684,
                "addr:city": "Augsburg",
                "addr:country": "DE",
                "addr:housenumber": "13",
                "addr:postcode": "86199",
                "addr:street": "Bürgermeister-Aurnhammer-Straße",
                "amenity": "bar",
                "name": "Fantasy Bar&Lounge"
              },
              "geometry": {
                "type": "Point",
                "coordinates": [
                  10.8682684,
                  48.3404606
                ]
              }
            },
            {
              "type": "Feature",
              "properties": {
                "id": "1927285030",
                "osm_type": "node",
                "lat": 48.2779543,
                "lon": 10.8918828,
                "addr:city": "Königsbrunn",
                "addr:country": "DE",
                "addr:housenumber": "1",
                "addr:postcode": "86343",
                "addr:street": "Bürgermeister-Wohlfarth-Straße",
                "amenity": "bar",
                "name": "QS-Quattro Stagioni, Speisecafe-Bar"
              },
              "geometry": {
                "type": "Point",
                "coordinates": [
                  10.8918828,
                  48.2779543
                ]
              }
            },
            {
              "type": "Feature",
              "properties": {
                "id": "3888983865",
                "osm_type": "node",
                "lat": 48.2708476,
                "lon": 10.8340946,
                "addr:city": "Bobingen",
                "addr:country": "DE",
                "addr:housenumber": "15",
                "addr:postcode": "86399",
                "addr:street": "Hochstraße",
                "amenity": "bar",
                "name": "City Bar / Spielcenter Bobingen"
              },
              "geometry": {
                "type": "Point",
                "coordinates": [
                  10.8340946,
                  48.2708476
                ]
              }
            },
            {
              "type": "Feature",
              "properties": {
                "id": "6033873368",
                "osm_type": "node",
                "lat": 48.3234756,
                "lon": 10.8850481,
                "addr:city": "Augsburg",
                "addr:housenumber": "90",
                "addr:postcode": "86199",
                "addr:street": "Bürgermeister-Ulrich-Straße",
                "amenity": "bar",
                "name": "LEW Sportsbar",
                "phone": "+49 821 65040-400",
                "website": "https://www.lew-sportsbar.de"
              },
              "geometry": {
                "type": "Point",
                "coordinates": [
                  10.8850481,
                  48.3234756
                ]
              }
            },
            {
              "type": "Feature",
              "properties": {
                "id": "6354366902",
                "osm_type": "node",
                "lat": 48.3503263,
                "lon": 10.8735378,
                "addr:city": "Augsburg",
                "addr:housenumber": "23",
                "addr:postcode": "86199",
                "addr:street": "Bergstraße",
                "amenity": "bar",
                "contact:facebook": "https://www.facebook.com/MisterVegas23/",
                "contact:phone": "+49 821 24276605",
                "name": "Mr. Vegas Bar",
                "outdoor_seating": "no"
              },
              "geometry": {
                "type": "Point",
                "coordinates": [
                  10.8735378,
                  48.3503263
                ]
              }
            },
            {
              "type": "Feature",
              "properties": {
                "id": "6387992370",
                "osm_type": "node",
                "lat": 48.3425309,
                "lon": 10.8708303,
                "addr:city": "Augsburg",
                "addr:housenumber": "14",
                "addr:postcode": "86199",
                "addr:street": "Klausenberg",
                "amenity": "bar",
                "check_date:opening_hours": "2023-06-25",
                "description": "Privat mietbare Räumlichkeiten",
                "level": "-1",
                "name": "Miet-Bar",
                "opening_hours:signed": "no",
                "outdoor_seating": "no"
              },
              "geometry": {
                "type": "Point",
                "coordinates": [
                  10.8708303,
                  48.3425309
                ]
              }
            },
            {
              "type": "Feature",
              "properties": {
                "id": "6796715511",
                "osm_type": "node",
                "lat": 48.2682604,
                "lon": 10.8108629,
                "addr:city": "Bobingen",
                "addr:country": "DE",
                "addr:housenumber": "7",
                "addr:postcode": "86399",
                "addr:street": "Michael-Schäffer-Straße",
                "amenity": "bar",
                "name": "Laola Pizzaservice - Cafe - Bar",
                "outdoor_seating": "yes",
                "website": "https://laola-bobingen.de"
              },
              "geometry": {
                "type": "Point",
                "coordinates": [
                  10.8108629,
                  48.2682604
                ]
              }
            },
            {
              "type": "Feature",
              "properties": {
                "id": "7577530041",
                "osm_type": "node",
                "lat": 48.3114721,
                "lon": 10.96127,
                "addr:city": "Kissing",
                "addr:country": "DE",
                "addr:housenumber": "15",
                "addr:postcode": "86438",
                "addr:street": "Peterhofstraße",
                "amenity": "bar",
                "food": "burger;snacks",
                "music": "recorded;live",
                "name": "American Musicbar Relax't",
                "outdoor_seating": "yes",
                "website": "https://www.relaxt-kissing.bayern/"
              },
              "geometry": {
                "type": "Point",
                "coordinates": [
                  10.96127,
                  48.3114721
                ]
              }
            },
            {
              "type": "Feature",
              "properties": {
                "id": "9922221798",
                "osm_type": "node",
                "lat": 48.3281691,
                "lon": 10.9047578,
                "addr:city": "Augsburg",
                "addr:housenumber": "17",
                "addr:postcode": "86159",
                "addr:street": "Heini-Dittmar-Straße",
                "amenity": "bar",
                "name": "Nightly",
                "opening_hours": "Su-Th 17:00-01:00, Fr,Sa 16:00-03:00"
              },
              "geometry": {
                "type": "Point",
                "coordinates": [
                  10.9047578,
                  48.3281691
                ]
              }
            }
          ],
          "children": []
        },
        {
          "bbox": {
            "south": 48.190694875,
            "west": 10.961507249999999,
            "north": 48.355971499999995,
            "east": 11.438358999999998
          },
          "poiCount": 14,
          "leafCount": 14,
          "averagePosition": [
            11.267971621428572,
            48.267316457142854
          ],
          "data": [
            {
              "type": "Feature",
              "properties": {
                "id": "3645168699",
                "osm_type": "node",
                "lat": 48.2656139,
                "lon": 10.9865192,
                "amenity": "bar",
                "name": "Hat Shot Bar & Cafe"
              },
              "geometry": {
                "type": "Point",
                "coordinates": [
                  10.9865192,
                  48.2656139
                ]
              }
            },
            {
              "type": "Feature",
              "properties": {
                "id": "3977234776",
                "osm_type": "node",
                "lat": 48.3549744,
                "lon": 10.9778917,
                "addr:city": "Friedberg",
                "addr:country": "DE",
                "addr:housenumber": "2",
                "addr:postcode": "86316",
                "addr:street": "Bauernbräustraße",
                "amenity": "bar",
                "capacity": "45",
                "level": "-0.5",
                "name": "Eckbar",
                "old_name": "weinBOAZN",
                "phone": "+49 821 99951937"
              },
              "geometry": {
                "type": "Point",
                "coordinates": [
                  10.9778917,
                  48.3549744
                ]
              }
            },
            {
              "type": "Feature",
              "properties": {
                "id": "3977234783",
                "osm_type": "node",
                "lat": 48.3547154,
                "lon": 10.9779443,
                "amenity": "bar",
                "check_date": "2023-10-22",
                "name": "Paradox",
                "website": "https://www.paradox-friedberg.de/"
              },
              "geometry": {
                "type": "Point",
                "coordinates": [
                  10.9779443,
                  48.3547154
                ]
              }
            },
            {
              "type": "Feature",
              "properties": {
                "id": "4922317363",
                "osm_type": "node",
                "lat": 48.265828,
                "lon": 10.9865612,
                "addr:city": "Mering",
                "addr:housenumber": "23",
                "addr:postcode": "86415",
                "addr:street": "Kanalstraße",
                "amenity": "bar",
                "email": "info@barbarossa-mering.de",
                "facebook": "https://www.facebook.com/people/BarBarossa-Mering/100094278360660/",
                "instagram": "https://www.instagram.com/barbarossamering/",
                "name": "BarBarossa",
                "not:brand:wikidata": "Q807766",
                "old_name": "CaBa",
                "opening_hours": "We-Th 18:00-23:00; Fr-Sa 17:00-03:00; Su 14:00-23:00",
                "website": "https://barbarossa-mering.de/"
              },
              "geometry": {
                "type": "Point",
                "coordinates": [
                  10.9865612,
                  48.265828
                ]
              }
            },
            {
              "type": "Feature",
              "properties": {
                "id": "1854020284",
                "osm_type": "node",
                "lat": 48.1960138,
                "lon": 11.3730048,
                "addr:city": "Gröbenzell",
                "addr:country": "DE",
                "addr:housenumber": "1",
                "addr:postcode": "82194",
                "addr:street": "Bahnhofstraße",
                "amenity": "bar",
                "name": "Café Valentin"
              },
              "geometry": {
                "type": "Point",
                "coordinates": [
                  11.3730048,
                  48.1960138
                ]
              }
            },
            {
              "type": "Feature",
              "properties": {
                "id": "2411427232",
                "osm_type": "node",
                "lat": 48.2101046,
                "lon": 11.3330023,
                "amenity": "bar",
                "contact:facebook": "https://www.facebook.com/SunsetBarOlching/",
                "name": "Sunset",
                "wheelchair": "no"
              },
              "geometry": {
                "type": "Point",
                "coordinates": [
                  11.3330023,
                  48.2101046
                ]
              }
            },
            {
              "type": "Feature",
              "properties": {
                "id": "2570265882",
                "osm_type": "node",
                "lat": 48.2597309,
                "lon": 11.432953,
                "amenity": "bar",
                "check_date": "2025-03-24",
                "name": "La Tapa",
                "opening_hours": "Mo,We,Th 18:00-02:00, Fr,Sa 18:00-05:00, Su 18:00-23:00"
              },
              "geometry": {
                "type": "Point",
                "coordinates": [
                  11.432953,
                  48.2597309
                ]
              }
            },
            {
              "type": "Feature",
              "properties": {
                "id": "4425070790",
                "osm_type": "node",
                "lat": 48.355155,
                "lon": 11.3877544,
                "amenity": "bar"
              },
              "geometry": {
                "type": "Point",
                "coordinates": [
                  11.3877544,
                  48.355155
                ]
              }
            },
            {
              "type": "Feature",
              "properties": {
                "id": "6709358576",
                "osm_type": "node",
                "lat": 48.2602176,
                "lon": 11.4322904,
                "amenity": "bar",
                "name": "Roxibar",
                "opening_hours:covid19": "off"
              },
              "geometry": {
                "type": "Point",
                "coordinates": [
                  11.4322904,
                  48.2602176
                ]
              }
            },
            {
              "type": "Feature",
              "properties": {
                "id": "7029456271",
                "osm_type": "node",
                "lat": 48.2215415,
                "lon": 11.2998282,
                "amenity": "bar"
              },
              "geometry": {
                "type": "Point",
                "coordinates": [
                  11.2998282,
                  48.2215415
                ]
              }
            },
            {
              "type": "Feature",
              "properties": {
                "id": "7592828556",
                "osm_type": "node",
                "lat": 48.2160924,
                "lon": 11.2580484,
                "amenity": "bar",
                "indoor_seating": "yes",
                "name": "SixtyFour",
                "opening_hours": "Tu-Th 17:30-22:00; Fr,Sa 16:30-23:00; Su,Mo off",
                "outdoor_seating": "no"
              },
              "geometry": {
                "type": "Point",
                "coordinates": [
                  11.2580484,
                  48.2160924
                ]
              }
            },
            {
              "type": "Feature",
              "properties": {
                "id": "10683297813",
                "osm_type": "node",
                "lat": 48.2625984,
                "lon": 11.4380738,
                "amenity": "bar",
                "contact:facebook": "https://www.facebook.com/people/Mirage-Cafe-Bar-Lounge-Shisha/100071887477977/",
                "name": "Mirage"
              },
              "geometry": {
                "type": "Point",
                "coordinates": [
                  11.4380738,
                  48.2625984
                ]
              }
            },
            {
              "type": "Feature",
              "properties": {
                "id": "13052543001",
                "osm_type": "node",
                "lat": 48.259626,
                "lon": 11.4352626,
                "amenity": "bar",
                "name": "Ape Centrale",
                "outdoor_seating": "yes"
              },
              "geometry": {
                "type": "Point",
                "coordinates": [
                  11.4352626,
                  48.259626
                ]
              }
            },
            {
              "type": "Feature",
              "properties": {
                "id": "13063893801",
                "osm_type": "node",
                "lat": 48.2602185,
                "lon": 11.4324684,
                "addr:housenumber": "25",
                "addr:street": "Augsburger Straße",
                "amenity": "bar",
                "name": "Bar Salute",
                "outdoor_seating": "yes"
              },
              "geometry": {
                "type": "Point",
                "coordinates": [
                  11.4324684,
                  48.2602185
                ]
              }
            }
          ],
          "children": []
        }
      ]
    }
  ]
}