{
  "bbox": {
    "south": 47.694865,
    "west": 13.345766,
    "north": 48.355971499999995,
    "east": 15.253173
  },
  "poiCount": 225,
  "leafCount": 0,
  "averagePosition": [
    14.171831115999998,
    48.143406652888885
  ],
  "data": [],
  "children": [
    {
      "bbox": {
        "south": 47.694865,
        "west": 13.345766,
        "north": 48.02541825,
        "east": 14.2994695
      },
      "poiCount": 44,
      "leafCount": 44,
      "averagePosition": [
        13.67401523409091,
        47.89147542954545
      ],
      "data": [
        {
          "type": "Feature",
          "properties": {
            "id": "475189652",
            "osm_type": "node",
            "lat": 47.7393064,
            "lon": 13.4422111,
            "amenity": "bar",
            "check_date": "2023-10-02",
            "name": "Sloppy Joe's"
          },
          "geometry": {
            "type": "Point",
            "coordinates": [
              13.4422111,
              47.7393064
            ]
          }
        },
        {
          "type": "Feature",
          "properties": {
            "id": "1306232328",
            "osm_type": "node",
            "lat": 47.8564496,
            "lon": 13.3498146,
            "amenity": "bar",
            "name": "Mond-Bar",
            "phone": "0043 (0)6232/2293",
            "website": "www.mond-bar.at"
          },
          "geometry": {
            "type": "Point",
            "coordinates": [
              13.3498146,
              47.8564496
            ]
          }
        },
        {
          "type": "Feature",
          "properties": {
            "id": "5843838576",
            "osm_type": "node",
            "lat": 47.7394658,
            "lon": 13.4463178,
            "amenity": "bar",
            "check_date": "2023-10-02",
            "name": "13er Haus"
          },
          "geometry": {
            "type": "Point",
            "coordinates": [
              13.4463178,
              47.7394658
            ]
          }
        },
        {
          "type": "Feature",
          "properties": {
            "id": "5916226363",
            "osm_type": "node",
            "lat": 47.8565185,
            "lon": 13.3491573,
            "amenity": "bar",
            "name": "Barra Cubana"
          },
          "geometry": {
            "type": "Point",
            "coordinates": [
              13.3491573,
              47.8565185
            ]
          }
        },
        {
          "type": "Feature",
          "properties": {
            "id": "5916242639",
            "osm_type": "node",
            "lat": 47.854989,
            "lon": 13.3492886,
            "amenity": "bar",
            "name": "Puzzles"
          },
          "geometry": {
            "type": "Point",
            "coordinates": [
              13.3492886,
              47.854989
            ]
          }
        },
        {
          "type": "Feature",
          "properties": {
            "id": "6500386764",
            "osm_type": "node",
            "lat": 47.7645127,
            "lon": 13.3674887,
            "addr:city": "Sankt Gilgen",
            "addr:country": "AT",
            "addr:housenumber": "18",
            "addr:postcode": "5340",
            "addr:street": "Ischlerstraße",
            "amenity": "bar",
            "at_bev:addr_date": "2018-10-01",
            "name": "12er Alm"
          },
          "geometry": {
            "type": "Point",
            "coordinates": [
              13.3674887,
              47.7645127
            ]
          }
        },
        {
          "type": "Feature",
          "properties": {
            "id": "9952949688",
            "osm_type": "node",
            "lat": 47.7657153,
            "lon": 13.3653657,
            "amenity": "bar",
            "name": "Wolferl & Wein",
            "outdoor_seating": "yes"
          },
          "geometry": {
            "type": "Point",
            "coordinates": [
              13.3653657,
              47.7657153
            ]
          }
        },
        {
          "type": "Feature",
          "properties": {
            "id": "11938149449",
            "osm_type": "node",
            "lat": 47.7380007,
            "lon": 13.4486936,
            "amenity": "bar",
            "name": "Kaffee-Bar Soda",
            "opening_hours": "Tu-Sa 17:00-23:00",
            "outdoor_seating": "yes"
          },
          "geometry": {
            "type": "Point",
            "coordinates": [
              13.4486936,
              47.7380007
            ]
          }
        },
        {
          "type": "Feature",
          "properties": {
            "id": "12014863848",
            "osm_type": "node",
            "lat": 47.7179403,
            "lon": 13.4452268,
            "amenity": "bar",
            "contact:facebook": "https://www.facebook.com/wagerlamsee/",
            "name": "Wagerl am See",
            "opening_hours": "Mo-Fr,Su 13:00-18:00; Sa 12:00-18:00",
            "phone": "+436802085165"
          },
          "geometry": {
            "type": "Point",
            "coordinates": [
              13.4452268,
              47.7179403
            ]
          }
        },
        {
          "type": "Feature",
          "properties": {
            "id": "939445337",
            "osm_type": "node",
            "lat": 47.7130481,
            "lon": 13.618448,
            "amenity": "bar",
            "name": "F-Joe"
          },
          "geometry": {
            "type": "Point",
            "coordinates": [
              13.618448,
              47.7130481
            ]
          }
        },
        {
          "type": "Feature",
          "properties": {
            "id": "939447149",
            "osm_type": "node",
            "lat": 47.7109762,
            "lon": 13.6210905,
            "amenity": "bar",
            "contact:website": "http://www.kukhofbeisl.com",
            "name": "KuK-Hofbeisl",
            "opening_hours": "Su-We 08:00-02:00; Th-Sa 08:00-04:00",
            "wheelchair": "yes"
          },
          "geometry": {
            "type": "Point",
            "coordinates": [
              13.6210905,
              47.7109762
            ]
          }
        },
        {
          "type": "Feature",
          "properties": {
            "id": "3059090653",
            "osm_type": "node",
            "lat": 47.7112348,
            "lon": 13.6242045,
            "addr:city": "Bad Ischl",
            "addr:country": "AT",
            "addr:housenumber": "6",
            "addr:postcode": "4820",
            "addr:street": "Auböckplatz",
            "amenity": "bar",
            "name": "Stehbeisl",
            "phone": "+43 6132 21177",
            "toilets:wheelchair": "no",
            "website": "http://www.stehbeisl.at",
            "wheelchair": "no"
          },
          "geometry": {
            "type": "Point",
            "coordinates": [
              13.6242045,
              47.7112348
            ]
          }
        },
        {
          "type": "Feature",
          "properties": {
            "id": "3703621888",
            "osm_type": "node",
            "lat": 47.8537715,
            "lon": 13.9565684,
            "amenity": "bar",
            "name": "Happy Hauer's Cocktailbar",
            "opening_hours": "We-Su 18:00+",
            "operator": "Hr. Hauer",
            "smoking": "outside"
          },
          "geometry": {
            "type": "Point",
            "coordinates": [
              13.9565684,
              47.8537715
            ]
          }
        },
        {
          "type": "Feature",
          "properties": {
            "id": "5042276626",
            "osm_type": "node",
            "lat": 47.8121028,
            "lon": 13.7714382,
            "amenity": "bar",
            "name": "Vinothek \"Wein & Fein\"",
            "opening_hours": "Mo-Su 17:00-23:00",
            "opening_hours:covid19": "off",
            "website": "http://www.weinundfein.at/",
            "wheelchair": "limited"
          },
          "geometry": {
            "type": "Point",
            "coordinates": [
              13.7714382,
              47.8121028
            ]
          }
        },
        {
          "type": "Feature",
          "properties": {
            "id": "12055251637",
            "osm_type": "node",
            "lat": 47.710232,
            "lon": 13.6215829,
            "amenity": "bar",
            "check_date": "2025-07-05",
            "check_date:opening_hours": "2025-07-05",
            "name": "Ahu's Bar",
            "opening_hours": "Tu-Sa 19:00-04:00; Su,Mo,PH off"
          },
          "geometry": {
            "type": "Point",
            "coordinates": [
              13.6215829,
              47.710232
            ]
          }
        },
        {
          "type": "Feature",
          "properties": {
            "id": "7847211866",
            "osm_type": "node",
            "lat": 47.8453282,
            "lon": 14.2107768,
            "amenity": "bar",
            "name": "Gasthaus Forsthub"
          },
          "geometry": {
            "type": "Point",
            "coordinates": [
              14.2107768,
              47.8453282
            ]
          }
        },
        {
          "type": "Feature",
          "properties": {
            "id": "460961785",
            "osm_type": "node",
            "lat": 47.9858074,
            "lon": 13.4212152,
            "addr:city": "Frankenmarkt",
            "addr:housenumber": "76",
            "addr:postcode": "4890",
            "addr:street": "Hauptstraße",
            "amenity": "bar",
            "name": "Millas Bar"
          },
          "geometry": {
            "type": "Point",
            "coordinates": [
              13.4212152,
              47.9858074
            ]
          }
        },
        {
          "type": "Feature",
          "properties": {
            "id": "1929046594",
            "osm_type": "node",
            "lat": 47.9853677,
            "lon": 13.4198959,
            "addr:city": "Frankenmarkt",
            "addr:housenumber": "69",
            "addr:postcode": "4890",
            "addr:street": "Hauptstraße",
            "amenity": "bar",
            "name": "Bar CUBA"
          },
          "geometry": {
            "type": "Point",
            "coordinates": [
              13.4198959,
              47.9853677
            ]
          }
        },
        {
          "type": "Feature",
          "properties": {
            "id": "10068668284",
            "osm_type": "node",
            "lat": 47.882918,
            "lon": 13.5217447,
            "amenity": "bar",
            "name": "Die Bar AXXL",
            "phone": "+43 7666 8073",
            "website": "https://www.lexenhof.at/bar-axxl"
          },
          "geometry": {
            "type": "Point",
            "coordinates": [
              13.5217447,
              47.882918
            ]
          }
        },
        {
          "type": "Feature",
          "properties": {
            "id": "10072464726",
            "osm_type": "node",
            "lat": 47.8828055,
            "lon": 13.5225355,
            "amenity": "bar",
            "name": "Delingo - Vinothek & Feinkost",
            "outdoor_seating": "yes",
            "phone": "+43 7666 82005",
            "website": "https://www.delingo.at/"
          },
          "geometry": {
            "type": "Point",
            "coordinates": [
              13.5225355,
              47.8828055
            ]
          }
        },
        {
          "type": "Feature",
          "properties": {
            "id": "10095061157",
            "osm_type": "node",
            "lat": 47.8836971,
            "lon": 13.5233089,
            "amenity": "bar",
            "name": "Mayer's Poolbar",
            "website": "https://www.hotel-aichinger.at/de/nightlife/"
          },
          "geometry": {
            "type": "Point",
            "coordinates": [
              13.5233089,
              47.8836971
            ]
          }
        },
        {
          "type": "Feature",
          "properties": {
            "id": "1419857955",
            "osm_type": "node",
            "lat": 48.0079095,
            "lon": 13.6539961,
            "addr:city": "Vöcklabruck",
            "addr:country": "AT",
            "addr:housenumber": "30",
            "addr:postcode": "4840",
            "addr:street": "Stadtplatz",
            "amenity": "bar",
            "name": "Chill's",
            "wheelchair": "limited"
          },
          "geometry": {
            "type": "Point",
            "coordinates": [
              13.6539961,
              48.0079095
            ]
          }
        },
        {
          "type": "Feature",
          "properties": {
            "id": "1446831086",
            "osm_type": "node",
            "lat": 48.0080809,
            "lon": 13.655178,
            "addr:city": "Vöcklabruck",
            "addr:country": "AT",
            "addr:housenumber": "1",
            "addr:postcode": "4840",
            "addr:street": "Schwibbogen",
            "amenity": "bar",
            "entrance": "yes",
            "name": "KontraSt",
            "wheelchair": "limited"
          },
          "geometry": {
            "type": "Point",
            "coordinates": [
              13.655178,
              48.0080809
            ]
          }
        },
        {
          "type": "Feature",
          "properties": {
            "id": "1575970129",
            "osm_type": "node",
            "lat": 47.981305,
            "lon": 13.8238006,
            "amenity": "bar",
            "name": "Monroes"
          },
          "geometry": {
            "type": "Point",
            "coordinates": [
              13.8238006,
              47.981305
            ]
          }
        },
        {
          "type": "Feature",
          "properties": {
            "id": "1845888166",
            "osm_type": "node",
            "lat": 48.0023387,
            "lon": 13.6109609,
            "addr:city": "Timelkam",
            "addr:country": "AT",
            "addr:housenumber": "18",
            "addr:postcode": "4850",
            "addr:street": "Linzer Straße",
            "amenity": "bar",
            "name": "Bart",
            "website": "https://www.bart.co.at/",
            "wheelchair": "no"
          },
          "geometry": {
            "type": "Point",
            "coordinates": [
              13.6109609,
              48.0023387
            ]
          }
        },
        {
          "type": "Feature",
          "properties": {
            "id": "1845890338",
            "osm_type": "node",
            "lat": 48.0024052,
            "lon": 13.6110893,
            "addr:city": "Timelkam",
            "addr:country": "AT",
            "addr:housenumber": "20",
            "addr:postcode": "4850",
            "addr:street": "Linzer Straße",
            "amenity": "bar",
            "name": "Bogarts",
            "website": "https://www.facebook.com/bogartstimelkam",
            "wheelchair": "no"
          },
          "geometry": {
            "type": "Point",
            "coordinates": [
              13.6110893,
              48.0024052
            ]
          }
        },
        {
          "type": "Feature",
          "properties": {
            "id": "1845892651",
            "osm_type": "node",
            "lat": 48.0021952,
            "lon": 13.6113414,
            "amenity": "bar",
            "name": "Gei",
            "wheelchair": "no"
          },
          "geometry": {
            "type": "Point",
            "coordinates": [
              13.6113414,
              48.0021952
            ]
          }
        },
        {
          "type": "Feature",
          "properties": {
            "id": "1869906191",
            "osm_type": "node",
            "lat": 47.990456,
            "lon": 13.6828265,
            "addr:city": "Regau",
            "addr:housenumber": "15",
            "addr:postcode": "4844",
            "addr:street": "Betriebsstraße",
            "amenity": "bar",
            "name": "Kultbar",
            "website": "https://www.starmovie.at/star-movie-regau/kinoerlebnis/essen-trinken/kult-11/",
            "wheelchair": "yes"
          },
          "geometry": {
            "type": "Point",
            "coordinates": [
              13.6828265,
              47.990456
            ]
          }
        },
        {
          "type": "Feature",
          "properties": {
            "id": "1869919850",
            "osm_type": "node",
            "lat": 47.9903805,
            "lon": 13.6828158,
            "addr:city": "Regau",
            "addr:housenumber": "15",
            "addr:postcode": "4844",
            "addr:street": "Betriebsstraße",
            "amenity": "bar",
            "name": "Jetlag",
            "website": "http://www.jetlag.co.at/",
            "wheelchair": "no"
          },
          "geometry": {
            "type": "Point",
            "coordinates": [
              13.6828158,
              47.9903805
            ]
          }
        },
        {
          "type": "Feature",
          "properties": {
            "id": "1874485360",
            "osm_type": "node",
            "lat": 48.0008806,
            "lon": 13.6507225,
            "addr:city": "Vöcklabruck",
            "addr:country": "AT",
            "addr:housenumber": "11",
            "addr:postcode": "4840",
            "addr:street": "Robert-Kunz-Straße",
            "amenity": "bar",
            "name": "C'est la vie",
            "opening_hours": "So-Do 17:00-01:00 Fr+Sa 17:00-02:00",
            "phone": "+43 7672 97008",
            "website": "https://www.cest-la-vie.at/",
            "wheelchair": "limited"
          },
          "geometry": {
            "type": "Point",
            "coordinates": [
              13.6507225,
              48.0008806
            ]
          }
        },
        {
          "type": "Feature",
          "properties": {
            "id": "3350372480",
            "osm_type": "node",
            "lat": 47.9176788,
            "lon": 13.7983937,
            "amenity": "bar",
            "name": "Havanna Cocktailhouse",
            "opening_hours": "Th-Sa 20:00-04:00"
          },
          "geometry": {
            "type": "Point",
            "coordinates": [
              13.7983937,
              47.9176788
            ]
          }
        },
        {
          "type": "Feature",
          "properties": {
            "id": "3350448504",
            "osm_type": "node",
            "lat": 47.9187436,
            "lon": 13.8010313,
            "addr:city": "Gmunden",
            "addr:country": "AT",
            "addr:housenumber": "9",
            "addr:postcode": "4810",
            "addr:street": "Kammerhofgasse",
            "amenity": "bar",
            "email": "office@lbar.at",
            "name": "L'Bar",
            "opening_hours": "Mo-Sa 18:00+",
            "phone": "+43 664 5136822",
            "website": "https://www.lbar.at/",
            "wheelchair": "no"
          },
          "geometry": {
            "type": "Point",
            "coordinates": [
              13.8010313,
              47.9187436
            ]
          }
        },
        {
          "type": "Feature",
          "properties": {
            "id": "3648062714",
            "osm_type": "node",
            "lat": 47.9199873,
            "lon": 13.8005154,
            "amenity": "bar",
            "fixme": "Noch geöffnet?",
            "name": "Mango"
          },
          "geometry": {
            "type": "Point",
            "coordinates": [
              13.8005154,
              47.9199873
            ]
          }
        },
        {
          "type": "Feature",
          "properties": {
            "id": "4432846858",
            "osm_type": "node",
            "lat": 47.9921988,
            "lon": 13.9212345,
            "amenity": "bar",
            "name": "Gatsby"
          },
          "geometry": {
            "type": "Point",
            "coordinates": [
              13.9212345,
              47.9921988
            ]
          }
        },
        {
          "type": "Feature",
          "properties": {
            "id": "5630880923",
            "osm_type": "node",
            "lat": 47.9800356,
            "lon": 13.6118717,
            "addr:postcode": "4860",
            "amenity": "bar",
            "cuisine": "austrian",
            "name": "Plüschys KurvenBar",
            "phone": "+43 676 5903456"
          },
          "geometry": {
            "type": "Point",
            "coordinates": [
              13.6118717,
              47.9800356
            ]
          }
        },
        {
          "type": "Feature",
          "properties": {
            "id": "5819290963",
            "osm_type": "node",
            "lat": 47.9351034,
            "lon": 13.8451082,
            "amenity": "bar",
            "name": "Fifi Bar"
          },
          "geometry": {
            "type": "Point",
            "coordinates": [
              13.8451082,
              47.9351034
            ]
          }
        },
        {
          "type": "Feature",
          "properties": {
            "id": "5961331656",
            "osm_type": "node",
            "lat": 48.0108192,
            "lon": 13.6592334,
            "addr:city": "Vöcklabruck",
            "addr:housenumber": "12",
            "addr:postcode": "4840",
            "addr:street": "Bahnhofsstraße",
            "amenity": "bar",
            "brewery": "Guinness",
            "name": "Village Hill Irish Pub",
            "opening_hours": "Tu-Sa 17:00-01:00",
            "phone": "+43 676 9132008",
            "website": "https://www.villagehill.at/"
          },
          "geometry": {
            "type": "Point",
            "coordinates": [
              13.6592334,
              48.0108192
            ]
          }
        },
        {
          "type": "Feature",
          "properties": {
            "id": "6357155687",
            "osm_type": "node",
            "lat": 47.9143048,
            "lon": 13.5384451,
            "addr:postcode": "4864",
            "addr:street": "Landungsplatz",
            "amenity": "bar",
            "cuisine": "ice_cream;coffee_shop",
            "name": "Gall‘s Schirmbar",
            "phone": "+43 699 13539007"
          },
          "geometry": {
            "type": "Point",
            "coordinates": [
              13.5384451,
              47.9143048
            ]
          }
        },
        {
          "type": "Feature",
          "properties": {
            "id": "7059770117",
            "osm_type": "node",
            "lat": 47.918317,
            "lon": 13.7981319,
            "addr:housenumber": "7",
            "addr:street": "Am Graben",
            "amenity": "bar",
            "name": "Enrico Panigl",
            "wheelchair": "no"
          },
          "geometry": {
            "type": "Point",
            "coordinates": [
              13.7981319,
              47.918317
            ]
          }
        },
        {
          "type": "Feature",
          "properties": {
            "id": "13072460818",
            "osm_type": "node",
            "lat": 48.0039639,
            "lon": 13.9235916,
            "addr:city": "Vorchdorf",
            "addr:housenumber": "4",
            "addr:postcode": "4655",
            "addr:street": "Kapellenweg",
            "amenity": "bar",
            "name": "Vinolino",
            "opening_hours": "Mo-Sa 18:00-24:00"
          },
          "geometry": {
            "type": "Point",
            "coordinates": [
              13.9235916,
              48.0039639
            ]
          }
        },
        {
          "type": "Feature",
          "properties": {
            "id": "684262434",
            "osm_type": "node",
            "lat": 48.0253342,
            "lon": 14.2038152,
            "addr:city": "Pfarrkirchen bei Bad Hall",
            "addr:country": "AT",
            "addr:housenumber": "42",
            "addr:postcode": "4540",
            "addr:street": "Mühlgruberstraße",
            "amenity": "bar",
            "email": "office@redrooster.at",
            "name": "Red Rooster",
            "opening_hours": "Fr-Sa 21:00-04:00",
            "operator": "Schloss Mühlgrub Betriebs GmbH;Walter Stiegl",
            "website": "http://www.redrooster.at"
          },
          "geometry": {
            "type": "Point",
            "coordinates": [
              14.2038152,
              48.0253342
            ]
          }
        },
        {
          "type": "Feature",
          "properties": {
            "id": "3889196860",
            "osm_type": "node",
            "lat": 47.9060546,
            "lon": 14.1214687,
            "addr:city": "Kirchdorf an der Krems",
            "addr:postcode": "4560",
            "addr:street": "Simon-Redtenbacher-Platz",
            "amenity": "bar",
            "name": "Mainstreet Café & Bar",
            "opening_hours": "Mo-Sa 18:00+",
            "operator": "Tobi",
            "smoking": "yes",
            "website": "https://www.mainstreet-bar.at/"
          },
          "geometry": {
            "type": "Point",
            "coordinates": [
              14.1214687,
              47.9060546
            ]
          }
        },
        {
          "type": "Feature",
          "properties": {
            "id": "5222776470",
            "osm_type": "node",
            "lat": 47.9054663,
            "lon": 14.1237654,
            "amenity": "bar",
            "name": "M.A.D.ness DISC Straubinger"
          },
          "geometry": {
            "type": "Point",
            "coordinates": [
              14.1237654,
              47.9054663
            ]
          }
        },
        {
          "type": "Feature",
          "properties": {
            "id": "9352203722",
            "osm_type": "node",
            "lat": 47.8807722,
            "lon": 14.1309594,
            "amenity": "bar",
            "name": "Stuham",
            "opening_hours": "We-Sa 18:00-24:00"
          },
          "geometry": {
            "type": "Point",
            "coordinates": [
              14.1309594,
              47.8807722
            ]
          }
        }
      ],
      "children": []
    },
    {
      "bbox": {
        "south": 47.694865,
        "west": 14.2994695,
        "north": 48.02541825,
        "east": 15.253173
      },
      "poiCount": 11,
      "leafCount": 11,
      "averagePosition": [
        14.668127527272729,
        47.907232681818186
      ],
      "data": [
        {
          "type": "Feature",
          "properties": {
            "id": "10308007808",
            "osm_type": "node",
            "lat": 47.7219481,
            "lon": 14.3284558,
            "addr:city": "Windischgarsten",
            "addr:country": "AT",
            "addr:housenumber": "12",
            "addr:postcode": "4580",
            "addr:street": "Hauptstraße",
            "amenity": "bar",
            "brewery": "Gösser",
            "name": "Pepito",
            "opening_hours": "Tu-Sa 20:00-04:00"
          },
          "geometry": {
            "type": "Point",
            "coordinates": [
              14.3284558,
              47.7219481
            ]
          }
        },
        {
          "type": "Feature",
          "properties": {
            "id": "12345997219",
            "osm_type": "node",
            "lat": 47.7213071,
            "lon": 14.3292859,
            "amenity": "bar",
            "name": "Altstadt"
          },
          "geometry": {
            "type": "Point",
            "coordinates": [
              14.3292859,
              47.7213071
            ]
          }
        },
        {
          "type": "Feature",
          "properties": {
            "id": "9789701606",
            "osm_type": "node",
            "lat": 47.8610347,
            "lon": 15.0265746,
            "amenity": "bar",
            "name": "Platzhirsch"
          },
          "geometry": {
            "type": "Point",
            "coordinates": [
              15.0265746,
              47.8610347
            ]
          }
        },
        {
          "type": "Feature",
          "properties": {
            "id": "905436982",
            "osm_type": "node",
            "lat": 47.9493528,
            "lon": 14.3598094,
            "amenity": "bar",
            "internet_access": "no",
            "name": "Spozal",
            "opening_hours": "Th-Sa 18:00-04:00",
            "smoking": "yes",
            "wheelchair": "no"
          },
          "geometry": {
            "type": "Point",
            "coordinates": [
              14.3598094,
              47.9493528
            ]
          }
        },
        {
          "type": "Feature",
          "properties": {
            "id": "11869062837",
            "osm_type": "node",
            "lat": 47.9206369,
            "lon": 14.4736093,
            "amenity": "bar",
            "name": "Sebaldus Brunnen",
            "opening_hours": "24/7"
          },
          "geometry": {
            "type": "Point",
            "coordinates": [
              14.4736093,
              47.9206369
            ]
          }
        },
        {
          "type": "Feature",
          "properties": {
            "id": "1540212984",
            "osm_type": "node",
            "lat": 47.9602495,
            "lon": 14.7734278,
            "addr:city": "Waidhofen an der Ybbs",
            "addr:country": "AT",
            "addr:housenumber": "35",
            "addr:postcode": "3340",
            "addr:street": "Unterer Stadtplatz",
            "amenity": "bar",
            "brewery": "Hirter",
            "contact:phone": "+43 664 4678 863",
            "name": "Flaschenpost -Weinbar",
            "old_name": "Weinstube - Alte Post",
            "opening_hours": "Tu-Sa 16:00-24:00",
            "outdoor_seating": "yes",
            "website": "https://www.flaschenpost-weinbar.at/",
            "wheelchair": "limited"
          },
          "geometry": {
            "type": "Point",
            "coordinates": [
              14.7734278,
              47.9602495
            ]
          }
        },
        {
          "type": "Feature",
          "properties": {
            "id": "2278530002",
            "osm_type": "node",
            "lat": 48.0115053,
            "lon": 14.9731724,
            "addr:city": "Randegg",
            "addr:country": "AT",
            "addr:housenumber": "30",
            "addr:place": "Randegg",
            "addr:postcode": "3263",
            "amenity": "bar",
            "at_bev:addr_date": "2018-10-01",
            "name": "Mandrea"
          },
          "geometry": {
            "type": "Point",
            "coordinates": [
              14.9731724,
              48.0115053
            ]
          }
        },
        {
          "type": "Feature",
          "properties": {
            "id": "6061935466",
            "osm_type": "node",
            "lat": 47.9594106,
            "lon": 14.7735607,
            "addr:city": "Waidhofen an der Ybbs",
            "addr:country": "AT",
            "addr:housenumber": "20",
            "addr:postcode": "3340",
            "addr:street": "Unterer Stadtplatz",
            "amenity": "bar",
            "contact:facebook": "https://www.facebook.com/yourswy/",
            "contact:phone": "+43 650 4403 575",
            "name": "YOURS",
            "old_name": "Cappuccino",
            "opening_hours": "Fr 20:00-05:00; Sa 20:00-04:00",
            "outdoor_seating": "yes"
          },
          "geometry": {
            "type": "Point",
            "coordinates": [
              14.7735607,
              47.9594106
            ]
          }
        },
        {
          "type": "Feature",
          "properties": {
            "id": "6070865642",
            "osm_type": "node",
            "lat": 47.9617516,
            "lon": 14.7724284,
            "addr:city": "Waidhofen an der Ybbs",
            "addr:country": "AT",
            "addr:housenumber": "1",
            "addr:postcode": "3340",
            "addr:street": "Wienerstraße",
            "amenity": "bar",
            "at_bev:addr_date": "2017-10-01",
            "contact:facebook": "https://www.facebook.com/people/Gasthaus-zum-Halbmond/100057491047744/",
            "contact:phone": "+43 664 477 3361",
            "description": "Live-DJ sowie kostenloses Billard-Spielen im 1. Stock",
            "leisure": "dance",
            "name": "Gasthaus zum Halbmond - s'Gwölb",
            "opening_hours": "Fr 19:00-02:00",
            "outdoor_seating": "yes",
            "website": "https://halbmond.at/tanzbar/"
          },
          "geometry": {
            "type": "Point",
            "coordinates": [
              14.7724284,
              47.9617516
            ]
          }
        },
        {
          "type": "Feature",
          "properties": {
            "id": "6422842104",
            "osm_type": "node",
            "lat": 47.9493658,
            "lon": 14.7641426,
            "addr:city": "Waidhofen an der Ybbs",
            "addr:country": "AT",
            "addr:housenumber": "80",
            "addr:postcode": "3340",
            "addr:street": "Weyrerstraße",
            "amenity": "bar",
            "contact:phone": "+43 7442 541 77",
            "name": "Hammerwerk",
            "opening_hours": "Fr, Sa 22:00-04:00",
            "website": "https://www.hammer-werk.at/012/location"
          },
          "geometry": {
            "type": "Point",
            "coordinates": [
              14.7641426,
              47.9493658
            ]
          }
        },
        {
          "type": "Feature",
          "properties": {
            "id": "11876396780",
            "osm_type": "node",
            "lat": 47.9629971,
            "lon": 14.7749359,
            "amenity": "bar",
            "contact:phone": "+43 7442 505",
            "name": "Sundowner Bar",
            "opening_hours": "Mo-Sa 14:00-23:00; Su 14:00-18:00",
            "outdoor_seating": "yes",
            "website": "https://www.schlosseisenstrasse.at/de/fein-essen/sundowner-bar/"
          },
          "geometry": {
            "type": "Point",
            "coordinates": [
              14.7749359,
              47.9629971
            ]
          }
        }
      ],
      "children": []
    },
    {
      "bbox": {
        "south": 48.02541825,
        "west": 13.345766,
        "north": 48.355971499999995,
        "east": 14.2994695
      },
      "poiCount": 115,
      "leafCount": 0,
      "averagePosition": [
        14.09753003217391,
        48.24854772956522
      ],
      "data": [],
      "children": [
        {
          "bbox": {
            "south": 48.02541825,
            "west": 13.345766,
            "north": 48.190694875,
            "east": 13.82261775
          },
          "poiCount": 5,
          "leafCount": 5,
          "averagePosition": [
            13.650182939999999,
            48.12103166
          ],
          "data": [
            {
              "type": "Feature",
              "properties": {
                "id": "6210423794",
                "osm_type": "node",
                "lat": 48.1240007,
                "lon": 13.371866,
                "amenity": "bar",
                "name": "Pub Bianca"
              },
              "geometry": {
                "type": "Point",
                "coordinates": [
                  13.371866,
                  48.1240007
                ]
              }
            },
            {
              "type": "Feature",
              "properties": {
                "id": "1476707087",
                "osm_type": "node",
                "lat": 48.0985753,
                "lon": 13.6673245,
                "amenity": "bar",
                "name": "Plederer Hütte"
              },
              "geometry": {
                "type": "Point",
                "coordinates": [
                  13.6673245,
                  48.0985753
                ]
              }
            },
            {
              "type": "Feature",
              "properties": {
                "id": "1546231692",
                "osm_type": "node",
                "lat": 48.1430635,
                "lon": 13.7361487,
                "amenity": "bar",
                "name": "toni"
              },
              "geometry": {
                "type": "Point",
                "coordinates": [
                  13.7361487,
                  48.1430635
                ]
              }
            },
            {
              "type": "Feature",
              "properties": {
                "id": "1574078509",
                "osm_type": "node",
                "lat": 48.1838731,
                "lon": 13.7031089,
                "amenity": "bar",
                "name": "Wiwari",
                "wifi": "no"
              },
              "geometry": {
                "type": "Point",
                "coordinates": [
                  13.7031089,
                  48.1838731
                ]
              }
            },
            {
              "type": "Feature",
              "properties": {
                "id": "2887216101",
                "osm_type": "node",
                "lat": 48.0556457,
                "lon": 13.7724666,
                "addr:city": "Schwanenstadt",
                "addr:housenumber": "2",
                "addr:postcode": "4690",
                "addr:street": "Johann-Papst-Straße",
                "amenity": "bar",
                "name": "Levinsky",
                "opening_hours": "19:00-04:00",
                "smoking": "yes",
                "website": "http://www.levinsky.cc",
                "wheelchair": "no"
              },
              "geometry": {
                "type": "Point",
                "coordinates": [
                  13.7724666,
                  48.0556457
                ]
              }
            }
          ],
          "children": []
        },
        {
          "bbox": {
            "south": 48.02541825,
            "west": 13.82261775,
            "north": 48.190694875,
            "east": 14.2994695
          },
          "poiCount": 22,
          "leafCount": 22,
          "averagePosition": [
            14.03634189090909,
            48.14900395
          ],
          "data": [
            {
              "type": "Feature",
              "properties": {
                "id": "425903980",
                "osm_type": "node",
                "lat": 48.1536799,
                "lon": 14.0261101,
                "addr:city": "Wels",
                "addr:country": "AT",
                "addr:housenumber": "2k",
                "addr:postcode": "4600",
                "addr:street": "Traunuferstraße",
                "amenity": "bar",
                "email": "info@isola-bella.at",
                "indoor_seating": "no",
                "name": "Isola Bella",
                "opening_hours": "Mo-Su 11:00-24:00",
                "outdoor_seating": "yes",
                "payment:credit_cards": "no",
                "payment:debit_cards": "no",
                "phone": "+43 676 6086000",
                "smoking": "yes",
                "website": "http://www.isola-bella.at/isola-bella",
                "wheelchair": "no"
              },
              "geometry": {
                "type": "Point",
                "coordinates": [
                  14.0261101,
                  48.1536799
                ]
              }
            },
            {
              "type": "Feature",
              "properties": {
                "id": "632426809",
                "osm_type": "node",
                "lat": 48.1564633,
                "lon": 14.0259592,
                "addr:city": "Wels",
                "addr:country": "AT",
                "addr:housenumber": "7",
                "addr:postcode": "4600",
                "addr:street": "Traungasse",
                "amenity": "bar",
                "indoor_seating": "yes",
                "name": "Weinzeit",
                "opening_hours": "Mo-Fr 17:00-04:00; Sa,Su 19:00-04:00",
                "outdoor_seating": "yes",
                "phone": "+43 676 4809707",
                "toilets:wheelchair": "no",
                "wheelchair": "limited"
              },
              "geometry": {
                "type": "Point",
                "coordinates": [
                  14.0259592,
                  48.1564633
                ]
              }
            },
            {
              "type": "Feature",
              "properties": {
                "id": "702973155",
                "osm_type": "node",
                "lat": 48.1567704,
                "lon": 14.0261813,
                "addr:city": "Wels",
                "addr:country": "AT",
                "addr:housenumber": "2",
                "addr:postcode": "4600",
                "addr:street": "Hafergasse",
                "amenity": "bar",
                "brewery": "Zipfer",
                "email": "kontakt@aufverdacht.at",
                "name": "Auf Verdacht",
                "opening_hours": "Mo-Su 19:00-04:00",
                "phone": "+43 (664) 4454555",
                "toilets:wheelchair": "no",
                "url": "http://aufverdacht.at/",
                "wheelchair": "no"
              },
              "geometry": {
                "type": "Point",
                "coordinates": [
                  14.0261813,
                  48.1567704
                ]
              }
            },
            {
              "type": "Feature",
              "properties": {
                "id": "702973156",
                "osm_type": "node",
                "lat": 48.1567313,
                "lon": 14.0262229,
                "addr:city": "Wels",
                "addr:country": "AT",
                "addr:housenumber": "4",
                "addr:postcode": "4600",
                "addr:street": "Hafergasse",
                "alt_name": "trendig exklusiv bemüht",
                "amenity": "bar",
                "brewery": "Stiegl",
                "name": "Stadtbeisl",
                "opening_hours": "Su-Th 18:00-04:00; Fr-Sa 19:00-04:00",
                "phone": "+43 7242 59126",
                "toilets:wheelchair": "no",
                "wheelchair": "no"
              },
              "geometry": {
                "type": "Point",
                "coordinates": [
                  14.0262229,
                  48.1567313
                ]
              }
            },
            {
              "type": "Feature",
              "properties": {
                "id": "742512910",
                "osm_type": "node",
                "lat": 48.1572242,
                "lon": 14.0255495,
                "addr:city": "Wels",
                "addr:country": "AT",
                "addr:housenumber": "39",
                "addr:postcode": "4600",
                "addr:street": "Stadtplatz",
                "amenity": "bar",
                "name": "Raum Bar",
                "opening_hours": "Di - Fr 10:00 - 18:00, Sa 10:00 - 13:00",
                "outdoor_seating": "yes",
                "phone": "+43 7242 601188",
                "smoking": "no",
                "website": "http://www.raumbar.at/"
              },
              "geometry": {
                "type": "Point",
                "coordinates": [
                  14.0255495,
                  48.1572242
                ]
              }
            },
            {
              "type": "Feature",
              "properties": {
                "id": "1680780562",
                "osm_type": "node",
                "lat": 48.1565643,
                "lon": 14.02398,
                "amenity": "bar",
                "name": "\"UI\" die Bar"
              },
              "geometry": {
                "type": "Point",
                "coordinates": [
                  14.02398,
                  48.1565643
                ]
              }
            },
            {
              "type": "Feature",
              "properties": {
                "id": "1680780620",
                "osm_type": "node",
                "lat": 48.1573532,
                "lon": 14.0254172,
                "amenity": "bar",
                "name": "estilo",
                "note": "Cocktailbar"
              },
              "geometry": {
                "type": "Point",
                "coordinates": [
                  14.0254172,
                  48.1573532
                ]
              }
            },
            {
              "type": "Feature",
              "properties": {
                "id": "1687205775",
                "osm_type": "node",
                "lat": 48.156491,
                "lon": 14.0238371,
                "amenity": "bar",
                "name": "Saphir"
              },
              "geometry": {
                "type": "Point",
                "coordinates": [
                  14.0238371,
                  48.156491
                ]
              }
            },
            {
              "type": "Feature",
              "properties": {
                "id": "3850119762",
                "osm_type": "node",
                "lat": 48.1604772,
                "lon": 14.0187357,
                "addr:city": "Wels",
                "addr:country": "AT",
                "addr:housenumber": "1",
                "addr:postcode": "4600",
                "addr:street": "Vogelweiderstraße",
                "amenity": "bar",
                "name": "Sischa Blue"
              },
              "geometry": {
                "type": "Point",
                "coordinates": [
                  14.0187357,
                  48.1604772
                ]
              }
            },
            {
              "type": "Feature",
              "properties": {
                "id": "5438524826",
                "osm_type": "node",
                "lat": 48.1581215,
                "lon": 14.020971,
                "amenity": "bar",
                "name": "Asterix obelix"
              },
              "geometry": {
                "type": "Point",
                "coordinates": [
                  14.020971,
                  48.1581215
                ]
              }
            },
            {
              "type": "Feature",
              "properties": {
                "id": "5438524926",
                "osm_type": "node",
                "lat": 48.1598904,
                "lon": 14.0191454,
                "amenity": "bar",
                "name": "Cosmopolit"
              },
              "geometry": {
                "type": "Point",
                "coordinates": [
                  14.0191454,
                  48.1598904
                ]
              }
            },
            {
              "type": "Feature",
              "properties": {
                "id": "5443118423",
                "osm_type": "node",
                "lat": 48.1554216,
                "lon": 14.008841,
                "amenity": "bar",
                "indoor_seating": "yes",
                "name": "M&G",
                "outdoor_seating": "yes"
              },
              "geometry": {
                "type": "Point",
                "coordinates": [
                  14.008841,
                  48.1554216
                ]
              }
            },
            {
              "type": "Feature",
              "properties": {
                "id": "6528298522",
                "osm_type": "node",
                "lat": 48.1566496,
                "lon": 14.0264156,
                "addr:city": "Wels",
                "addr:country": "AT",
                "addr:housenumber": "5",
                "addr:postcode": "4600",
                "addr:street": "Hafergasse",
                "alt_name": "Music Bar Entertainment",
                "amenity": "bar",
                "brewery": "Schloss Eggenberg",
                "name": "Galerie Bar"
              },
              "geometry": {
                "type": "Point",
                "coordinates": [
                  14.0264156,
                  48.1566496
                ]
              }
            },
            {
              "type": "Feature",
              "properties": {
                "id": "6838689184",
                "osm_type": "node",
                "lat": 48.0925771,
                "lon": 13.8723126,
                "addr:city": "Lambach",
                "addr:country": "AT",
                "addr:housenumber": "23",
                "addr:postcode": "4650",
                "addr:street": "Leitenstraße",
                "alt_name": "Redken",
                "amenity": "bar",
                "name": "Style-Bar"
              },
              "geometry": {
                "type": "Point",
                "coordinates": [
                  13.8723126,
                  48.0925771
                ]
              }
            },
            {
              "type": "Feature",
              "properties": {
                "id": "7903127120",
                "osm_type": "node",
                "lat": 48.159842,
                "lon": 14.0190779,
                "addr:city": "Wels",
                "addr:country": "AT",
                "addr:housenumber": "15",
                "addr:postcode": "4600",
                "addr:street": "Dr.-Koss-Straße",
                "amenity": "bar",
                "brewery": "Zipfer",
                "email": "topalli@gmx.at",
                "name": "Cafe Bar Valentino",
                "phone": "+43 699 11630783"
              },
              "geometry": {
                "type": "Point",
                "coordinates": [
                  14.0190779,
                  48.159842
                ]
              }
            },
            {
              "type": "Feature",
              "properties": {
                "id": "11820000126",
                "osm_type": "node",
                "lat": 48.1562849,
                "lon": 14.0242247,
                "amenity": "bar",
                "description": "musikbar",
                "indoor_seating": "yes",
                "name": "kreuzbeisl",
                "opening_hours": "We-Sa 20:00-05:00",
                "outdoor_seating": "yes"
              },
              "geometry": {
                "type": "Point",
                "coordinates": [
                  14.0242247,
                  48.1562849
                ]
              }
            },
            {
              "type": "Feature",
              "properties": {
                "id": "11825216192",
                "osm_type": "node",
                "lat": 48.160073,
                "lon": 14.0259829,
                "amenity": "bar",
                "description": "Cocktail Bar",
                "name": "The Shot",
                "opening_hours": "Tu-Th 12:00-02:00; Fr-Su 12:00-04:00"
              },
              "geometry": {
                "type": "Point",
                "coordinates": [
                  14.0259829,
                  48.160073
                ]
              }
            },
            {
              "type": "Feature",
              "properties": {
                "id": "11904641296",
                "osm_type": "node",
                "lat": 48.155434,
                "lon": 14.0088277,
                "amenity": "bar",
                "indoor_seating": "yes",
                "name": "M&G Café & Club",
                "outdoor_seating": "yes"
              },
              "geometry": {
                "type": "Point",
                "coordinates": [
                  14.0088277,
                  48.155434
                ]
              }
            },
            {
              "type": "Feature",
              "properties": {
                "id": "305271702",
                "osm_type": "node",
                "lat": 48.0751712,
                "lon": 14.0468425,
                "amenity": "bar",
                "name": "Kleeblatt"
              },
              "geometry": {
                "type": "Point",
                "coordinates": [
                  14.0468425,
                  48.0751712
                ]
              }
            },
            {
              "type": "Feature",
              "properties": {
                "id": "3746871341",
                "osm_type": "node",
                "lat": 48.1383262,
                "lon": 14.2283909,
                "amenity": "bar",
                "name": "Eck Bar"
              },
              "geometry": {
                "type": "Point",
                "coordinates": [
                  14.2283909,
                  48.1383262
                ]
              }
            },
            {
              "type": "Feature",
              "properties": {
                "id": "4719455232",
                "osm_type": "node",
                "lat": 48.1305026,
                "lon": 14.2269904,
                "amenity": "bar",
                "name": "Sunset Garden"
              },
              "geometry": {
                "type": "Point",
                "coordinates": [
                  14.2269904,
                  48.1305026
                ]
              }
            },
            {
              "type": "Feature",
              "properties": {
                "id": "12301485310",
                "osm_type": "node",
                "lat": 48.168038,
                "lon": 14.049506,
                "amenity": "bar",
                "name": "Arena Sportlounge Wels"
              },
              "geometry": {
                "type": "Point",
                "coordinates": [
                  14.049506,
                  48.168038
                ]
              }
            }
          ],
          "children": []
        },
        {
          "bbox": {
            "south": 48.190694875,
            "west": 13.345766,
            "north": 48.355971499999995,
            "east": 13.82261775
          },
          "poiCount": 14,
          "leafCount": 14,
          "averagePosition": [
            13.600725299999999,
            48.23549740714286
          ],
          "data": [
            {
              "type": "Feature",
              "properties": {
                "id": "1548057516",
                "osm_type": "node",
                "lat": 48.2104183,
                "lon": 13.4889608,
                "amenity": "bar",
                "indoor_seating": "yes",
                "name": "Stamperl",
                "outdoor_seating": "yes"
              },
              "geometry": {
                "type": "Point",
                "coordinates": [
                  13.4889608,
                  48.2104183
                ]
              }
            },
            {
              "type": "Feature",
              "properties": {
                "id": "3454745877",
                "osm_type": "node",
                "lat": 48.2109333,
                "lon": 13.4873495,
                "addr:city": "Ried im Innkreis",
                "addr:housenumber": "21",
                "addr:postcode": "4910",
                "addr:street": "Froschaugasse",
                "amenity": "bar",
                "name": "Galerie"
              },
              "geometry": {
                "type": "Point",
                "coordinates": [
                  13.4873495,
                  48.2109333
                ]
              }
            },
            {
              "type": "Feature",
              "properties": {
                "id": "3661185994",
                "osm_type": "node",
                "lat": 48.2168677,
                "lon": 13.5001853,
                "amenity": "bar",
                "name": "Sugarfree",
                "toilets:wheelchair": "no",
                "wheelchair": "no"
              },
              "geometry": {
                "type": "Point",
                "coordinates": [
                  13.5001853,
                  48.2168677
                ]
              }
            },
            {
              "type": "Feature",
              "properties": {
                "id": "3731371498",
                "osm_type": "node",
                "lat": 48.2095002,
                "lon": 13.488863,
                "addr:city": "Ried im Innkreis",
                "addr:housenumber": "4",
                "addr:postcode": "4910",
                "addr:street": "Kirchenplatz",
                "amenity": "bar",
                "indoor_seating": "yes",
                "name": "Rieders Cafe & Bar",
                "outdoor_seating": "yes"
              },
              "geometry": {
                "type": "Point",
                "coordinates": [
                  13.488863,
                  48.2095002
                ]
              }
            },
            {
              "type": "Feature",
              "properties": {
                "id": "3731371499",
                "osm_type": "node",
                "lat": 48.2100958,
                "lon": 13.487641,
                "addr:city": "Ried im Innkreis",
                "addr:country": "AT",
                "addr:housenumber": "14",
                "addr:postcode": "4910",
                "addr:street": "Roßmarkt",
                "amenity": "bar",
                "indoor_seating": "yes",
                "name": "Hemingway Bar & Cocktail",
                "opening_hours": "Mo-Sa 16:00-02:00",
                "outdoor_seating": "yes",
                "smoking": "outside"
              },
              "geometry": {
                "type": "Point",
                "coordinates": [
                  13.487641,
                  48.2100958
                ]
              }
            },
            {
              "type": "Feature",
              "properties": {
                "id": "3731371501",
                "osm_type": "node",
                "lat": 48.2081945,
                "lon": 13.4869073,
                "amenity": "bar",
                "indoor_seating": "yes",
                "name": "Bar Auswärts",
                "opening_hours": "Mo-Th 17:00-02:00, Fr 17:00-04:00, Sa 18:00-04:00; PH,Su off",
                "outdoor_seating": "yes"
              },
              "geometry": {
                "type": "Point",
                "coordinates": [
                  13.4869073,
                  48.2081945
                ]
              }
            },
            {
              "type": "Feature",
              "properties": {
                "id": "4127670207",
                "osm_type": "node",
                "lat": 48.2078018,
                "lon": 13.48585,
                "addr:city": "Ried im Innkreis",
                "addr:housenumber": "23",
                "addr:postcode": "4910",
                "addr:street": "Rainerstraße",
                "amenity": "bar",
                "indoor_seating": "yes",
                "name": "Irish Viking Pub",
                "opening_hours": "Tu-Fr 17:00-24:00+, Sa 18:00-24:00+; Su,PH off",
                "outdoor_seating": "yes",
                "smoking": "outside",
                "website": "https://www.irish-viking-pub.at/"
              },
              "geometry": {
                "type": "Point",
                "coordinates": [
                  13.48585,
                  48.2078018
                ]
              }
            },
            {
              "type": "Feature",
              "properties": {
                "id": "10572420867",
                "osm_type": "node",
                "lat": 48.2082583,
                "lon": 13.4876359,
                "amenity": "bar",
                "indoor_seating": "yes",
                "name": "gd Weinbar",
                "opening_hours": "Tu, Sa 10:00-02:00; We, Th, Fr 14:00-02:00; PH off",
                "outdoor_seating": "yes"
              },
              "geometry": {
                "type": "Point",
                "coordinates": [
                  13.4876359,
                  48.2082583
                ]
              }
            },
            {
              "type": "Feature",
              "properties": {
                "id": "581735052",
                "osm_type": "node",
                "lat": 48.2348138,
                "lon": 13.6065479,
                "amenity": "bar",
                "name": "Katze´s Tüt"
              },
              "geometry": {
                "type": "Point",
                "coordinates": [
                  13.6065479,
                  48.2348138
                ]
              }
            },
            {
              "type": "Feature",
              "properties": {
                "id": "1276463915",
                "osm_type": "node",
                "lat": 48.3450547,
                "lon": 13.7702755,
                "amenity": "bar",
                "brewery": "Stiegl",
                "name": "Café Bar AufLauf",
                "wheelchair": "yes",
                "wifi": "no"
              },
              "geometry": {
                "type": "Point",
                "coordinates": [
                  13.7702755,
                  48.3450547
                ]
              }
            },
            {
              "type": "Feature",
              "properties": {
                "id": "1524364373",
                "osm_type": "node",
                "lat": 48.3446708,
                "lon": 13.7713738,
                "addr:housenumber": "20",
                "addr:postcode": "4722",
                "addr:street": "Hauptstraße",
                "amenity": "bar",
                "name": "Rockys Music Bar",
                "opening_hours": "Tu-We 19:00-02:00; Th-Sa 19:00-04:00",
                "toilets:wheelchair": "no",
                "website": "www.rockys.at",
                "wheelchair": "limited",
                "wifi": "no"
              },
              "geometry": {
                "type": "Point",
                "coordinates": [
                  13.7713738,
                  48.3446708
                ]
              }
            },
            {
              "type": "Feature",
              "properties": {
                "id": "9228564390",
                "osm_type": "node",
                "lat": 48.2743359,
                "lon": 13.7243137,
                "amenity": "bar",
                "name": "Vis a´ Vis - kegeln & feiern"
              },
              "geometry": {
                "type": "Point",
                "coordinates": [
                  13.7243137,
                  48.2743359
                ]
              }
            },
            {
              "type": "Feature",
              "properties": {
                "id": "10797487298",
                "osm_type": "node",
                "lat": 48.2076784,
                "lon": 13.8126947,
                "amenity": "bar",
                "name": "Papper la Pub",
                "opening_hours": "Di-Sa 16:00-04:00",
                "phone": "+43 664 3836580",
                "website": "https://papper-la-pub.sta.io/"
              },
              "geometry": {
                "type": "Point",
                "coordinates": [
                  13.8126947,
                  48.2076784
                ]
              }
            },
            {
              "type": "Feature",
              "properties": {
                "id": "10797487301",
                "osm_type": "node",
                "lat": 48.2083402,
                "lon": 13.8115558,
                "amenity": "bar",
                "name": "Cafe Melange",
                "opening_hours": "Do-Mo 10:00-00:00"
              },
              "geometry": {
                "type": "Point",
                "coordinates": [
                  13.8115558,
                  48.2083402
                ]
              }
            }
          ],
          "children": []
        },
        {
          "bbox": {
            "south": 48.190694875,
            "west": 13.82261775,
            "north": 48.355971499999995,
            "east": 14.2994695
          },
          "poiCount": 74,
          "leafCount": 0,
          "averagePosition": [
            14.23993734054054,
            48.289226756756754
          ],
          "data": [],
          "children": [
            {
              "bbox": {
                "south": 48.190694875,
                "west": 13.82261775,
                "north": 48.2733331875,
                "east": 14.061043625
              },
              "poiCount": 5,
              "leafCount": 5,
              "averagePosition": [
                13.929678200000001,
                48.23858522
              ],
              "data": [
                {
                  "type": "Feature",
                  "properties": {
                    "id": "1579307008",
                    "osm_type": "node",
                    "lat": 48.247251,
                    "lon": 13.97798,
                    "amenity": "bar",
                    "name": "GoIn",
                    "website": "https://www.goin.at/"
                  },
                  "geometry": {
                    "type": "Point",
                    "coordinates": [
                      13.97798,
                      48.247251
                    ]
                  }
                },
                {
                  "type": "Feature",
                  "properties": {
                    "id": "1579307017",
                    "osm_type": "node",
                    "lat": 48.2473564,
                    "lon": 13.9780751,
                    "amenity": "bar",
                    "name": "Moarlys Bar",
                    "opening_hours": "We-Su 20:00+",
                    "website": "https://www.goin.at/morli.php"
                  },
                  "geometry": {
                    "type": "Point",
                    "coordinates": [
                      13.9780751,
                      48.2473564
                    ]
                  }
                },
                {
                  "type": "Feature",
                  "properties": {
                    "id": "2183287023",
                    "osm_type": "node",
                    "lat": 48.2337738,
                    "lon": 13.9448021,
                    "addr:city": "Wallern",
                    "addr:country": "AT",
                    "addr:housenumber": "1",
                    "addr:postcode": "4702",
                    "addr:street": "Bergernstraße",
                    "amenity": "bar",
                    "email": "office@diana-tanzbar.at",
                    "name": "Diana Tanzbar",
                    "opening_hours": "Fr,Sa 20:00-04:00",
                    "operator": "Heidi Hitzl",
                    "phone": "+43 664 1603032",
                    "website": "http://www.diana-tanzbar.at/"
                  },
                  "geometry": {
                    "type": "Point",
                    "coordinates": [
                      13.9448021,
                      48.2337738
                    ]
                  }
                },
                {
                  "type": "Feature",
                  "properties": {
                    "id": "3721373248",
                    "osm_type": "node",
                    "lat": 48.2311439,
                    "lon": 13.9169896,
                    "addr:city": "Bad Schallerbach",
                    "addr:country": "AT",
                    "addr:housenumber": "8",
                    "addr:postcode": "4701",
                    "addr:street": "Grieskirchner Straße",
                    "amenity": "bar",
                    "email": "gasthof.stiegenwirt@gmx.at",
                    "fax": "+43-7249-42957",
                    "name": "Stiegenwirt",
                    "note": "im Jänner 2018 keine Küche mehr",
                    "operator": "Familie Fromhund",
                    "phone": "+43-7249-48057"
                  },
                  "geometry": {
                    "type": "Point",
                    "coordinates": [
                      13.9169896,
                      48.2311439
                    ]
                  }
                },
                {
                  "type": "Feature",
                  "properties": {
                    "id": "4187419194",
                    "osm_type": "node",
                    "lat": 48.233401,
                    "lon": 13.8305442,
                    "amenity": "bar",
                    "name": "Hartls Bar",
                    "outdoor_seating": "yes"
                  },
                  "geometry": {
                    "type": "Point",
                    "coordinates": [
                      13.8305442,
                      48.233401
                    ]
                  }
                }
              ],
              "children": []
            },
            {
              "bbox": {
                "south": 48.190694875,
                "west": 14.061043625,
                "north": 48.2733331875,
                "east": 14.2994695
              },
              "poiCount": 12,
              "leafCount": 12,
              "averagePosition": [
                14.241885808333334,
                48.236785133333335
              ],
              "data": [
                {
                  "type": "Feature",
                  "properties": {
                    "id": "712669038",
                    "osm_type": "node",
                    "lat": 48.1913791,
                    "lon": 14.1109277,
                    "addr:city": "Marchtrenk",
                    "addr:country": "AT",
                    "addr:postcode": "4614",
                    "amenity": "bar",
                    "name": "Bar Feature",
                    "opening_hours": "Tu-Th 18:00-02:00; Fr-Sa 18:00-04:00"
                  },
                  "geometry": {
                    "type": "Point",
                    "coordinates": [
                      14.1109277,
                      48.1913791
                    ]
                  }
                },
                {
                  "type": "Feature",
                  "properties": {
                    "id": "1003953410",
                    "osm_type": "node",
                    "lat": 48.1949257,
                    "lon": 14.2474861,
                    "amenity": "bar",
                    "contact:phone": "+43 7229 78513",
                    "name": "Segafredo",
                    "opening_hours": "Mo-Fr 09:00-19:00; Sa 09:00-18:00",
                    "operator": "Fr. Claudia Kapl"
                  },
                  "geometry": {
                    "type": "Point",
                    "coordinates": [
                      14.2474861,
                      48.1949257
                    ]
                  }
                },
                {
                  "type": "Feature",
                  "properties": {
                    "id": "1004425881",
                    "osm_type": "node",
                    "lat": 48.1965263,
                    "lon": 14.2478632,
                    "amenity": "bar",
                    "contact:phone": "+43 664 8504690",
                    "contact:website": "http://www.testarossacaffe.com",
                    "opening_hours": "Mo-Fr 09:00-19:00; Sa 09:00-18:00",
                    "operator": "Fr. Monika Nagler"
                  },
                  "geometry": {
                    "type": "Point",
                    "coordinates": [
                      14.2478632,
                      48.1965263
                    ]
                  }
                },
                {
                  "type": "Feature",
                  "properties": {
                    "id": "1359073712",
                    "osm_type": "node",
                    "lat": 48.2265815,
                    "lon": 14.1778338,
                    "amenity": "bar",
                    "name": "Calypso"
                  },
                  "geometry": {
                    "type": "Point",
                    "coordinates": [
                      14.1778338,
                      48.2265815
                    ]
                  }
                },
                {
                  "type": "Feature",
                  "properties": {
                    "id": "1374112288",
                    "osm_type": "node",
                    "lat": 48.2262817,
                    "lon": 14.2347448,
                    "addr:city": "Traun",
                    "addr:country": "AT",
                    "addr:housenumber": "70",
                    "addr:postcode": "4050",
                    "addr:street": "Kremstalstraße",
                    "amenity": "bar",
                    "brewery": "Zipfer",
                    "name": "New Melon",
                    "old_name": "Pub Melon"
                  },
                  "geometry": {
                    "type": "Point",
                    "coordinates": [
                      14.2347448,
                      48.2262817
                    ]
                  }
                },
                {
                  "type": "Feature",
                  "properties": {
                    "id": "1737708134",
                    "osm_type": "node",
                    "lat": 48.248013,
                    "lon": 14.2586232,
                    "amenity": "bar",
                    "name": "MaNö Bar"
                  },
                  "geometry": {
                    "type": "Point",
                    "coordinates": [
                      14.2586232,
                      48.248013
                    ]
                  }
                },
                {
                  "type": "Feature",
                  "properties": {
                    "id": "4058361155",
                    "osm_type": "node",
                    "lat": 48.2644785,
                    "lon": 14.288308,
                    "amenity": "bar",
                    "indoor_seating": "yes",
                    "name": "Selectum Garden Lounge",
                    "opening_hours": "Su-Th 15:00-24:00, Fr,Sa 15:00-03:00",
                    "outdoor_seating": "yes",
                    "phone": "+43 676 6761 101",
                    "website": "https://www.selectumgarden.at/"
                  },
                  "geometry": {
                    "type": "Point",
                    "coordinates": [
                      14.288308,
                      48.2644785
                    ]
                  }
                },
                {
                  "type": "Feature",
                  "properties": {
                    "id": "4609255055",
                    "osm_type": "node",
                    "lat": 48.2434883,
                    "lon": 14.2361107,
                    "amenity": "bar",
                    "level": "2",
                    "name": "Diamonds Bar"
                  },
                  "geometry": {
                    "type": "Point",
                    "coordinates": [
                      14.2361107,
                      48.2434883
                    ]
                  }
                },
                {
                  "type": "Feature",
                  "properties": {
                    "id": "4635940989",
                    "osm_type": "node",
                    "lat": 48.2711581,
                    "lon": 14.2907759,
                    "amenity": "bar",
                    "email": "perusch.gerald@aon.at",
                    "name": "s'Weinreberl",
                    "opening_hours": "Tu-Fr 16:00-22:00; PH,Su 10:00-14:00",
                    "operator": "Familie Perusch",
                    "outdoor_seating": "yes",
                    "phone": "+436645340289",
                    "shop": "wine",
                    "website": "http://www.sweinreberl.at"
                  },
                  "geometry": {
                    "type": "Point",
                    "coordinates": [
                      14.2907759,
                      48.2711581
                    ]
                  }
                },
                {
                  "type": "Feature",
                  "properties": {
                    "id": "5732120648",
                    "osm_type": "node",
                    "lat": 48.2439668,
                    "lon": 14.235249,
                    "amenity": "bar",
                    "name": "Rox Musicbar",
                    "outdoor_seating": "yes"
                  },
                  "geometry": {
                    "type": "Point",
                    "coordinates": [
                      14.235249,
                      48.2439668
                    ]
                  }
                },
                {
                  "type": "Feature",
                  "properties": {
                    "id": "10178764958",
                    "osm_type": "node",
                    "lat": 48.2692798,
                    "lon": 14.2920196,
                    "addr:city": "Linz",
                    "addr:housenumber": "19",
                    "addr:postcode": "4020",
                    "addr:street": "Stadlerstraße",
                    "amenity": "bar",
                    "contact:facebook": "Loidl-am-Bindermichl",
                    "name": "Buffet Loidl",
                    "opening_hours": "Mo-Fr 12:00-22:00; Sa 09:00-22:00; Su 14:00-22:00",
                    "outdoor_seating": "yes",
                    "phone": "+43 664 73642249"
                  },
                  "geometry": {
                    "type": "Point",
                    "coordinates": [
                      14.2920196,
                      48.2692798
                    ]
                  }
                },
                {
                  "type": "Feature",
                  "properties": {
                    "id": "11435336724",
                    "osm_type": "node",
                    "lat": 48.2653428,
                    "lon": 14.2826877,
                    "amenity": "bar",
                    "indoor_seating": "yes",
                    "name": "La Ruffa",
                    "opening_hours": "Su-Th 08:00-21:00; Fr,Sa 08:00-23:00",
                    "outdoor_seating": "yes"
                  },
                  "geometry": {
                    "type": "Point",
                    "coordinates": [
                      14.2826877,
                      48.2653428
                    ]
                  }
                }
              ],
              "children": []
            },
            {
              "bbox": {
                "south": 48.2733331875,
                "west": 13.82261775,
                "north": 48.355971499999995,
                "east": 14.061043625
              },
              "poiCount": 2,
              "leafCount": 2,
              "averagePosition": [
                13.95282205,
                48.3374643
              ],
              "data": [
                {
                  "type": "Feature",
                  "properties": {
                    "id": "1888173290",
                    "osm_type": "node",
                    "lat": 48.330139,
                    "lon": 13.8533499,
                    "amenity": "bar",
                    "name": "Canapé Musikcafé Mietlokal"
                  },
                  "geometry": {
                    "type": "Point",
                    "coordinates": [
                      13.8533499,
                      48.330139
                    ]
                  }
                },
                {
                  "type": "Feature",
                  "properties": {
                    "id": "349124807",
                    "osm_type": "node",
                    "lat": 48.3447896,
                    "lon": 14.0522942,
                    "amenity": "bar",
                    "name": "Feldkirchener Almhüttn"
                  },
                  "geometry": {
                    "type": "Point",
                    "coordinates": [
                      14.0522942,
                      48.3447896
                    ]
                  }
                }
              ],
              "children": []
            },
            {
              "bbox": {
                "south": 48.2733331875,
                "west": 14.061043625,
                "north": 48.355971499999995,
                "east": 14.2994695
              },
              "poiCount": 55,
              "leafCount": 0,
              "averagePosition": [
                14.278158152727272,
                48.30351824909091
              ],
              "data": [],
              "children": [
                {
                  "bbox": {
                    "south": 48.2733331875,
                    "west": 14.061043625,
                    "north": 48.31465234375,
                    "east": 14.1802565625
                  },
                  "poiCount": 2,
                  "leafCount": 2,
                  "averagePosition": [
                    14.10736595,
                    48.28764375
                  ],
                  "data": [
                    {
                      "type": "Feature",
                      "properties": {
                        "id": "7434228726",
                        "osm_type": "node",
                        "lat": 48.2876375,
                        "lon": 14.1073057,
                        "addr:city": "Alkoven",
                        "addr:country": "AT",
                        "addr:housenumber": "17",
                        "addr:postcode": "4072",
                        "addr:street": "Alte Hauptstraße",
                        "amenity": "bar",
                        "contact:facebook": "https://www.facebook.com/pg/Dorf-Stadl-150886078819442/about/?ref=page_internal",
                        "name": "Nina's Pub",
                        "opening_hours": "Tu-Th 19:00-24:00, Fr-Sa 19:00-04:00"
                      },
                      "geometry": {
                        "type": "Point",
                        "coordinates": [
                          14.1073057,
                          48.2876375
                        ]
                      }
                    },
                    {
                      "type": "Feature",
                      "properties": {
                        "id": "7434228727",
                        "osm_type": "node",
                        "lat": 48.28765,
                        "lon": 14.1074262,
                        "addr:city": "Alkoven",
                        "addr:country": "AT",
                        "addr:housenumber": "17",
                        "addr:postcode": "4072",
                        "addr:street": "Alte Hauptstraße",
                        "amenity": "bar",
                        "contact:facebook": "https://www.facebook.com/pg/Dorf-Stadl-150886078819442/about/?ref=page_internal",
                        "name": "Dorf Stadl",
                        "opening_hours": "Tu-Th 19:00-24:00, Fr-Sa 19:00-04:00",
                        "wheelchair": "no"
                      },
                      "geometry": {
                        "type": "Point",
                        "coordinates": [
                          14.1074262,
                          48.28765
                        ]
                      }
                    }
                  ],
                  "children": []
                },
                {
                  "bbox": {
                    "south": 48.2733331875,
                    "west": 14.1802565625,
                    "north": 48.31465234375,
                    "east": 14.2994695
                  },
                  "poiCount": 50,
                  "leafCount": 50,
                  "averagePosition": [
                    14.28675359,
                    48.302767598
                  ],
                  "data": [
                    {
                      "type": "Feature",
                      "properties": {
                        "id": "617175026",
                        "osm_type": "node",
                        "lat": 48.2773571,
                        "lon": 14.2494236,
                        "amenity": "bar",
                        "name": "Manhatten",
                        "opening_hours": "Mo-Su 20:00-02:00",
                        "smoking": "yes",
                        "website": "http://manhattan-bar-lounge-leonding.com/"
                      },
                      "geometry": {
                        "type": "Point",
                        "coordinates": [
                          14.2494236,
                          48.2773571
                        ]
                      }
                    },
                    {
                      "type": "Feature",
                      "properties": {
                        "id": "748927003",
                        "osm_type": "node",
                        "lat": 48.2983763,
                        "lon": 14.2916488,
                        "amenity": "bar",
                        "name": "KAYA'S Club Lounge"
                      },
                      "geometry": {
                        "type": "Point",
                        "coordinates": [
                          14.2916488,
                          48.2983763
                        ]
                      }
                    },
                    {
                      "type": "Feature",
                      "properties": {
                        "id": "791236600",
                        "osm_type": "node",
                        "lat": 48.304704,
                        "lon": 14.2896886,
                        "amenity": "bar",
                        "indoor_seating": "yes",
                        "name": "Lennox",
                        "opening_hours": "We-Th 19:00-02:00; Fr-Sa 19:00-04:00",
                        "outdoor_seating": "no",
                        "website": "https://www.lennox.at/",
                        "wheelchair": "no"
                      },
                      "geometry": {
                        "type": "Point",
                        "coordinates": [
                          14.2896886,
                          48.304704
                        ]
                      }
                    },
                    {
                      "type": "Feature",
                      "properties": {
                        "id": "813848787",
                        "osm_type": "node",
                        "lat": 48.3057811,
                        "lon": 14.2849061,
                        "amenity": "bar",
                        "check_date": "2022-10-11",
                        "name": "vis a vis"
                      },
                      "geometry": {
                        "type": "Point",
                        "coordinates": [
                          14.2849061,
                          48.3057811
                        ]
                      }
                    },
                    {
                      "type": "Feature",
                      "properties": {
                        "id": "907294169",
                        "osm_type": "node",
                        "lat": 48.3029558,
                        "lon": 14.2893705,
                        "addr:city": "Linz",
                        "addr:country": "AT",
                        "addr:housenumber": "24",
                        "addr:postcode": "4020",
                        "addr:street": "Landstraße",
                        "amenity": "bar",
                        "name": "Sky Garden",
                        "opening_hours": "Mo-Th 09:30-24:00, Fr 09:30-01:00, Sa 09:00-01:00",
                        "toilets:wheelchair": "yes",
                        "wheelchair": "limited"
                      },
                      "geometry": {
                        "type": "Point",
                        "coordinates": [
                          14.2893705,
                          48.3029558
                        ]
                      }
                    },
                    {
                      "type": "Feature",
                      "properties": {
                        "id": "937124026",
                        "osm_type": "node",
                        "lat": 48.2989876,
                        "lon": 14.2981205,
                        "amenity": "bar",
                        "contact:website": "http://www.hosilinz.at/forty-nine/",
                        "lgbtq": "primary",
                        "name": "forty nine",
                        "opening_hours": "Fr,Sa 21:00+"
                      },
                      "geometry": {
                        "type": "Point",
                        "coordinates": [
                          14.2981205,
                          48.2989876
                        ]
                      }
                    },
                    {
                      "type": "Feature",
                      "properties": {
                        "id": "1003447884",
                        "osm_type": "node",
                        "lat": 48.3061392,
                        "lon": 14.2841022,
                        "amenity": "bar",
                        "name": "Joker Club - Linz",
                        "old_name": "Tempel Bar",
                        "opening_hours": "We,Th 17:00-02:00; Fr,Sa 16:00-04:00; PH off",
                        "outdoor_seating": "yes",
                        "wheelchair": "no"
                      },
                      "geometry": {
                        "type": "Point",
                        "coordinates": [
                          14.2841022,
                          48.3061392
                        ]
                      }
                    },
                    {
                      "type": "Feature",
                      "properties": {
                        "id": "1367035564",
                        "osm_type": "node",
                        "lat": 48.3028426,
                        "lon": 14.2861907,
                        "amenity": "bar",
                        "contact:email": "antonio@cafe-valdes.at",
                        "contact:phone": "+43 676 3724301",
                        "contact:website": "http://www.cafe-valdes.at",
                        "indoor_seating": "yes",
                        "name": "Café Valdes",
                        "opening_hours": "Mo-Su 09:00-24:00",
                        "outdoor_seating": "yes",
                        "toilets:wheelchair": "no",
                        "wheelchair": "no"
                      },
                      "geometry": {
                        "type": "Point",
                        "coordinates": [
                          14.2861907,
                          48.3028426
                        ]
                      }
                    },
                    {
                      "type": "Feature",
                      "properties": {
                        "id": "1378534698",
                        "osm_type": "node",
                        "lat": 48.3007939,
                        "lon": 14.2925272,
                        "amenity": "bar",
                        "indoor_seating": "yes",
                        "name": "PLATO Craft Bier Bar",
                        "old_name": "Unfassbar",
                        "old_name2": "Kulturbar Konrad",
                        "old_name3": "Mezzanin",
                        "opening_hours": "Tu-Th 17:00-00:00; Fr,Sa 18:00-02:00",
                        "outdoor_seating": "yes",
                        "smoking": "outside",
                        "wheelchair": "no"
                      },
                      "geometry": {
                        "type": "Point",
                        "coordinates": [
                          14.2925272,
                          48.3007939
                        ]
                      }
                    },
                    {
                      "type": "Feature",
                      "properties": {
                        "id": "1410114018",
                        "osm_type": "node",
                        "lat": 48.3045852,
                        "lon": 14.2850044,
                        "addr:city": "Linz",
                        "addr:country": "AT",
                        "addr:housename": "Mozarthaus",
                        "addr:housenumber": "17",
                        "addr:postcode": "4020",
                        "addr:street": "Altstadt",
                        "amenity": "bar",
                        "cocktails": "yes",
                        "indoor_seating": "yes",
                        "name": "To the moon",
                        "opening_hours": "Su-Mo 17:00-00:00; Th 17:00-00:00; Fr-Sa 17:00-02:00",
                        "outdoor_seating": "yes",
                        "website": "https://www.tothemoon-bar.at/",
                        "wheelchair": "limited"
                      },
                      "geometry": {
                        "type": "Point",
                        "coordinates": [
                          14.2850044,
                          48.3045852
                        ]
                      }
                    },
                    {
                      "type": "Feature",
                      "properties": {
                        "id": "1568396229",
                        "osm_type": "node",
                        "lat": 48.3026277,
                        "lon": 14.2832678,
                        "amenity": "bar",
                        "contact:phone": "+43 732 777499",
                        "contact:website": "http://www.cocktailbarlinz.at",
                        "name": "Cocktailbar",
                        "opening_hours": "Tu-Th 18:00-01:00, Fr,Sa 18:00-02:00",
                        "smoking": "yes"
                      },
                      "geometry": {
                        "type": "Point",
                        "coordinates": [
                          14.2832678,
                          48.3026277
                        ]
                      }
                    },
                    {
                      "type": "Feature",
                      "properties": {
                        "id": "1826081746",
                        "osm_type": "node",
                        "lat": 48.3029903,
                        "lon": 14.2841069,
                        "addr:country": "AT",
                        "addr:housenumber": "6",
                        "addr:postcode": "4020",
                        "addr:street": "Klammstraße",
                        "amenity": "bar",
                        "name": "Musikcafe SAX",
                        "opening_hours": "We-Sa 15:00-24:00+",
                        "website": "https://musik-cafe-sax.stadtausstellung.at/"
                      },
                      "geometry": {
                        "type": "Point",
                        "coordinates": [
                          14.2841069,
                          48.3029903
                        ]
                      }
                    },
                    {
                      "type": "Feature",
                      "properties": {
                        "id": "1841073463",
                        "osm_type": "node",
                        "lat": 48.3053317,
                        "lon": 14.284819,
                        "amenity": "bar",
                        "check_date": "2022-10-11",
                        "indoor_seating": "yes",
                        "name": "Pub Aps",
                        "opening_hours": "Mo-Su 20:00-04:00",
                        "outdoor_seating": "yes",
                        "smoking": "isolated",
                        "sport": "table_soccer",
                        "wheelchair": "no"
                      },
                      "geometry": {
                        "type": "Point",
                        "coordinates": [
                          14.284819,
                          48.3053317
                        ]
                      }
                    },
                    {
                      "type": "Feature",
                      "properties": {
                        "id": "2325589408",
                        "osm_type": "node",
                        "lat": 48.3045551,
                        "lon": 14.2880371,
                        "addr:city": "Linz",
                        "addr:housenumber": "20",
                        "addr:postcode": "4020",
                        "addr:street": "Domgasse",
                        "amenity": "bar",
                        "cuisine": "spanish",
                        "email": "vino@divino.at",
                        "name": "Divino",
                        "opening_hours": "Mo-Sa 17:00-18:00+",
                        "phone": "+43 732 281612",
                        "smoking": "no",
                        "website": "https://www.divino.at/"
                      },
                      "geometry": {
                        "type": "Point",
                        "coordinates": [
                          14.2880371,
                          48.3045551
                        ]
                      }
                    },
                    {
                      "type": "Feature",
                      "properties": {
                        "id": "2502256289",
                        "osm_type": "node",
                        "lat": 48.3029936,
                        "lon": 14.2909696,
                        "amenity": "bar",
                        "email": "bar@solarisbar.at",
                        "indoor_seating": "yes",
                        "internet_access": "wlan",
                        "internet_access:fee": "no",
                        "level": "1",
                        "name": "Solaris",
                        "opening_hours": "Mo-Fr 11:00-01:00; Sa-Su 16:00-01:00",
                        "operator": "Moviemento Gaststätten- und Betriebs Ges.m.b.H",
                        "outdoor_seating": "no",
                        "phone": "+43 732 907606",
                        "smoking": "yes",
                        "url": "http://www.linzwiki.at/wiki/Solaris/",
                        "website": "https://www.solarisbar.at/",
                        "wheelchair": "yes",
                        "wheelchair:description:de": "Bar im 1. Stock über Rampe ereichbar"
                      },
                      "geometry": {
                        "type": "Point",
                        "coordinates": [
                          14.2909696,
                          48.3029936
                        ]
                      }
                    },
                    {
                      "type": "Feature",
                      "properties": {
                        "id": "2613234695",
                        "osm_type": "node",
                        "lat": 48.3025471,
                        "lon": 14.2876039,
                        "addr:city": "Linz",
                        "addr:housenumber": "6",
                        "addr:postcode": "4020",
                        "addr:street": "Spittelwiese",
                        "amenity": "bar",
                        "check_date": "2023-04-29",
                        "name": "Exxtrablatt"
                      },
                      "geometry": {
                        "type": "Point",
                        "coordinates": [
                          14.2876039,
                          48.3025471
                        ]
                      }
                    },
                    {
                      "type": "Feature",
                      "properties": {
                        "id": "2970866823",
                        "osm_type": "node",
                        "lat": 48.3047887,
                        "lon": 14.2845789,
                        "amenity": "bar",
                        "contact:phone": "+43 732 783315",
                        "name": "Aquarium",
                        "opening_hours": "Tu-Th 16:00-24:00, Fr,Sa 14:00-01:00, Su 14:00-22:00",
                        "wheelchair": "no"
                      },
                      "geometry": {
                        "type": "Point",
                        "coordinates": [
                          14.2845789,
                          48.3047887
                        ]
                      }
                    },
                    {
                      "type": "Feature",
                      "properties": {
                        "id": "3067271008",
                        "osm_type": "node",
                        "lat": 48.3054212,
                        "lon": 14.288309,
                        "amenity": "bar",
                        "cocktails": "yes",
                        "cuisine": "burger",
                        "email": "hemingwaybar.linz@gmail.com",
                        "foot": "yes",
                        "indoor_seating": "yes",
                        "name": "Hemingway's Music & Jazz Bar",
                        "opening_hours": "Mo-Th,PH 17:30-01:00; Fr,Sa 17:30-03:00",
                        "outdoor_seating": "yes",
                        "payment:credit_cards": "yes",
                        "payment:debit_cards": "yes",
                        "phone": "+43 650 6101840",
                        "smoking": "separated",
                        "website": "https://www.facebook.com/Hemingways-Music-Jazz-Bar-204743056322431/",
                        "wheelchair": "no"
                      },
                      "geometry": {
                        "type": "Point",
                        "coordinates": [
                          14.288309,
                          48.3054212
                        ]
                      }
                    },
                    {
                      "type": "Feature",
                      "properties": {
                        "id": "3703782528",
                        "osm_type": "node",
                        "lat": 48.3054329,
                        "lon": 14.2842156,
                        "amenity": "bar",
                        "check_date": "2022-10-11",
                        "contact:email": "salon@frau-dietrich.at",
                        "contact:phone": "+43 732 772774",
                        "contact:website": "http://www.frau-dietrich.at",
                        "indoor_seating": "yes",
                        "name": "Frau Dietrich",
                        "opening_hours": "We 18:00-24:00; Th-Sa 00:00-02:00,18:00-24:00; Su 00:00-02:00",
                        "outdoor_seating": "yes",
                        "wheelchair": "no"
                      },
                      "geometry": {
                        "type": "Point",
                        "coordinates": [
                          14.2842156,
                          48.3054329
                        ]
                      }
                    },
                    {
                      "type": "Feature",
                      "properties": {
                        "id": "4056952651",
                        "osm_type": "node",
                        "lat": 48.3144938,
                        "lon": 14.2811528,
                        "amenity": "bar",
                        "name": "Hasenstall",
                        "phone": "+43 732 716 029",
                        "smoking": "separated",
                        "website": "http://www.hasenstall-linz.at/"
                      },
                      "geometry": {
                        "type": "Point",
                        "coordinates": [
                          14.2811528,
                          48.3144938
                        ]
                      }
                    },
                    {
                      "type": "Feature",
                      "properties": {
                        "id": "4056952662",
                        "osm_type": "node",
                        "lat": 48.3029755,
                        "lon": 14.284332,
                        "addr:city": "Linz",
                        "addr:country": "AT",
                        "addr:housenumber": "1",
                        "addr:postcode": "4020",
                        "addr:street": "Klammstraße",
                        "amenity": "bar",
                        "name": "Rosi's",
                        "opening_hours": "Mo-Fr 09:30-23:00",
                        "operator": "Rosa Gahleitner",
                        "phone": "0664 504 98 48",
                        "website": "https://cafe-rosis.stadtausstellung.at/"
                      },
                      "geometry": {
                        "type": "Point",
                        "coordinates": [
                          14.284332,
                          48.3029755
                        ]
                      }
                    },
                    {
                      "type": "Feature",
                      "properties": {
                        "id": "4058361156",
                        "osm_type": "node",
                        "lat": 48.3047418,
                        "lon": 14.2880714,
                        "amenity": "bar",
                        "email": "office@boiler-room.at",
                        "indoor_seating": "yes",
                        "name": "Boiler Room",
                        "opening_hours": "We,Th 18:00-01:00; Fr,Sa 19:00-04:00",
                        "operator": "Claudia Schiemer",
                        "outdoor_seating": "no",
                        "phone": "+43 676 944 2019",
                        "website": "https://www.boiler-room.at/",
                        "wheelchair": "no"
                      },
                      "geometry": {
                        "type": "Point",
                        "coordinates": [
                          14.2880714,
                          48.3047418
                        ]
                      }
                    },
                    {
                      "type": "Feature",
                      "properties": {
                        "id": "4059427106",
                        "osm_type": "node",
                        "lat": 48.3046998,
                        "lon": 14.2865261,
                        "amenity": "bar",
                        "check_date": "2022-10-15",
                        "indoor_seating": "yes",
                        "name": "Haschka Weinbar",
                        "opening_hours": "Tu-Th 17:00-00:00; Fr-Sa 17:00-02:00",
                        "outdoor_seating": "yes",
                        "shop": "wine",
                        "website": "https://haschka.bar",
                        "wheelchair": "limited"
                      },
                      "geometry": {
                        "type": "Point",
                        "coordinates": [
                          14.2865261,
                          48.3046998
                        ]
                      }
                    },
                    {
                      "type": "Feature",
                      "properties": {
                        "id": "4114629993",
                        "osm_type": "node",
                        "lat": 48.3061794,
                        "lon": 14.2840717,
                        "amenity": "bar",
                        "name": "Edelweiß",
                        "website": "https://www.facebook.com/EdelweissPubLinz"
                      },
                      "geometry": {
                        "type": "Point",
                        "coordinates": [
                          14.2840717,
                          48.3061794
                        ]
                      }
                    },
                    {
                      "type": "Feature",
                      "properties": {
                        "id": "4689573972",
                        "osm_type": "node",
                        "lat": 48.3145379,
                        "lon": 14.2811262,
                        "amenity": "bar",
                        "name": "Badys Chill",
                        "opening_hours": "We,Th 18:00-02:00, Fr,Sa 20:00-04:00"
                      },
                      "geometry": {
                        "type": "Point",
                        "coordinates": [
                          14.2811262,
                          48.3145379
                        ]
                      }
                    },
                    {
                      "type": "Feature",
                      "properties": {
                        "id": "5261815235",
                        "osm_type": "node",
                        "lat": 48.3027069,
                        "lon": 14.2849821,
                        "amenity": "bar",
                        "cuisine": "regional",
                        "email": "lin-promenaden@barefootcoffee.at",
                        "fixme": "genaue lage",
                        "name": "Barefoot Coffee",
                        "phone": "+43 732 299800",
                        "website": "https://www.facebook.com/bfcpromenadengalerien/"
                      },
                      "geometry": {
                        "type": "Point",
                        "coordinates": [
                          14.2849821,
                          48.3027069
                        ]
                      }
                    },
                    {
                      "type": "Feature",
                      "properties": {
                        "id": "6295615716",
                        "osm_type": "node",
                        "lat": 48.3064909,
                        "lon": 14.2877841,
                        "amenity": "bar",
                        "check_date": "2023-04-16",
                        "indoor_seating": "yes",
                        "name": "Das Goldene Einhorn",
                        "outdoor_seating": "yes",
                        "website": "https://www.das-goldene-einhorn.at/"
                      },
                      "geometry": {
                        "type": "Point",
                        "coordinates": [
                          14.2877841,
                          48.3064909
                        ]
                      }
                    },
                    {
                      "type": "Feature",
                      "properties": {
                        "id": "6549543180",
                        "osm_type": "node",
                        "lat": 48.3000259,
                        "lon": 14.2868789,
                        "amenity": "bar",
                        "indoor_seating": "yes",
                        "name": "Dombar",
                        "outdoor_seating": "yes"
                      },
                      "geometry": {
                        "type": "Point",
                        "coordinates": [
                          14.2868789,
                          48.3000259
                        ]
                      }
                    },
                    {
                      "type": "Feature",
                      "properties": {
                        "id": "6981775986",
                        "osm_type": "node",
                        "lat": 48.3056369,
                        "lon": 14.2842107,
                        "amenity": "bar",
                        "check_date": "2022-10-15",
                        "name": "Röders",
                        "opening_hours": "We-Th 20:00-02:00; Fr-Sa 20:00-06:00",
                        "wheelchair": "no"
                      },
                      "geometry": {
                        "type": "Point",
                        "coordinates": [
                          14.2842107,
                          48.3056369
                        ]
                      }
                    },
                    {
                      "type": "Feature",
                      "properties": {
                        "id": "7128943381",
                        "osm_type": "node",
                        "lat": 48.3033736,
                        "lon": 14.2896531,
                        "addr:city": "Linz",
                        "addr:housenumber": "1",
                        "addr:postcode": "4020",
                        "addr:street": "Bethlehemstraße",
                        "amenity": "bar",
                        "cocktails": "yes",
                        "name": "Helmut Bar",
                        "opening_hours": "Tu-Sa 16:00-26:00",
                        "phone": "+43 681 84030306",
                        "website": "https://www.helmut-bar.at/"
                      },
                      "geometry": {
                        "type": "Point",
                        "coordinates": [
                          14.2896531,
                          48.3033736
                        ]
                      }
                    },
                    {
                      "type": "Feature",
                      "properties": {
                        "id": "7160557178",
                        "osm_type": "node",
                        "lat": 48.3021135,
                        "lon": 14.291277,
                        "amenity": "bar",
                        "contact:email": "office@nuba.at",
                        "contact:phone": "+43 732 777060",
                        "contact:website": "https://www.nuba.at/",
                        "name": "nuba",
                        "opening_hours": "Mo-Th 11:00-01:00; Fr-Sa 11:00-03:00",
                        "operator": "ONYX Gastro Gmbh"
                      },
                      "geometry": {
                        "type": "Point",
                        "coordinates": [
                          14.291277,
                          48.3021135
                        ]
                      }
                    },
                    {
                      "type": "Feature",
                      "properties": {
                        "id": "9885004347",
                        "osm_type": "node",
                        "lat": 48.2923146,
                        "lon": 14.2958294,
                        "amenity": "bar",
                        "name": "Porto",
                        "outdoor_seating": "yes"
                      },
                      "geometry": {
                        "type": "Point",
                        "coordinates": [
                          14.2958294,
                          48.2923146
                        ]
                      }
                    },
                    {
                      "type": "Feature",
                      "properties": {
                        "id": "9885004350",
                        "osm_type": "node",
                        "lat": 48.2911401,
                        "lon": 14.296918,
                        "amenity": "bar",
                        "name": "Delicious",
                        "outdoor_seating": "yes"
                      },
                      "geometry": {
                        "type": "Point",
                        "coordinates": [
                          14.296918,
                          48.2911401
                        ]
                      }
                    },
                    {
                      "type": "Feature",
                      "properties": {
                        "id": "9885004355",
                        "osm_type": "node",
                        "lat": 48.2909708,
                        "lon": 14.297092,
                        "amenity": "bar",
                        "name": "Day Night",
                        "outdoor_seating": "yes"
                      },
                      "geometry": {
                        "type": "Point",
                        "coordinates": [
                          14.297092,
                          48.2909708
                        ]
                      }
                    },
                    {
                      "type": "Feature",
                      "properties": {
                        "id": "9885004356",
                        "osm_type": "node",
                        "lat": 48.2906692,
                        "lon": 14.2968667,
                        "amenity": "bar",
                        "name": "MASQ",
                        "opening_hours": "Tu-Th 16:00-02:00, Fr,Sa 16:00-02:00; Mo off"
                      },
                      "geometry": {
                        "type": "Point",
                        "coordinates": [
                          14.2968667,
                          48.2906692
                        ]
                      }
                    },
                    {
                      "type": "Feature",
                      "properties": {
                        "id": "9885004357",
                        "osm_type": "node",
                        "lat": 48.291044,
                        "lon": 14.2970283,
                        "amenity": "bar",
                        "name": "Havana",
                        "outdoor_seating": "yes"
                      },
                      "geometry": {
                        "type": "Point",
                        "coordinates": [
                          14.2970283,
                          48.291044
                        ]
                      }
                    },
                    {
                      "type": "Feature",
                      "properties": {
                        "id": "10091414772",
                        "osm_type": "node",
                        "lat": 48.3052492,
                        "lon": 14.2846752,
                        "amenity": "bar",
                        "check_date": "2022-10-15",
                        "indoor_seating": "yes",
                        "name": "Eastwood",
                        "outdoor_seating": "yes"
                      },
                      "geometry": {
                        "type": "Point",
                        "coordinates": [
                          14.2846752,
                          48.3052492
                        ]
                      }
                    },
                    {
                      "type": "Feature",
                      "properties": {
                        "id": "10101825315",
                        "osm_type": "node",
                        "lat": 48.3058728,
                        "lon": 14.2856219,
                        "amenity": "bar",
                        "check_date": "2022-10-14",
                        "min_age": "18",
                        "name": "Black rose",
                        "opening_hours": "Mo-Th 19:00-01:00; Fr-Sa 21:00-04:00",
                        "wheelchair": "no"
                      },
                      "geometry": {
                        "type": "Point",
                        "coordinates": [
                          14.2856219,
                          48.3058728
                        ]
                      }
                    },
                    {
                      "type": "Feature",
                      "properties": {
                        "id": "10102699728",
                        "osm_type": "node",
                        "lat": 48.3055097,
                        "lon": 14.2862239,
                        "addr:housenumber": "15-16",
                        "addr:street": "Hauptplatz",
                        "amenity": "bar",
                        "check_date": "2022-10-15",
                        "indoor_seating": "yes",
                        "name": "Maria's",
                        "outdoor_seating": "yes"
                      },
                      "geometry": {
                        "type": "Point",
                        "coordinates": [
                          14.2862239,
                          48.3055097
                        ]
                      }
                    },
                    {
                      "type": "Feature",
                      "properties": {
                        "id": "10102699741",
                        "osm_type": "node",
                        "lat": 48.305888,
                        "lon": 14.2845921,
                        "amenity": "bar",
                        "check_date": "2022-10-15",
                        "name": "s'Linzer Eck"
                      },
                      "geometry": {
                        "type": "Point",
                        "coordinates": [
                          14.2845921,
                          48.305888
                        ]
                      }
                    },
                    {
                      "type": "Feature",
                      "properties": {
                        "id": "10102699746",
                        "osm_type": "node",
                        "lat": 48.305686,
                        "lon": 14.2842108,
                        "amenity": "bar",
                        "check_date": "2022-10-15",
                        "name": "Vinyl Bar",
                        "old_name": "Living Room",
                        "opening_hours": "We-Th 18:00-04:00; Fr-Sa 20:00-04:00",
                        "wheelchair": "no"
                      },
                      "geometry": {
                        "type": "Point",
                        "coordinates": [
                          14.2842108,
                          48.305686
                        ]
                      }
                    },
                    {
                      "type": "Feature",
                      "properties": {
                        "id": "10102892644",
                        "osm_type": "node",
                        "lat": 48.3032442,
                        "lon": 14.2877896,
                        "amenity": "bar",
                        "description": "Ramen Bar",
                        "email": "igielinz@gmail.com",
                        "indoor_seating": "yes",
                        "name": "Ichi go ichi e",
                        "opening_hours": "Mo-Sa 11:00-21:00",
                        "outdoor_seating": "no",
                        "phone": "+43-664-2353665",
                        "website": "https://linzerie.at/shop/ichi-go-ichi-e/",
                        "wheelchair": "yes"
                      },
                      "geometry": {
                        "type": "Point",
                        "coordinates": [
                          14.2877896,
                          48.3032442
                        ]
                      }
                    },
                    {
                      "type": "Feature",
                      "properties": {
                        "id": "10103605827",
                        "osm_type": "node",
                        "lat": 48.3045586,
                        "lon": 14.2874684,
                        "amenity": "bar",
                        "check_date": "2022-10-15",
                        "indoor_seating": "yes",
                        "name": "Teeamo",
                        "opening_hours": "Mo-Sa 11:00-21:00; PH,Su 13:00-20:00",
                        "outdoor_seating": "no",
                        "wheelchair": "no"
                      },
                      "geometry": {
                        "type": "Point",
                        "coordinates": [
                          14.2874684,
                          48.3045586
                        ]
                      }
                    },
                    {
                      "type": "Feature",
                      "properties": {
                        "id": "10307325272",
                        "osm_type": "node",
                        "lat": 48.3049897,
                        "lon": 14.2843987,
                        "amenity": "bar",
                        "name": "Rechyyy's",
                        "opening_hours": "Mo-Sa 14:00-22:00",
                        "wheelchair": "no"
                      },
                      "geometry": {
                        "type": "Point",
                        "coordinates": [
                          14.2843987,
                          48.3049897
                        ]
                      }
                    },
                    {
                      "type": "Feature",
                      "properties": {
                        "id": "10856082935",
                        "osm_type": "node",
                        "lat": 48.3027243,
                        "lon": 14.2862827,
                        "amenity": "bar",
                        "name": "Schwarzer Bär"
                      },
                      "geometry": {
                        "type": "Point",
                        "coordinates": [
                          14.2862827,
                          48.3027243
                        ]
                      }
                    },
                    {
                      "type": "Feature",
                      "properties": {
                        "id": "11105975740",
                        "osm_type": "node",
                        "lat": 48.31103,
                        "lon": 14.28313,
                        "amenity": "bar",
                        "level": "-1",
                        "name": "Underground Cafe"
                      },
                      "geometry": {
                        "type": "Point",
                        "coordinates": [
                          14.28313,
                          48.31103
                        ]
                      }
                    },
                    {
                      "type": "Feature",
                      "properties": {
                        "id": "11159175133",
                        "osm_type": "node",
                        "lat": 48.3104817,
                        "lon": 14.2821448,
                        "amenity": "bar",
                        "name": "Arte Bar"
                      },
                      "geometry": {
                        "type": "Point",
                        "coordinates": [
                          14.2821448,
                          48.3104817
                        ]
                      }
                    },
                    {
                      "type": "Feature",
                      "properties": {
                        "id": "11833504625",
                        "osm_type": "node",
                        "lat": 48.3061611,
                        "lon": 14.2842734,
                        "amenity": "bar",
                        "name": "Linzerl",
                        "website": "https://www.linzerl.at/"
                      },
                      "geometry": {
                        "type": "Point",
                        "coordinates": [
                          14.2842734,
                          48.3061611
                        ]
                      }
                    },
                    {
                      "type": "Feature",
                      "properties": {
                        "id": "11833504626",
                        "osm_type": "node",
                        "lat": 48.306226,
                        "lon": 14.2840505,
                        "amenity": "bar",
                        "name": "Nachtschwärmer",
                        "opening_hours": "We-Sa 20:00-06:00"
                      },
                      "geometry": {
                        "type": "Point",
                        "coordinates": [
                          14.2840505,
                          48.306226
                        ]
                      }
                    },
                    {
                      "type": "Feature",
                      "properties": {
                        "id": "12051514350",
                        "osm_type": "node",
                        "lat": 48.2974329,
                        "lon": 14.2921266,
                        "amenity": "bar",
                        "name": "SPAGO",
                        "outdoor_seating": "yes"
                      },
                      "geometry": {
                        "type": "Point",
                        "coordinates": [
                          14.2921266,
                          48.2974329
                        ]
                      }
                    }
                  ],
                  "children": []
                },
                {
                  "bbox": {
                    "south": 48.31465234375,
                    "west": 14.061043625,
                    "north": 48.355971499999995,
                    "east": 14.1802565625
                  },
                  "poiCount": 1,
                  "leafCount": 1,
                  "averagePosition": [
                    14.1769092,
                    48.3307544
                  ],
                  "data": [
                    {
                      "type": "Feature",
                      "properties": {
                        "id": "1584408763",
                        "osm_type": "node",
                        "lat": 48.3307544,
                        "lon": 14.1769092,
                        "addr:city": "Ottensheim",
                        "addr:housenumber": "1",
                        "addr:postcode": "4100",
                        "addr:street": "Donaulände",
                        "amenity": "bar",
                        "name": "Port:O",
                        "opening_hours": "Tu-Sa 17:00-24:00",
                        "smoking": "outside",
                        "website": "https://www.porto.co.at/"
                      },
                      "geometry": {
                        "type": "Point",
                        "coordinates": [
                          14.1769092,
                          48.3307544
                        ]
                      }
                    }
                  ],
                  "children": []
                },
                {
                  "bbox": {
                    "south": 48.31465234375,
                    "west": 14.1802565625,
                    "north": 48.355971499999995,
                    "east": 14.2994695
                  },
                  "poiCount": 2,
                  "leafCount": 2,
                  "averagePosition": [
                    14.284688899999999,
                    48.32454095
                  ],
                  "data": [
                    {
                      "type": "Feature",
                      "properties": {
                        "id": "12772313054",
                        "osm_type": "node",
                        "lat": 48.331329,
                        "lon": 14.2865354,
                        "amenity": "bar",
                        "name": "Buffet Pointer",
                        "outdoor_seating": "yes",
                        "wheelchair": "limited"
                      },
                      "geometry": {
                        "type": "Point",
                        "coordinates": [
                          14.2865354,
                          48.331329
                        ]
                      }
                    },
                    {
                      "type": "Feature",
                      "properties": {
                        "id": "12879427272",
                        "osm_type": "node",
                        "lat": 48.3177529,
                        "lon": 14.2828424,
                        "amenity": "bar",
                        "check_date:opening_hours": "2025-06-01",
                        "name": "Oldies Musik Beisl",
                        "opening_hours:signed": "no"
                      },
                      "geometry": {
                        "type": "Point",
                        "coordinates": [
                          14.2828424,
                          48.3177529
                        ]
                      }
                    }
                  ],
                  "children": []
                }
              ]
            }
          ]
        }
      ]
    },
    {
      "bbox": {
        "south": 48.02541825,
        "west": 14.2994695,
        "north": 48.355971499999995,
        "east": 15.253173
      },
      "poiCount": 55,
      "leafCount": 0,
      "averagePosition": [
        14.626181350909091,
        48.172345992727266
      ],
      "data": [],
      "children": [
        {
          "bbox": {
            "south": 48.02541825,
            "west": 14.2994695,
            "north": 48.190694875,
            "east": 14.77632125
          },
          "poiCount": 15,
          "leafCount": 15,
          "averagePosition": [
            14.462104173333334,
            48.07797472
          ],
          "data": [
            {
              "type": "Feature",
              "properties": {
                "id": "442052025",
                "osm_type": "node",
                "lat": 48.0376465,
                "lon": 14.4161558,
                "addr:housenumber": "3",
                "addr:street": "Brucknerplatz",
                "amenity": "bar",
                "check_date": "2024-10-10",
                "name": "Schmankerl Steyr",
                "opening_hours": "Mo-Tu,Fr-Su 14:00-22:00; We-Th off",
                "phone": "00436605511130",
                "website": "https://schmankerl-steyr.at/"
              },
              "geometry": {
                "type": "Point",
                "coordinates": [
                  14.4161558,
                  48.0376465
                ]
              }
            },
            {
              "type": "Feature",
              "properties": {
                "id": "649965807",
                "osm_type": "node",
                "lat": 48.1414569,
                "lon": 14.4644041,
                "amenity": "bar",
                "name": "RaBar"
              },
              "geometry": {
                "type": "Point",
                "coordinates": [
                  14.4644041,
                  48.1414569
                ]
              }
            },
            {
              "type": "Feature",
              "properties": {
                "id": "1874664471",
                "osm_type": "node",
                "lat": 48.1748915,
                "lon": 14.529343,
                "addr:city": "Sankt Valentin",
                "addr:country": "AT",
                "addr:housenumber": "19",
                "addr:postcode": "4300",
                "addr:street": "Hauptstraße",
                "amenity": "bar",
                "name": "Stadtcafe",
                "wheelchair": "no"
              },
              "geometry": {
                "type": "Point",
                "coordinates": [
                  14.529343,
                  48.1748915
                ]
              }
            },
            {
              "type": "Feature",
              "properties": {
                "id": "1895215121",
                "osm_type": "node",
                "lat": 48.1774746,
                "lon": 14.5235694,
                "addr:city": "Sankt Valentin",
                "addr:country": "AT",
                "addr:housenumber": "24",
                "addr:postcode": "4300",
                "addr:street": "Westbahnstraße",
                "amenity": "bar",
                "name": "Barbarella"
              },
              "geometry": {
                "type": "Point",
                "coordinates": [
                  14.5235694,
                  48.1774746
                ]
              }
            },
            {
              "type": "Feature",
              "properties": {
                "id": "2165280919",
                "osm_type": "node",
                "lat": 48.172406,
                "lon": 14.519064,
                "addr:city": "St. Valentin",
                "addr:country": "AT",
                "addr:housenumber": "13",
                "addr:postcode": "4300",
                "addr:street": "Langenharterstraße",
                "amenity": "bar",
                "name": "Valentino",
                "opening_hours": "Mo-Th 09:00-03:00; Fr, Sa 09:00-04:00; Su 10:00-18:00",
                "website": "http://www.cafe-valentino.at/"
              },
              "geometry": {
                "type": "Point",
                "coordinates": [
                  14.519064,
                  48.172406
                ]
              }
            },
            {
              "type": "Feature",
              "properties": {
                "id": "2389292384",
                "osm_type": "node",
                "lat": 48.0383584,
                "lon": 14.4184941,
                "addr:housenumber": "40-42",
                "addr:postcode": "4400",
                "addr:street": "Stadtplatz",
                "amenity": "bar",
                "contact:phone": "+43 7252 51055",
                "name": "City Bar/Havanna Bar"
              },
              "geometry": {
                "type": "Point",
                "coordinates": [
                  14.4184941,
                  48.0383584
                ]
              }
            },
            {
              "type": "Feature",
              "properties": {
                "id": "4234389726",
                "osm_type": "node",
                "lat": 48.0833275,
                "lon": 14.378186,
                "addr:city": "Wolfern",
                "addr:country": "AT",
                "addr:housenumber": "6",
                "addr:postcode": "4493",
                "addr:street": "Kirchenplatz",
                "amenity": "bar",
                "name": "YAM",
                "opening_hours": "We-Sa 17:00-24:00",
                "phone": "+43-699-14062409"
              },
              "geometry": {
                "type": "Point",
                "coordinates": [
                  14.378186,
                  48.0833275
                ]
              }
            },
            {
              "type": "Feature",
              "properties": {
                "id": "8094306944",
                "osm_type": "node",
                "lat": 48.0395962,
                "lon": 14.4198559,
                "addr:city": "Steyr",
                "addr:housenumber": "13",
                "addr:postcode": "4400",
                "addr:street": "Stadtplatz",
                "amenity": "bar",
                "check_date": "2024-10-09",
                "name": "dreizehn",
                "opening_hours": "Tu-We 08:00-22:00; Th 08:00-23:00; Fr-Sa 08:00-01:00; Su,PH off"
              },
              "geometry": {
                "type": "Point",
                "coordinates": [
                  14.4198559,
                  48.0395962
                ]
              }
            },
            {
              "type": "Feature",
              "properties": {
                "id": "8094306948",
                "osm_type": "node",
                "lat": 48.0379554,
                "lon": 14.4180828,
                "amenity": "bar",
                "name": "Temple Bar"
              },
              "geometry": {
                "type": "Point",
                "coordinates": [
                  14.4180828,
                  48.0379554
                ]
              }
            },
            {
              "type": "Feature",
              "properties": {
                "id": "9660616316",
                "osm_type": "node",
                "lat": 48.0405221,
                "lon": 14.420026,
                "amenity": "bar",
                "name": "Susecco"
              },
              "geometry": {
                "type": "Point",
                "coordinates": [
                  14.420026,
                  48.0405221
                ]
              }
            },
            {
              "type": "Feature",
              "properties": {
                "id": "9660670679",
                "osm_type": "node",
                "lat": 48.0398739,
                "lon": 14.4199505,
                "amenity": "bar",
                "cafe": "yes",
                "check_date": "2024-10-09",
                "name": "Vinothek Ravino",
                "opening_hours": "Mo,Su off; Tu-We 14:00-19:00; Th 09:30-18:00; Fr 11:00-22:00; Sa 09:30-17:00",
                "website": "https://www.ravino.at"
              },
              "geometry": {
                "type": "Point",
                "coordinates": [
                  14.4199505,
                  48.0398739
                ]
              }
            },
            {
              "type": "Feature",
              "properties": {
                "id": "9668222572",
                "osm_type": "node",
                "lat": 48.0380742,
                "lon": 14.4180339,
                "amenity": "bar",
                "name": "Wunderbar"
              },
              "geometry": {
                "type": "Point",
                "coordinates": [
                  14.4180339,
                  48.0380742
                ]
              }
            },
            {
              "type": "Feature",
              "properties": {
                "id": "9668263225",
                "osm_type": "node",
                "lat": 48.0372542,
                "lon": 14.4182807,
                "amenity": "bar",
                "name": "WinWin"
              },
              "geometry": {
                "type": "Point",
                "coordinates": [
                  14.4182807,
                  48.0372542
                ]
              }
            },
            {
              "type": "Feature",
              "properties": {
                "id": "11581540684",
                "osm_type": "node",
                "lat": 48.038424,
                "lon": 14.4185986,
                "amenity": "bar",
                "name": "Get together"
              },
              "geometry": {
                "type": "Point",
                "coordinates": [
                  14.4185986,
                  48.038424
                ]
              }
            },
            {
              "type": "Feature",
              "properties": {
                "id": "1217389967",
                "osm_type": "node",
                "lat": 48.0723594,
                "lon": 14.7495178,
                "amenity": "bar",
                "name": "Evita"
              },
              "geometry": {
                "type": "Point",
                "coordinates": [
                  14.7495178,
                  48.0723594
                ]
              }
            }
          ],
          "children": []
        },
        {
          "bbox": {
            "south": 48.02541825,
            "west": 14.77632125,
            "north": 48.190694875,
            "east": 15.253173
          },
          "poiCount": 18,
          "leafCount": 18,
          "averagePosition": [
            14.970310711111113,
            48.11983698333333
          ],
          "data": [
            {
              "type": "Feature",
              "properties": {
                "id": "1279159966",
                "osm_type": "node",
                "lat": 48.1239031,
                "lon": 14.8730623,
                "addr:city": "Amstetten",
                "addr:country": "AT",
                "addr:postcode": "3300",
                "amenity": "bar",
                "contact:email": "info@bloom-cafe.at",
                "contact:facebook": "https://www.facebook.com/bloomamstetten/",
                "contact:phone": "+43 7472 64000",
                "cuisine": "breakfast;toast;burger",
                "name": "Bloom-Cafe+Bar",
                "opening_hours": "Mo-Th 08:00-24:00; Fr, Sa 08:00-02:00; Su 08:00-22:00",
                "short_name": "Bloom",
                "toilets:wheelchair": "no",
                "website": "https://bloom-cafe.at/",
                "wheelchair": "no",
                "wheelchair:description": "Über den Club kommt man über eine einzige Stufe hinein ins Cafe. Die Mitarbeiter sind total freundlich und hilfsbereit."
              },
              "geometry": {
                "type": "Point",
                "coordinates": [
                  14.8730623,
                  48.1239031
                ]
              }
            },
            {
              "type": "Feature",
              "properties": {
                "id": "1279161370",
                "osm_type": "node",
                "lat": 48.1232185,
                "lon": 14.8797112,
                "addr:city": "Amstetten",
                "addr:country": "AT",
                "addr:housename": "K1",
                "addr:housenumber": "1",
                "addr:postcode": "3300",
                "addr:street": "Kubastastraße",
                "amenity": "bar",
                "contact:phone": "+43 676 462 63 67",
                "name": "K1 Disco Club",
                "opening_hours": "Fr, Sa 22:00-07:00",
                "website": "http://www.robertgelbmann.at/k1-disco-club/",
                "wheelchair": "no"
              },
              "geometry": {
                "type": "Point",
                "coordinates": [
                  14.8797112,
                  48.1232185
                ]
              }
            },
            {
              "type": "Feature",
              "properties": {
                "id": "1279161926",
                "osm_type": "node",
                "lat": 48.1231471,
                "lon": 14.879827,
                "addr:city": "Amstetten",
                "addr:country": "AT",
                "addr:housename": "Flair",
                "addr:housenumber": "1",
                "addr:postcode": "3300",
                "addr:street": "Kubastastraße",
                "amenity": "bar",
                "contact:phone": "+43 676 462 63 67",
                "name": "Stehachterl",
                "old_name": "Flair",
                "opening_hours": "Mo-Sa 16:00-00:00",
                "website": "http://www.robertgelbmann.at/stehachterl/",
                "wheelchair": "no"
              },
              "geometry": {
                "type": "Point",
                "coordinates": [
                  14.879827,
                  48.1231471
                ]
              }
            },
            {
              "type": "Feature",
              "properties": {
                "id": "3308542071",
                "osm_type": "node",
                "lat": 48.1242905,
                "lon": 14.8799842,
                "amenity": "bar",
                "contact:email": "office@eventass.at",
                "contact:phone": "+43 676 3182779",
                "contact:website": "http://www.dasmozart.at/",
                "name": "das mozArt",
                "operator": "Stefan Emhofer"
              },
              "geometry": {
                "type": "Point",
                "coordinates": [
                  14.8799842,
                  48.1242905
                ]
              }
            },
            {
              "type": "Feature",
              "properties": {
                "id": "4359304986",
                "osm_type": "node",
                "lat": 48.1202852,
                "lon": 14.8712855,
                "amenity": "bar",
                "name": "Filoli",
                "opening_hours": "Th-Su 20:00+"
              },
              "geometry": {
                "type": "Point",
                "coordinates": [
                  14.8712855,
                  48.1202852
                ]
              }
            },
            {
              "type": "Feature",
              "properties": {
                "id": "4921775717",
                "osm_type": "node",
                "lat": 48.1238558,
                "lon": 14.871638,
                "amenity": "bar",
                "brothel": "yes",
                "brothel:stripclub": "yes",
                "contact:phone": "+43 7472 65699",
                "contact:website": "http://bar-josefine.at/",
                "name": "Gogobar Josefine",
                "opening_hours": "Su-Th 21:00+; Fr-Sa 21:30+",
                "operator": "H&L Tanz- und BarbetriebsGmbH"
              },
              "geometry": {
                "type": "Point",
                "coordinates": [
                  14.871638,
                  48.1238558
                ]
              }
            },
            {
              "type": "Feature",
              "properties": {
                "id": "4921775943",
                "osm_type": "node",
                "lat": 48.1239641,
                "lon": 14.8716206,
                "amenity": "bar",
                "contact:facebook": "https://www.facebook.com/jocaamstetten",
                "contact:phone": "+43 7472 25782",
                "name": "Joca Cardcasino Amstetten"
              },
              "geometry": {
                "type": "Point",
                "coordinates": [
                  14.8716206,
                  48.1239641
                ]
              }
            },
            {
              "type": "Feature",
              "properties": {
                "id": "4921781779",
                "osm_type": "node",
                "lat": 48.1236022,
                "lon": 14.8714968,
                "addr:city": "Amstetten",
                "addr:housenumber": "32",
                "addr:postcode": "3300",
                "addr:street": "Hauptplatz",
                "alt_name": "Rockbar",
                "amenity": "bar",
                "contact:email": "rock.bar@gmx.at",
                "contact:facebook": "https://www.facebook.com/rockBAR-459749600753649",
                "indoor_seating": "yes",
                "name": "Cafe Bar Mian",
                "opening_hours": "Mo-Th 10:00-24:00, Fr,Sa 10:00-05:00, Su 10:00-24:00",
                "outdoor_seating": "yes",
                "wheelchair": "no"
              },
              "geometry": {
                "type": "Point",
                "coordinates": [
                  14.8714968,
                  48.1236022
                ]
              }
            },
            {
              "type": "Feature",
              "properties": {
                "id": "5413244171",
                "osm_type": "node",
                "lat": 48.1210652,
                "lon": 14.8740037,
                "addr:city": "Amstetten",
                "addr:housenumber": "7",
                "addr:postcode": "3300",
                "addr:street": "Eggersdorfer Straße",
                "amenity": "bar",
                "contact:phone": "+43 688 9661755",
                "name": "Club Nightlife"
              },
              "geometry": {
                "type": "Point",
                "coordinates": [
                  14.8740037,
                  48.1210652
                ]
              }
            },
            {
              "type": "Feature",
              "properties": {
                "id": "5413244172",
                "osm_type": "node",
                "lat": 48.1210491,
                "lon": 14.873883,
                "addr:city": "Amstetten",
                "addr:housenumber": "7",
                "addr:postcode": "3300",
                "addr:street": "Eggersdorfer Straße",
                "amenity": "bar",
                "name": "Mata Hari Cocktailbar"
              },
              "geometry": {
                "type": "Point",
                "coordinates": [
                  14.873883,
                  48.1210491
                ]
              }
            },
            {
              "type": "Feature",
              "properties": {
                "id": "11110378867",
                "osm_type": "node",
                "lat": 48.1229959,
                "lon": 14.8730967,
                "amenity": "bar",
                "name": "LavaLounge"
              },
              "geometry": {
                "type": "Point",
                "coordinates": [
                  14.8730967,
                  48.1229959
                ]
              }
            },
            {
              "type": "Feature",
              "properties": {
                "id": "488038882",
                "osm_type": "node",
                "lat": 48.060762,
                "lon": 15.132624,
                "alt_name": "Bar Blackout",
                "amenity": "bar",
                "name": "Blackout",
                "opening_hours": "18:00+"
              },
              "geometry": {
                "type": "Point",
                "coordinates": [
                  15.132624,
                  48.060762
                ]
              }
            },
            {
              "type": "Feature",
              "properties": {
                "id": "2267026370",
                "osm_type": "node",
                "lat": 48.0651641,
                "lon": 15.1359313,
                "amenity": "bar",
                "name": "Bowling Bar"
              },
              "geometry": {
                "type": "Point",
                "coordinates": [
                  15.1359313,
                  48.0651641
                ]
              }
            },
            {
              "type": "Feature",
              "properties": {
                "id": "4195851292",
                "osm_type": "node",
                "lat": 48.1772725,
                "lon": 15.083509,
                "amenity": "bar",
                "contact:facebook": "https://www.facebook.com/momentum.bar.a.vins/",
                "name": "Momentum - bar à vins",
                "opening_hours": "Th-Sa 20:00-24:00",
                "wheelchair": "yes"
              },
              "geometry": {
                "type": "Point",
                "coordinates": [
                  15.083509,
                  48.1772725
                ]
              }
            },
            {
              "type": "Feature",
              "properties": {
                "id": "4570221379",
                "osm_type": "node",
                "lat": 48.1742213,
                "lon": 15.0842916,
                "amenity": "bar",
                "name": "Dani's Milchbar",
                "opening_hours": "Tu-Sa 16:00-24:00",
                "phone": "+43 7412 53132"
              },
              "geometry": {
                "type": "Point",
                "coordinates": [
                  15.0842916,
                  48.1742213
                ]
              }
            },
            {
              "type": "Feature",
              "properties": {
                "id": "5037707367",
                "osm_type": "node",
                "lat": 48.1313263,
                "lon": 15.139157,
                "amenity": "bar",
                "level": "0",
                "name": "life",
                "payment:Wieselburger_10er": "yes"
              },
              "geometry": {
                "type": "Point",
                "coordinates": [
                  15.139157,
                  48.1313263
                ]
              }
            },
            {
              "type": "Feature",
              "properties": {
                "id": "8310523286",
                "osm_type": "node",
                "lat": 48.0583195,
                "lon": 15.133163,
                "amenity": "bar"
              },
              "geometry": {
                "type": "Point",
                "coordinates": [
                  15.133163,
                  48.0583195
                ]
              }
            },
            {
              "type": "Feature",
              "properties": {
                "id": "11125986261",
                "osm_type": "node",
                "lat": 48.1386233,
                "lon": 15.1373079,
                "addr:city": "Wieselburg",
                "addr:housenumber": "9",
                "addr:postcode": "3250",
                "addr:street": "Zur Autobahn",
                "amenity": "bar",
                "brewery": "früh_kölsch;wieselburger_gold",
                "contact:facebook": "https://www.facebook.com/HAFNERBAR/",
                "email": "reservierung@hafnerbar.at",
                "internet_access": "wlan",
                "internet_access:fee": "no",
                "level": "2",
                "name": "Hafnerbar",
                "opening_hours": "Mo-Th 07:00-24:00; Fr-Sa 07:00-01:00; Su,PH 07:00-14:00",
                "outdoor_seating": "yes",
                "payment:cash": "yes",
                "payment:debit_cards": "yes",
                "payment:mastercard": "yes",
                "payment:visa": "yes",
                "phone": "+43741620580",
                "website": "https://www.hafnerhotel.at/bar/",
                "wheelchair": "yes"
              },
              "geometry": {
                "type": "Point",
                "coordinates": [
                  15.1373079,
                  48.1386233
                ]
              }
            }
          ],
          "children": []
        },
        {
          "bbox": {
            "south": 48.190694875,
            "west": 14.2994695,
            "north": 48.355971499999995,
            "east": 14.77632125
          },
          "poiCount": 20,
          "leafCount": 20,
          "averagePosition": [
            14.399030135,
            48.280321395
          ],
          "data": [
            {
              "type": "Feature",
              "properties": {
                "id": "2293967892",
                "osm_type": "node",
                "lat": 48.3010522,
                "lon": 14.3214962,
                "amenity": "bar",
                "contact:email": "office@pfeffers.at",
                "contact:phone": "+43 699 19831028",
                "contact:website": "http://www.pfeffers.at",
                "name": "PFEFFER´S Café Bar",
                "opening_hours": "Mo-Su 00:00-01:00,14:00-24:00",
                "wheelchair": "yes"
              },
              "geometry": {
                "type": "Point",
                "coordinates": [
                  14.3214962,
                  48.3010522
                ]
              }
            },
            {
              "type": "Feature",
              "properties": {
                "id": "2293967897",
                "osm_type": "node",
                "lat": 48.3013055,
                "lon": 14.3216083,
                "amenity": "bar",
                "contact:phone": "+43 732 600773",
                "name": "Sky Bar",
                "wheelchair": "yes"
              },
              "geometry": {
                "type": "Point",
                "coordinates": [
                  14.3216083,
                  48.3013055
                ]
              }
            },
            {
              "type": "Feature",
              "properties": {
                "id": "2529238466",
                "osm_type": "node",
                "lat": 48.2212971,
                "lon": 14.4055587,
                "amenity": "bar",
                "name": "Fridolin",
                "opening_hours": "Mo-Fr 08:00-20:00; Sa 08:00-18:00"
              },
              "geometry": {
                "type": "Point",
                "coordinates": [
                  14.4055587,
                  48.2212971
                ]
              }
            },
            {
              "type": "Feature",
              "properties": {
                "id": "2994659570",
                "osm_type": "node",
                "lat": 48.3348095,
                "lon": 14.3210962,
                "amenity": "bar",
                "check_date": "2022-10-12",
                "indoor_seating": "yes",
                "name": "Log In-Cafe-Coctail-Bar",
                "opening_hours": "Mo-Sa 17:00-24:00",
                "outdoor_seating": "yes",
                "toilets:wheelchair": "no",
                "wheelchair": "no"
              },
              "geometry": {
                "type": "Point",
                "coordinates": [
                  14.3210962,
                  48.3348095
                ]
              }
            },
            {
              "type": "Feature",
              "properties": {
                "id": "3039261116",
                "osm_type": "node",
                "lat": 48.2129047,
                "lon": 14.4791051,
                "amenity": "bar",
                "name": "Strawanza"
              },
              "geometry": {
                "type": "Point",
                "coordinates": [
                  14.4791051,
                  48.2129047
                ]
              }
            },
            {
              "type": "Feature",
              "properties": {
                "id": "3594391792",
                "osm_type": "node",
                "lat": 48.2913639,
                "lon": 14.3012504,
                "addr:city": "Linz",
                "addr:housenumber": "31",
                "addr:postcode": "4020",
                "addr:street": "Lenaustraße",
                "amenity": "bar",
                "name": "C'est la vie",
                "opening_hours": "Mo-Th 16:00-24:00; Fr-Sa 16:00-02:00; Su 14:00-24:00",
                "phone": "+43 664 7955895",
                "website": "https://www.cestlavielinz.at/index.html"
              },
              "geometry": {
                "type": "Point",
                "coordinates": [
                  14.3012504,
                  48.2913639
                ]
              }
            },
            {
              "type": "Feature",
              "properties": {
                "id": "3763443272",
                "osm_type": "node",
                "lat": 48.3178319,
                "lon": 14.4728564,
                "amenity": "bar",
                "name": "Freispruch"
              },
              "geometry": {
                "type": "Point",
                "coordinates": [
                  14.4728564,
                  48.3178319
                ]
              }
            },
            {
              "type": "Feature",
              "properties": {
                "id": "4069242244",
                "osm_type": "node",
                "lat": 48.3335729,
                "lon": 14.3001925,
                "amenity": "bar",
                "contact:facebook": "https://www.facebook.com/Magdalenal-276278255762796/",
                "contact:phone": "+43 680 3133806",
                "name": "Magdalenal",
                "opening_hours": "Tu,We 18:00-02:00, Th-Sa 18:00-04:00"
              },
              "geometry": {
                "type": "Point",
                "coordinates": [
                  14.3001925,
                  48.3335729
                ]
              }
            },
            {
              "type": "Feature",
              "properties": {
                "id": "5051277026",
                "osm_type": "node",
                "lat": 48.3194529,
                "lon": 14.3354094,
                "amenity": "bar",
                "name": "Mikki Beach",
                "outdoor_seating": "yes",
                "wheelchair": "limited"
              },
              "geometry": {
                "type": "Point",
                "coordinates": [
                  14.3354094,
                  48.3194529
                ]
              }
            },
            {
              "type": "Feature",
              "properties": {
                "id": "5899630870",
                "osm_type": "node",
                "lat": 48.2464648,
                "lon": 14.3270763,
                "addr:city": "Linz",
                "addr:housenumber": "5",
                "addr:postcode": "4030",
                "addr:street": "Fadingerplatz",
                "amenity": "bar",
                "email": "office@barrique-linz.at",
                "name": "Barrique",
                "opening_hours": "Tu-Th 15:00-00:00; Fr, Sa 15:00-28:00; Su 00:00-04:00, 13:00-00:00",
                "phone": "+436767532600",
                "website": "https://www.barrique-linz.at",
                "wheelchair": "limited"
              },
              "geometry": {
                "type": "Point",
                "coordinates": [
                  14.3270763,
                  48.2464648
                ]
              }
            },
            {
              "type": "Feature",
              "properties": {
                "id": "6551225456",
                "osm_type": "node",
                "lat": 48.2415294,
                "lon": 14.3805698,
                "amenity": "bar",
                "check_date:opening_hours": "2024-07-04",
                "name": "Tortuga Bar",
                "opening_hours:signed": "no",
                "outdoor_seating": "yes",
                "phone": "0664 8612873"
              },
              "geometry": {
                "type": "Point",
                "coordinates": [
                  14.3805698,
                  48.2415294
                ]
              }
            },
            {
              "type": "Feature",
              "properties": {
                "id": "9892444275",
                "osm_type": "node",
                "lat": 48.2846177,
                "lon": 14.3038373,
                "amenity": "bar",
                "name": "Bayern Stubn"
              },
              "geometry": {
                "type": "Point",
                "coordinates": [
                  14.3038373,
                  48.2846177
                ]
              }
            },
            {
              "type": "Feature",
              "properties": {
                "id": "10596860771",
                "osm_type": "node",
                "lat": 48.3557637,
                "lon": 14.5308501,
                "amenity": "bar",
                "name": "Hexenhaus"
              },
              "geometry": {
                "type": "Point",
                "coordinates": [
                  14.5308501,
                  48.3557637
                ]
              }
            },
            {
              "type": "Feature",
              "properties": {
                "id": "11298241824",
                "osm_type": "node",
                "lat": 48.24725,
                "lon": 14.3416888,
                "addr:city": "Linz",
                "addr:housenumber": "8",
                "addr:postcode": "4030",
                "addr:street": "Traundorfer Straße",
                "amenity": "bar",
                "brewery": "yes",
                "contact:facebook": "https://www.facebook.com/groups/2648828368502326",
                "name": "Hillybilly",
                "opening_hours": "Mo-Su 11:00-23:00",
                "outdoor_seating": "yes"
              },
              "geometry": {
                "type": "Point",
                "coordinates": [
                  14.3416888,
                  48.24725
                ]
              }
            },
            {
              "type": "Feature",
              "properties": {
                "id": "12049727285",
                "osm_type": "node",
                "lat": 48.3015042,
                "lon": 14.3210515,
                "amenity": "bar",
                "name": "Bargatto"
              },
              "geometry": {
                "type": "Point",
                "coordinates": [
                  14.3210515,
                  48.3015042
                ]
              }
            },
            {
              "type": "Feature",
              "properties": {
                "id": "12125349123",
                "osm_type": "node",
                "lat": 48.2914609,
                "lon": 14.3011723,
                "addr:city": "Linz",
                "addr:housenumber": "31",
                "addr:postcode": "4020",
                "addr:street": "Lenaustraße",
                "amenity": "bar",
                "name": "Cream Bar Lounge Linz"
              },
              "geometry": {
                "type": "Point",
                "coordinates": [
                  14.3011723,
                  48.2914609
                ]
              }
            },
            {
              "type": "Feature",
              "properties": {
                "id": "12769014536",
                "osm_type": "node",
                "lat": 48.2356653,
                "lon": 14.3876652,
                "addr:city": "Linz",
                "addr:housenumber": "919",
                "addr:postcode": "4030",
                "addr:street": "Wiener Straße",
                "amenity": "bar",
                "brewery": "yes",
                "name": "NO NAME Beach Bar",
                "opening_hours": "Mo-Su 10:00-22:00"
              },
              "geometry": {
                "type": "Point",
                "coordinates": [
                  14.3876652,
                  48.2356653
                ]
              }
            },
            {
              "type": "Feature",
              "properties": {
                "id": "1705666640",
                "osm_type": "node",
                "lat": 48.2668018,
                "lon": 14.5506383,
                "addr:city": "Ried in der Riedmark",
                "addr:housenumber": "49",
                "addr:place": "Niederzirking",
                "addr:postcode": "4312",
                "amenity": "bar",
                "name": "Musikcafe Memory"
              },
              "geometry": {
                "type": "Point",
                "coordinates": [
                  14.5506383,
                  48.2668018
                ]
              }
            },
            {
              "type": "Feature",
              "properties": {
                "id": "2138642181",
                "osm_type": "node",
                "lat": 48.2497923,
                "lon": 14.6345202,
                "addr:city": "Perg",
                "addr:country": "AT",
                "addr:housenumber": "12",
                "addr:postcode": "4320",
                "addr:street": "Hauptplatz",
                "amenity": "bar",
                "contact:mail": "office@murano-bar.at",
                "contact:phone": "+436601987064",
                "name": "Lorenzo's Bar & Lounge",
                "opening_hours": "Tu-Th 11:00-00:00; Fr-Su 11:00-02:00"
              },
              "geometry": {
                "type": "Point",
                "coordinates": [
                  14.6345202,
                  48.2497923
                ]
              }
            },
            {
              "type": "Feature",
              "properties": {
                "id": "2833643622",
                "osm_type": "node",
                "lat": 48.2519872,
                "lon": 14.6429597,
                "addr:city": "Perg",
                "addr:housenumber": "3a",
                "addr:place": "Karlingberg",
                "addr:postcode": "4320",
                "amenity": "bar",
                "name": "K3",
                "smoking": "outside"
              },
              "geometry": {
                "type": "Point",
                "coordinates": [
                  14.6429597,
                  48.2519872
                ]
              }
            }
          ],
          "children": []
        },
        {
          "bbox": {
            "south": 48.190694875,
            "west": 14.77632125,
            "north": 48.355971499999995,
            "east": 15.253173
          },
          "poiCount": 2,
          "leafCount": 2,
          "averagePosition": [
            15.0311081,
            48.2729576
          ],
          "data": [
            {
              "type": "Feature",
              "properties": {
                "id": "7533455678",
                "osm_type": "node",
                "lat": 48.2294597,
                "lon": 14.8629349,
                "amenity": "bar",
                "name": "KIWI"
              },
              "geometry": {
                "type": "Point",
                "coordinates": [
                  14.8629349,
                  48.2294597
                ]
              }
            },
            {
              "type": "Feature",
              "properties": {
                "id": "5752441621",
                "osm_type": "node",
                "lat": 48.3164555,
                "lon": 15.1992813,
                "amenity": "bar",
                "name": "The Highlander"
              },
              "geometry": {
                "type": "Point",
                "coordinates": [
                  15.1992813,
                  48.3164555
                ]
              }
            }
          ],
          "children": []
        }
      ]
    }
  ]
}