{
  "bbox": {
    "south": 47.033758500000005,
    "west": 13.345766,
    "north": 47.694865,
    "east": 15.253173
  },
  "poiCount": 74,
  "leafCount": 0,
  "averagePosition": [
    13.998323704054053,
    47.36160423378379
  ],
  "data": [],
  "children": [
    {
      "bbox": {
        "south": 47.033758500000005,
        "west": 13.345766,
        "north": 47.36431175,
        "east": 14.2994695
      },
      "poiCount": 21,
      "leafCount": 21,
      "averagePosition": [
        13.658871566666667,
        47.22084275714286
      ],
      "data": [
        {
          "type": "Feature",
          "properties": {
            "id": "340123204",
            "osm_type": "node",
            "lat": 47.3548579,
            "lon": 13.3871588,
            "amenity": "bar",
            "name": "Yeti Bar"
          },
          "geometry": {
            "type": "Point",
            "coordinates": [
              13.3871588,
              47.3548579
            ]
          }
        },
        {
          "type": "Feature",
          "properties": {
            "id": "2681807623",
            "osm_type": "node",
            "lat": 47.2942122,
            "lon": 13.3990349,
            "amenity": "bar",
            "name": "Seilbar"
          },
          "geometry": {
            "type": "Point",
            "coordinates": [
              13.3990349,
              47.2942122
            ]
          }
        },
        {
          "type": "Feature",
          "properties": {
            "id": "2684259340",
            "osm_type": "node",
            "lat": 47.3529983,
            "lon": 13.3860703,
            "amenity": "bar",
            "name": "Fliegenpilz"
          },
          "geometry": {
            "type": "Point",
            "coordinates": [
              13.3860703,
              47.3529983
            ]
          }
        },
        {
          "type": "Feature",
          "properties": {
            "id": "3269505100",
            "osm_type": "node",
            "lat": 47.2933279,
            "lon": 13.4565246,
            "addr:city": "Altenmarkt im Pongau",
            "addr:country": "AT",
            "addr:housenumber": "12",
            "addr:postcode": "5541",
            "addr:street": "Zauchensee",
            "amenity": "bar",
            "check_date:opening_hours": "2025-07-27",
            "description": "Disco mit Kegelbahn",
            "name": "Almbar",
            "opening_hours": "21:00-03:00",
            "operator": "Hotel Zauchenseehof"
          },
          "geometry": {
            "type": "Point",
            "coordinates": [
              13.4565246,
              47.2933279
            ]
          }
        },
        {
          "type": "Feature",
          "properties": {
            "id": "5221263398",
            "osm_type": "node",
            "lat": 47.2936357,
            "lon": 13.4557941,
            "addr:city": "Altenmarkt im Pongau",
            "addr:country": "AT",
            "addr:housenumber": "16",
            "addr:postcode": "5541",
            "addr:street": "Zauchensee",
            "amenity": "bar",
            "brewery": "various",
            "description": "Schirmbar Zauchensee der Familie Walchhofer - täglich geöffnet ab 11 Uhr Après Ski ab 16 Uhr",
            "name": "Schirmbar Zauchensee",
            "opening_hours": "Mo-Su 11:00-19:00",
            "operator": "Zauchensee Walchhofer GmbH",
            "phone": "+43 6452 4090",
            "smoking": "yes",
            "website": "https://www.walchhofer.at/"
          },
          "geometry": {
            "type": "Point",
            "coordinates": [
              13.4557941,
              47.2936357
            ]
          }
        },
        {
          "type": "Feature",
          "properties": {
            "id": "1051317110",
            "osm_type": "node",
            "lat": 47.358619,
            "lon": 13.589125,
            "addr:country": "AT",
            "amenity": "bar",
            "name": "Almbar",
            "website": "http://www.kuhstall-almbar.at/"
          },
          "geometry": {
            "type": "Point",
            "coordinates": [
              13.589125,
              47.358619
            ]
          }
        },
        {
          "type": "Feature",
          "properties": {
            "id": "1143463098",
            "osm_type": "node",
            "lat": 47.2495979,
            "lon": 13.5547641,
            "amenity": "bar",
            "contact:website": "https://www.gruberstadl.at/die-qubar.html",
            "name": "QuBar",
            "opening_hours": "14:00+"
          },
          "geometry": {
            "type": "Point",
            "coordinates": [
              13.5547641,
              47.2495979
            ]
          }
        },
        {
          "type": "Feature",
          "properties": {
            "id": "2074685423",
            "osm_type": "node",
            "lat": 47.0806959,
            "lon": 13.6890839,
            "addr:city": "Sankt Margarethen im Lungau",
            "addr:housenumber": "255",
            "addr:postcode": "5581",
            "addr:street": "Liftstraße",
            "amenity": "bar",
            "name": "ChrizzlyBar",
            "website": "https://www.grizzly-resort.at/hotel/schirmbar/"
          },
          "geometry": {
            "type": "Point",
            "coordinates": [
              13.6890839,
              47.0806959
            ]
          }
        },
        {
          "type": "Feature",
          "properties": {
            "id": "2171142659",
            "osm_type": "node",
            "lat": 47.3595439,
            "lon": 13.5946326,
            "amenity": "bar",
            "description": "Schirmbar",
            "name": "Schneebar"
          },
          "geometry": {
            "type": "Point",
            "coordinates": [
              13.5946326,
              47.3595439
            ]
          }
        },
        {
          "type": "Feature",
          "properties": {
            "id": "2656175860",
            "osm_type": "node",
            "lat": 47.1336999,
            "lon": 13.6828954,
            "amenity": "bar",
            "name": "Salettl",
            "operator": "Hotel-Gasthof Weitgasser"
          },
          "geometry": {
            "type": "Point",
            "coordinates": [
              13.6828954,
              47.1336999
            ]
          }
        },
        {
          "type": "Feature",
          "properties": {
            "id": "2657802405",
            "osm_type": "node",
            "lat": 47.1417574,
            "lon": 13.662349,
            "amenity": "bar",
            "name": "Fliegenpilz"
          },
          "geometry": {
            "type": "Point",
            "coordinates": [
              13.662349,
              47.1417574
            ]
          }
        },
        {
          "type": "Feature",
          "properties": {
            "id": "9044773583",
            "osm_type": "node",
            "lat": 47.1262038,
            "lon": 13.8100773,
            "amenity": "bar",
            "name": "Kenn i di"
          },
          "geometry": {
            "type": "Point",
            "coordinates": [
              13.8100773,
              47.1262038
            ]
          }
        },
        {
          "type": "Feature",
          "properties": {
            "id": "9051462914",
            "osm_type": "node",
            "lat": 47.1256456,
            "lon": 13.8104783,
            "addr:city": "Tamsweg",
            "addr:housenumber": "7",
            "addr:postcode": "5580",
            "addr:street": "Marktplatz",
            "amenity": "bar",
            "name": "AXEL",
            "operator": "Axel Martin Feeberger"
          },
          "geometry": {
            "type": "Point",
            "coordinates": [
              13.8104783,
              47.1256456
            ]
          }
        },
        {
          "type": "Feature",
          "properties": {
            "id": "9383613263",
            "osm_type": "node",
            "lat": 47.0591474,
            "lon": 13.614141,
            "addr:city": "Sankt Michael im Lungau",
            "addr:housenumber": "422",
            "addr:place": "Katschberg",
            "addr:postcode": "5582",
            "amenity": "bar",
            "description": "Schirmbar",
            "diet:vegetarian": "yes",
            "name": "Almkessel",
            "opening_hours": "Mo-Su 15:00-22:00",
            "phone": "+43 699 10252050",
            "website": "https://almkessel.business.site/"
          },
          "geometry": {
            "type": "Point",
            "coordinates": [
              13.614141,
              47.0591474
            ]
          }
        },
        {
          "type": "Feature",
          "properties": {
            "id": "10771767663",
            "osm_type": "node",
            "lat": 47.2507944,
            "lon": 13.5514146,
            "addr:city": "Obertauern",
            "addr:country": "AT",
            "addr:housenumber": "41",
            "addr:postcode": "5562",
            "addr:street": "Römerstraße",
            "amenity": "bar",
            "contact:email": "reservierung@roemerbar.at",
            "contact:facebook": "roemerbar",
            "contact:phone": "+43645672380",
            "contact:website": "https://roemerbar.at",
            "name": "Römerbar",
            "opening_hours": "20:00-01:00; Tu 00:00-01:00"
          },
          "geometry": {
            "type": "Point",
            "coordinates": [
              13.5514146,
              47.2507944
            ]
          }
        },
        {
          "type": "Feature",
          "properties": {
            "id": "10771807004",
            "osm_type": "node",
            "lat": 47.2496109,
            "lon": 13.554646,
            "alt_name": "Snowwhite Schirm",
            "amenity": "bar",
            "contact:website": "https://www.weltcupschirm.at/",
            "name": "Weltcup Schirm",
            "opening_hours": "14:00+"
          },
          "geometry": {
            "type": "Point",
            "coordinates": [
              13.554646,
              47.2496109
            ]
          }
        },
        {
          "type": "Feature",
          "properties": {
            "id": "10776515413",
            "osm_type": "node",
            "lat": 47.2479255,
            "lon": 13.5623375,
            "addr:city": "Tweng",
            "addr:country": "AT",
            "addr:housenumber": "53",
            "addr:postcode": "5562",
            "addr:street": "Ringstraße",
            "amenity": "bar",
            "contact:email": "hotel-lue@luerzer.at",
            "contact:facebook": "https://www.facebook.com/profile.php?id=100086318022958",
            "contact:phone": "+4364567662",
            "contact:website": "https://www.lü.at/",
            "name": "LÜ Genuss in der Mitte",
            "opening_hours": "17:00-24:00"
          },
          "geometry": {
            "type": "Point",
            "coordinates": [
              13.5623375,
              47.2479255
            ]
          }
        },
        {
          "type": "Feature",
          "properties": {
            "id": "10782788380",
            "osm_type": "node",
            "lat": 47.2525773,
            "lon": 13.5410958,
            "amenity": "bar",
            "contact:website": "https://www.flubachalm.at/apres-ski",
            "name": "Après Ski-Bar"
          },
          "geometry": {
            "type": "Point",
            "coordinates": [
              13.5410958,
              47.2525773
            ]
          }
        },
        {
          "type": "Feature",
          "properties": {
            "id": "1989691687",
            "osm_type": "node",
            "lat": 47.0983495,
            "lon": 14.0862362,
            "addr:city": "Sankt Georgen am Kreischberg",
            "addr:country": "AT",
            "addr:housenumber": "3",
            "addr:place": "Kreischberg",
            "addr:postcode": "8861",
            "amenity": "bar",
            "at_bev:addr_date": "2019-10-01",
            "name": "Kastanienbar",
            "website": "http://www.kastanienbar.at"
          },
          "geometry": {
            "type": "Point",
            "coordinates": [
              14.0862362,
              47.0983495
            ]
          }
        },
        {
          "type": "Feature",
          "properties": {
            "id": "2313456666",
            "osm_type": "node",
            "lat": 47.1107032,
            "lon": 14.167142,
            "addr:city": "Murau",
            "addr:housenumber": "34",
            "addr:postcode": "8850",
            "addr:street": "Anna-Neumann-Straße",
            "amenity": "bar",
            "brand": "Murauer Bier",
            "brewery": "Murauer Bier",
            "contact:email": "bierapotheke@murauerbier.at",
            "contact:phone": "+43 664 88 43 58 49",
            "level": "0",
            "name": "Bier-Apotheke",
            "old_name": "Apotheke Zum Salvator",
            "opening_hours": "Jun-Sep: Mo-Sa 14:00-22:00; Oct-May: Mo-Sa 16:00-22:00",
            "was:amenity": "pharmacy",
            "website": "https://www.murauerbier.at/bierapotheke/"
          },
          "geometry": {
            "type": "Point",
            "coordinates": [
              14.167142,
              47.1107032
            ]
          }
        },
        {
          "type": "Feature",
          "properties": {
            "id": "2922004705",
            "osm_type": "node",
            "lat": 47.2037943,
            "lon": 14.2813015,
            "amenity": "bar",
            "name": "Alstadtcafe Bernhard Brunner"
          },
          "geometry": {
            "type": "Point",
            "coordinates": [
              14.2813015,
              47.2037943
            ]
          }
        }
      ],
      "children": []
    },
    {
      "bbox": {
        "south": 47.033758500000005,
        "west": 14.2994695,
        "north": 47.36431175,
        "east": 15.253173
      },
      "poiCount": 10,
      "leafCount": 10,
      "averagePosition": [
        14.87126924,
        47.15498241
      ],
      "data": [
        {
          "type": "Feature",
          "properties": {
            "id": "2040941611",
            "osm_type": "node",
            "lat": 47.2153763,
            "lon": 14.8271415,
            "addr:city": "Knittefeld",
            "addr:country": "AT",
            "addr:district": "Murtal",
            "addr:housenumber": "6",
            "addr:postcode": "8720",
            "addr:street": "Kapuzinerplatz",
            "amenity": "bar",
            "name": "Kapuzini",
            "opening_hours": "Mo-Th 07:30-22:00; Fr 07:30-24:00; Sa 08:30-24:00"
          },
          "geometry": {
            "type": "Point",
            "coordinates": [
              14.8271415,
              47.2153763
            ]
          }
        },
        {
          "type": "Feature",
          "properties": {
            "id": "2040941659",
            "osm_type": "node",
            "lat": 47.2157385,
            "lon": 14.827304,
            "amenity": "bar",
            "name": "Turm"
          },
          "geometry": {
            "type": "Point",
            "coordinates": [
              14.827304,
              47.2157385
            ]
          }
        },
        {
          "type": "Feature",
          "properties": {
            "id": "2130642727",
            "osm_type": "node",
            "lat": 47.167434,
            "lon": 14.6602406,
            "addr:city": "Judenburg",
            "addr:country": "AT",
            "addr:housenumber": "5",
            "addr:postcode": "8750",
            "addr:street": "Burggasse",
            "amenity": "bar",
            "name": "Mojito Cuban-Bar",
            "opening_hours": "We-Sa 18:00+",
            "wifi": "no"
          },
          "geometry": {
            "type": "Point",
            "coordinates": [
              14.6602406,
              47.167434
            ]
          }
        },
        {
          "type": "Feature",
          "properties": {
            "id": "5462726138",
            "osm_type": "node",
            "lat": 47.1851572,
            "lon": 14.6860117,
            "addr:city": "Fohnsdorf",
            "addr:country": "AT",
            "addr:housenumber": "16",
            "addr:postcode": "8753",
            "addr:street": "Arena am Waldfeld",
            "amenity": "bar",
            "contact:facebook": "https://www.facebook.com/Huqqa-Bar-Fohnsdorf-110736743616267/",
            "level": "1",
            "name": "HUQQA",
            "phone": "+43 660 1023558"
          },
          "geometry": {
            "type": "Point",
            "coordinates": [
              14.6860117,
              47.1851572
            ]
          }
        },
        {
          "type": "Feature",
          "properties": {
            "id": "5596295978",
            "osm_type": "node",
            "lat": 47.1675249,
            "lon": 14.6604449,
            "amenity": "bar",
            "name": "Ludwig B3",
            "opening_hours": "Fr,Sa 00:00-05:00,19:00-24:00",
            "website": "https://www.facebook.com/pg/LudwigB3/about/?ref=page_internal"
          },
          "geometry": {
            "type": "Point",
            "coordinates": [
              14.6604449,
              47.1675249
            ]
          }
        },
        {
          "type": "Feature",
          "properties": {
            "id": "5621542606",
            "osm_type": "node",
            "lat": 47.2147849,
            "lon": 14.8309019,
            "amenity": "bar",
            "contact:mobile": "+43 676 4870 183",
            "name": "London Inn",
            "opening_hours": "We, Th 16:00-24:00; Fr, Sa 18:00-05:00"
          },
          "geometry": {
            "type": "Point",
            "coordinates": [
              14.8309019,
              47.2147849
            ]
          }
        },
        {
          "type": "Feature",
          "properties": {
            "id": "5631920972",
            "osm_type": "node",
            "lat": 47.2141646,
            "lon": 14.8305613,
            "addr:city": "Knittelfeld",
            "addr:country": "AT",
            "addr:district": "Murtal",
            "addr:housenumber": "6",
            "addr:postcode": "8720",
            "addr:street": "Theodor-Körner-Gasse",
            "amenity": "bar",
            "name": "Chicago Lounge&Bar",
            "website": "https://de-de.facebook.com/pg/Chicago-LoungeBar-614185488738831/about/?ref=page_internal"
          },
          "geometry": {
            "type": "Point",
            "coordinates": [
              14.8305613,
              47.2141646
            ]
          }
        },
        {
          "type": "Feature",
          "properties": {
            "id": "3361721602",
            "osm_type": "node",
            "lat": 47.0489406,
            "lon": 15.1517928,
            "addr:city": "Voitsberg",
            "addr:country": "AT",
            "addr:housenumber": "43",
            "addr:postcode": "8570",
            "addr:street": "Hauptplatz",
            "amenity": "bar",
            "name": "Da Nussi",
            "website": "http://www.danussi.at"
          },
          "geometry": {
            "type": "Point",
            "coordinates": [
              15.1517928,
              47.0489406
            ]
          }
        },
        {
          "type": "Feature",
          "properties": {
            "id": "3750231914",
            "osm_type": "node",
            "lat": 47.0542577,
            "lon": 15.1582755,
            "amenity": "bar"
          },
          "geometry": {
            "type": "Point",
            "coordinates": [
              15.1582755,
              47.0542577
            ]
          }
        },
        {
          "type": "Feature",
          "properties": {
            "id": "11279783976",
            "osm_type": "node",
            "lat": 47.0664454,
            "lon": 15.0800182,
            "amenity": "bar",
            "name": "Fluterwirt"
          },
          "geometry": {
            "type": "Point",
            "coordinates": [
              15.0800182,
              47.0664454
            ]
          }
        }
      ],
      "children": []
    },
    {
      "bbox": {
        "south": 47.36431175,
        "west": 13.345766,
        "north": 47.694865,
        "east": 14.2994695
      },
      "poiCount": 34,
      "leafCount": 34,
      "averagePosition": [
        13.700090467647058,
        47.48449552941176
      ],
      "data": [
        {
          "type": "Feature",
          "properties": {
            "id": "495351472",
            "osm_type": "node",
            "lat": 47.4330466,
            "lon": 13.5224936,
            "amenity": "bar",
            "name": "kalahari"
          },
          "geometry": {
            "type": "Point",
            "coordinates": [
              13.5224936,
              47.4330466
            ]
          }
        },
        {
          "type": "Feature",
          "properties": {
            "id": "582913370",
            "osm_type": "node",
            "lat": 47.5685298,
            "lon": 13.5174265,
            "amenity": "bar",
            "name": "Schirmbar",
            "note": "nur Winterbetrieb",
            "operator": "Gosauschmied"
          },
          "geometry": {
            "type": "Point",
            "coordinates": [
              13.5174265,
              47.5685298
            ]
          }
        },
        {
          "type": "Feature",
          "properties": {
            "id": "604246332",
            "osm_type": "node",
            "lat": 47.5685437,
            "lon": 13.4788317,
            "amenity": "bar",
            "name": "Schirmbar"
          },
          "geometry": {
            "type": "Point",
            "coordinates": [
              13.4788317,
              47.5685437
            ]
          }
        },
        {
          "type": "Feature",
          "properties": {
            "id": "667357263",
            "osm_type": "node",
            "lat": 47.54305,
            "lon": 13.4846742,
            "amenity": "bar",
            "name": "Schirmbar",
            "opening_hours": "\"only winter\""
          },
          "geometry": {
            "type": "Point",
            "coordinates": [
              13.4846742,
              47.54305
            ]
          }
        },
        {
          "type": "Feature",
          "properties": {
            "id": "3380408110",
            "osm_type": "node",
            "lat": 47.462793,
            "lon": 13.3811825,
            "addr:city": "Sankt Martin am Tennengebirge",
            "addr:country": "AT",
            "addr:housenumber": "6",
            "addr:postcode": "5522",
            "addr:street": "Dorfstraße",
            "amenity": "bar",
            "at_bev:addr_date": "2017-10-01",
            "name": "Königsbar"
          },
          "geometry": {
            "type": "Point",
            "coordinates": [
              13.3811825,
              47.462793
            ]
          }
        },
        {
          "type": "Feature",
          "properties": {
            "id": "3871520130",
            "osm_type": "node",
            "lat": 47.5928599,
            "lon": 13.4670213,
            "amenity": "bar",
            "name": "Salute",
            "operator": "Helmut Reschreiter",
            "smoking": "isolated"
          },
          "geometry": {
            "type": "Point",
            "coordinates": [
              13.4670213,
              47.5928599
            ]
          }
        },
        {
          "type": "Feature",
          "properties": {
            "id": "4337045089",
            "osm_type": "node",
            "lat": 47.432059,
            "lon": 13.5223934,
            "addr:city": "Filzmoos",
            "addr:country": "AT",
            "addr:housenumber": "10",
            "addr:postcode": "5532",
            "addr:street": "Gemeindestraße",
            "amenity": "bar",
            "cuisine": "austrian",
            "name": "Alm Stadl Après Ski Bar",
            "opening_hours": "Mo-Su 11:00-23:00",
            "phone": "+436642027571"
          },
          "geometry": {
            "type": "Point",
            "coordinates": [
              13.5223934,
              47.432059
            ]
          }
        },
        {
          "type": "Feature",
          "properties": {
            "id": "4486045148",
            "osm_type": "node",
            "lat": 47.5623897,
            "lon": 13.3485955,
            "amenity": "bar",
            "name": "Discothek Black Lemon",
            "opening_hours": "We-Su 21:00-03:30; Mo-Tu",
            "phone": "0664 / 91 87 438",
            "website": "https://www.facebook.com/Black-Lemon-Die-Bar-in-Abtenau-836618233051342/?fref=ts",
            "wheelchair": "no"
          },
          "geometry": {
            "type": "Point",
            "coordinates": [
              13.3485955,
              47.5623897
            ]
          }
        },
        {
          "type": "Feature",
          "properties": {
            "id": "6270541996",
            "osm_type": "node",
            "lat": 47.4067641,
            "lon": 13.3956089,
            "amenity": "bar",
            "name": "Loopy"
          },
          "geometry": {
            "type": "Point",
            "coordinates": [
              13.3956089,
              47.4067641
            ]
          }
        },
        {
          "type": "Feature",
          "properties": {
            "id": "874150767",
            "osm_type": "node",
            "lat": 47.3833166,
            "lon": 13.6690194,
            "addr:housename": "Rohrmooser Erlebniswelt",
            "addr:postcode": "8971",
            "addr:street": "Rohrmooserstraße",
            "amenity": "bar",
            "name": "Pfitschigogerl"
          },
          "geometry": {
            "type": "Point",
            "coordinates": [
              13.6690194,
              47.3833166
            ]
          }
        },
        {
          "type": "Feature",
          "properties": {
            "id": "1044741589",
            "osm_type": "node",
            "lat": 47.4176332,
            "lon": 13.6533598,
            "addr:city": "Ramsau am Dachstein",
            "addr:housenumber": "91",
            "addr:postcode": "8972",
            "addr:street": "Ramsau",
            "amenity": "bar",
            "name": "Apre Ski Bar"
          },
          "geometry": {
            "type": "Point",
            "coordinates": [
              13.6533598,
              47.4176332
            ]
          }
        },
        {
          "type": "Feature",
          "properties": {
            "id": "1044923911",
            "osm_type": "node",
            "lat": 47.3920266,
            "lon": 13.6899671,
            "amenity": "bar",
            "name": "Bar Johann",
            "outdoor_seating": "yes"
          },
          "geometry": {
            "type": "Point",
            "coordinates": [
              13.6899671,
              47.3920266
            ]
          }
        },
        {
          "type": "Feature",
          "properties": {
            "id": "1044924197",
            "osm_type": "node",
            "lat": 47.3911492,
            "lon": 13.689121,
            "amenity": "bar",
            "name": "Szenario",
            "opening_hours": "20:00+"
          },
          "geometry": {
            "type": "Point",
            "coordinates": [
              13.689121,
              47.3911492
            ]
          }
        },
        {
          "type": "Feature",
          "properties": {
            "id": "1044942426",
            "osm_type": "node",
            "lat": 47.392577,
            "lon": 13.6884891,
            "addr:city": "Schladming",
            "addr:housenumber": "268",
            "addr:postcode": "8970",
            "addr:street": "Siedergasse",
            "amenity": "bar",
            "name": "Friends Cafe & Bar"
          },
          "geometry": {
            "type": "Point",
            "coordinates": [
              13.6884891,
              47.392577
            ]
          }
        },
        {
          "type": "Feature",
          "properties": {
            "id": "1394274624",
            "osm_type": "node",
            "lat": 47.3898247,
            "lon": 13.6115919,
            "amenity": "bar",
            "layer": "-1"
          },
          "geometry": {
            "type": "Point",
            "coordinates": [
              13.6115919,
              47.3898247
            ]
          }
        },
        {
          "type": "Feature",
          "properties": {
            "id": "1649578364",
            "osm_type": "node",
            "lat": 47.3862079,
            "lon": 13.6130679,
            "amenity": "bar",
            "name": "Andi's Schirmbar"
          },
          "geometry": {
            "type": "Point",
            "coordinates": [
              13.6130679,
              47.3862079
            ]
          }
        },
        {
          "type": "Feature",
          "properties": {
            "id": "1659031613",
            "osm_type": "node",
            "lat": 47.56388,
            "lon": 14.0129198,
            "amenity": "bar",
            "name": "Schirmbar",
            "smoking": "yes",
            "source": "survey"
          },
          "geometry": {
            "type": "Point",
            "coordinates": [
              14.0129198,
              47.56388
            ]
          }
        },
        {
          "type": "Feature",
          "properties": {
            "id": "2091954451",
            "osm_type": "node",
            "lat": 47.5570111,
            "lon": 13.6884186,
            "amenity": "bar",
            "name": "Haifischbar"
          },
          "geometry": {
            "type": "Point",
            "coordinates": [
              13.6884186,
              47.5570111
            ]
          }
        },
        {
          "type": "Feature",
          "properties": {
            "id": "2171142752",
            "osm_type": "node",
            "lat": 47.3883744,
            "lon": 13.5983322,
            "amenity": "bar",
            "contact:phone": "+43 6454 20107",
            "name": "Mühlstodl",
            "old_name": "Kuhstall",
            "source": "survey",
            "website": "https://www.muehlstodl.at/de/impressum.html#inhalt"
          },
          "geometry": {
            "type": "Point",
            "coordinates": [
              13.5983322,
              47.3883744
            ]
          }
        },
        {
          "type": "Feature",
          "properties": {
            "id": "3716641854",
            "osm_type": "node",
            "lat": 47.5481448,
            "lon": 13.7053649,
            "amenity": "bar"
          },
          "geometry": {
            "type": "Point",
            "coordinates": [
              13.7053649,
              47.5481448
            ]
          }
        },
        {
          "type": "Feature",
          "properties": {
            "id": "4340472152",
            "osm_type": "node",
            "lat": 47.392211,
            "lon": 13.6892265,
            "amenity": "bar",
            "name": "Stadtheuriger"
          },
          "geometry": {
            "type": "Point",
            "coordinates": [
              13.6892265,
              47.392211
            ]
          }
        },
        {
          "type": "Feature",
          "properties": {
            "id": "4444479789",
            "osm_type": "node",
            "lat": 47.6162696,
            "lon": 13.6349105,
            "amenity": "bar",
            "name": "Metzgerwirt Vieh Heli"
          },
          "geometry": {
            "type": "Point",
            "coordinates": [
              13.6349105,
              47.6162696
            ]
          }
        },
        {
          "type": "Feature",
          "properties": {
            "id": "5874219309",
            "osm_type": "node",
            "lat": 47.4104496,
            "lon": 13.7685835,
            "addr:city": "Haus",
            "addr:country": "AT",
            "addr:housenumber": "189",
            "addr:postcode": "8967",
            "addr:street": "Schloßplatz",
            "amenity": "bar",
            "at_bev:addr_date": "2018-04-02",
            "name": "La Vino",
            "opening_hours": "Tu-Sa 20:00+"
          },
          "geometry": {
            "type": "Point",
            "coordinates": [
              13.7685835,
              47.4104496
            ]
          }
        },
        {
          "type": "Feature",
          "properties": {
            "id": "7851327828",
            "osm_type": "node",
            "lat": 47.5669738,
            "lon": 13.6215314,
            "amenity": "bar",
            "name:en": "Self-service bar",
            "outdoor_seating": "yes"
          },
          "geometry": {
            "type": "Point",
            "coordinates": [
              13.6215314,
              47.5669738
            ]
          }
        },
        {
          "type": "Feature",
          "properties": {
            "id": "8584863736",
            "osm_type": "node",
            "lat": 47.6519255,
            "lon": 13.611958,
            "amenity": "bar",
            "name": "Elites Kepab"
          },
          "geometry": {
            "type": "Point",
            "coordinates": [
              13.611958,
              47.6519255
            ]
          }
        },
        {
          "type": "Feature",
          "properties": {
            "id": "9552071825",
            "osm_type": "node",
            "lat": 47.6609072,
            "lon": 13.7450774,
            "addr:city": "Altaussee",
            "addr:housenumber": "94",
            "addr:postcode": "8992",
            "addr:street": "Lichtersberg",
            "amenity": "bar",
            "email": "WIRT@ALPENSTUBN.AT",
            "name": "Alpen Tenn Apre Ski",
            "operator": "Alpen Stub'n",
            "outdoor_seating": "yes",
            "phone": "03622 72323410",
            "website": "https://www.alpenstubn.at/index.php/alpentenn"
          },
          "geometry": {
            "type": "Point",
            "coordinates": [
              13.7450774,
              47.6609072
            ]
          }
        },
        {
          "type": "Feature",
          "properties": {
            "id": "10561865244",
            "osm_type": "node",
            "lat": 47.443931,
            "lon": 13.9020912,
            "amenity": "bar",
            "indoor_seating": "yes",
            "name": "Fournier",
            "opening_hours": "Tu-Th 18:00-00:00, Fr-Sa 18:00-02:00",
            "outdoor_seating": "yes"
          },
          "geometry": {
            "type": "Point",
            "coordinates": [
              13.9020912,
              47.443931
            ]
          }
        },
        {
          "type": "Feature",
          "properties": {
            "id": "12014915404",
            "osm_type": "node",
            "lat": 47.5666899,
            "lon": 13.6254395,
            "amenity": "bar",
            "name": "Waldbar"
          },
          "geometry": {
            "type": "Point",
            "coordinates": [
              13.6254395,
              47.5666899
            ]
          }
        },
        {
          "type": "Feature",
          "properties": {
            "id": "12402597905",
            "osm_type": "node",
            "lat": 47.3919757,
            "lon": 13.6897393,
            "amenity": "bar",
            "name": "Café Niederl",
            "outdoor_seating": "yes"
          },
          "geometry": {
            "type": "Point",
            "coordinates": [
              13.6897393,
              47.3919757
            ]
          }
        },
        {
          "type": "Feature",
          "properties": {
            "id": "1648893241",
            "osm_type": "node",
            "lat": 47.375749,
            "lon": 14.1194263,
            "amenity": "bar",
            "name": "Edelweiss",
            "opening_hours": "Fr-Tu 12:00-20:00",
            "source": "survey"
          },
          "geometry": {
            "type": "Point",
            "coordinates": [
              14.1194263,
              47.375749
            ]
          }
        },
        {
          "type": "Feature",
          "properties": {
            "id": "4796384156",
            "osm_type": "node",
            "lat": 47.4054632,
            "lon": 14.1989712,
            "amenity": "bar",
            "name": "The Rock",
            "website": "http://www.gstemmerblick.at/bar.htm",
            "wheelchair": "no"
          },
          "geometry": {
            "type": "Point",
            "coordinates": [
              14.1989712,
              47.4054632
            ]
          }
        },
        {
          "type": "Feature",
          "properties": {
            "id": "6954121578",
            "osm_type": "node",
            "lat": 47.5688667,
            "lon": 14.2434124,
            "addr:city": "Liezen",
            "addr:country": "AT",
            "addr:housenumber": "1",
            "addr:postcode": "8940",
            "addr:street": "Hauptstraße",
            "amenity": "bar",
            "name": "Papperla Pub"
          },
          "geometry": {
            "type": "Point",
            "coordinates": [
              14.2434124,
              47.5688667
            ]
          }
        },
        {
          "type": "Feature",
          "properties": {
            "id": "7357674655",
            "osm_type": "node",
            "lat": 47.5062247,
            "lon": 14.1054395,
            "amenity": "bar",
            "brewery": "Gösser",
            "name": "Finkenkeller"
          },
          "geometry": {
            "type": "Point",
            "coordinates": [
              14.1054395,
              47.5062247
            ]
          }
        },
        {
          "type": "Feature",
          "properties": {
            "id": "9929943674",
            "osm_type": "node",
            "lat": 47.5350298,
            "lon": 14.1093899,
            "amenity": "bar",
            "name": "Schirmbar",
            "opening_hours": "May 20-Aug 31:Mo-Su 09:00-19:00"
          },
          "geometry": {
            "type": "Point",
            "coordinates": [
              14.1093899,
              47.5350298
            ]
          }
        }
      ],
      "children": []
    },
    {
      "bbox": {
        "south": 47.36431175,
        "west": 14.2994695,
        "north": 47.694865,
        "east": 15.253173
      },
      "poiCount": 9,
      "leafCount": 9,
      "averagePosition": [
        14.947098099999998,
        47.45537147777778
      ],
      "data": [
        {
          "type": "Feature",
          "properties": {
            "id": "11017797329",
            "osm_type": "node",
            "lat": 47.5811039,
            "lon": 14.459082,
            "amenity": "bar",
            "name": "Graue Banane"
          },
          "geometry": {
            "type": "Point",
            "coordinates": [
              14.459082,
              47.5811039
            ]
          }
        },
        {
          "type": "Feature",
          "properties": {
            "id": "1344333035",
            "osm_type": "node",
            "lat": 47.541128,
            "lon": 14.8879416,
            "addr:city": "Eisenerz",
            "addr:country": "AT",
            "addr:housenumber": "4",
            "addr:postcode": "8790",
            "addr:street": "Dr.-Karl-Renner-Straße",
            "amenity": "bar",
            "name": "Feel"
          },
          "geometry": {
            "type": "Point",
            "coordinates": [
              14.8879416,
              47.541128
            ]
          }
        },
        {
          "type": "Feature",
          "properties": {
            "id": "11595437622",
            "osm_type": "node",
            "lat": 47.6887185,
            "lon": 14.6157673,
            "addr:city": "Sankt Gallen",
            "addr:country": "AT",
            "addr:housenumber": "181",
            "addr:place": "Oberer Markt",
            "addr:postcode": "8933",
            "amenity": "bar",
            "name": "Buchstoa Bar"
          },
          "geometry": {
            "type": "Point",
            "coordinates": [
              14.6157673,
              47.6887185
            ]
          }
        },
        {
          "type": "Feature",
          "properties": {
            "id": "840572552",
            "osm_type": "node",
            "lat": 47.3813092,
            "lon": 15.0957925,
            "amenity": "bar"
          },
          "geometry": {
            "type": "Point",
            "coordinates": [
              15.0957925,
              47.3813092
            ]
          }
        },
        {
          "type": "Feature",
          "properties": {
            "id": "840572728",
            "osm_type": "node",
            "lat": 47.3820001,
            "lon": 15.0930865,
            "amenity": "bar",
            "name": "Cocktailbar",
            "wheelchair": "no"
          },
          "geometry": {
            "type": "Point",
            "coordinates": [
              15.0930865,
              47.3820001
            ]
          }
        },
        {
          "type": "Feature",
          "properties": {
            "id": "845987208",
            "osm_type": "node",
            "lat": 47.3793236,
            "lon": 15.0931712,
            "addr:housenumber": "1",
            "addr:postcode": "8700",
            "addr:street": "Zellergasse",
            "amenity": "bar",
            "name": "Zellergassl",
            "wifi": "no"
          },
          "geometry": {
            "type": "Point",
            "coordinates": [
              15.0931712,
              47.3793236
            ]
          }
        },
        {
          "type": "Feature",
          "properties": {
            "id": "1432447340",
            "osm_type": "node",
            "lat": 47.3814245,
            "lon": 15.0928266,
            "addr:city": "Leoben",
            "addr:country": "AT",
            "addr:housenumber": "2",
            "addr:postcode": "8700",
            "addr:street": "Peter Tunner-Straße",
            "addr:suburb": "Leoben",
            "amenity": "bar",
            "name": "Shake",
            "opening_hours": "Th-Sa 19:00-24:00+",
            "website": "http://www.bar-shake.at/"
          },
          "geometry": {
            "type": "Point",
            "coordinates": [
              15.0928266,
              47.3814245
            ]
          }
        },
        {
          "type": "Feature",
          "properties": {
            "id": "1951037625",
            "osm_type": "node",
            "lat": 47.381004,
            "lon": 15.0940252,
            "amenity": "bar",
            "name": "Zur alten Post",
            "smoking": "yes",
            "source": "survey"
          },
          "geometry": {
            "type": "Point",
            "coordinates": [
              15.0940252,
              47.381004
            ]
          }
        },
        {
          "type": "Feature",
          "properties": {
            "id": "4677864326",
            "osm_type": "node",
            "lat": 47.3823315,
            "lon": 15.09219,
            "amenity": "bar",
            "level": "0",
            "name": "Stehbeisl",
            "opening_hours": "Mo-Th 16:30-24:00+; Fr 18:00-24:00+"
          },
          "geometry": {
            "type": "Point",
            "coordinates": [
              15.09219,
              47.3823315
            ]
          }
        }
      ],
      "children": []
    }
  ]
}