{
  "bbox": {
    "south": 48.355971499999995,
    "west": 15.253173,
    "north": 49.017078,
    "east": 17.16058
  },
  "poiCount": 91,
  "leafCount": 0,
  "averagePosition": [
    16.41792602087912,
    48.68926642527473
  ],
  "data": [],
  "children": [
    {
      "bbox": {
        "south": 48.355971499999995,
        "west": 15.253173,
        "north": 48.68652475,
        "east": 16.2068765
      },
      "poiCount": 20,
      "leafCount": 20,
      "averagePosition": [
        15.67293973,
        48.433228150000005
      ],
      "data": [
        {
          "type": "Feature",
          "properties": {
            "id": "1800860572",
            "osm_type": "node",
            "lat": 48.3982237,
            "lon": 15.4690709,
            "addr:city": "Weißenkirchen in der Wachau",
            "addr:country": "AT",
            "addr:housenumber": "77",
            "addr:postcode": "3610",
            "addr:street": "Obere Bachgasse",
            "amenity": "bar",
            "name": "Cafe' Au Lait",
            "phone": "+43 664 344 95 86"
          },
          "geometry": {
            "type": "Point",
            "coordinates": [
              15.4690709,
              48.3982237
            ]
          }
        },
        {
          "type": "Feature",
          "properties": {
            "id": "4517140115",
            "osm_type": "node",
            "lat": 48.3976062,
            "lon": 15.4703372,
            "addr:city": "Weißenkirchen in der Wachau",
            "addr:country": "AT",
            "addr:housenumber": "18",
            "addr:postcode": "3610",
            "addr:street": "Kremser Straße",
            "amenity": "bar",
            "name": "Weinbar Bogerl",
            "phone": "+43 660 438 87 10",
            "website": "http://www.dasbogerl.at"
          },
          "geometry": {
            "type": "Point",
            "coordinates": [
              15.4703372,
              48.3976062
            ]
          }
        },
        {
          "type": "Feature",
          "properties": {
            "id": "12777787447",
            "osm_type": "node",
            "lat": 48.3915865,
            "lon": 15.5154587,
            "alt_name": "Standgut",
            "amenity": "bar",
            "contact:email": "hallo@strand-gut.at",
            "contact:facebook": "https://www.facebook.com/profile.php?id=61562378585691",
            "contact:phone": "+43 676 5002903",
            "contact:website": "https://www.strand-gut.at/HOME/",
            "indoor_seating": "yes",
            "name": "Strand Gut",
            "outdoor_seating": "yes"
          },
          "geometry": {
            "type": "Point",
            "coordinates": [
              15.5154587,
              48.3915865
            ]
          }
        },
        {
          "type": "Feature",
          "properties": {
            "id": "822883468",
            "osm_type": "node",
            "lat": 48.4066915,
            "lon": 15.6638814,
            "addr:city": "Krems an der Donau",
            "addr:country": "AT",
            "addr:housenumber": "22",
            "addr:postcode": "3500",
            "addr:street": "Gewerbeparkstraße",
            "amenity": "bar",
            "contact:facebook": "https://www.facebook.com/CinemaLounge/",
            "name": "Cinema Lounge",
            "opening_hours": "Mo-Su 17:00+",
            "website": "https://www.cinemaplexx.at/gastro-nightlife.html"
          },
          "geometry": {
            "type": "Point",
            "coordinates": [
              15.6638814,
              48.4066915
            ]
          }
        },
        {
          "type": "Feature",
          "properties": {
            "id": "918131358",
            "osm_type": "node",
            "lat": 48.4302109,
            "lon": 15.7477691,
            "addr:city": "Kamp",
            "addr:country": "AT",
            "addr:housenumber": "10",
            "addr:place": "Grafenegg",
            "addr:postcode": "3485",
            "alt_name": "Grafenegg Weinlounge im Alten Stierstall",
            "amenity": "bar",
            "drink:wine": "yes",
            "name": "Grafenegg Weinlounge",
            "operator": "LH Media & Gastronomie GmbH",
            "outdoor_seating": "yes",
            "website": "https://www.grafenegg-weinlounge.at/"
          },
          "geometry": {
            "type": "Point",
            "coordinates": [
              15.7477691,
              48.4302109
            ]
          }
        },
        {
          "type": "Feature",
          "properties": {
            "id": "1992169309",
            "osm_type": "node",
            "lat": 48.4020314,
            "lon": 15.5830562,
            "addr:city": "Krems an der Donau",
            "addr:country": "AT",
            "addr:housenumber": "56",
            "addr:postcode": "3500",
            "addr:street": "Steiner Donaulände",
            "amenity": "bar",
            "brewery": "yes",
            "cuisine": "regional",
            "email": "info@weinstein.at",
            "name": "Weinstein",
            "opening_hours": "Mo-Sa 17:00+",
            "outdoor_seating": "yes",
            "phone": "+43 664 130 03 31",
            "website": "https://www.weinstein.at/"
          },
          "geometry": {
            "type": "Point",
            "coordinates": [
              15.5830562,
              48.4020314
            ]
          }
        },
        {
          "type": "Feature",
          "properties": {
            "id": "5028874674",
            "osm_type": "node",
            "lat": 48.4121319,
            "lon": 15.6015811,
            "addr:city": "Krems an der Donau",
            "addr:country": "AT",
            "addr:housenumber": "12",
            "addr:postcode": "3500",
            "addr:street": "Hoher Markt",
            "amenity": "bar",
            "min_age": "18",
            "name": "Q-Stall Krems",
            "opening_hours": "We-Sa 22:00+",
            "phone": "+43 2732 867 55",
            "smoking": "outside",
            "website": "https://www.q-stall.at/"
          },
          "geometry": {
            "type": "Point",
            "coordinates": [
              15.6015811,
              48.4121319
            ]
          }
        },
        {
          "type": "Feature",
          "properties": {
            "id": "5030403700",
            "osm_type": "node",
            "lat": 48.411986,
            "lon": 15.6014923,
            "addr:city": "Krems an der Donau",
            "addr:country": "AT",
            "addr:housenumber": "11",
            "addr:postcode": "3500",
            "addr:street": "Margarethenstraße",
            "amenity": "bar",
            "name": "Quba Krems",
            "opening_hours": "We-Sa 20:00-04:00",
            "phone": "+43 2732 867 55",
            "smoking": "outside",
            "website": "https://www.quba.at/"
          },
          "geometry": {
            "type": "Point",
            "coordinates": [
              15.6014923,
              48.411986
            ]
          }
        },
        {
          "type": "Feature",
          "properties": {
            "id": "5153820239",
            "osm_type": "node",
            "lat": 48.3807616,
            "lon": 15.6412786,
            "addr:city": "Thallern",
            "addr:country": "AT",
            "addr:postcode": "3506",
            "addr:street": "Schweren-Zapfen-Weg",
            "amenity": "bar",
            "email": "winzerhof@dockner.at",
            "name": "Sektmanufaktur am Kremser Frauengrund",
            "operator": "Winzerhof Dockner",
            "outdoor_seating": "yes",
            "phone": "+43 2736 7262",
            "website": "https://www.dockner.at/"
          },
          "geometry": {
            "type": "Point",
            "coordinates": [
              15.6412786,
              48.3807616
            ]
          }
        },
        {
          "type": "Feature",
          "properties": {
            "id": "5173426995",
            "osm_type": "node",
            "lat": 48.4091757,
            "lon": 15.5965114,
            "addr:city": "Krems an der Donau",
            "addr:country": "AT",
            "addr:housenumber": "1",
            "addr:postcode": "3500",
            "addr:street": "Utzstraße",
            "amenity": "bar",
            "email": "office@vinothek-leopold.at",
            "level": "0",
            "name": "Leopold",
            "outdoor_seating": "yes",
            "phone": "+43 2732 728 97 103",
            "shop": "wine",
            "toilets:wheelchair": "yes",
            "website": "https://www.vinothek-leopold.at/",
            "wheelchair": "yes"
          },
          "geometry": {
            "type": "Point",
            "coordinates": [
              15.5965114,
              48.4091757
            ]
          }
        },
        {
          "type": "Feature",
          "properties": {
            "id": "5202190467",
            "osm_type": "node",
            "lat": 48.4117425,
            "lon": 15.6013691,
            "addr:city": "Krems an der Donau",
            "addr:country": "AT",
            "addr:housenumber": "10",
            "addr:postcode": "3500",
            "addr:street": "Margarethenstraße",
            "amenity": "bar",
            "email": "office@xo-bar-lounge.com",
            "name": "XO Bar",
            "opening_hours": "Tu-Sa 19:00-04:00",
            "phone": "+43 2732 867 55",
            "smoking": "outside",
            "website": "https://www.xo-bar-lounge.com/"
          },
          "geometry": {
            "type": "Point",
            "coordinates": [
              15.6013691,
              48.4117425
            ]
          }
        },
        {
          "type": "Feature",
          "properties": {
            "id": "5202190468",
            "osm_type": "node",
            "lat": 48.4120265,
            "lon": 15.6020558,
            "addr:city": "Krems an der Donau",
            "addr:country": "AT",
            "addr:housenumber": "10",
            "addr:postcode": "3500",
            "addr:street": "Hoher Markt",
            "amenity": "bar",
            "name": "Devil's Bar",
            "website": "https://www.facebook.com/people/Devils-Bar/100068921955054/"
          },
          "geometry": {
            "type": "Point",
            "coordinates": [
              15.6020558,
              48.4120265
            ]
          }
        },
        {
          "type": "Feature",
          "properties": {
            "id": "5792149361",
            "osm_type": "node",
            "lat": 48.4078807,
            "lon": 15.6621829,
            "addr:city": "Krems an der Donau",
            "addr:country": "AT",
            "addr:housenumber": "23",
            "addr:postcode": "3500",
            "addr:street": "Gewerbeparkstraße",
            "amenity": "bar",
            "name": "4Seven Lounge",
            "outdoor_seating": "yes",
            "phone": "+43 2732 740 96",
            "website": "https://de-de.facebook.com/4-seven-Bar-Lounge-139465583133515"
          },
          "geometry": {
            "type": "Point",
            "coordinates": [
              15.6621829,
              48.4078807
            ]
          }
        },
        {
          "type": "Feature",
          "properties": {
            "id": "6022603330",
            "osm_type": "node",
            "lat": 48.4096118,
            "lon": 15.5971039,
            "addr:city": "Krems an der Donau",
            "addr:country": "AT",
            "addr:housenumber": "1a",
            "addr:postcode": "3500",
            "addr:street": "Schwedengasse",
            "amenity": "bar",
            "facebook": "https://www.facebook.com/people/Faviani/61554225316141/",
            "mobile": "+43 680 559 04 60",
            "name": "Faviani"
          },
          "geometry": {
            "type": "Point",
            "coordinates": [
              15.5971039,
              48.4096118
            ]
          }
        },
        {
          "type": "Feature",
          "properties": {
            "id": "10197128347",
            "osm_type": "node",
            "lat": 48.4105536,
            "lon": 15.5980207,
            "addr:city": "Krems an der Donau",
            "addr:country": "AT",
            "addr:housenumber": "18",
            "addr:postcode": "3500",
            "addr:street": "Obere Landstraße",
            "amenity": "bar",
            "name": "Keyif Shisha & Bar",
            "opening_hours": "Su-Th 17:00-24:00; Fr,Sa 17:00-02:00",
            "phone": "+43 676 4019170",
            "website": "https://keyif-krems.at/"
          },
          "geometry": {
            "type": "Point",
            "coordinates": [
              15.5980207,
              48.4105536
            ]
          }
        },
        {
          "type": "Feature",
          "properties": {
            "id": "10201682039",
            "osm_type": "node",
            "lat": 48.4111956,
            "lon": 15.6001126,
            "addr:city": "Krems an der Donau",
            "addr:country": "AT",
            "addr:housenumber": "4",
            "addr:postcode": "3500",
            "addr:street": "Obere Landstraße",
            "amenity": "bar",
            "contact:facebook": "https://www.facebook.com/p/Weinbar-Korb-61555883320425/",
            "drink:wine": "designated",
            "indoor_seating": "yes",
            "name": "Weinbar Korb",
            "outdoor_seating": "yes",
            "phone": "+43 650 5155599",
            "smoking": "outside"
          },
          "geometry": {
            "type": "Point",
            "coordinates": [
              15.6001126,
              48.4111956
            ]
          }
        },
        {
          "type": "Feature",
          "properties": {
            "id": "12334605059",
            "osm_type": "node",
            "lat": 48.4722187,
            "lon": 15.6758233,
            "addr:city": "Langenlois",
            "addr:country": "AT",
            "addr:housenumber": "1",
            "addr:postcode": "3550",
            "addr:street": "Holzplatz",
            "amenity": "bar",
            "description": "Feinkost - Weinbar - Lifstyle",
            "email": "zeitlois@hotmail.com",
            "mobile": "+43 6602440689",
            "name": "Zeitlos",
            "opening_hours": "Tu,We,Th 17:00-21:00; Fr 16:00-21:00; Sa 10:00-12:00; Su,Mo,PH off",
            "website": "https://www.zeitlois.at/"
          },
          "geometry": {
            "type": "Point",
            "coordinates": [
              15.6758233,
              48.4722187
            ]
          }
        },
        {
          "type": "Feature",
          "properties": {
            "id": "1944906469",
            "osm_type": "node",
            "lat": 48.5659637,
            "lon": 16.0805056,
            "addr:housenumber": "12",
            "addr:postcode": "2020",
            "addr:street": "Lothringerplatz",
            "amenity": "bar",
            "name": "Café Willi"
          },
          "geometry": {
            "type": "Point",
            "coordinates": [
              16.0805056,
              48.5659637
            ]
          }
        },
        {
          "type": "Feature",
          "properties": {
            "id": "1944988946",
            "osm_type": "node",
            "lat": 48.5665584,
            "lon": 16.0794596,
            "addr:city": "Hollabrunn",
            "addr:housenumber": "6",
            "addr:postcode": "2020",
            "addr:street": "Lothringerplatz",
            "amenity": "bar",
            "name": "Gigl's Rock Cafe-Bar",
            "opening_hours": "We 17:00-01:00, Th 17:00-02:00, Fr,Sa 19:00-04:00",
            "wheelchair": "no"
          },
          "geometry": {
            "type": "Point",
            "coordinates": [
              16.0794596,
              48.5665584
            ]
          }
        },
        {
          "type": "Feature",
          "properties": {
            "id": "7806399361",
            "osm_type": "node",
            "lat": 48.5564061,
            "lon": 16.0717242,
            "addr:city": "Hollabrunn",
            "addr:country": "AT",
            "addr:housenumber": "18",
            "addr:postcode": "2020",
            "addr:street": "Josef Weisleinstraße",
            "amenity": "bar",
            "name": "Bar Nuevo",
            "website": "https://www.facebook.com/BarNuevoHollabrunn/?hc_ref=ARRJCfxVnbCGgejgVn_FGcZYzKq7dL1x714vRIDv03Z_2Hcyb4Zu-5TXyQ-e2Yax-JQ&fref=nf&__tn__=kC-R"
          },
          "geometry": {
            "type": "Point",
            "coordinates": [
              16.0717242,
              48.5564061
            ]
          }
        }
      ],
      "children": []
    },
    {
      "bbox": {
        "south": 48.355971499999995,
        "west": 16.2068765,
        "north": 48.68652475,
        "east": 17.16058
      },
      "poiCount": 18,
      "leafCount": 18,
      "averagePosition": [
        16.788239755555555,
        48.50432021111111
      ],
      "data": [
        {
          "type": "Feature",
          "properties": {
            "id": "665153081",
            "osm_type": "node",
            "lat": 48.360451,
            "lon": 16.4920712,
            "addr:city": "Eibesbrunn",
            "addr:housenumber": "5",
            "addr:postcode": "2203",
            "addr:street": "Wiener Straße",
            "amenity": "bar",
            "contact:phone": "+43 2245 27 19",
            "contact:website": "www.gecko-bar.at",
            "name": "Gecko",
            "wheelchair": "limited"
          },
          "geometry": {
            "type": "Point",
            "coordinates": [
              16.4920712,
              48.360451
            ]
          }
        },
        {
          "type": "Feature",
          "properties": {
            "id": "1091925528",
            "osm_type": "node",
            "lat": 48.3879275,
            "lon": 16.2108522,
            "amenity": "bar",
            "name": "Brick's Bar",
            "website": "http://www.bricksbar.at/Startseite/"
          },
          "geometry": {
            "type": "Point",
            "coordinates": [
              16.2108522,
              48.3879275
            ]
          }
        },
        {
          "type": "Feature",
          "properties": {
            "id": "1348721245",
            "osm_type": "node",
            "lat": 48.4333542,
            "lon": 16.4774614,
            "amenity": "bar",
            "name": "La Maitrise"
          },
          "geometry": {
            "type": "Point",
            "coordinates": [
              16.4774614,
              48.4333542
            ]
          }
        },
        {
          "type": "Feature",
          "properties": {
            "id": "1546134703",
            "osm_type": "node",
            "lat": 48.4805966,
            "lon": 16.4822841,
            "amenity": "bar",
            "cuisine": "wine",
            "name": "Heiligenkeller der Zünfte"
          },
          "geometry": {
            "type": "Point",
            "coordinates": [
              16.4822841,
              48.4805966
            ]
          }
        },
        {
          "type": "Feature",
          "properties": {
            "id": "4675472290",
            "osm_type": "node",
            "lat": 48.3851988,
            "lon": 16.2070784,
            "addr:city": "Stockerau",
            "addr:country": "AT",
            "addr:housenumber": "3",
            "addr:postcode": "2000",
            "addr:street": "Rathausplatz",
            "amenity": "bar",
            "contact:email": "sepperlsheuriger@gmx.at",
            "contact:website": "https://sepperls-heuriger-stockerau.eatbu.com",
            "cuisine": "austrian",
            "name": "Sepperls Heuriger",
            "opening_hours": "Mo-Sa 16:00-23:00",
            "outdoor_seating": "yes"
          },
          "geometry": {
            "type": "Point",
            "coordinates": [
              16.2070784,
              48.3851988
            ]
          }
        },
        {
          "type": "Feature",
          "properties": {
            "id": "4777324704",
            "osm_type": "node",
            "lat": 48.3771949,
            "lon": 16.3230151,
            "addr:housenumber": "2",
            "addr:street": "Hans-Wilczek-Straße",
            "amenity": "bar",
            "contact:phone": "+43 676 9185358",
            "contact:website": "http://www.leobendorf.at/Caffe_Bar_Italia_9",
            "description": "Im Ortszentrum gelegen bietet das Caffe Bar Italia eine Fülle an kulinarischen wie kulturellen Angeboten. Im Sommer zusätzlich mit Schanigarten & großem Angebot an Eisspezialitäten!",
            "name": "Caffe Bar Italia",
            "opening_hours": "Mo-Fr 08:00-22:00; Sa, Su 10:00-22:00"
          },
          "geometry": {
            "type": "Point",
            "coordinates": [
              16.3230151,
              48.3771949
            ]
          }
        },
        {
          "type": "Feature",
          "properties": {
            "id": "662220146",
            "osm_type": "node",
            "lat": 48.4347468,
            "lon": 17.0225722,
            "addr:housenumber": "26",
            "addr:street": "Radlinského",
            "amenity": "bar",
            "check_date": "2025-07-26",
            "name": "Projekt Royal",
            "opening_hours": "Mo-Th 08:00-23:00; Fr 08:00-24:00; Sa 00:00-02:00,10:00-24:00; Su 00:00-02:00,12:00-22:00",
            "outdoor_seating": "seasonal",
            "wheelchair": "yes"
          },
          "geometry": {
            "type": "Point",
            "coordinates": [
              17.0225722,
              48.4347468
            ]
          }
        },
        {
          "type": "Feature",
          "properties": {
            "id": "662220158",
            "osm_type": "node",
            "lat": 48.4362576,
            "lon": 17.0180895,
            "amenity": "bar",
            "contact:facebook": "https://www.facebook.com/theloopclubmalacky/",
            "name": "The Loop",
            "opening_hours": "Mo-Th 17:00-02:00, Fr-Sa 17:00-05:00"
          },
          "geometry": {
            "type": "Point",
            "coordinates": [
              17.0180895,
              48.4362576
            ]
          }
        },
        {
          "type": "Feature",
          "properties": {
            "id": "2222292283",
            "osm_type": "node",
            "lat": 48.5087953,
            "lon": 17.0181731,
            "amenity": "bar",
            "name": "MASH"
          },
          "geometry": {
            "type": "Point",
            "coordinates": [
              17.0181731,
              48.5087953
            ]
          }
        },
        {
          "type": "Feature",
          "properties": {
            "id": "2353676401",
            "osm_type": "node",
            "lat": 48.668694,
            "lon": 16.6279296,
            "addr:city": "Poysdorf",
            "addr:housenumber": "10",
            "addr:postcode": "2170",
            "addr:street": "Oberer Markt",
            "amenity": "bar",
            "beds": "18",
            "internet_access": "wlan",
            "internet_access:fee": "no",
            "name": "Eisenhuthaus",
            "opening_hours": "We-Su 08:00-18:00",
            "operator": "Familie Rieder",
            "rooms": "7",
            "smoking": "outside",
            "tourism": "hotel",
            "website": "https://www.eisenhuthaus.com",
            "wheelchair": "no"
          },
          "geometry": {
            "type": "Point",
            "coordinates": [
              16.6279296,
              48.668694
            ]
          }
        },
        {
          "type": "Feature",
          "properties": {
            "id": "4288391558",
            "osm_type": "node",
            "lat": 48.5442078,
            "lon": 16.7676365,
            "amenity": "bar"
          },
          "geometry": {
            "type": "Point",
            "coordinates": [
              16.7676365,
              48.5442078
            ]
          }
        },
        {
          "type": "Feature",
          "properties": {
            "id": "8232078951",
            "osm_type": "node",
            "lat": 48.4229912,
            "lon": 17.0195095,
            "amenity": "bar"
          },
          "geometry": {
            "type": "Point",
            "coordinates": [
              17.0195095,
              48.4229912
            ]
          }
        },
        {
          "type": "Feature",
          "properties": {
            "id": "9287886656",
            "osm_type": "node",
            "lat": 48.6784001,
            "lon": 16.9867167,
            "amenity": "bar",
            "contact:facebook": "https://www.facebook.com/clubandbaragplaybrodske",
            "internet_access": "wlan",
            "name": "CLUB & BAR Ag Play",
            "opening_hours": "Mo-Su 10:00-03:00",
            "phone": "+421 911 164 758",
            "website": "https://www.autogames.sk/bars/bar-ag-play-brodske/"
          },
          "geometry": {
            "type": "Point",
            "coordinates": [
              16.9867167,
              48.6784001
            ]
          }
        },
        {
          "type": "Feature",
          "properties": {
            "id": "9831971684",
            "osm_type": "node",
            "lat": 48.4368731,
            "lon": 17.0194691,
            "amenity": "bar",
            "contact:phone": "+421 950 402 511",
            "name": "Cloud Shisha&Tea bar",
            "opening_hours": "Su-Th 16:00-24:00; Fr,Sa 16:00-01:00"
          },
          "geometry": {
            "type": "Point",
            "coordinates": [
              17.0194691,
              48.4368731
            ]
          }
        },
        {
          "type": "Feature",
          "properties": {
            "id": "2296763058",
            "osm_type": "node",
            "lat": 48.6142625,
            "lon": 17.0486968,
            "amenity": "bar",
            "name": "Hostinec u Pechy"
          },
          "geometry": {
            "type": "Point",
            "coordinates": [
              17.0486968,
              48.6142625
            ]
          }
        },
        {
          "type": "Feature",
          "properties": {
            "id": "6854342280",
            "osm_type": "node",
            "lat": 48.6356831,
            "lon": 17.1540087,
            "amenity": "bar",
            "name": "Demonio"
          },
          "geometry": {
            "type": "Point",
            "coordinates": [
              17.1540087,
              48.6356831
            ]
          }
        },
        {
          "type": "Feature",
          "properties": {
            "id": "6854389398",
            "osm_type": "node",
            "lat": 48.6348456,
            "lon": 17.1564294,
            "amenity": "bar",
            "name": "Herňa u Andelú",
            "opening_hours": "Mo-Tu,Su 9:00-22:00;Fr,Sa 9:00-23:00",
            "outdoor_seating": "yes",
            "phone": "+421 34 6592353",
            "smoking": "yes",
            "wheelchair": "limited"
          },
          "geometry": {
            "type": "Point",
            "coordinates": [
              17.1564294,
              48.6348456
            ]
          }
        },
        {
          "type": "Feature",
          "properties": {
            "id": "6861493860",
            "osm_type": "node",
            "lat": 48.6372837,
            "lon": 17.1563221,
            "amenity": "bar",
            "name": "Shark bar",
            "opening_hours": "Mo-Th 11:00-24:00; Fr,Sa 11:00-03:00, Su 11:00-22:00",
            "outdoor_seating": "yes",
            "wheelchair": "no",
            "wheelchair:description": "2 steps"
          },
          "geometry": {
            "type": "Point",
            "coordinates": [
              17.1563221,
              48.6372837
            ]
          }
        }
      ],
      "children": []
    },
    {
      "bbox": {
        "south": 48.68652475,
        "west": 15.253173,
        "north": 49.017078,
        "east": 16.2068765
      },
      "poiCount": 15,
      "leafCount": 15,
      "averagePosition": [
        15.861445739999999,
        48.82219747333333
      ],
      "data": [
        {
          "type": "Feature",
          "properties": {
            "id": "331355426",
            "osm_type": "node",
            "lat": 48.8146714,
            "lon": 15.2831962,
            "addr:city": "Waidhofen/Thaya",
            "addr:country": "AT",
            "addr:housenumber": "2",
            "addr:postcode": "3830",
            "addr:street": "Raiffeisenpromenade",
            "amenity": "bar",
            "brewery": "Zwettler;Weitra_Bräu",
            "internet_access": "wlan",
            "internet_access:fee": "no",
            "name": "Henry's Cafe & Pub",
            "opening_hours": "Mo-Th 08:30-22:00; Fr-Sa 08:30-03:00",
            "outdoor_seating": "yes",
            "phone": "0660 4925525",
            "smoking": "outside",
            "wheelchair": "yes"
          },
          "geometry": {
            "type": "Point",
            "coordinates": [
              15.2831962,
              48.8146714
            ]
          }
        },
        {
          "type": "Feature",
          "properties": {
            "id": "6817581891",
            "osm_type": "node",
            "lat": 48.815366,
            "lon": 15.2875917,
            "addr:city": "Waidhofen an der Thaya",
            "addr:housenumber": "29",
            "addr:postcode": "3830",
            "addr:street": "Hauptplatz",
            "amenity": "bar",
            "brewery": "yes",
            "name": "Antnwirtin",
            "outdoor_seating": "yes"
          },
          "geometry": {
            "type": "Point",
            "coordinates": [
              15.2875917,
              48.815366
            ]
          }
        },
        {
          "type": "Feature",
          "properties": {
            "id": "12686676503",
            "osm_type": "node",
            "lat": 48.78963,
            "lon": 15.403638,
            "addr:housenumber": "4",
            "addr:street": "Hauptplatz",
            "amenity": "bar",
            "name": "\"Kamm-Inn\" Pöppel Sabine"
          },
          "geometry": {
            "type": "Point",
            "coordinates": [
              15.403638,
              48.78963
            ]
          }
        },
        {
          "type": "Feature",
          "properties": {
            "id": "1760720295",
            "osm_type": "node",
            "lat": 48.7969325,
            "lon": 15.6700073,
            "addr:city": "Geras",
            "addr:country": "AT",
            "addr:housename": "Waldviertler Stub´n",
            "addr:housenumber": "1",
            "addr:postcode": "2093",
            "addr:street": "Stiftstraße",
            "amenity": "bar",
            "at_bev:addr_date": "2017-10-01",
            "name": "Waldviertler Stub´n"
          },
          "geometry": {
            "type": "Point",
            "coordinates": [
              15.6700073,
              48.7969325
            ]
          }
        },
        {
          "type": "Feature",
          "properties": {
            "id": "6597157807",
            "osm_type": "node",
            "lat": 48.7571347,
            "lon": 15.9520736,
            "addr:city": "Retz",
            "addr:country": "AT",
            "addr:housenumber": "4-5",
            "addr:postcode": "2070",
            "addr:street": "Hauptplatz",
            "amenity": "bar",
            "contact:phone": "+43 2942 204 88",
            "name": "Weinquartier",
            "opening_hours": "10:00-18:00",
            "operator": "Gebietsvinothek Weinviertel GmbH",
            "outdoor_seating": "yes",
            "website": "https://weinquartier.at/kontakt/",
            "wheelchair": "yes"
          },
          "geometry": {
            "type": "Point",
            "coordinates": [
              15.9520736,
              48.7571347
            ]
          }
        },
        {
          "type": "Feature",
          "properties": {
            "id": "3200629500",
            "osm_type": "node",
            "lat": 48.8609581,
            "lon": 16.0461776,
            "amenity": "bar",
            "name": "Praha",
            "opening_hours": "Mo-Th 10:00-22:00; Fr,Sa 10:00-23:00; Su 10:00-21:00"
          },
          "geometry": {
            "type": "Point",
            "coordinates": [
              16.0461776,
              48.8609581
            ]
          }
        },
        {
          "type": "Feature",
          "properties": {
            "id": "3376346023",
            "osm_type": "node",
            "lat": 48.7079099,
            "lon": 16.0763048,
            "addr:city": "Haugsdorf",
            "addr:housenumber": "2",
            "addr:postcode": "2054",
            "addr:street": "Hauptstraße",
            "amenity": "bar",
            "name": "Hoppala - Café & Co",
            "phone": "+43 650 3023570",
            "website": "http://www.hoppala-cafe.co.at/"
          },
          "geometry": {
            "type": "Point",
            "coordinates": [
              16.0763048,
              48.7079099
            ]
          }
        },
        {
          "type": "Feature",
          "properties": {
            "id": "4426722198",
            "osm_type": "node",
            "lat": 48.8540836,
            "lon": 16.0469024,
            "amenity": "bar",
            "craft": "winery",
            "name": "U Kaplana",
            "phone": "+420 721853348"
          },
          "geometry": {
            "type": "Point",
            "coordinates": [
              16.0469024,
              48.8540836
            ]
          }
        },
        {
          "type": "Feature",
          "properties": {
            "id": "4714404293",
            "osm_type": "node",
            "lat": 48.8564479,
            "lon": 16.0546676,
            "amenity": "bar",
            "name": "Bambus bar",
            "name:cs": "Bambus bar",
            "opening_hours": "We,Fr,Sa 20:00-03:00"
          },
          "geometry": {
            "type": "Point",
            "coordinates": [
              16.0546676,
              48.8564479
            ]
          }
        },
        {
          "type": "Feature",
          "properties": {
            "id": "4714423289",
            "osm_type": "node",
            "lat": 48.8523471,
            "lon": 16.0536132,
            "access": "private",
            "amenity": "bar",
            "name": "Retro Irish Klub",
            "name:cs": "Retro Irish Klub",
            "opening_hours": "Fr-Sa 20:00-03:00"
          },
          "geometry": {
            "type": "Point",
            "coordinates": [
              16.0536132,
              48.8523471
            ]
          }
        },
        {
          "type": "Feature",
          "properties": {
            "id": "5686882028",
            "osm_type": "node",
            "lat": 48.8404484,
            "lon": 16.056186,
            "amenity": "bar"
          },
          "geometry": {
            "type": "Point",
            "coordinates": [
              16.056186,
              48.8404484
            ]
          }
        },
        {
          "type": "Feature",
          "properties": {
            "id": "11038046637",
            "osm_type": "node",
            "lat": 48.8558245,
            "lon": 16.0495747,
            "amenity": "bar",
            "check_date:currency:XBT": "2025-05-14",
            "currency:XBT": "yes",
            "indoor_seating": "yes",
            "name": "BERNARD Bar Slepičák",
            "opening_hours": "Su-Th 11:00-22:00, Fr,Sa 11:00-24:00",
            "outdoor_seating": "yes",
            "payment:lightning:companion_app_url": "https://www.qerko.com",
            "payment:lightning:requires_companion_app": "yes"
          },
          "geometry": {
            "type": "Point",
            "coordinates": [
              16.0495747,
              48.8558245
            ]
          }
        },
        {
          "type": "Feature",
          "properties": {
            "id": "11078102053",
            "osm_type": "node",
            "lat": 48.7882032,
            "lon": 16.0777676,
            "amenity": "bar",
            "name": "Pivnice Na Hřišti",
            "opening_hours": "Mo-Su 15:00-22:00"
          },
          "geometry": {
            "type": "Point",
            "coordinates": [
              16.0777676,
              48.7882032
            ]
          }
        },
        {
          "type": "Feature",
          "properties": {
            "id": "11531163325",
            "osm_type": "node",
            "lat": 48.8502827,
            "lon": 16.0535902,
            "amenity": "bar",
            "name": "Herna bar wings"
          },
          "geometry": {
            "type": "Point",
            "coordinates": [
              16.0535902,
              48.8502827
            ]
          }
        },
        {
          "type": "Feature",
          "properties": {
            "id": "7734664192",
            "osm_type": "node",
            "lat": 48.8927221,
            "lon": 15.8103952,
            "amenity": "bar",
            "name": "Zámecká vinárna",
            "wheelchair": "no"
          },
          "geometry": {
            "type": "Point",
            "coordinates": [
              15.8103952,
              48.8927221
            ]
          }
        }
      ],
      "children": []
    },
    {
      "bbox": {
        "south": 48.68652475,
        "west": 16.2068765,
        "north": 49.017078,
        "east": 17.16058
      },
      "poiCount": 38,
      "leafCount": 38,
      "averagePosition": [
        16.854275568421052,
        48.85915673157895
      ],
      "data": [
        {
          "type": "Feature",
          "properties": {
            "id": "2795789825",
            "osm_type": "node",
            "lat": 48.8040544,
            "lon": 16.3059884,
            "amenity": "bar",
            "name": "Hospoda"
          },
          "geometry": {
            "type": "Point",
            "coordinates": [
              16.3059884,
              48.8040544
            ]
          }
        },
        {
          "type": "Feature",
          "properties": {
            "id": "8068855085",
            "osm_type": "node",
            "lat": 48.7708519,
            "lon": 16.5094713,
            "amenity": "bar",
            "name": "Besucherkeller"
          },
          "geometry": {
            "type": "Point",
            "coordinates": [
              16.5094713,
              48.7708519
            ]
          }
        },
        {
          "type": "Feature",
          "properties": {
            "id": "1217864058",
            "osm_type": "node",
            "lat": 48.8365538,
            "lon": 16.852795,
            "addr:conscriptionnumber": "973",
            "addr:country": "CZ",
            "addr:housenumber": "973/27",
            "addr:street": "Nerudova",
            "addr:streetnumber": "27",
            "amenity": "bar",
            "name": "Vinárna U Šveca",
            "phone": "+420 604 731 766",
            "source:addr": "mvcr:adresa",
            "source:loc": "cuzk:km",
            "website": "svecpodivin.cz"
          },
          "geometry": {
            "type": "Point",
            "coordinates": [
              16.852795,
              48.8365538
            ]
          }
        },
        {
          "type": "Feature",
          "properties": {
            "id": "1217864403",
            "osm_type": "node",
            "lat": 48.83671,
            "lon": 16.8535538,
            "addr:city": "Podivín",
            "addr:conscriptionnumber": "371",
            "addr:country": "CZ",
            "addr:housenumber": "371/15",
            "addr:postcode": "691 45",
            "addr:street": "U Dráhy",
            "addr:streetnumber": "15",
            "amenity": "bar",
            "name": "Hostinec U Chatrných",
            "source:addr": "mvcr:adresa",
            "source:loc": "cuzk:km"
          },
          "geometry": {
            "type": "Point",
            "coordinates": [
              16.8535538,
              48.83671
            ]
          }
        },
        {
          "type": "Feature",
          "properties": {
            "id": "1511965665",
            "osm_type": "node",
            "lat": 48.8069944,
            "lon": 16.6415004,
            "amenity": "bar",
            "name": "Vinárna U hroznu",
            "source": "survey"
          },
          "geometry": {
            "type": "Point",
            "coordinates": [
              16.6415004,
              48.8069944
            ]
          }
        },
        {
          "type": "Feature",
          "properties": {
            "id": "2466569140",
            "osm_type": "node",
            "lat": 48.7582955,
            "lon": 16.8550536,
            "amenity": "bar",
            "name": "Market Music Bar"
          },
          "geometry": {
            "type": "Point",
            "coordinates": [
              16.8550536,
              48.7582955
            ]
          }
        },
        {
          "type": "Feature",
          "properties": {
            "id": "2470116463",
            "osm_type": "node",
            "lat": 48.7520284,
            "lon": 16.8591876,
            "amenity": "bar",
            "name": "Jamajka"
          },
          "geometry": {
            "type": "Point",
            "coordinates": [
              16.8591876,
              48.7520284
            ]
          }
        },
        {
          "type": "Feature",
          "properties": {
            "id": "3188359945",
            "osm_type": "node",
            "lat": 48.7411724,
            "lon": 16.7550907,
            "addr:city": "Valtice",
            "addr:housenumber": "22",
            "addr:postcode": "69142",
            "addr:street": "nám. Svobody",
            "amenity": "bar",
            "name": "Valtický vinný sklep"
          },
          "geometry": {
            "type": "Point",
            "coordinates": [
              16.7550907,
              48.7411724
            ]
          }
        },
        {
          "type": "Feature",
          "properties": {
            "id": "3204023071",
            "osm_type": "node",
            "lat": 48.7550811,
            "lon": 16.8898966,
            "amenity": "bar",
            "name": "Denní Bar Dvůr",
            "opening_hours": "Jan-Dec: Mo-Fr 07:00-22:00; Sa 10:00-22:00; Su 15:00-22:00",
            "phone": "+420 777 304 881",
            "website": "https://www.dvurbreclav.cz/"
          },
          "geometry": {
            "type": "Point",
            "coordinates": [
              16.8898966,
              48.7550811
            ]
          }
        },
        {
          "type": "Feature",
          "properties": {
            "id": "4234150039",
            "osm_type": "node",
            "lat": 48.8039282,
            "lon": 16.6356721,
            "amenity": "bar",
            "name": "Bar U Piaristů"
          },
          "geometry": {
            "type": "Point",
            "coordinates": [
              16.6356721,
              48.8039282
            ]
          }
        },
        {
          "type": "Feature",
          "properties": {
            "id": "4234150041",
            "osm_type": "node",
            "lat": 48.803627,
            "lon": 16.6353087,
            "amenity": "bar",
            "name": "Bar U Lázní"
          },
          "geometry": {
            "type": "Point",
            "coordinates": [
              16.6353087,
              48.803627
            ]
          }
        },
        {
          "type": "Feature",
          "properties": {
            "id": "4234161200",
            "osm_type": "node",
            "lat": 48.8026995,
            "lon": 16.6339166,
            "amenity": "bar"
          },
          "geometry": {
            "type": "Point",
            "coordinates": [
              16.6339166,
              48.8026995
            ]
          }
        },
        {
          "type": "Feature",
          "properties": {
            "id": "4884941946",
            "osm_type": "node",
            "lat": 48.8273982,
            "lon": 16.9816132,
            "amenity": "bar",
            "name": "Bar U Savice"
          },
          "geometry": {
            "type": "Point",
            "coordinates": [
              16.9816132,
              48.8273982
            ]
          }
        },
        {
          "type": "Feature",
          "properties": {
            "id": "5448292994",
            "osm_type": "node",
            "lat": 48.6874277,
            "lon": 17.0143294,
            "amenity": "bar",
            "name": "Club Bar Brodské",
            "website": "https://clubbar.webnode.sk/"
          },
          "geometry": {
            "type": "Point",
            "coordinates": [
              17.0143294,
              48.6874277
            ]
          }
        },
        {
          "type": "Feature",
          "properties": {
            "id": "11049358678",
            "osm_type": "node",
            "lat": 48.8334529,
            "lon": 16.6223977,
            "addr:city": "Bavory",
            "addr:housenumber": "138",
            "addr:postcode": "69201",
            "addr:street": "Bavory",
            "amenity": "bar",
            "check_date": "2025-02-20",
            "check_date:currency:XBT": "2024-07-19",
            "contact:email": "info@degustacni-salon.cz",
            "currency:XBT": "yes",
            "name": "Orlí hnízdo",
            "opening_hours": "\"by appointment\"",
            "payment:lightning": "yes",
            "payment:lightning_contactless": "no",
            "payment:onchain": "yes",
            "phone": "+42 07 372 46500",
            "website": "https://www.degustacni-salon.cz/"
          },
          "geometry": {
            "type": "Point",
            "coordinates": [
              16.6223977,
              48.8334529
            ]
          }
        },
        {
          "type": "Feature",
          "properties": {
            "id": "12509688706",
            "osm_type": "node",
            "lat": 48.8298338,
            "lon": 16.9796855,
            "amenity": "bar",
            "name": "Tafraporte bar u Krpa"
          },
          "geometry": {
            "type": "Point",
            "coordinates": [
              16.9796855,
              48.8298338
            ]
          }
        },
        {
          "type": "Feature",
          "properties": {
            "id": "13076146589",
            "osm_type": "node",
            "lat": 48.8016804,
            "lon": 16.8022072,
            "amenity": "bar",
            "indoor_seating": "yes",
            "name": "U Lukášků",
            "opening_hours": "Mo-Th 19:00-24:00, Fr,Sa 19:00-02:00, Su 19:00-22:00",
            "outdoor_seating": "yes"
          },
          "geometry": {
            "type": "Point",
            "coordinates": [
              16.8022072,
              48.8016804
            ]
          }
        },
        {
          "type": "Feature",
          "properties": {
            "id": "1695242754",
            "osm_type": "node",
            "lat": 48.8564563,
            "lon": 17.11845,
            "addr:conscriptionnumber": "3161",
            "addr:country": "CZ",
            "addr:housename": "Merlin Club",
            "addr:housenumber": "3161/2",
            "addr:place": "Hodonín",
            "addr:postcode": "69501",
            "addr:street": "Lipová alej",
            "addr:streetnumber": "2",
            "amenity": "bar",
            "name": "Merlin Club",
            "ref:ruian:addr": "23206730",
            "source": "Local knowledge",
            "website": "http://www.merlinclub.cz/"
          },
          "geometry": {
            "type": "Point",
            "coordinates": [
              17.11845,
              48.8564563
            ]
          }
        },
        {
          "type": "Feature",
          "properties": {
            "id": "2328048754",
            "osm_type": "node",
            "lat": 48.8150881,
            "lon": 17.156108,
            "amenity": "bar",
            "name": "Café pizza bar"
          },
          "geometry": {
            "type": "Point",
            "coordinates": [
              17.156108,
              48.8150881
            ]
          }
        },
        {
          "type": "Feature",
          "properties": {
            "id": "2328048755",
            "osm_type": "node",
            "lat": 48.8149415,
            "lon": 17.1561322,
            "amenity": "bar",
            "contact:facebook": "https://www.facebook.com/profile.php?id=100057264046864",
            "name": "Pohoda bar",
            "opening_hours": "Mo-Th 14:00-23:00; Fr 14:00-02:00, Sa 12:00-02:00, Su 12:00-23:00"
          },
          "geometry": {
            "type": "Point",
            "coordinates": [
              17.1561322,
              48.8149415
            ]
          }
        },
        {
          "type": "Feature",
          "properties": {
            "id": "5084208122",
            "osm_type": "node",
            "lat": 48.8511421,
            "lon": 17.1231209,
            "addr:housenumber": "21",
            "addr:street": "Velkomoravská",
            "amenity": "bar",
            "internet_access": "wlan",
            "name": "U Pošty - Stara Budvarka",
            "opening_hours": "Mo-Th 14:00-23:00, Fr-Sa 14:00-01:00, Su 14:00-22:00"
          },
          "geometry": {
            "type": "Point",
            "coordinates": [
              17.1231209,
              48.8511421
            ]
          }
        },
        {
          "type": "Feature",
          "properties": {
            "id": "5270318128",
            "osm_type": "node",
            "lat": 48.7210571,
            "lon": 17.1575436,
            "amenity": "bar"
          },
          "geometry": {
            "type": "Point",
            "coordinates": [
              17.1575436,
              48.7210571
            ]
          }
        },
        {
          "type": "Feature",
          "properties": {
            "id": "11024951441",
            "osm_type": "node",
            "lat": 48.8095094,
            "lon": 17.1572264,
            "amenity": "bar",
            "name": "Zámocká vináreñ"
          },
          "geometry": {
            "type": "Point",
            "coordinates": [
              17.1572264,
              48.8095094
            ]
          }
        },
        {
          "type": "Feature",
          "properties": {
            "id": "583832392",
            "osm_type": "node",
            "lat": 48.9572181,
            "lon": 16.5758002,
            "amenity": "bar",
            "name": "AquaBar",
            "outdoor_seating": "yes"
          },
          "geometry": {
            "type": "Point",
            "coordinates": [
              16.5758002,
              48.9572181
            ]
          }
        },
        {
          "type": "Feature",
          "properties": {
            "id": "907015519",
            "osm_type": "node",
            "lat": 48.897877,
            "lon": 16.8182861,
            "amenity": "bar",
            "name": "Pizzerie a musicklub Twister.cz",
            "opening_hours": "Su-Th 17:00-22:00, Fr,Sa 17:00-02:00"
          },
          "geometry": {
            "type": "Point",
            "coordinates": [
              16.8182861,
              48.897877
            ]
          }
        },
        {
          "type": "Feature",
          "properties": {
            "id": "2806328704",
            "osm_type": "node",
            "lat": 48.9663882,
            "lon": 16.6065258,
            "addr:conscriptionnumber": "190",
            "addr:housenumber": "190",
            "addr:place": "Vranovice",
            "addr:postcode": "69125",
            "addr:street": "Hlavní",
            "amenity": "bar",
            "name": "Sport Bar"
          },
          "geometry": {
            "type": "Point",
            "coordinates": [
              16.6065258,
              48.9663882
            ]
          }
        },
        {
          "type": "Feature",
          "properties": {
            "id": "3222226302",
            "osm_type": "node",
            "lat": 49.0005075,
            "lon": 16.7214138,
            "amenity": "bar"
          },
          "geometry": {
            "type": "Point",
            "coordinates": [
              16.7214138,
              49.0005075
            ]
          }
        },
        {
          "type": "Feature",
          "properties": {
            "id": "4541327790",
            "osm_type": "node",
            "lat": 48.9460341,
            "lon": 16.9661614,
            "amenity": "bar",
            "name": "Mlýn",
            "name:cs": "Mlýn"
          },
          "geometry": {
            "type": "Point",
            "coordinates": [
              16.9661614,
              48.9460341
            ]
          }
        },
        {
          "type": "Feature",
          "properties": {
            "id": "6657910085",
            "osm_type": "node",
            "lat": 48.8979921,
            "lon": 16.8188505,
            "amenity": "bar",
            "name": "Bar Ferdinand",
            "opening_hours": "Mo-Su 18:00-22:00"
          },
          "geometry": {
            "type": "Point",
            "coordinates": [
              16.8188505,
              48.8979921
            ]
          }
        },
        {
          "type": "Feature",
          "properties": {
            "id": "8903765239",
            "osm_type": "node",
            "lat": 48.8987512,
            "lon": 16.5696563,
            "amenity": "bar"
          },
          "geometry": {
            "type": "Point",
            "coordinates": [
              16.5696563,
              48.8987512
            ]
          }
        },
        {
          "type": "Feature",
          "properties": {
            "id": "9973902009",
            "osm_type": "node",
            "lat": 48.9031018,
            "lon": 16.5751995,
            "amenity": "bar",
            "name": "Riviera Pool Bar"
          },
          "geometry": {
            "type": "Point",
            "coordinates": [
              16.5751995,
              48.9031018
            ]
          }
        },
        {
          "type": "Feature",
          "properties": {
            "id": "9973902377",
            "osm_type": "node",
            "lat": 48.9011569,
            "lon": 16.5708468,
            "amenity": "bar",
            "name": "Drink In",
            "seasonal": "summer"
          },
          "geometry": {
            "type": "Point",
            "coordinates": [
              16.5708468,
              48.9011569
            ]
          }
        },
        {
          "type": "Feature",
          "properties": {
            "id": "11916103646",
            "osm_type": "node",
            "lat": 48.9077182,
            "lon": 16.9227848,
            "amenity": "bar",
            "name": "Škrobák Truck",
            "outdoor_seating": "yes",
            "phone": "+420 601 201 339",
            "website": "https://vinoskrobak.cz/",
            "wheelchair": "yes"
          },
          "geometry": {
            "type": "Point",
            "coordinates": [
              16.9227848,
              48.9077182
            ]
          }
        },
        {
          "type": "Feature",
          "properties": {
            "id": "1929499971",
            "osm_type": "node",
            "lat": 49.0096861,
            "lon": 17.1233869,
            "amenity": "bar",
            "name": "CAFFÉ BAR 99",
            "website": "http://www.kyjovsko.cz/sluzba/159/"
          },
          "geometry": {
            "type": "Point",
            "coordinates": [
              17.1233869,
              49.0096861
            ]
          }
        },
        {
          "type": "Feature",
          "properties": {
            "id": "2232381941",
            "osm_type": "node",
            "lat": 49.0134084,
            "lon": 17.1255235,
            "addr:housename": "Herna bar Garáž",
            "addr:housenumber": "557/37",
            "addr:postcode": "69701",
            "addr:street": "třída Komenského",
            "amenity": "bar",
            "mobile": "+420 774 232 045",
            "name": "Garáž",
            "opening_hours": "Tu-Th 14:00-22:00; Fr 14:00-24:00; Sa 00:00-03:00,14:00-24:00; Su 00:00-03:00,14:00-22:00",
            "source": "local knowledge",
            "wheelchair": "no"
          },
          "geometry": {
            "type": "Point",
            "coordinates": [
              17.1255235,
              49.0134084
            ]
          }
        },
        {
          "type": "Feature",
          "properties": {
            "id": "2232448719",
            "osm_type": "node",
            "lat": 49.0088482,
            "lon": 17.1220641,
            "addr:housename": "Non-stop Bar",
            "addr:housenumber": "210/39",
            "addr:postcode": "69701",
            "addr:street": "Jungmannova",
            "amenity": "bar",
            "name": "Non-stop Bar",
            "source": "Local knowledge"
          },
          "geometry": {
            "type": "Point",
            "coordinates": [
              17.1220641,
              49.0088482
            ]
          }
        },
        {
          "type": "Feature",
          "properties": {
            "id": "2260919605",
            "osm_type": "node",
            "lat": 49.010298,
            "lon": 17.1268651,
            "addr:housenumber": "1b",
            "addr:postcode": "69701",
            "addr:street": "Dobrovského",
            "amenity": "bar",
            "designation": "Herna, Bar Exit",
            "name": "Exit",
            "source": "local knowledge",
            "wifi": "no"
          },
          "geometry": {
            "type": "Point",
            "coordinates": [
              17.1268651,
              49.010298
            ]
          }
        },
        {
          "type": "Feature",
          "properties": {
            "id": "10133910948",
            "osm_type": "node",
            "lat": 49.0089859,
            "lon": 17.1228579,
            "addr:housenumber": "1337",
            "addr:place": "Kyjov",
            "addr:postcode": "69701",
            "addr:street": "Jungmannova",
            "amenity": "bar",
            "check_date:currency:XBT": "2025-06-29",
            "currency:XBT": "yes",
            "name": "Yalla bar",
            "payment:lightning": "yes",
            "payment:lightning_contactless": "yes",
            "payment:onchain": "no",
            "survey:date": "2022-10-27",
            "website": "https://yallabar.cz/"
          },
          "geometry": {
            "type": "Point",
            "coordinates": [
              17.1228579,
              49.0089859
            ]
          }
        }
      ],
      "children": []
    }
  ]
}