{
  "bbox": {
    "south": 48.355971499999995,
    "west": 13.345766,
    "north": 49.017078,
    "east": 15.253173
  },
  "poiCount": 97,
  "leafCount": 0,
  "averagePosition": [
    14.205387728865977,
    48.749358691752576
  ],
  "data": [],
  "children": [
    {
      "bbox": {
        "south": 48.355971499999995,
        "west": 13.345766,
        "north": 48.68652475,
        "east": 14.2994695
      },
      "poiCount": 25,
      "leafCount": 25,
      "averagePosition": [
        13.629116051999999,
        48.535681116
      ],
      "data": [
        {
          "type": "Feature",
          "properties": {
            "id": "448590908",
            "osm_type": "node",
            "lat": 48.3687631,
            "lon": 14.0263815,
            "addr:city": "Aschach an der Donau",
            "addr:country": "AT",
            "addr:housenumber": "2",
            "addr:postcode": "4082",
            "addr:street": "Ritzbergerstraße",
            "amenity": "bar",
            "name": "Cuba",
            "wheelchair": "no"
          },
          "geometry": {
            "type": "Point",
            "coordinates": [
              14.0263815,
              48.3687631
            ]
          }
        },
        {
          "type": "Feature",
          "properties": {
            "id": "2588993353",
            "osm_type": "node",
            "lat": 48.3675015,
            "lon": 14.0255715,
            "amenity": "bar",
            "cuisine": "burger;regional",
            "food": "yes",
            "name": "Donauwelle",
            "opening_hours": "We-Su 18:00-04:00",
            "phone": "+43 7273 6200"
          },
          "geometry": {
            "type": "Point",
            "coordinates": [
              14.0255715,
              48.3675015
            ]
          }
        },
        {
          "type": "Feature",
          "properties": {
            "id": "263026874",
            "osm_type": "node",
            "lat": 48.5755291,
            "lon": 13.4601634,
            "addr:city": "Passau",
            "addr:country": "DE",
            "addr:housenumber": "9",
            "addr:postcode": "94032",
            "addr:street": "Roßtränke",
            "amenity": "bar",
            "email": "cubana.passau@gmail.com",
            "name": "Cubana",
            "opening_hours": "We 21:00-24:00; Th-Sa 00:00-03:00,21:00-24:00; Su 00:00-03:00",
            "operator": "Ernst Brenner",
            "phone": "+49 851 4909570",
            "smoking": "yes",
            "website": "http://www.cubana-passau.de",
            "wheelchair": "limited"
          },
          "geometry": {
            "type": "Point",
            "coordinates": [
              13.4601634,
              48.5755291
            ]
          }
        },
        {
          "type": "Feature",
          "properties": {
            "id": "431363075",
            "osm_type": "node",
            "lat": 48.569911,
            "lon": 13.4617361,
            "amenity": "bar",
            "indoor_seating": "yes",
            "name": "Rio",
            "note": "seit März 2013 geschlossen",
            "opening_hours": "Tu-Su 18:00-23:00+, Sa,Su 09:00-14:00",
            "outdoor_seating": "yes"
          },
          "geometry": {
            "type": "Point",
            "coordinates": [
              13.4617361,
              48.569911
            ]
          }
        },
        {
          "type": "Feature",
          "properties": {
            "id": "437472080",
            "osm_type": "node",
            "lat": 48.5710107,
            "lon": 13.4661382,
            "amenity": "bar",
            "name": "Kauz",
            "opening_hours": "Th-Sa 18:00-23:00; Su 15:00-21:00"
          },
          "geometry": {
            "type": "Point",
            "coordinates": [
              13.4661382,
              48.5710107
            ]
          }
        },
        {
          "type": "Feature",
          "properties": {
            "id": "544434132",
            "osm_type": "node",
            "lat": 48.4582281,
            "lon": 13.4435403,
            "addr:city": "Schärding",
            "addr:housenumber": "2",
            "addr:postcode": "4780",
            "addr:street": "Kornweg",
            "amenity": "bar",
            "name": "Bienenkorb Schärding",
            "wheelchair": "limited"
          },
          "geometry": {
            "type": "Point",
            "coordinates": [
              13.4435403,
              48.4582281
            ]
          }
        },
        {
          "type": "Feature",
          "properties": {
            "id": "811414739",
            "osm_type": "node",
            "lat": 48.5733242,
            "lon": 13.462942,
            "addr:city": "Passau",
            "addr:country": "DE",
            "addr:housenumber": "13",
            "addr:postcode": "94032",
            "addr:street": "Unterer Sand",
            "amenity": "bar",
            "email": "bonjour@proli.cafe",
            "name": "ProLi",
            "opening_hours": "Mo-Fr 08:00-24:00; Sa-Su 00:00-02:00,09:00-24:00",
            "outdoor_seating": "yes",
            "phone": "+49 851 2655",
            "website": "https://proli.cafe",
            "wheelchair": "yes"
          },
          "geometry": {
            "type": "Point",
            "coordinates": [
              13.462942,
              48.5733242
            ]
          }
        },
        {
          "type": "Feature",
          "properties": {
            "id": "1314558586",
            "osm_type": "node",
            "lat": 48.5713918,
            "lon": 13.4597727,
            "amenity": "bar",
            "name": "Viererkette"
          },
          "geometry": {
            "type": "Point",
            "coordinates": [
              13.4597727,
              48.5713918
            ]
          }
        },
        {
          "type": "Feature",
          "properties": {
            "id": "1545997239",
            "osm_type": "node",
            "lat": 48.4559041,
            "lon": 13.4314195,
            "amenity": "bar",
            "name": "Stadtbeisl"
          },
          "geometry": {
            "type": "Point",
            "coordinates": [
              13.4314195,
              48.4559041
            ]
          }
        },
        {
          "type": "Feature",
          "properties": {
            "id": "2413642576",
            "osm_type": "node",
            "lat": 48.575634,
            "lon": 13.4606029,
            "amenity": "bar",
            "email": "tabakladen@aol.com",
            "fax": "+498519890935",
            "name": "Tabakbar",
            "note": "Laden/Bar für Cigarren, Pfeiffen, Whiskis, Rum",
            "operator": "Thomas Weiherer",
            "phone": "+4985137332",
            "wheelchair": "no"
          },
          "geometry": {
            "type": "Point",
            "coordinates": [
              13.4606029,
              48.575634
            ]
          }
        },
        {
          "type": "Feature",
          "properties": {
            "id": "2414013291",
            "osm_type": "node",
            "lat": 48.5734721,
            "lon": 13.4621479,
            "amenity": "bar",
            "check_date": "2024-02-27",
            "name": "Funky Buddha Bar",
            "opening_hours": "Mo-Sa 20:00-03:00",
            "phone": "+49 851 32622",
            "wheelchair": "no"
          },
          "geometry": {
            "type": "Point",
            "coordinates": [
              13.4621479,
              48.5734721
            ]
          }
        },
        {
          "type": "Feature",
          "properties": {
            "id": "3520464139",
            "osm_type": "node",
            "lat": 48.5733679,
            "lon": 13.4623548,
            "amenity": "bar",
            "check_date:opening_hours": "2023-07-08",
            "indoor_seating": "yes",
            "name": "Bar & Shisha Marrakesh",
            "opening_hours:signed": "no",
            "outdoor_seating": "yes"
          },
          "geometry": {
            "type": "Point",
            "coordinates": [
              13.4623548,
              48.5733679
            ]
          }
        },
        {
          "type": "Feature",
          "properties": {
            "id": "3521664708",
            "osm_type": "node",
            "lat": 48.5731421,
            "lon": 13.4630286,
            "addr:city": "Passau",
            "addr:country": "DE",
            "addr:housenumber": "12",
            "addr:postcode": "94032",
            "addr:street": "Gottfried-Schäffer-Straße",
            "amenity": "bar",
            "name": "studio12"
          },
          "geometry": {
            "type": "Point",
            "coordinates": [
              13.4630286,
              48.5731421
            ]
          }
        },
        {
          "type": "Feature",
          "properties": {
            "id": "3522458486",
            "osm_type": "node",
            "lat": 48.5754233,
            "lon": 13.4611928,
            "addr:housenumber": "9",
            "addr:street": "Rindermarkt",
            "amenity": "bar",
            "email": "info@livingart-passau.de",
            "fax": "+49 851 9346901",
            "fixme": "besseres Tagging für den Laden, siehe Webseite",
            "name": "LivingArt",
            "opening_hours": "Mo-Fr 10:00-18:00; Sa 10:00-16:00",
            "phone": "+49 851 2169",
            "website": "http://www.livingart-passau.de/"
          },
          "geometry": {
            "type": "Point",
            "coordinates": [
              13.4611928,
              48.5754233
            ]
          }
        },
        {
          "type": "Feature",
          "properties": {
            "id": "3531354547",
            "osm_type": "node",
            "lat": 48.5714341,
            "lon": 13.4598477,
            "addr:city": "Passau",
            "addr:country": "DE",
            "addr:housenumber": "20",
            "addr:postcode": "94032",
            "addr:street": "Innstraße",
            "amenity": "bar",
            "name": "Bistro-Kneipe Small Talk",
            "opening_hours": "Mo-Sa 15:00-23:00",
            "phone": "+49 851 7562151"
          },
          "geometry": {
            "type": "Point",
            "coordinates": [
              13.4598477,
              48.5714341
            ]
          }
        },
        {
          "type": "Feature",
          "properties": {
            "id": "4919397354",
            "osm_type": "node",
            "lat": 48.5776713,
            "lon": 13.4585307,
            "addr:city": "Passau",
            "addr:country": "DE",
            "addr:postcode": "94034",
            "addr:street": "Parkstraße",
            "amenity": "bar",
            "name": "Heimatministerium der Moderne",
            "opening_hours": "Th-Sa 19:00+",
            "outdoor_seating": "no",
            "smoking": "no",
            "website": "https://www.instagram.com/heimatministerium_der_moderne/"
          },
          "geometry": {
            "type": "Point",
            "coordinates": [
              13.4585307,
              48.5776713
            ]
          }
        },
        {
          "type": "Feature",
          "properties": {
            "id": "7012157227",
            "osm_type": "node",
            "lat": 48.5738742,
            "lon": 13.4627795,
            "addr:city": "Passau",
            "addr:country": "DE",
            "addr:housenumber": "27",
            "addr:postcode": "94032",
            "addr:street": "Grabengasse",
            "addr:suburb": "Neumarkt",
            "amenity": "bar",
            "indoor_seating": "yes",
            "name": "Leo e Luna",
            "note": "der heißt tatsächlich so: Kleiner Tattooladen",
            "outdoor_seating": "yes"
          },
          "geometry": {
            "type": "Point",
            "coordinates": [
              13.4627795,
              48.5738742
            ]
          }
        },
        {
          "type": "Feature",
          "properties": {
            "id": "10931686303",
            "osm_type": "node",
            "lat": 48.4566438,
            "lon": 13.4310725,
            "amenity": "bar",
            "name": "Cafe Bar Prosecco",
            "outdoor_seating": "yes"
          },
          "geometry": {
            "type": "Point",
            "coordinates": [
              13.4310725,
              48.4566438
            ]
          }
        },
        {
          "type": "Feature",
          "properties": {
            "id": "10933731962",
            "osm_type": "node",
            "lat": 48.4575915,
            "lon": 13.4308197,
            "amenity": "bar",
            "name": "Weinbar",
            "outdoor_seating": "yes"
          },
          "geometry": {
            "type": "Point",
            "coordinates": [
              13.4308197,
              48.4575915
            ]
          }
        },
        {
          "type": "Feature",
          "properties": {
            "id": "12618052391",
            "osm_type": "node",
            "lat": 48.5707986,
            "lon": 13.432408,
            "addr:city": "Passau",
            "addr:country": "DE",
            "addr:housenumber": "8",
            "addr:postcode": "94032",
            "addr:street": "Holzheimerstraße",
            "amenity": "bar",
            "name": "eFact Karaoke & Billard Bar",
            "phone": "+49 1575 7119150"
          },
          "geometry": {
            "type": "Point",
            "coordinates": [
              13.432408,
              48.5707986
            ]
          }
        },
        {
          "type": "Feature",
          "properties": {
            "id": "393836308",
            "osm_type": "node",
            "lat": 48.5731561,
            "lon": 13.9932075,
            "addr:housenumber": "10",
            "addr:postcode": "4150",
            "addr:street": "Berggasse",
            "amenity": "bar",
            "name": "Lucky Lips - Bergwerk"
          },
          "geometry": {
            "type": "Point",
            "coordinates": [
              13.9932075,
              48.5731561
            ]
          }
        },
        {
          "type": "Feature",
          "properties": {
            "id": "1536971817",
            "osm_type": "node",
            "lat": 48.5017102,
            "lon": 14.0874438,
            "amenity": "bar",
            "check_date": "2025-07-16",
            "name": "hoegues"
          },
          "geometry": {
            "type": "Point",
            "coordinates": [
              14.0874438,
              48.5017102
            ]
          }
        },
        {
          "type": "Feature",
          "properties": {
            "id": "2376376376",
            "osm_type": "node",
            "lat": 48.4169494,
            "lon": 14.0390832,
            "amenity": "bar",
            "email": "info@elislounge.at",
            "name": "Elis Lounge",
            "opening_hours": "Su-Th 08:00-02:00, Fr- Sa 08:00-04:00; Tu off \"Ruhetag\"",
            "operator": "Özer & Straßer OG",
            "phone": "+43 680 11 99 572",
            "smoking": "separated",
            "website": "https://www.elislounge.at/"
          },
          "geometry": {
            "type": "Point",
            "coordinates": [
              14.0390832,
              48.4169494
            ]
          }
        },
        {
          "type": "Feature",
          "properties": {
            "id": "6587337187",
            "osm_type": "node",
            "lat": 48.6640554,
            "lon": 14.1635692,
            "amenity": "bar",
            "name": "Beach Bar El Bouda"
          },
          "geometry": {
            "type": "Point",
            "coordinates": [
              14.1635692,
              48.6640554
            ]
          }
        },
        {
          "type": "Feature",
          "properties": {
            "id": "9775294154",
            "osm_type": "node",
            "lat": 48.6455403,
            "lon": 14.2221473,
            "addr:city": "Lipno nad Vltavou",
            "addr:postcode": "38278",
            "amenity": "bar",
            "name": "Ski Caffe",
            "outdoor_seating": "yes"
          },
          "geometry": {
            "type": "Point",
            "coordinates": [
              14.2221473,
              48.6455403
            ]
          }
        }
      ],
      "children": []
    },
    {
      "bbox": {
        "south": 48.355971499999995,
        "west": 14.2994695,
        "north": 48.68652475,
        "east": 15.253173
      },
      "poiCount": 13,
      "leafCount": 13,
      "averagePosition": [
        14.685738538461539,
        48.5383106
      ],
      "data": [
        {
          "type": "Feature",
          "properties": {
            "id": "455352903",
            "osm_type": "node",
            "lat": 48.3571877,
            "lon": 14.477599,
            "amenity": "bar",
            "name": "EVERS Tanzschuppen"
          },
          "geometry": {
            "type": "Point",
            "coordinates": [
              14.477599,
              48.3571877
            ]
          }
        },
        {
          "type": "Feature",
          "properties": {
            "id": "10596844083",
            "osm_type": "node",
            "lat": 48.3563478,
            "lon": 14.5307121,
            "amenity": "bar",
            "check_date": "2025-04-15",
            "name": "Zotti´s Stadtkeller"
          },
          "geometry": {
            "type": "Point",
            "coordinates": [
              14.5307121,
              48.3563478
            ]
          }
        },
        {
          "type": "Feature",
          "properties": {
            "id": "411280636",
            "osm_type": "node",
            "lat": 48.5103102,
            "lon": 14.5027778,
            "addr:city": "Freistadt",
            "addr:country": "AT",
            "addr:housenumber": "2",
            "addr:postcode": "4240",
            "addr:street": "Eisengasse",
            "amenity": "bar",
            "name": "Il Vino",
            "opening_hours": "Tu-Fr 16:00-24:00; Sa 18:00-24:00",
            "source": "local_knowledge",
            "website": "http://www.il-vino.at",
            "wifi": "no"
          },
          "geometry": {
            "type": "Point",
            "coordinates": [
              14.5027778,
              48.5103102
            ]
          }
        },
        {
          "type": "Feature",
          "properties": {
            "id": "5087878358",
            "osm_type": "node",
            "lat": 48.5126842,
            "lon": 14.5033217,
            "addr:city": "Freistadt",
            "addr:postcode": "4240",
            "addr:street": "Salzgasse",
            "amenity": "bar",
            "name": "Local",
            "smoking": "yes"
          },
          "geometry": {
            "type": "Point",
            "coordinates": [
              14.5033217,
              48.5126842
            ]
          }
        },
        {
          "type": "Feature",
          "properties": {
            "id": "5316457196",
            "osm_type": "node",
            "lat": 48.6194606,
            "lon": 14.3087684,
            "amenity": "bar",
            "name": "Lucky Club",
            "opening_hours": "24/7"
          },
          "geometry": {
            "type": "Point",
            "coordinates": [
              14.3087684,
              48.6194606
            ]
          }
        },
        {
          "type": "Feature",
          "properties": {
            "id": "9921265646",
            "osm_type": "node",
            "lat": 48.6554687,
            "lon": 14.3669901,
            "addr:city": "Rožmberk nad Vltavou",
            "addr:postcode": "38218",
            "amenity": "bar",
            "indoor_seating": "no",
            "name": "Bar baracchina",
            "outdoor_seating": "yes"
          },
          "geometry": {
            "type": "Point",
            "coordinates": [
              14.3669901,
              48.6554687
            ]
          }
        },
        {
          "type": "Feature",
          "properties": {
            "id": "10241921956",
            "osm_type": "node",
            "lat": 48.5126438,
            "lon": 14.5034834,
            "addr:city": "Freistadt",
            "addr:housenumber": "25",
            "addr:postcode": "4240",
            "addr:street": "Salzgasse",
            "amenity": "bar",
            "brewery": "yes",
            "name": "Local Im Kino Freistadt"
          },
          "geometry": {
            "type": "Point",
            "coordinates": [
              14.5034834,
              48.5126438
            ]
          }
        },
        {
          "type": "Feature",
          "properties": {
            "id": "1604795061",
            "osm_type": "node",
            "lat": 48.4432506,
            "lon": 14.6774465,
            "amenity": "bar",
            "name": "Prestige Nightclub"
          },
          "geometry": {
            "type": "Point",
            "coordinates": [
              14.6774465,
              48.4432506
            ]
          }
        },
        {
          "type": "Feature",
          "properties": {
            "id": "3429807697",
            "osm_type": "node",
            "lat": 48.5739154,
            "lon": 14.9597075,
            "amenity": "bar",
            "name": "Vianko Meine Bar in Germs",
            "website": "https://www.vianko.at/"
          },
          "geometry": {
            "type": "Point",
            "coordinates": [
              14.9597075,
              48.5739154
            ]
          }
        },
        {
          "type": "Feature",
          "properties": {
            "id": "3525983427",
            "osm_type": "node",
            "lat": 48.5711801,
            "lon": 14.9563946,
            "addr:street": "Dr.-Carl-Wilfert-Straße",
            "amenity": "bar",
            "name": "Wohnzimma Groß Gerungs"
          },
          "geometry": {
            "type": "Point",
            "coordinates": [
              14.9563946,
              48.5711801
            ]
          }
        },
        {
          "type": "Feature",
          "properties": {
            "id": "12163381293",
            "osm_type": "node",
            "lat": 48.6804234,
            "lon": 14.7865974,
            "amenity": "bar",
            "name": "Moor-Bar",
            "opening_hours": "Mo-Su,PH 00:00+"
          },
          "geometry": {
            "type": "Point",
            "coordinates": [
              14.7865974,
              48.6804234
            ]
          }
        },
        {
          "type": "Feature",
          "properties": {
            "id": "457133393",
            "osm_type": "node",
            "lat": 48.6028803,
            "lon": 15.1705768,
            "amenity": "bar",
            "check_date": "2023-04-02",
            "name": "Kuba - die Bar"
          },
          "geometry": {
            "type": "Point",
            "coordinates": [
              15.1705768,
              48.6028803
            ]
          }
        },
        {
          "type": "Feature",
          "properties": {
            "id": "5122097110",
            "osm_type": "node",
            "lat": 48.602285,
            "lon": 15.1702257,
            "addr:housenumber": "9",
            "addr:street": "Syrnauer Straße",
            "amenity": "bar",
            "check_date": "2025-01-05",
            "name": "Monana",
            "opening_hours": "Mo-Sa 16:00-23:55",
            "website": "https://monana.at"
          },
          "geometry": {
            "type": "Point",
            "coordinates": [
              15.1702257,
              48.602285
            ]
          }
        }
      ],
      "children": []
    },
    {
      "bbox": {
        "south": 48.68652475,
        "west": 13.345766,
        "north": 49.017078,
        "east": 14.2994695
      },
      "poiCount": 11,
      "leafCount": 11,
      "averagePosition": [
        13.70772319090909,
        48.81573719090909
      ],
      "data": [
        {
          "type": "Feature",
          "properties": {
            "id": "6484396933",
            "osm_type": "node",
            "lat": 48.8557187,
            "lon": 13.3925952,
            "amenity": "bar",
            "name": "Lois Pub"
          },
          "geometry": {
            "type": "Point",
            "coordinates": [
              13.3925952,
              48.8557187
            ]
          }
        },
        {
          "type": "Feature",
          "properties": {
            "id": "9289456882",
            "osm_type": "node",
            "lat": 48.8310902,
            "lon": 13.5091062,
            "amenity": "bar",
            "name": "Tanzer"
          },
          "geometry": {
            "type": "Point",
            "coordinates": [
              13.5091062,
              48.8310902
            ]
          }
        },
        {
          "type": "Feature",
          "properties": {
            "id": "9289522038",
            "osm_type": "node",
            "lat": 48.8208377,
            "lon": 13.5041797,
            "amenity": "bar",
            "brewery": "yes",
            "communication": "contact_bar",
            "fee": "yes",
            "name": "Miatei (Drexler)",
            "operator": "Miatei"
          },
          "geometry": {
            "type": "Point",
            "coordinates": [
              13.5041797,
              48.8208377
            ]
          }
        },
        {
          "type": "Feature",
          "properties": {
            "id": "1533652436",
            "osm_type": "node",
            "lat": 48.8005303,
            "lon": 13.5493604,
            "amenity": "bar",
            "name": "FreYheit",
            "website": "http://www.club-freyheit.de/"
          },
          "geometry": {
            "type": "Point",
            "coordinates": [
              13.5493604,
              48.8005303
            ]
          }
        },
        {
          "type": "Feature",
          "properties": {
            "id": "9740938869",
            "osm_type": "node",
            "lat": 48.8068508,
            "lon": 13.5460845,
            "addr:city": "Freyung",
            "addr:housenumber": "5A",
            "addr:postcode": "94078",
            "addr:street": "Passauer Straße",
            "amenity": "bar",
            "contact:phone": "9154262",
            "name": "Meli & Andis BAR",
            "opening_hours": "We-Su 17:00-01:00"
          },
          "geometry": {
            "type": "Point",
            "coordinates": [
              13.5460845,
              48.8068508
            ]
          }
        },
        {
          "type": "Feature",
          "properties": {
            "id": "12021351863",
            "osm_type": "node",
            "lat": 48.7492937,
            "lon": 13.8179613,
            "amenity": "bar",
            "name": "Chill-Beach-Bar"
          },
          "geometry": {
            "type": "Point",
            "coordinates": [
              13.8179613,
              48.7492937
            ]
          }
        },
        {
          "type": "Feature",
          "properties": {
            "id": "898036477",
            "osm_type": "node",
            "lat": 48.8139361,
            "lon": 14.2588993,
            "addr:city": "Kájov",
            "addr:conscriptionnumber": "44",
            "addr:country": "CZ",
            "addr:housenumber": "44",
            "addr:postcode": "38221",
            "addr:street": "Boletická",
            "amenity": "bar",
            "brewery": "yes",
            "email": "cocktailbarzazdi@gmail.com",
            "name": "Cocktail Bar Za Zdí",
            "phone": "+420 737 469 831",
            "ref:ruian:addr": "8698350",
            "source:addr": "cuzk:ruian"
          },
          "geometry": {
            "type": "Point",
            "coordinates": [
              14.2588993,
              48.8139361
            ]
          }
        },
        {
          "type": "Feature",
          "properties": {
            "id": "8677714039",
            "osm_type": "node",
            "lat": 48.7755341,
            "lon": 14.2900419,
            "amenity": "bar",
            "name": "MALIBU BAR"
          },
          "geometry": {
            "type": "Point",
            "coordinates": [
              14.2900419,
              48.7755341
            ]
          }
        },
        {
          "type": "Feature",
          "properties": {
            "id": "13084119768",
            "osm_type": "node",
            "lat": 48.7318818,
            "lon": 14.0938936,
            "amenity": "bar"
          },
          "geometry": {
            "type": "Point",
            "coordinates": [
              14.0938936,
              48.7318818
            ]
          }
        },
        {
          "type": "Feature",
          "properties": {
            "id": "3741131856",
            "osm_type": "node",
            "lat": 48.9064964,
            "lon": 13.3473452,
            "amenity": "bar",
            "name": "Saloon Palmberg",
            "opening_hours": "14-täglich, Sa. ab 21:00 Uhr",
            "smoking": "outside"
          },
          "geometry": {
            "type": "Point",
            "coordinates": [
              13.3473452,
              48.9064964
            ]
          }
        },
        {
          "type": "Feature",
          "properties": {
            "id": "11155553044",
            "osm_type": "node",
            "lat": 48.8809393,
            "lon": 13.4754878,
            "amenity": "bar",
            "contact:facebook": "https://www.facebook.com/BARdeweiherbyChristianHerrmann/",
            "name": "BARdeweiher Neuschönau"
          },
          "geometry": {
            "type": "Point",
            "coordinates": [
              13.4754878,
              48.8809393
            ]
          }
        }
      ],
      "children": []
    },
    {
      "bbox": {
        "south": 48.68652475,
        "west": 14.2994695,
        "north": 49.017078,
        "east": 15.253173
      },
      "poiCount": 48,
      "leafCount": 48,
      "averagePosition": [
        14.489482339583333,
        48.90259621458333
      ],
      "data": [
        {
          "type": "Feature",
          "properties": {
            "id": "2333407371",
            "osm_type": "node",
            "lat": 48.8126251,
            "lon": 14.3175987,
            "addr:city": "Český Krumlov",
            "addr:housenumber": "46",
            "addr:postcode": "381 01",
            "addr:street": "Latrán",
            "amenity": "bar",
            "brewery": "no",
            "facebook": "https://www.facebook.com/pages/Apotheka-Cocktail-Bar/174350232621552",
            "indoor_seating": "yes",
            "name": "Apotheka Cocktail Bar",
            "outdoor_seating": "yes",
            "payment:cash": "yes",
            "payment:credit_cards": "yes",
            "website": "https://www.facebook.com/pages/Apotheka%20Cocktail%20Bar/174350232621552/",
            "wheelchair": "no"
          },
          "geometry": {
            "type": "Point",
            "coordinates": [
              14.3175987,
              48.8126251
            ]
          }
        },
        {
          "type": "Feature",
          "properties": {
            "id": "2414396193",
            "osm_type": "node",
            "lat": 48.8290189,
            "lon": 14.4608731,
            "addr:city": "Velešín",
            "amenity": "bar"
          },
          "geometry": {
            "type": "Point",
            "coordinates": [
              14.4608731,
              48.8290189
            ]
          }
        },
        {
          "type": "Feature",
          "properties": {
            "id": "5931155014",
            "osm_type": "node",
            "lat": 48.8111952,
            "lon": 14.3128638,
            "addr:city": "Český Krumlov",
            "addr:housenumber": "81",
            "addr:postcode": "38101",
            "addr:street": "Hradební",
            "amenity": "bar",
            "indoor_seating": "yes",
            "min_age": "18",
            "name": "City Lounge",
            "outdoor_seating": "no",
            "smoking": "outside",
            "website": "https://www.citylounge.cz/"
          },
          "geometry": {
            "type": "Point",
            "coordinates": [
              14.3128638,
              48.8111952
            ]
          }
        },
        {
          "type": "Feature",
          "properties": {
            "id": "6421827185",
            "osm_type": "node",
            "lat": 48.8120302,
            "lon": 14.316903,
            "addr:city": "Český Krumlov",
            "addr:housenumber": "15",
            "addr:postcode": "381 01",
            "addr:street": "Latrán",
            "amenity": "bar",
            "brewery": "yes",
            "level": "1",
            "min_age": "18",
            "name": "Zapa Bar",
            "outdoor_seating": "no",
            "payment:cash": "yes",
            "payment:credit_cards": "yes",
            "website": "https://www.zapa-bar.cz/",
            "wheelchair": "no"
          },
          "geometry": {
            "type": "Point",
            "coordinates": [
              14.316903,
              48.8120302
            ]
          }
        },
        {
          "type": "Feature",
          "properties": {
            "id": "6993626682",
            "osm_type": "node",
            "lat": 48.8104338,
            "lon": 14.3142191,
            "addr:city": "Český Krumlov",
            "addr:housenumber": "11",
            "addr:postcode": "381 01",
            "addr:street": "náměstí Svornosti",
            "amenity": "bar",
            "brewery": "yes",
            "check_date:opening_hours": "2024-11-19",
            "description": "počet míst: 160",
            "indoor_seating": "yes",
            "level": "-1",
            "min_age": "18",
            "name": "Music Cocktail Bar",
            "opening_hours": "Mo-Su 18:30-03:00",
            "outdoor_seating": "no",
            "payment:cash": "yes",
            "payment:credit_cards": "yes",
            "website": "http://www.hotelzlatyandel.cz/index.php?page=restaurace&lang=cz#music",
            "wheelchair": "no"
          },
          "geometry": {
            "type": "Point",
            "coordinates": [
              14.3142191,
              48.8104338
            ]
          }
        },
        {
          "type": "Feature",
          "properties": {
            "id": "7004481340",
            "osm_type": "node",
            "lat": 48.8109711,
            "lon": 14.313951,
            "addr:city": "Český Krumlov",
            "addr:housenumber": "38",
            "addr:postcode": "381 01",
            "addr:street": "Panenská",
            "amenity": "bar",
            "brewery": "yes",
            "indoor_seating": "yes",
            "level": "-1",
            "min_age": "18",
            "name": "Bikers Bar Bohemia",
            "opening_hours": "Mo-Su 18:00-01:00",
            "outdoor_seating": "no",
            "website": "http://www.bohemiabikers.cz/"
          },
          "geometry": {
            "type": "Point",
            "coordinates": [
              14.313951,
              48.8109711
            ]
          }
        },
        {
          "type": "Feature",
          "properties": {
            "id": "7023341478",
            "osm_type": "node",
            "lat": 48.8107525,
            "lon": 14.314151,
            "addr:city": "Český Krumlov",
            "addr:housenumber": "36",
            "addr:postcode": "381 01",
            "addr:street": "Soukenická",
            "amenity": "bar",
            "brewery": "yes",
            "email": "info@festibar.cz",
            "indoor_seating": "yes",
            "level": "0",
            "name": "Festi bar",
            "opening_hours": "Th 19:00-24:00; Fr,Sa 19:00-01:00",
            "outdoor_seating": "no",
            "payment:cash": "yes",
            "payment:credit_cards": "yes",
            "phone": "+420 774 866 955",
            "website": "http://www.festibar.cz/",
            "wheelchair": "limited"
          },
          "geometry": {
            "type": "Point",
            "coordinates": [
              14.314151,
              48.8107525
            ]
          }
        },
        {
          "type": "Feature",
          "properties": {
            "id": "7035909888",
            "osm_type": "node",
            "lat": 48.8120257,
            "lon": 14.3176051,
            "addr:city": "Český Krumlov",
            "addr:housenumber": "22",
            "addr:postcode": "381 01",
            "addr:street": "Nové Město",
            "amenity": "bar",
            "brewery": "no",
            "level": "0",
            "name": "BOOM Bar",
            "outdoor_seating": "no",
            "payment:cash": "yes",
            "payment:credit_cards": "yes"
          },
          "geometry": {
            "type": "Point",
            "coordinates": [
              14.3176051,
              48.8120257
            ]
          }
        },
        {
          "type": "Feature",
          "properties": {
            "id": "7040469841",
            "osm_type": "node",
            "lat": 48.7929619,
            "lon": 14.305959,
            "addr:city": "Přídolí",
            "amenity": "bar",
            "brewery": "yes;various",
            "facebook": "https://www.facebook.com/GrillBarPodBarevnouSkalou",
            "name": "Grill bar Pod Barevnou skálou",
            "opening_hours": "Mo-Su,PH 10:00-18:00",
            "outdoor_seating": "yes",
            "payment:cash": "yes",
            "payment:credit_cards": "yes",
            "phone": "+420 775 956 992"
          },
          "geometry": {
            "type": "Point",
            "coordinates": [
              14.305959,
              48.7929619
            ]
          }
        },
        {
          "type": "Feature",
          "properties": {
            "id": "7050379788",
            "osm_type": "node",
            "lat": 48.8126264,
            "lon": 14.3174384,
            "addr:city": "Český Krumlov",
            "addr:housenumber": "46",
            "addr:postcode": "381 01",
            "addr:street": "Latrán",
            "amenity": "bar",
            "drive_through": "no",
            "name": "Apotheka u tří havranů",
            "outdoor_seating": "yes",
            "payment:cash": "yes",
            "payment:credit_cards": "yes",
            "smoking": "outside"
          },
          "geometry": {
            "type": "Point",
            "coordinates": [
              14.3174384,
              48.8126264
            ]
          }
        },
        {
          "type": "Feature",
          "properties": {
            "id": "7123104769",
            "osm_type": "node",
            "lat": 48.8088164,
            "lon": 14.3146705,
            "addr:city": "Český Krumlov",
            "addr:housenumber": "40",
            "addr:postcode": "381 01",
            "addr:street": "Rybářská",
            "amenity": "bar",
            "brewery": "yes",
            "name": "rock café bar barrel",
            "outdoor_seating": "no"
          },
          "geometry": {
            "type": "Point",
            "coordinates": [
              14.3146705,
              48.8088164
            ]
          }
        },
        {
          "type": "Feature",
          "properties": {
            "id": "7124002494",
            "osm_type": "node",
            "lat": 48.8102078,
            "lon": 14.3171456,
            "amenity": "bar",
            "brewery": "no",
            "name": "vinárna Růže",
            "outdoor_seating": "yes"
          },
          "geometry": {
            "type": "Point",
            "coordinates": [
              14.3171456,
              48.8102078
            ]
          }
        },
        {
          "type": "Feature",
          "properties": {
            "id": "7639767661",
            "osm_type": "node",
            "lat": 48.811794,
            "lon": 14.3151459,
            "air_conditioning": "no",
            "amenity": "bar",
            "brewery": "yes",
            "indoor_seating": "no",
            "name": "bar, cafe",
            "opening_hours:signed": "no",
            "operator": "Hotel Dvořák",
            "outdoor_seating": "yes",
            "payment:cash": "yes",
            "payment:credit_cards": "yes",
            "wheelchair": "yes"
          },
          "geometry": {
            "type": "Point",
            "coordinates": [
              14.3151459,
              48.811794
            ]
          }
        },
        {
          "type": "Feature",
          "properties": {
            "id": "7660502891",
            "osm_type": "node",
            "lat": 48.8096618,
            "lon": 14.314727,
            "air_conditioning": "no",
            "amenity": "bar",
            "indoor_seating": "no",
            "level": "0",
            "name": "venkovní bar U Mrázků",
            "outdoor_seating": "yes",
            "payment:cash": "yes",
            "smoking": "outside",
            "wheelchair": "yes"
          },
          "geometry": {
            "type": "Point",
            "coordinates": [
              14.314727,
              48.8096618
            ]
          }
        },
        {
          "type": "Feature",
          "properties": {
            "id": "12467673315",
            "osm_type": "node",
            "lat": 48.8016825,
            "lon": 14.3107226,
            "addr:city": "Český Krumlov",
            "addr:housenumber": "256",
            "addr:postcode": "38101",
            "addr:street": "Sídliště Plešivec",
            "amenity": "bar",
            "brewery": "yes",
            "min_age": "18",
            "name": "BAR MAXIMA",
            "outdoor_seating": "no",
            "ref:ruian:building": "26261880",
            "source": "cuzk:ruian"
          },
          "geometry": {
            "type": "Point",
            "coordinates": [
              14.3107226,
              48.8016825
            ]
          }
        },
        {
          "type": "Feature",
          "properties": {
            "id": "12869195542",
            "osm_type": "node",
            "lat": 48.8134172,
            "lon": 14.3204002,
            "addr:city": "Český Krumlov",
            "addr:postcode": "381 01",
            "addr:street": "Pivovarská",
            "amenity": "bar",
            "cuisine": "regional",
            "diet:local": "yes",
            "drive_through": "no",
            "name": "Flamingo garden",
            "payment:cash": "yes",
            "payment:credit_cards": "yes",
            "ref:ruian:building": "38389801",
            "source": "cuzk:ruian",
            "takeaway": "yes"
          },
          "geometry": {
            "type": "Point",
            "coordinates": [
              14.3204002,
              48.8134172
            ]
          }
        },
        {
          "type": "Feature",
          "properties": {
            "id": "2477796302",
            "osm_type": "node",
            "lat": 48.7728398,
            "lon": 14.9837655,
            "amenity": "bar",
            "name": "Minibar"
          },
          "geometry": {
            "type": "Point",
            "coordinates": [
              14.9837655,
              48.7728398
            ]
          }
        },
        {
          "type": "Feature",
          "properties": {
            "id": "2486851103",
            "osm_type": "node",
            "lat": 48.7731891,
            "lon": 14.9833783,
            "amenity": "bar",
            "name": "Pirates Bar"
          },
          "geometry": {
            "type": "Point",
            "coordinates": [
              14.9833783,
              48.7731891
            ]
          }
        },
        {
          "type": "Feature",
          "properties": {
            "id": "7692215184",
            "osm_type": "node",
            "lat": 48.7006368,
            "lon": 14.8944142,
            "addr:city": "Weitra",
            "addr:housenumber": "179",
            "addr:postcode": "3970",
            "addr:street": "Rathausplatz",
            "amenity": "bar",
            "name": "STADTKeller",
            "opening_hours": "Tu,We,Th 16:00-24:00; Fr,Sa 16:00-01:00, Su 16:00-22:00",
            "website": "https://www.stadtkeller-weitra.at/"
          },
          "geometry": {
            "type": "Point",
            "coordinates": [
              14.8944142,
              48.7006368
            ]
          }
        },
        {
          "type": "Feature",
          "properties": {
            "id": "1424371628",
            "osm_type": "node",
            "lat": 48.8657803,
            "lon": 15.1226179,
            "amenity": "bar",
            "name": "Schirmbar",
            "smoking": "yes"
          },
          "geometry": {
            "type": "Point",
            "coordinates": [
              15.1226179,
              48.8657803
            ]
          }
        },
        {
          "type": "Feature",
          "properties": {
            "id": "4837453645",
            "osm_type": "node",
            "lat": 48.7928703,
            "lon": 15.0694164,
            "addr:city": "Schrems",
            "addr:housenumber": "3",
            "addr:postcode": "3943",
            "addr:street": "Josef-Widy-Straße",
            "amenity": "bar",
            "brewery": "yes",
            "name": "Midus"
          },
          "geometry": {
            "type": "Point",
            "coordinates": [
              15.0694164,
              48.7928703
            ]
          }
        },
        {
          "type": "Feature",
          "properties": {
            "id": "296753807",
            "osm_type": "node",
            "lat": 48.9747751,
            "lon": 14.4725915,
            "addr:city": "České Budějovice",
            "addr:conscriptionnumber": "7",
            "addr:country": "CZ",
            "addr:housenumber": "7/55",
            "addr:postcode": "37001",
            "addr:street": "Česká",
            "addr:streetnumber": "55",
            "amenity": "bar",
            "name": "Singer Pub",
            "outdoor_seating": "yes",
            "ref:ruian:addr": "23340576",
            "source:addr": "cuzk:ruian"
          },
          "geometry": {
            "type": "Point",
            "coordinates": [
              14.4725915,
              48.9747751
            ]
          }
        },
        {
          "type": "Feature",
          "properties": {
            "id": "846541180",
            "osm_type": "node",
            "lat": 48.9453177,
            "lon": 14.452888,
            "amenity": "bar",
            "name": "Café Bar - Restaurant"
          },
          "geometry": {
            "type": "Point",
            "coordinates": [
              14.452888,
              48.9453177
            ]
          }
        },
        {
          "type": "Feature",
          "properties": {
            "id": "2485193178",
            "osm_type": "node",
            "lat": 48.9745969,
            "lon": 14.4835799,
            "amenity": "bar",
            "internet_access": "wlan",
            "name": "Music Club",
            "opening_hours": "Mo-Th 10:00-00:00; Fr-Sa 10:00-04:00; Su 12:00-00:00",
            "smoking": "yes",
            "source": "survey"
          },
          "geometry": {
            "type": "Point",
            "coordinates": [
              14.4835799,
              48.9745969
            ]
          }
        },
        {
          "type": "Feature",
          "properties": {
            "id": "2944201718",
            "osm_type": "node",
            "lat": 48.9820808,
            "lon": 14.4553145,
            "amenity": "bar",
            "internet_access": "wlan",
            "internet_access:fee": "no",
            "name": "Flek bar"
          },
          "geometry": {
            "type": "Point",
            "coordinates": [
              14.4553145,
              48.9820808
            ]
          }
        },
        {
          "type": "Feature",
          "properties": {
            "id": "3711573670",
            "osm_type": "node",
            "lat": 48.9747844,
            "lon": 14.4732052,
            "addr:city": "České Budějovice",
            "addr:housenumber": "8/5",
            "addr:postcode": "37001",
            "addr:street": "nám. Přemysla Otakara II.",
            "amenity": "bar",
            "name": "Media Bar"
          },
          "geometry": {
            "type": "Point",
            "coordinates": [
              14.4732052,
              48.9747844
            ]
          }
        },
        {
          "type": "Feature",
          "properties": {
            "id": "3711617945",
            "osm_type": "node",
            "lat": 48.9774911,
            "lon": 14.479983,
            "addr:city": "České Budějovice",
            "addr:housenumber": "2024/18",
            "addr:postcode": "37001",
            "addr:street": "Nová",
            "air_conditioning": "yes",
            "amenity": "bar",
            "check_date": "2025-05-23",
            "indoor_seating": "yes",
            "name": "Cuba Bar",
            "outdoor_seating": "no",
            "wheelchair": "no"
          },
          "geometry": {
            "type": "Point",
            "coordinates": [
              14.479983,
              48.9774911
            ]
          }
        },
        {
          "type": "Feature",
          "properties": {
            "id": "4504415996",
            "osm_type": "node",
            "lat": 48.974511,
            "lon": 14.4868402,
            "amenity": "bar",
            "cuisine": "mexican",
            "name": "Bar Pepe Gonzales",
            "name:cs": "Bar Pepe Gonzales"
          },
          "geometry": {
            "type": "Point",
            "coordinates": [
              14.4868402,
              48.974511
            ]
          }
        },
        {
          "type": "Feature",
          "properties": {
            "id": "5267701579",
            "osm_type": "node",
            "lat": 48.9826939,
            "lon": 14.4720852,
            "amenity": "bar",
            "name": "U Sida"
          },
          "geometry": {
            "type": "Point",
            "coordinates": [
              14.4720852,
              48.9826939
            ]
          }
        },
        {
          "type": "Feature",
          "properties": {
            "id": "5375687523",
            "osm_type": "node",
            "lat": 48.9827733,
            "lon": 14.4550446,
            "addr:housenumber": "119/103",
            "addr:postcode": "370 05",
            "addr:street": "Husova třída",
            "amenity": "bar",
            "email": "janlehen@gmail.com",
            "internet_access": "wlan",
            "name": "Klub Malých Pivovarů",
            "opening_hours": "Mo,Tu 14:00-23:00; We 14:00-24:00; Th 14:00-23:00; Fr 14:00-24:00; Sa 14:00-23:00",
            "phone": "+420721769711",
            "website": "https://www.kmpcb.cz/"
          },
          "geometry": {
            "type": "Point",
            "coordinates": [
              14.4550446,
              48.9827733
            ]
          }
        },
        {
          "type": "Feature",
          "properties": {
            "id": "5773661217",
            "osm_type": "node",
            "lat": 48.9764957,
            "lon": 14.4719088,
            "amenity": "bar",
            "email": "bar@gin-bar.cz",
            "name": "Gin bar",
            "opening_hours": "Tu-Sa 17:00-02:00; Su 19:00-24:00; Mo off",
            "outdoor_seating": "yes",
            "phone": "+420 732 116 934",
            "was:name": "Cafe - Džin bar",
            "website": "https://gin-bar.cz/"
          },
          "geometry": {
            "type": "Point",
            "coordinates": [
              14.4719088,
              48.9764957
            ]
          }
        },
        {
          "type": "Feature",
          "properties": {
            "id": "5983058285",
            "osm_type": "node",
            "lat": 48.9763834,
            "lon": 14.4511754,
            "amenity": "bar",
            "check_date:opening_hours": "2024-07-31",
            "internet_access": "wlan",
            "name": "Studentský klub Kampa",
            "name:en": "Student club Kampa",
            "opening_hours": "Mo-Fr 11:00-23:00; Sa,Su 15:00-23:00",
            "outdoor_seating": "yes",
            "phone": "+420 605 541 686",
            "website": "https://m.facebook.com/KampaJU/"
          },
          "geometry": {
            "type": "Point",
            "coordinates": [
              14.4511754,
              48.9763834
            ]
          }
        },
        {
          "type": "Feature",
          "properties": {
            "id": "7826299099",
            "osm_type": "node",
            "lat": 48.9626772,
            "lon": 14.4731224,
            "amenity": "bar",
            "name": "Cotton Bar",
            "opening_hours": "Mo-Th 08:00-22:00; Fr,Sa 08:00-23:00; Su 08:00-22:00",
            "wheelchair": "limited"
          },
          "geometry": {
            "type": "Point",
            "coordinates": [
              14.4731224,
              48.9626772
            ]
          }
        },
        {
          "type": "Feature",
          "properties": {
            "id": "7929528068",
            "osm_type": "node",
            "lat": 48.9771339,
            "lon": 14.4740945,
            "amenity": "bar",
            "name": "Zebra",
            "outdoor_seating": "yes",
            "wheelchair": "no"
          },
          "geometry": {
            "type": "Point",
            "coordinates": [
              14.4740945,
              48.9771339
            ]
          }
        },
        {
          "type": "Feature",
          "properties": {
            "id": "9423661907",
            "osm_type": "node",
            "lat": 48.97617,
            "lon": 14.4758837,
            "amenity": "bar",
            "name": "Bikers bar Bohemia"
          },
          "geometry": {
            "type": "Point",
            "coordinates": [
              14.4758837,
              48.97617
            ]
          }
        },
        {
          "type": "Feature",
          "properties": {
            "id": "9423661948",
            "osm_type": "node",
            "lat": 48.9738717,
            "lon": 14.4758155,
            "amenity": "bar",
            "indoor_seating": "yes",
            "level": "0",
            "name": "Mango",
            "opening_hours": "We 20:00-04:00; Fr,Sa 20:00-05:00",
            "outdoor_seating": "no",
            "was:name": "Dash club&bar",
            "wheelchair": "no"
          },
          "geometry": {
            "type": "Point",
            "coordinates": [
              14.4758155,
              48.9738717
            ]
          }
        },
        {
          "type": "Feature",
          "properties": {
            "id": "9423661982",
            "osm_type": "node",
            "lat": 48.9744912,
            "lon": 14.4721623,
            "amenity": "bar",
            "name": "Žlutá ponorka",
            "opening_hours": "Tu-Sa 19:00-02:00"
          },
          "geometry": {
            "type": "Point",
            "coordinates": [
              14.4721623,
              48.9744912
            ]
          }
        },
        {
          "type": "Feature",
          "properties": {
            "id": "9885006035",
            "osm_type": "node",
            "lat": 48.9762586,
            "lon": 14.4739282,
            "amenity": "bar",
            "name": "Dr!nk"
          },
          "geometry": {
            "type": "Point",
            "coordinates": [
              14.4739282,
              48.9762586
            ]
          }
        },
        {
          "type": "Feature",
          "properties": {
            "id": "9885058716",
            "osm_type": "node",
            "lat": 48.9772855,
            "lon": 14.4754239,
            "amenity": "bar",
            "name": "Czech Hookah Club",
            "wheelchair": "no"
          },
          "geometry": {
            "type": "Point",
            "coordinates": [
              14.4754239,
              48.9772855
            ]
          }
        },
        {
          "type": "Feature",
          "properties": {
            "id": "9885417083",
            "osm_type": "node",
            "lat": 48.9758321,
            "lon": 14.4763745,
            "amenity": "bar",
            "name": "Véčko",
            "opening_hours": "Mo-Su 17:00-23:00"
          },
          "geometry": {
            "type": "Point",
            "coordinates": [
              14.4763745,
              48.9758321
            ]
          }
        },
        {
          "type": "Feature",
          "properties": {
            "id": "9885532845",
            "osm_type": "node",
            "lat": 48.9746163,
            "lon": 14.4754789,
            "amenity": "bar",
            "name": "Next 26",
            "website": "https://next26.cz"
          },
          "geometry": {
            "type": "Point",
            "coordinates": [
              14.4754789,
              48.9746163
            ]
          }
        },
        {
          "type": "Feature",
          "properties": {
            "id": "9887209963",
            "osm_type": "node",
            "lat": 48.9753649,
            "lon": 14.4730576,
            "amenity": "bar",
            "level": "0",
            "name": "Camino Karaoke Bar",
            "outdoor_seating": "yes"
          },
          "geometry": {
            "type": "Point",
            "coordinates": [
              14.4730576,
              48.9753649
            ]
          }
        },
        {
          "type": "Feature",
          "properties": {
            "id": "9887694426",
            "osm_type": "node",
            "lat": 48.972951,
            "lon": 14.4746024,
            "amenity": "bar",
            "name": "LEVEL shisha & bar",
            "opening_hours": "Mo-Th 17:30-23:00; Fr,Sa 17:30-01:00+"
          },
          "geometry": {
            "type": "Point",
            "coordinates": [
              14.4746024,
              48.972951
            ]
          }
        },
        {
          "type": "Feature",
          "properties": {
            "id": "11204003081",
            "osm_type": "node",
            "lat": 48.9769488,
            "lon": 14.4779952,
            "addr:city": "České Budějovice",
            "addr:housenumber": "18",
            "addr:postcode": "37001",
            "addr:street": "Na Sadech",
            "amenity": "bar",
            "check_date": "2025-04-15",
            "name": "Rockle Klub"
          },
          "geometry": {
            "type": "Point",
            "coordinates": [
              14.4779952,
              48.9769488
            ]
          }
        },
        {
          "type": "Feature",
          "properties": {
            "id": "1934709302",
            "osm_type": "node",
            "lat": 49.0156734,
            "lon": 14.6094071,
            "amenity": "bar"
          },
          "geometry": {
            "type": "Point",
            "coordinates": [
              14.6094071,
              49.0156734
            ]
          }
        },
        {
          "type": "Feature",
          "properties": {
            "id": "1934736772",
            "osm_type": "node",
            "lat": 49.0153212,
            "lon": 14.6127626,
            "amenity": "bar",
            "name": "Větrník"
          },
          "geometry": {
            "type": "Point",
            "coordinates": [
              14.6127626,
              49.0153212
            ]
          }
        },
        {
          "type": "Feature",
          "properties": {
            "id": "1934736774",
            "osm_type": "node",
            "lat": 49.0141977,
            "lon": 14.6124967,
            "amenity": "bar"
          },
          "geometry": {
            "type": "Point",
            "coordinates": [
              14.6124967,
              49.0141977
            ]
          }
        },
        {
          "type": "Feature",
          "properties": {
            "id": "6777629196",
            "osm_type": "node",
            "lat": 48.9883847,
            "lon": 14.5699642,
            "amenity": "bar"
          },
          "geometry": {
            "type": "Point",
            "coordinates": [
              14.5699642,
              48.9883847
            ]
          }
        }
      ],
      "children": []
    }
  ]
}