{
  "bbox": {
    "south": 47.033758500000005,
    "west": 11.438358999999998,
    "north": 47.694865,
    "east": 13.345766
  },
  "poiCount": 1,
  "leafCount": 1,
  "averagePosition": [
    12.1733215,
    47.5839578
  ],
  "data": [
    {
      "type": "Feature",
      "properties": {
        "id": "2599471774",
        "osm_type": "node",
        "lat": 47.5839578,
        "lon": 12.1733215,
        "addr:city": "Kufstein",
        "addr:country": "AT",
        "addr:housenumber": "7",
        "addr:postcode": "6330",
        "addr:street": "Andreas Hofer-Stra√üe",
        "alt_name": "FH Kufstein Tirol",
        "amenity": "university",
        "contact:email": "info@fh-kufstein.ac.at",
        "contact:fax": "+43 5372 71819-104",
        "contact:phone": "+43 5372 71819",
        "contact:website": "http://www.fh-kufstein.ac.at/",
        "name": "Fachhochschule Kufstein Tirol",
        "short_name": "FH Kufstein",
        "wheelchair": "yes",
        "wikidata": "Q1388310",
        "wikipedia": "de:FH Kufstein"
      },
      "geometry": {
        "type": "Point",
        "coordinates": [
          12.1733215,
          47.5839578
        ]
      }
    }
  ],
  "children": []
}