{
  "bbox": {
    "south": 48.355971499999995,
    "west": 15.253173,
    "north": 49.017078,
    "east": 17.16058
  },
  "poiCount": 6,
  "leafCount": 6,
  "averagePosition": [
    15.784986116666666,
    48.46988546666666
  ],
  "data": [
    {
      "type": "Feature",
      "properties": {
        "id": "415919486",
        "osm_type": "node",
        "lat": 48.40862,
        "lon": 15.5888976,
        "amenity": "university",
        "email": "information@fh-krems.ac.at",
        "name": "IMC Fachhochschule Krems",
        "phone": "+43 2732 802 0",
        "website": "https://www.fh-krems.ac.at/",
        "wheelchair": "yes",
        "wikidata": "Q1029517",
        "wikipedia": "de:IMC Fachhochschule Krems"
      },
      "geometry": {
        "type": "Point",
        "coordinates": [
          15.5888976,
          48.40862
        ]
      }
    },
    {
      "type": "Feature",
      "properties": {
        "id": "3466338609",
        "osm_type": "node",
        "lat": 48.407474,
        "lon": 15.5886217,
        "addr:city": "Krems an der Donau",
        "addr:country": "AT",
        "addr:housenumber": "30",
        "addr:postcode": "3500",
        "addr:street": "Dr.-Karl-Dorrek-Straße",
        "amenity": "university",
        "contact:email": "office@kl.ac.at",
        "contact:fax": "+43 2732 720 90 500",
        "contact:phone": "+43 2732 720 90 0",
        "contact:website": "http://www.kl.ac.at",
        "name": "Karl Landsteiner Privatuniversität für Gesundheitswissenschaften",
        "wikidata": "Q16511227",
        "wikipedia": "de:Karl Landsteiner Privatuniversität für Gesundheitswissenschaften"
      },
      "geometry": {
        "type": "Point",
        "coordinates": [
          15.5886217,
          48.407474
        ]
      }
    },
    {
      "type": "Feature",
      "properties": {
        "id": "4239868127",
        "osm_type": "node",
        "lat": 48.4002699,
        "lon": 15.5756815,
        "addr:city": "Krems an der Donau",
        "addr:country": "AT",
        "addr:housenumber": "124",
        "addr:postcode": "3500",
        "addr:street": "Steiner Landstraße",
        "amenity": "university",
        "email": "info@DP-Uni.ac.at",
        "name": "Danube Private University",
        "phone": "+43 676 842 419 305",
        "short_name": "DPU",
        "start_date": "2009",
        "website": "https://www.danube-private-university.at/",
        "wikidata": "Q1165104",
        "wikipedia": "de:Danube Private University"
      },
      "geometry": {
        "type": "Point",
        "coordinates": [
          15.5756815,
          48.4002699
        ]
      }
    },
    {
      "type": "Feature",
      "properties": {
        "id": "4560696398",
        "osm_type": "node",
        "lat": 48.4078437,
        "lon": 15.5863,
        "addr:city": "Krems an der Donau",
        "addr:country": "AT",
        "addr:housenumber": "30",
        "addr:postcode": "3500",
        "addr:street": "Dr.-Karl-Dorrek-Straße",
        "alt_name": "Donau-Universität Krems",
        "amenity": "university",
        "name": "Universität für Weiterbildung Krems",
        "phone": "+43 2732 893 6000",
        "short_name": "UWK",
        "website": "https://www.donau-uni.ac.at/",
        "wikidata": "Q508048",
        "wikipedia": "de:Universität für Weiterbildung Krems"
      },
      "geometry": {
        "type": "Point",
        "coordinates": [
          15.5863,
          48.4078437
        ]
      }
    },
    {
      "type": "Feature",
      "properties": {
        "id": "5482432150",
        "osm_type": "node",
        "lat": 48.3988358,
        "lon": 15.5707075,
        "addr:city": "Krems an der Donau",
        "addr:country": "AT",
        "addr:housenumber": "4",
        "addr:postcode": "3500",
        "addr:street": "Förthofstraße",
        "amenity": "university",
        "email": "info@DP-Uni.ac.at",
        "name": "Danube Private University",
        "phone": "+43 676 842 419 305",
        "short_name": "DPU",
        "start_date": "2009",
        "website": "https://www.danube-private-university.at/",
        "wikidata": "Q1165104",
        "wikipedia": "de:Danube Private University"
      },
      "geometry": {
        "type": "Point",
        "coordinates": [
          15.5707075,
          48.3988358
        ]
      }
    },
    {
      "type": "Feature",
      "properties": {
        "id": "2502004973",
        "osm_type": "node",
        "lat": 48.7962694,
        "lon": 16.7997084,
        "amenity": "university",
        "name": "Zahradnická fakulta Mendelovy univerzity v Brně",
        "source": "survey",
        "website": "https://zf.mendelu.cz/"
      },
      "geometry": {
        "type": "Point",
        "coordinates": [
          16.7997084,
          48.7962694
        ]
      }
    }
  ],
  "children": []
}