{
  "bbox": {
    "south": 47.694865,
    "west": 11.438358999999998,
    "north": 48.355971499999995,
    "east": 13.345766
  },
  "poiCount": 48,
  "leafCount": 48,
  "averagePosition": [
    11.931695220833333,
    48.08451459166667
  ],
  "data": [
    {
      "type": "Feature",
      "properties": {
        "id": "266071001",
        "osm_type": "node",
        "lat": 47.7966712,
        "lon": 13.0497703,
        "amenity": "university",
        "name": "ÖH Österreichische Hochschülerschaft"
      },
      "geometry": {
        "type": "Point",
        "coordinates": [
          13.0497703,
          47.7966712
        ]
      }
    },
    {
      "type": "Feature",
      "properties": {
        "id": "477834919",
        "osm_type": "node",
        "lat": 47.7815883,
        "lon": 13.0685205,
        "amenity": "university",
        "name": "Mozarteum"
      },
      "geometry": {
        "type": "Point",
        "coordinates": [
          13.0685205,
          47.7815883
        ]
      }
    },
    {
      "type": "Feature",
      "properties": {
        "id": "551204653",
        "osm_type": "node",
        "lat": 47.8035301,
        "lon": 13.0419345,
        "addr:housename": "Altes Mozarteum",
        "addr:housenumber": "26",
        "addr:postcode": "5020",
        "addr:street": "Schwarzstraße",
        "amenity": "university",
        "name": "Universität Mozarteum (Altes Mozarteum)",
        "name:en": "Universität Mozarteum (Old Building)",
        "operator": "Universität Mozarteum",
        "wheelchair": "yes"
      },
      "geometry": {
        "type": "Point",
        "coordinates": [
          13.0419345,
          47.8035301
        ]
      }
    },
    {
      "type": "Feature",
      "properties": {
        "id": "571478721",
        "osm_type": "node",
        "lat": 47.7988767,
        "lon": 13.042122,
        "amenity": "university",
        "check_date": "2024-12-21",
        "name": "Große Aula Universität Salzburg",
        "wheelchair": "yes"
      },
      "geometry": {
        "type": "Point",
        "coordinates": [
          13.042122,
          47.7988767
        ]
      }
    },
    {
      "type": "Feature",
      "properties": {
        "id": "2364353403",
        "osm_type": "node",
        "lat": 47.8236171,
        "lon": 13.0393487,
        "amenity": "university",
        "name": "Department of Geoinformatics - Z_GIS"
      },
      "geometry": {
        "type": "Point",
        "coordinates": [
          13.0393487,
          47.8236171
        ]
      }
    },
    {
      "type": "Feature",
      "properties": {
        "id": "8860537924",
        "osm_type": "node",
        "lat": 47.7986451,
        "lon": 13.0454743,
        "amenity": "university",
        "name": "Alte Geschichte"
      },
      "geometry": {
        "type": "Point",
        "coordinates": [
          13.0454743,
          47.7986451
        ]
      }
    },
    {
      "type": "Feature",
      "properties": {
        "id": "11528196997",
        "osm_type": "node",
        "lat": 47.8225077,
        "lon": 13.0406755,
        "addr:city": "Salzburg",
        "addr:housenumber": "1",
        "addr:postcode": "5020",
        "addr:street": "Jakob-Haringer-Straße",
        "amenity": "university",
        "description": "Excellence in Digital Sciences and Interdisciplinary Technologies Initiative at the Paris Lodron University of Salzburg",
        "internet_access": "wlan",
        "level": "2",
        "name": "EXDIGIT",
        "operator": "Paris Lodron University of Salzburg",
        "operator:type": "university",
        "website": "https://www.plus.ac.at/digital-and-analytical-sciences/fachbereiche-einrichtungen/einrichtungen/exdigit/?lang=en",
        "wheelchair": "yes"
      },
      "geometry": {
        "type": "Point",
        "coordinates": [
          13.0406755,
          47.8225077
        ]
      }
    },
    {
      "type": "Feature",
      "properties": {
        "id": "11980459792",
        "osm_type": "node",
        "lat": 47.8232969,
        "lon": 13.0398358,
        "addr:city": "Salzburg",
        "addr:country": "AT",
        "addr:housenumber": "30",
        "addr:postcode": "5020",
        "addr:street": "Schillerstraße",
        "amenity": "university",
        "name": "Mobility Lab - Department of Geoinformatics",
        "operator": "Paris Lodron University Salzburg",
        "operator:type": "university",
        "website": "https://mobilitylab.zgis.at/"
      },
      "geometry": {
        "type": "Point",
        "coordinates": [
          13.0398358,
          47.8232969
        ]
      }
    },
    {
      "type": "Feature",
      "properties": {
        "id": "12211484971",
        "osm_type": "node",
        "lat": 47.8234788,
        "lon": 13.0396252,
        "addr:city": "Salzburg",
        "addr:housenumber": "30",
        "addr:postcode": "5020",
        "addr:street": "Schillerstraße",
        "amenity": "university",
        "name": "UNIGIS Salzburg",
        "operator": "Paris Lodron Universität Salzburg",
        "operator:type": "university",
        "website": "https://unigis.at/"
      },
      "geometry": {
        "type": "Point",
        "coordinates": [
          13.0396252,
          47.8234788
        ]
      }
    },
    {
      "type": "Feature",
      "properties": {
        "id": "2847116408",
        "osm_type": "node",
        "lat": 48.1695067,
        "lon": 11.4962685,
        "amenity": "university",
        "name": "Lehrstuhl für Nachhaltige Mobile Antriebssysteme",
        "operator": "Technischen Universität München",
        "website": "https://www.mos.ed.tum.de/nma/startseite/"
      },
      "geometry": {
        "type": "Point",
        "coordinates": [
          11.4962685,
          48.1695067
        ]
      }
    },
    {
      "type": "Feature",
      "properties": {
        "id": "283031238",
        "osm_type": "node",
        "lat": 48.1494272,
        "lon": 11.5795225,
        "amenity": "university",
        "check_date": "2024-11-21",
        "contact:website": "https://www.physik.lmu.de/de/index.html",
        "name": "Fakultät für Physik",
        "wheelchair": "yes"
      },
      "geometry": {
        "type": "Point",
        "coordinates": [
          11.5795225,
          48.1494272
        ]
      }
    },
    {
      "type": "Feature",
      "properties": {
        "id": "283031240",
        "osm_type": "node",
        "lat": 48.1508643,
        "lon": 11.5824286,
        "addr:city": "München",
        "addr:housenumber": "2",
        "addr:postcode": "80539",
        "addr:street": "Professor-Huber-Platz",
        "amenity": "university",
        "internet_access": "wlan",
        "internet_access:fee": "customers",
        "name": "Juristisches Seminar",
        "website": "https://www.jura.lmu.de/de/index.html",
        "wheelchair": "yes"
      },
      "geometry": {
        "type": "Point",
        "coordinates": [
          11.5824286,
          48.1508643
        ]
      }
    },
    {
      "type": "Feature",
      "properties": {
        "id": "994492350",
        "osm_type": "node",
        "lat": 48.1550515,
        "lon": 11.5828079,
        "addr:city": "München",
        "addr:country": "DE",
        "addr:housenumber": "11a",
        "addr:postcode": "80802",
        "addr:street": "Leopoldstraße",
        "amenity": "university",
        "name": "Rachel Carson Center for Environment and Society",
        "operator": "LMU",
        "website": "https://www.carsoncenter.uni-muenchen.de/"
      },
      "geometry": {
        "type": "Point",
        "coordinates": [
          11.5828079,
          48.1550515
        ]
      }
    },
    {
      "type": "Feature",
      "properties": {
        "id": "1383696769",
        "osm_type": "node",
        "lat": 48.1430668,
        "lon": 11.5987673,
        "addr:city": "München",
        "addr:housenumber": "21",
        "addr:postcode": "81675",
        "addr:street": "Maria-Theresia-Straße",
        "amenity": "university",
        "name": "Graduiertenschule für Ost- und Südosteuropastudien",
        "operator": "Ludwig-Maximilians-Universität"
      },
      "geometry": {
        "type": "Point",
        "coordinates": [
          11.5987673,
          48.1430668
        ]
      }
    },
    {
      "type": "Feature",
      "properties": {
        "id": "2351318699",
        "osm_type": "node",
        "lat": 48.1374794,
        "lon": 11.6892295,
        "addr:city": "München",
        "addr:housename": "J",
        "addr:housenumber": "8",
        "addr:postcode": "81829",
        "addr:street": "Konrad-Zuse-Platz",
        "amenity": "university",
        "internet_access": "yes",
        "name": "Hochschule der Bayerischen Wirtschaft",
        "website": "https://www.hdbw-hochschule.de/"
      },
      "geometry": {
        "type": "Point",
        "coordinates": [
          11.6892295,
          48.1374794
        ]
      }
    },
    {
      "type": "Feature",
      "properties": {
        "id": "2438975940",
        "osm_type": "node",
        "lat": 48.1313326,
        "lon": 11.6152536,
        "addr:city": "München",
        "addr:housenumber": "47",
        "addr:postcode": "81673",
        "addr:street": "Berg-am-Laim-Straße",
        "amenity": "university",
        "email": "muenchen-dualesstudium@iu.org",
        "name": "IUBH - Duales Studium",
        "operator": "Internationale Hochschule Bad Honnef · Bonn GmbH",
        "phone": "+49 89 9213102-10",
        "toilets:wheelchair": "no",
        "website": "https://www.iu-dualesstudium.de/standorte/muenchen/",
        "wheelchair": "yes"
      },
      "geometry": {
        "type": "Point",
        "coordinates": [
          11.6152536,
          48.1313326
        ]
      }
    },
    {
      "type": "Feature",
      "properties": {
        "id": "2485263373",
        "osm_type": "node",
        "lat": 48.1604539,
        "lon": 11.5821232,
        "addr:city": "München",
        "addr:country": "DE",
        "addr:housenumber": "19",
        "addr:postcode": "80801",
        "addr:street": "Wilhelmstraße",
        "amenity": "university",
        "name": "Hochschule für Musik und Theater — Standort Wilhelmstraße",
        "website": "https://hmtm.de/"
      },
      "geometry": {
        "type": "Point",
        "coordinates": [
          11.5821232,
          48.1604539
        ]
      }
    },
    {
      "type": "Feature",
      "properties": {
        "id": "2513030157",
        "osm_type": "node",
        "lat": 48.1566627,
        "lon": 11.5760512,
        "amenity": "university",
        "name": "Seniorenstudium (LMU)"
      },
      "geometry": {
        "type": "Point",
        "coordinates": [
          11.5760512,
          48.1566627
        ]
      }
    },
    {
      "type": "Feature",
      "properties": {
        "id": "2557267108",
        "osm_type": "node",
        "lat": 48.1566081,
        "lon": 11.5829267,
        "addr:city": "München",
        "addr:country": "DE",
        "addr:housenumber": "15",
        "addr:postcode": "80802",
        "addr:street": "Leopoldstraße",
        "amenity": "university",
        "description": "Serlo.org bietet einfache Erklärungen, Kurse, Lernvideos, Übungen und Musterlösungen mit denen SchülerInnen und Studierende nach ihrem eigenen Bedarf und in ihrem eigenen Tempo lernen können. Die Lernplattform ist komplett kostenlos und werbefrei.",
        "email": "de@serlo.org",
        "internet_access": "yes",
        "name": "Serlo Education e.V. – Hochschulgruppe der LMU",
        "operator": "Serlo Education e.V.",
        "website": "https://de.serlo.org/",
        "wheelchair": "yes"
      },
      "geometry": {
        "type": "Point",
        "coordinates": [
          11.5829267,
          48.1566081
        ]
      }
    },
    {
      "type": "Feature",
      "properties": {
        "id": "3414243194",
        "osm_type": "node",
        "lat": 48.1413043,
        "lon": 11.5780072,
        "addr:housenumber": "1",
        "addr:postcode": "80333",
        "addr:street": "Residenzstraße",
        "amenity": "university",
        "name": "DGFI-TUM",
        "note": "Deutsches Geodätisches Forschungsinstitut",
        "operator": "Technische Universität München",
        "website": "https://www.dgfi.tum.de",
        "wheelchair": "limited"
      },
      "geometry": {
        "type": "Point",
        "coordinates": [
          11.5780072,
          48.1413043
        ]
      }
    },
    {
      "type": "Feature",
      "properties": {
        "id": "3929291567",
        "osm_type": "node",
        "lat": 48.1531606,
        "lon": 11.5523631,
        "addr:city": "München",
        "addr:country": "DE",
        "addr:housenumber": "34",
        "addr:postcode": "80335",
        "addr:street": "Lothstraße",
        "amenity": "university",
        "contact:email": "info@nachhaltigehochschule.de",
        "contact:website": "https://www.bayzen.de/",
        "name": "Hochschule und Nachhaltigkeit Bayern Hochschule München",
        "topic": "environment",
        "wheelchair": "no"
      },
      "geometry": {
        "type": "Point",
        "coordinates": [
          11.5523631,
          48.1531606
        ]
      }
    },
    {
      "type": "Feature",
      "properties": {
        "id": "4177892778",
        "osm_type": "node",
        "lat": 48.2502458,
        "lon": 11.6232,
        "addr:city": "Garching bei München",
        "addr:housenumber": "90a",
        "addr:postcode": "85748",
        "addr:street": "Schleißheimer Straße",
        "addr:suburb": "Hochbrück",
        "amenity": "university",
        "check_date": "2024-06-06",
        "name": "TU München, Lehrstuhl für Echtzeitsysteme, Künstliche Intelligenz und Robotik",
        "website": "https://www.ce.cit.tum.de/air/home/"
      },
      "geometry": {
        "type": "Point",
        "coordinates": [
          11.6232,
          48.2502458
        ]
      }
    },
    {
      "type": "Feature",
      "properties": {
        "id": "5772457341",
        "osm_type": "node",
        "lat": 48.1478107,
        "lon": 11.5622953,
        "addr:city": "München",
        "addr:housenumber": "44",
        "addr:postcode": "80333",
        "addr:street": "Augustenstraße",
        "amenity": "university",
        "internet_access": "wlan",
        "internet_access:ssid": "eduroam",
        "name": "Technische Universität München / Modellierung Räumlicher Mobilität",
        "name:de": "Technische Universität München / Modellierung Räumlicher Mobilität",
        "name:en": "Technical University of Munich / Modeling Spatial Mobility"
      },
      "geometry": {
        "type": "Point",
        "coordinates": [
          11.5622953,
          48.1478107
        ]
      }
    },
    {
      "type": "Feature",
      "properties": {
        "id": "5862775989",
        "osm_type": "node",
        "lat": 48.1479303,
        "lon": 11.5734693,
        "amenity": "university",
        "check_date": "2025-08-18",
        "contact:website": "https://www.theorie.physik.uni-muenchen.de",
        "name": "Arnold Sommerfeld Center",
        "name:en": "The Arnold Sommerfeld Center for Theoretical Physics"
      },
      "geometry": {
        "type": "Point",
        "coordinates": [
          11.5734693,
          48.1479303
        ]
      }
    },
    {
      "type": "Feature",
      "properties": {
        "id": "5901633493",
        "osm_type": "node",
        "lat": 48.2291123,
        "lon": 11.6809253,
        "addr:city": "Ismaning",
        "addr:country": "DE",
        "addr:housenumber": "4",
        "addr:postcode": "85737",
        "addr:street": "Steinheilstraße",
        "amenity": "university",
        "internet_access": "wlan",
        "name": "DHGS Deutsche Hochschule für Gesundheit und Sport - Campus Ismaning",
        "operator": "DHGS Deutsche Hochschule für Gesundheit und Sport GmbH",
        "phone": "+49898898014100",
        "website": "https://www.dhgs-hochschule.de",
        "wikidata": "Q1622185",
        "wikipedia": "de:Deutsche Hochschule für Gesundheit und Sport"
      },
      "geometry": {
        "type": "Point",
        "coordinates": [
          11.6809253,
          48.2291123
        ]
      }
    },
    {
      "type": "Feature",
      "properties": {
        "id": "6029489006",
        "osm_type": "node",
        "lat": 48.1473605,
        "lon": 11.55502,
        "addr:city": "München",
        "addr:housenumber": "9",
        "addr:postcode": "80335",
        "addr:street": "Sandstraße",
        "amenity": "university",
        "check_date": "2025-05-18",
        "name": "Hochschule Macromedia",
        "operator": "Macromedia GmbH",
        "operator:type": "business",
        "website": "https://www.macromedia-fachhochschule.de/de/",
        "wikidata": "Q1346417",
        "wikipedia": "de:Hochschule_Macromedia"
      },
      "geometry": {
        "type": "Point",
        "coordinates": [
          11.55502,
          48.1473605
        ]
      }
    },
    {
      "type": "Feature",
      "properties": {
        "id": "7080823087",
        "osm_type": "node",
        "lat": 48.1521649,
        "lon": 11.581535,
        "addr:city": "München",
        "addr:country": "DE",
        "addr:housenumber": "33",
        "addr:postcode": "80539",
        "addr:street": "Ludwigstraße",
        "alt_website": "http://www.statistik.lmu.de",
        "amenity": "university",
        "contact:email": "geschaeftsstelle@stat.uni-muenchen.de",
        "contact:phone": "+49 89 218 031 95",
        "contact:website": "https://www.statistik.uni-muenchen.de",
        "full_name": "Institut für Statistik, Ludwig Maximilians Universität, München",
        "name": "Institut für Statistik der LMU",
        "name:en": "Department of Statistics, Ludwig Maximilians Universität, Munich",
        "toilets:wheelchair": "yes",
        "wheelchair": "yes"
      },
      "geometry": {
        "type": "Point",
        "coordinates": [
          11.581535,
          48.1521649
        ]
      }
    },
    {
      "type": "Feature",
      "properties": {
        "id": "7235704223",
        "osm_type": "node",
        "lat": 48.1286529,
        "lon": 11.5446179,
        "addr:city": "München",
        "addr:country": "DE",
        "addr:housenumber": "28",
        "addr:postcode": "80339",
        "addr:street": "Theresienhöhe",
        "amenity": "university",
        "name": "EU Business School",
        "website": "https://www.euruni.edu/Discover-EU-Munich.html"
      },
      "geometry": {
        "type": "Point",
        "coordinates": [
          11.5446179,
          48.1286529
        ]
      }
    },
    {
      "type": "Feature",
      "properties": {
        "id": "7728674943",
        "osm_type": "node",
        "lat": 48.1466444,
        "lon": 11.5695103,
        "addr:city": "München",
        "addr:housename": "HFF München",
        "addr:housenumber": "1",
        "addr:postcode": "80333",
        "addr:street": "Bernd-Eichinger-Platz",
        "amenity": "university",
        "loc_name": "HFF",
        "name": "Hochschule für Fernsehen und Film München",
        "roof:shape": "flat",
        "short_name": "HFF München",
        "toilets:wheelchair": "yes",
        "website": "https://www.hff-muc.de/",
        "wheelchair": "yes",
        "wikidata": "Q569350",
        "wikipedia": "de:Hochschule für Fernsehen und Film München"
      },
      "geometry": {
        "type": "Point",
        "coordinates": [
          11.5695103,
          48.1466444
        ]
      }
    },
    {
      "type": "Feature",
      "properties": {
        "id": "7775849853",
        "osm_type": "node",
        "lat": 48.1460982,
        "lon": 11.5674452,
        "addr:city": "München",
        "addr:country": "DE",
        "addr:housenumber": "12",
        "addr:postcode": "80333",
        "addr:street": "Arcisstraße",
        "amenity": "university",
        "contact:website": "https://hmtm.de/",
        "name": "Hochschule für Musik und Theater",
        "name:en": "University of Music and Theatre",
        "name:es": "Escuela Superior de Música y Teatro",
        "name:zh": "慕尼黑音乐戏剧学院",
        "short_name": "HMTM",
        "wikidata": "Q657167",
        "wikipedia": "de:Hochschule für Musik und Theater München"
      },
      "geometry": {
        "type": "Point",
        "coordinates": [
          11.5674452,
          48.1460982
        ]
      }
    },
    {
      "type": "Feature",
      "properties": {
        "id": "8143714328",
        "osm_type": "node",
        "lat": 48.1481861,
        "lon": 11.5648993,
        "addr:city": "München",
        "addr:country": "DE",
        "addr:housenumber": "37a",
        "addr:postcode": "80333",
        "addr:street": "Luisenstraße",
        "amenity": "university",
        "name": "Hochschule für Musik und Theater — Standort Luisenstraße"
      },
      "geometry": {
        "type": "Point",
        "coordinates": [
          11.5648993,
          48.1481861
        ]
      }
    },
    {
      "type": "Feature",
      "properties": {
        "id": "8143714329",
        "osm_type": "node",
        "lat": 48.1455784,
        "lon": 11.5681203,
        "addr:city": "München",
        "addr:country": "DE",
        "amenity": "university",
        "check_date": "2024-04-24",
        "name": "Hochschule für Musik und Theater — Gebäude C"
      },
      "geometry": {
        "type": "Point",
        "coordinates": [
          11.5681203,
          48.1455784
        ]
      }
    },
    {
      "type": "Feature",
      "properties": {
        "id": "8285161077",
        "osm_type": "node",
        "lat": 48.1427164,
        "lon": 11.5688847,
        "amenity": "university",
        "name": "Fakultät für Architektur, Fakultät für Bauingenierwesen, Fakultät für Geoinformation",
        "operator": "Hochschule für angewandte Wissenschaften München",
        "operator:type": "public",
        "website": "https://www.hm.edu/"
      },
      "geometry": {
        "type": "Point",
        "coordinates": [
          11.5688847,
          48.1427164
        ]
      }
    },
    {
      "type": "Feature",
      "properties": {
        "id": "8411678354",
        "osm_type": "node",
        "lat": 48.2494526,
        "lon": 11.6339623,
        "addr:city": "Garching bei München",
        "addr:housenumber": "35-39",
        "addr:postcode": "85748",
        "addr:street": "Parkring",
        "amenity": "university",
        "building:levels": "4",
        "check_date": "2024-04-24",
        "height": "18",
        "name": "Technische Universität München - Fakultät für Maschinenwesen",
        "roof:colour": "grey",
        "roof:shape": "flat",
        "start_date": "2001-11-15"
      },
      "geometry": {
        "type": "Point",
        "coordinates": [
          11.6339623,
          48.2494526
        ]
      }
    },
    {
      "type": "Feature",
      "properties": {
        "id": "9130196630",
        "osm_type": "node",
        "lat": 48.1475003,
        "lon": 11.5643966,
        "addr:city": "München",
        "addr:housenumber": "37",
        "addr:postcode": "80333",
        "addr:street": "Luisenstraße",
        "amenity": "university",
        "check_date": "2024-08-22",
        "internet_access": "yes",
        "internet_access:fee": "no",
        "internet_access:ssid": "BayernWLAN;eduroam",
        "name": "Fakultät für Geowissenschaften",
        "operator": "Ludwig-Maximilians-Universität München",
        "operator:type": "public",
        "wheelchair": "yes"
      },
      "geometry": {
        "type": "Point",
        "coordinates": [
          11.5643966,
          48.1475003
        ]
      }
    },
    {
      "type": "Feature",
      "properties": {
        "id": "9160144285",
        "osm_type": "node",
        "lat": 48.1105755,
        "lon": 11.5535556,
        "addr:city": "München",
        "addr:country": "DE",
        "addr:housenumber": "6",
        "addr:postcode": "81379",
        "addr:street": "Hans-Preißinger-Straße",
        "amenity": "university",
        "name": "Hochschule für Musik und Theater — Standort Gasteig HP8",
        "website": "https://hmtm.de/"
      },
      "geometry": {
        "type": "Point",
        "coordinates": [
          11.5535556,
          48.1105755
        ]
      }
    },
    {
      "type": "Feature",
      "properties": {
        "id": "9828814305",
        "osm_type": "node",
        "lat": 48.1471226,
        "lon": 11.5632336,
        "addr:city": "München",
        "addr:housenumber": "3",
        "addr:postcode": "80333",
        "addr:street": "Richard-Wagner-Straße",
        "amenity": "university",
        "check_date": "2024-08-21",
        "name": "TUM Sprachenzentrum",
        "operator": "TUM"
      },
      "geometry": {
        "type": "Point",
        "coordinates": [
          11.5632336,
          48.1471226
        ]
      }
    },
    {
      "type": "Feature",
      "properties": {
        "id": "10813000251",
        "osm_type": "node",
        "lat": 48.1464292,
        "lon": 11.579695,
        "addr:city": "München",
        "addr:country": "DE",
        "addr:housenumber": "14",
        "addr:postcode": "80539",
        "addr:street": "Ludwigstraße",
        "amenity": "university",
        "contact:email": "BayerischeGeschichte@lmu.de",
        "contact:fax": "+49 89 28638-2506",
        "contact:phone": "+49 89 28638-2507",
        "contact:website": "https://www.bayerischegeschichte.uni-muenchen.de/",
        "description": "Institut für Bayerische Geschichte der Ludwig-Maximilians-Universität München",
        "name": "Institut für Bayerische Geschichte",
        "wikidata": "Q1664809",
        "wikipedia": "de:Institut für Bayerische Geschichte"
      },
      "geometry": {
        "type": "Point",
        "coordinates": [
          11.579695,
          48.1464292
        ]
      }
    },
    {
      "type": "Feature",
      "properties": {
        "id": "11286226945",
        "osm_type": "node",
        "lat": 48.1090422,
        "lon": 11.5981251,
        "addr:city": "München",
        "addr:housenumber": "23",
        "addr:postcode": "81539",
        "addr:street": "Frankenthaler Straße",
        "amenity": "university",
        "name": "Hochschule für Musik und Theater — Interimsstandort Frankenthaler Straße",
        "opening_hours": "Mo-Fr 08:30-20:00; PH off; SH off"
      },
      "geometry": {
        "type": "Point",
        "coordinates": [
          11.5981251,
          48.1090422
        ]
      }
    },
    {
      "type": "Feature",
      "properties": {
        "id": "11401594538",
        "osm_type": "node",
        "lat": 48.1458072,
        "lon": 11.568756,
        "addr:city": "München",
        "addr:country": "DE",
        "addr:housenumber": "12",
        "addr:postcode": "80333",
        "addr:street": "Arcisstraße",
        "amenity": "university",
        "check_date": "2024-07-01",
        "internet_access": "wlan",
        "internet_access:fee": "customers",
        "name": "Hochschule für Musik und Theater — Gebäude D",
        "phone": "+49 89 28903",
        "source": "local knowledge",
        "website": "https://www.hmtm.de",
        "wheelchair": "yes"
      },
      "geometry": {
        "type": "Point",
        "coordinates": [
          11.568756,
          48.1458072
        ]
      }
    },
    {
      "type": "Feature",
      "properties": {
        "id": "11867350541",
        "osm_type": "node",
        "lat": 48.2477821,
        "lon": 11.5497959,
        "addr:city": "Oberschleißheim",
        "addr:country": "DE",
        "addr:housenumber": "24",
        "addr:postcode": "85764",
        "addr:street": "Sonnenstraße",
        "amenity": "university",
        "contact:email": "sekretariat@micro.vetmed.uni-muenchen.de",
        "contact:phone": "+49 89 2180-2528",
        "contact:website": "https://www.micro.vetmed.uni-muenchen.de/",
        "full_name": "Lehrstuhl für Bakteriologie und Mykologie",
        "name": "Bakteriologie und Mykologie",
        "operator": "Ludwig-Maximilians-Universität München"
      },
      "geometry": {
        "type": "Point",
        "coordinates": [
          11.5497959,
          48.2477821
        ]
      }
    },
    {
      "type": "Feature",
      "properties": {
        "id": "11883089539",
        "osm_type": "node",
        "lat": 48.1538669,
        "lon": 11.5463035,
        "addr:city": "München",
        "addr:housenumber": "35",
        "addr:postcode": "80636",
        "addr:street": "Schachenmeierstraße",
        "amenity": "university",
        "email": "dekanat-fk14@hm.edu",
        "name": "Fakultät für Tourismus (FK14)",
        "operator": "Hochschule München",
        "operator:type": "public",
        "website": "https://tourismus.hm.edu/"
      },
      "geometry": {
        "type": "Point",
        "coordinates": [
          11.5463035,
          48.1538669
        ]
      }
    },
    {
      "type": "Feature",
      "properties": {
        "id": "12400127126",
        "osm_type": "node",
        "lat": 48.1255528,
        "lon": 11.6057582,
        "addr:city": "München",
        "addr:housenumber": "1",
        "addr:postcode": "81671",
        "addr:street": "Atelierstraße",
        "amenity": "university",
        "email": "info@bayziel.de",
        "level": "4",
        "level:ref": "4. OG",
        "name": "BayZiel - Bayerisches Zentrum für Innovative Lehre",
        "operator": "BayZiel - Bayerisches Zentrum für Innovative Lehre",
        "operator:type": "university",
        "operator:wikidata": "Q126204726",
        "operator:wikipedia": "https://de.wikipedia.org/wiki/Bayerisches_Zentrum_f%C3%BCr_Innovative_Lehre",
        "website": "https://bayziel.de/"
      },
      "geometry": {
        "type": "Point",
        "coordinates": [
          11.6057582,
          48.1255528
        ]
      }
    },
    {
      "type": "Feature",
      "properties": {
        "id": "12997140881",
        "osm_type": "node",
        "lat": 48.2480322,
        "lon": 11.5532307,
        "amenity": "university",
        "name": "Lehrstuhl für Tierernährung und Diätetik"
      },
      "geometry": {
        "type": "Point",
        "coordinates": [
          11.5532307,
          48.2480322
        ]
      }
    },
    {
      "type": "Feature",
      "properties": {
        "id": "13047925747",
        "osm_type": "node",
        "lat": 48.1623086,
        "lon": 11.5440989,
        "amenity": "university",
        "name": "Campus M University, Studienzentrum München",
        "website": "https://www.campus-m-university.de/"
      },
      "geometry": {
        "type": "Point",
        "coordinates": [
          11.5440989,
          48.1623086
        ]
      }
    },
    {
      "type": "Feature",
      "properties": {
        "id": "3991670221",
        "osm_type": "node",
        "lat": 48.0222147,
        "lon": 12.5538248,
        "amenity": "university"
      },
      "geometry": {
        "type": "Point",
        "coordinates": [
          12.5538248,
          48.0222147
        ]
      }
    },
    {
      "type": "Feature",
      "properties": {
        "id": "4227297220",
        "osm_type": "node",
        "lat": 48.1282512,
        "lon": 12.7874178,
        "amenity": "university",
        "name": "Studienzentrum TU München",
        "name:en": "Science & Study Center TUM"
      },
      "geometry": {
        "type": "Point",
        "coordinates": [
          12.7874178,
          48.1282512
        ]
      }
    },
    {
      "type": "Feature",
      "properties": {
        "id": "2007284118",
        "osm_type": "node",
        "lat": 47.9031314,
        "lon": 13.1362379,
        "amenity": "university",
        "name": "Privatuniversität"
      },
      "geometry": {
        "type": "Point",
        "coordinates": [
          13.1362379,
          47.9031314
        ]
      }
    }
  ],
  "children": []
}