{
  "bbox": {
    "south": 48.355971499999995,
    "west": 11.438358999999998,
    "north": 49.017078,
    "east": 13.345766
  },
  "poiCount": 13,
  "leafCount": 13,
  "averagePosition": [
    12.27169173076923,
    48.809636292307694
  ],
  "data": [
    {
      "type": "Feature",
      "properties": {
        "id": "7083769430",
        "osm_type": "node",
        "lat": 48.3947974,
        "lon": 11.7292737,
        "amenity": "university",
        "check_date": "2024-05-24",
        "name": "Ernährung, Landnutzung und Umwelt",
        "official_name": "Wissenschaftszentrum Weihenstephan für Ernährung, Landnutzung und Umwelt",
        "operator": "Technische Universität München",
        "website": "http://www.wzw.tum.de/",
        "wikidata": "Q1431993"
      },
      "geometry": {
        "type": "Point",
        "coordinates": [
          11.7292737,
          48.3947974
        ]
      }
    },
    {
      "type": "Feature",
      "properties": {
        "id": "7089345311",
        "osm_type": "node",
        "lat": 48.398554,
        "lon": 11.7235476,
        "addr:city": "Freising",
        "addr:country": "DE",
        "addr:housenumber": "2",
        "addr:postcode": "85354",
        "addr:street": "Maximus-von-Imhof-Forum",
        "amenity": "university",
        "check_date": "2024-04-26",
        "department": "food_technology",
        "faculty": "horticulture;food_technology",
        "name": "Lebensmitteltechnologie",
        "name:de": "Lebensmitteltechnologie",
        "name:en": "Food Technology",
        "operator": "Hochschule Weihenstephan-Triesdorf",
        "website": "https://www.hswt.de/studium/studiengaenge/lm.html",
        "wikidata": "Q79979461"
      },
      "geometry": {
        "type": "Point",
        "coordinates": [
          11.7235476,
          48.398554
        ]
      }
    },
    {
      "type": "Feature",
      "properties": {
        "id": "8882308448",
        "osm_type": "node",
        "lat": 48.3980339,
        "lon": 11.7110829,
        "addr:city": "Freising",
        "addr:country": "DE",
        "addr:housenumber": "34",
        "addr:postcode": "85354",
        "addr:street": "Hohenbachernstraße",
        "amenity": "university",
        "name": "Leibniz-Institut für Lebensmittel-Systembiologie",
        "start_date": "1918",
        "website": "http://www.dfal.de/",
        "wikidata": "Q1202543",
        "wikipedia": "de:Leibniz-Institut für Lebensmittel-Systembiologie an der Technischen Universität München"
      },
      "geometry": {
        "type": "Point",
        "coordinates": [
          11.7110829,
          48.3980339
        ]
      }
    },
    {
      "type": "Feature",
      "properties": {
        "id": "959476295",
        "osm_type": "node",
        "lat": 48.8326251,
        "lon": 12.9612952,
        "addr:housenumber": "3a",
        "addr:street": "Veilchengasse",
        "amenity": "university",
        "description": "THD Videolabor",
        "name": "Technische Hochschule Deggendorf",
        "operator": "Technische Hochschule Deggendorf",
        "short_name": "THD",
        "website": "https://th-deg.de/ai-b"
      },
      "geometry": {
        "type": "Point",
        "coordinates": [
          12.9612952,
          48.8326251
        ]
      }
    },
    {
      "type": "Feature",
      "properties": {
        "id": "3712809284",
        "osm_type": "node",
        "lat": 48.8325745,
        "lon": 12.9607901,
        "addr:city": "Deggendorf",
        "addr:housenumber": "7",
        "addr:postcode": "94469",
        "addr:street": "Veilchengasse",
        "amenity": "university",
        "description": "Fakultät Angewandte Informatik Smart Lab",
        "name": "Technische Hochschule Deggendorf",
        "operator": "Technische Hochschule Deggendorf",
        "short_name": "THD",
        "website": "https://th-deg.de/ai-b"
      },
      "geometry": {
        "type": "Point",
        "coordinates": [
          12.9607901,
          48.8325745
        ]
      }
    },
    {
      "type": "Feature",
      "properties": {
        "id": "8865087129",
        "osm_type": "node",
        "lat": 48.8322783,
        "lon": 12.9596245,
        "addr:city": "Deggendorf",
        "addr:housenumber": "15-19",
        "addr:postcode": "94469",
        "addr:street": "Veilchengasse",
        "amenity": "university",
        "description": "Fakultät Angewandte Informatik (Außenstelle DEGGs)",
        "internet_access": "wlan",
        "internet_access:ssid": "Eduroam",
        "name": "Technische Hochschule Deggendorf",
        "operator": "Technische Hochschule Deggendorf",
        "operator:type": "public",
        "short_name": "THD",
        "website": "https://www.th-deg.de/ai"
      },
      "geometry": {
        "type": "Point",
        "coordinates": [
          12.9596245,
          48.8322783
        ]
      }
    },
    {
      "type": "Feature",
      "properties": {
        "id": "11389836502",
        "osm_type": "node",
        "lat": 48.7810022,
        "lon": 12.8604511,
        "addr:housenumber": "17",
        "addr:street": "Werkstraße",
        "alt_name": "Technologie Campus Plattling",
        "amenity": "university",
        "contact:email": "tc-plattling@th-deg.de",
        "contact:phone": "+49 991 3615 8600",
        "contact:website": "https://www.th-deg.de/tc-plattling",
        "name": "THD Forschungszentrum Moderne Mobilität",
        "short_name": "TC Plattling"
      },
      "geometry": {
        "type": "Point",
        "coordinates": [
          12.8604511,
          48.7810022
        ]
      }
    },
    {
      "type": "Feature",
      "properties": {
        "id": "1907949408",
        "osm_type": "node",
        "lat": 49.0149117,
        "lon": 12.1030051,
        "addr:city": "Regensburg",
        "addr:country": "DE",
        "addr:housenumber": "4",
        "addr:postcode": "93047",
        "addr:street": "Landshuter Straße",
        "amenity": "university",
        "email": "info@ostrecht.de",
        "fax": "+49 941 94354 65",
        "name": "Institut für Ostrecht",
        "phone": "+49 941 94354 50",
        "website": "https://www.ostrecht.de/"
      },
      "geometry": {
        "type": "Point",
        "coordinates": [
          12.1030051,
          49.0149117
        ]
      }
    },
    {
      "type": "Feature",
      "properties": {
        "id": "1907949411",
        "osm_type": "node",
        "lat": 49.014817,
        "lon": 12.1029629,
        "addr:city": "Regensburg",
        "addr:country": "DE",
        "addr:housenumber": "4",
        "addr:postcode": "93047",
        "addr:street": "Landshuter Straße",
        "amenity": "university",
        "email": "info@ios-regensburg.de",
        "fax": "+49 941 94354 27",
        "name": "Leibniz-Institut für Ost- und Südosteuropaforschung",
        "name:en": "Leibniz Institute for East and Southeast European Studies",
        "operator": "Stiftung zur Erforschung von Ost- und Südosteuropa",
        "phone": "+49 941 94354 10",
        "website": "https://www.ios-regensburg.de/",
        "wikidata": "Q1664940",
        "wikipedia": "de:Leibniz-Institut für Ost- und Südosteuropaforschung"
      },
      "geometry": {
        "type": "Point",
        "coordinates": [
          12.1029629,
          49.014817
        ]
      }
    },
    {
      "type": "Feature",
      "properties": {
        "id": "1907949413",
        "osm_type": "node",
        "lat": 49.0150076,
        "lon": 12.1025184,
        "addr:city": "Regensburg",
        "addr:country": "DE",
        "addr:housenumber": "4",
        "addr:postcode": "93047",
        "addr:street": "Landshuter Straße",
        "amenity": "university",
        "email": "uim@ungarisches-institut.de",
        "fax": "+49 941 94354 41",
        "name": "Ungarisches Institut",
        "phone": "+49 941 94354 40",
        "website": "http://www.ungarisches-institut.de/"
      },
      "geometry": {
        "type": "Point",
        "coordinates": [
          12.1025184,
          49.0150076
        ]
      }
    },
    {
      "type": "Feature",
      "properties": {
        "id": "6060817094",
        "osm_type": "node",
        "lat": 49.0150051,
        "lon": 12.1026712,
        "addr:city": "Regensburg",
        "addr:housenumber": "4",
        "addr:postcode": "93047",
        "addr:street": "Landshuter Straße",
        "amenity": "university",
        "name": "Graduiertenschule für Ost- und Südosteuropastudien",
        "operator": "Universität Regensburg"
      },
      "geometry": {
        "type": "Point",
        "coordinates": [
          12.1026712,
          49.0150051
        ]
      }
    },
    {
      "type": "Feature",
      "properties": {
        "id": "12015324443",
        "osm_type": "node",
        "lat": 48.9979716,
        "lon": 12.1200153,
        "addr:city": "Regensburg",
        "addr:housenumber": "4",
        "addr:postcode": "93053",
        "addr:street": "Bajuwarenstraße",
        "amenity": "university",
        "asb": "71",
        "name": "UR Fakultät für Informatik und Data Science",
        "note:de": "http://wiki.openstreetmap.org/index.php/DE:DSL_Hauptverteiler",
        "object:city": "Regensburg",
        "object:country": "DE",
        "object:housenumber": "4",
        "object:postcode": "93053",
        "object:street": "Bajuwarenstraße",
        "office": "company",
        "onkz": "941",
        "operator": "Universität Regensburg",
        "website": "https://www.uni-regensburg.de/informatik-data-science/fakultaet/startseite/index.html"
      },
      "geometry": {
        "type": "Point",
        "coordinates": [
          12.1200153,
          48.9979716
        ]
      }
    },
    {
      "type": "Feature",
      "properties": {
        "id": "12287640129",
        "osm_type": "node",
        "lat": 48.9976934,
        "lon": 12.0947545,
        "addr:city": "Regensburg",
        "addr:housenumber": "31",
        "addr:postcode": "93053",
        "addr:street": "Universitätsstraße",
        "amenity": "university",
        "email": "studierendenkanzlei@ur.de",
        "name": "Studierendenkanzlei",
        "operator": "Universität Regensburg",
        "operator:type": "government_facility-public",
        "website": "https://www.uni-regensburg.de/studium/studentenkanzlei/startseite/index.html"
      },
      "geometry": {
        "type": "Point",
        "coordinates": [
          12.0947545,
          48.9976934
        ]
      }
    }
  ],
  "children": []
}