{
  "bbox": {
    "south": 48.355971499999995,
    "west": 9.530952,
    "north": 49.017078,
    "east": 11.438358999999998
  },
  "poiCount": 12,
  "leafCount": 12,
  "averagePosition": [
    10.264691183333333,
    48.57809690833333
  ],
  "data": [
    {
      "type": "Feature",
      "properties": {
        "id": "11916745393",
        "osm_type": "node",
        "lat": 48.3617299,
        "lon": 9.9911956,
        "addr:city": "Ulm",
        "addr:housenumber": "38",
        "addr:postcode": "89079",
        "addr:street": "Schloßstraße",
        "addr:suburb": "Wiblingen",
        "amenity": "university",
        "email": "info@dhbw-heidenheim.de",
        "name": "Vorlesungsstandort DHBW Heidenheim",
        "operator": "Duale Hochschule Heidenheim",
        "phone": "+49 7321 2722 0",
        "website": "https://www.heidenheim.dhbw.de",
        "wheelchair": "yes",
        "wikidata": "Q1262602",
        "wikipedia": "de:Duale Hochschule Baden-Württemberg Heidenheim"
      },
      "geometry": {
        "type": "Point",
        "coordinates": [
          9.9911956,
          48.3617299
        ]
      }
    },
    {
      "type": "Feature",
      "properties": {
        "id": "127498398",
        "osm_type": "node",
        "lat": 48.4206167,
        "lon": 9.9470045,
        "amenity": "university",
        "name": "Universität Ulm (Campus West)",
        "operator": "Ministerium für Wissenschaft, Forschung und Kunst Baden-Württemberg",
        "wheelchair": "limited"
      },
      "geometry": {
        "type": "Point",
        "coordinates": [
          9.9470045,
          48.4206167
        ]
      }
    },
    {
      "type": "Feature",
      "properties": {
        "id": "2978104336",
        "osm_type": "node",
        "lat": 48.7957933,
        "lon": 9.790785,
        "amenity": "university",
        "entrance": "yes",
        "name": "Staatliches Realschullehrerseminar Schwäbisch Gmünd",
        "wheelchair": "yes"
      },
      "geometry": {
        "type": "Point",
        "coordinates": [
          9.790785,
          48.7957933
        ]
      }
    },
    {
      "type": "Feature",
      "properties": {
        "id": "3221191592",
        "osm_type": "node",
        "lat": 48.7967539,
        "lon": 9.7829856,
        "addr:city": "Schwäbisch Gmünd",
        "addr:country": "DE",
        "addr:housenumber": "3",
        "addr:postcode": "73525",
        "addr:street": "Stuttgarter Straße",
        "amenity": "university",
        "name": "Hochschule für Gestaltung - Werkstattgebäude",
        "website": "https://www.hfg-gmuend.de/"
      },
      "geometry": {
        "type": "Point",
        "coordinates": [
          9.7829856,
          48.7967539
        ]
      }
    },
    {
      "type": "Feature",
      "properties": {
        "id": "4411129419",
        "osm_type": "node",
        "lat": 48.4228115,
        "lon": 9.9559596,
        "amenity": "university",
        "check_date": "2024-10-07",
        "name": "Universität Ulm (Campus Ost)",
        "operator": "Ministerium für Wissenschaft, Forschung und Kunst Baden-Württemberg"
      },
      "geometry": {
        "type": "Point",
        "coordinates": [
          9.9559596,
          48.4228115
        ]
      }
    },
    {
      "type": "Feature",
      "properties": {
        "id": "6024422331",
        "osm_type": "node",
        "lat": 48.3781986,
        "lon": 10.0071706,
        "amenity": "university",
        "name": "Hochschule Neu-Ulm - Gebäude E",
        "opening_hours": "Mo-Fr 06:30-19:30"
      },
      "geometry": {
        "type": "Point",
        "coordinates": [
          10.0071706,
          48.3781986
        ]
      }
    },
    {
      "type": "Feature",
      "properties": {
        "id": "6260233488",
        "osm_type": "node",
        "lat": 48.4207589,
        "lon": 9.9475949,
        "addr:city": "Ulm",
        "addr:country": "DE",
        "addr:housenumber": "41",
        "addr:postcode": "89081",
        "addr:street": "Albert-Einstein-Allee",
        "amenity": "university",
        "check_date": "2024-12-18",
        "internet_access": "no",
        "name": "Institut für Mikrowellentechnik",
        "operator": "Universität Ulm",
        "website": "https://www.uni-ulm.de/in/mwt/"
      },
      "geometry": {
        "type": "Point",
        "coordinates": [
          9.9475949,
          48.4207589
        ]
      }
    },
    {
      "type": "Feature",
      "properties": {
        "id": "10686271078",
        "osm_type": "node",
        "lat": 48.417926,
        "lon": 9.9485279,
        "addr:city": "Ulm",
        "addr:country": "DE",
        "addr:housenumber": "7",
        "addr:postcode": "89081",
        "addr:street": "Oberberghof",
        "amenity": "university",
        "name": "Institut für Theoretische Chemie",
        "operator": "Universität Ulm",
        "website": "https://www.uni-ulm.de/nawi/nawi-theochemie/"
      },
      "geometry": {
        "type": "Point",
        "coordinates": [
          9.9485279,
          48.417926
        ]
      }
    },
    {
      "type": "Feature",
      "properties": {
        "id": "11950527982",
        "osm_type": "node",
        "lat": 48.379137,
        "lon": 10.009698,
        "amenity": "university",
        "name": "Hochschule Neu-Ulm - Gebäude I",
        "opening_hours": "Mo-Fr 09:00-15:00"
      },
      "geometry": {
        "type": "Point",
        "coordinates": [
          10.009698,
          48.379137
        ]
      }
    },
    {
      "type": "Feature",
      "properties": {
        "id": "12384218079",
        "osm_type": "node",
        "lat": 48.7575018,
        "lon": 11.431659,
        "addr:city": "Ingolstadt",
        "addr:postcode": "85051",
        "addr:street": "Brückenkopf",
        "amenity": "university",
        "name": "Haupteingang Institut für neue Energie-Systeme"
      },
      "geometry": {
        "type": "Point",
        "coordinates": [
          11.431659,
          48.7575018
        ]
      }
    },
    {
      "type": "Feature",
      "properties": {
        "id": "3309692829",
        "osm_type": "node",
        "lat": 48.8915231,
        "lon": 11.1841443,
        "amenity": "university",
        "check_date": "2024-11-12",
        "name": "Lehrstuhl Tourismus"
      },
      "geometry": {
        "type": "Point",
        "coordinates": [
          11.1841443,
          48.8915231
        ]
      }
    },
    {
      "type": "Feature",
      "properties": {
        "id": "7593158523",
        "osm_type": "node",
        "lat": 48.8944122,
        "lon": 11.1795692,
        "amenity": "university",
        "description": "Stabsabteilung Bildungsinnovation & Wissenstransfer\nProjekt Mensch in Bewegung",
        "internet_access": "yes",
        "name": "KU.impact Büro",
        "opening_hours": "Mo-Fr 08:00-18:00",
        "operator": "Katholische Universität Eichstätt-Ingolstadt",
        "website": "https://www.ku.de/unsere-ku/campus/lageplan/am-anger18/"
      },
      "geometry": {
        "type": "Point",
        "coordinates": [
          11.1795692,
          48.8944122
        ]
      }
    }
  ],
  "children": []
}