{
  "bbox": {
    "south": 47.033758500000005,
    "west": 15.253173,
    "north": 47.694865,
    "east": 17.16058
  },
  "poiCount": 13,
  "leafCount": 13,
  "averagePosition": [
    15.523298076923076,
    47.14699563846154
  ],
  "data": [
    {
      "type": "Feature",
      "properties": {
        "id": "1614235148",
        "osm_type": "node",
        "lat": 47.0821328,
        "lon": 15.4380924,
        "addr:city": "Graz",
        "addr:country": "AT",
        "addr:housenumber": "2",
        "addr:postcode": "8010",
        "addr:street": "Lange Gasse",
        "amenity": "university",
        "contact:website": "www.pph-augustinum.at",
        "full_name": "Private Pädagogische Hochschule Augustinum",
        "internet_access": "wlan",
        "internet_access:fee": "no",
        "name": "Private Pädagogische Hochschule Augustinum",
        "name:en": "Private University College of Teacher Education Augustinum",
        "short_name": "PPH Augustinum",
        "start_date": "2007",
        "toilets:wheelchair": "yes",
        "website": "https://www.pph-augustinum.at/",
        "wheelchair": "limited",
        "wikidata": "Q1743331",
        "wikipedia": "de:Private Pädagogische Hochschule Augustinum"
      },
      "geometry": {
        "type": "Point",
        "coordinates": [
          15.4380924,
          47.0821328
        ]
      }
    },
    {
      "type": "Feature",
      "properties": {
        "id": "3808825636",
        "osm_type": "node",
        "lat": 47.059906,
        "lon": 15.4547478,
        "amenity": "university",
        "check_date": "2025-08-25",
        "name": "Kunstuniversität - Institut für Jazz"
      },
      "geometry": {
        "type": "Point",
        "coordinates": [
          15.4547478,
          47.059906
        ]
      }
    },
    {
      "type": "Feature",
      "properties": {
        "id": "4024383792",
        "osm_type": "node",
        "lat": 47.0678948,
        "lon": 15.4491481,
        "amenity": "university",
        "check_date": "2025-07-25",
        "level": "0",
        "name": "Institut für Bodenmechanik, Grundbau und Numerische Geotechnik",
        "operator": "TU Graz",
        "source": "survey"
      },
      "geometry": {
        "type": "Point",
        "coordinates": [
          15.4491481,
          47.0678948
        ]
      }
    },
    {
      "type": "Feature",
      "properties": {
        "id": "4024383793",
        "osm_type": "node",
        "lat": 47.0679117,
        "lon": 15.4491682,
        "amenity": "university",
        "check_date": "2025-07-25",
        "level": "3",
        "name": "Institut für Straßen- und Verkehrswesen",
        "operator": "TU Graz",
        "source": "survey"
      },
      "geometry": {
        "type": "Point",
        "coordinates": [
          15.4491682,
          47.0679117
        ]
      }
    },
    {
      "type": "Feature",
      "properties": {
        "id": "4237317720",
        "osm_type": "node",
        "lat": 47.0713805,
        "lon": 15.4422385,
        "amenity": "university",
        "check_date": "2025-03-03",
        "name": "Institut für Kirchenmusik",
        "operator": "Kunstuniversität Graz",
        "source": "survey",
        "university": "institute"
      },
      "geometry": {
        "type": "Point",
        "coordinates": [
          15.4422385,
          47.0713805
        ]
      }
    },
    {
      "type": "Feature",
      "properties": {
        "id": "4721726239",
        "osm_type": "node",
        "lat": 47.0753143,
        "lon": 15.4557464,
        "addr:city": "Graz",
        "addr:country": "AT",
        "addr:housenumber": "50b",
        "addr:postcode": "8010",
        "addr:street": "Elisabethstraße",
        "amenity": "university",
        "contact:email": "marketing@uni-graz.at",
        "contact:phone": "+43 316 380 - 7200",
        "name": "Institut für Marketing",
        "university": "department",
        "website": "https://marketing.uni-graz.at/"
      },
      "geometry": {
        "type": "Point",
        "coordinates": [
          15.4557464,
          47.0753143
        ]
      }
    },
    {
      "type": "Feature",
      "properties": {
        "id": "4721726241",
        "osm_type": "node",
        "lat": 47.0752435,
        "lon": 15.4558152,
        "addr:city": "Graz",
        "addr:country": "AT",
        "addr:housenumber": "50b",
        "addr:postcode": "8010",
        "addr:street": "Elisabethstraße",
        "amenity": "university",
        "contact:email": "entrepreneurship@uni-graz.at",
        "level": "2",
        "name": "Zentrum für Entrepreneurship und angewandte Betriebswirtschaftslehre",
        "university": "department",
        "website": "https://entrepreneurship.uni-graz.at/"
      },
      "geometry": {
        "type": "Point",
        "coordinates": [
          15.4558152,
          47.0752435
        ]
      }
    },
    {
      "type": "Feature",
      "properties": {
        "id": "4878807410",
        "osm_type": "node",
        "lat": 47.0808432,
        "lon": 15.4547998,
        "addr:city": "Graz",
        "addr:country": "AT",
        "addr:housenumber": "30",
        "addr:postcode": "8010",
        "addr:street": "Johann-Fux-Gasse",
        "amenity": "university",
        "contact:email": "treffpunktsprachen@uni-graz.at",
        "contact:phone": "+43 316 380-2493",
        "level": "1",
        "name": "Treffpunkt Sprachen",
        "office": "university",
        "opening_hours": "Mo-Fr 10:00-12:00",
        "operator": "Karl-Franzens-Universität Graz",
        "website": "https://treffpunktsprachen.uni-graz.at/"
      },
      "geometry": {
        "type": "Point",
        "coordinates": [
          15.4547998,
          47.0808432
        ]
      }
    },
    {
      "type": "Feature",
      "properties": {
        "id": "5215989825",
        "osm_type": "node",
        "lat": 47.0748638,
        "lon": 15.4520455,
        "addr:city": "Graz",
        "addr:country": "AT",
        "addr:housenumber": "32",
        "addr:postcode": "8010",
        "addr:street": "Elisabethstraße",
        "amenity": "university",
        "contact:phone": "+43 316 380-7373",
        "level": "1",
        "name": "Konfuzius-Institut",
        "office": "research",
        "opening_hours": "Mo-Fr 09:00-12:00",
        "website": "https://konfuzius-institut.uni-graz.at/"
      },
      "geometry": {
        "type": "Point",
        "coordinates": [
          15.4520455,
          47.0748638
        ]
      }
    },
    {
      "type": "Feature",
      "properties": {
        "id": "7895835678",
        "osm_type": "node",
        "lat": 47.0617492,
        "lon": 15.4421996,
        "addr:city": "Graz",
        "addr:housenumber": "84",
        "addr:postcode": "8010",
        "addr:street": "Brockmanngasse",
        "amenity": "university",
        "check_date": "2024-06-07",
        "name": "Haus der Digitalisierung",
        "operator": "TU Graz"
      },
      "geometry": {
        "type": "Point",
        "coordinates": [
          15.4421996,
          47.0617492
        ]
      }
    },
    {
      "type": "Feature",
      "properties": {
        "id": "11693021246",
        "osm_type": "node",
        "lat": 47.0679848,
        "lon": 15.4489593,
        "amenity": "university",
        "contact:email": "personalabteilung@tugraz.at",
        "contact:fax": "+43 316 873 6630",
        "contact:phone": "+43 316 873 0",
        "contact:website": "https://tugraz.at/go/personal",
        "level": "1",
        "name": "TU-Graz: Personal",
        "name:en": "TU-Graz: Human Resources (HR)",
        "operator": "TU Graz"
      },
      "geometry": {
        "type": "Point",
        "coordinates": [
          15.4489593,
          47.0679848
        ]
      }
    },
    {
      "type": "Feature",
      "properties": {
        "id": "12612283198",
        "osm_type": "node",
        "lat": 47.4423047,
        "lon": 15.2896667,
        "addr:city": "Kapfenberg",
        "addr:housenumber": "23",
        "addr:postcode": "8605",
        "addr:street": "Wiener Straße",
        "amenity": "university",
        "name": "FH-Gesundheitscampus Kapfenberg",
        "operator": "FH Joanneum",
        "operator:type": "public"
      },
      "geometry": {
        "type": "Point",
        "coordinates": [
          15.2896667,
          47.4423047
        ]
      }
    },
    {
      "type": "Feature",
      "properties": {
        "id": "1126450640",
        "osm_type": "node",
        "lat": 47.683414,
        "lon": 16.5702475,
        "addr:city": "Sopron",
        "addr:postcode": "9400",
        "addr:street": "Cházár András tér",
        "alt_name": "SOE - AMI",
        "amenity": "university",
        "description": "2019 decemberében költöztették át a \"P\" épületbe az Alkalmazott Művészeti Intézetet, így 2020-tól itt folyatódnak a 2019 szeptembere óta átalakult képzések.",
        "internet_access": "yes",
        "internet_access:fee": "no",
        "internet_access:ssid": "eduroam",
        "name": "Soproni Egyetem - Alkalmazott Művészeti Intézet",
        "operator": "Soproni Egyetem",
        "operator:type": "university",
        "ref": "P",
        "short_name": "AMI",
        "start_date": "2019-12",
        "website": "http://ami.skk.uni-sopron.hu/kezdolap",
        "wheelchair": "yes"
      },
      "geometry": {
        "type": "Point",
        "coordinates": [
          16.5702475,
          47.683414
        ]
      }
    }
  ],
  "children": []
}