{
  "bbox": {
    "south": 47.694865,
    "west": 13.345766,
    "north": 48.355971499999995,
    "east": 15.253173
  },
  "poiCount": 9,
  "leafCount": 9,
  "averagePosition": [
    14.440620899999999,
    48.20957803333333
  ],
  "data": [
    {
      "type": "Feature",
      "properties": {
        "id": "1340211544",
        "osm_type": "node",
        "lat": 48.1610582,
        "lon": 14.0276967,
        "addr:city": "Wels",
        "addr:country": "AT",
        "addr:housenumber": "23",
        "addr:postcode": "4600",
        "addr:street": "Stelzhamerstraße",
        "amenity": "university",
        "check_date": "2024-07-15",
        "name": "FH Oberösterreich – Campus Wels",
        "wheelchair": "yes"
      },
      "geometry": {
        "type": "Point",
        "coordinates": [
          14.0276967,
          48.1610582
        ]
      }
    },
    {
      "type": "Feature",
      "properties": {
        "id": "280843889",
        "osm_type": "node",
        "lat": 48.3066036,
        "lon": 14.2856183,
        "amenity": "university",
        "name": "Universität für künstlerische und industrielle Gestaltung Linz",
        "name:de": "Universität für künstlerische und industrielle Gestaltung Linz",
        "name:en": "University of Art and Design Linz",
        "short_name": "Kunstuni",
        "wheelchair": "yes",
        "wikidata": "Q1516259"
      },
      "geometry": {
        "type": "Point",
        "coordinates": [
          14.2856183,
          48.3066036
        ]
      }
    },
    {
      "type": "Feature",
      "properties": {
        "id": "4248351117",
        "osm_type": "node",
        "lat": 48.3072511,
        "lon": 14.2876158,
        "addr:city": "Linz",
        "addr:housenumber": "2",
        "addr:postcode": "4020",
        "addr:street": "Adalbert-Stifter-Platz",
        "amenity": "university",
        "description": "Studium der Psychologie & Psychotherapiewissenschaft",
        "level": "7",
        "name": "Sigmund Freud Privatuniversität Linz",
        "operator": "Sigmund Freud Privatuniversität",
        "phone": "+43732995799",
        "website": "https://www.sfu-linz.ac.at/"
      },
      "geometry": {
        "type": "Point",
        "coordinates": [
          14.2876158,
          48.3072511
        ]
      }
    },
    {
      "type": "Feature",
      "properties": {
        "id": "4391392189",
        "osm_type": "node",
        "lat": 48.3057212,
        "lon": 14.2893538,
        "amenity": "university",
        "description": "Standort Domgasse",
        "internet_access": "wlan",
        "name": "Kunstuniversität, Standort Domgasse",
        "operator": "Kunst Universität Linz",
        "website": "https://kunstuni-linz.at/"
      },
      "geometry": {
        "type": "Point",
        "coordinates": [
          14.2893538,
          48.3057212
        ]
      }
    },
    {
      "type": "Feature",
      "properties": {
        "id": "11052524093",
        "osm_type": "node",
        "lat": 48.3020754,
        "lon": 14.3113442,
        "addr:city": "Linz",
        "addr:housenumber": "34/D3",
        "addr:postcode": "4020",
        "addr:street": "Semmelweisstraße",
        "amenity": "university",
        "description": "Gesundheitsstudiengänge an der FH Gesundheitsberufe Oberösterreich: Von Ausbildungen, Lehrgänge bis hin zum Bachelor oder Masterstudium können Studierende ihr Wissen für Gesundheitsberufe an der FH erweitern.",
        "email": "office@fhgooe.ac.at",
        "image": "https://www.fh-gesundheitsberufe.at/assets/imager/images/15684/Titelbild_Startseite_0031_c46855b8e46a7e2fd5dee4514843da55.webp",
        "internet_access": "yes",
        "name": "FH Gesundheitsberufe OÖ - Gesundheitswesen Studieren",
        "opening_hours": "Mo-Th 08:00-17:00; Fr 08:00-13:00",
        "phone": "+43 50 344 20000",
        "ref:vatin": "ATU65605302",
        "start_date": "2010",
        "website": "https://www.fh-gesundheitsberufe.at/"
      },
      "geometry": {
        "type": "Point",
        "coordinates": [
          14.3113442,
          48.3020754
        ]
      }
    },
    {
      "type": "Feature",
      "properties": {
        "id": "11662836124",
        "osm_type": "node",
        "lat": 48.3199748,
        "lon": 14.2763358,
        "addr:city": "Linz",
        "addr:country": "AT",
        "addr:housenumber": "12",
        "addr:postcode": "4040",
        "addr:street": "Petrinumstraße",
        "alt_name": "MMJus",
        "amenity": "university",
        "contact:email": "institut@linzer.rechtsstudien.at",
        "contact:fax": "+43 0 732 2468 1910",
        "contact:phone": "+43 0 732 2468 1900",
        "name": "Institut für Multimediale Linzer Rechtsstudien",
        "opening_hours": "Mo-Fr 08:00-17:00",
        "website": "https://www.linzer.rechtsstudien.at/"
      },
      "geometry": {
        "type": "Point",
        "coordinates": [
          14.2763358,
          48.3199748
        ]
      }
    },
    {
      "type": "Feature",
      "properties": {
        "id": "12829908468",
        "osm_type": "node",
        "lat": 48.3349258,
        "lon": 14.3247722,
        "addr:city": "Linz",
        "addr:postcode": "4040",
        "addr:street": "Altenberger Str. 66c/Science Park 4",
        "amenity": "university",
        "image": "https://it-u.at/wp-content/uploads/2024/09/09/itu-og-image.jpg",
        "internet_access": "yes",
        "internet_access:fee": "no",
        "name": "IT:U Interdisciplinary Transformation University Austria",
        "opening_hours": "Mo-Sa 08:00-18:00",
        "operator": "IT:U Interdisciplinary Transformation University Austria",
        "operator:type": "government",
        "phone": "+43 676 851307230",
        "website": "https://it-u.at/en/"
      },
      "geometry": {
        "type": "Point",
        "coordinates": [
          14.3247722,
          48.3349258
        ]
      }
    },
    {
      "type": "Feature",
      "properties": {
        "id": "9242092167",
        "osm_type": "node",
        "lat": 47.9243608,
        "lon": 15.081486,
        "amenity": "university",
        "name": "Ave Maria University of Naples"
      },
      "geometry": {
        "type": "Point",
        "coordinates": [
          15.081486,
          47.9243608
        ]
      }
    },
    {
      "type": "Feature",
      "properties": {
        "id": "9242092168",
        "osm_type": "node",
        "lat": 47.9242314,
        "lon": 15.0813653,
        "amenity": "university",
        "name": "Franciscan University of Steubenville"
      },
      "geometry": {
        "type": "Point",
        "coordinates": [
          15.0813653,
          47.9242314
        ]
      }
    }
  ],
  "children": []
}