{
  "bbox": {
    "south": 47.033758500000005,
    "west": 9.530952,
    "north": 47.694865,
    "east": 11.438358999999998
  },
  "poiCount": 12,
  "leafCount": 12,
  "averagePosition": [
    11.116157424999999,
    47.221891174999996
  ],
  "data": [
    {
      "type": "Feature",
      "properties": {
        "id": "7786749397",
        "osm_type": "node",
        "lat": 47.1419539,
        "lon": 10.5609606,
        "addr:city": "Landeck",
        "addr:housenumber": "7",
        "addr:postcode": "6500",
        "addr:street": "Bruggfeldstraße",
        "amenity": "university",
        "level": "1",
        "name": "UMIT Landeck"
      },
      "geometry": {
        "type": "Point",
        "coordinates": [
          10.5609606,
          47.1419539
        ]
      }
    },
    {
      "type": "Feature",
      "properties": {
        "id": "8165402622",
        "osm_type": "node",
        "lat": 47.141093,
        "lon": 10.5608387,
        "addr:city": "Landeck",
        "addr:housenumber": "7c",
        "addr:postcode": "6500",
        "addr:street": "Bruggfeldstraße",
        "amenity": "university",
        "level": "1",
        "name": "UMIT Landeck Neubau"
      },
      "geometry": {
        "type": "Point",
        "coordinates": [
          10.5608387,
          47.141093
        ]
      }
    },
    {
      "type": "Feature",
      "properties": {
        "id": "12522410423",
        "osm_type": "node",
        "lat": 47.1419425,
        "lon": 10.5610144,
        "addr:city": "Landeck",
        "addr:housenumber": "7",
        "addr:postcode": "6500",
        "addr:street": "Bruggfeldstraße",
        "amenity": "university",
        "faculty": "economics;statistics",
        "level": "1",
        "name": "Fakultät für Volkswirtschaft und Statistik",
        "operator": "Universität Innsbruck",
        "website": "https://www.uibk.ac.at/de/econstat/"
      },
      "geometry": {
        "type": "Point",
        "coordinates": [
          10.5610144,
          47.1419425
        ]
      }
    },
    {
      "type": "Feature",
      "properties": {
        "id": "12522410424",
        "osm_type": "node",
        "lat": 47.141118,
        "lon": 10.5609065,
        "addr:city": "Landeck",
        "addr:housenumber": "7c",
        "addr:postcode": "6500",
        "addr:street": "Bruggfeldstraße",
        "amenity": "university",
        "faculty": "economics;statistics",
        "level": "1",
        "name": "Fakultät für Volkswirtschaft und Statistik",
        "operator": "Universität Innsbruck",
        "website": "https://www.uibk.ac.at/de/econstat/"
      },
      "geometry": {
        "type": "Point",
        "coordinates": [
          10.5609065,
          47.141118
        ]
      }
    },
    {
      "type": "Feature",
      "properties": {
        "id": "4887876815",
        "osm_type": "node",
        "lat": 47.2590178,
        "lon": 11.3926384,
        "addr:city": "Innsbruck",
        "addr:country": "AT",
        "addr:housenumber": "3",
        "addr:postcode": "6020",
        "addr:street": "Schöpfstraße",
        "addr:suburb": "Wilten",
        "amenity": "university",
        "name": "Institut für Psychosoziale Intervention  und Kommunikationsforschung",
        "phone": "+43 512 50744601",
        "source": "website",
        "website": "https://www.uibk.ac.at/psyko/"
      },
      "geometry": {
        "type": "Point",
        "coordinates": [
          11.3926384,
          47.2590178
        ]
      }
    },
    {
      "type": "Feature",
      "properties": {
        "id": "5010318287",
        "osm_type": "node",
        "lat": 47.2665526,
        "lon": 11.3907787,
        "addr:city": "Innsbruck",
        "addr:country": "AT",
        "addr:housenumber": "15",
        "addr:postcode": "6020",
        "addr:street": "Innrain",
        "amenity": "university",
        "name": "Digital Science Center",
        "operator": "Universität Innsbruck",
        "phone": "+43 512 50739750",
        "source": "website",
        "website": "https://www.uibk.ac.at/disc/"
      },
      "geometry": {
        "type": "Point",
        "coordinates": [
          11.3907787,
          47.2665526
        ]
      }
    },
    {
      "type": "Feature",
      "properties": {
        "id": "8196054793",
        "osm_type": "node",
        "lat": 47.2279522,
        "lon": 11.38599,
        "amenity": "university",
        "isced:level": "5",
        "name": "Außenstelle Universität Innsbruck"
      },
      "geometry": {
        "type": "Point",
        "coordinates": [
          11.38599,
          47.2279522
        ]
      }
    },
    {
      "type": "Feature",
      "properties": {
        "id": "12253692932",
        "osm_type": "node",
        "lat": 47.2589441,
        "lon": 11.3981307,
        "addr:city": "Innsbruck",
        "addr:country": "AT",
        "addr:housenumber": "8",
        "addr:postcode": "6020",
        "addr:street": "Liebeneggstraße",
        "addr:suburb": "Wilten",
        "amenity": "university",
        "name": "Mozarteum Bildnerische Erziehung",
        "official_name": "Department Bildende Künste & Gestaltung, Standort Innsbruck",
        "operator": "Universität Mozarteum",
        "short_name": "Bildnerische Innsbruck",
        "source": "website",
        "website": "https://www.moz.ac.at/de/bildnerische-innsbruck"
      },
      "geometry": {
        "type": "Point",
        "coordinates": [
          11.3981307,
          47.2589441
        ]
      }
    },
    {
      "type": "Feature",
      "properties": {
        "id": "12522410425",
        "osm_type": "node",
        "lat": 47.2736545,
        "lon": 11.3966094,
        "amenity": "university",
        "faculty": "yes",
        "name": "Institut für Biomedizinische Alternsforschung",
        "operator": "Universität Innsbruck",
        "website": "https://www.uibk.ac.at/de/iba/"
      },
      "geometry": {
        "type": "Point",
        "coordinates": [
          11.3966094,
          47.2736545
        ]
      }
    },
    {
      "type": "Feature",
      "properties": {
        "id": "12522410426",
        "osm_type": "node",
        "lat": 47.2665365,
        "lon": 11.3907091,
        "addr:city": "Innsbruck",
        "addr:country": "AT",
        "addr:housenumber": "15",
        "addr:postcode": "6020",
        "addr:street": "Innrain",
        "amenity": "university",
        "faculty": "law",
        "name": "Institut für Theorie und Zukunft des Rechts",
        "operator": "Universität Innsbruck",
        "phone": "+43 512 50781609",
        "source": "website",
        "website": "https://www.uibk.ac.at/de/zukunftsrecht/"
      },
      "geometry": {
        "type": "Point",
        "coordinates": [
          11.3907091,
          47.2665365
        ]
      }
    },
    {
      "type": "Feature",
      "properties": {
        "id": "12522410427",
        "osm_type": "node",
        "lat": 47.2689621,
        "lon": 11.3959707,
        "amenity": "university",
        "email": "musikwissenschaft@uibk.ac.at",
        "faculty": "music",
        "name": "Institut für Musikwissenschaften",
        "operator": "Universität Innsbruck",
        "phone": "+43 512 50733012",
        "website": "https://www.uibk.ac.at/musikwissenschaft/"
      },
      "geometry": {
        "type": "Point",
        "coordinates": [
          11.3959707,
          47.2689621
        ]
      }
    },
    {
      "type": "Feature",
      "properties": {
        "id": "12522410428",
        "osm_type": "node",
        "lat": 47.2749669,
        "lon": 11.3993419,
        "amenity": "university",
        "name": "Universitäre Weiterbildung",
        "website": "https://www.uibk.ac.at/de/weiterbildung/"
      },
      "geometry": {
        "type": "Point",
        "coordinates": [
          11.3993419,
          47.2749669
        ]
      }
    }
  ],
  "children": []
}