{
  "bbox": {
    "south": 46.372652,
    "west": 15.253173,
    "north": 47.033758500000005,
    "east": 17.16058
  },
  "poiCount": 115,
  "leafCount": 0,
  "averagePosition": [
    16.03488546695652,
    46.7712585573913
  ],
  "data": [],
  "children": [
    {
      "bbox": {
        "south": 46.372652,
        "west": 15.253173,
        "north": 46.70320525,
        "east": 16.2068765
      },
      "poiCount": 24,
      "leafCount": 24,
      "averagePosition": [
        15.730475658333333,
        46.54098122916667
      ],
      "data": [
        {
          "type": "Feature",
          "properties": {
            "id": "471612011",
            "osm_type": "node",
            "lat": 46.4530356,
            "lon": 15.3335364,
            "name": "Planja",
            "stars": "4",
            "tourism": "hotel"
          },
          "geometry": {
            "type": "Point",
            "coordinates": [
              15.3335364,
              46.4530356
            ]
          }
        },
        {
          "type": "Feature",
          "properties": {
            "id": "2109534319",
            "osm_type": "node",
            "lat": 46.5409599,
            "lon": 15.5189471,
            "name": "Hotel Veter",
            "tourism": "hotel",
            "wikidata": "Q112018704"
          },
          "geometry": {
            "type": "Point",
            "coordinates": [
              15.5189471,
              46.5409599
            ]
          }
        },
        {
          "type": "Feature",
          "properties": {
            "id": "360329945",
            "osm_type": "node",
            "lat": 46.4922945,
            "lon": 15.5352479,
            "addr:city": "Pohorje",
            "addr:country": "SI",
            "addr:housenumber": "34",
            "addr:postcode": "2208",
            "addr:street": "Frajhajm",
            "name": "Zarja",
            "opening_hours": "Mo-Su 07:00-22:00",
            "stars": "3",
            "tourism": "hotel"
          },
          "geometry": {
            "type": "Point",
            "coordinates": [
              15.5352479,
              46.4922945
            ]
          }
        },
        {
          "type": "Feature",
          "properties": {
            "id": "381333909",
            "osm_type": "node",
            "lat": 46.5136625,
            "lon": 15.5776525,
            "name": "Videc",
            "tourism": "hotel"
          },
          "geometry": {
            "type": "Point",
            "coordinates": [
              15.5776525,
              46.5136625
            ]
          }
        },
        {
          "type": "Feature",
          "properties": {
            "id": "389926006",
            "osm_type": "node",
            "lat": 46.7015238,
            "lon": 15.5502085,
            "name": "Pension Gasthof Eckberger Hof",
            "tourism": "hotel"
          },
          "geometry": {
            "type": "Point",
            "coordinates": [
              15.5502085,
              46.7015238
            ]
          }
        },
        {
          "type": "Feature",
          "properties": {
            "id": "1401871149",
            "osm_type": "node",
            "lat": 46.5135828,
            "lon": 15.5771715,
            "name": "Luxury Apartments Bona",
            "tourism": "hotel"
          },
          "geometry": {
            "type": "Point",
            "coordinates": [
              15.5771715,
              46.5135828
            ]
          }
        },
        {
          "type": "Feature",
          "properties": {
            "id": "2309684816",
            "osm_type": "node",
            "lat": 46.5686006,
            "lon": 15.6990136,
            "addr:city": "Malečnik",
            "addr:country": "SI",
            "addr:hamlet": "Vodole",
            "addr:housenumber": "34",
            "addr:postcode": "2229",
            "contact:email": "vino@joannes.si",
            "contact:fax": "+386 2 4732102",
            "contact:mobile": "+386 41 654 305",
            "contact:phone": "+386 2 4732101",
            "contact:website": "www.joannes.si",
            "name": "Hiša Joannes Protner",
            "name:en": "Tourist Farm Joannes",
            "operator": "Boštjan Protner",
            "tourism": "hotel",
            "wikidata": "Q112018740"
          },
          "geometry": {
            "type": "Point",
            "coordinates": [
              15.6990136,
              46.5686006
            ]
          }
        },
        {
          "type": "Feature",
          "properties": {
            "id": "3148731429",
            "osm_type": "node",
            "lat": 46.4199913,
            "lon": 15.8692651,
            "addr:city": "Ptuj",
            "addr:housenumber": "6",
            "addr:postcode": "2250",
            "addr:street": "Prešernova ulica",
            "email": "info@hotel-mitra.si",
            "name": "Hotel Mitra",
            "phone": "+386 2 78 77 455",
            "tourism": "hotel",
            "website": "https://www.hotel-mitra.si/",
            "wheelchair": "yes"
          },
          "geometry": {
            "type": "Point",
            "coordinates": [
              15.8692651,
              46.4199913
            ]
          }
        },
        {
          "type": "Feature",
          "properties": {
            "id": "3148750629",
            "osm_type": "node",
            "lat": 46.420292,
            "lon": 15.8658242,
            "addr:city": "Ptuj",
            "addr:housenumber": "38",
            "addr:postcode": "2250",
            "addr:street": "Prešernova ulica",
            "check_date": "2024-07-20",
            "name": "Park Hotel Ptuj",
            "stars": "4",
            "tourism": "hotel",
            "wheelchair": "no"
          },
          "geometry": {
            "type": "Point",
            "coordinates": [
              15.8658242,
              46.420292
            ]
          }
        },
        {
          "type": "Feature",
          "properties": {
            "id": "3159101861",
            "osm_type": "node",
            "lat": 46.4196938,
            "lon": 15.8750009,
            "addr:city": "Ptuj",
            "addr:housenumber": "5",
            "addr:postcode": "2250",
            "addr:street": "Vinarski trg",
            "brand": "Hotel & Casino Admiral",
            "email": "recepcija.ptuj@admiral.si",
            "name": "Hotel & Casino Admiral Ptuj",
            "phone": "+386 2 779 82 11",
            "stars": "3",
            "tourism": "hotel",
            "website": "https://www.admiral.si/si/ptuj",
            "wheelchair": "yes",
            "wikidata": "Q112018751"
          },
          "geometry": {
            "type": "Point",
            "coordinates": [
              15.8750009,
              46.4196938
            ]
          }
        },
        {
          "type": "Feature",
          "properties": {
            "id": "3870703953",
            "osm_type": "node",
            "lat": 46.6864453,
            "lon": 15.9870407,
            "addr:city": "Bad Radkersburg",
            "addr:housenumber": "11",
            "addr:postcode": "8490",
            "addr:street": "Murgasse",
            "check_date": "2024-05-21",
            "name": "Gästehaus Ferk",
            "tourism": "hotel"
          },
          "geometry": {
            "type": "Point",
            "coordinates": [
              15.9870407,
              46.6864453
            ]
          }
        },
        {
          "type": "Feature",
          "properties": {
            "id": "4215550439",
            "osm_type": "node",
            "lat": 46.5377772,
            "lon": 15.6412232,
            "addr:city": "Maribor",
            "addr:country": "SI",
            "addr:housenumber": "15",
            "addr:postcode": "2000",
            "addr:street": "Ulica Eve Lovše",
            "fax": "+386 59 344 131",
            "internet_access": "yes",
            "internet_access:fee": "no",
            "name": "Hotel Betnava",
            "phone": "+386 59 344 100",
            "smoking": "outside",
            "stars": "4",
            "tourism": "hotel",
            "website": "http://www.betnava.si/",
            "wheelchair": "yes"
          },
          "geometry": {
            "type": "Point",
            "coordinates": [
              15.6412232,
              46.5377772
            ]
          }
        },
        {
          "type": "Feature",
          "properties": {
            "id": "4786240666",
            "osm_type": "node",
            "lat": 46.5195503,
            "lon": 15.6180109,
            "addr:city": "Maribor",
            "addr:housenumber": "50",
            "addr:postcode": "2000",
            "addr:street": "Pri Habakuku",
            "currency:XBT": "yes",
            "name": "Vilaraj",
            "phone": "+386-51-840-777",
            "tourism": "hotel",
            "website": "https://vilaraj.si/"
          },
          "geometry": {
            "type": "Point",
            "coordinates": [
              15.6180109,
              46.5195503
            ]
          }
        },
        {
          "type": "Feature",
          "properties": {
            "id": "5760703775",
            "osm_type": "node",
            "lat": 46.5600282,
            "lon": 15.6474225,
            "addr:city": "Maribor",
            "addr:housenumber": "7",
            "addr:postcode": "2000",
            "addr:street": "Volkmerjev prehod",
            "air_conditioning": "yes",
            "bar": "no",
            "email": "orel@hotel-orel.si",
            "internet_access": "wlan",
            "internet_access:fee": "no",
            "name": "Hotel Orel",
            "phone": "+386 2 250 67 00",
            "rooms": "71",
            "stars": "3",
            "toilets:wheelchair": "no",
            "tourism": "hotel",
            "website": "https://hotel-orel.si",
            "wheelchair": "limited",
            "wikidata": "Q111879958"
          },
          "geometry": {
            "type": "Point",
            "coordinates": [
              15.6474225,
              46.5600282
            ]
          }
        },
        {
          "type": "Feature",
          "properties": {
            "id": "6154245446",
            "osm_type": "node",
            "lat": 46.5578321,
            "lon": 15.6443019,
            "addr:city": "Maribor",
            "addr:housenumber": "8",
            "addr:postcode": "2000",
            "addr:street": "Glavni Trg",
            "currency:XBT": "yes",
            "email": "info@hotelmaribor.si",
            "name": "Hotel Maribor",
            "payment:lightning": "yes",
            "payment:lightning_contactless": "yes",
            "phone": "+386 2 234 5600",
            "stars": "4",
            "tourism": "hotel",
            "website": "http://hotelmaribor.si/",
            "wikidata": "Q112018725"
          },
          "geometry": {
            "type": "Point",
            "coordinates": [
              15.6443019,
              46.5578321
            ]
          }
        },
        {
          "type": "Feature",
          "properties": {
            "id": "6966895378",
            "osm_type": "node",
            "lat": 46.566255,
            "lon": 15.6550769,
            "name": "Vila Mira Maribor",
            "tourism": "hotel"
          },
          "geometry": {
            "type": "Point",
            "coordinates": [
              15.6550769,
              46.566255
            ]
          }
        },
        {
          "type": "Feature",
          "properties": {
            "id": "10753661639",
            "osm_type": "node",
            "lat": 46.5592436,
            "lon": 15.6507369,
            "name": "B&B Hotel",
            "tourism": "hotel"
          },
          "geometry": {
            "type": "Point",
            "coordinates": [
              15.6507369,
              46.5592436
            ]
          }
        },
        {
          "type": "Feature",
          "properties": {
            "id": "10916438127",
            "osm_type": "node",
            "lat": 46.4145704,
            "lon": 15.8668645,
            "addr:city": "Ptuj",
            "addr:housenumber": "3A",
            "addr:postcode": "2250",
            "addr:street": "Ob Dravi",
            "brand": "Pomaranča d.o.o.",
            "email": "hotel@pomaranca.si",
            "internet_access": "wlan",
            "name": "Hotel Pomaranča",
            "phone": "+386 2 2927 600",
            "tourism": "hotel",
            "website": "http://www.hotel-pomaranca.si/index.php/sl/",
            "wikidata": "Q112018749"
          },
          "geometry": {
            "type": "Point",
            "coordinates": [
              15.8668645,
              46.4145704
            ]
          }
        },
        {
          "type": "Feature",
          "properties": {
            "id": "11039530907",
            "osm_type": "node",
            "lat": 46.7013766,
            "lon": 15.5499714,
            "name": "Weinhotel Eckbergerhof",
            "tourism": "hotel"
          },
          "geometry": {
            "type": "Point",
            "coordinates": [
              15.5499714,
              46.7013766
            ]
          }
        },
        {
          "type": "Feature",
          "properties": {
            "id": "11619677299",
            "osm_type": "node",
            "lat": 46.4262238,
            "lon": 15.8269137,
            "addr:city": "Hajdina",
            "addr:housenumber": "43J",
            "addr:postcode": "2288",
            "addr:street": "Hajdoše",
            "email": "INFO@HOTELROSKAR.COM",
            "internet_access": "wlan",
            "internet_access:fee": "customers",
            "name": "Hotel Roškar",
            "operator": "KAROLINA ROŠKAR S.P.",
            "phone": "+386 2 782 32 01",
            "rooms": "30",
            "tourism": "hotel",
            "website": "https://hotelroskar.com/"
          },
          "geometry": {
            "type": "Point",
            "coordinates": [
              15.8269137,
              46.4262238
            ]
          }
        },
        {
          "type": "Feature",
          "properties": {
            "id": "12603386102",
            "osm_type": "node",
            "lat": 46.5573369,
            "lon": 15.6428171,
            "addr:city": "Maribor",
            "addr:housenumber": "8",
            "addr:postcode": "2000",
            "addr:street": "Vojašniški trg",
            "brand": "Rožmarin Hospitality Group",
            "currency:XBT": "yes",
            "email": "info@hotelmaribor.si",
            "name": "Hotel Maribor - Garden Rooms",
            "payment:lightning": "yes",
            "payment:lightning_contactless": "yes",
            "phone": "+386 2 234 56 00",
            "rooms": "16",
            "tourism": "hotel",
            "website": "https://www.hotelmaribor.si/en/garden-rooms",
            "wikidata": "Q112018725"
          },
          "geometry": {
            "type": "Point",
            "coordinates": [
              15.6428171,
              46.5573369
            ]
          }
        },
        {
          "type": "Feature",
          "properties": {
            "id": "3122759022",
            "osm_type": "node",
            "lat": 46.668646,
            "lon": 16.1780927,
            "addr:city": "Murska Sobota",
            "addr:housenumber": "28A",
            "addr:postcode": "9000",
            "addr:street": "Obrtna ulica",
            "name": "Rooms Cipot",
            "ref:gurs:hs_mid": "19493024",
            "source:addr": "GURS",
            "tourism": "hotel"
          },
          "geometry": {
            "type": "Point",
            "coordinates": [
              16.1780927,
              46.668646
            ]
          }
        },
        {
          "type": "Feature",
          "properties": {
            "id": "6595222395",
            "osm_type": "node",
            "lat": 46.5248472,
            "lon": 16.0549165,
            "tourism": "hotel"
          },
          "geometry": {
            "type": "Point",
            "coordinates": [
              16.0549165,
              46.5248472
            ]
          }
        },
        {
          "type": "Feature",
          "properties": {
            "id": "9861679454",
            "osm_type": "node",
            "lat": 46.6597801,
            "lon": 16.1661592,
            "name": "Hotel Belmur",
            "tourism": "hotel"
          },
          "geometry": {
            "type": "Point",
            "coordinates": [
              16.1661592,
              46.6597801
            ]
          }
        }
      ],
      "children": []
    },
    {
      "bbox": {
        "south": 46.372652,
        "west": 16.2068765,
        "north": 46.70320525,
        "east": 17.16058
      },
      "poiCount": 17,
      "leafCount": 17,
      "averagePosition": [
        16.70922054117647,
        46.534579611764705
      ],
      "data": [
        {
          "type": "Feature",
          "properties": {
            "id": "5183242621",
            "osm_type": "node",
            "lat": 46.696842,
            "lon": 16.4309432,
            "tourism": "hotel"
          },
          "geometry": {
            "type": "Point",
            "coordinates": [
              16.4309432,
              46.696842
            ]
          }
        },
        {
          "type": "Feature",
          "properties": {
            "id": "5679543846",
            "osm_type": "node",
            "lat": 46.69778,
            "lon": 16.4311312,
            "internet_access": "wlan",
            "tourism": "hotel"
          },
          "geometry": {
            "type": "Point",
            "coordinates": [
              16.4311312,
              46.69778
            ]
          }
        },
        {
          "type": "Feature",
          "properties": {
            "id": "6157621985",
            "osm_type": "node",
            "lat": 46.4950535,
            "lon": 16.3404532,
            "name": "Life Clas Terme Sveti Martin na Muri",
            "tourism": "hotel"
          },
          "geometry": {
            "type": "Point",
            "coordinates": [
              16.3404532,
              46.4950535
            ]
          }
        },
        {
          "type": "Feature",
          "properties": {
            "id": "6498550848",
            "osm_type": "node",
            "lat": 46.3891394,
            "lon": 16.427435,
            "addr:city": "Čakovec",
            "addr:housenumber": "14",
            "addr:postcode": "40000",
            "addr:street": "Zrinsko-Frankopanska ulica",
            "beds": "152",
            "email": "recepcija@hotelpark.hr",
            "internet_access": "wlan",
            "name": "Hotel Park",
            "operator": "Union d.d.",
            "phone": "+385 40 311 255",
            "rooms": "81",
            "stars": "3",
            "tourism": "hotel",
            "website": "https://hotelpark.hr/"
          },
          "geometry": {
            "type": "Point",
            "coordinates": [
              16.427435,
              46.3891394
            ]
          }
        },
        {
          "type": "Feature",
          "properties": {
            "id": "6613020651",
            "osm_type": "node",
            "lat": 46.3868791,
            "lon": 16.4325528,
            "addr:city": "Čakovec",
            "addr:housenumber": "16",
            "addr:postcode": "40000",
            "addr:street": "Ulica Vladimira Nazora",
            "email": "info@castellum-cakovec.com",
            "internet_access": "yes",
            "internet_access:fee": "no",
            "name": "Castellum",
            "operator": "City projekt",
            "phone": "+385 40 304 200",
            "rooms": "30",
            "stars": "4",
            "tourism": "hotel",
            "website": "https://castellum-cakovec.com/"
          },
          "geometry": {
            "type": "Point",
            "coordinates": [
              16.4325528,
              46.3868791
            ]
          }
        },
        {
          "type": "Feature",
          "properties": {
            "id": "6991983805",
            "osm_type": "node",
            "lat": 46.6873752,
            "lon": 16.2166534,
            "name": "Terme Vivat",
            "tourism": "hotel",
            "website": "https://vivat.si/"
          },
          "geometry": {
            "type": "Point",
            "coordinates": [
              16.2166534,
              46.6873752
            ]
          }
        },
        {
          "type": "Feature",
          "properties": {
            "id": "1088072448",
            "osm_type": "node",
            "lat": 46.6058599,
            "lon": 16.5407266,
            "name": "Hubertus",
            "tourism": "hotel",
            "wheelchair": "no"
          },
          "geometry": {
            "type": "Point",
            "coordinates": [
              16.5407266,
              46.6058599
            ]
          }
        },
        {
          "type": "Feature",
          "properties": {
            "id": "3274918061",
            "osm_type": "node",
            "lat": 46.5158355,
            "lon": 16.7270204,
            "addr:city": "Bázakerettye",
            "addr:postcode": "8887",
            "addr:street": "Fő út 72",
            "description": "A nyugodt, pihenésre alkalmas környezetben a tulajdonosok magas minőségi követelményű éttermet és szálláshelyet kívántak létrehozni a hozzájuk betérőknek.",
            "image": "https://drive.google.com/drive/folders/1hDPkxz352SQupsivCN22kRvo0aYjkw07?usp=sharing",
            "name": "Bone Chance restaurant & Hotel",
            "tourism": "hotel"
          },
          "geometry": {
            "type": "Point",
            "coordinates": [
              16.7270204,
              46.5158355
            ]
          }
        },
        {
          "type": "Feature",
          "properties": {
            "id": "3386310674",
            "osm_type": "node",
            "lat": 46.65379,
            "lon": 16.77228,
            "name": "Hotel",
            "source": "turistautak.hu",
            "tourism": "hotel",
            "url": "http://turistautak.hu/poi.php?id=59797"
          },
          "geometry": {
            "type": "Point",
            "coordinates": [
              16.77228,
              46.65379
            ]
          }
        },
        {
          "type": "Feature",
          "properties": {
            "id": "3392846961",
            "osm_type": "node",
            "lat": 46.521717,
            "lon": 16.728867,
            "name": "Erdei Szálló",
            "source": "turistautak.hu",
            "tourism": "hotel",
            "url": "http://turistautak.hu/poi.php?id=6029",
            "website": "http://kerettye.hu/index.php?pg=erdei_szallo"
          },
          "geometry": {
            "type": "Point",
            "coordinates": [
              16.728867,
              46.521717
            ]
          }
        },
        {
          "type": "Feature",
          "properties": {
            "id": "3456437112",
            "osm_type": "node",
            "lat": 46.4607407,
            "lon": 16.9077362,
            "addr:city": "Sormás",
            "addr:conscriptionnumber": "028/2",
            "addr:postcode": "8881",
            "breakfast": "yes",
            "dog": "yes",
            "facebook": "https://www.facebook.com/IstvanHotel/",
            "level": "0",
            "name": "István Parkhotel",
            "operator": "GIB Hungary Kft",
            "payment:mastercard": "yes",
            "payment:visa": "yes",
            "phone": "+36 93 375 160",
            "ref:HU:vatin": "11862381-2-20",
            "ref:vatin": "HU11862381",
            "service:bicycle:rental": "yes",
            "tourism": "hotel",
            "url": "http://turistautak.hu/poi.php?id=85419",
            "website": "http://www.istvanhotel.hu/",
            "wheelchair": "no"
          },
          "geometry": {
            "type": "Point",
            "coordinates": [
              16.9077362,
              46.4607407
            ]
          }
        },
        {
          "type": "Feature",
          "properties": {
            "id": "6046573205",
            "osm_type": "node",
            "lat": 46.4333172,
            "lon": 16.7229783,
            "description": "Szobafoglalás a Lila Bisztróban.",
            "image": "https://drive.google.com/drive/folders/1Px_FoIC_V1Wn-kQ-L8NvNlVvo0VOHKVx?usp=sharing",
            "name": "Aranybárány",
            "tourism": "hotel"
          },
          "geometry": {
            "type": "Point",
            "coordinates": [
              16.7229783,
              46.4333172
            ]
          }
        },
        {
          "type": "Feature",
          "properties": {
            "id": "9534758005",
            "osm_type": "node",
            "lat": 46.4541454,
            "lon": 16.9825805,
            "addr:city": "Nagykanizsa",
            "addr:housenumber": "7",
            "addr:postcode": "8800",
            "addr:street": "Király utca",
            "name": "Hugi panzió",
            "phone": "+36302657120",
            "tourism": "hotel"
          },
          "geometry": {
            "type": "Point",
            "coordinates": [
              16.9825805,
              46.4541454
            ]
          }
        },
        {
          "type": "Feature",
          "properties": {
            "id": "1843883553",
            "osm_type": "node",
            "lat": 46.4411843,
            "lon": 17.0327623,
            "addr:city": "Nagykanizsa",
            "addr:housenumber": "1",
            "addr:postcode": "8800",
            "addr:street": "Szőlősgazda út",
            "capacity": "30",
            "cuisine": "regional",
            "description": "Kényelmes szobák, barátságos környezet, biztonságos parkoló, kiváló étterem, wellness. Hotel Nagykaniuzsán.",
            "designation": "accomodation",
            "internet_access": "wlan",
            "internet_access:fee": "no",
            "name": "Hotel Vineyard Inn",
            "name:en": "Hotel Vineyard Inn",
            "opening_hours": "24/7",
            "operator": "Gelencser Family",
            "phone": "+36 93 516 016",
            "restaurant": "hungarian",
            "rooms": "12",
            "smoking": "outside",
            "source": "hotel",
            "stars": "3",
            "tourism": "hotel",
            "website": "https://www.vineyardinn.hu/",
            "wheelchair": "yes"
          },
          "geometry": {
            "type": "Point",
            "coordinates": [
              17.0327623,
              46.4411843
            ]
          }
        },
        {
          "type": "Feature",
          "properties": {
            "id": "3372335207",
            "osm_type": "node",
            "lat": 46.549983,
            "lon": 17.122233,
            "name": "Hotel Aphrodite",
            "source": "turistautak.hu",
            "stars": "4",
            "tourism": "hotel",
            "url": "http://turistautak.hu/poi.php?id=121828"
          },
          "geometry": {
            "type": "Point",
            "coordinates": [
              17.122233,
              46.549983
            ]
          }
        },
        {
          "type": "Feature",
          "properties": {
            "id": "3372335208",
            "osm_type": "node",
            "lat": 46.550252,
            "lon": 17.12215,
            "name": "Hotel Venus",
            "source": "turistautak.hu",
            "stars": "3",
            "tourism": "hotel",
            "url": "http://turistautak.hu/poi.php?id=121836"
          },
          "geometry": {
            "type": "Point",
            "coordinates": [
              17.12215,
              46.550252
            ]
          }
        },
        {
          "type": "Feature",
          "properties": {
            "id": "12715544678",
            "osm_type": "node",
            "lat": 46.5479592,
            "lon": 17.1182461,
            "addr:city": "Zalakaros",
            "addr:housenumber": "59",
            "addr:postcode": "8749",
            "addr:street": "Zalagyöngye utca",
            "email": "adrienn.arany@gmail.com",
            "name": "Arany Apartmanház Zalagyöngye Zalakaros",
            "phone": "+36 30 2838205",
            "tourism": "hotel"
          },
          "geometry": {
            "type": "Point",
            "coordinates": [
              17.1182461,
              46.5479592
            ]
          }
        }
      ],
      "children": []
    },
    {
      "bbox": {
        "south": 46.70320525,
        "west": 15.253173,
        "north": 47.033758500000005,
        "east": 16.2068765
      },
      "poiCount": 56,
      "leafCount": 0,
      "averagePosition": [
        15.719938748214286,
        46.90134825357143
      ],
      "data": [],
      "children": [
        {
          "bbox": {
            "south": 46.70320525,
            "west": 15.253173,
            "north": 46.868481875,
            "east": 15.73002475
          },
          "poiCount": 11,
          "leafCount": 11,
          "averagePosition": [
            15.510968918181819,
            46.75311066363636
          ],
          "data": [
            {
              "type": "Feature",
              "properties": {
                "id": "505460247",
                "osm_type": "node",
                "lat": 46.7493321,
                "lon": 15.4194945,
                "name": "Biohof Süss",
                "tourism": "hotel"
              },
              "geometry": {
                "type": "Point",
                "coordinates": [
                  15.4194945,
                  46.7493321
                ]
              }
            },
            {
              "type": "Feature",
              "properties": {
                "id": "1895258446",
                "osm_type": "node",
                "lat": 46.7538495,
                "lon": 15.3691403,
                "addr:city": "Gleinstätten",
                "addr:country": "AT",
                "addr:housenumber": "17",
                "addr:place": "Gleinstätten",
                "addr:postcode": "8443",
                "at_bev:addr_date": "2018-10-01",
                "tourism": "hotel",
                "wheelchair": "no"
              },
              "geometry": {
                "type": "Point",
                "coordinates": [
                  15.3691403,
                  46.7538495
                ]
              }
            },
            {
              "type": "Feature",
              "properties": {
                "id": "5829733591",
                "osm_type": "node",
                "lat": 46.7485001,
                "lon": 15.4655729,
                "addr:city": "Großklein",
                "addr:country": "AT",
                "addr:housenumber": "22",
                "addr:place": "Nestelbach",
                "addr:postcode": "8452",
                "at_bev:addr_date": "2019-10-01",
                "name": "Gästehaus Dirnböck",
                "tourism": "hotel"
              },
              "geometry": {
                "type": "Point",
                "coordinates": [
                  15.4655729,
                  46.7485001
                ]
              }
            },
            {
              "type": "Feature",
              "properties": {
                "id": "5832176317",
                "osm_type": "node",
                "lat": 46.7636406,
                "lon": 15.5082093,
                "name": "Waldhüter's Mostschenke Gästezimmer",
                "operator": "Fam. Neumann",
                "tourism": "hotel"
              },
              "geometry": {
                "type": "Point",
                "coordinates": [
                  15.5082093,
                  46.7636406
                ]
              }
            },
            {
              "type": "Feature",
              "properties": {
                "id": "5836538801",
                "osm_type": "node",
                "lat": 46.7315506,
                "lon": 15.4590431,
                "name": "Gästehaus Rothschädl",
                "tourism": "hotel"
              },
              "geometry": {
                "type": "Point",
                "coordinates": [
                  15.4590431,
                  46.7315506
                ]
              }
            },
            {
              "type": "Feature",
              "properties": {
                "id": "300260128",
                "osm_type": "node",
                "lat": 46.7770686,
                "lon": 15.5396483,
                "created_by": "Potlatch 0.10c",
                "name": "Hotel Weinland",
                "tourism": "hotel"
              },
              "geometry": {
                "type": "Point",
                "coordinates": [
                  15.5396483,
                  46.7770686
                ]
              }
            },
            {
              "type": "Feature",
              "properties": {
                "id": "1218060148",
                "osm_type": "node",
                "lat": 46.7675364,
                "lon": 15.5701117,
                "name": "Hotel Neuhold",
                "tourism": "hotel"
              },
              "geometry": {
                "type": "Point",
                "coordinates": [
                  15.5701117,
                  46.7675364
                ]
              }
            },
            {
              "type": "Feature",
              "properties": {
                "id": "1547047046",
                "osm_type": "node",
                "lat": 46.7216375,
                "lon": 15.5587913,
                "addr:city": "Gamlitz",
                "addr:country": "AT",
                "addr:housenumber": "15",
                "addr:postcode": "8462",
                "addr:street": "Untere Hauptstraße",
                "at_bev:addr_date": "2019-10-01",
                "contact:phone": "+43 3453 2584",
                "name": "Hotel Weinlandhof",
                "tourism": "hotel",
                "website": "https://www.weinlandhof.at/"
              },
              "geometry": {
                "type": "Point",
                "coordinates": [
                  15.5587913,
                  46.7216375
                ]
              }
            },
            {
              "type": "Feature",
              "properties": {
                "id": "4430759088",
                "osm_type": "node",
                "lat": 46.7122952,
                "lon": 15.5363633,
                "addr:city": "Gamlitz",
                "addr:housenumber": "8",
                "addr:postcode": "8462",
                "addr:street": "Sernauer Straße",
                "air_conditioning": "yes",
                "guest_house": "Garni_Hotel_und_Cafe",
                "internet_access": "wlan",
                "name": "Hotel Villa Rosa",
                "operator": "Familie Sandra und Björn Speer",
                "rooms": "7",
                "smoking": "outside",
                "stars": "4",
                "tourism": "hotel",
                "website": "https://www.hotel-villa-rosa.at/"
              },
              "geometry": {
                "type": "Point",
                "coordinates": [
                  15.5363633,
                  46.7122952
                ]
              }
            },
            {
              "type": "Feature",
              "properties": {
                "id": "12088493400",
                "osm_type": "node",
                "lat": 46.7138772,
                "lon": 15.5387199,
                "name": "Posthansl",
                "tourism": "hotel"
              },
              "geometry": {
                "type": "Point",
                "coordinates": [
                  15.5387199,
                  46.7138772
                ]
              }
            },
            {
              "type": "Feature",
              "properties": {
                "id": "12473505535",
                "osm_type": "node",
                "lat": 46.8449295,
                "lon": 15.6555635,
                "contact:email": "office@vulkanresidenz.at",
                "contact:phone": "+43 3184 30800",
                "name": "VULKAN Residenz Hotel",
                "tourism": "hotel",
                "website": "https://vulkanresidenz.at/"
              },
              "geometry": {
                "type": "Point",
                "coordinates": [
                  15.6555635,
                  46.8449295
                ]
              }
            }
          ],
          "children": []
        },
        {
          "bbox": {
            "south": 46.70320525,
            "west": 15.73002475,
            "north": 46.868481875,
            "east": 16.2068765
          },
          "poiCount": 7,
          "leafCount": 7,
          "averagePosition": [
            15.978750514285716,
            46.793338514285715
          ],
          "data": [
            {
              "type": "Feature",
              "properties": {
                "id": "2292327177",
                "osm_type": "node",
                "lat": 46.7845193,
                "lon": 15.946556,
                "addr:city": "Tieschen",
                "addr:housenumber": "5",
                "addr:place": "Tieschen",
                "addr:postcode": "8355",
                "name": "Winzerhotel Kolleritsch",
                "tourism": "hotel",
                "website": "https://www.kolleritsch.at/"
              },
              "geometry": {
                "type": "Point",
                "coordinates": [
                  15.946556,
                  46.7845193
                ]
              }
            },
            {
              "type": "Feature",
              "properties": {
                "id": "2292327645",
                "osm_type": "node",
                "lat": 46.7809552,
                "lon": 15.9486927,
                "name": "JUFA Tieschen Landerlebnisdorf",
                "toilets:wheelchair": "yes",
                "tourism": "hotel",
                "wheelchair": "yes"
              },
              "geometry": {
                "type": "Point",
                "coordinates": [
                  15.9486927,
                  46.7809552
                ]
              }
            },
            {
              "type": "Feature",
              "properties": {
                "id": "2362022878",
                "osm_type": "node",
                "lat": 46.8540337,
                "lon": 15.7383524,
                "tourism": "hotel"
              },
              "geometry": {
                "type": "Point",
                "coordinates": [
                  15.7383524,
                  46.8540337
                ]
              }
            },
            {
              "type": "Feature",
              "properties": {
                "id": "3870703954",
                "osm_type": "node",
                "lat": 46.70941,
                "lon": 15.9800988,
                "addr:city": "Bad Radkersburg",
                "addr:housenumber": "11",
                "addr:place": "Hummersdorf",
                "addr:postcode": "8490",
                "name": "Landhaus Ferk",
                "tourism": "hotel"
              },
              "geometry": {
                "type": "Point",
                "coordinates": [
                  15.9800988,
                  46.70941
                ]
              }
            },
            {
              "type": "Feature",
              "properties": {
                "id": "12948877684",
                "osm_type": "node",
                "lat": 46.8061953,
                "lon": 15.8708889,
                "name": "De Merin - Boutique Hotel Straden",
                "tourism": "hotel",
                "website": "https://hotel-demerin.at/"
              },
              "geometry": {
                "type": "Point",
                "coordinates": [
                  15.8708889,
                  46.8061953
                ]
              }
            },
            {
              "type": "Feature",
              "properties": {
                "id": "9537265617",
                "osm_type": "node",
                "lat": 46.8091274,
                "lon": 16.1833209,
                "addr:postcode": "9203",
                "email": "vamissobe@gmail.com",
                "internet_access": "wlan",
                "name": "Gostišče",
                "name:de": "Gasthaus VAMISCH",
                "name:en": "Guest House VAMISH",
                "name:ru": "Гостевой дом ВАМИШ",
                "name:sl": "Gostišče VAMIŠ",
                "opening_hours": "24/7",
                "phone": "+386 31 827 837",
                "tourism": "hotel"
              },
              "geometry": {
                "type": "Point",
                "coordinates": [
                  16.1833209,
                  46.8091274
                ]
              }
            },
            {
              "type": "Feature",
              "properties": {
                "id": "9740188817",
                "osm_type": "node",
                "lat": 46.8091287,
                "lon": 16.1833439,
                "addr:postcode": "9203",
                "email": "vamissobe@gmail.com",
                "name": "VAMIS",
                "name:sl": "Gostišče VAMIS",
                "phone": "+38631827837",
                "tourism": "hotel"
              },
              "geometry": {
                "type": "Point",
                "coordinates": [
                  16.1833439,
                  46.8091287
                ]
              }
            }
          ],
          "children": []
        },
        {
          "bbox": {
            "south": 46.868481875,
            "west": 15.253173,
            "north": 47.033758500000005,
            "east": 15.73002475
          },
          "poiCount": 16,
          "leafCount": 16,
          "averagePosition": [
            15.40599845625,
            46.99200760625
          ],
          "data": [
            {
              "type": "Feature",
              "properties": {
                "id": "269218108",
                "osm_type": "node",
                "lat": 47.0316115,
                "lon": 15.5025904,
                "addr:city": "Raaba-Grambach",
                "addr:country": "AT",
                "addr:housenumber": "8",
                "addr:postcode": "8074",
                "addr:street": "Am Mühlengrund",
                "at_bev:addr_date": "2019-10-01",
                "contact:email": "graz@dormero.de",
                "contact:phone": "+43 316 403 101",
                "name": "DORMERO SeHo Graz",
                "old_name": "Hotel am Mühlengrund",
                "tourism": "hotel",
                "website": "https://www.dormero.de/hotel-seho-graz/"
              },
              "geometry": {
                "type": "Point",
                "coordinates": [
                  15.5025904,
                  47.0316115
                ]
              }
            },
            {
              "type": "Feature",
              "properties": {
                "id": "443696174",
                "osm_type": "node",
                "lat": 46.972209,
                "lon": 15.4038517,
                "addr:city": "Unterpremstätten",
                "addr:housenumber": "135",
                "addr:postcode": "8141",
                "addr:street": "Hauptstraße",
                "name": "Hotel Stockinger",
                "tourism": "hotel",
                "website": "https://www.derstocki.at/"
              },
              "geometry": {
                "type": "Point",
                "coordinates": [
                  15.4038517,
                  46.972209
                ]
              }
            },
            {
              "type": "Feature",
              "properties": {
                "id": "888717741",
                "osm_type": "node",
                "lat": 46.9954529,
                "lon": 15.5007076,
                "addr:city": "Hausmannstätten",
                "addr:country": "AT",
                "addr:housenumber": "1",
                "addr:postcode": "8071",
                "addr:street": "Paula-Grogger-Weg",
                "name": "Sorgerhof Frühstückspension",
                "phone": "+430313540939",
                "tourism": "hotel"
              },
              "geometry": {
                "type": "Point",
                "coordinates": [
                  15.5007076,
                  46.9954529
                ]
              }
            },
            {
              "type": "Feature",
              "properties": {
                "id": "1078523609",
                "osm_type": "node",
                "lat": 46.9780087,
                "lon": 15.402242,
                "email": "office@urdlwirt.at",
                "fax": "+43 3136/531854",
                "internet_access": "yes",
                "name": "Urdlwirt",
                "operator": "Hotel reif KG",
                "phone": "+43 3136/53158",
                "tourism": "hotel",
                "website": "https://www.urdlwirt.at/",
                "wheelchair": "limited"
              },
              "geometry": {
                "type": "Point",
                "coordinates": [
                  15.402242,
                  46.9780087
                ]
              }
            },
            {
              "type": "Feature",
              "properties": {
                "id": "1693244317",
                "osm_type": "node",
                "lat": 46.9376037,
                "lon": 15.3237886,
                "addr:city": "Lannach",
                "addr:country": "AT",
                "addr:housenumber": "68",
                "addr:postcode": "8502",
                "addr:street": "Hauptstraße",
                "at_bev:addr_date": "2017-10-011",
                "name": "Gasthof Kranerwirt - Fam Niggas",
                "operator": "NIGGAS GesmbH & Co KG",
                "phone": "+43 31 36 / 81 7 51",
                "tourism": "hotel",
                "website": "https://www.gasthof-niggas.at"
              },
              "geometry": {
                "type": "Point",
                "coordinates": [
                  15.3237886,
                  46.9376037
                ]
              }
            },
            {
              "type": "Feature",
              "properties": {
                "id": "1908560566",
                "osm_type": "node",
                "lat": 46.9489692,
                "lon": 15.3384633,
                "check_date": "2024-06-18",
                "name": "San Marco",
                "operator": "Schaller",
                "tourism": "hotel"
              },
              "geometry": {
                "type": "Point",
                "coordinates": [
                  15.3384633,
                  46.9489692
                ]
              }
            },
            {
              "type": "Feature",
              "properties": {
                "id": "2077494067",
                "osm_type": "node",
                "lat": 47.0118547,
                "lon": 15.4774702,
                "name": "Hotel Camellia",
                "tourism": "hotel"
              },
              "geometry": {
                "type": "Point",
                "coordinates": [
                  15.4774702,
                  47.0118547
                ]
              }
            },
            {
              "type": "Feature",
              "properties": {
                "id": "5338148987",
                "osm_type": "node",
                "lat": 46.9488857,
                "lon": 15.298887,
                "contact:email": "kuerbiskernoel@gmx.at",
                "contact:fax": "+43 3136 82 170 70",
                "contact:phone": "+43 650 430 82 34",
                "tourism": "hotel"
              },
              "geometry": {
                "type": "Point",
                "coordinates": [
                  15.298887,
                  46.9488857
                ]
              }
            },
            {
              "type": "Feature",
              "properties": {
                "id": "5401506985",
                "osm_type": "node",
                "lat": 46.963386,
                "lon": 15.4164984,
                "name": "Schachenwald",
                "tourism": "hotel"
              },
              "geometry": {
                "type": "Point",
                "coordinates": [
                  15.4164984,
                  46.963386
                ]
              }
            },
            {
              "type": "Feature",
              "properties": {
                "id": "6556076693",
                "osm_type": "node",
                "lat": 47.0270865,
                "lon": 15.4342501,
                "email": "office@shomehotels.com",
                "internet_access": "wlan",
                "internet_access:fee": "no",
                "name": "sHome",
                "phone": "+43 316341011",
                "smoking": "no",
                "tourism": "hotel",
                "website": "https://www.shomehotels.com/"
              },
              "geometry": {
                "type": "Point",
                "coordinates": [
                  15.4342501,
                  47.0270865
                ]
              }
            },
            {
              "type": "Feature",
              "properties": {
                "id": "7916915824",
                "osm_type": "node",
                "lat": 47.0292892,
                "lon": 15.4357059,
                "addr:city": "Graz",
                "addr:country": "AT",
                "addr:housenumber": "8",
                "addr:postcode": "8055",
                "addr:street": "Gmeinstraße",
                "brand": "B&B Hotels",
                "brand:wikidata": "Q794939",
                "contact:email": "graz-city-sued@hotelbb.com",
                "contact:phone": "+43 316 244 1090",
                "name": "B&B Hotel Graz City-Süd",
                "tourism": "hotel",
                "website": "https://hotel-bb.at/hotel/graz-city-sued-de/"
              },
              "geometry": {
                "type": "Point",
                "coordinates": [
                  15.4357059,
                  47.0292892
                ]
              }
            },
            {
              "type": "Feature",
              "properties": {
                "id": "9792381263",
                "osm_type": "node",
                "lat": 47.0071925,
                "lon": 15.4114356,
                "addr:city": "Seiersberg-Pirka",
                "addr:country": "AT",
                "addr:housenumber": "3",
                "addr:postcode": "8054",
                "addr:street": "Rudolf Kratochwill-Straße",
                "name": "Eee Hotel Graz Pirka",
                "tourism": "hotel",
                "website": "https://eee-hotel-graz.graz-austria-hotels.com/de/"
              },
              "geometry": {
                "type": "Point",
                "coordinates": [
                  15.4114356,
                  47.0071925
                ]
              }
            },
            {
              "type": "Feature",
              "properties": {
                "id": "10083453874",
                "osm_type": "node",
                "lat": 46.9896556,
                "lon": 15.3981784,
                "addr:city": "Windorf;Seiersberg-Pirka",
                "addr:housenumber": "182a",
                "addr:postcode": "8054",
                "addr:street": "Premstätter Straße",
                "contact:email": "osm@hi5-hotel.at",
                "contact:website": "https://www.hi5-hotel.at",
                "internet_access": "yes",
                "name": "Hi5-Hotel Seiersberg",
                "operator": "VSG HotelbetriebsgmbH",
                "rooms": "26",
                "smoking": "outside",
                "stars": "4",
                "tourism": "hotel",
                "website": "https://www.hi5-hotel.at",
                "wheelchair": "yes"
              },
              "geometry": {
                "type": "Point",
                "coordinates": [
                  15.3981784,
                  46.9896556
                ]
              }
            },
            {
              "type": "Feature",
              "properties": {
                "id": "11509031212",
                "osm_type": "node",
                "lat": 46.9840342,
                "lon": 15.3145458,
                "addr:city": "Lieboch",
                "addr:housenumber": "274",
                "addr:postcode": "8501",
                "addr:street": "Packer Straße",
                "name": "Privatzimmer Kladnik",
                "phone": "+43 664 937 94 56",
                "tourism": "hotel"
              },
              "geometry": {
                "type": "Point",
                "coordinates": [
                  15.3145458,
                  46.9840342
                ]
              }
            },
            {
              "type": "Feature",
              "properties": {
                "id": "13087509108",
                "osm_type": "node",
                "lat": 47.0219073,
                "lon": 15.4372881,
                "contact:email": "office@nedhotelgraz.com",
                "contact:phone": "+43 316 291357",
                "name": "NED",
                "tourism": "hotel",
                "website": "https://nedhotel.at/kontakt/"
              },
              "geometry": {
                "type": "Point",
                "coordinates": [
                  15.4372881,
                  47.0219073
                ]
              }
            },
            {
              "type": "Feature",
              "properties": {
                "id": "13110829101",
                "osm_type": "node",
                "lat": 47.024975,
                "lon": 15.4000722,
                "addr:housenumber": "392",
                "addr:postcode": "8054",
                "addr:street": "Kärntner Straße",
                "internet_access": "wlan",
                "name": "PM-PremiumAPART Strassgang",
                "opening_hours": "24/7",
                "self_service": "no",
                "tourism": "hotel",
                "website": "https://flataid.com/"
              },
              "geometry": {
                "type": "Point",
                "coordinates": [
                  15.4000722,
                  47.024975
                ]
              }
            }
          ],
          "children": []
        },
        {
          "bbox": {
            "south": 46.868481875,
            "west": 15.73002475,
            "north": 47.033758500000005,
            "east": 16.2068765
          },
          "poiCount": 22,
          "leafCount": 22,
          "averagePosition": [
            15.970394677272726,
            46.943899709090914
          ],
          "data": [
            {
              "type": "Feature",
              "properties": {
                "id": "1382093770",
                "osm_type": "node",
                "lat": 46.8693124,
                "lon": 15.8295486,
                "addr:city": "Gnas",
                "addr:country": "AT",
                "addr:housenumber": "194",
                "addr:place": "Gnas",
                "addr:postcode": "8342",
                "contact:email": "gnas@jufa.eu",
                "contact:phone": "+43 5 7083-230",
                "contact:website": "https://www.jufa.eu/hotel/gnas/",
                "internet_access": "wlan",
                "internet_access:fee": "no",
                "name": "JUFA Hotel Vulkanland – Sport-Resort",
                "rooms": "51",
                "tourism": "hotel",
                "wheelchair": "yes"
              },
              "geometry": {
                "type": "Point",
                "coordinates": [
                  15.8295486,
                  46.8693124
                ]
              }
            },
            {
              "type": "Feature",
              "properties": {
                "id": "448897306",
                "osm_type": "node",
                "lat": 47.0295388,
                "lon": 15.9562471,
                "addr:city": "Breitenfeld an der Rittschein",
                "addr:housenumber": "20",
                "addr:place": "Breitenfeld",
                "addr:postcode": "8313",
                "email": "office@breitenfelderhof.com",
                "name": "Am Breitenfelder Hof",
                "tourism": "hotel",
                "website": "https://breitenfelderhof.com/"
              },
              "geometry": {
                "type": "Point",
                "coordinates": [
                  15.9562471,
                  47.0295388
                ]
              }
            },
            {
              "type": "Feature",
              "properties": {
                "id": "854670600",
                "osm_type": "node",
                "lat": 46.8747933,
                "lon": 15.9124675,
                "name": "Hotel life ressort",
                "stars": "4",
                "tourism": "hotel",
                "wheelchair": "yes"
              },
              "geometry": {
                "type": "Point",
                "coordinates": [
                  15.9124675,
                  46.8747933
                ]
              }
            },
            {
              "type": "Feature",
              "properties": {
                "id": "1381615278",
                "osm_type": "node",
                "lat": 47.0304267,
                "lon": 16.0173722,
                "name": "Maiers Oststeirischer Hof Söchau",
                "source:name": "survey",
                "tourism": "hotel"
              },
              "geometry": {
                "type": "Point",
                "coordinates": [
                  16.0173722,
                  47.0304267
                ]
              }
            },
            {
              "type": "Feature",
              "properties": {
                "id": "2477410595",
                "osm_type": "node",
                "lat": 46.889941,
                "lon": 15.9773312,
                "addr:city": "Kapfenstein",
                "addr:housenumber": "1",
                "addr:place": "Kapfenstein",
                "addr:postcode": "8353",
                "check_date": "2024-10-28",
                "name": "Schloss Kapfenstein",
                "tourism": "hotel",
                "website": "http://www.winkler-hermaden.at/deutsch/schloss/schloss.chronik.php"
              },
              "geometry": {
                "type": "Point",
                "coordinates": [
                  15.9773312,
                  46.889941
                ]
              }
            },
            {
              "type": "Feature",
              "properties": {
                "id": "3580521880",
                "osm_type": "node",
                "lat": 47.0006387,
                "lon": 15.9353516,
                "addr:country": "AT",
                "addr:housenumber": "29",
                "addr:place": "Riegersburg",
                "addr:postcode": "8333",
                "atm": "yes",
                "name": "Riegersburgerhof",
                "operator": "Fam. Pfeifer",
                "phone": "+433153 8216",
                "tourism": "hotel",
                "website": "https://www.riegersburg.com/"
              },
              "geometry": {
                "type": "Point",
                "coordinates": [
                  15.9353516,
                  47.0006387
                ]
              }
            },
            {
              "type": "Feature",
              "properties": {
                "id": "3698511403",
                "osm_type": "node",
                "lat": 46.8866137,
                "lon": 15.8970311,
                "addr:city": "Bad Gleichenberg",
                "addr:housenumber": "1",
                "addr:postcode": "8344",
                "addr:street": "Dorfweg",
                "email": "info@hindenburghof.at",
                "name": "Landhaus Hindenburg",
                "phone": "+4331592647",
                "tourism": "hotel",
                "website": "https://www.hindenburghof.at/"
              },
              "geometry": {
                "type": "Point",
                "coordinates": [
                  15.8970311,
                  46.8866137
                ]
              }
            },
            {
              "type": "Feature",
              "properties": {
                "id": "3937117763",
                "osm_type": "node",
                "lat": 46.9979422,
                "lon": 16.0200266,
                "addr:city": "Fehring",
                "addr:housenumber": "25",
                "addr:place": "Ödgraben",
                "addr:postcode": "8361",
                "name": "ThermenLandHof Thierjakl",
                "operator": "Gerhard J. Thier",
                "tourism": "hotel",
                "website": "https://www.thermenlandhof.at/"
              },
              "geometry": {
                "type": "Point",
                "coordinates": [
                  16.0200266,
                  46.9979422
                ]
              }
            },
            {
              "type": "Feature",
              "properties": {
                "id": "3974384315",
                "osm_type": "node",
                "lat": 46.9078682,
                "lon": 15.9004015,
                "addr:city": "Bad Gleichenberg",
                "addr:housenumber": "15-19",
                "addr:postcode": "8344",
                "addr:street": "Taxbergstraße",
                "name": "Gesundheitsgut Die Klause",
                "operator": "Dr. Dolf Dominik",
                "tourism": "hotel"
              },
              "geometry": {
                "type": "Point",
                "coordinates": [
                  15.9004015,
                  46.9078682
                ]
              }
            },
            {
              "type": "Feature",
              "properties": {
                "id": "3979167685",
                "osm_type": "node",
                "lat": 46.8790298,
                "lon": 15.9203208,
                "addr:city": "Bad Gleichenberg",
                "addr:housenumber": "69",
                "addr:place": "Bairisch Kölldorf",
                "addr:postcode": "8344",
                "name": "Pension Sulzbergerhof",
                "operator": "Familie Johanna und Karl Satzer",
                "tourism": "hotel",
                "website": "https://www.urlaubambauernhof.at/"
              },
              "geometry": {
                "type": "Point",
                "coordinates": [
                  15.9203208,
                  46.8790298
                ]
              }
            },
            {
              "type": "Feature",
              "properties": {
                "id": "4024187300",
                "osm_type": "node",
                "lat": 46.9201999,
                "lon": 15.8726815,
                "addr:city": "Feldbach",
                "addr:housenumber": "17",
                "addr:place": "Reiting",
                "addr:postcode": "8330",
                "name": "Ferienhaus Zotter",
                "operator": "Martin und Silvia Zotter",
                "tourism": "hotel",
                "website": "https://www.ferienhaus-zotter.at/"
              },
              "geometry": {
                "type": "Point",
                "coordinates": [
                  15.8726815,
                  46.9201999
                ]
              }
            },
            {
              "type": "Feature",
              "properties": {
                "id": "4074024933",
                "osm_type": "node",
                "lat": 46.9696456,
                "lon": 15.7435014,
                "addr:city": "Kirchberg an der Raab",
                "addr:housenumber": "62",
                "addr:place": "Wörth",
                "addr:postcode": "8324",
                "name": "Altes Gehöft am Lormannberg",
                "operator": "Kathrin Schöllauf",
                "tourism": "hotel",
                "website": "https://www.traum-urlaub.at/home/"
              },
              "geometry": {
                "type": "Point",
                "coordinates": [
                  15.7435014,
                  46.9696456
                ]
              }
            },
            {
              "type": "Feature",
              "properties": {
                "id": "4074024934",
                "osm_type": "node",
                "lat": 46.9695093,
                "lon": 15.7436756,
                "addr:city": "Kirchberg an der Raab",
                "addr:housenumber": "63",
                "addr:place": "Wörth",
                "addr:postcode": "8324",
                "name": "Romantikstöckl",
                "tourism": "hotel"
              },
              "geometry": {
                "type": "Point",
                "coordinates": [
                  15.7436756,
                  46.9695093
                ]
              }
            },
            {
              "type": "Feature",
              "properties": {
                "id": "4429189403",
                "osm_type": "node",
                "lat": 46.8736532,
                "lon": 15.9125255,
                "check_date": "2024-09-29",
                "name": "Thermenhotel zur Emmaquelle",
                "tourism": "hotel",
                "wheelchair": "limited"
              },
              "geometry": {
                "type": "Point",
                "coordinates": [
                  15.9125255,
                  46.8736532
                ]
              }
            },
            {
              "type": "Feature",
              "properties": {
                "id": "6470866555",
                "osm_type": "node",
                "lat": 46.9534482,
                "lon": 15.8897971,
                "addr:city": "Feldbach",
                "addr:housenumber": "26",
                "addr:postcode": "8330",
                "addr:street": "Bürgergasse",
                "email": "office@pfeilers.at",
                "name": "Pfeiler's",
                "payment:cash": "yes",
                "payment:cryptocurrencies": "no",
                "payment:electronic_purses": "no",
                "payment:maestro": "yes",
                "payment:mastercard": "yes",
                "payment:visa": "yes",
                "phone": "+4331522403",
                "smoking": "separated",
                "tourism": "hotel",
                "website": "http://www.pfeilers.at",
                "wheelchair": "limited"
              },
              "geometry": {
                "type": "Point",
                "coordinates": [
                  15.8897971,
                  46.9534482
                ]
              }
            },
            {
              "type": "Feature",
              "properties": {
                "id": "282023859",
                "osm_type": "node",
                "lat": 46.8848967,
                "lon": 16.0743962,
                "created_by": "JOSM",
                "name": "Landhofmühle",
                "tourism": "hotel",
                "website": "http://www.landhofmuehle.at/"
              },
              "geometry": {
                "type": "Point",
                "coordinates": [
                  16.0743962,
                  46.8848967
                ]
              }
            },
            {
              "type": "Feature",
              "properties": {
                "id": "316294737",
                "osm_type": "node",
                "lat": 46.978964,
                "lon": 16.1152723,
                "addr:city": "Bad Loipersdorf",
                "addr:country": "AT",
                "addr:postcode": "8282",
                "name": "Maria-Theresienhof",
                "tourism": "hotel"
              },
              "geometry": {
                "type": "Point",
                "coordinates": [
                  16.1152723,
                  46.978964
                ]
              }
            },
            {
              "type": "Feature",
              "properties": {
                "id": "2022896279",
                "osm_type": "node",
                "lat": 46.9836798,
                "lon": 16.1100466,
                "name": "Thermenhotel Stoiser",
                "phone": "+433382 8212",
                "tourism": "hotel",
                "website": "https://www.stoiser.com/de/"
              },
              "geometry": {
                "type": "Point",
                "coordinates": [
                  16.1100466,
                  46.9836798
                ]
              }
            },
            {
              "type": "Feature",
              "properties": {
                "id": "2462996323",
                "osm_type": "node",
                "lat": 47.0078263,
                "lon": 16.197724,
                "addr:city": "Eltendorf",
                "addr:country": "AT",
                "addr:housenumber": "7",
                "addr:postcode": "7562",
                "addr:street": "Kirchenstraße",
                "internet_access": "wlan",
                "internet_access:fee": "no",
                "name": "Mirth",
                "phone": "+43 33252216",
                "tourism": "hotel",
                "website": "https://www.uhudlerei-mirth.at/kirchenwirt.html"
              },
              "geometry": {
                "type": "Point",
                "coordinates": [
                  16.197724,
                  47.0078263
                ]
              }
            },
            {
              "type": "Feature",
              "properties": {
                "id": "3835348492",
                "osm_type": "node",
                "lat": 46.9482852,
                "lon": 16.0661633,
                "addr:city": "Fehring",
                "addr:housenumber": "175",
                "addr:place": "Hohenbrugg an der Raab",
                "addr:postcode": "8350",
                "name": "Ferienhaus am Schlosshang",
                "operator": "Edith Kaltschmid",
                "tourism": "hotel",
                "website": "http://www.schlosshang.at/"
              },
              "geometry": {
                "type": "Point",
                "coordinates": [
                  16.0661633,
                  46.9482852
                ]
              }
            },
            {
              "type": "Feature",
              "properties": {
                "id": "6373784131",
                "osm_type": "node",
                "lat": 46.9721603,
                "lon": 16.1165743,
                "addr:city": "Jennersdorf",
                "addr:country": "AT",
                "addr:housenumber": "54",
                "addr:place": "Grieselstein-Schaufelberg",
                "addr:postcode": "8380",
                "at_bev:addr_date": "2022-04-01",
                "name": "Panoramahof Loipersdorf",
                "stars": "4",
                "tourism": "hotel",
                "website": "https://www.panoramahof.com/"
              },
              "geometry": {
                "type": "Point",
                "coordinates": [
                  16.1165743,
                  46.9721603
                ]
              }
            },
            {
              "type": "Feature",
              "properties": {
                "id": "11227857929",
                "osm_type": "node",
                "lat": 46.9374203,
                "lon": 16.1402269,
                "addr:city": "Jennersdorf",
                "addr:housenumber": "6",
                "addr:postcode": "8380",
                "addr:street": "Hauptplatz",
                "email": "hotel@raffel.at",
                "internet_access": "wlan",
                "internet_access:fee": "no",
                "name": "Hotel • Restaurant • Bistro RAFFEL",
                "phone": "+43 3329 46622",
                "sauna": "yes",
                "swimming_pool": "no",
                "tourism": "hotel",
                "website": "https://www.raffel.at/"
              },
              "geometry": {
                "type": "Point",
                "coordinates": [
                  16.1402269,
                  46.9374203
                ]
              }
            }
          ],
          "children": []
        }
      ]
    },
    {
      "bbox": {
        "south": 46.70320525,
        "west": 16.2068765,
        "north": 47.033758500000005,
        "east": 17.16058
      },
      "poiCount": 18,
      "leafCount": 18,
      "averagePosition": [
        16.783727433333333,
        46.89710161111111
      ],
      "data": [
        {
          "type": "Feature",
          "properties": {
            "id": "2184171212",
            "osm_type": "node",
            "lat": 46.8505708,
            "lon": 16.8194684,
            "addr:city": "Zalaegerszeg",
            "addr:housenumber": "53",
            "addr:postcode": "8900",
            "addr:street": "Hock János utca",
            "air_conditioning": "yes",
            "internet_access": "wlan",
            "name": "Kiskondás Étterem",
            "phone": "+36 92 321 378",
            "tourism": "hotel",
            "website": "https://kiskondasetterem.hu/",
            "wheelchair": "limited"
          },
          "geometry": {
            "type": "Point",
            "coordinates": [
              16.8194684,
              46.8505708
            ]
          }
        },
        {
          "type": "Feature",
          "properties": {
            "id": "2387857770",
            "osm_type": "node",
            "lat": 46.8450552,
            "lon": 16.8457401,
            "name": "Arany Bárány Hotel",
            "tourism": "hotel"
          },
          "geometry": {
            "type": "Point",
            "coordinates": [
              16.8457401,
              46.8450552
            ]
          }
        },
        {
          "type": "Feature",
          "properties": {
            "id": "2902360197",
            "osm_type": "node",
            "lat": 46.8447357,
            "lon": 16.8440089,
            "name": "Szent Kristóf Apartmanhotel",
            "tourism": "hotel"
          },
          "geometry": {
            "type": "Point",
            "coordinates": [
              16.8440089,
              46.8447357
            ]
          }
        },
        {
          "type": "Feature",
          "properties": {
            "id": "3446767111",
            "osm_type": "node",
            "lat": 46.805579,
            "lon": 16.98834,
            "name": "Kastélyszálló",
            "source": "turistautak.hu",
            "source:date": "2011-09-19",
            "tourism": "hotel",
            "url": "http://turistautak.hu/poi.php?id=120663"
          },
          "geometry": {
            "type": "Point",
            "coordinates": [
              16.98834,
              46.805579
            ]
          }
        },
        {
          "type": "Feature",
          "properties": {
            "id": "4795274358",
            "osm_type": "node",
            "lat": 46.8450428,
            "lon": 16.845277,
            "name": "Hotel Arany Bárány",
            "toilets:wheelchair": "yes",
            "tourism": "hotel",
            "wheelchair": "yes"
          },
          "geometry": {
            "type": "Point",
            "coordinates": [
              16.845277,
              46.8450428
            ]
          }
        },
        {
          "type": "Feature",
          "properties": {
            "id": "1865424865",
            "osm_type": "node",
            "lat": 46.835478,
            "lon": 17.106696,
            "check_date": "2025-05-09",
            "contact:phone": "+36 20 404 6878",
            "contact:website": "https://www.szerencsemak.hu",
            "name": "Hotel Szerencsemák",
            "tourism": "hotel",
            "wheelchair": "no"
          },
          "geometry": {
            "type": "Point",
            "coordinates": [
              17.106696,
              46.835478
            ]
          }
        },
        {
          "type": "Feature",
          "properties": {
            "id": "3454647460",
            "osm_type": "node",
            "lat": 46.8107884,
            "lon": 17.0939693,
            "addr:city": "Zalacsány",
            "addr:housenumber": "24",
            "addr:postcode": "8782",
            "addr:street": "Csány László utca",
            "description": "Cím: 8782 Zalacsány, Csány u. 24. Tel.: +36-83/537-000,+36-83/336-258 Fax: +36-83/537-037",
            "name": "Batthyány Kastélyszálló",
            "phone": "+36 83 537 000",
            "source": "turistautak.hu",
            "source:date": "2011-12-09",
            "tourism": "hotel",
            "url": "http://turistautak.hu/poi.php?id=7540",
            "website": "https://wellnesskastely.hu/",
            "wikidata": "Q31190287"
          },
          "geometry": {
            "type": "Point",
            "coordinates": [
              17.0939693,
              46.8107884
            ]
          }
        },
        {
          "type": "Feature",
          "properties": {
            "id": "3454648844",
            "osm_type": "node",
            "lat": 46.80805,
            "lon": 17.095667,
            "name": "Platán Park Hotel",
            "source": "turistautak.hu",
            "source:date": "2011-09-19",
            "tourism": "hotel",
            "url": "http://turistautak.hu/poi.php?id=76474"
          },
          "geometry": {
            "type": "Point",
            "coordinates": [
              17.095667,
              46.80805
            ]
          }
        },
        {
          "type": "Feature",
          "properties": {
            "id": "12823807828",
            "osm_type": "node",
            "lat": 46.8329253,
            "lon": 17.1069624,
            "addr:city": "Kehidakustány",
            "addr:housenumber": "62",
            "addr:postcode": "8784",
            "addr:street": "Kossuth Lajos utca",
            "check_date": "2025-05-09",
            "name": "Kehida Termál Hotel",
            "payment:cash": "yes",
            "payment:credit_cards": "yes",
            "payment:debit_cards": "yes",
            "tourism": "hotel"
          },
          "geometry": {
            "type": "Point",
            "coordinates": [
              17.1069624,
              46.8329253
            ]
          }
        },
        {
          "type": "Feature",
          "properties": {
            "id": "12823807829",
            "osm_type": "node",
            "lat": 46.831008,
            "lon": 17.1066744,
            "check_date": "2025-05-09",
            "email": "sales@kehidatermal.hu",
            "name": "Hertelendy Ház",
            "payment:cash": "yes",
            "payment:credit_cards": "yes",
            "payment:debit_cards": "yes",
            "tourism": "hotel"
          },
          "geometry": {
            "type": "Point",
            "coordinates": [
              17.1066744,
              46.831008
            ]
          }
        },
        {
          "type": "Feature",
          "properties": {
            "id": "1873628719",
            "osm_type": "node",
            "lat": 46.9612365,
            "lon": 16.2788864,
            "name": "Hotel Ipari Park",
            "tourism": "hotel"
          },
          "geometry": {
            "type": "Point",
            "coordinates": [
              16.2788864,
              46.9612365
            ]
          }
        },
        {
          "type": "Feature",
          "properties": {
            "id": "4569312062",
            "osm_type": "node",
            "lat": 46.8826068,
            "lon": 16.4941835,
            "addr:city": "Viszák",
            "addr:housenumber": "125",
            "addr:postcode": "9932",
            "addr:street": "Fő út",
            "name": "Tündérkert Vendégház",
            "tourism": "hotel"
          },
          "geometry": {
            "type": "Point",
            "coordinates": [
              16.4941835,
              46.8826068
            ]
          }
        },
        {
          "type": "Feature",
          "properties": {
            "id": "6148063362",
            "osm_type": "node",
            "lat": 46.9731212,
            "lon": 16.5044841,
            "addr:city": "Csákánydoroszló",
            "addr:housenumber": "12",
            "addr:postcode": "9919",
            "addr:street": "Vasút utca",
            "name": "Császár Vendégház",
            "tourism": "hotel"
          },
          "geometry": {
            "type": "Point",
            "coordinates": [
              16.5044841,
              46.9731212
            ]
          }
        },
        {
          "type": "Feature",
          "properties": {
            "id": "6573298498",
            "osm_type": "node",
            "lat": 47.0312757,
            "lon": 16.4939234,
            "name": "Pinka-parti Pihenő",
            "phone": "+36 20 406 6707",
            "tourism": "hotel"
          },
          "geometry": {
            "type": "Point",
            "coordinates": [
              16.4939234,
              47.0312757
            ]
          }
        },
        {
          "type": "Feature",
          "properties": {
            "id": "11365970516",
            "osm_type": "node",
            "lat": 47.0227126,
            "lon": 16.2197592,
            "addr:city": "Zahling",
            "addr:housenumber": "2",
            "addr:postcode": "7562",
            "addr:street": "Käferbergstraße",
            "email": "urlaub@kaeferberghof.com",
            "internet_access": "yes",
            "name": "Käferberghof e.U.",
            "phone": "00436646483832",
            "tourism": "hotel",
            "website": "https://www.kaeferberghof.com/"
          },
          "geometry": {
            "type": "Point",
            "coordinates": [
              16.2197592,
              47.0227126
            ]
          }
        },
        {
          "type": "Feature",
          "properties": {
            "id": "5884484603",
            "osm_type": "node",
            "lat": 47.0147036,
            "lon": 16.5982848,
            "name": "Hotel Rába",
            "tourism": "hotel"
          },
          "geometry": {
            "type": "Point",
            "coordinates": [
              16.5982848,
              47.0147036
            ]
          }
        },
        {
          "type": "Feature",
          "properties": {
            "id": "6151820798",
            "osm_type": "node",
            "lat": 47.00932,
            "lon": 16.5879159,
            "name": "Cellarium",
            "tourism": "hotel",
            "website": "https://www.booking.com/hotel/hu/cellarium.hu.html"
          },
          "geometry": {
            "type": "Point",
            "coordinates": [
              16.5879159,
              47.00932
            ]
          }
        },
        {
          "type": "Feature",
          "properties": {
            "id": "2331957007",
            "osm_type": "node",
            "lat": 46.9436194,
            "lon": 17.076853,
            "addr:city": "Zalaszentgrót",
            "addr:housenumber": "2",
            "addr:postcode": "8790",
            "addr:street": "Eötvös Károly utca",
            "name": "Hotel Corvinus",
            "phone": "+36 83 362 200",
            "tourism": "hotel"
          },
          "geometry": {
            "type": "Point",
            "coordinates": [
              17.076853,
              46.9436194
            ]
          }
        }
      ],
      "children": []
    }
  ]
}