{
  "bbox": {
    "south": 47.694865,
    "west": 13.345766,
    "north": 48.355971499999995,
    "east": 15.253173
  },
  "poiCount": 139,
  "leafCount": 0,
  "averagePosition": [
    14.194097031654676,
    48.084268065467626
  ],
  "data": [],
  "children": [
    {
      "bbox": {
        "south": 47.694865,
        "west": 13.345766,
        "north": 48.02541825,
        "east": 14.2994695
      },
      "poiCount": 38,
      "leafCount": 38,
      "averagePosition": [
        13.624191610526315,
        47.86018000526316
      ],
      "data": [
        {
          "type": "Feature",
          "properties": {
            "id": "1227911907",
            "osm_type": "node",
            "lat": 47.8557043,
            "lon": 13.3489108,
            "name": "Hotel Leitnerbräu",
            "stars": "4",
            "tourism": "hotel"
          },
          "geometry": {
            "type": "Point",
            "coordinates": [
              13.3489108,
              47.8557043
            ]
          }
        },
        {
          "type": "Feature",
          "properties": {
            "id": "1327018569",
            "osm_type": "node",
            "lat": 47.8567984,
            "lon": 13.3504616,
            "addr:city": "Mondsee",
            "addr:country": "AT",
            "addr:housenumber": "1A",
            "addr:postcode": "5310",
            "addr:street": "Schloßhof",
            "email": "info@schlossmondsee.at",
            "fax": "0043 (0)6232/5001-22",
            "foot": "yes",
            "name": "Schloss Mondsee",
            "phone": "0043 (0)6232/5001",
            "stars": "4",
            "toilets:wheelchair": "yes",
            "tourism": "hotel",
            "website": "https://www.schlossmondsee.at/",
            "wheelchair": "yes"
          },
          "geometry": {
            "type": "Point",
            "coordinates": [
              13.3504616,
              47.8567984
            ]
          }
        },
        {
          "type": "Feature",
          "properties": {
            "id": "1941620615",
            "osm_type": "node",
            "lat": 47.7726343,
            "lon": 13.3592738,
            "name": "Mozartblick",
            "tourism": "hotel"
          },
          "geometry": {
            "type": "Point",
            "coordinates": [
              13.3592738,
              47.7726343
            ]
          }
        },
        {
          "type": "Feature",
          "properties": {
            "id": "4995324765",
            "osm_type": "node",
            "lat": 47.7401161,
            "lon": 13.4518489,
            "addr:city": "St. Wolfgang im Salzkammergut",
            "addr:country": "AT",
            "addr:housenumber": "134",
            "addr:postcode": "5360",
            "addr:street": "Au",
            "internet_access": "wlan",
            "internet_access:fee": "no",
            "name": "Ferienappartement Wolfgangsee",
            "operator": "Christine Hillebrand",
            "tourism": "hotel"
          },
          "geometry": {
            "type": "Point",
            "coordinates": [
              13.4518489,
              47.7401161
            ]
          }
        },
        {
          "type": "Feature",
          "properties": {
            "id": "5843812734",
            "osm_type": "node",
            "lat": 47.7388321,
            "lon": 13.4471434,
            "name": "AppartHotel",
            "tourism": "hotel"
          },
          "geometry": {
            "type": "Point",
            "coordinates": [
              13.4471434,
              47.7388321
            ]
          }
        },
        {
          "type": "Feature",
          "properties": {
            "id": "6825257694",
            "osm_type": "node",
            "lat": 47.7320662,
            "lon": 13.4883101,
            "name": "das Franzl - Bett und Brot",
            "operator": "Matthias Hinterberger",
            "tourism": "hotel"
          },
          "geometry": {
            "type": "Point",
            "coordinates": [
              13.4883101,
              47.7320662
            ]
          }
        },
        {
          "type": "Feature",
          "properties": {
            "id": "7760053685",
            "osm_type": "node",
            "lat": 47.7665378,
            "lon": 13.3649602,
            "name": "Hotel Brunetti",
            "opening_hours": "Mo-Su 08:00-00:00",
            "tourism": "hotel"
          },
          "geometry": {
            "type": "Point",
            "coordinates": [
              13.3649602,
              47.7665378
            ]
          }
        },
        {
          "type": "Feature",
          "properties": {
            "id": "9583869497",
            "osm_type": "node",
            "lat": 47.8584213,
            "lon": 13.3468375,
            "addr:city": "Mondsee",
            "addr:country": "AT",
            "addr:housenumber": "39",
            "addr:postcode": "5310",
            "addr:street": "Herzog Odilo-Straße",
            "at_bev:addr_date": "2021-10-01",
            "contact:tripadvisor": "https://www.tripadvisor.at/Hotel_Review-g608656-d2471227-Reviews-Gasthof_Gruner_Baum-Mondsee_Upper_Austria.html",
            "contact:website": "http://gasthof-gruner-baum-guest-house.upper-austria-hotels.com/de/",
            "cuisine": "regional",
            "internet_access": "no",
            "name": "Hotel \"das Mondsee\"",
            "source": "bing",
            "tourism": "hotel"
          },
          "geometry": {
            "type": "Point",
            "coordinates": [
              13.3468375,
              47.8584213
            ]
          }
        },
        {
          "type": "Feature",
          "properties": {
            "id": "11074682607",
            "osm_type": "node",
            "lat": 47.7274483,
            "lon": 13.419675,
            "tourism": "hotel"
          },
          "geometry": {
            "type": "Point",
            "coordinates": [
              13.419675,
              47.7274483
            ]
          }
        },
        {
          "type": "Feature",
          "properties": {
            "id": "11736627280",
            "osm_type": "node",
            "lat": 47.8554397,
            "lon": 13.3499333,
            "contact:email": "hotel@irisporsche.at",
            "contact:phone": "+43 6232 2237",
            "name": "Iris Porsche",
            "restaurant": "yes",
            "tourism": "hotel",
            "website": "https://www.irisporsche.at/"
          },
          "geometry": {
            "type": "Point",
            "coordinates": [
              13.3499333,
              47.8554397
            ]
          }
        },
        {
          "type": "Feature",
          "properties": {
            "id": "11992411036",
            "osm_type": "node",
            "lat": 47.7439593,
            "lon": 13.4311039,
            "addr:housenumber": "44",
            "addr:place": "Ried",
            "addr:postcode": "5360",
            "email": "office@hotelbuchinger.at",
            "name": "Hotel Garni Buchinger",
            "operator": "Familie Ingrid & Christian Buchinger",
            "phone": "+436641308500",
            "tourism": "hotel",
            "website": "https://hotelbuchinger.at/"
          },
          "geometry": {
            "type": "Point",
            "coordinates": [
              13.4311039,
              47.7439593
            ]
          }
        },
        {
          "type": "Feature",
          "properties": {
            "id": "12278203513",
            "osm_type": "node",
            "lat": 47.8506167,
            "lon": 13.3510736,
            "name": "Achtquartier",
            "tourism": "hotel",
            "website": "https://www.apollo-mondsee.at/achtquartier/"
          },
          "geometry": {
            "type": "Point",
            "coordinates": [
              13.3510736,
              47.8506167
            ]
          }
        },
        {
          "type": "Feature",
          "properties": {
            "id": "1359044889",
            "osm_type": "node",
            "lat": 47.8458988,
            "lon": 13.7899865,
            "name": "Das Traunsee",
            "stars": "4",
            "tourism": "hotel",
            "website": "https://www.dastraunsee.at/",
            "wheelchair": "yes"
          },
          "geometry": {
            "type": "Point",
            "coordinates": [
              13.7899865,
              47.8458988
            ]
          }
        },
        {
          "type": "Feature",
          "properties": {
            "id": "2091444807",
            "osm_type": "node",
            "lat": 47.7141254,
            "lon": 13.6235581,
            "addr:city": "Bad Ischl",
            "addr:country": "AT",
            "addr:housenumber": "1",
            "addr:postcode": "4820",
            "addr:street": "Götzstraße",
            "internet_access": "wlan",
            "name": "Hubertushof",
            "stars": "4",
            "tourism": "hotel",
            "wheelchair": "no"
          },
          "geometry": {
            "type": "Point",
            "coordinates": [
              13.6235581,
              47.7141254
            ]
          }
        },
        {
          "type": "Feature",
          "properties": {
            "id": "2339599934",
            "osm_type": "node",
            "lat": 47.813282,
            "lon": 13.7703284,
            "addr:city": "Ebensee am Traunsee",
            "addr:housenumber": "21",
            "addr:postcode": "4802",
            "addr:street": "Berggasse",
            "brand": "https://www.lulzim.at/",
            "check_date": "2025-05-30",
            "email": "office@schlafmeile-traunsee.at",
            "internet_access": "wlan",
            "name": "Schlafmeile Traunsee",
            "phone": "+43 676 93 39 222",
            "tourism": "hotel",
            "website": "https://www.schlafmeile-traunsee.at/",
            "wheelchair": "no"
          },
          "geometry": {
            "type": "Point",
            "coordinates": [
              13.7703284,
              47.813282
            ]
          }
        },
        {
          "type": "Feature",
          "properties": {
            "id": "3097274467",
            "osm_type": "node",
            "lat": 47.8536167,
            "lon": 13.9560029,
            "addr:city": "Grünau im Almtal",
            "addr:country": "AT",
            "addr:housenumber": "23",
            "addr:postcode": "4645",
            "addr:street": "Im Dorf",
            "check_date": "2024-10-13",
            "name": "Alpenpension Birkenhof",
            "tourism": "hotel",
            "website": "https://www.birkenhof-gruenau.at/pension/"
          },
          "geometry": {
            "type": "Point",
            "coordinates": [
              13.9560029,
              47.8536167
            ]
          }
        },
        {
          "type": "Feature",
          "properties": {
            "id": "4541890888",
            "osm_type": "node",
            "lat": 47.8002699,
            "lon": 13.7774361,
            "addr:city": "Ebensee am Traunsee",
            "addr:housenumber": "28a",
            "addr:postcode": "4802",
            "addr:street": "Almhausstraße",
            "email": "office@hochsteg.at",
            "name": "Hotel Hochsteg Gütl Traunsee Salzkammergut",
            "phone": "+43613390918",
            "tourism": "hotel",
            "website": "https://www.hochsteg.at"
          },
          "geometry": {
            "type": "Point",
            "coordinates": [
              13.7774361,
              47.8002699
            ]
          }
        },
        {
          "type": "Feature",
          "properties": {
            "id": "5849008612",
            "osm_type": "node",
            "lat": 47.7117753,
            "lon": 13.6219664,
            "name": "Pension Hufeisen",
            "tourism": "hotel"
          },
          "geometry": {
            "type": "Point",
            "coordinates": [
              13.6219664,
              47.7117753
            ]
          }
        },
        {
          "type": "Feature",
          "properties": {
            "id": "11254741029",
            "osm_type": "node",
            "lat": 47.8513348,
            "lon": 14.003313,
            "name": "Sporthotel Wimmergreuth",
            "tourism": "hotel",
            "website": "https://www.wimmergreuthgruenau.at"
          },
          "geometry": {
            "type": "Point",
            "coordinates": [
              14.003313,
              47.8513348
            ]
          }
        },
        {
          "type": "Feature",
          "properties": {
            "id": "12912449707",
            "osm_type": "node",
            "lat": 47.8400454,
            "lon": 13.5463043,
            "addr:city": "Steinbach am Attersee",
            "addr:country": "AT",
            "addr:housenumber": "14",
            "addr:place": "Seefeld",
            "addr:postcode": "4853",
            "email": "hotel.foettinger@salzkammergut.at",
            "internet_access": "yes",
            "name": "Gasthaus Föttinger",
            "operator": "Föttinger",
            "phone": "+4376638100",
            "tourism": "hotel",
            "website": "http://www.hotel-attersee.at/"
          },
          "geometry": {
            "type": "Point",
            "coordinates": [
              13.5463043,
              47.8400454
            ]
          }
        },
        {
          "type": "Feature",
          "properties": {
            "id": "310890416",
            "osm_type": "node",
            "lat": 47.8509784,
            "lon": 14.1738568,
            "addr:city": "Micheldorf in Oberösterreich",
            "addr:country": "AT",
            "addr:housenumber": "42",
            "addr:postcode": "4563",
            "addr:street": "Kienberg",
            "email": "trinkl@zur-steinwaend.at",
            "fax": "+43-7585-239-4",
            "name": "Hof zur Steinwänd",
            "note": "kein Gastronomie-Betrieb seit ca. 2012 mehr; aber Ziegenzucht und Zimmervermietung",
            "official_name": "hof \"Zur Steinwänd\"",
            "operator": "Trinkl Elisabeth",
            "phone": "+43-7585-239",
            "tourism": "hotel",
            "website": "http://www.zur-steinwaend.at/"
          },
          "geometry": {
            "type": "Point",
            "coordinates": [
              14.1738568,
              47.8509784
            ]
          }
        },
        {
          "type": "Feature",
          "properties": {
            "id": "3245311661",
            "osm_type": "node",
            "lat": 47.7274984,
            "lon": 14.1899969,
            "addr:city": "Hinterstoder",
            "addr:housenumber": "5",
            "addr:postcode": "4573",
            "addr:street": "Sonnleiten",
            "email": "urlaub@sonnfeld.com",
            "guest_house": "hotel",
            "internet_access": "wlan",
            "internet_access:fee": "customers",
            "name": "Hotel Sonnfeld",
            "operator": "Familie Berger - Habe",
            "phone": "+4375645047",
            "tourism": "hotel",
            "website": "https://www.sonnfeld.com/"
          },
          "geometry": {
            "type": "Point",
            "coordinates": [
              14.1899969,
              47.7274984
            ]
          }
        },
        {
          "type": "Feature",
          "properties": {
            "id": "1012499234",
            "osm_type": "node",
            "lat": 47.9391393,
            "lon": 13.4679141,
            "addr:city": "St. Georgen im Attergau",
            "addr:housenumber": "66",
            "addr:place": "Kogl",
            "addr:postcode": "4880",
            "email": "info@hotel-winzer.at",
            "fax": "+43 7667 6387 111",
            "internet_access": "wlan",
            "internet_access:fee": "no",
            "internet_access:ssid": "Hotel-Winzer",
            "level": "0-9",
            "name": "Hotel Winzer Wellness & Kuscheln",
            "operator": "E. Winzer GmbH & Co KG",
            "payment:cards": "yes",
            "payment:cash": "yes",
            "payment:contactless": "yes",
            "payment:credit_cards": "yes",
            "payment:debit_cards": "yes",
            "payment:diners_club": "yes",
            "payment:girocard": "yes",
            "payment:maestro": "yes",
            "payment:mastercard": "yes",
            "payment:visa": "yes",
            "payment:vpay": "yes",
            "phone": "+43 7667 6387",
            "rooms": "~150",
            "smoking": "isolated",
            "source": "local knowledge;aerial imagery;streetlevel imagery",
            "stars": "4",
            "tourism": "hotel",
            "website": "https://www.hotel-winzer.at",
            "wheelchair": "limited"
          },
          "geometry": {
            "type": "Point",
            "coordinates": [
              13.4679141,
              47.9391393
            ]
          }
        },
        {
          "type": "Feature",
          "properties": {
            "id": "3704800701",
            "osm_type": "node",
            "lat": 47.9049189,
            "lon": 13.4470698,
            "name": "Ferienhof Rosslwirt",
            "tourism": "hotel"
          },
          "geometry": {
            "type": "Point",
            "coordinates": [
              13.4470698,
              47.9049189
            ]
          }
        },
        {
          "type": "Feature",
          "properties": {
            "id": "4650578748",
            "osm_type": "node",
            "lat": 47.8732953,
            "lon": 13.43853,
            "name": "Gasthof Sonnenhof",
            "tourism": "hotel"
          },
          "geometry": {
            "type": "Point",
            "coordinates": [
              13.43853,
              47.8732953
            ]
          }
        },
        {
          "type": "Feature",
          "properties": {
            "id": "270136750",
            "osm_type": "node",
            "lat": 47.9136669,
            "lon": 13.8075122,
            "addr:city": "Gmunden",
            "addr:country": "AT",
            "addr:housenumber": "23",
            "addr:postcode": "4810",
            "addr:street": "Traunsteinstraße",
            "check_date": "2024-03-10",
            "contact:website": "http://www.steinmaurer.at",
            "name": "Hotel-Gasthof Steinmaurer",
            "operator": "Michael Mayr",
            "phone": "+43 7612 - 70488",
            "tourism": "hotel"
          },
          "geometry": {
            "type": "Point",
            "coordinates": [
              13.8075122,
              47.9136669
            ]
          }
        },
        {
          "type": "Feature",
          "properties": {
            "id": "1309789113",
            "osm_type": "node",
            "lat": 48.0080517,
            "lon": 13.6541506,
            "addr:city": "Vöcklabruck",
            "addr:country": "AT",
            "addr:housenumber": "26",
            "addr:postcode": "4840",
            "addr:street": "Stadtplatz",
            "check_date": "2025-03-15",
            "name": "Auerhahn",
            "tourism": "hotel",
            "wheelchair": "limited"
          },
          "geometry": {
            "type": "Point",
            "coordinates": [
              13.6541506,
              48.0080517
            ]
          }
        },
        {
          "type": "Feature",
          "properties": {
            "id": "1869888758",
            "osm_type": "node",
            "lat": 48.0071775,
            "lon": 13.6635181,
            "addr:city": "Vöcklabruck",
            "addr:country": "AT",
            "addr:housenumber": "13",
            "addr:postcode": "4840",
            "addr:street": "Anton Lumpi-Straße",
            "name": "Gasthof Lindner",
            "phone": "+43 7672 72727-0",
            "toilets:wheelchair": "no",
            "tourism": "hotel",
            "website": "http://www.voecklabruckerhof.at/",
            "wheelchair": "no",
            "wheelchair:description": "Restaurant und Hotel"
          },
          "geometry": {
            "type": "Point",
            "coordinates": [
              13.6635181,
              48.0071775
            ]
          }
        },
        {
          "type": "Feature",
          "properties": {
            "id": "1877539429",
            "osm_type": "node",
            "lat": 48.0021314,
            "lon": 13.659507,
            "addr:city": "Vöcklabruck",
            "addr:country": "AT",
            "addr:housenumber": "66",
            "addr:postcode": "4840",
            "addr:street": "Gmundner Straße",
            "name": "Hotel Schillerhof",
            "phone": "+43 767272635",
            "tourism": "hotel",
            "wheelchair": "yes"
          },
          "geometry": {
            "type": "Point",
            "coordinates": [
              13.659507,
              48.0021314
            ]
          }
        },
        {
          "type": "Feature",
          "properties": {
            "id": "2310488962",
            "osm_type": "node",
            "lat": 48.0141547,
            "lon": 13.72319,
            "addr:city": "Attnang-Puchheim",
            "addr:country": "AT",
            "addr:housenumber": "1",
            "addr:postcode": "4800",
            "addr:street": "Mozartstraße",
            "contact:email": "office@hoeckner-plazahotel.at",
            "contact:fax": "+43 7674 / 62569 44",
            "contact:phone": "+43 7674 / 62569",
            "contact:website": "http://www.hoeckner-plazahotel.at",
            "entrance": "main",
            "internet_access": "yes",
            "internet_access:fee": "no",
            "name": "Höckner Plaza Hotel",
            "opening_hours": "24/7",
            "operator": "Hermann Höckner",
            "stars": "4",
            "tourism": "hotel",
            "wheelchair": "no"
          },
          "geometry": {
            "type": "Point",
            "coordinates": [
              13.72319,
              48.0141547
            ]
          }
        },
        {
          "type": "Feature",
          "properties": {
            "id": "4211014216",
            "osm_type": "node",
            "lat": 47.9038508,
            "lon": 13.8062404,
            "addr:city": "Gmunden",
            "addr:country": "AT",
            "addr:housenumber": "109",
            "addr:postcode": "4810",
            "addr:street": "Traunsteinstraße",
            "name": "Landhotel Grünberg",
            "tourism": "hotel"
          },
          "geometry": {
            "type": "Point",
            "coordinates": [
              13.8062404,
              47.9038508
            ]
          }
        },
        {
          "type": "Feature",
          "properties": {
            "id": "5629241321",
            "osm_type": "node",
            "lat": 47.9668983,
            "lon": 13.5916523,
            "addr:country": "AT",
            "addr:housenumber": "9",
            "addr:place": "Neubrunn",
            "addr:postcode": "4863",
            "email": "office@hotel-castello.at",
            "name": "Hotel Castello",
            "phone": "+43 7662 6767-0",
            "tourism": "hotel",
            "website": "http://www.hotel-castello.at"
          },
          "geometry": {
            "type": "Point",
            "coordinates": [
              13.5916523,
              47.9668983
            ]
          }
        },
        {
          "type": "Feature",
          "properties": {
            "id": "5636910922",
            "osm_type": "node",
            "lat": 47.9020489,
            "lon": 13.5728842,
            "addr:postcode": "4852",
            "email": "weyregg@jutel.at",
            "name": "Jugendherberge JUTEL Weyregg",
            "operator": "Martina Huemer",
            "phone": "+43 (0)7664 2780",
            "tourism": "hotel",
            "website": "http://jutel.at/index.php?id=91"
          },
          "geometry": {
            "type": "Point",
            "coordinates": [
              13.5728842,
              47.9020489
            ]
          }
        },
        {
          "type": "Feature",
          "properties": {
            "id": "7902760158",
            "osm_type": "node",
            "lat": 47.9517747,
            "lon": 13.5906943,
            "email": "office@sailer-cafe.at",
            "name": "Hotel Sailer",
            "phone": "+43 660 2299 555",
            "stars": "3",
            "tourism": "hotel",
            "website": "https://www.sailer-hotel.at/de/"
          },
          "geometry": {
            "type": "Point",
            "coordinates": [
              13.5906943,
              47.9517747
            ]
          }
        },
        {
          "type": "Feature",
          "properties": {
            "id": "8312871529",
            "osm_type": "node",
            "lat": 48.0023935,
            "lon": 13.9213538,
            "addr:city": "Vorchdorf",
            "addr:country": "AT",
            "addr:housenumber": "3",
            "addr:postcode": "4655",
            "addr:street": "Bahnhofstraße",
            "name": "Denk",
            "tourism": "hotel"
          },
          "geometry": {
            "type": "Point",
            "coordinates": [
              13.9213538,
              48.0023935
            ]
          }
        },
        {
          "type": "Feature",
          "properties": {
            "id": "8319940824",
            "osm_type": "node",
            "lat": 47.9192126,
            "lon": 13.8012118,
            "addr:city": "Gmunden",
            "addr:country": "AT",
            "addr:housenumber": "10",
            "addr:street": "Traungasse",
            "check_date": "2024-04-06",
            "email": "office@goldenerbrunnen.at",
            "fax": "+43 7612 64431 55",
            "name": "Hotel zum Goldenen Brunnen",
            "phone": "+43 7612 64431 0",
            "source": "geoimage.at",
            "tourism": "hotel",
            "website": "https://www.goldenerbrunnen.at/"
          },
          "geometry": {
            "type": "Point",
            "coordinates": [
              13.8012118,
              47.9192126
            ]
          }
        },
        {
          "type": "Feature",
          "properties": {
            "id": "8331878775",
            "osm_type": "node",
            "lat": 47.9181315,
            "lon": 13.8004279,
            "addr:city": "Gmunden",
            "addr:country": "AT",
            "addr:housenumber": "8",
            "addr:postcode": "4810",
            "addr:street": "Franz Schleiß-Gasse",
            "at_bev:addr_date": "2017-04-07",
            "check_date": "2024-08-02",
            "internet_access": "wlan",
            "name": "Seehotel Schwan",
            "phone": "+43 7612 63391",
            "source": "geoimage.at",
            "tourism": "hotel"
          },
          "geometry": {
            "type": "Point",
            "coordinates": [
              13.8004279,
              47.9181315
            ]
          }
        },
        {
          "type": "Feature",
          "properties": {
            "id": "9216875117",
            "osm_type": "node",
            "lat": 47.9525946,
            "lon": 13.6111432,
            "addr:housenumber": "30",
            "addr:postcode": "4860",
            "addr:street": "Kreuzstraße",
            "email": "info@hoteldaszeit.com",
            "internet_access": "wlan",
            "name": "Hotel „Das Zeit“",
            "phone": "+43 7672 300 63",
            "tourism": "hotel",
            "website": "https://www.hoteldaszeit.com/"
          },
          "geometry": {
            "type": "Point",
            "coordinates": [
              13.6111432,
              47.9525946
            ]
          }
        }
      ],
      "children": []
    },
    {
      "bbox": {
        "south": 47.694865,
        "west": 14.2994695,
        "north": 48.02541825,
        "east": 15.253173
      },
      "poiCount": 10,
      "leafCount": 10,
      "averagePosition": [
        14.798649090000001,
        47.84726873
      ],
      "data": [
        {
          "type": "Feature",
          "properties": {
            "id": "420052532",
            "osm_type": "node",
            "lat": 47.6982412,
            "lon": 14.3557313,
            "name": "Grüblerhof",
            "tourism": "hotel"
          },
          "geometry": {
            "type": "Point",
            "coordinates": [
              14.3557313,
              47.6982412
            ]
          }
        },
        {
          "type": "Feature",
          "properties": {
            "id": "420052540",
            "osm_type": "node",
            "lat": 47.7071135,
            "lon": 14.3540302,
            "name": "Huttersberg",
            "tourism": "hotel"
          },
          "geometry": {
            "type": "Point",
            "coordinates": [
              14.3540302,
              47.7071135
            ]
          }
        },
        {
          "type": "Feature",
          "properties": {
            "id": "458875122",
            "osm_type": "node",
            "lat": 47.8077851,
            "lon": 14.9300175,
            "addr:city": "Göstling an der Ybbs",
            "addr:country": "AT",
            "addr:housenumber": "34",
            "addr:place": "Göstling",
            "addr:postcode": "3345",
            "at_bev:addr_date": "2018-10-01",
            "name": "Zum Goldenen Hirschen",
            "tourism": "hotel"
          },
          "geometry": {
            "type": "Point",
            "coordinates": [
              14.9300175,
              47.8077851
            ]
          }
        },
        {
          "type": "Feature",
          "properties": {
            "id": "458875139",
            "osm_type": "node",
            "lat": 47.8024066,
            "lon": 14.927885,
            "addr:city": "Göstling an der Ybbs",
            "addr:country": "AT",
            "addr:housenumber": "22",
            "addr:place": "Göstling",
            "addr:postcode": "3345",
            "at_bev:addr_date": "2018-10-01",
            "name": "Gasthof 'Zur Blauen Traube'",
            "sport": "9pin",
            "tourism": "hotel"
          },
          "geometry": {
            "type": "Point",
            "coordinates": [
              14.927885,
              47.8024066
            ]
          }
        },
        {
          "type": "Feature",
          "properties": {
            "id": "624447290",
            "osm_type": "node",
            "lat": 47.8441132,
            "lon": 14.9024598,
            "name": "Jagdhof Breitenthal",
            "tourism": "hotel"
          },
          "geometry": {
            "type": "Point",
            "coordinates": [
              14.9024598,
              47.8441132
            ]
          }
        },
        {
          "type": "Feature",
          "properties": {
            "id": "3198154098",
            "osm_type": "node",
            "lat": 47.8181901,
            "lon": 14.9773317,
            "addr:city": "Göstling an der Ybbs",
            "addr:country": "AT",
            "addr:housenumber": "5",
            "addr:postcode": "3345",
            "addr:street": "Steinbachmauer",
            "email": "info@hotel-waldesruh.at",
            "internet_access": "wlan",
            "internet_access:fee": "yes",
            "name": "Hotel Restaurant Waldesruh",
            "phone": "+43 (0)7484 - 2275 - 0",
            "stars": "4",
            "tourism": "hotel",
            "website": "https://www.hotel-waldesruh.at/"
          },
          "geometry": {
            "type": "Point",
            "coordinates": [
              14.9773317,
              47.8181901
            ]
          }
        },
        {
          "type": "Feature",
          "properties": {
            "id": "442048216",
            "osm_type": "node",
            "lat": 48.0214598,
            "lon": 14.4239253,
            "name": "Landgasthof Mayr",
            "tourism": "hotel"
          },
          "geometry": {
            "type": "Point",
            "coordinates": [
              14.4239253,
              48.0214598
            ]
          }
        },
        {
          "type": "Feature",
          "properties": {
            "id": "1351142494",
            "osm_type": "node",
            "lat": 47.9175751,
            "lon": 14.941351,
            "contact:phone": "+43 7443 88 311",
            "name": "Fastenhaus Maria Seesal",
            "tourism": "hotel",
            "website": "https://www.fasten-haus.at"
          },
          "geometry": {
            "type": "Point",
            "coordinates": [
              14.941351,
              47.9175751
            ]
          }
        },
        {
          "type": "Feature",
          "properties": {
            "id": "1577452800",
            "osm_type": "node",
            "lat": 47.9282321,
            "lon": 15.0877979,
            "name": "Sunny House Zimmervermietung",
            "tourism": "hotel",
            "website": "http://www.dovolenaalpy.eu/",
            "wheelchair": "no"
          },
          "geometry": {
            "type": "Point",
            "coordinates": [
              15.0877979,
              47.9282321
            ]
          }
        },
        {
          "type": "Feature",
          "properties": {
            "id": "1577459926",
            "osm_type": "node",
            "lat": 47.9275706,
            "lon": 15.0859612,
            "contact:website": "http://pension-irmer.at",
            "name": "Pension Irmer",
            "tourism": "hotel",
            "wheelchair": "no"
          },
          "geometry": {
            "type": "Point",
            "coordinates": [
              15.0859612,
              47.9275706
            ]
          }
        }
      ],
      "children": []
    },
    {
      "bbox": {
        "south": 48.02541825,
        "west": 13.345766,
        "north": 48.355971499999995,
        "east": 14.2994695
      },
      "poiCount": 46,
      "leafCount": 46,
      "averagePosition": [
        14.068407982608695,
        48.20466662826087
      ],
      "data": [
        {
          "type": "Feature",
          "properties": {
            "id": "1903226098",
            "osm_type": "node",
            "lat": 48.312279,
            "lon": 13.4525351,
            "addr:city": "Ort im Innkreis",
            "addr:country": "AT",
            "addr:housename": "Osternacherhof",
            "addr:housenumber": "28",
            "addr:place": "Osternach",
            "addr:postcode": "4974",
            "name": "Osternacherhof",
            "operator": "Fam. WATZINGER",
            "phone": "+43077516097",
            "stars": "3",
            "tourism": "hotel",
            "website": "https://osternacherhof.at/"
          },
          "geometry": {
            "type": "Point",
            "coordinates": [
              13.4525351,
              48.312279
            ]
          }
        },
        {
          "type": "Feature",
          "properties": {
            "id": "3428296435",
            "osm_type": "node",
            "lat": 48.2264011,
            "lon": 13.5231662,
            "check_date": "2024-03-10",
            "name": "Hotel Strasser",
            "tourism": "hotel"
          },
          "geometry": {
            "type": "Point",
            "coordinates": [
              13.5231662,
              48.2264011
            ]
          }
        },
        {
          "type": "Feature",
          "properties": {
            "id": "1674909345",
            "osm_type": "node",
            "lat": 48.2286518,
            "lon": 13.9180715,
            "name": "Viktoria",
            "tourism": "hotel"
          },
          "geometry": {
            "type": "Point",
            "coordinates": [
              13.9180715,
              48.2286518
            ]
          }
        },
        {
          "type": "Feature",
          "properties": {
            "id": "1680780568",
            "osm_type": "node",
            "lat": 48.155999,
            "lon": 14.023498,
            "addr:city": "Wels",
            "addr:country": "AT",
            "addr:housenumber": "62",
            "addr:postcode": "4600",
            "addr:street": "Stadtplatz",
            "email": "kremsmuenstererhof@liwest.at",
            "name": "Kremsmünstererhof",
            "phone": "+43 7242 466230",
            "tourism": "hotel",
            "website": "http://www.kremsmuenstererhof.at/",
            "wikidata": "Q37984843"
          },
          "geometry": {
            "type": "Point",
            "coordinates": [
              14.023498,
              48.155999
            ]
          }
        },
        {
          "type": "Feature",
          "properties": {
            "id": "1687205756",
            "osm_type": "node",
            "lat": 48.1563062,
            "lon": 14.0242488,
            "name": "Hotel zum goldenen Kreuz",
            "tourism": "hotel",
            "wheelchair": "yes"
          },
          "geometry": {
            "type": "Point",
            "coordinates": [
              14.0242488,
              48.1563062
            ]
          }
        },
        {
          "type": "Feature",
          "properties": {
            "id": "2016283036",
            "osm_type": "node",
            "lat": 48.1534225,
            "lon": 13.6338925,
            "addr:city": "Geboltskirchen",
            "addr:country": "AT",
            "addr:housenumber": "1",
            "addr:place": "Frei",
            "addr:postcode": "4682",
            "at_bev:addr_date": "2017-10-01",
            "name": "Herbert Pichler",
            "source": "http://www.gasthof-reiterhof.at/",
            "tourism": "hotel"
          },
          "geometry": {
            "type": "Point",
            "coordinates": [
              13.6338925,
              48.1534225
            ]
          }
        },
        {
          "type": "Feature",
          "properties": {
            "id": "2095716300",
            "osm_type": "node",
            "lat": 48.1591888,
            "lon": 14.024459,
            "addr:city": "Wels",
            "addr:country": "AT",
            "addr:housenumber": "7",
            "addr:postcode": "4600",
            "addr:street": "Bäckergasse",
            "email": "office@hotelhauser.com",
            "fax": "+43 7242 45409 45",
            "internet_access": "wlan",
            "name": "Boutique Hotel Hauser",
            "operator": "Hotel Hauser GmbH & Co KG",
            "phone": "+43 7242 45409",
            "tourism": "hotel",
            "website": "https://www.hotelhauser.com/",
            "wheelchair": "yes"
          },
          "geometry": {
            "type": "Point",
            "coordinates": [
              14.024459,
              48.1591888
            ]
          }
        },
        {
          "type": "Feature",
          "properties": {
            "id": "2110354459",
            "osm_type": "node",
            "lat": 48.183845,
            "lon": 13.9001057,
            "name": "Frühstückshof Falzberger",
            "source": "frühstückhof.at",
            "tourism": "hotel"
          },
          "geometry": {
            "type": "Point",
            "coordinates": [
              13.9001057,
              48.183845
            ]
          }
        },
        {
          "type": "Feature",
          "properties": {
            "id": "2418806457",
            "osm_type": "node",
            "lat": 48.05465,
            "lon": 13.7730601,
            "check_date": "2025-01-23",
            "name": "Gasthof Hofbauer",
            "tourism": "hotel"
          },
          "geometry": {
            "type": "Point",
            "coordinates": [
              13.7730601,
              48.05465
            ]
          }
        },
        {
          "type": "Feature",
          "properties": {
            "id": "3550742931",
            "osm_type": "node",
            "lat": 48.1654403,
            "lon": 14.0275615,
            "addr:city": "Wels",
            "addr:country": "AT",
            "addr:housenumber": "36",
            "addr:postcode": "4600",
            "addr:street": "Dr.-Schauer-Straße",
            "check_date": "2025-04-06",
            "name": "Boutique Hotel Adria",
            "phone": "+43-7242-911733",
            "tourism": "hotel",
            "website": "https://www.hotel-adria.at/"
          },
          "geometry": {
            "type": "Point",
            "coordinates": [
              14.0275615,
              48.1654403
            ]
          }
        },
        {
          "type": "Feature",
          "properties": {
            "id": "4104320971",
            "osm_type": "node",
            "lat": 48.18861,
            "lon": 13.6541661,
            "addr:city": "Haag am Hausruck",
            "addr:country": "AT",
            "addr:housenumber": "1",
            "addr:place": "Niedernhaag",
            "addr:postcode": "4680",
            "at_bev:addr_date": "2017-10-01",
            "name": "Bed and Breakfast Andrea Binder",
            "tourism": "hotel",
            "website": "https://www.bedandbreak.at/"
          },
          "geometry": {
            "type": "Point",
            "coordinates": [
              13.6541661,
              48.18861
            ]
          }
        },
        {
          "type": "Feature",
          "properties": {
            "id": "4161269306",
            "osm_type": "node",
            "lat": 48.1668795,
            "lon": 13.655777,
            "addr:city": "Haag am Hausruck",
            "addr:country": "AT",
            "addr:housenumber": "9",
            "addr:place": "Aubach",
            "addr:postcode": "4680",
            "at_bev:addr_date": "2017-10-01",
            "name": "Ölerhof",
            "tourism": "hotel"
          },
          "geometry": {
            "type": "Point",
            "coordinates": [
              13.655777,
              48.1668795
            ]
          }
        },
        {
          "type": "Feature",
          "properties": {
            "id": "4992694702",
            "osm_type": "node",
            "lat": 48.1560684,
            "lon": 14.0059593,
            "name": "Health Vital Comfort Guestrooms",
            "tourism": "hotel"
          },
          "geometry": {
            "type": "Point",
            "coordinates": [
              14.0059593,
              48.1560684
            ]
          }
        },
        {
          "type": "Feature",
          "properties": {
            "id": "6153076675",
            "osm_type": "node",
            "lat": 48.1597476,
            "lon": 14.0259308,
            "name": "City Rooms Wels",
            "phone": "+43 7242 277 404",
            "tourism": "hotel",
            "website": "https://www.cityrooms-wels.at"
          },
          "geometry": {
            "type": "Point",
            "coordinates": [
              14.0259308,
              48.1597476
            ]
          }
        },
        {
          "type": "Feature",
          "properties": {
            "id": "8787180503",
            "osm_type": "node",
            "lat": 48.1430903,
            "lon": 13.7365244,
            "addr:city": "Gaspoltshofen",
            "addr:country": "AT",
            "addr:housenumber": "19",
            "addr:postcode": "4673",
            "addr:street": "Hauptstraße",
            "email": "info@danzerwirt.at",
            "name": "Zum Danzer-Wirt",
            "operator": "Birgit und Hubert Bürstinger",
            "phone": "+43-7735-6865",
            "tourism": "hotel"
          },
          "geometry": {
            "type": "Point",
            "coordinates": [
              13.7365244,
              48.1430903
            ]
          }
        },
        {
          "type": "Feature",
          "properties": {
            "id": "9178085629",
            "osm_type": "node",
            "lat": 48.2047732,
            "lon": 13.8930085,
            "addr:city": "Pichl bei Wels",
            "addr:country": "AT",
            "addr:housenumber": "4",
            "addr:place": "Silbersberg",
            "addr:postcode": "4632",
            "email": "office@seminarhof-silbersberg.at",
            "name": "Seminarhof Silbersberg",
            "operator": "Wimmer Consulting GmbH",
            "phone": "+43 7247 50215; +43 664 8442000",
            "tourism": "hotel",
            "website": "https://www.seminarhof-silbersberg.at/"
          },
          "geometry": {
            "type": "Point",
            "coordinates": [
              13.8930085,
              48.2047732
            ]
          }
        },
        {
          "type": "Feature",
          "properties": {
            "id": "9501067040",
            "osm_type": "node",
            "lat": 48.0825615,
            "lon": 13.8637255,
            "name": "Kapellerhof",
            "tourism": "hotel"
          },
          "geometry": {
            "type": "Point",
            "coordinates": [
              13.8637255,
              48.0825615
            ]
          }
        },
        {
          "type": "Feature",
          "properties": {
            "id": "11629705791",
            "osm_type": "node",
            "lat": 48.2357514,
            "lon": 13.8254922,
            "name": "Das Stadthouse",
            "phone": "+43664 5421598",
            "tourism": "hotel",
            "website": "https://www.booking.com/hotel/at/stadthouse.de.html?activeTab=main"
          },
          "geometry": {
            "type": "Point",
            "coordinates": [
              13.8254922,
              48.2357514
            ]
          }
        },
        {
          "type": "Feature",
          "properties": {
            "id": "11956211438",
            "osm_type": "node",
            "lat": 48.1558151,
            "lon": 14.0083252,
            "name": "Zimmer auf Zeit",
            "tourism": "hotel"
          },
          "geometry": {
            "type": "Point",
            "coordinates": [
              14.0083252,
              48.1558151
            ]
          }
        },
        {
          "type": "Feature",
          "properties": {
            "id": "277289045",
            "osm_type": "node",
            "lat": 48.3141312,
            "lon": 14.2813702,
            "addr:city": "Linz",
            "addr:country": "AT",
            "addr:housenumber": "56",
            "addr:postcode": "4020",
            "addr:street": "Hauptstraße",
            "email": "office@goldeneradler.at",
            "name": "Goldener Adler",
            "phone": "+43 732 731147",
            "tourism": "hotel",
            "website": "https://www.goldeneradler.at/"
          },
          "geometry": {
            "type": "Point",
            "coordinates": [
              14.2813702,
              48.3141312
            ]
          }
        },
        {
          "type": "Feature",
          "properties": {
            "id": "277292429",
            "osm_type": "node",
            "lat": 48.3104321,
            "lon": 14.2822561,
            "check_date": "2024-07-28",
            "name": "Arte Hotel Linz",
            "tourism": "hotel",
            "wheelchair": "yes"
          },
          "geometry": {
            "type": "Point",
            "coordinates": [
              14.2822561,
              48.3104321
            ]
          }
        },
        {
          "type": "Feature",
          "properties": {
            "id": "389943745",
            "osm_type": "node",
            "lat": 48.1997022,
            "lon": 14.2701437,
            "addr:city": "Ansfelden",
            "addr:country": "AT",
            "addr:housenumber": "63-65",
            "addr:postcode": "4052",
            "addr:street": "Ritzlhofstraße",
            "email": "hotel@stocki.at",
            "fax": "+43-7229-88321-72",
            "name": "Stockinger",
            "operator": "Gasthof Hotel Mayr-Stockinger GmbH",
            "phone": "+43-7229-88321-0",
            "tourism": "hotel",
            "website": "https://www.stocki.at/"
          },
          "geometry": {
            "type": "Point",
            "coordinates": [
              14.2701437,
              48.1997022
            ]
          }
        },
        {
          "type": "Feature",
          "properties": {
            "id": "485607873",
            "osm_type": "node",
            "lat": 48.0316162,
            "lon": 14.2085323,
            "name": "Miraverde",
            "phone": "+43 7258 7996600",
            "tourism": "hotel",
            "website": "https://www.eurothermen.at/de-bad-hall-miraverde-zimmer.htm",
            "wheelchair": "yes"
          },
          "geometry": {
            "type": "Point",
            "coordinates": [
              14.2085323,
              48.0316162
            ]
          }
        },
        {
          "type": "Feature",
          "properties": {
            "id": "792547535",
            "osm_type": "node",
            "lat": 48.2269088,
            "lon": 14.254158,
            "addr:street": "Johann Roithner-Straße",
            "contact:email": "hotel@innviertlerhof.at",
            "contact:fax": "+43 7229 72346 7",
            "contact:phone": "+43 7229 72346 0",
            "contact:website": "http://www.innviertlerhof.at",
            "name": "Hotel Innviertlerhof",
            "tourism": "hotel"
          },
          "geometry": {
            "type": "Point",
            "coordinates": [
              14.254158,
              48.2269088
            ]
          }
        },
        {
          "type": "Feature",
          "properties": {
            "id": "1382293438",
            "osm_type": "node",
            "lat": 48.258761,
            "lon": 14.2721773,
            "name": "Hotel-Pension Rosenhof",
            "rooms": "10",
            "tourism": "hotel",
            "website": "https://www.pension-rosenhof.at/"
          },
          "geometry": {
            "type": "Point",
            "coordinates": [
              14.2721773,
              48.258761
            ]
          }
        },
        {
          "type": "Feature",
          "properties": {
            "id": "1565970456",
            "osm_type": "node",
            "lat": 48.3005112,
            "lon": 14.2834175,
            "name": "Domhotel",
            "stars": "4",
            "tourism": "hotel"
          },
          "geometry": {
            "type": "Point",
            "coordinates": [
              14.2834175,
              48.3005112
            ]
          }
        },
        {
          "type": "Feature",
          "properties": {
            "id": "1566304022",
            "osm_type": "node",
            "lat": 48.3049839,
            "lon": 14.2893693,
            "addr:city": "Linz",
            "addr:housenumber": "24",
            "addr:postcode": "4020",
            "addr:street": "Graben",
            "email": "mamamuh@linz-hotel.at",
            "internet_access": "wlan",
            "internet_access:fee": "no",
            "name": "Mama Muh",
            "operator": "Hotel Schwarzer Bär Gmbh",
            "phone": "+43 732 77 24 77 44",
            "tourism": "hotel",
            "website": "https://mamamuh.at/"
          },
          "geometry": {
            "type": "Point",
            "coordinates": [
              14.2893693,
              48.3049839
            ]
          }
        },
        {
          "type": "Feature",
          "properties": {
            "id": "1570088474",
            "osm_type": "node",
            "lat": 48.3019021,
            "lon": 14.2853665,
            "addr:postcode": "4020",
            "email": "info.boutiquelinz@leonardo-hotels.com",
            "name": "Leonardo Boutique Hotel Linz City Center",
            "phone": "+43 732 210400",
            "rooms": "129",
            "stars": "3",
            "tourism": "hotel",
            "website": "https://www.leonardo-hotels.de/linz/leonardo-boutique-hotel-linz-city-center",
            "wheelchair": "yes"
          },
          "geometry": {
            "type": "Point",
            "coordinates": [
              14.2853665,
              48.3019021
            ]
          }
        },
        {
          "type": "Feature",
          "properties": {
            "id": "1579443428",
            "osm_type": "node",
            "lat": 48.1530681,
            "lon": 14.1697539,
            "tourism": "hotel"
          },
          "geometry": {
            "type": "Point",
            "coordinates": [
              14.1697539,
              48.1530681
            ]
          }
        },
        {
          "type": "Feature",
          "properties": {
            "id": "1737371771",
            "osm_type": "node",
            "lat": 48.0613878,
            "lon": 14.1393672,
            "name": "Stadlhuber",
            "tourism": "hotel"
          },
          "geometry": {
            "type": "Point",
            "coordinates": [
              14.1393672,
              48.0613878
            ]
          }
        },
        {
          "type": "Feature",
          "properties": {
            "id": "2111876837",
            "osm_type": "node",
            "lat": 48.0523638,
            "lon": 14.128115,
            "contact:email": "office@hotel-schlair.com",
            "contact:phone": "+43 7583 5258-50",
            "name": "Hotel Schlair",
            "tourism": "hotel",
            "website": "https://www.hotel-schlair.com/kontakt"
          },
          "geometry": {
            "type": "Point",
            "coordinates": [
              14.128115,
              48.0523638
            ]
          }
        },
        {
          "type": "Feature",
          "properties": {
            "id": "3251126567",
            "osm_type": "node",
            "lat": 48.2965906,
            "lon": 14.2939581,
            "name": "Garni Wilder Mann",
            "tourism": "hotel"
          },
          "geometry": {
            "type": "Point",
            "coordinates": [
              14.2939581,
              48.2965906
            ]
          }
        },
        {
          "type": "Feature",
          "properties": {
            "id": "3371931701",
            "osm_type": "node",
            "lat": 48.2980308,
            "lon": 14.2904165,
            "addr:city": "Linz",
            "addr:housenumber": "2-4",
            "addr:postcode": "4020",
            "addr:street": "Rainerstraße",
            "alt_name": "Austria Trend Hotel Linz",
            "brand": "Radisson",
            "check_date": "2024-06-18",
            "contact:email": "schillerpark@austria-trend.at",
            "contact:fax": "+43 732 69509",
            "contact:phone": "+43 732 6950",
            "contact:website": "http://www.austria-trend.at/Hotel-Schillerpark",
            "name": "Hotel Schillerpark Linz",
            "tourism": "hotel",
            "website": "https://www.radissonhotels.com/en-us/hotels/radisson-individuals-schillerpark-linz",
            "wheelchair": "yes"
          },
          "geometry": {
            "type": "Point",
            "coordinates": [
              14.2904165,
              48.2980308
            ]
          }
        },
        {
          "type": "Feature",
          "properties": {
            "id": "4149167243",
            "osm_type": "node",
            "lat": 48.2989209,
            "lon": 14.2986486,
            "name": "City Hotel",
            "tourism": "hotel"
          },
          "geometry": {
            "type": "Point",
            "coordinates": [
              14.2986486,
              48.2989209
            ]
          }
        },
        {
          "type": "Feature",
          "properties": {
            "id": "5459461301",
            "osm_type": "node",
            "lat": 48.0650887,
            "lon": 14.0537909,
            "name": "Hotel-Sportgasthof Wahlmüller",
            "tourism": "hotel",
            "website": "http://www.aktivhotel-wahlmueller.com"
          },
          "geometry": {
            "type": "Point",
            "coordinates": [
              14.0537909,
              48.0650887
            ]
          }
        },
        {
          "type": "Feature",
          "properties": {
            "id": "6699931924",
            "osm_type": "node",
            "lat": 48.2347579,
            "lon": 14.2345489,
            "email": "traun@eee-hotel.at",
            "name": "eee hotel",
            "phone": "+4372435205277",
            "tourism": "hotel",
            "website": "https://www.eee-hotel.at/traun/"
          },
          "geometry": {
            "type": "Point",
            "coordinates": [
              14.2345489,
              48.2347579
            ]
          }
        },
        {
          "type": "Feature",
          "properties": {
            "id": "6915122280",
            "osm_type": "node",
            "lat": 48.1968437,
            "lon": 14.0841414,
            "name": "Schlafplatzl",
            "tourism": "hotel"
          },
          "geometry": {
            "type": "Point",
            "coordinates": [
              14.0841414,
              48.1968437
            ]
          }
        },
        {
          "type": "Feature",
          "properties": {
            "id": "6968937738",
            "osm_type": "node",
            "lat": 48.2555502,
            "lon": 14.2509721,
            "name": "Hotel Schmolmüller",
            "tourism": "hotel",
            "website": "https://www.schmolmueller.at/"
          },
          "geometry": {
            "type": "Point",
            "coordinates": [
              14.2509721,
              48.2555502
            ]
          }
        },
        {
          "type": "Feature",
          "properties": {
            "id": "7108910285",
            "osm_type": "node",
            "lat": 48.3062157,
            "lon": 14.2858563,
            "bar": "yes",
            "brand": "Motel One",
            "brand:wikidata": "Q391080",
            "breakfast": "Mo-Fr 06:00-10:00;Sa,Su,PH 07:00-11:00",
            "check_date": "2025-01-10",
            "contact:email": "linz@motel-one.com",
            "contact:phone": "+43 732 210011-0",
            "contact:website": "https://www.motel-one.com/de/hotels/linz/hotel-linz-hauptplatz/",
            "internet_access": "wlan",
            "internet_access:fee": "no",
            "name": "Motel One",
            "tourism": "hotel",
            "wheelchair": "limited",
            "wikidata": "Q112014796",
            "wikimedia_commons": "File:Linz - Motel one - Hauptplatz 10.jpg"
          },
          "geometry": {
            "type": "Point",
            "coordinates": [
              14.2858563,
              48.3062157
            ]
          }
        },
        {
          "type": "Feature",
          "properties": {
            "id": "9460744084",
            "osm_type": "node",
            "lat": 48.2120166,
            "lon": 14.2877067,
            "addr:city": "Ansfelden",
            "addr:housenumber": "1",
            "addr:postcode": "4052",
            "addr:street": "Ansfeldner Straße",
            "check_date": "2025-02-08",
            "internet_access": "wlan",
            "name": "Sleeep Hotel",
            "operator": "EEE HOTEL OÖ GMBH",
            "phone": "+43 7243 52052-44",
            "tourism": "hotel",
            "website": "https://www.sleeep-hotel.at/"
          },
          "geometry": {
            "type": "Point",
            "coordinates": [
              14.2877067,
              48.2120166
            ]
          }
        },
        {
          "type": "Feature",
          "properties": {
            "id": "10797692308",
            "osm_type": "node",
            "lat": 48.2801942,
            "lon": 14.2939143,
            "name": "Bee Green Linz",
            "tourism": "hotel"
          },
          "geometry": {
            "type": "Point",
            "coordinates": [
              14.2939143,
              48.2801942
            ]
          }
        },
        {
          "type": "Feature",
          "properties": {
            "id": "10951258414",
            "osm_type": "node",
            "lat": 48.2198722,
            "lon": 14.1952134,
            "name": "F-Hotel",
            "tourism": "hotel"
          },
          "geometry": {
            "type": "Point",
            "coordinates": [
              14.1952134,
              48.2198722
            ]
          }
        },
        {
          "type": "Feature",
          "properties": {
            "id": "11292806487",
            "osm_type": "node",
            "lat": 48.1376934,
            "lon": 14.2390893,
            "contact:email": "office@tt-aparthotel.at",
            "contact:phone": "+43 664 5211 829",
            "contact:website": "https://www.tt-aparthotel.at/",
            "internet_access": "wlan",
            "name": "TT Aparthotel Neuhofen",
            "tourism": "hotel"
          },
          "geometry": {
            "type": "Point",
            "coordinates": [
              14.2390893,
              48.1376934
            ]
          }
        },
        {
          "type": "Feature",
          "properties": {
            "id": "11662836129",
            "osm_type": "node",
            "lat": 48.3106605,
            "lon": 14.2843992,
            "addr:city": "Linz",
            "addr:country": "AT",
            "addr:housenumber": "4",
            "addr:postcode": "4040",
            "addr:street": "Friedrichstraße",
            "internet_access": "wlan",
            "name": "limehome Friedrichstraße",
            "smoking": "no",
            "tourism": "hotel",
            "website": "https://www.limehome.com/suites?city=41&guests=1&property=181"
          },
          "geometry": {
            "type": "Point",
            "coordinates": [
              14.2843992,
              48.3106605
            ]
          }
        },
        {
          "type": "Feature",
          "properties": {
            "id": "11985878723",
            "osm_type": "node",
            "lat": 48.1656837,
            "lon": 14.0444151,
            "addr:city": "Wels",
            "addr:housenumber": "100",
            "addr:postcode": "4600",
            "addr:street": "Linzer Straße",
            "internet_access": "yes",
            "name": "Novapart",
            "tourism": "hotel",
            "website": "https://www.novapart.at/"
          },
          "geometry": {
            "type": "Point",
            "coordinates": [
              14.0444151,
              48.1656837
            ]
          }
        },
        {
          "type": "Feature",
          "properties": {
            "id": "12771643508",
            "osm_type": "node",
            "lat": 48.3312967,
            "lon": 14.176162,
            "addr:housenumber": "19",
            "addr:street": "Marktplatz",
            "bettundbike": "yes",
            "name": "Schwarzer Adler",
            "tourism": "hotel"
          },
          "geometry": {
            "type": "Point",
            "coordinates": [
              14.176162,
              48.3312967
            ]
          }
        }
      ],
      "children": []
    },
    {
      "bbox": {
        "south": 48.02541825,
        "west": 14.2994695,
        "north": 48.355971499999995,
        "east": 15.253173
      },
      "poiCount": 45,
      "leafCount": 45,
      "averagePosition": [
        14.669487735555554,
        48.20309041555555
      ],
      "data": [
        {
          "type": "Feature",
          "properties": {
            "id": "53210886",
            "osm_type": "node",
            "lat": 48.2202135,
            "lon": 14.4854903,
            "name": "Zum Römer",
            "source": "survey",
            "tourism": "hotel"
          },
          "geometry": {
            "type": "Point",
            "coordinates": [
              14.4854903,
              48.2202135
            ]
          }
        },
        {
          "type": "Feature",
          "properties": {
            "id": "269876135",
            "osm_type": "node",
            "lat": 48.3313785,
            "lon": 14.3237539,
            "addr:housenumber": "10",
            "addr:street": "Julius-Raab-Straße",
            "check_date": "2024-10-07",
            "created_by": "JOSM",
            "internet_access": "wlan",
            "internet_access:fee": "customers",
            "name": "Hotel Sommerhaus",
            "payment:cash": "yes",
            "payment:credit_cards": "yes",
            "payment:debit_cards": "yes",
            "phone": "+43 732 2457490",
            "tourism": "hotel",
            "website": "https://www.sommerhaus-hotel.at/linz",
            "wheelchair": "yes"
          },
          "geometry": {
            "type": "Point",
            "coordinates": [
              14.3237539,
              48.3313785
            ]
          }
        },
        {
          "type": "Feature",
          "properties": {
            "id": "270488515",
            "osm_type": "node",
            "lat": 48.0384351,
            "lon": 14.4185348,
            "addr:city": "Steyr",
            "addr:country": "AT",
            "addr:housenumber": "40-42",
            "addr:postcode": "4400",
            "addr:street": "Stadtplatz",
            "fax": "+43 7252 51551-51",
            "name": "Stadthotel Styria",
            "phone": "+43 7252 51551-0",
            "tourism": "hotel",
            "website": "https://styriahotel.at/"
          },
          "geometry": {
            "type": "Point",
            "coordinates": [
              14.4185348,
              48.0384351
            ]
          }
        },
        {
          "type": "Feature",
          "properties": {
            "id": "273222264",
            "osm_type": "node",
            "lat": 48.0301893,
            "lon": 14.4193533,
            "addr:city": "Steyr",
            "addr:country": "AT",
            "addr:housenumber": "18",
            "addr:postcode": "4400",
            "addr:street": "Eisenstraße",
            "fax": "+43 7252 47831-209",
            "internet_access": "wlan",
            "name": "Styria Parkhotel",
            "phone": "+43 7252 47831",
            "tourism": "hotel",
            "website": "https://styriahotel.at/",
            "wheelchair": "yes"
          },
          "geometry": {
            "type": "Point",
            "coordinates": [
              14.4193533,
              48.0301893
            ]
          }
        },
        {
          "type": "Feature",
          "properties": {
            "id": "297820849",
            "osm_type": "node",
            "lat": 48.2170643,
            "lon": 14.4727882,
            "name": "Rosenhof",
            "source": "survey",
            "tourism": "hotel"
          },
          "geometry": {
            "type": "Point",
            "coordinates": [
              14.4727882,
              48.2170643
            ]
          }
        },
        {
          "type": "Feature",
          "properties": {
            "id": "411251286",
            "osm_type": "node",
            "lat": 48.3055354,
            "lon": 14.3055343,
            "name": "B&B Hotels",
            "tourism": "hotel"
          },
          "geometry": {
            "type": "Point",
            "coordinates": [
              14.3055343,
              48.3055354
            ]
          }
        },
        {
          "type": "Feature",
          "properties": {
            "id": "620822924",
            "osm_type": "node",
            "lat": 48.1809971,
            "lon": 14.5217903,
            "addr:city": "Sankt Valentin",
            "addr:country": "AT",
            "addr:housenumber": "58",
            "addr:postcode": "4300",
            "addr:street": "Westbahnstraße",
            "name": "Wallner",
            "source:addr": "basemap.at",
            "tourism": "hotel"
          },
          "geometry": {
            "type": "Point",
            "coordinates": [
              14.5217903,
              48.1809971
            ]
          }
        },
        {
          "type": "Feature",
          "properties": {
            "id": "620827494",
            "osm_type": "node",
            "lat": 48.1776184,
            "lon": 14.5235071,
            "addr:city": "Sankt Valentin",
            "addr:country": "AT",
            "addr:housenumber": "24",
            "addr:postcode": "4300",
            "addr:street": "Westbahnstraße",
            "name": "Hotel Kerschbaumer",
            "tourism": "hotel",
            "website": "http://www.hotel-kerschbaumer.at/"
          },
          "geometry": {
            "type": "Point",
            "coordinates": [
              14.5235071,
              48.1776184
            ]
          }
        },
        {
          "type": "Feature",
          "properties": {
            "id": "639858279",
            "osm_type": "node",
            "lat": 48.2169383,
            "lon": 14.4775235,
            "name": "Am Limes",
            "tourism": "hotel"
          },
          "geometry": {
            "type": "Point",
            "coordinates": [
              14.4775235,
              48.2169383
            ]
          }
        },
        {
          "type": "Feature",
          "properties": {
            "id": "914914385",
            "osm_type": "node",
            "lat": 48.2768144,
            "lon": 14.3133004,
            "contact:email": "info@hotel-turmfalke.at",
            "contact:fax": "+43 732 332858",
            "contact:phone": "+43 732 332858",
            "contact:website": "http://www.hotel-turmfalke.at",
            "name": "Hotel Turmfalke",
            "tourism": "hotel",
            "website": "https://www.hotel-turmfalke.at/"
          },
          "geometry": {
            "type": "Point",
            "coordinates": [
              14.3133004,
              48.2768144
            ]
          }
        },
        {
          "type": "Feature",
          "properties": {
            "id": "1018993660",
            "osm_type": "node",
            "lat": 48.1263923,
            "lon": 14.4820759,
            "addr:city": "Ernsthofen",
            "addr:country": "AT",
            "addr:housenumber": "20",
            "addr:postcode": "4432",
            "addr:street": "Hauptstraße",
            "name": "Hotel Vösenhuber",
            "operator": "Wendtner Jutta und Mag. Johann",
            "phone": "+43-7435-8296",
            "source:addr": "basemap.at",
            "tourism": "hotel",
            "website": "https://www.voesenhuber.com/"
          },
          "geometry": {
            "type": "Point",
            "coordinates": [
              14.4820759,
              48.1263923
            ]
          }
        },
        {
          "type": "Feature",
          "properties": {
            "id": "1670303785",
            "osm_type": "node",
            "lat": 48.2073344,
            "lon": 14.3787153,
            "check_date": "2024-08-23",
            "name": "Gästehaus Stift St. Florian",
            "source": "Stiftskeller St. Florian",
            "tourism": "hotel"
          },
          "geometry": {
            "type": "Point",
            "coordinates": [
              14.3787153,
              48.2073344
            ]
          }
        },
        {
          "type": "Feature",
          "properties": {
            "id": "1800917125",
            "osm_type": "node",
            "lat": 48.2128558,
            "lon": 14.4793243,
            "designation": "Hotel Lauriacum",
            "name": "Hotel Lauriacum",
            "tourism": "hotel"
          },
          "geometry": {
            "type": "Point",
            "coordinates": [
              14.4793243,
              48.2128558
            ]
          }
        },
        {
          "type": "Feature",
          "properties": {
            "id": "3151773704",
            "osm_type": "node",
            "lat": 48.0312902,
            "lon": 14.4122606,
            "name": "Hotel Werndl Hof",
            "tourism": "hotel"
          },
          "geometry": {
            "type": "Point",
            "coordinates": [
              14.4122606,
              48.0312902
            ]
          }
        },
        {
          "type": "Feature",
          "properties": {
            "id": "4854200815",
            "osm_type": "node",
            "lat": 48.3241353,
            "lon": 14.3765331,
            "addr:city": "Steyregg",
            "addr:housenumber": "41",
            "addr:place": "Lachstatt",
            "addr:postcode": "4221",
            "name": "Lachstatthof",
            "tourism": "hotel"
          },
          "geometry": {
            "type": "Point",
            "coordinates": [
              14.3765331,
              48.3241353
            ]
          }
        },
        {
          "type": "Feature",
          "properties": {
            "id": "6383973861",
            "osm_type": "node",
            "lat": 48.279262,
            "lon": 14.3068783,
            "addr:city": "Linz",
            "addr:country": "AT",
            "addr:housenumber": "150",
            "addr:postcode": "4021",
            "addr:street": "Wiener Straße",
            "breakfast": "Mo-Sa 06:30-09:00;Su off",
            "contact:email": "hotel@wifi-ooe.at",
            "contact:fax": "+43 05-7000-6509",
            "contact:phone": "+43 05-7000-6501",
            "name": "WIFI Hotel Linz",
            "opening_hours": "Mo-Fr 06:00-22:00; Sa 06:00-11:00; Su 18:00-22:00",
            "operator": "WIFI Linz",
            "tourism": "hotel",
            "website": "https://www.wifi-ooe.at/hotel"
          },
          "geometry": {
            "type": "Point",
            "coordinates": [
              14.3068783,
              48.279262
            ]
          }
        },
        {
          "type": "Feature",
          "properties": {
            "id": "9041518621",
            "osm_type": "node",
            "lat": 48.1785257,
            "lon": 14.52304,
            "name": "Gasthof Pillgrab",
            "old_name": "Gasthof zur Linde",
            "phone": "+43 7435 52319",
            "tourism": "hotel",
            "website": "http://www.pillgrab.at/"
          },
          "geometry": {
            "type": "Point",
            "coordinates": [
              14.52304,
              48.1785257
            ]
          }
        },
        {
          "type": "Feature",
          "properties": {
            "id": "9111346894",
            "osm_type": "node",
            "lat": 48.0374419,
            "lon": 14.4146741,
            "addr:city": "Steyr",
            "addr:country": "AT",
            "addr:housenumber": "1",
            "addr:postcode": "4400",
            "addr:street": "Redtenbachergasse",
            "check_date": "2025-03-17",
            "contact:email": "steyr@harrys-home.com",
            "contact:phone": "+43 50 1214 1690",
            "name": "Harry's Home",
            "operator": "Harry’s Home Holding AG",
            "start_date": "2021-04",
            "tourism": "hotel",
            "website": "https://www.harrys-home.com/steyr/"
          },
          "geometry": {
            "type": "Point",
            "coordinates": [
              14.4146741,
              48.0374419
            ]
          }
        },
        {
          "type": "Feature",
          "properties": {
            "id": "9892890456",
            "osm_type": "node",
            "lat": 48.1789777,
            "lon": 14.5231587,
            "name": "Hotel zur Post",
            "phone": "+43 732 52377",
            "tourism": "hotel",
            "website": "http://www.hotel-rogl.at/"
          },
          "geometry": {
            "type": "Point",
            "coordinates": [
              14.5231587,
              48.1789777
            ]
          }
        },
        {
          "type": "Feature",
          "properties": {
            "id": "10049131687",
            "osm_type": "node",
            "lat": 48.1294585,
            "lon": 14.4348684,
            "name": "Metzenhof",
            "tourism": "hotel",
            "website": "https://www.metzenhof.at/hotel"
          },
          "geometry": {
            "type": "Point",
            "coordinates": [
              14.4348684,
              48.1294585
            ]
          }
        },
        {
          "type": "Feature",
          "properties": {
            "id": "11096796094",
            "osm_type": "node",
            "lat": 48.1737586,
            "lon": 14.4760443,
            "name": "Thalinger Hof",
            "tourism": "hotel",
            "website": "https://www.thalingerhof.at/"
          },
          "geometry": {
            "type": "Point",
            "coordinates": [
              14.4760443,
              48.1737586
            ]
          }
        },
        {
          "type": "Feature",
          "properties": {
            "id": "12335029234",
            "osm_type": "node",
            "lat": 48.3006585,
            "lon": 14.3125959,
            "addr:city": "Linz",
            "addr:country": "AT",
            "addr:housenumber": "12",
            "addr:postcode": "4020",
            "addr:street": "Prinz-Eugen-Straße",
            "alt_name": "Amedia Linz",
            "brand": "Wyndham",
            "brand:wikidata": "Q8040120",
            "name": "Amedia",
            "official_name": "Wyndham Hotels & Resorts",
            "operator": "Wyndham Hotels & Resorts",
            "phone": "+43 732 257800",
            "tourism": "hotel",
            "website": "https://www.wyndhamhotels.com/"
          },
          "geometry": {
            "type": "Point",
            "coordinates": [
              14.3125959,
              48.3006585
            ]
          }
        },
        {
          "type": "Feature",
          "properties": {
            "id": "425052866",
            "osm_type": "node",
            "lat": 48.0571103,
            "lon": 14.8955664,
            "addr:city": "Neuhofen an der Ybbs",
            "addr:country": "AT",
            "addr:housenumber": "1",
            "addr:postcode": "3364",
            "addr:street": "Kothmühle",
            "contact:email": "office@kothmuehle.at",
            "contact:phone": "+43 7475 52112 - 0",
            "email": "office@kothmuehle.at",
            "internet_access": "wlan",
            "name": "Kothmühle",
            "stars": "4",
            "toilets:wheelchair": "yes",
            "tourism": "hotel",
            "website": "https://www.kothmuehle.at/",
            "wheelchair": "yes"
          },
          "geometry": {
            "type": "Point",
            "coordinates": [
              14.8955664,
              48.0571103
            ]
          }
        },
        {
          "type": "Feature",
          "properties": {
            "id": "760180985",
            "osm_type": "node",
            "lat": 48.1855462,
            "lon": 14.7095046,
            "check_date": "2025-08-19",
            "name": "Pension Haberl",
            "tourism": "hotel"
          },
          "geometry": {
            "type": "Point",
            "coordinates": [
              14.7095046,
              48.1855462
            ]
          }
        },
        {
          "type": "Feature",
          "properties": {
            "id": "826754198",
            "osm_type": "node",
            "lat": 48.2271687,
            "lon": 14.8556881,
            "name": "Cafe Bar Denube",
            "stars": "4",
            "tourism": "hotel"
          },
          "geometry": {
            "type": "Point",
            "coordinates": [
              14.8556881,
              48.2271687
            ]
          }
        },
        {
          "type": "Feature",
          "properties": {
            "id": "826754685",
            "osm_type": "node",
            "lat": 48.2271229,
            "lon": 14.8543637,
            "name": "Hotel Goldenes Kreuz",
            "tourism": "hotel"
          },
          "geometry": {
            "type": "Point",
            "coordinates": [
              14.8543637,
              48.2271229
            ]
          }
        },
        {
          "type": "Feature",
          "properties": {
            "id": "834198688",
            "osm_type": "node",
            "lat": 48.3220179,
            "lon": 14.7117402,
            "addr:city": "Rechberg",
            "addr:housenumber": "11",
            "addr:place": "Rechberg",
            "addr:postcode": "4324",
            "name": "Dorfwirt - Hotel & Restaurant",
            "phone": "+43 7264 4694",
            "tourism": "hotel",
            "website": "https://www.dorfwirt-raab.at/",
            "wheelchair": "yes",
            "wheelchair:description": "Behinderten WC vorhanden"
          },
          "geometry": {
            "type": "Point",
            "coordinates": [
              14.7117402,
              48.3220179
            ]
          }
        },
        {
          "type": "Feature",
          "properties": {
            "id": "834198713",
            "osm_type": "node",
            "lat": 48.3223033,
            "lon": 14.7136743,
            "tourism": "hotel"
          },
          "geometry": {
            "type": "Point",
            "coordinates": [
              14.7136743,
              48.3223033
            ]
          }
        },
        {
          "type": "Feature",
          "properties": {
            "id": "1263118371",
            "osm_type": "node",
            "lat": 48.2285357,
            "lon": 14.8517123,
            "name": "Pension Faltinger",
            "tourism": "hotel"
          },
          "geometry": {
            "type": "Point",
            "coordinates": [
              14.8517123,
              48.2285357
            ]
          }
        },
        {
          "type": "Feature",
          "properties": {
            "id": "1263172793",
            "osm_type": "node",
            "lat": 48.2613595,
            "lon": 14.8806799,
            "addr:city": "Bad Kreuzen",
            "addr:housenumber": "17",
            "addr:postcode": "4360",
            "addr:street": "Panholz",
            "email": "info@aumuehle.at",
            "name": "Hotel Aumühle",
            "phone": "+43 7268 8130",
            "tourism": "hotel",
            "website": "https://www.aumuehle.at/"
          },
          "geometry": {
            "type": "Point",
            "coordinates": [
              14.8806799,
              48.2613595
            ]
          }
        },
        {
          "type": "Feature",
          "properties": {
            "id": "1884040949",
            "osm_type": "node",
            "lat": 48.2491208,
            "lon": 14.636828,
            "alt_name": "Hotel Waldhör",
            "contact:phone": "07243 52052-33",
            "contact:website": "https://www.eee-hotel.at/de/standort/perg",
            "email": "perg@eee-hotel.at",
            "internet_access": "yes",
            "name": "eee Hotel",
            "tourism": "hotel"
          },
          "geometry": {
            "type": "Point",
            "coordinates": [
              14.636828,
              48.2491208
            ]
          }
        },
        {
          "type": "Feature",
          "properties": {
            "id": "2026274760",
            "osm_type": "node",
            "lat": 48.2691211,
            "lon": 14.8069341,
            "name": "Curhaus Bad Kreuzen",
            "tourism": "hotel",
            "wheelchair": "limited"
          },
          "geometry": {
            "type": "Point",
            "coordinates": [
              14.8069341,
              48.2691211
            ]
          }
        },
        {
          "type": "Feature",
          "properties": {
            "id": "3018948536",
            "osm_type": "node",
            "lat": 48.2589466,
            "lon": 14.819986,
            "name": "Schatz.Kammer Burg Kreuzen",
            "toilets:wheelchair": "yes",
            "tourism": "hotel",
            "wheelchair": "yes"
          },
          "geometry": {
            "type": "Point",
            "coordinates": [
              14.819986,
              48.2589466
            ]
          }
        },
        {
          "type": "Feature",
          "properties": {
            "id": "4344063497",
            "osm_type": "node",
            "lat": 48.167413,
            "lon": 14.7159623,
            "contact:phone": "+43 7433 2231",
            "name": "Gasthof Grünling",
            "tourism": "hotel",
            "website": "https://gasthof-gruenling.at/de/kontakt.htm"
          },
          "geometry": {
            "type": "Point",
            "coordinates": [
              14.7159623,
              48.167413
            ]
          }
        },
        {
          "type": "Feature",
          "properties": {
            "id": "4465384157",
            "osm_type": "node",
            "lat": 48.2438874,
            "lon": 14.5500223,
            "addr:city": "Mauthausen",
            "addr:country": "AT",
            "addr:housenumber": "1",
            "addr:postcode": "4310",
            "addr:street": "Kaplanstraße",
            "email": "office@hotel-b3.at",
            "name": "Hotel B3",
            "operator": "Hotel B3 GmbH",
            "rooms": "51",
            "tourism": "hotel",
            "website": "https://hotel-b3.at/"
          },
          "geometry": {
            "type": "Point",
            "coordinates": [
              14.5500223,
              48.2438874
            ]
          }
        },
        {
          "type": "Feature",
          "properties": {
            "id": "12772639113",
            "osm_type": "node",
            "lat": 48.2102762,
            "lon": 14.8584172,
            "addr:housenumber": "1",
            "addr:place": "Tiefenbach",
            "bicycle_parking": "garage",
            "breakfast": "yes",
            "contact:email": "office@gasthof-froschauer.at",
            "contact:phone": "+43 7479 6119",
            "contact:website": "https://www.gasthof-froschauer.at/",
            "motorcycle_parking": "covered",
            "name": "Zur Donaubrücke",
            "operator": "Hermann Froschauer",
            "sauna": "yes",
            "tourism": "hotel",
            "wheelchair": "yes"
          },
          "geometry": {
            "type": "Point",
            "coordinates": [
              14.8584172,
              48.2102762
            ]
          }
        },
        {
          "type": "Feature",
          "properties": {
            "id": "12899747611",
            "osm_type": "node",
            "lat": 48.1193304,
            "lon": 14.8965513,
            "name": "City Rooms Amstetten",
            "tourism": "hotel"
          },
          "geometry": {
            "type": "Point",
            "coordinates": [
              14.8965513,
              48.1193304
            ]
          }
        },
        {
          "type": "Feature",
          "properties": {
            "id": "3780657305",
            "osm_type": "node",
            "lat": 48.1763053,
            "lon": 15.0865151,
            "addr:city": "Ybbs an der Donau",
            "addr:housenumber": "10",
            "addr:postcode": "3370",
            "addr:street": "Wiener Straße",
            "beds": "23",
            "contact:email": "office@babenbergerhof.at",
            "email": "office@babenbergerhof.at",
            "fax": "+43 7412 5433415",
            "internet_access:fee": "no",
            "name": "Babenbergerhof",
            "opening_hours": "Mo-Sa 08:00-21:00, Su 08:00-14:30",
            "operator": "Karin und Ernst Gruber-Rosenberger",
            "phone": "+43 7412 54334",
            "rooms": "9",
            "stars": "3",
            "tourism": "hotel",
            "tourism_1": "restaurant",
            "website": "https://www.babenbergerhof.at/"
          },
          "geometry": {
            "type": "Point",
            "coordinates": [
              15.0865151,
              48.1763053
            ]
          }
        },
        {
          "type": "Feature",
          "properties": {
            "id": "4908867521",
            "osm_type": "node",
            "lat": 48.288452,
            "lon": 15.0600984,
            "name:en": "Landhotel Yspertal",
            "tourism": "hotel"
          },
          "geometry": {
            "type": "Point",
            "coordinates": [
              15.0600984,
              48.288452
            ]
          }
        },
        {
          "type": "Feature",
          "properties": {
            "id": "6710967572",
            "osm_type": "node",
            "lat": 48.1760467,
            "lon": 15.0871213,
            "email": "urlaub@donau-lodge.at",
            "name": "Donau Lodge",
            "opening_hours": "Mo-Sa 07:30-21:00; Su 07:30-18:00",
            "operator": "Fam. Gruber-Rosenberger",
            "phone": "+43 7412 54334",
            "rooms": "26",
            "tourism": "hotel",
            "website": "https://www.donau-lodge.at"
          },
          "geometry": {
            "type": "Point",
            "coordinates": [
              15.0871213,
              48.1760467
            ]
          }
        },
        {
          "type": "Feature",
          "properties": {
            "id": "7868961097",
            "osm_type": "node",
            "lat": 48.2252078,
            "lon": 15.1586477,
            "addr:city": "Maria Taferl",
            "addr:country": "AT",
            "addr:housenumber": "20",
            "addr:place": "Maria Taferl",
            "addr:postcode": "3672",
            "name": "Hotel Rose",
            "operator": "Familie Eilnberger",
            "phone": "+43 7413 304",
            "stars": "4",
            "tourism": "hotel",
            "website": "https://www.hotelrose.co.at/"
          },
          "geometry": {
            "type": "Point",
            "coordinates": [
              15.1586477,
              48.2252078
            ]
          }
        },
        {
          "type": "Feature",
          "properties": {
            "id": "7868961102",
            "osm_type": "node",
            "lat": 48.2248379,
            "lon": 15.1574984,
            "addr:city": "Maria Taferl",
            "addr:country": "AT",
            "addr:housenumber": "24",
            "addr:place": "Maria Taferl",
            "addr:postcode": "3672",
            "name": "Hotel Schachner",
            "phone": "+43 7413 6355",
            "stars": "4",
            "tourism": "hotel",
            "website": "https://www.hotel-schachner.at/"
          },
          "geometry": {
            "type": "Point",
            "coordinates": [
              15.1574984,
              48.2248379
            ]
          }
        },
        {
          "type": "Feature",
          "properties": {
            "id": "8254429962",
            "osm_type": "node",
            "lat": 48.2086102,
            "lon": 15.2157748,
            "addr:city": "Pöchlarn",
            "addr:country": "AT",
            "addr:housenumber": "3",
            "addr:postcode": "3380",
            "addr:street": "Bahnhofplatz",
            "email": "reception@hotelmoser.at",
            "internet_access": "wlan",
            "internet_access:fee": "no",
            "name": "Hotel Moser - Reiter",
            "phone": "+43 2757 2448",
            "stars": "3",
            "tourism": "hotel",
            "website": "https://www.hotelmoser.at/",
            "wheelchair": "no"
          },
          "geometry": {
            "type": "Point",
            "coordinates": [
              15.2157748,
              48.2086102
            ]
          }
        },
        {
          "type": "Feature",
          "properties": {
            "id": "10214387053",
            "osm_type": "node",
            "lat": 48.1386606,
            "lon": 15.1372376,
            "addr:city": "Wieselburg",
            "addr:housenumber": "9",
            "addr:postcode": "3250",
            "addr:street": "Zur Autobahn",
            "brand": "Hafnertec",
            "check_date": "2023-11-23",
            "contact:facebook": "https://www.facebook.com/HAFNERHOTEL/",
            "email": "office@hafnerhotel.at",
            "fax": "+4374162058010",
            "internet_access": "wlan",
            "internet_access:fee": "no",
            "level": "0,_1,_2",
            "name": "Hafnerhotel",
            "opening_hours": "24/7",
            "payment:contactless": "yes",
            "payment:credit_cards": "yes",
            "payment:debit_cards": "yes",
            "payment:maestro": "yes",
            "payment:mastercard": "yes",
            "payment:visa": "yes",
            "phone": "+43741620580",
            "reservation": "yes",
            "rooms": "20",
            "tourism": "hotel",
            "website": "https://www.hafnerhotel.at/",
            "wheelchair": "yes"
          },
          "geometry": {
            "type": "Point",
            "coordinates": [
              15.1372376,
              48.1386606
            ]
          }
        },
        {
          "type": "Feature",
          "properties": {
            "id": "10286591430",
            "osm_type": "node",
            "lat": 48.176413,
            "lon": 15.0846791,
            "check_date": "2024-05-31",
            "name": "Hotel Mediterraneo",
            "phone": "+43 7412 2006310",
            "rooms": "10",
            "stars": "3",
            "tourism": "hotel",
            "website": "https://www.hotelybbs.com"
          },
          "geometry": {
            "type": "Point",
            "coordinates": [
              15.0846791,
              48.176413
            ]
          }
        }
      ],
      "children": []
    }
  ]
}