{
  "bbox": {
    "south": 47.033758500000005,
    "west": 15.253173,
    "north": 47.694865,
    "east": 17.16058
  },
  "poiCount": 161,
  "leafCount": 0,
  "averagePosition": [
    16.033014898757763,
    47.297160937888194
  ],
  "data": [],
  "children": [
    {
      "bbox": {
        "south": 47.033758500000005,
        "west": 15.253173,
        "north": 47.36431175,
        "east": 16.2068765
      },
      "poiCount": 77,
      "leafCount": 0,
      "averagePosition": [
        15.655154583116886,
        47.1482674038961
      ],
      "data": [],
      "children": [
        {
          "bbox": {
            "south": 47.033758500000005,
            "west": 15.253173,
            "north": 47.199035125,
            "east": 15.73002475
          },
          "poiCount": 34,
          "leafCount": 34,
          "averagePosition": [
            15.446009194117648,
            47.070145988235296
          ],
          "data": [
            {
              "type": "Feature",
              "properties": {
                "id": "21261459",
                "osm_type": "node",
                "lat": 47.0719403,
                "lon": 15.4492137,
                "addr:city": "Graz",
                "addr:country": "AT",
                "addr:housenumber": "8",
                "addr:postcode": "8010",
                "addr:street": "Leonhardstraße",
                "brand": "Romantik-Hotel-Gruppe",
                "check_date": "2024-07-06",
                "contact:email": "romantik@parkhotel-graz.at",
                "contact:fax": "+43 316 3630-50",
                "contact:phone": "+43 316 3630-0",
                "description:de": "In diesem Hotel befindet sich das Restaurant Florian",
                "internet_access": "wlan",
                "internet_access:fee": "no",
                "name": "Parkhotel Graz",
                "name:start_date": "1933",
                "operator": "Familie Florian",
                "smoking": "isolated",
                "stars": "4",
                "start_date": "1574",
                "tourism": "hotel",
                "website": "https://www.parkhotel-graz.at/",
                "wheelchair": "yes"
              },
              "geometry": {
                "type": "Point",
                "coordinates": [
                  15.4492137,
                  47.0719403
                ]
              }
            },
            {
              "type": "Feature",
              "properties": {
                "id": "31611258",
                "osm_type": "node",
                "lat": 47.062732,
                "lon": 15.458313,
                "addr:city": "Graz",
                "addr:country": "AT",
                "addr:housenumber": "8-10",
                "addr:postcode": "8010",
                "addr:street": "Waltendorfer Gürtel",
                "brand": "Ibis Styles",
                "brand:wikidata": "Q3147425",
                "contact:email": "HB9U3@accor.com",
                "contact:fax": "+43 316 826300630",
                "contact:phone": "+43 316 826300",
                "contact:website": "https://all.accor.com/hotel/B9U3/index.de.shtml",
                "internet_access": "wlan",
                "name": "ibis Styles Graz Messe",
                "old_name": "Star Inn",
                "source": "survey",
                "start_date": "2022-11-28",
                "tourism": "hotel",
                "wheelchair": "yes"
              },
              "geometry": {
                "type": "Point",
                "coordinates": [
                  15.458313,
                  47.062732
                ]
              }
            },
            {
              "type": "Feature",
              "properties": {
                "id": "280071300",
                "osm_type": "node",
                "lat": 47.0719706,
                "lon": 15.4194363,
                "addr:city": "Graz",
                "addr:country": "AT",
                "addr:housenumber": "89",
                "addr:postcode": "8020",
                "addr:street": "Bahnhofgürtel",
                "contact:email": "europa.graz@austria-trend.at",
                "contact:phone": "+43 316 7076-0",
                "name": "Austria Trend Hotel Europa",
                "tourism": "hotel",
                "website": "https://www.austria-trend.at/de/hotels/europa-graz",
                "wikidata": "Q112014974"
              },
              "geometry": {
                "type": "Point",
                "coordinates": [
                  15.4194363,
                  47.0719706
                ]
              }
            },
            {
              "type": "Feature",
              "properties": {
                "id": "280071397",
                "osm_type": "node",
                "lat": 47.0733091,
                "lon": 15.4178442,
                "addr:city": "Graz",
                "addr:country": "AT",
                "addr:housenumber": "12",
                "addr:postcode": "8020",
                "addr:street": "Europaplatz",
                "brand": "Best in Hosting",
                "check_date": "2024-04-01",
                "disused:tourism": "hotel",
                "disused:website": "https://www.accorhotels.com/de/hotel-1917-ibis-graz/index.shtml",
                "name": "BHost - Best in Hosting Graz",
                "old_name": "IBIS Graz Europa Platz 12",
                "tourism": "hotel"
              },
              "geometry": {
                "type": "Point",
                "coordinates": [
                  15.4178442,
                  47.0733091
                ]
              }
            },
            {
              "type": "Feature",
              "properties": {
                "id": "280236394",
                "osm_type": "node",
                "lat": 47.0704304,
                "lon": 15.4344061,
                "addr:city": "Graz",
                "addr:country": "AT",
                "addr:housenumber": "4-8",
                "addr:postcode": "8020",
                "addr:street": "Grieskai",
                "contact:email": "INFO@HOTELWIESLER.COM",
                "fax": "+43 316 7066-76",
                "internet_access": "wlan",
                "name": "Wiesler",
                "old_name": "Grand Hotel Wiesler",
                "phone": "+43 316 7066-0",
                "start_date": "1909",
                "tourism": "hotel",
                "website": "https://www.hotelwiesler.com/",
                "wheelchair": "yes",
                "wikidata": "Q1542599",
                "wikimedia_commons": "Category:Grand Hotel Wiesler",
                "wikipedia": "de:Grand Hotel Wiesler"
              },
              "geometry": {
                "type": "Point",
                "coordinates": [
                  15.4344061,
                  47.0704304
                ]
              }
            },
            {
              "type": "Feature",
              "properties": {
                "id": "280727791",
                "osm_type": "node",
                "lat": 47.0743331,
                "lon": 15.4353435,
                "addr:city": "Graz",
                "addr:country": "AT",
                "addr:housenumber": "30",
                "addr:postcode": "8010",
                "addr:street": "Kaiser-Franz-Josef-Kai",
                "contact:email": "office@schlossberghotel.at",
                "contact:fax": "+43 316 80 70 70",
                "contact:phone": "+43 316 80 700",
                "name": "Schloßberghotel",
                "operator": "Marko Hotelbetriebs GmbH",
                "owner": "Helmut Marko",
                "stars": "5",
                "tourism": "hotel",
                "website": "https://www.schlossberg-hotel.at"
              },
              "geometry": {
                "type": "Point",
                "coordinates": [
                  15.4353435,
                  47.0743331
                ]
              }
            },
            {
              "type": "Feature",
              "properties": {
                "id": "280727945",
                "osm_type": "node",
                "lat": 47.0716985,
                "lon": 15.437144,
                "addr:city": "Graz",
                "addr:country": "AT",
                "addr:housenumber": "3-5",
                "addr:postcode": "8010",
                "addr:street": "Sackstraße",
                "contact:email": "office@erzherzog-johann.com",
                "contact:phone": "+43 316 811616",
                "description": "Hotel im Zentrum mit 60 Zimmern. Historisches Ambiente, Traditions-Café Erzherzog Johann. Seminarmöglichkeit.",
                "heritage": "2",
                "heritage:operator": "bda",
                "internet_access": "wlan",
                "internet_access:fee": "no",
                "name": "Palais-Hotel Erzherzog Johann",
                "ref:at:bda": "36082",
                "rooms": "57",
                "smoking": "no",
                "source": "survey;local knowledge",
                "stars": "4",
                "tourism": "hotel",
                "website": "https://www.erzherzog-johann.com/",
                "wheelchair": "limited",
                "wikidata": "Q37973412",
                "wikimedia_commons": "Category:Hotel Erzherzog Johann"
              },
              "geometry": {
                "type": "Point",
                "coordinates": [
                  15.437144,
                  47.0716985
                ]
              }
            },
            {
              "type": "Feature",
              "properties": {
                "id": "281041281",
                "osm_type": "node",
                "lat": 47.0711283,
                "lon": 15.4248752,
                "addr:city": "Graz",
                "addr:country": "AT",
                "addr:housenumber": "43",
                "addr:postcode": "8020",
                "addr:street": "Annenstraße",
                "brand": "Best Western",
                "brand:wikidata": "Q830334",
                "check_date": "2025-06-06",
                "contact:email": "dreiraben@bestwestern-ce.com",
                "contact:fax": "+43 316 71 59 596",
                "contact:phone": "+43 316 71 26 86",
                "internet_access": "wlan",
                "internet_access:fee": "no",
                "name": "Hotel Drei Raben",
                "operator": "Best Western",
                "rooms": "50",
                "source": "flyer",
                "stars": "4",
                "toilets:wheelchair": "yes",
                "tourism": "hotel",
                "website": "https://www.dreiraben.at/",
                "wheelchair": "limited"
              },
              "geometry": {
                "type": "Point",
                "coordinates": [
                  15.4248752,
                  47.0711283
                ]
              }
            },
            {
              "type": "Feature",
              "properties": {
                "id": "281041600",
                "osm_type": "node",
                "lat": 47.0757473,
                "lon": 15.4304556,
                "addr:city": "Graz",
                "addr:country": "AT",
                "addr:housenumber": "37",
                "addr:postcode": "8020",
                "addr:street": "Lendplatz",
                "check_date": "2025-06-13",
                "contact:phone": "+43 316 751405-0",
                "email": "h5742@accor.com",
                "fax": "+43 316 751405-555",
                "name": "Hotel Mercure Graz City",
                "note": "In diesem Hotel befindet sich eine Bar und ein Bistro",
                "stars": "4",
                "tourism": "hotel",
                "website": "https://mercure.accor.com/de/deutschland/index.shtml",
                "wheelchair": "yes"
              },
              "geometry": {
                "type": "Point",
                "coordinates": [
                  15.4304556,
                  47.0757473
                ]
              }
            },
            {
              "type": "Feature",
              "properties": {
                "id": "297464140",
                "osm_type": "node",
                "lat": 47.0706753,
                "lon": 15.4422847,
                "addr:city": "Graz",
                "addr:country": "AT",
                "addr:housenumber": "14",
                "addr:postcode": "8010",
                "addr:street": "Bürgergasse",
                "check_date": "2025-08-31",
                "description": "Elegantes Boutiquehotel mit 29 Zimmern. Modernes und künstlerisches Ambiente in historischen Mauern.",
                "email": "domhotel@domhotel.co.at",
                "internet_access": "wlan",
                "internet_access:fee": "no",
                "name": "Hotel Zum Dom - Palais Inzaghi",
                "phone": "+43 316 824800",
                "smoking": "no",
                "stars": "4",
                "start_date": "1997",
                "tourism": "hotel",
                "website": "https://www.domhotel.co.at/"
              },
              "geometry": {
                "type": "Point",
                "coordinates": [
                  15.4422847,
                  47.0706753
                ]
              }
            },
            {
              "type": "Feature",
              "properties": {
                "id": "358826132",
                "osm_type": "node",
                "lat": 47.0670635,
                "lon": 15.4461618,
                "addr:city": "Graz",
                "addr:country": "AT",
                "addr:housenumber": "14",
                "addr:postcode": "8010",
                "addr:street": "Schlögelgasse",
                "air_conditioning": "yes",
                "capacity:bed": "100",
                "email": "office@hotelgollner.com",
                "fax": "+43 316 822521-7",
                "name": "Hotel Gollner",
                "phone": "+43 316 822521-0",
                "stars": "4",
                "toilets:wheelchair": "yes",
                "tourism": "hotel",
                "website": "https://www.hotelgollner.com/",
                "wheelchair": "yes"
              },
              "geometry": {
                "type": "Point",
                "coordinates": [
                  15.4461618,
                  47.0670635
                ]
              }
            },
            {
              "type": "Feature",
              "properties": {
                "id": "454837610",
                "osm_type": "node",
                "lat": 47.0451627,
                "lon": 15.5200992,
                "addr:city": "Hart bei Graz",
                "addr:country": "AT",
                "addr:housenumber": "95",
                "addr:postcode": "8075",
                "addr:street": "Pachern-Hauptstraße",
                "brand": "Harry's Home Holding AG",
                "email": "graz@harrys-home.com",
                "name": "Harry's Home",
                "phone": "+43 50 1214 1190",
                "tourism": "hotel",
                "website": "https://www.harrys-home.com/hart-bei-graz/"
              },
              "geometry": {
                "type": "Point",
                "coordinates": [
                  15.5200992,
                  47.0451627
                ]
              }
            },
            {
              "type": "Feature",
              "properties": {
                "id": "485607978",
                "osm_type": "node",
                "lat": 47.0621436,
                "lon": 15.4405594,
                "addr:city": "Graz",
                "addr:country": "AT",
                "addr:housenumber": "53",
                "addr:postcode": "8010",
                "addr:street": "Schönaugasse",
                "email": "office@augartenhotel.at",
                "fax": "+49 316 20 800 80",
                "name": "Augartenhotel",
                "phone": "+43 316 20800",
                "tourism": "hotel",
                "website": "https://www.augartenhotel.at/",
                "wheelchair": "yes"
              },
              "geometry": {
                "type": "Point",
                "coordinates": [
                  15.4405594,
                  47.0621436
                ]
              }
            },
            {
              "type": "Feature",
              "properties": {
                "id": "778315618",
                "osm_type": "node",
                "lat": 47.0382559,
                "lon": 15.4618438,
                "addr:city": "Graz",
                "addr:country": "AT",
                "addr:housenumber": "103",
                "addr:postcode": "8041",
                "addr:street": "Liebenauer Hauptstraße",
                "contact:phone": "+43 316 472 066",
                "name": "Römerstube",
                "source_ref": "https://www.roemerstube.at/kontakt/",
                "tourism": "hotel"
              },
              "geometry": {
                "type": "Point",
                "coordinates": [
                  15.4618438,
                  47.0382559
                ]
              }
            },
            {
              "type": "Feature",
              "properties": {
                "id": "890447141",
                "osm_type": "node",
                "lat": 47.070215,
                "lon": 15.4199365,
                "addr:city": "Graz",
                "addr:country": "AT",
                "addr:housenumber": "11",
                "addr:postcode": "8020",
                "addr:street": "Eggenberger Gürtel",
                "bar": "yes",
                "brand": "Best Western",
                "brand:wikidata": "Q830334",
                "brand:wikipedia": "en:Best Western",
                "email": "info@hotelstrasser-graz.at",
                "image": "https://cloud.squidex.io/api/assets/sghotl/cb9c8d83-27d3-4d72-9aae-4b478b7976de/htsg-best-western-001-1-2048x1363.jpg",
                "internet_access": "wlan",
                "internet_access:fee": "customers",
                "name": "Hotel Strasser",
                "phone": "+43316713977",
                "rooms": "52",
                "smoking": "outside",
                "tourism": "hotel",
                "website": "https://hotelstrasser-graz.at/",
                "wheelchair": "no"
              },
              "geometry": {
                "type": "Point",
                "coordinates": [
                  15.4199365,
                  47.070215
                ]
              }
            },
            {
              "type": "Feature",
              "properties": {
                "id": "1363117533",
                "osm_type": "node",
                "lat": 47.0666748,
                "lon": 15.4774913,
                "addr:city": "Graz",
                "addr:country": "AT",
                "addr:housenumber": "81",
                "addr:postcode": "8010",
                "addr:street": "Waltendorfer Hauptstraße",
                "email": "hotel@dermarienhof.at",
                "fax": "+43 316 429842-14",
                "name": "Der Marienhof",
                "phone": "+43 316 429842",
                "tourism": "hotel",
                "website": "https://www.dermarienhof.at/",
                "wheelchair": "limited"
              },
              "geometry": {
                "type": "Point",
                "coordinates": [
                  15.4774913,
                  47.0666748
                ]
              }
            },
            {
              "type": "Feature",
              "properties": {
                "id": "1363117560",
                "osm_type": "node",
                "lat": 47.0673983,
                "lon": 15.4718238,
                "addr:city": "Graz",
                "addr:country": "AT",
                "addr:housenumber": "2",
                "addr:postcode": "8010",
                "addr:street": "Untere Teichstraße",
                "contact:email": "gaestehaus.lechner@aon.at",
                "contact:fax": "+43 316 47 47 92-6",
                "contact:mobile": "+43 664 440 64 80",
                "contact:phone": "+43 316 47 47 92",
                "internet_access": "wlan",
                "name": "Gästehaus Lechner",
                "operator": "Adolf und Margarethe Lechner",
                "payment:debit_cards": "yes",
                "source": "survey",
                "tourism": "hotel",
                "website": "http://www.lechner-gaestehaus.at/",
                "wheelchair": "no"
              },
              "geometry": {
                "type": "Point",
                "coordinates": [
                  15.4718238,
                  47.0673983
                ]
              }
            },
            {
              "type": "Feature",
              "properties": {
                "id": "1419034902",
                "osm_type": "node",
                "lat": 47.0642377,
                "lon": 15.4476842,
                "addr:city": "Graz",
                "addr:country": "AT",
                "addr:housenumber": "14",
                "addr:postcode": "8010",
                "addr:street": "Kastellfeldgasse",
                "check_date": "2024-06-09",
                "email": "mobene@hosan.at",
                "fax": "+43 316 826280-80",
                "name": "Haus Mobene",
                "operator": "Hotel Garni",
                "phone": "+43 316 826280",
                "smokefree": "yes",
                "smoking": "no",
                "source": "survey",
                "stars": "3",
                "tourism": "hotel",
                "wheelchair": "yes"
              },
              "geometry": {
                "type": "Point",
                "coordinates": [
                  15.4476842,
                  47.0642377
                ]
              }
            },
            {
              "type": "Feature",
              "properties": {
                "id": "1464830354",
                "osm_type": "node",
                "lat": 47.0801202,
                "lon": 15.4389345,
                "addr:city": "Graz",
                "addr:country": "AT",
                "addr:housenumber": "12",
                "addr:postcode": "8010",
                "addr:street": "Grabenstraße",
                "contact:phone": "+43 316 686558",
                "email": "hotel@altertelegraf.at",
                "internet_access": "wlan",
                "name": "Alter Telegraf",
                "source": "survey",
                "tourism": "hotel",
                "website": "https://www.altertelegraf.at/",
                "wheelchair": "limited"
              },
              "geometry": {
                "type": "Point",
                "coordinates": [
                  15.4389345,
                  47.0801202
                ]
              }
            },
            {
              "type": "Feature",
              "properties": {
                "id": "1602166419",
                "osm_type": "node",
                "lat": 47.0490769,
                "lon": 15.3908509,
                "addr:city": "Graz",
                "addr:country": "AT",
                "addr:housenumber": "33",
                "addr:postcode": "8052",
                "addr:street": "Ekkehard-Hauer-Straße",
                "contact:email": "hotel@steiermarkhof.at",
                "contact:mobile": "+43 316 80507151",
                "contact:phone": "+43 316 80507111",
                "contact:website": "https://hotel.steiermarkhof.at/",
                "internet_access": "wlan",
                "internet_access:fee": "no",
                "name": "Steiermarkhof",
                "tourism": "hotel",
                "wheelchair": "yes"
              },
              "geometry": {
                "type": "Point",
                "coordinates": [
                  15.3908509,
                  47.0490769
                ]
              }
            },
            {
              "type": "Feature",
              "properties": {
                "id": "1718407526",
                "osm_type": "node",
                "lat": 47.0851385,
                "lon": 15.4373812,
                "addr:city": "Graz",
                "addr:country": "AT",
                "addr:housenumber": "64",
                "addr:postcode": "8010",
                "addr:street": "Grabenstraße",
                "amenity:old": "restaurant",
                "name": "Greiner",
                "old_name": "Wirtshaus Greiner",
                "restaurant:end_date": "25.7.2015",
                "start_date": "1908",
                "tourism": "hotel",
                "website": "http://www.wirtshaus-greiner.at"
              },
              "geometry": {
                "type": "Point",
                "coordinates": [
                  15.4373812,
                  47.0851385
                ]
              }
            },
            {
              "type": "Feature",
              "properties": {
                "id": "2440869569",
                "osm_type": "node",
                "lat": 47.0377163,
                "lon": 15.4126981,
                "contact:email": "hotel@kernbuam.at",
                "contact:phone": "+43 316 291430",
                "name": "Kern-Buam",
                "source": "survey",
                "stars": "3",
                "tourism": "hotel",
                "website": "https://www.kernbuam.at/de/kontakt/"
              },
              "geometry": {
                "type": "Point",
                "coordinates": [
                  15.4126981,
                  47.0377163
                ]
              }
            },
            {
              "type": "Feature",
              "properties": {
                "id": "2520774070",
                "osm_type": "node",
                "lat": 47.0536782,
                "lon": 15.4320762,
                "addr:city": "Graz",
                "addr:country": "AT",
                "addr:housenumber": "58",
                "addr:postcode": "8020",
                "addr:street": "Herrgottwiesgasse",
                "internet_access": "yes",
                "name": "Appartements Alpha Graz",
                "tourism": "hotel"
              },
              "geometry": {
                "type": "Point",
                "coordinates": [
                  15.4320762,
                  47.0536782
                ]
              }
            },
            {
              "type": "Feature",
              "properties": {
                "id": "3122660545",
                "osm_type": "node",
                "lat": 47.1730993,
                "lon": 15.328525,
                "addr:city": "Friesach",
                "addr:housenumber": "15",
                "addr:postcode": "8114",
                "addr:street": "Grazer Bundesstraße",
                "name": "Thomahan",
                "tourism": "hotel",
                "website": "https://www.thomahan.at/"
              },
              "geometry": {
                "type": "Point",
                "coordinates": [
                  15.328525,
                  47.1730993
                ]
              }
            },
            {
              "type": "Feature",
              "properties": {
                "id": "3179539961",
                "osm_type": "node",
                "lat": 47.0715191,
                "lon": 15.4219988,
                "addr:city": "Graz",
                "addr:country": "AT",
                "addr:housenumber": "60",
                "addr:postcode": "8020",
                "addr:street": "Annenstraße",
                "air_conditioning": "yes",
                "internet_access": "wlan",
                "name": "B&B Graz",
                "opening_hours": "Mo-Fr 08:00-12:00,13:00-18:00 \"Front Desk\", 18:00-08:00 \"Self Checkin\"; Sa,Su,PH 08:00-13:00 \"Front Desk\", 15:00-08:00 \"Self Checkin\"",
                "phone": "+43316890861",
                "tourism": "hotel",
                "wheelchair": "limited"
              },
              "geometry": {
                "type": "Point",
                "coordinates": [
                  15.4219988,
                  47.0715191
                ]
              }
            },
            {
              "type": "Feature",
              "properties": {
                "id": "3700395578",
                "osm_type": "node",
                "lat": 47.0527356,
                "lon": 15.5253922,
                "addr:city": "Hart bei Graz",
                "addr:housenumber": "22",
                "addr:postcode": "8075",
                "addr:street": "Hahnhofweg",
                "contact:email": "appartements@klockerhof.net",
                "contact:mobile": "+43 664 65 49 437",
                "contact:website": "http://www.klockerhof.net/",
                "description": "Ferienwohnungen und Zimmer zum Vermieten",
                "name": "Klockerhof",
                "operator": "Josef Klocker",
                "tourism": "hotel"
              },
              "geometry": {
                "type": "Point",
                "coordinates": [
                  15.5253922,
                  47.0527356
                ]
              }
            },
            {
              "type": "Feature",
              "properties": {
                "id": "4355639926",
                "osm_type": "node",
                "lat": 47.0778894,
                "lon": 15.4577279,
                "addr:city": "Graz",
                "addr:country": "AT",
                "addr:housenumber": "4",
                "addr:postcode": "8010",
                "addr:street": "Rückertgasse",
                "email": "hotel@rueckert.at",
                "fax": "+43 316 32 30 31",
                "internet_access": "wlan",
                "internet_access:fee": "no",
                "name": "Villa Rückert",
                "phone": "+43 316 32 30 31",
                "stars": "3",
                "tourism": "hotel",
                "website": "https://www.rueckert.at/"
              },
              "geometry": {
                "type": "Point",
                "coordinates": [
                  15.4577279,
                  47.0778894
                ]
              }
            },
            {
              "type": "Feature",
              "properties": {
                "id": "5120099667",
                "osm_type": "node",
                "lat": 47.0612318,
                "lon": 15.4432063,
                "contact:email": "reservation@hotelaton.com",
                "contact:phone": "+43 664 640 2598",
                "internet_access": "wlan",
                "name": "Hotel Aton",
                "tourism": "hotel",
                "website": "https://www.hotelaton.com/",
                "wheelchair": "yes"
              },
              "geometry": {
                "type": "Point",
                "coordinates": [
                  15.4432063,
                  47.0612318
                ]
              }
            },
            {
              "type": "Feature",
              "properties": {
                "id": "5812444698",
                "osm_type": "node",
                "lat": 47.0741144,
                "lon": 15.4418857,
                "addr:city": "Graz",
                "addr:country": "AT",
                "addr:housenumber": "4a/4b",
                "addr:postcode": "8010",
                "addr:street": "Karmeliterplatz",
                "contact:phone": "+43 316 812 300-0",
                "name": "NH City Graz",
                "operator": "NH HOTEL GROUP, S.A.",
                "rooms": "157",
                "smoking": "outside",
                "source": "basemap.at",
                "stars": "4",
                "start_date": "2018-08",
                "tourism": "hotel",
                "website": "https://www.nh-hotels.de/hotel/nh-graz-city",
                "wheelchair": "yes"
              },
              "geometry": {
                "type": "Point",
                "coordinates": [
                  15.4418857,
                  47.0741144
                ]
              }
            },
            {
              "type": "Feature",
              "properties": {
                "id": "6897873294",
                "osm_type": "node",
                "lat": 47.0937341,
                "lon": 15.4940162,
                "addr:city": "Graz",
                "addr:country": "AT",
                "addr:housenumber": "261",
                "addr:postcode": "8010",
                "addr:street": "Stiftingtalstraße",
                "contact:email": "home@graziös.at",
                "contact:phone": "+43 664 30 43 724",
                "contact:website": "www.graziös.at",
                "name": "Graziös",
                "tourism": "hotel"
              },
              "geometry": {
                "type": "Point",
                "coordinates": [
                  15.4940162,
                  47.0937341
                ]
              }
            },
            {
              "type": "Feature",
              "properties": {
                "id": "6900661885",
                "osm_type": "node",
                "lat": 47.0611944,
                "lon": 15.469068,
                "internet_access": "wlan",
                "opening_hours": "24/7",
                "tourism": "hotel"
              },
              "geometry": {
                "type": "Point",
                "coordinates": [
                  15.469068,
                  47.0611944
                ]
              }
            },
            {
              "type": "Feature",
              "properties": {
                "id": "7961811299",
                "osm_type": "node",
                "lat": 47.0746016,
                "lon": 15.4351956,
                "addr:city": "Graz",
                "addr:country": "AT",
                "addr:housenumber": "36",
                "addr:postcode": "8010",
                "addr:street": "Kaiser-Franz-Josef-Kai",
                "contact:email": "office@kai36.at",
                "contact:phone": "+43 316 81 33 00",
                "name": "Hotel Kai 36",
                "operator": "Marko Hotelbetriebs GmbH",
                "owner": "Helmut Marko",
                "rooms": "21",
                "start_date": "2020",
                "tourism": "hotel",
                "website": "https://kai36.at/"
              },
              "geometry": {
                "type": "Point",
                "coordinates": [
                  15.4351956,
                  47.0746016
                ]
              }
            },
            {
              "type": "Feature",
              "properties": {
                "id": "12401766772",
                "osm_type": "node",
                "lat": 47.080675,
                "lon": 15.4107531,
                "addr:city": "Graz",
                "addr:country": "AT",
                "addr:housenumber": "104",
                "addr:postcode": "8020",
                "addr:street": "Waagner-Biro-Straße",
                "name": "harry's home",
                "phone": "+43 50 1214 2090",
                "tourism": "hotel",
                "website": "https://harrys-home.com/graz-city/",
                "wheelchair": "yes"
              },
              "geometry": {
                "type": "Point",
                "coordinates": [
                  15.4107531,
                  47.080675
                ]
              }
            },
            {
              "type": "Feature",
              "properties": {
                "id": "888750857",
                "osm_type": "node",
                "lat": 47.0633224,
                "lon": 15.5896866,
                "addr:city": "Laßnitzhöhe",
                "addr:country": "AT",
                "addr:housenumber": "12",
                "addr:place": "Schemerlhöhe",
                "addr:postcode": "8301",
                "name": "Höchschmied",
                "tourism": "hotel",
                "website": "https://www.hoechschmied.at"
              },
              "geometry": {
                "type": "Point",
                "coordinates": [
                  15.5896866,
                  47.0633224
                ]
              }
            }
          ],
          "children": []
        },
        {
          "bbox": {
            "south": 47.033758500000005,
            "west": 15.73002475,
            "north": 47.199035125,
            "east": 16.2068765
          },
          "poiCount": 17,
          "leafCount": 17,
          "averagePosition": [
            16.09727912352941,
            47.1413733
          ],
          "data": [
            {
              "type": "Feature",
              "properties": {
                "id": "303220024",
                "osm_type": "node",
                "lat": 47.1770913,
                "lon": 16.0002787,
                "int_name": "H2O-Hoteltherme GmbH",
                "name": "H2O Hotel Therme Resort",
                "phone": "+43 (3333) 22144",
                "swimming_pool": "yes",
                "tourism": "hotel",
                "website": "https://www.hoteltherme.at",
                "wheelchair": "yes"
              },
              "geometry": {
                "type": "Point",
                "coordinates": [
                  16.0002787,
                  47.1770913
                ]
              }
            },
            {
              "type": "Feature",
              "properties": {
                "id": "471578744",
                "osm_type": "node",
                "lat": 47.1695256,
                "lon": 16.0087666,
                "name": "Gasthof Hotel Fischer",
                "tourism": "hotel"
              },
              "geometry": {
                "type": "Point",
                "coordinates": [
                  16.0087666,
                  47.1695256
                ]
              }
            },
            {
              "type": "Feature",
              "properties": {
                "id": "8081060710",
                "osm_type": "node",
                "lat": 47.1817227,
                "lon": 15.9806402,
                "addr:city": "Sebersdorf",
                "addr:country": "AT",
                "addr:housenumber": "1",
                "addr:place": "Neustift bei Sebersdorf",
                "addr:postcode": "8272",
                "alt_name": "Schloss Obermayerhofen",
                "description": "Wer Obermayerhofen betritt, verlässt den Alltag! Umgeben von 120.000 Quadratmeter Parkanlage wartet das Hotel Schloss Obermayerhofen in der Region Bad Waltersdorf auf Ihren Besuch. Egal ob Sie einfach nur ein paar Tage Auszeit genießen möchten im Renaissa",
                "email": "schlosshotel@obermayerhofen.at",
                "fax": "+43 3333 2503 50",
                "image": "https://www.obermayerhofen.at/fileadmin/user_upload/_processed_/2/8/csm_Schloss-Obermayerhofen_035_882b7877b5.jpg",
                "internet_access": "yes",
                "internet_access:fee": "no",
                "name": "Hotel Schloss Obermayerhofen",
                "phone": "+43 3333 2503",
                "source": "survey",
                "tourism": "hotel",
                "website": "https://www.obermayerhofen.at/"
              },
              "geometry": {
                "type": "Point",
                "coordinates": [
                  15.9806402,
                  47.1817227
                ]
              }
            },
            {
              "type": "Feature",
              "properties": {
                "id": "12364718854",
                "osm_type": "node",
                "lat": 47.1711883,
                "lon": 16.025,
                "brand": "Wilfinger",
                "description": "Das familiengeführtes Wilfinger Bio Thermen Hotel und die jahrzehntelange Erfahrung auf den Gebieten Vollwerternährung, Prävention und Regeneration gibt Ihnen die Gewähr für einen optimalen Gesundheits- & Kuraufenthalt in der Steiermark!",
                "email": "badwaltersdorf@wilfinger-hotels.at",
                "fax": "+43 3333 2981 550",
                "image": "https://www.wilfinger-hotels.at/fileadmin/_processed_/d/7/csm_WA-12-KRIST-2002_90d9d22623.jpg",
                "name": "Wilfinger Bio Thermen Hotel",
                "operator": "Familie Roman Wilfinger GmbH",
                "phone": "+43 3333 29810",
                "reservation": "required",
                "stars": "4",
                "tourism": "hotel",
                "website": "https://www.wilfinger-hotels.at/"
              },
              "geometry": {
                "type": "Point",
                "coordinates": [
                  16.025,
                  47.1711883
                ]
              }
            },
            {
              "type": "Feature",
              "properties": {
                "id": "941613441",
                "osm_type": "node",
                "lat": 47.1731861,
                "lon": 16.1487644,
                "name": "Reiters Resort Allegria Hotel - Residenz",
                "toilets:wheelchair": "yes",
                "tourism": "hotel",
                "wheelchair": "yes"
              },
              "geometry": {
                "type": "Point",
                "coordinates": [
                  16.1487644,
                  47.1731861
                ]
              }
            },
            {
              "type": "Feature",
              "properties": {
                "id": "1683094526",
                "osm_type": "node",
                "lat": 47.1722911,
                "lon": 16.1499652,
                "name": "Reiters Resort Allegria Hotel - Family",
                "toilets:wheelchair": "yes",
                "tourism": "hotel",
                "wheelchair": "yes"
              },
              "geometry": {
                "type": "Point",
                "coordinates": [
                  16.1499652,
                  47.1722911
                ]
              }
            },
            {
              "type": "Feature",
              "properties": {
                "id": "1772882774",
                "osm_type": "node",
                "lat": 47.1729907,
                "lon": 16.1496344,
                "name": "Reiters Resort Allegria Hotel - Village",
                "tourism": "hotel"
              },
              "geometry": {
                "type": "Point",
                "coordinates": [
                  16.1496344,
                  47.1729907
                ]
              }
            },
            {
              "type": "Feature",
              "properties": {
                "id": "3202141082",
                "osm_type": "node",
                "lat": 47.0553391,
                "lon": 16.1869697,
                "name": "Wellnesshotel Lagler",
                "tourism": "hotel"
              },
              "geometry": {
                "type": "Point",
                "coordinates": [
                  16.1869697,
                  47.0553391
                ]
              }
            },
            {
              "type": "Feature",
              "properties": {
                "id": "3439161857",
                "osm_type": "node",
                "lat": 47.1875694,
                "lon": 16.1648065,
                "addr:city": "Ollersdorf im Burgenland",
                "addr:housenumber": "64",
                "addr:postcode": "7533",
                "addr:street": "Hauptstraße",
                "email": "info@vitalhotel-strobl.at",
                "fax": "+433326 52615 22",
                "name": "Vitalhotel Strobl",
                "phone": "+433326 52615",
                "tourism": "hotel",
                "website": "https://www.vitalhotel-strobl.at/"
              },
              "geometry": {
                "type": "Point",
                "coordinates": [
                  16.1648065,
                  47.1875694
                ]
              }
            },
            {
              "type": "Feature",
              "properties": {
                "id": "3807362093",
                "osm_type": "node",
                "lat": 47.1300135,
                "lon": 16.0413165,
                "name": "Gästehaus Panoramablick",
                "tourism": "hotel"
              },
              "geometry": {
                "type": "Point",
                "coordinates": [
                  16.0413165,
                  47.1300135
                ]
              }
            },
            {
              "type": "Feature",
              "properties": {
                "id": "3807362094",
                "osm_type": "node",
                "lat": 47.1234496,
                "lon": 16.0391523,
                "name": "Hotel Garni Bad Blumauerhof",
                "tourism": "hotel"
              },
              "geometry": {
                "type": "Point",
                "coordinates": [
                  16.0391523,
                  47.1234496
                ]
              }
            },
            {
              "type": "Feature",
              "properties": {
                "id": "4244676673",
                "osm_type": "node",
                "lat": 47.1625976,
                "lon": 16.1262487,
                "addr:city": "Burgauberg-Neudauberg",
                "addr:country": "AT",
                "addr:housenumber": "6",
                "addr:postcode": "7574",
                "addr:street": "Golfstraße",
                "at_bev:addr_date": "2020-10-01",
                "name": "Golfblick Hotel Garni",
                "phone": "+43 3326 53 599",
                "tourism": "hotel",
                "website": "http://www.hotel-golfblick.at/"
              },
              "geometry": {
                "type": "Point",
                "coordinates": [
                  16.1262487,
                  47.1625976
                ]
              }
            },
            {
              "type": "Feature",
              "properties": {
                "id": "4244677268",
                "osm_type": "node",
                "lat": 47.1609035,
                "lon": 16.1672261,
                "addr:housenumber": "6",
                "addr:postcode": "7551",
                "addr:street": "Ägidiplatz",
                "name": "Landhotel Novosel-Wagner",
                "phone": "+43 3326 52300",
                "tourism": "hotel",
                "website": "http://www.hotel-novosel-wagner.at/"
              },
              "geometry": {
                "type": "Point",
                "coordinates": [
                  16.1672261,
                  47.1609035
                ]
              }
            },
            {
              "type": "Feature",
              "properties": {
                "id": "4485952296",
                "osm_type": "node",
                "lat": 47.1145651,
                "lon": 16.0534292,
                "addr:city": "Bad Blumau",
                "addr:housenumber": "6",
                "addr:postcode": "8283",
                "addr:street": "Hauptstraße",
                "internet_access": "wlan",
                "name": "Garni Thermenoase",
                "stars": "4",
                "tourism": "hotel"
              },
              "geometry": {
                "type": "Point",
                "coordinates": [
                  16.0534292,
                  47.1145651
                ]
              }
            },
            {
              "type": "Feature",
              "properties": {
                "id": "5507805912",
                "osm_type": "node",
                "lat": 47.0585184,
                "lon": 16.1929399,
                "addr:city": "Kukmirn",
                "addr:housenumber": "11",
                "addr:postcode": "7543",
                "addr:street": "Apfelweg",
                "description": "Privatzimmervermieter",
                "email": "apfelhof.flieder@aon.at",
                "internet_access": "yes",
                "name": "Apfelhof Flieder",
                "operator": "Flieder",
                "tourism": "hotel"
              },
              "geometry": {
                "type": "Point",
                "coordinates": [
                  16.1929399,
                  47.0585184
                ]
              }
            },
            {
              "type": "Feature",
              "properties": {
                "id": "9876712855",
                "osm_type": "node",
                "lat": 47.0527044,
                "lon": 16.1185488,
                "mobile": "+436604600919",
                "name": "Heuberger",
                "tourism": "hotel"
              },
              "geometry": {
                "type": "Point",
                "coordinates": [
                  16.1185488,
                  47.0527044
                ]
              }
            },
            {
              "type": "Feature",
              "properties": {
                "id": "10552908559",
                "osm_type": "node",
                "lat": 47.1396897,
                "lon": 16.1000579,
                "addr:city": "Burgau",
                "addr:country": "AT",
                "addr:housenumber": "70",
                "addr:postcode": "8291",
                "addr:street": "Parkstraße",
                "name": "Palais Kneissl",
                "tourism": "hotel",
                "website": "https://www.palais-kneissl.at"
              },
              "geometry": {
                "type": "Point",
                "coordinates": [
                  16.1000579,
                  47.1396897
                ]
              }
            }
          ],
          "children": []
        },
        {
          "bbox": {
            "south": 47.199035125,
            "west": 15.253173,
            "north": 47.36431175,
            "east": 15.73002475
          },
          "poiCount": 17,
          "leafCount": 17,
          "averagePosition": [
            15.522919529411766,
            47.25881938235294
          ],
          "data": [
            {
              "type": "Feature",
              "properties": {
                "id": "890438432",
                "osm_type": "node",
                "lat": 47.2176592,
                "lon": 15.4076035,
                "addr:city": "Semriach",
                "addr:country": "AT",
                "addr:housenumber": "1",
                "addr:postcode": "8102",
                "addr:street": "Am Wiesengrund",
                "name": "Semriacherhof",
                "phone": "+43031278341",
                "tourism": "hotel",
                "website": "https://www.semriacherhof.at/"
              },
              "geometry": {
                "type": "Point",
                "coordinates": [
                  15.4076035,
                  47.2176592
                ]
              }
            },
            {
              "type": "Feature",
              "properties": {
                "id": "2279227401",
                "osm_type": "node",
                "lat": 47.2148113,
                "lon": 15.4189097,
                "addr:city": "Semriach",
                "addr:country": "AT",
                "addr:housenumber": "18",
                "addr:postcode": "8102",
                "addr:street": "Unterer Windhof",
                "name": "Seminar- u. Ferienhotel Trattnerhof",
                "operator": "Familie Trattner",
                "phone": "+43 3127 809 600",
                "tourism": "hotel",
                "website": "https://www.trattnerhof.at/"
              },
              "geometry": {
                "type": "Point",
                "coordinates": [
                  15.4189097,
                  47.2148113
                ]
              }
            },
            {
              "type": "Feature",
              "properties": {
                "id": "2284341391",
                "osm_type": "node",
                "lat": 47.2149532,
                "lon": 15.4175716,
                "addr:country": "AT",
                "addr:housenumber": "15",
                "addr:postcode": "8102",
                "addr:street": "Unterer Windhof",
                "name": "Schöcklblick",
                "tourism": "hotel",
                "website": "https://schoecklblick.at/"
              },
              "geometry": {
                "type": "Point",
                "coordinates": [
                  15.4175716,
                  47.2149532
                ]
              }
            },
            {
              "type": "Feature",
              "properties": {
                "id": "2408713087",
                "osm_type": "node",
                "lat": 47.2897944,
                "lon": 15.4768024,
                "addr:city": "Fladnitz an der Teichalm",
                "addr:country": "AT",
                "addr:housenumber": "45",
                "addr:place": "Fladnitz/Teichalm",
                "addr:postcode": "8163",
                "name": "Vital Hotel Styria",
                "phone": "+433179 23314 0",
                "toilets:wheelchair": "yes",
                "tourism": "hotel",
                "website": "https://www.vital-hotel-styria.at/",
                "wheelchair": "yes"
              },
              "geometry": {
                "type": "Point",
                "coordinates": [
                  15.4768024,
                  47.2897944
                ]
              }
            },
            {
              "type": "Feature",
              "properties": {
                "id": "2408713131",
                "osm_type": "node",
                "lat": 47.2847602,
                "lon": 15.4800908,
                "addr:city": "Fladnitz an der Teichalm",
                "addr:country": "AT",
                "addr:housenumber": "50",
                "addr:place": "Fladnitz/Teichalm",
                "addr:postcode": "8163",
                "check_date": "2025-05-21",
                "name": "Gasthof Donner",
                "phone": "+433179 23217",
                "tourism": "hotel",
                "website": "https://www.gasthof-donner.at/"
              },
              "geometry": {
                "type": "Point",
                "coordinates": [
                  15.4800908,
                  47.2847602
                ]
              }
            },
            {
              "type": "Feature",
              "properties": {
                "id": "2408713342",
                "osm_type": "node",
                "lat": 47.2846729,
                "lon": 15.4765288,
                "addr:city": "Fladnitz an der Teichalm",
                "addr:country": "AT",
                "addr:housenumber": "61",
                "addr:place": "Fladnitz/Teichalm",
                "addr:postcode": "8163",
                "at_bev:addr_date": "2018-10-01",
                "name": "Familienhotel Herbst",
                "phone": "+433179 23335-0",
                "tourism": "hotel",
                "website": "https://www.familienhotel-herbst.at/"
              },
              "geometry": {
                "type": "Point",
                "coordinates": [
                  15.4765288,
                  47.2846729
                ]
              }
            },
            {
              "type": "Feature",
              "properties": {
                "id": "5322127666",
                "osm_type": "node",
                "lat": 47.2702182,
                "lon": 15.3259177,
                "addr:city": "Frohnleiten",
                "addr:country": "AT",
                "addr:housenumber": "14a",
                "addr:postcode": "8130",
                "addr:street": "Hauptplatz",
                "at_bev:addr_date": "2017-10-01",
                "contact:email": "office@frohnleitnerhof.at",
                "contact:fax": "+43 3126 4150 555",
                "contact:phone": "+43 3126 4150",
                "name": "Frohnleitnerhof",
                "tourism": "hotel",
                "website": "http://www.frohnleitnerhof.at/"
              },
              "geometry": {
                "type": "Point",
                "coordinates": [
                  15.3259177,
                  47.2702182
                ]
              }
            },
            {
              "type": "Feature",
              "properties": {
                "id": "7999675574",
                "osm_type": "node",
                "lat": 47.2023973,
                "lon": 15.3448742,
                "addr:city": "Peggau",
                "addr:housenumber": "28",
                "addr:postcode": "8120",
                "addr:street": "Grazer Straße",
                "name": "La Cucina - Hotel & Restaurant",
                "tourism": "hotel",
                "website": "https://www.lacucina-hotel.at/"
              },
              "geometry": {
                "type": "Point",
                "coordinates": [
                  15.3448742,
                  47.2023973
                ]
              }
            },
            {
              "type": "Feature",
              "properties": {
                "id": "888641676",
                "osm_type": "node",
                "lat": 47.2239216,
                "lon": 15.6361814,
                "addr:city": "Weiz",
                "addr:country": "AT",
                "addr:housenumber": "2",
                "addr:postcode": "8160",
                "addr:street": "Weizberg",
                "contact:phone": "+43 3172 23490",
                "name": "Ederer Seminarhotel",
                "tourism": "hotel",
                "website": "https://www.ederer.at/"
              },
              "geometry": {
                "type": "Point",
                "coordinates": [
                  15.6361814,
                  47.2239216
                ]
              }
            },
            {
              "type": "Feature",
              "properties": {
                "id": "1242947938",
                "osm_type": "node",
                "lat": 47.2250112,
                "lon": 15.7262422,
                "name": "Eiteljörg",
                "tourism": "hotel"
              },
              "geometry": {
                "type": "Point",
                "coordinates": [
                  15.7262422,
                  47.2250112
                ]
              }
            },
            {
              "type": "Feature",
              "properties": {
                "id": "1905963594",
                "osm_type": "node",
                "lat": 47.3000623,
                "lon": 15.5928797,
                "email": "office@landhotel-spreitzhofer.at",
                "name": "Landhotel Spreitzhofer \"Braunhof\"",
                "phone": "+4331798243",
                "tourism": "hotel",
                "website": "https://www.landhotel-spreitzhofer.at/"
              },
              "geometry": {
                "type": "Point",
                "coordinates": [
                  15.5928797,
                  47.3000623
                ]
              }
            },
            {
              "type": "Feature",
              "properties": {
                "id": "1976220553",
                "osm_type": "node",
                "lat": 47.3012081,
                "lon": 15.5757018,
                "addr:city": "St. Kathrein am Offenegg",
                "addr:country": "AT",
                "addr:housenumber": "5",
                "addr:postcode": "8171",
                "addr:street": "Dorf",
                "email": "info@landhotel-schwaiger.at",
                "name": "Landhotel Schwaiger",
                "phone": "+4331798234",
                "tourism": "hotel",
                "website": "https://www.landhotel-schwaiger.at/"
              },
              "geometry": {
                "type": "Point",
                "coordinates": [
                  15.5757018,
                  47.3012081
                ]
              }
            },
            {
              "type": "Feature",
              "properties": {
                "id": "1976220554",
                "osm_type": "node",
                "lat": 47.300171,
                "lon": 15.5749694,
                "addr:city": "St. Kathrein am Offenegg",
                "addr:country": "AT",
                "addr:housenumber": "3",
                "addr:postcode": "8171",
                "addr:street": "Dorf",
                "email": "info@der-wilde-eder.at",
                "name": "Der WILDe EDER",
                "phone": "+43317982350",
                "tourism": "hotel",
                "website": "https://www.der-wilde-eder.at/"
              },
              "geometry": {
                "type": "Point",
                "coordinates": [
                  15.5749694,
                  47.300171
                ]
              }
            },
            {
              "type": "Feature",
              "properties": {
                "id": "1976220555",
                "osm_type": "node",
                "lat": 47.3003962,
                "lon": 15.5781031,
                "addr:country": "AT",
                "addr:postcode": "8171",
                "name": "Steinhauser",
                "tourism": "hotel"
              },
              "geometry": {
                "type": "Point",
                "coordinates": [
                  15.5781031,
                  47.3003962
                ]
              }
            },
            {
              "type": "Feature",
              "properties": {
                "id": "2928064832",
                "osm_type": "node",
                "lat": 47.3355576,
                "lon": 15.6016002,
                "addr:city": "Heilbrunn",
                "addr:housenumber": "78",
                "addr:postcode": "8172",
                "addr:street": "Brandlucken im Almenland",
                "email": "info@bauernhofer.at",
                "name": "Naturhotel Bauernhofer",
                "operator": "Bauernhofer GmbH",
                "phone": "+433179 8202",
                "tourism": "hotel",
                "website": "https://www.bauernhofer.at/"
              },
              "geometry": {
                "type": "Point",
                "coordinates": [
                  15.6016002,
                  47.3355576
                ]
              }
            },
            {
              "type": "Feature",
              "properties": {
                "id": "5878656884",
                "osm_type": "node",
                "lat": 47.22006,
                "lon": 15.6257611,
                "name": "Aparthotel Weiz",
                "tourism": "hotel",
                "website": "https://www.aparthotel-weiz.at/"
              },
              "geometry": {
                "type": "Point",
                "coordinates": [
                  15.6257611,
                  47.22006
                ]
              }
            },
            {
              "type": "Feature",
              "properties": {
                "id": "5936691724",
                "osm_type": "node",
                "lat": 47.2142748,
                "lon": 15.6298944,
                "addr:city": "Weiz",
                "addr:country": "AT",
                "addr:housenumber": "22",
                "addr:postcode": "8160",
                "addr:street": "Bahnhofstraße",
                "name": "Hotel Hammer",
                "operator": "Familie Hammer-Reisenhofer",
                "phone": "+43 3172 2208",
                "smoking": "isolated",
                "tourism": "hotel",
                "website": "https://www.hotel-hammer.at/"
              },
              "geometry": {
                "type": "Point",
                "coordinates": [
                  15.6298944,
                  47.2142748
                ]
              }
            }
          ],
          "children": []
        },
        {
          "bbox": {
            "south": 47.199035125,
            "west": 15.73002475,
            "north": 47.36431175,
            "east": 16.2068765
          },
          "poiCount": 9,
          "leafCount": 9,
          "averagePosition": [
            15.859912577777777,
            47.247594544444446
          ],
          "data": [
            {
              "type": "Feature",
              "properties": {
                "id": "1559381242",
                "osm_type": "node",
                "lat": 47.2808415,
                "lon": 15.9670156,
                "name": "Alter Gerichtshof",
                "tourism": "hotel",
                "website": "https://www.hotel-altergerichtshof.at/"
              },
              "geometry": {
                "type": "Point",
                "coordinates": [
                  15.9670156,
                  47.2808415
                ]
              }
            },
            {
              "type": "Feature",
              "properties": {
                "id": "1659161279",
                "osm_type": "node",
                "lat": 47.2428955,
                "lon": 15.8015594,
                "name": "Hotel Schloss Stubenberg",
                "source": "http://www.schloss-stubenberg.at",
                "tourism": "hotel"
              },
              "geometry": {
                "type": "Point",
                "coordinates": [
                  15.8015594,
                  47.2428955
                ]
              }
            },
            {
              "type": "Feature",
              "properties": {
                "id": "1687899353",
                "osm_type": "node",
                "lat": 47.3002717,
                "lon": 15.9749684,
                "addr:city": "Greinbach",
                "addr:country": "AT",
                "addr:housenumber": "47",
                "addr:place": "Penzendorf",
                "addr:postcode": "8230",
                "at_bev:addr_date": "2018-10-01",
                "name": "Sonnenhof Posch-Thurner",
                "operator": "Fam. Posch- Thurner",
                "phone": "+433332 62842",
                "tourism": "hotel",
                "website": "http://www.sonnen-hof.at"
              },
              "geometry": {
                "type": "Point",
                "coordinates": [
                  15.9749684,
                  47.3002717
                ]
              }
            },
            {
              "type": "Feature",
              "properties": {
                "id": "2043039761",
                "osm_type": "node",
                "lat": 47.269128,
                "lon": 15.8961148,
                "name": "Zur Grünen Au",
                "tourism": "hotel"
              },
              "geometry": {
                "type": "Point",
                "coordinates": [
                  15.8961148,
                  47.269128
                ]
              }
            },
            {
              "type": "Feature",
              "properties": {
                "id": "2249049208",
                "osm_type": "node",
                "lat": 47.2339397,
                "lon": 15.8362064,
                "name": "Annahof",
                "tourism": "hotel"
              },
              "geometry": {
                "type": "Point",
                "coordinates": [
                  15.8362064,
                  47.2339397
                ]
              }
            },
            {
              "type": "Feature",
              "properties": {
                "id": "2908798229",
                "osm_type": "node",
                "lat": 47.2102375,
                "lon": 15.8471325,
                "name": "Kirchenwirt Durlacher",
                "phone": "+433334 2343",
                "tourism": "hotel",
                "website": "https://kirchenwirt-durlacher.jimdo.com/"
              },
              "geometry": {
                "type": "Point",
                "coordinates": [
                  15.8471325,
                  47.2102375
                ]
              }
            },
            {
              "type": "Feature",
              "properties": {
                "id": "4228916029",
                "osm_type": "node",
                "lat": 47.2291245,
                "lon": 15.8040737,
                "addr:city": "Stubenberg",
                "addr:housenumber": "110",
                "addr:place": "Buchberg",
                "addr:postcode": "8223",
                "name": "JUFA Stubenbergsee Resort",
                "operator": "JUFA Hotels",
                "tourism": "hotel",
                "website": "https://www.jufa.eu/jufa-stubenbergsee-resort/",
                "wheelchair": "yes"
              },
              "geometry": {
                "type": "Point",
                "coordinates": [
                  15.8040737,
                  47.2291245
                ]
              }
            },
            {
              "type": "Feature",
              "properties": {
                "id": "4622520645",
                "osm_type": "node",
                "lat": 47.2334888,
                "lon": 15.8023455,
                "addr:city": "Stubenberg",
                "addr:housenumber": "70",
                "addr:place": "Buchberg",
                "addr:postcode": "8223",
                "capacity": "250",
                "cuisine": "regional",
                "delivery": "no",
                "email": "info@hotel-erla.com",
                "name": "Boutique Hotel Erla",
                "opening_hours": "Mo-Su 10:00-22:00",
                "outdoor_seating": "terrace",
                "payment:cash": "yes",
                "payment:credit_cards": "yes",
                "payment:debit_cards": "yes",
                "payment:mastercard": "yes",
                "payment:visa": "yes",
                "phone": "+4331768889",
                "smoking": "no",
                "takeaway": "yes",
                "tourism": "hotel",
                "website": "https://www.hotel-erla.com",
                "wheelchair": "yes"
              },
              "geometry": {
                "type": "Point",
                "coordinates": [
                  15.8023455,
                  47.2334888
                ]
              }
            },
            {
              "type": "Feature",
              "properties": {
                "id": "7990869946",
                "osm_type": "node",
                "lat": 47.2284237,
                "lon": 15.8097969,
                "addr:housenumber": "38",
                "addr:place": "Buchberg",
                "email": "kontakt@nakgmbh.com",
                "name": "Hotel Buchberg 38",
                "phone": "+43 676 685 50 38",
                "tourism": "hotel"
              },
              "geometry": {
                "type": "Point",
                "coordinates": [
                  15.8097969,
                  47.2284237
                ]
              }
            }
          ],
          "children": []
        }
      ]
    },
    {
      "bbox": {
        "south": 47.033758500000005,
        "west": 16.2068765,
        "north": 47.36431175,
        "east": 17.16058
      },
      "poiCount": 27,
      "leafCount": 27,
      "averagePosition": [
        16.599439085185185,
        47.219279237037036
      ],
      "data": [
        {
          "type": "Feature",
          "properties": {
            "id": "838522756",
            "osm_type": "node",
            "lat": 47.1669428,
            "lon": 16.4293813,
            "addr:city": "Deutsch Schützen-Eisenberg",
            "addr:country": "AT",
            "addr:housenumber": "41",
            "addr:postcode": "7474",
            "addr:street": "Winzerstraße",
            "at_bev:addr_date": "2020-10-01",
            "name": "Schützenhof",
            "source": "www.schuetzenhof.cc",
            "tourism": "hotel",
            "website": "https://www.schuetzenhof.cc/"
          },
          "geometry": {
            "type": "Point",
            "coordinates": [
              16.4293813,
              47.1669428
            ]
          }
        },
        {
          "type": "Feature",
          "properties": {
            "id": "891825187",
            "osm_type": "node",
            "lat": 47.3250815,
            "lon": 16.2396057,
            "check_date": "2025-05-13",
            "name": "Reiters Reserve Finest Family Hotel",
            "tourism": "hotel"
          },
          "geometry": {
            "type": "Point",
            "coordinates": [
              16.2396057,
              47.3250815
            ]
          }
        },
        {
          "type": "Feature",
          "properties": {
            "id": "963631904",
            "osm_type": "node",
            "lat": 47.3229635,
            "lon": 16.2387422,
            "check_date": "2025-05-13",
            "name": "Reiter's Supreme Hotel",
            "tourism": "hotel"
          },
          "geometry": {
            "type": "Point",
            "coordinates": [
              16.2387422,
              47.3229635
            ]
          }
        },
        {
          "type": "Feature",
          "properties": {
            "id": "1345795100",
            "osm_type": "node",
            "lat": 47.1786873,
            "lon": 16.4197016,
            "name": "Pension Fuß",
            "tourism": "hotel",
            "wheelchair": "no"
          },
          "geometry": {
            "type": "Point",
            "coordinates": [
              16.4197016,
              47.1786873
            ]
          }
        },
        {
          "type": "Feature",
          "properties": {
            "id": "1345881460",
            "osm_type": "node",
            "lat": 47.1737712,
            "lon": 16.4307857,
            "name": "Huber Kellerstöckl",
            "tourism": "hotel"
          },
          "geometry": {
            "type": "Point",
            "coordinates": [
              16.4307857,
              47.1737712
            ]
          }
        },
        {
          "type": "Feature",
          "properties": {
            "id": "1345949454",
            "osm_type": "node",
            "lat": 47.1638763,
            "lon": 16.4235287,
            "addr:city": "Deutsch Schützen-Eisenberg",
            "addr:country": "AT",
            "addr:housenumber": "5a",
            "addr:postcode": "7474",
            "addr:street": "Am Ratschen",
            "at_bev:addr_date": "2020-10-01",
            "name": "Wohnothek am Ratschen",
            "tourism": "hotel",
            "wheelchair": "limited"
          },
          "geometry": {
            "type": "Point",
            "coordinates": [
              16.4235287,
              47.1638763
            ]
          }
        },
        {
          "type": "Feature",
          "properties": {
            "id": "1348144103",
            "osm_type": "node",
            "lat": 47.1696439,
            "lon": 16.4221537,
            "name": "Ferienwohnungen Rosner",
            "tourism": "hotel"
          },
          "geometry": {
            "type": "Point",
            "coordinates": [
              16.4221537,
              47.1696439
            ]
          }
        },
        {
          "type": "Feature",
          "properties": {
            "id": "1348144107",
            "osm_type": "node",
            "lat": 47.178166,
            "lon": 16.4212257,
            "name": "Ferienwohnung Kainz",
            "tourism": "hotel",
            "wheelchair": "no"
          },
          "geometry": {
            "type": "Point",
            "coordinates": [
              16.4212257,
              47.178166
            ]
          }
        },
        {
          "type": "Feature",
          "properties": {
            "id": "4123693098",
            "osm_type": "node",
            "lat": 47.3353412,
            "lon": 16.2225489,
            "addr:city": "Bad Tatzmannsdorf",
            "addr:country": "AT",
            "addr:housenumber": "55",
            "addr:postcode": "7431",
            "addr:street": "Tatzmannsdorfer Straße",
            "name": "Spiegel",
            "tourism": "hotel",
            "website": "https://www.hotelspiegel.at/"
          },
          "geometry": {
            "type": "Point",
            "coordinates": [
              16.2225489,
              47.3353412
            ]
          }
        },
        {
          "type": "Feature",
          "properties": {
            "id": "5652402921",
            "osm_type": "node",
            "lat": 47.2349415,
            "lon": 16.5056438,
            "addr:city": "Dozmat",
            "addr:housenumber": "18",
            "addr:postcode": "9791",
            "addr:street": "Lovas utca",
            "internet_access": "wlan",
            "name": "Dozmat Major Lovarda",
            "tourism": "hotel",
            "website": "http://www.dozmatlovarda.hu/"
          },
          "geometry": {
            "type": "Point",
            "coordinates": [
              16.5056438,
              47.2349415
            ]
          }
        },
        {
          "type": "Feature",
          "properties": {
            "id": "11105031230",
            "osm_type": "node",
            "lat": 47.3075552,
            "lon": 16.4381549,
            "addr:city": "Rechnitz",
            "addr:housenumber": "1",
            "addr:postcode": "7471",
            "addr:street": "Hochstraße",
            "name": "Haus am Eck",
            "phone": "+43 6763714280",
            "tourism": "hotel",
            "website": "https://thehoteinspect.com/haus-am-eck"
          },
          "geometry": {
            "type": "Point",
            "coordinates": [
              16.4381549,
              47.3075552
            ]
          }
        },
        {
          "type": "Feature",
          "properties": {
            "id": "11236682952",
            "osm_type": "node",
            "lat": 47.0432762,
            "lon": 16.3571328,
            "addr:city": "Glasing",
            "addr:housenumber": "1",
            "addr:place": "Glasing",
            "addr:postcode": "7540",
            "internet_access": "wlan",
            "internet_access:fee": "no",
            "name": "Silberner Hirsch",
            "phone": "+43 3322 43657",
            "tourism": "hotel",
            "website": "http://silbernerhirsch.at"
          },
          "geometry": {
            "type": "Point",
            "coordinates": [
              16.3571328,
              47.0432762
            ]
          }
        },
        {
          "type": "Feature",
          "properties": {
            "id": "12211873664",
            "osm_type": "node",
            "lat": 47.3402551,
            "lon": 16.2261062,
            "name": "Simon",
            "stars": "4",
            "tourism": "hotel",
            "website": "https://www.dasvitalhotel.at/"
          },
          "geometry": {
            "type": "Point",
            "coordinates": [
              16.2261062,
              47.3402551
            ]
          }
        },
        {
          "type": "Feature",
          "properties": {
            "id": "623912621",
            "osm_type": "node",
            "lat": 47.2473226,
            "lon": 16.9493528,
            "name": "VitalMED Hotel Sárvár",
            "tourism": "hotel"
          },
          "geometry": {
            "type": "Point",
            "coordinates": [
              16.9493528,
              47.2473226
            ]
          }
        },
        {
          "type": "Feature",
          "properties": {
            "id": "901010966",
            "osm_type": "node",
            "lat": 47.256493,
            "lon": 16.6155542,
            "addr:city": "Szombathely",
            "addr:housenumber": "4",
            "addr:postcode": "9700",
            "addr:street": "Minerva utca",
            "name": "Sunset Motel",
            "phone": "+36 94 513 888",
            "tourism": "hotel",
            "website": "http://www.sunsetmotel.hu/"
          },
          "geometry": {
            "type": "Point",
            "coordinates": [
              16.6155542,
              47.256493
            ]
          }
        },
        {
          "type": "Feature",
          "properties": {
            "id": "1944109770",
            "osm_type": "node",
            "lat": 47.2327568,
            "lon": 16.6034743,
            "addr:city": "Szombathely",
            "addr:housenumber": "39",
            "addr:postcode": "9700",
            "addr:street": "Bartók Béla körút",
            "designation": "****",
            "disused": "yes",
            "disused:name": "Hotel Claudius",
            "phone": "+36 94 313 760",
            "tourism": "hotel",
            "website": "http://www.hotelclaudius.hu/"
          },
          "geometry": {
            "type": "Point",
            "coordinates": [
              16.6034743,
              47.2327568
            ]
          }
        },
        {
          "type": "Feature",
          "properties": {
            "id": "2222751689",
            "osm_type": "node",
            "lat": 47.252304,
            "lon": 16.9395781,
            "addr:city": "Sárvár",
            "addr:housenumber": "29/2",
            "addr:postcode": "9600",
            "addr:street": "Várkerület",
            "check_date": "2025-03-12",
            "email": "reservation@bassiana.hu",
            "name": "Hotel Bassiana",
            "phone": "+36707881188",
            "toilets:wheelchair": "yes",
            "tourism": "hotel",
            "website": "http://www.bassiana.hu/",
            "wheelchair": "yes",
            "wheelchair:description": "Az étterem mosdója teljesen akadálymentes. Az étteremben rámpa van de segítséggel használható inkább. Segítőkész személyzet!"
          },
          "geometry": {
            "type": "Point",
            "coordinates": [
              16.9395781,
              47.252304
            ]
          }
        },
        {
          "type": "Feature",
          "properties": {
            "id": "2380358535",
            "osm_type": "node",
            "lat": 47.2500753,
            "lon": 16.6077109,
            "contact:phone": "+36 94 511 052",
            "name": "Vadász Étterem",
            "tourism": "hotel",
            "website": "http://www.vadaszhotel.hu/"
          },
          "geometry": {
            "type": "Point",
            "coordinates": [
              16.6077109,
              47.2500753
            ]
          }
        },
        {
          "type": "Feature",
          "properties": {
            "id": "2382485333",
            "osm_type": "node",
            "lat": 47.2458377,
            "lon": 16.6205658,
            "name": "Gerendás Hotel",
            "phone": "+36 94 509 290",
            "tourism": "hotel",
            "website": "https://www.gerendashotel.hu/"
          },
          "geometry": {
            "type": "Point",
            "coordinates": [
              16.6205658,
              47.2458377
            ]
          }
        },
        {
          "type": "Feature",
          "properties": {
            "id": "3145297151",
            "osm_type": "node",
            "lat": 47.2501522,
            "lon": 16.9420032,
            "addr:city": "Sárvár",
            "addr:housenumber": "4",
            "addr:postcode": "9600",
            "addr:street": "Alkotmány körút",
            "email": "info@wolfhotel.hu",
            "name": "Hotel Wolf",
            "phone": "+36 95 320 460",
            "tourism": "hotel",
            "website": "http://www.wolfhotel.hu/"
          },
          "geometry": {
            "type": "Point",
            "coordinates": [
              16.9420032,
              47.2501522
            ]
          }
        },
        {
          "type": "Feature",
          "properties": {
            "id": "3278960996",
            "osm_type": "node",
            "lat": 47.228046,
            "lon": 16.6138316,
            "addr:city": "Szombathely",
            "addr:housenumber": "9",
            "addr:postcode": "9700",
            "addr:street": "Dózsa György utca",
            "bar": "yes",
            "contact:email": "szombathely@p4wresidence.hu",
            "contact:mobile": "+36 70 777 7666",
            "contact:website": "https://www.p4wresidence.hu/",
            "dog": "yes",
            "internet_access": "wlan",
            "internet_access:fee": "customers",
            "name": "P4W Hotel-Residence",
            "rooms": "19",
            "stars": "3",
            "survey:date": "2021-01-14",
            "tourism": "hotel",
            "wheelchair": "yes"
          },
          "geometry": {
            "type": "Point",
            "coordinates": [
              16.6138316,
              47.228046
            ]
          }
        },
        {
          "type": "Feature",
          "properties": {
            "id": "3469861489",
            "osm_type": "node",
            "lat": 47.3397159,
            "lon": 16.9042711,
            "contact:email": "marothykuria@freemail.hu",
            "contact:phone": "+36 70 311 2709",
            "historic": "castle",
            "name": "Maróthy-kúria - Kastélyszálló",
            "source": "turistautak.hu",
            "source:date": "2011-09-06",
            "stars": "3",
            "tourism": "hotel",
            "url": "http://turistautak.hu/poi.php?id=6069"
          },
          "geometry": {
            "type": "Point",
            "coordinates": [
              16.9042711,
              47.3397159
            ]
          }
        },
        {
          "type": "Feature",
          "properties": {
            "id": "3469985790",
            "osm_type": "node",
            "lat": 47.050155,
            "lon": 16.797252,
            "addr:city": "Vasvár",
            "addr:housenumber": "8",
            "addr:postcode": "9800",
            "addr:street": "Dr. Tretter László utca",
            "name": "Szentkút Patak Szálló",
            "source": "turistautak.hu",
            "source:date": "2011-09-19",
            "tourism": "hotel",
            "url": "http://turistautak.hu/poi.php?id=22982"
          },
          "geometry": {
            "type": "Point",
            "coordinates": [
              16.797252,
              47.050155
            ]
          }
        },
        {
          "type": "Feature",
          "properties": {
            "id": "3474961436",
            "osm_type": "node",
            "lat": 47.185891,
            "lon": 16.770785,
            "addr:city": "Vasszécseny",
            "addr:housenumber": "36",
            "addr:postcode": "9763",
            "addr:street": "Kossuth Lajos utca",
            "email": "info@kastelyszallo.hu",
            "name": "Új-Ebergényi Kastélyszálló",
            "phone": "+36 30 824 6911",
            "source": "survey;local knowledge",
            "source:date": "2015-03-03",
            "tourism": "hotel",
            "url": "http://turistautak.hu/poi.php?id=63711",
            "website": "https://kastelyszallo.hu"
          },
          "geometry": {
            "type": "Point",
            "coordinates": [
              16.770785,
              47.185891
            ]
          }
        },
        {
          "type": "Feature",
          "properties": {
            "id": "5747771871",
            "osm_type": "node",
            "lat": 47.2521363,
            "lon": 16.9406,
            "addr:city": "Sárvár",
            "addr:housenumber": "1",
            "addr:postcode": "9600",
            "addr:street": "Rákóczi Ferenc út",
            "name": "Ensana Health Spa Resort Sárvár",
            "old_name": "Danubius Health Spa Resort Sárvár",
            "phone": "+36 95 888 400",
            "tourism": "hotel"
          },
          "geometry": {
            "type": "Point",
            "coordinates": [
              16.9406,
              47.2521363
            ]
          }
        },
        {
          "type": "Feature",
          "properties": {
            "id": "1112899780",
            "osm_type": "node",
            "lat": 47.0947582,
            "lon": 17.0526803,
            "name": "Patyi Étterem és Hotel",
            "tourism": "hotel"
          },
          "geometry": {
            "type": "Point",
            "coordinates": [
              17.0526803,
              47.0947582
            ]
          }
        },
        {
          "type": "Feature",
          "properties": {
            "id": "1806426699",
            "osm_type": "node",
            "lat": 47.0943937,
            "lon": 17.0524848,
            "tourism": "hotel"
          },
          "geometry": {
            "type": "Point",
            "coordinates": [
              17.0524848,
              47.0943937
            ]
          }
        }
      ],
      "children": []
    },
    {
      "bbox": {
        "south": 47.36431175,
        "west": 15.253173,
        "north": 47.694865,
        "east": 16.2068765
      },
      "poiCount": 24,
      "leafCount": 24,
      "averagePosition": [
        15.738446829166667,
        47.549346758333336
      ],
      "data": [
        {
          "type": "Feature",
          "properties": {
            "id": "1099548107",
            "osm_type": "node",
            "lat": 47.4449127,
            "lon": 15.2999638,
            "addr:city": "Kapfenberg",
            "addr:housenumber": "25",
            "addr:postcode": "8605",
            "addr:street": "Johann-Brandl-Gasse",
            "bar": "yes",
            "name": "Sporthotel Kapfenberg",
            "restaurant": "yes",
            "rooms": "38",
            "tourism": "hotel"
          },
          "geometry": {
            "type": "Point",
            "coordinates": [
              15.2999638,
              47.4449127
            ]
          }
        },
        {
          "type": "Feature",
          "properties": {
            "id": "1496675486",
            "osm_type": "node",
            "lat": 47.5586816,
            "lon": 15.3367764,
            "name": "Gasthof Marktwirt",
            "phone": "+43 3863 22150",
            "stars": "3",
            "tourism": "hotel",
            "website": "http://www.marktwirt-turnau.at"
          },
          "geometry": {
            "type": "Point",
            "coordinates": [
              15.3367764,
              47.5586816
            ]
          }
        },
        {
          "type": "Feature",
          "properties": {
            "id": "2102118264",
            "osm_type": "node",
            "lat": 47.675122,
            "lon": 15.4913888,
            "addr:city": "Neuberg an der Mürz",
            "addr:country": "AT",
            "addr:housenumber": "4",
            "addr:place": "Mürzsteg",
            "addr:postcode": "8693",
            "at_bev:addr_date": "2017-04-07",
            "contact:email": "reception@appelhof.at",
            "contact:phone": "+43 3859 2223",
            "name": "Appelhof",
            "source": "hias001",
            "tourism": "hotel",
            "website": "https://www.appelhof.at/"
          },
          "geometry": {
            "type": "Point",
            "coordinates": [
              15.4913888,
              47.675122
            ]
          }
        },
        {
          "type": "Feature",
          "properties": {
            "id": "2561452313",
            "osm_type": "node",
            "lat": 47.6182603,
            "lon": 15.2713086,
            "name": "Hotel Restaurant Seeberghof",
            "tourism": "hotel"
          },
          "geometry": {
            "type": "Point",
            "coordinates": [
              15.2713086,
              47.6182603
            ]
          }
        },
        {
          "type": "Feature",
          "properties": {
            "id": "2561452471",
            "osm_type": "node",
            "lat": 47.616484,
            "lon": 15.2753413,
            "name": "Familien- & Jugendhotel Seetalerhof",
            "tourism": "hotel"
          },
          "geometry": {
            "type": "Point",
            "coordinates": [
              15.2753413,
              47.616484
            ]
          }
        },
        {
          "type": "Feature",
          "properties": {
            "id": "7288231250",
            "osm_type": "node",
            "lat": 47.408858,
            "lon": 15.270357,
            "addr:city": "Bruck an der Mur",
            "addr:country": "AT",
            "addr:housenumber": "7",
            "addr:postcode": "8600",
            "addr:street": "Ringelschmiedgasse",
            "at_bev:addr_date": "2019-10-01",
            "name": "Baderhaus",
            "phone": "+43 664 4218104",
            "tourism": "hotel"
          },
          "geometry": {
            "type": "Point",
            "coordinates": [
              15.270357,
              47.408858
            ]
          }
        },
        {
          "type": "Feature",
          "properties": {
            "id": "419250697",
            "osm_type": "node",
            "lat": 47.661436,
            "lon": 15.5793961,
            "name": "Gesundheitshof, Vitalhotel/Neuberg",
            "tourism": "hotel"
          },
          "geometry": {
            "type": "Point",
            "coordinates": [
              15.5793961,
              47.661436
            ]
          }
        },
        {
          "type": "Feature",
          "properties": {
            "id": "874494216",
            "osm_type": "node",
            "lat": 47.6069018,
            "lon": 15.6726175,
            "addr:city": "Mürzzuschlag",
            "addr:country": "AT",
            "addr:housenumber": "3",
            "addr:postcode": "8680",
            "addr:street": "Stadtplatz",
            "check_date": "2024-08-30",
            "contact:email": "office@hotel-winkler.at",
            "contact:phone": "+43 3852 42000",
            "name": "Hotel Winkler",
            "stars": "4",
            "tourism": "hotel",
            "website": "http://www.restaurant-winkler.at",
            "wheelchair": "yes"
          },
          "geometry": {
            "type": "Point",
            "coordinates": [
              15.6726175,
              47.6069018
            ]
          }
        },
        {
          "type": "Feature",
          "properties": {
            "id": "1777097924",
            "osm_type": "node",
            "lat": 47.4247375,
            "lon": 15.784703,
            "addr:city": "Wenigzell",
            "addr:housenumber": "14",
            "addr:postcode": "8254",
            "addr:street": "Pittermann",
            "bar": "yes",
            "description": "Unser traditionell geführtes Hotel lädt zu einem erholsamen Urlaub inmitten der traumhaften Joglland Kulisse ein.\nMit Herzblut und Liebe führen wir das Hotel bereits in der dritten Generation. Als Gastgeberfamilie sind wir stets bemüht\nSie rundum zu verwö",
            "email": "info@jogllandhotel.at",
            "internet_access": "yes",
            "internet_access:fee": "no",
            "name": "Joglland Hotel Prettenhofer",
            "operator": "Herbert Prettenhofer",
            "payment:cash": "yes",
            "payment:maestro": "yes",
            "payment:mastercard": "yes",
            "payment:visa": "yes",
            "phone": "+43 33 36 22 06",
            "stars": "3",
            "tourism": "hotel",
            "website": "https://www.jogllandhotel.at/"
          },
          "geometry": {
            "type": "Point",
            "coordinates": [
              15.784703,
              47.4247375
            ]
          }
        },
        {
          "type": "Feature",
          "properties": {
            "id": "1785292470",
            "osm_type": "node",
            "lat": 47.414149,
            "lon": 15.9739402,
            "tourism": "hotel",
            "wheelchair": "limited"
          },
          "geometry": {
            "type": "Point",
            "coordinates": [
              15.9739402,
              47.414149
            ]
          }
        },
        {
          "type": "Feature",
          "properties": {
            "id": "3458988426",
            "osm_type": "node",
            "lat": 47.5441424,
            "lon": 15.5590298,
            "addr:country": "AT",
            "addr:housenumber": "17",
            "addr:postcode": "8670",
            "addr:street": "Erzherzog-Johann-Straße",
            "name": "Stocker",
            "phone": "+433855 2243",
            "tourism": "hotel",
            "website": "https://stockers-hotel.at/",
            "wheelchair": "no"
          },
          "geometry": {
            "type": "Point",
            "coordinates": [
              15.5590298,
              47.5441424
            ]
          }
        },
        {
          "type": "Feature",
          "properties": {
            "id": "5147466058",
            "osm_type": "node",
            "lat": 47.3850175,
            "lon": 15.7647237,
            "addr:city": "Miesenbach bei Birkfeld",
            "addr:housenumber": "64",
            "addr:place": "Bergviertel",
            "addr:postcode": "8190",
            "name": "Fastenhaus Dunst",
            "tourism": "hotel"
          },
          "geometry": {
            "type": "Point",
            "coordinates": [
              15.7647237,
              47.3850175
            ]
          }
        },
        {
          "type": "Feature",
          "properties": {
            "id": "7395402820",
            "osm_type": "node",
            "lat": 47.4267354,
            "lon": 15.7860044,
            "name": "Hotel-Gasthof Fast",
            "tourism": "hotel"
          },
          "geometry": {
            "type": "Point",
            "coordinates": [
              15.7860044,
              47.4267354
            ]
          }
        },
        {
          "type": "Feature",
          "properties": {
            "id": "8119369157",
            "osm_type": "node",
            "lat": 47.6627694,
            "lon": 15.5775324,
            "addr:city": "Neuberg an der Mürz",
            "addr:country": "AT",
            "addr:housenumber": "1",
            "addr:place": "Stift Neuberg",
            "addr:postcode": "8692",
            "at_bev:addr_date": "2020-10-01",
            "contact:email": "office@hotel-im-stift.at",
            "contact:phone": "+43 664 416 75 95",
            "contact:website": "https://gps.arttex.at",
            "name": "Hotel im Stift Neuberg",
            "tourism": "hotel"
          },
          "geometry": {
            "type": "Point",
            "coordinates": [
              15.5775324,
              47.6627694
            ]
          }
        },
        {
          "type": "Feature",
          "properties": {
            "id": "9020966231",
            "osm_type": "node",
            "lat": 47.5685537,
            "lon": 15.6202191,
            "addr:city": "Langenwang",
            "addr:housenumber": "12",
            "addr:postcode": "8665",
            "addr:street": "Grazer Straße",
            "email": "restaurant@hotel-krainer.com",
            "internet_access": "wlan",
            "internet_access:fee": "no",
            "name": "Hotel Krainer",
            "operator": "Krainer GmbH",
            "phone": "+43 3854 2022",
            "ref:vatin": "ATU62075667",
            "stars": "4",
            "tourism": "hotel",
            "website": "https://www.hotel-krainer.com",
            "wheelchair": "no"
          },
          "geometry": {
            "type": "Point",
            "coordinates": [
              15.6202191,
              47.5685537
            ]
          }
        },
        {
          "type": "Feature",
          "properties": {
            "id": "11637492673",
            "osm_type": "node",
            "lat": 47.6922748,
            "lon": 15.8557351,
            "name": "Hotel Zemlinsky Hof",
            "tourism": "hotel"
          },
          "geometry": {
            "type": "Point",
            "coordinates": [
              15.8557351,
              47.6922748
            ]
          }
        },
        {
          "type": "Feature",
          "properties": {
            "id": "12785230036",
            "osm_type": "node",
            "lat": 47.6419859,
            "lon": 15.8681755,
            "addr:housenumber": "11",
            "addr:street": "L4168",
            "email": "rezeption@klosterkrapfen.at",
            "internet_access": "wlan",
            "internet_access:fee": "no",
            "name": "Kirchenwirt Fam. Auer GmbH",
            "phone": "+43 2663 8206",
            "tourism": "hotel",
            "website": "https://klosterkrapfen.at/"
          },
          "geometry": {
            "type": "Point",
            "coordinates": [
              15.8681755,
              47.6419859
            ]
          }
        },
        {
          "type": "Feature",
          "properties": {
            "id": "441565886",
            "osm_type": "node",
            "lat": 47.457221,
            "lon": 16.1547277,
            "addr:city": "Hochneukirchen-Gschaidt",
            "addr:housenumber": "20",
            "addr:place": "Gschaidt",
            "addr:postcode": "2852",
            "name": "Gasthaus Höller",
            "tourism": "hotel"
          },
          "geometry": {
            "type": "Point",
            "coordinates": [
              16.1547277,
              47.457221
            ]
          }
        },
        {
          "type": "Feature",
          "properties": {
            "id": "1796177632",
            "osm_type": "node",
            "lat": 47.5386151,
            "lon": 16.131199,
            "addr:city": "Zöbern",
            "addr:housenumber": "60",
            "addr:place": "Kampichl",
            "addr:postcode": "2871",
            "name": "Kloster NaturSinne",
            "phone": "+43 681 10379488",
            "tourism": "hotel"
          },
          "geometry": {
            "type": "Point",
            "coordinates": [
              16.131199,
              47.5386151
            ]
          }
        },
        {
          "type": "Feature",
          "properties": {
            "id": "1802805561",
            "osm_type": "node",
            "lat": 47.5634722,
            "lon": 16.1019152,
            "name": "Gasthof Pension Baumgartner",
            "phone": "+43 2642 52490",
            "tourism": "hotel",
            "website": "http://www.bami.at"
          },
          "geometry": {
            "type": "Point",
            "coordinates": [
              16.1019152,
              47.5634722
            ]
          }
        },
        {
          "type": "Feature",
          "properties": {
            "id": "3491030928",
            "osm_type": "node",
            "lat": 47.652997,
            "lon": 16.1274216,
            "name": "Pension Senninger",
            "tourism": "hotel"
          },
          "geometry": {
            "type": "Point",
            "coordinates": [
              16.1274216,
              47.652997
            ]
          }
        },
        {
          "type": "Feature",
          "properties": {
            "id": "4425621229",
            "osm_type": "node",
            "lat": 47.5115685,
            "lon": 16.1318319,
            "name": "Gästehaus Gansterer",
            "tourism": "hotel"
          },
          "geometry": {
            "type": "Point",
            "coordinates": [
              16.1318319,
              47.5115685
            ]
          }
        },
        {
          "type": "Feature",
          "properties": {
            "id": "5728819244",
            "osm_type": "node",
            "lat": 47.5116799,
            "lon": 16.0326442,
            "name": "Sonnenhof Hechtl",
            "tourism": "hotel",
            "website": "http://www.sonnenhof-hechtl.at"
          },
          "geometry": {
            "type": "Point",
            "coordinates": [
              16.0326442,
              47.5116799
            ]
          }
        },
        {
          "type": "Feature",
          "properties": {
            "id": "10309272754",
            "osm_type": "node",
            "lat": 47.5977465,
            "lon": 16.0557716,
            "addr:city": "Feistritz am Wechsel",
            "addr:country": "AT",
            "addr:housenumber": "1",
            "addr:place": "Feistritz am Wechsel",
            "addr:postcode": "2873",
            "description": "Seminarhotel",
            "name": "Burg Feistritz",
            "tourism": "hotel",
            "website": "https://www.burgfeistritz.com/"
          },
          "geometry": {
            "type": "Point",
            "coordinates": [
              16.0557716,
              47.5977465
            ]
          }
        }
      ],
      "children": []
    },
    {
      "bbox": {
        "south": 47.36431175,
        "west": 16.2068765,
        "north": 47.694865,
        "east": 17.16058
      },
      "poiCount": 33,
      "leafCount": 33,
      "averagePosition": [
        16.66548232121212,
        47.524892706060605
      ],
      "data": [
        {
          "type": "Feature",
          "properties": {
            "id": "4933474068",
            "osm_type": "node",
            "lat": 47.3673373,
            "lon": 16.8159112,
            "fixme": "verify",
            "name": "Erthard Panzió",
            "source": "route4u",
            "toilets:wheelchair": "no",
            "tourism": "hotel",
            "wheelchair": "no"
          },
          "geometry": {
            "type": "Point",
            "coordinates": [
              16.8159112,
              47.3673373
            ]
          }
        },
        {
          "type": "Feature",
          "properties": {
            "id": "482763793",
            "osm_type": "node",
            "lat": 47.5018732,
            "lon": 16.2967479,
            "name": "Hotel Post, Fam. Hönig",
            "phone": "+4326462216",
            "tourism": "hotel",
            "website": "https://www.hotel-post-hoenig.at/"
          },
          "geometry": {
            "type": "Point",
            "coordinates": [
              16.2967479,
              47.5018732
            ]
          }
        },
        {
          "type": "Feature",
          "properties": {
            "id": "1366517406",
            "osm_type": "node",
            "lat": 47.5061488,
            "lon": 16.3483942,
            "name": "Ferienresort urlaubs-oase",
            "tourism": "hotel",
            "website": "www.urlaubs-oase.com"
          },
          "geometry": {
            "type": "Point",
            "coordinates": [
              16.3483942,
              47.5061488
            ]
          }
        },
        {
          "type": "Feature",
          "properties": {
            "id": "2084155238",
            "osm_type": "node",
            "lat": 47.5063691,
            "lon": 16.3480871,
            "addr:city": "Karl",
            "addr:housenumber": "5",
            "addr:postcode": "7372",
            "addr:street": "Mühlbachgasse",
            "name": "Urlaubsoase",
            "tourism": "hotel",
            "website": "http://www.urlaubs-oase.com",
            "wheelchair": "yes"
          },
          "geometry": {
            "type": "Point",
            "coordinates": [
              16.3480871,
              47.5063691
            ]
          }
        },
        {
          "type": "Feature",
          "properties": {
            "id": "5804443632",
            "osm_type": "node",
            "lat": 47.5872487,
            "lon": 16.4676194,
            "addr:city": "Lackenbach",
            "addr:housenumber": "1",
            "addr:postcode": "7322",
            "addr:street": "Schloss",
            "name": "Hotel Zum Oberjäger",
            "tourism": "hotel",
            "wikimedia_commons": "Category:Schloss Lackenbach - Gästehaus Oberjäger"
          },
          "geometry": {
            "type": "Point",
            "coordinates": [
              16.4676194,
              47.5872487
            ]
          }
        },
        {
          "type": "Feature",
          "properties": {
            "id": "5870389085",
            "osm_type": "node",
            "lat": 47.4065295,
            "lon": 16.4174742,
            "name": "Pension Geschriebenstein",
            "tourism": "hotel"
          },
          "geometry": {
            "type": "Point",
            "coordinates": [
              16.4174742,
              47.4065295
            ]
          }
        },
        {
          "type": "Feature",
          "properties": {
            "id": "441720111",
            "osm_type": "node",
            "lat": 47.6837043,
            "lon": 16.592408,
            "addr:city": "Sopron",
            "addr:housenumber": "75",
            "addr:postcode": "9400",
            "addr:street": "Várkerület",
            "contact:fax": "+36 99 340 766",
            "email": "sopron@hotelpannonia.com",
            "name": "Pannonia",
            "phone": "+36 99 312 180",
            "source": "local_knowledge",
            "stars": "4",
            "tourism": "hotel",
            "website": "https://pannoniahotel.com/",
            "wheelchair": "no"
          },
          "geometry": {
            "type": "Point",
            "coordinates": [
              16.592408,
              47.6837043
            ]
          }
        },
        {
          "type": "Feature",
          "properties": {
            "id": "871180854",
            "osm_type": "node",
            "lat": 47.5126709,
            "lon": 16.5705427,
            "addr:city": "Nebersdorf",
            "addr:country": "AT",
            "addr:housenumber": "95",
            "addr:street": "Nebersdorfer Hauptstraße",
            "email": "pension.schlossblick@aon.at",
            "fax": "+43 2614 2351 4",
            "name": "Pension Schlossblick",
            "phone": "+43 2614 2351",
            "stars": "3",
            "tourism": "hotel"
          },
          "geometry": {
            "type": "Point",
            "coordinates": [
              16.5705427,
              47.5126709
            ]
          }
        },
        {
          "type": "Feature",
          "properties": {
            "id": "871558468",
            "osm_type": "node",
            "lat": 47.6708425,
            "lon": 16.5753059,
            "addr:city": "Sopron",
            "addr:housenumber": "37",
            "addr:postcode": "9400",
            "addr:street": "Lővér körút",
            "contact:fax": "+36 99 314 461",
            "email": "reserve@hotelszieszta.hu",
            "internet_access": "wlan",
            "internet_access:fee": "no",
            "name": "Hotel Szieszta",
            "phone": "+36 99 314 260",
            "smoking": "outside",
            "stars": "3",
            "tourism": "hotel",
            "website": "https://hotelszieszta.hu/",
            "wheelchair": "no"
          },
          "geometry": {
            "type": "Point",
            "coordinates": [
              16.5753059,
              47.6708425
            ]
          }
        },
        {
          "type": "Feature",
          "properties": {
            "id": "1183415722",
            "osm_type": "node",
            "lat": 47.4660776,
            "lon": 16.5834397,
            "addr:city": "Frankenau-Unterpullendorf",
            "addr:country": "AT",
            "addr:housenumber": "62",
            "addr:place": "Großmutschen",
            "addr:postcode": "7452",
            "at_bev:addr_date": "2018-10-01",
            "contact:phone": "+43 2615 813 13",
            "name": "Hotel-Pension ANGERER",
            "tourism": "hotel",
            "website": "http://www.hotel-angerer.at"
          },
          "geometry": {
            "type": "Point",
            "coordinates": [
              16.5834397,
              47.4660776
            ]
          }
        },
        {
          "type": "Feature",
          "properties": {
            "id": "1415548592",
            "osm_type": "node",
            "lat": 47.3882615,
            "lon": 16.5426615,
            "check_date": "2025-08-16",
            "name": "Hotel Írottkő",
            "tourism": "hotel",
            "wheelchair": "yes"
          },
          "geometry": {
            "type": "Point",
            "coordinates": [
              16.5426615,
              47.3882615
            ]
          }
        },
        {
          "type": "Feature",
          "properties": {
            "id": "1415548603",
            "osm_type": "node",
            "lat": 47.3877687,
            "lon": 16.5415192,
            "name": "Arany Strucc Szálloda",
            "tourism": "hotel"
          },
          "geometry": {
            "type": "Point",
            "coordinates": [
              16.5415192,
              47.3877687
            ]
          }
        },
        {
          "type": "Feature",
          "properties": {
            "id": "1779316971",
            "osm_type": "node",
            "lat": 47.389153,
            "lon": 16.7812579,
            "internet_access": "yes",
            "internet_access:fee": "no",
            "name": "Greenfield",
            "smoking": "no",
            "tourism": "hotel",
            "website": "http://www.greenfieldgolf.net"
          },
          "geometry": {
            "type": "Point",
            "coordinates": [
              16.7812579,
              47.389153
            ]
          }
        },
        {
          "type": "Feature",
          "properties": {
            "id": "2313026028",
            "osm_type": "node",
            "lat": 47.619778,
            "lon": 16.8647112,
            "addr:city": "Fertőd",
            "addr:housenumber": "4",
            "addr:postcode": "9431",
            "addr:street": "Fő út",
            "internet_access": "wlan",
            "internet_access:fee": "no",
            "name": "Hotel - Patonai Panzió",
            "tourism": "hotel"
          },
          "geometry": {
            "type": "Point",
            "coordinates": [
              16.8647112,
              47.619778
            ]
          }
        },
        {
          "type": "Feature",
          "properties": {
            "id": "2413742277",
            "osm_type": "node",
            "lat": 47.683509,
            "lon": 16.5848178,
            "addr:city": "Sopron",
            "addr:housenumber": "33",
            "addr:postcode": "9400",
            "addr:street": "II. Rákóczi Ferenc utca",
            "contact:fax": "+36 99 788 229",
            "email": "info@civitashotel.com",
            "name": "Civitas",
            "phone": "+36 99 788 228",
            "tourism": "hotel",
            "website": "https://civitashotel.com/"
          },
          "geometry": {
            "type": "Point",
            "coordinates": [
              16.5848178,
              47.683509
            ]
          }
        },
        {
          "type": "Feature",
          "properties": {
            "id": "2810725482",
            "osm_type": "node",
            "lat": 47.5589359,
            "lon": 16.8344492,
            "addr:city": "Röjtökmuzsaj",
            "addr:housenumber": "37",
            "addr:postcode": "9451",
            "addr:street": "Röjtöki utca",
            "bar": "yes",
            "email": "szidonia@szidonia.hu",
            "internet_access": "wlan",
            "internet_access:fee": "customers",
            "internet_access:ssid": "WIFI",
            "name": "Szidónia Kastélyszálloda",
            "phone": "+36 99 544 810",
            "rooms": "31",
            "smoking": "outside",
            "stars": "4",
            "tourism": "hotel",
            "website": "https://szidonia.hu/",
            "wheelchair": "yes"
          },
          "geometry": {
            "type": "Point",
            "coordinates": [
              16.8344492,
              47.5589359
            ]
          }
        },
        {
          "type": "Feature",
          "properties": {
            "id": "3029799016",
            "osm_type": "node",
            "lat": 47.3832557,
            "lon": 16.7880776,
            "building": "yes",
            "name": "Apartman Hotel",
            "tourism": "hotel"
          },
          "geometry": {
            "type": "Point",
            "coordinates": [
              16.7880776,
              47.3832557
            ]
          }
        },
        {
          "type": "Feature",
          "properties": {
            "id": "3066576725",
            "osm_type": "node",
            "lat": 47.6850797,
            "lon": 16.5745209,
            "addr:city": "Sopron",
            "addr:housenumber": "1",
            "addr:postcode": "9400",
            "addr:street": "Baross út",
            "contact:fax": "+36 99 523 525",
            "email": "info@mandarinhotel.hu",
            "name": "Mandarin",
            "phone": "+36 99 523 524",
            "tourism": "hotel",
            "website": "http://www.mandarinhotel.hu/"
          },
          "geometry": {
            "type": "Point",
            "coordinates": [
              16.5745209,
              47.6850797
            ]
          }
        },
        {
          "type": "Feature",
          "properties": {
            "id": "3069311042",
            "osm_type": "node",
            "lat": 47.6744109,
            "lon": 16.5774754,
            "addr:city": "Sopron",
            "addr:housenumber": "38",
            "addr:postcode": "9400",
            "addr:street": "Panoráma út",
            "email": "panorama@panoramasopron.t-online.hu",
            "name": "Panoráma",
            "phone": "+36 99 312 745",
            "tourism": "hotel",
            "website": "http://panoramahotel.mindenkilapja.hu/"
          },
          "geometry": {
            "type": "Point",
            "coordinates": [
              16.5774754,
              47.6744109
            ]
          }
        },
        {
          "type": "Feature",
          "properties": {
            "id": "3069512555",
            "osm_type": "node",
            "lat": 47.6766465,
            "lon": 16.5738682,
            "addr:city": "Sopron",
            "addr:housenumber": "12",
            "addr:postcode": "9400",
            "addr:street": "Honvéd út",
            "contact:fax": "+36 99 311 688",
            "email": "info@solarclubhotel.hu",
            "name": "Solar Apartman Club Hotel",
            "phone": "+36 99 311 675",
            "tourism": "hotel",
            "website": "http://solarclubhotel.hu/"
          },
          "geometry": {
            "type": "Point",
            "coordinates": [
              16.5738682,
              47.6766465
            ]
          }
        },
        {
          "type": "Feature",
          "properties": {
            "id": "3465143518",
            "osm_type": "node",
            "lat": 47.389597,
            "lon": 16.540191,
            "name": "Benedict Hotel",
            "stars": "4",
            "tourism": "hotel"
          },
          "geometry": {
            "type": "Point",
            "coordinates": [
              16.540191,
              47.389597
            ]
          }
        },
        {
          "type": "Feature",
          "properties": {
            "id": "3466253962",
            "osm_type": "node",
            "lat": 47.621134,
            "lon": 16.7855406,
            "addr:city": "Hegykő",
            "addr:housenumber": "74",
            "addr:postcode": "9437",
            "addr:street": "Kossuth Lajos utca",
            "air_conditioning": "yes",
            "contact:facebook": "https://www.facebook.com/tornacos",
            "email": "info@tornacos.hu",
            "internet_access": "wlan",
            "internet_access:fee": "no",
            "name": "Tornácos Hotel",
            "phone": "+36 99 540 200",
            "reservation": "recommended",
            "rooms": "23",
            "source:date": "2015-01-15",
            "stars": "3_superior",
            "toilets:wheelchair": "no",
            "tourism": "hotel",
            "website": "https://www.tornacos.hu/",
            "wheelchair": "limited"
          },
          "geometry": {
            "type": "Point",
            "coordinates": [
              16.7855406,
              47.621134
            ]
          }
        },
        {
          "type": "Feature",
          "properties": {
            "id": "3466299233",
            "osm_type": "node",
            "lat": 47.5938818,
            "lon": 17.023248,
            "fixme": "resurvey (source was old)",
            "name": "Hanság Szálloda",
            "source": "turistautak.hu",
            "source:date": "2009-11-12",
            "tourism": "hotel",
            "url": "http://turistautak.hu/poi.php?id=81831"
          },
          "geometry": {
            "type": "Point",
            "coordinates": [
              17.023248,
              47.5938818
            ]
          }
        },
        {
          "type": "Feature",
          "properties": {
            "id": "4132489689",
            "osm_type": "node",
            "lat": 47.6897554,
            "lon": 16.6071689,
            "addr:city": "Sopron",
            "addr:housenumber": "2",
            "addr:postcode": "9400",
            "addr:street": "Faller Jenő utca",
            "name": "Gold Apartmanház",
            "opening_hours": "24/7",
            "phone": "+36 30 900 8844",
            "tourism": "hotel"
          },
          "geometry": {
            "type": "Point",
            "coordinates": [
              16.6071689,
              47.6897554
            ]
          }
        },
        {
          "type": "Feature",
          "properties": {
            "id": "7045877966",
            "osm_type": "node",
            "lat": 47.4097585,
            "lon": 16.7222831,
            "name": "Hotel Öreg Malom",
            "tourism": "hotel"
          },
          "geometry": {
            "type": "Point",
            "coordinates": [
              16.7222831,
              47.4097585
            ]
          }
        },
        {
          "type": "Feature",
          "properties": {
            "id": "7256151532",
            "osm_type": "node",
            "lat": 47.388487,
            "lon": 16.5420225,
            "name": "Portré étterem és panzió",
            "rooms": "10",
            "tourism": "hotel"
          },
          "geometry": {
            "type": "Point",
            "coordinates": [
              16.5420225,
              47.388487
            ]
          }
        },
        {
          "type": "Feature",
          "properties": {
            "id": "7824426584",
            "osm_type": "node",
            "lat": 47.4008692,
            "lon": 16.706745,
            "contact:phone": "+36 20 911 2102",
            "contact:website": "http://www.pansio.hu",
            "name": "Hangya Restaurant Pension",
            "stars": "3",
            "tourism": "hotel"
          },
          "geometry": {
            "type": "Point",
            "coordinates": [
              16.706745,
              47.4008692
            ]
          }
        },
        {
          "type": "Feature",
          "properties": {
            "id": "8350199224",
            "osm_type": "node",
            "lat": 47.6215141,
            "lon": 16.7874898,
            "addr:city": "Hegykő",
            "addr:housenumber": "97",
            "addr:postcode": "9437",
            "addr:street": "Kossuth Lajos utca",
            "contact:facebook": "https://www.facebook.com/tornacos",
            "email": "info@tornacos.hu",
            "internet_access": "wlan",
            "internet_access:fee": "no",
            "name": "Tornácos Lifestyle Hotel",
            "phone": "+36 99 540 200",
            "rooms": "11",
            "stars": "3_superior",
            "tourism": "hotel",
            "website": "https://www.tornacos.hu"
          },
          "geometry": {
            "type": "Point",
            "coordinates": [
              16.7874898,
              47.6215141
            ]
          }
        },
        {
          "type": "Feature",
          "properties": {
            "id": "10166624482",
            "osm_type": "node",
            "lat": 47.3823289,
            "lon": 16.7513315,
            "name": "Park Hotel",
            "tourism": "hotel"
          },
          "geometry": {
            "type": "Point",
            "coordinates": [
              16.7513315,
              47.3823289
            ]
          }
        },
        {
          "type": "Feature",
          "properties": {
            "id": "10655737705",
            "osm_type": "node",
            "lat": 47.4653009,
            "lon": 16.6442152,
            "addr:housenumber": "1",
            "addr:postcode": "7361",
            "addr:street": "Thermenstraße",
            "contact:facebook": "thermenhof",
            "contact:instagram": "thermenhof_lutzmannsburg",
            "email": "office@thermenhof-lutzmannsburg.com",
            "internet_access": "wlan",
            "name": "Thermenhof Lutzmannsburg",
            "phone": "+43 2615 87711",
            "tourism": "hotel",
            "website": "https://thermenhof-lutzmannsburg.com/"
          },
          "geometry": {
            "type": "Point",
            "coordinates": [
              16.6442152,
              47.4653009
            ]
          }
        },
        {
          "type": "Feature",
          "properties": {
            "id": "2822178464",
            "osm_type": "node",
            "lat": 47.5976399,
            "lon": 17.0372475,
            "tourism": "hotel"
          },
          "geometry": {
            "type": "Point",
            "coordinates": [
              17.0372475,
              47.5976399
            ]
          }
        },
        {
          "type": "Feature",
          "properties": {
            "id": "2822178470",
            "osm_type": "node",
            "lat": 47.5910305,
            "lon": 17.0390768,
            "name": "Szent Kristóf",
            "tourism": "hotel"
          },
          "geometry": {
            "type": "Point",
            "coordinates": [
              17.0390768,
              47.5910305
            ]
          }
        },
        {
          "type": "Feature",
          "properties": {
            "id": "3439644694",
            "osm_type": "node",
            "lat": 47.5145613,
            "lon": 17.0950675,
            "contact:phone": "+36 96 599 216",
            "description": "Cím: 9342 Mihályi, Korona u. 1. FIGYELEM! A Hotelben felújítás folyik, ezért zárva tart! Amint információm lesz a nyitásról, közlöm az új adatokat. NZs",
            "fixme": "resurvey (source was old)",
            "name": "Mihályi Kastélyhotel",
            "source": "turistautak.hu",
            "source:date": "2009-11-25",
            "tourism": "hotel",
            "url": "http://turistautak.hu/poi.php?id=3279"
          },
          "geometry": {
            "type": "Point",
            "coordinates": [
              17.0950675,
              47.5145613
            ]
          }
        }
      ],
      "children": []
    }
  ]
}