{
  "bbox": {
    "south": 48.355971499999995,
    "west": 15.253173,
    "north": 49.017078,
    "east": 17.16058
  },
  "poiCount": 136,
  "leafCount": 0,
  "averagePosition": [
    16.252337483823528,
    48.70035366323529
  ],
  "data": [],
  "children": [
    {
      "bbox": {
        "south": 48.355971499999995,
        "west": 15.253173,
        "north": 48.68652475,
        "east": 16.2068765
      },
      "poiCount": 40,
      "leafCount": 40,
      "averagePosition": [
        15.6464670825,
        48.4599349675
      ],
      "data": [
        {
          "type": "Feature",
          "properties": {
            "id": "1472286830",
            "osm_type": "node",
            "lat": 48.3627772,
            "lon": 15.4306134,
            "addr:city": "Rossatz-Arnsdorf",
            "addr:country": "AT",
            "addr:housenumber": "55",
            "addr:place": "Mitterarnsdorf",
            "addr:postcode": "3621",
            "at_bev:addr_date": "2021-10-01",
            "email": "zeller@gasthofzurwachau.at",
            "name": "Gasthof zur Wachau",
            "operator": "Familie Zeller",
            "phone": "+43 2714 8217",
            "tourism": "hotel",
            "website": "https://www.gasthofzurwachau.at/"
          },
          "geometry": {
            "type": "Point",
            "coordinates": [
              15.4306134,
              48.3627772
            ]
          }
        },
        {
          "type": "Feature",
          "properties": {
            "id": "7425858037",
            "osm_type": "node",
            "lat": 48.3609042,
            "lon": 15.4025209,
            "addr:city": "Spitz",
            "addr:country": "AT",
            "addr:housenumber": "30",
            "addr:postcode": "3620",
            "addr:street": "Ottenschlägerstraße",
            "email": "hotel@weinhotel-wachau.at",
            "internet_access": "wlan",
            "internet_access:fee": "no",
            "name": "Stierschneiders Weinhotel Wachau",
            "operator": "Ewald Stierschneider",
            "phone": "+43 2713 2254",
            "rooms": "4",
            "stars": "3",
            "tourism": "hotel",
            "website": "https://www.weinhotel-wachau.at/"
          },
          "geometry": {
            "type": "Point",
            "coordinates": [
              15.4025209,
              48.3609042
            ]
          }
        },
        {
          "type": "Feature",
          "properties": {
            "id": "8932607539",
            "osm_type": "node",
            "lat": 48.3721966,
            "lon": 15.3422587,
            "contact:phone": "+43 2713 301 90",
            "name": "LA PETITE IVY",
            "tourism": "hotel"
          },
          "geometry": {
            "type": "Point",
            "coordinates": [
              15.3422587,
              48.3721966
            ]
          }
        },
        {
          "type": "Feature",
          "properties": {
            "id": "13031570880",
            "osm_type": "node",
            "lat": 48.3650432,
            "lon": 15.415757,
            "name": "Barock-Landhof Burkhardt",
            "tourism": "hotel"
          },
          "geometry": {
            "type": "Point",
            "coordinates": [
              15.415757,
              48.3650432
            ]
          }
        },
        {
          "type": "Feature",
          "properties": {
            "id": "1738917510",
            "osm_type": "node",
            "lat": 48.3960502,
            "lon": 15.4718287,
            "addr:city": "Weißenkirchen in der Wachau",
            "addr:country": "AT",
            "addr:housenumber": "54",
            "addr:postcode": "3610",
            "addr:street": "Freisingerplatz",
            "internet_access": "wlan",
            "internet_access:fee": "no",
            "name": "Renaissancehotel Raffelsberger Hof",
            "phone": "+43 2715 2201",
            "tourism": "hotel",
            "website": "https://www.raffelsbergerhof.at/"
          },
          "geometry": {
            "type": "Point",
            "coordinates": [
              15.4718287,
              48.3960502
            ]
          }
        },
        {
          "type": "Feature",
          "properties": {
            "id": "1923772142",
            "osm_type": "node",
            "lat": 48.3953223,
            "lon": 15.4688829,
            "addr:city": "Weißenkirchen in der Wachau",
            "addr:country": "AT",
            "addr:housenumber": "238",
            "addr:postcode": "3610",
            "addr:street": "Landstraße",
            "name": "Boutiquehotel Weinquadrat",
            "operator": "Gisela & Anton Schöpf",
            "phone": "+43 2715 200 08",
            "stars": "4",
            "tourism": "hotel",
            "website": "https://www.weinquadrat.at",
            "wheelchair": "limited"
          },
          "geometry": {
            "type": "Point",
            "coordinates": [
              15.4688829,
              48.3953223
            ]
          }
        },
        {
          "type": "Feature",
          "properties": {
            "id": "1992110449",
            "osm_type": "node",
            "lat": 48.3985349,
            "lon": 15.4684373,
            "addr:city": "Weißenkirchen in der Wachau",
            "addr:country": "AT",
            "addr:housenumber": "83",
            "addr:postcode": "3610",
            "addr:street": "Obere Bachgasse",
            "name": "\"Ur-Wachau\"",
            "stars": "4",
            "tourism": "hotel",
            "website": "https://www.ur-wachau.at/"
          },
          "geometry": {
            "type": "Point",
            "coordinates": [
              15.4684373,
              48.3985349
            ]
          }
        },
        {
          "type": "Feature",
          "properties": {
            "id": "2348402235",
            "osm_type": "node",
            "lat": 48.6124203,
            "lon": 15.485632,
            "addr:city": "Pölla",
            "addr:housenumber": "2",
            "addr:place": "Wegscheid am Kamp",
            "addr:postcode": "3593",
            "contact:email": "g.steinhauer@gmx.at",
            "contact:phone": "+43 2731 237",
            "contact:website": "http://www.hotelwegscheidhof.at",
            "name": "Hotel Wegscheidhof",
            "opening_hours": "Tu-Su 11:30-14:00,18:00-21:00; PH",
            "tourism": "hotel"
          },
          "geometry": {
            "type": "Point",
            "coordinates": [
              15.485632,
              48.6124203
            ]
          }
        },
        {
          "type": "Feature",
          "properties": {
            "id": "3486875302",
            "osm_type": "node",
            "lat": 48.5806081,
            "lon": 15.4486457,
            "name": "Zimmervermietung Wegenstein",
            "tourism": "hotel"
          },
          "geometry": {
            "type": "Point",
            "coordinates": [
              15.4486457,
              48.5806081
            ]
          }
        },
        {
          "type": "Feature",
          "properties": {
            "id": "5732409414",
            "osm_type": "node",
            "lat": 48.3974595,
            "lon": 15.4694791,
            "name": "Kirchenwirt Arkadenhof",
            "phone": "+43 2715 23 32",
            "tourism": "hotel",
            "website": "http://kirchenwirt.weissenkirchen.at"
          },
          "geometry": {
            "type": "Point",
            "coordinates": [
              15.4694791,
              48.3974595
            ]
          }
        },
        {
          "type": "Feature",
          "properties": {
            "id": "5732409524",
            "osm_type": "node",
            "lat": 48.3978308,
            "lon": 15.4706193,
            "addr:city": "Weißenkirchen in der Wachau",
            "addr:country": "AT",
            "addr:housenumber": "17",
            "addr:postcode": "3610",
            "addr:street": "Kremser Straße",
            "name": "Hotel Kirchenwirt",
            "phone": "+43 2715 23 32",
            "stars": "4",
            "tourism": "hotel",
            "website": "http://kirchenwirt.weissenkirchen.at"
          },
          "geometry": {
            "type": "Point",
            "coordinates": [
              15.4706193,
              48.3978308
            ]
          }
        },
        {
          "type": "Feature",
          "properties": {
            "id": "6449233465",
            "osm_type": "node",
            "lat": 48.4072575,
            "lon": 15.5112979,
            "name": "Gartenhotel Pfeffel",
            "tourism": "hotel"
          },
          "geometry": {
            "type": "Point",
            "coordinates": [
              15.5112979,
              48.4072575
            ]
          }
        },
        {
          "type": "Feature",
          "properties": {
            "id": "6539827947",
            "osm_type": "node",
            "lat": 48.3941654,
            "lon": 15.4689049,
            "addr:city": "Weißenkirchen in der Wachau",
            "addr:country": "AT",
            "addr:housenumber": "298",
            "addr:postcode": "3610",
            "addr:street": "Donaugasse",
            "name": "Donauhof Hotel Garni",
            "phone": "+43 2715 2353",
            "tourism": "hotel",
            "website": "https://www.hotel-donauhof.at"
          },
          "geometry": {
            "type": "Point",
            "coordinates": [
              15.4689049,
              48.3941654
            ]
          }
        },
        {
          "type": "Feature",
          "properties": {
            "id": "289438822",
            "osm_type": "node",
            "lat": 48.5752809,
            "lon": 15.8227285,
            "addr:city": "Maissau",
            "addr:housenumber": "44",
            "addr:postcode": "3712",
            "addr:street": "Am Berg",
            "email": "zumnaderer@aon.at",
            "name": "Amethysthotel Mantler",
            "phone": "+43 (0)2958/82334",
            "tourism": "hotel",
            "website": "https://www.amethysthotel.cc/"
          },
          "geometry": {
            "type": "Point",
            "coordinates": [
              15.8227285,
              48.5752809
            ]
          }
        },
        {
          "type": "Feature",
          "properties": {
            "id": "415948469",
            "osm_type": "node",
            "lat": 48.4076553,
            "lon": 15.5846766,
            "addr:city": "Krems an der Donau",
            "addr:country": "AT",
            "addr:housenumber": "23",
            "addr:postcode": "3500",
            "addr:street": "Dr.-Karl-Dorrek-Straße",
            "email": "willkommen@arte-hotel.at",
            "name": "Arte Hotel Krems",
            "phone": "+43 2732 711-23",
            "toilets:wheelchair": "yes",
            "tourism": "hotel",
            "website": "https://www.arte-hotel.at/",
            "wheelchair": "yes"
          },
          "geometry": {
            "type": "Point",
            "coordinates": [
              15.5846766,
              48.4076553
            ]
          }
        },
        {
          "type": "Feature",
          "properties": {
            "id": "417329189",
            "osm_type": "node",
            "lat": 48.4126175,
            "lon": 15.6067168,
            "addr:city": "Krems an der Donau",
            "addr:country": "AT",
            "addr:housenumber": "10",
            "addr:postcode": "3500",
            "addr:street": "Wiener Straße",
            "check_date": "2025-06-26",
            "email": "hotel@klinglhuber.com",
            "name": "Hotel Klinglhuber",
            "phone": "+43 2732 869 60",
            "tourism": "hotel",
            "website": "http://klinglhuber.com"
          },
          "geometry": {
            "type": "Point",
            "coordinates": [
              15.6067168,
              48.4126175
            ]
          }
        },
        {
          "type": "Feature",
          "properties": {
            "id": "747199215",
            "osm_type": "node",
            "lat": 48.5728895,
            "lon": 15.8284536,
            "name": "Hotel Burger",
            "tourism": "hotel"
          },
          "geometry": {
            "type": "Point",
            "coordinates": [
              15.8284536,
              48.5728895
            ]
          }
        },
        {
          "type": "Feature",
          "properties": {
            "id": "1338195727",
            "osm_type": "node",
            "lat": 48.5197803,
            "lon": 15.6977082,
            "addr:city": "Schönberg am Kamp",
            "addr:country": "AT",
            "addr:housenumber": "38",
            "addr:postcode": "3562",
            "addr:street": "Hauptstraße",
            "designation": "Gasthof zur Schonenburg",
            "name": "Gasthof zur Schonenburg",
            "tourism": "hotel"
          },
          "geometry": {
            "type": "Point",
            "coordinates": [
              15.6977082,
              48.5197803
            ]
          }
        },
        {
          "type": "Feature",
          "properties": {
            "id": "1818951967",
            "osm_type": "node",
            "lat": 48.6657756,
            "lon": 15.6614994,
            "air_conditioning": "yes",
            "email": "hotel@blie.at",
            "internet_access": "wlan",
            "internet_access:fee": "no",
            "name": "Hotel Blie",
            "phone": "+43 2982/2257",
            "rooms": "34",
            "tourism": "hotel",
            "website": "https://www.hotelblie.at/"
          },
          "geometry": {
            "type": "Point",
            "coordinates": [
              15.6614994,
              48.6657756
            ]
          }
        },
        {
          "type": "Feature",
          "properties": {
            "id": "2013547970",
            "osm_type": "node",
            "lat": 48.430609,
            "lon": 15.7496156,
            "addr:city": "Kamp",
            "addr:country": "AT",
            "addr:housenumber": "12",
            "addr:place": "Grafenegg",
            "addr:postcode": "3485",
            "name": "Grafenegg Hotel",
            "operator": "Mörwald",
            "phone": "+43 2735 26160",
            "tourism": "hotel",
            "website": "https://www.moerwald.at/"
          },
          "geometry": {
            "type": "Point",
            "coordinates": [
              15.7496156,
              48.430609
            ]
          }
        },
        {
          "type": "Feature",
          "properties": {
            "id": "2106890329",
            "osm_type": "node",
            "lat": 48.4393755,
            "lon": 15.7864042,
            "addr:city": "Feuersbrunn",
            "addr:housenumber": "10",
            "addr:postcode": "3483",
            "addr:street": "Kleine Zeile",
            "check_date": "2023-12-17",
            "name": "Hotel „Villa Katharina“",
            "tourism": "hotel",
            "website": "https://www.moerwald.at/de/schlafen/house/8/"
          },
          "geometry": {
            "type": "Point",
            "coordinates": [
              15.7864042,
              48.4393755
            ]
          }
        },
        {
          "type": "Feature",
          "properties": {
            "id": "2675605002",
            "osm_type": "node",
            "lat": 48.3828198,
            "lon": 15.6147572,
            "addr:city": "Palt",
            "addr:country": "AT",
            "addr:housenumber": "12",
            "addr:postcode": "3511",
            "addr:street": "Hafnerstraße",
            "email": "hotel@malat.at",
            "name": "Malat Weingut und Hotel",
            "operator": "Michael Malat",
            "phone": "+43 2732 82934",
            "rooms": "10",
            "stars": "4",
            "tourism": "hotel",
            "website": "http://www.malat.at/"
          },
          "geometry": {
            "type": "Point",
            "coordinates": [
              15.6147572,
              48.3828198
            ]
          }
        },
        {
          "type": "Feature",
          "properties": {
            "id": "3415069537",
            "osm_type": "node",
            "lat": 48.3839038,
            "lon": 15.6146759,
            "addr:city": "Palt",
            "addr:country": "AT",
            "addr:housenumber": "239",
            "addr:postcode": "3511",
            "addr:street": "Zeughausgasse",
            "contact:email": "office@weinresidenz.at",
            "contact:fax": "+43 2732 70446-20",
            "contact:phone": "+43 2732 70446",
            "contact:website": "http://www.weinresidenz.at",
            "internet_access": "wlan",
            "internet_access:fee": "no",
            "name": "Hotel Weinresidenz Sonnleitner",
            "stars": "4",
            "tourism": "hotel"
          },
          "geometry": {
            "type": "Point",
            "coordinates": [
              15.6146759,
              48.3839038
            ]
          }
        },
        {
          "type": "Feature",
          "properties": {
            "id": "3472091105",
            "osm_type": "node",
            "lat": 48.3827892,
            "lon": 15.8626097,
            "addr:city": "Altenwörth",
            "addr:country": "AT",
            "addr:housenumber": "23",
            "addr:postcode": "3474",
            "addr:street": "Sigmarstraße",
            "name": "Weingut Waltner",
            "tourism": "hotel"
          },
          "geometry": {
            "type": "Point",
            "coordinates": [
              15.8626097,
              48.3827892
            ]
          }
        },
        {
          "type": "Feature",
          "properties": {
            "id": "4217510455",
            "osm_type": "node",
            "lat": 48.3949828,
            "lon": 15.5805625,
            "addr:city": "Mautern an der Donau",
            "addr:country": "AT",
            "addr:housenumber": "14",
            "addr:postcode": "3512",
            "addr:street": "Kainzstraße",
            "alt_name": "Gästehaus Nikolaihof - ad vineas KG",
            "email": "wohnen@nikolaihof.at",
            "name": "Gästehaus Nikolaihof",
            "phone": "+43 676 433 18 28",
            "tourism": "hotel",
            "website": "https://www.advineas.at/"
          },
          "geometry": {
            "type": "Point",
            "coordinates": [
              15.5805625,
              48.3949828
            ]
          }
        },
        {
          "type": "Feature",
          "properties": {
            "id": "4589166945",
            "osm_type": "node",
            "lat": 48.3760411,
            "lon": 15.6110255,
            "addr:city": "Furth bei Göttweig",
            "addr:country": "AT",
            "addr:housenumber": "1",
            "addr:postcode": "3511",
            "addr:street": "Untere Landstraße",
            "email": "hotel@wachau-burger.at",
            "name": "Gasthof Hotel Zur Goldenen Krone",
            "operator": "Anton Burger",
            "phone": "+43 2732 84666",
            "tourism": "hotel",
            "website": "https://www.wachau-burger.at/"
          },
          "geometry": {
            "type": "Point",
            "coordinates": [
              15.6110255,
              48.3760411
            ]
          }
        },
        {
          "type": "Feature",
          "properties": {
            "id": "4739938713",
            "osm_type": "node",
            "lat": 48.4392255,
            "lon": 15.786323,
            "addr:city": "Feuersbrunn",
            "addr:housenumber": "13-17",
            "addr:postcode": "3483",
            "addr:street": "Kleine Zeile",
            "brand": "Relais & Châteaux",
            "brand:wikidata": "Q1432809",
            "name": "Relais & Châteaux Hotel am Wagram",
            "tourism": "hotel",
            "website": "https://www.moerwald.at/de/schlafen/house/5/"
          },
          "geometry": {
            "type": "Point",
            "coordinates": [
              15.786323,
              48.4392255
            ]
          }
        },
        {
          "type": "Feature",
          "properties": {
            "id": "5155733817",
            "osm_type": "node",
            "lat": 48.4089766,
            "lon": 15.5821404,
            "addr:city": "Krems an der Donau",
            "addr:country": "AT",
            "addr:housenumber": "2",
            "addr:postcode": "3500",
            "addr:street": "Am Goldberg",
            "check_date": "2024-05-12",
            "email": "reservations@krems.steigenberger.at",
            "name": "Steigenberger Avance Hotel",
            "operator": "Steigenberger Hotel Group",
            "phone": "+43 2732 71010",
            "sauna": "yes",
            "swimming_pool": "indoor;outdoor",
            "tourism": "hotel",
            "website": "http://de.steigenberger.com"
          },
          "geometry": {
            "type": "Point",
            "coordinates": [
              15.5821404,
              48.4089766
            ]
          }
        },
        {
          "type": "Feature",
          "properties": {
            "id": "5167516564",
            "osm_type": "node",
            "lat": 48.4072985,
            "lon": 15.5937584,
            "addr:city": "Krems an der Donau",
            "addr:country": "AT",
            "addr:housenumber": "5",
            "addr:postcode": "3500",
            "addr:street": "Schillerstraße",
            "check_date": "2024-03-12",
            "contact:email": "hotel@udl.at",
            "contact:fax": "+43 2732 82115-20",
            "contact:phone": "+43 2732 82115",
            "contact:website": "http://www.udl.at",
            "internet_access": "wlan",
            "internet_access:fee": "no",
            "name": "Unter den Linden",
            "opening_hours": "07:30-20:00",
            "operator": "Familie Grech",
            "stars": "3",
            "tourism": "hotel"
          },
          "geometry": {
            "type": "Point",
            "coordinates": [
              15.5937584,
              48.4072985
            ]
          }
        },
        {
          "type": "Feature",
          "properties": {
            "id": "5173427003",
            "osm_type": "node",
            "lat": 48.4068728,
            "lon": 15.5987651,
            "addr:city": "Krems an der Donau",
            "addr:country": "AT",
            "addr:housenumber": "19",
            "addr:postcode": "3500",
            "addr:street": "Edmund-Hofbauer-Straße",
            "check_date": "2024-04-28",
            "name": "Parkhotel Krems",
            "phone": "+43 2732 875 65",
            "tourism": "hotel",
            "website": "https://www.parkhotel-krems.at/"
          },
          "geometry": {
            "type": "Point",
            "coordinates": [
              15.5987651,
              48.4068728
            ]
          }
        },
        {
          "type": "Feature",
          "properties": {
            "id": "5354279237",
            "osm_type": "node",
            "lat": 48.4123229,
            "lon": 15.6070635,
            "addr:city": "Krems an der Donau",
            "addr:country": "AT",
            "addr:housenumber": "3",
            "addr:postcode": "3500",
            "addr:street": "Kettensteggasse",
            "email": "hotel@klinglhuber.com",
            "name": "Suiten Klinglhuber",
            "phone": "+43 2732 869 60",
            "tourism": "hotel",
            "website": "http://klinglhuber.com"
          },
          "geometry": {
            "type": "Point",
            "coordinates": [
              15.6070635,
              48.4123229
            ]
          }
        },
        {
          "type": "Feature",
          "properties": {
            "id": "5518531183",
            "osm_type": "node",
            "lat": 48.6724952,
            "lon": 15.6544188,
            "addr:city": "Horn",
            "addr:country": "AT",
            "addr:housenumber": "1",
            "addr:postcode": "3580",
            "addr:street": "Canisiusgasse",
            "check_date": "2024-06-08",
            "email": "office@campus-horn.at",
            "fax": "+43 2982 50 325-50",
            "name": "campus Horn",
            "phone": "+43 2982 50 325",
            "tourism": "hotel",
            "website": "https://www.campus-horn.at"
          },
          "geometry": {
            "type": "Point",
            "coordinates": [
              15.6544188,
              48.6724952
            ]
          }
        },
        {
          "type": "Feature",
          "properties": {
            "id": "10727885760",
            "osm_type": "node",
            "lat": 48.403871,
            "lon": 15.5862839,
            "addr:city": "Krems an der Donau",
            "addr:housenumber": "16",
            "addr:postcode": "3500",
            "addr:street": "Steiner Landstraße",
            "brand": "Joe Living",
            "description": "Buchung nur bei booking.com",
            "internet_access": "wlan",
            "internet_access:fee": "no",
            "name": "Hotel Living inStyle",
            "reservation": "required",
            "tourism": "hotel",
            "website": "https://living-instyle.at/"
          },
          "geometry": {
            "type": "Point",
            "coordinates": [
              15.5862839,
              48.403871
            ]
          }
        },
        {
          "type": "Feature",
          "properties": {
            "id": "11222877171",
            "osm_type": "node",
            "lat": 48.4594226,
            "lon": 15.6925508,
            "addr:city": "Gobelsburg",
            "addr:country": "AT",
            "addr:housenumber": "37",
            "addr:postcode": "3550",
            "addr:street": "Weinstraße",
            "name": "Cobaneshof",
            "operator": "Familie Schneider",
            "phone": "+43 2734 2564",
            "tourism": "hotel",
            "website": "https://www.cobaneshof.at/"
          },
          "geometry": {
            "type": "Point",
            "coordinates": [
              15.6925508,
              48.4594226
            ]
          }
        },
        {
          "type": "Feature",
          "properties": {
            "id": "11839436856",
            "osm_type": "node",
            "lat": 48.6283769,
            "lon": 15.6417019,
            "addr:city": "Rosenburg am Kamp",
            "addr:housenumber": "51",
            "addr:place": "Rosenburg",
            "addr:postcode": "3573",
            "email": "doris@landgasthof-mann.at",
            "name": "Hotel Restaurant Landgasthof Mann",
            "phone": "+43 2982 2915",
            "rooms": "12",
            "tourism": "hotel",
            "website": "https://www.hotelmann.at/"
          },
          "geometry": {
            "type": "Point",
            "coordinates": [
              15.6417019,
              48.6283769
            ]
          }
        },
        {
          "type": "Feature",
          "properties": {
            "id": "12421692505",
            "osm_type": "node",
            "lat": 48.4727169,
            "lon": 15.7340749,
            "addr:housenumber": "82",
            "addr:street": "Herrengasse",
            "check_date": "2024-12-13",
            "name": "Kaiser's Hof",
            "tourism": "hotel",
            "website": "https://www.kaisershof.at/"
          },
          "geometry": {
            "type": "Point",
            "coordinates": [
              15.7340749,
              48.4727169
            ]
          }
        },
        {
          "type": "Feature",
          "properties": {
            "id": "2466873489",
            "osm_type": "node",
            "lat": 48.6847367,
            "lon": 16.0494919,
            "description": "Insektenhotel",
            "disused": "yes",
            "tourism": "hotel"
          },
          "geometry": {
            "type": "Point",
            "coordinates": [
              16.0494919,
              48.6847367
            ]
          }
        },
        {
          "type": "Feature",
          "properties": {
            "id": "2562914218",
            "osm_type": "node",
            "lat": 48.6704186,
            "lon": 16.1824877,
            "addr:city": "Mailberg",
            "addr:country": "AT",
            "addr:housenumber": "1",
            "addr:place": "Mailberg",
            "addr:postcode": "2024",
            "email": "reservierung@schlosshotel-mailberg.at",
            "name": "Schlosshotel Mailberg",
            "phone": "+43 2943 30301",
            "tourism": "hotel",
            "website": "https://www.schlosshotel-mailberg.at/"
          },
          "geometry": {
            "type": "Point",
            "coordinates": [
              16.1824877,
              48.6704186
            ]
          }
        },
        {
          "type": "Feature",
          "properties": {
            "id": "2965816300",
            "osm_type": "node",
            "lat": 48.560945,
            "lon": 16.0675615,
            "addr:city": "Hollabrunn",
            "addr:country": "AT",
            "addr:housenumber": "3",
            "addr:postcode": "2020",
            "addr:street": "Dechant Pfeiferstraße",
            "at_bev:addr_date": "2023-04-15",
            "name": "Weinviertel Sport und Seminarhotel",
            "phone": "+43 2952 3391181",
            "tourism": "hotel",
            "website": "http://www.weinviertelsportundseminarhotel.at"
          },
          "geometry": {
            "type": "Point",
            "coordinates": [
              16.0675615,
              48.560945
            ]
          }
        },
        {
          "type": "Feature",
          "properties": {
            "id": "6453142102",
            "osm_type": "node",
            "lat": 48.384629,
            "lon": 16.20575,
            "beds": "30",
            "contact:website": "https://www.lenau.at",
            "name": "Hotel Lenau",
            "rooms": "14",
            "tourism": "hotel"
          },
          "geometry": {
            "type": "Point",
            "coordinates": [
              16.20575,
              48.384629
            ]
          }
        }
      ],
      "children": []
    },
    {
      "bbox": {
        "south": 48.355971499999995,
        "west": 16.2068765,
        "north": 48.68652475,
        "east": 17.16058
      },
      "poiCount": 13,
      "leafCount": 13,
      "averagePosition": [
        16.616150238461536,
        48.54364376153846
      ],
      "data": [
        {
          "type": "Feature",
          "properties": {
            "id": "253244005",
            "osm_type": "node",
            "lat": 48.4144196,
            "lon": 16.5005337,
            "addr:city": "Kronberg",
            "addr:country": "AT",
            "addr:housenumber": "3",
            "addr:street": "Am Rußbach",
            "name": "Landgut Kronberghof",
            "tourism": "hotel"
          },
          "geometry": {
            "type": "Point",
            "coordinates": [
              16.5005337,
              48.4144196
            ]
          }
        },
        {
          "type": "Feature",
          "properties": {
            "id": "2574156793",
            "osm_type": "node",
            "lat": 48.3744255,
            "lon": 16.2374294,
            "name": "Hotel Kaiserrast",
            "phone": "+43 2266 68000",
            "tourism": "hotel",
            "website": "https://www.kaiserrast.at/",
            "wheelchair": "yes"
          },
          "geometry": {
            "type": "Point",
            "coordinates": [
              16.2374294,
              48.3744255
            ]
          }
        },
        {
          "type": "Feature",
          "properties": {
            "id": "2708643851",
            "osm_type": "node",
            "lat": 48.3855255,
            "lon": 16.2121329,
            "brand": "Best Western",
            "brand:wikidata": "Q830334",
            "brand:wikipedia": "en:Best Western",
            "name": "Best Western",
            "tourism": "hotel",
            "wheelchair": "yes"
          },
          "geometry": {
            "type": "Point",
            "coordinates": [
              16.2121329,
              48.3855255
            ]
          }
        },
        {
          "type": "Feature",
          "properties": {
            "id": "243864350",
            "osm_type": "node",
            "lat": 48.5676204,
            "lon": 16.5721651,
            "addr:city": "Mistelbach",
            "addr:country": "AT",
            "addr:housenumber": "8",
            "addr:postcode": "2130",
            "addr:street": "Hafnerstraße",
            "name": "Weißes Rössel",
            "phone": "+43 2572 20785",
            "tourism": "hotel"
          },
          "geometry": {
            "type": "Point",
            "coordinates": [
              16.5721651,
              48.5676204
            ]
          }
        },
        {
          "type": "Feature",
          "properties": {
            "id": "544479307",
            "osm_type": "node",
            "lat": 48.5720656,
            "lon": 16.5714749,
            "name": "Goldene Krone",
            "tourism": "hotel"
          },
          "geometry": {
            "type": "Point",
            "coordinates": [
              16.5714749,
              48.5720656
            ]
          }
        },
        {
          "type": "Feature",
          "properties": {
            "id": "582136263",
            "osm_type": "node",
            "lat": 48.5449071,
            "lon": 16.763694,
            "addr:city": "Zistersdorf",
            "addr:housenumber": "4",
            "addr:postcode": "2225",
            "addr:street": "Meierhofgasse",
            "name": "Hotel Vino Q",
            "phone": "+ 43 (0) 670 4099 190",
            "tourism": "hotel",
            "website": "www.vinoq.at"
          },
          "geometry": {
            "type": "Point",
            "coordinates": [
              16.763694,
              48.5449071
            ]
          }
        },
        {
          "type": "Feature",
          "properties": {
            "id": "1745705080",
            "osm_type": "node",
            "lat": 48.5926978,
            "lon": 16.8133385,
            "addr:city": "Palterndorf",
            "addr:housenumber": "187",
            "addr:postcode": "2182",
            "addr:street": "Föhrenstraße",
            "name": "Pension Keyder",
            "source": "local knowledge",
            "tourism": "hotel"
          },
          "geometry": {
            "type": "Point",
            "coordinates": [
              16.8133385,
              48.5926978
            ]
          }
        },
        {
          "type": "Feature",
          "properties": {
            "id": "1819732168",
            "osm_type": "node",
            "lat": 48.6446929,
            "lon": 16.7222337,
            "addr:city": "Großkrut",
            "addr:country": "AT",
            "addr:housenumber": "5",
            "addr:postcode": "2143",
            "addr:street": "Poysdorfer Straße",
            "name": "Großkruter Hof",
            "phone": "+43 650 2741344",
            "tourism": "hotel",
            "website": "https://www.grosskruterhof.at/"
          },
          "geometry": {
            "type": "Point",
            "coordinates": [
              16.7222337,
              48.6446929
            ]
          }
        },
        {
          "type": "Feature",
          "properties": {
            "id": "1964507591",
            "osm_type": "node",
            "lat": 48.6626648,
            "lon": 16.5919645,
            "name": "Hotel Weinlandhof",
            "tourism": "hotel"
          },
          "geometry": {
            "type": "Point",
            "coordinates": [
              16.5919645,
              48.6626648
            ]
          }
        },
        {
          "type": "Feature",
          "properties": {
            "id": "3281122826",
            "osm_type": "node",
            "lat": 48.577259,
            "lon": 16.749959,
            "addr:city": "Zistersdorf",
            "addr:housenumber": "1",
            "addr:postcode": "2225",
            "addr:street": "Am Steinberg",
            "name": "Am Steinberg",
            "tourism": "hotel"
          },
          "geometry": {
            "type": "Point",
            "coordinates": [
              16.749959,
              48.577259
            ]
          }
        },
        {
          "type": "Feature",
          "properties": {
            "id": "4416830091",
            "osm_type": "node",
            "lat": 48.3951896,
            "lon": 17.0129891,
            "fax": "+421 34 7746205",
            "internet_access": "wlan",
            "internet_access:fee": "no",
            "name": "Wellness Hotel Spark",
            "phone": "+421 34 7746203",
            "smoking": "no",
            "stars": "3",
            "tourism": "hotel",
            "website": "https://www.hotelspark.sk/",
            "wikidata": "Q112017663"
          },
          "geometry": {
            "type": "Point",
            "coordinates": [
              17.0129891,
              48.3951896
            ]
          }
        },
        {
          "type": "Feature",
          "properties": {
            "id": "5586406186",
            "osm_type": "node",
            "lat": 48.6676026,
            "lon": 16.6321835,
            "addr:city": "Poysdorf",
            "addr:housename": "Genießerhof Haimer",
            "addr:housenumber": "14",
            "addr:postcode": "2170",
            "addr:street": "Körnergasse",
            "check_date": "2025-04-07",
            "email": "office@haimer.at",
            "fax": "+43 2552 29465500",
            "internet_access": "yes",
            "name": "Genießerhof Haimer",
            "operator": "Sylvia & Harald Haimer",
            "phone": "+43 2552 29465",
            "tourism": "hotel",
            "website": "https://www.haimer.at"
          },
          "geometry": {
            "type": "Point",
            "coordinates": [
              16.6321835,
              48.6676026
            ]
          }
        },
        {
          "type": "Feature",
          "properties": {
            "id": "5843353954",
            "osm_type": "node",
            "lat": 48.6682985,
            "lon": 16.6298548,
            "addr:city": "Poysdorf",
            "addr:housenumber": "11",
            "addr:postcode": "2170",
            "addr:street": "Dreifaltigkeitsplatz",
            "beds": "80",
            "check_date": "2023-08-05",
            "internet_access": "wlan",
            "internet_access:fee": "no",
            "name": "Weinhotel Rieder",
            "operator": "Familie Rieder",
            "phone": "+43255240202",
            "rooms": "33",
            "smoking": "outside",
            "stars": "3",
            "tourism": "hotel",
            "website": "https://www.weinhotelrieder.com",
            "wheelchair": "yes",
            "wheelchair:entrance_width": "200",
            "wheelchair:rooms": "4",
            "wheelchair:step_height": "15"
          },
          "geometry": {
            "type": "Point",
            "coordinates": [
              16.6298548,
              48.6682985
            ]
          }
        }
      ],
      "children": []
    },
    {
      "bbox": {
        "south": 48.68652475,
        "west": 15.253173,
        "north": 49.017078,
        "east": 16.2068765
      },
      "poiCount": 23,
      "leafCount": 23,
      "averagePosition": [
        15.750115339130435,
        48.863993452173915
      ],
      "data": [
        {
          "type": "Feature",
          "properties": {
            "id": "2119301769",
            "osm_type": "node",
            "lat": 48.8154364,
            "lon": 15.2869048,
            "addr:city": "Waidhofen an der Thaya",
            "addr:country": "AT",
            "addr:housenumber": "25",
            "addr:postcode": "3830",
            "addr:street": "Hauptplatz",
            "contact:email": "office@stadthotel-wt.at",
            "contact:fax": "+43 2842/515 75 - 15",
            "contact:phone": "+43 2842/515 75",
            "name": "Stadthotel Waidhofen an der Thaya",
            "tourism": "hotel",
            "website": "https://stadthotel-wt.at/",
            "wheelchair": "limited"
          },
          "geometry": {
            "type": "Point",
            "coordinates": [
              15.2869048,
              48.8154364
            ]
          }
        },
        {
          "type": "Feature",
          "properties": {
            "id": "2508103875",
            "osm_type": "node",
            "lat": 48.8468556,
            "lon": 15.4942679,
            "name": "Stadthotel Raabs an der Thaya",
            "tourism": "hotel"
          },
          "geometry": {
            "type": "Point",
            "coordinates": [
              15.4942679,
              48.8468556
            ]
          }
        },
        {
          "type": "Feature",
          "properties": {
            "id": "487263119",
            "osm_type": "node",
            "lat": 48.7584045,
            "lon": 15.9502625,
            "addr:city": "Retz",
            "addr:country": "AT",
            "addr:housenumber": "14",
            "addr:postcode": "2070",
            "addr:street": "Althofgasse",
            "check_date": "2024-07-07",
            "name": "Hotel Althof Retz",
            "stars": "4",
            "tourism": "hotel",
            "website": "https://www.althof.at/"
          },
          "geometry": {
            "type": "Point",
            "coordinates": [
              15.9502625,
              48.7584045
            ]
          }
        },
        {
          "type": "Feature",
          "properties": {
            "id": "801225230",
            "osm_type": "node",
            "lat": 48.8021997,
            "lon": 15.6722976,
            "addr:city": "Geras",
            "addr:country": "AT",
            "addr:housenumber": "10",
            "addr:postcode": "2093",
            "addr:street": "Bahnstraße",
            "at_bev:addr_date": "2017-10-01",
            "name": "Meierhof Seminarhotel",
            "tourism": "hotel"
          },
          "geometry": {
            "type": "Point",
            "coordinates": [
              15.6722976,
              48.8021997
            ]
          }
        },
        {
          "type": "Feature",
          "properties": {
            "id": "1226550880",
            "osm_type": "node",
            "lat": 48.8677206,
            "lon": 15.620902,
            "check_date": "2024-10-24",
            "email": "info@moka.at",
            "name": "Hotel Garni - Pension Schneider",
            "tourism": "hotel"
          },
          "geometry": {
            "type": "Point",
            "coordinates": [
              15.620902,
              48.8677206
            ]
          }
        },
        {
          "type": "Feature",
          "properties": {
            "id": "2569429574",
            "osm_type": "node",
            "lat": 48.7315264,
            "lon": 15.6290629,
            "name": "Kloster Pernegg",
            "note": "Position=Empfang",
            "tourism": "hotel",
            "website": "https://www.klosterpernegg.at/"
          },
          "geometry": {
            "type": "Point",
            "coordinates": [
              15.6290629,
              48.7315264
            ]
          }
        },
        {
          "type": "Feature",
          "properties": {
            "id": "7843950187",
            "osm_type": "node",
            "lat": 48.7659488,
            "lon": 15.9973617,
            "addr:housenumber": "59",
            "addr:postcode": "2074",
            "addr:street": "Herrengasse",
            "email": "office@weingut-sonnenhuegel.at",
            "name": "Weingut & Schlafgut Sonnenhügel",
            "phone": "+43 2942 20674",
            "tourism": "hotel",
            "website": "https://weingut-sonnenhuegel.at/"
          },
          "geometry": {
            "type": "Point",
            "coordinates": [
              15.9973617,
              48.7659488
            ]
          }
        },
        {
          "type": "Feature",
          "properties": {
            "id": "12170431497",
            "osm_type": "node",
            "lat": 48.8096582,
            "lon": 16.014845,
            "name": "Thaya",
            "tourism": "hotel",
            "website": "https://vinarstvithaya.cz/de/hotel-thaya/"
          },
          "geometry": {
            "type": "Point",
            "coordinates": [
              16.014845,
              48.8096582
            ]
          }
        },
        {
          "type": "Feature",
          "properties": {
            "id": "456782916",
            "osm_type": "node",
            "lat": 48.8397665,
            "lon": 16.0659804,
            "addr:city": "Znojmo",
            "addr:housename": "Hotel Dukla",
            "addr:housenumber": "30",
            "addr:postcode": "67181",
            "addr:street": "Holandská",
            "name": "Hotel Dukla",
            "phone": "+420 515 227 239",
            "source": "https://www.hotel-dukla.cz/",
            "tourism": "hotel",
            "website": "https://www.hotel-dukla.cz/"
          },
          "geometry": {
            "type": "Point",
            "coordinates": [
              16.0659804,
              48.8397665
            ]
          }
        },
        {
          "type": "Feature",
          "properties": {
            "id": "1319954271",
            "osm_type": "node",
            "lat": 48.8549544,
            "lon": 16.046017,
            "name": "Residente Zvon",
            "tourism": "hotel"
          },
          "geometry": {
            "type": "Point",
            "coordinates": [
              16.046017,
              48.8549544
            ]
          }
        },
        {
          "type": "Feature",
          "properties": {
            "id": "9375709876",
            "osm_type": "node",
            "lat": 48.7473687,
            "lon": 16.1308522,
            "name": "Penzion Jelení farma Ječmeniště",
            "tourism": "hotel",
            "website": "https://jecmeniste.cz/"
          },
          "geometry": {
            "type": "Point",
            "coordinates": [
              16.1308522,
              48.7473687
            ]
          }
        },
        {
          "type": "Feature",
          "properties": {
            "id": "9447539905",
            "osm_type": "node",
            "lat": 48.7659443,
            "lon": 16.0593986,
            "name": "Merlin's Camp",
            "tourism": "hotel",
            "website": "https://www.merlinscamp.com/cs/"
          },
          "geometry": {
            "type": "Point",
            "coordinates": [
              16.0593986,
              48.7659443
            ]
          }
        },
        {
          "type": "Feature",
          "properties": {
            "id": "9447539907",
            "osm_type": "node",
            "lat": 48.7653432,
            "lon": 16.0612091,
            "name": "Jukebox Hotel",
            "tourism": "hotel",
            "website": "https://www.jukeboxhotel.com/cs/"
          },
          "geometry": {
            "type": "Point",
            "coordinates": [
              16.0612091,
              48.7653432
            ]
          }
        },
        {
          "type": "Feature",
          "properties": {
            "id": "1773249947",
            "osm_type": "node",
            "lat": 48.9980358,
            "lon": 15.3510745,
            "name": "Alfa",
            "tourism": "hotel"
          },
          "geometry": {
            "type": "Point",
            "coordinates": [
              15.3510745,
              48.9980358
            ]
          }
        },
        {
          "type": "Feature",
          "properties": {
            "id": "1773249952",
            "osm_type": "node",
            "lat": 48.9981309,
            "lon": 15.3505542,
            "name": "Dům u Růže",
            "tourism": "hotel"
          },
          "geometry": {
            "type": "Point",
            "coordinates": [
              15.3505542,
              48.9981309
            ]
          }
        },
        {
          "type": "Feature",
          "properties": {
            "id": "1773249956",
            "osm_type": "node",
            "lat": 48.9974831,
            "lon": 15.3529845,
            "name": "Besídka",
            "tourism": "hotel"
          },
          "geometry": {
            "type": "Point",
            "coordinates": [
              15.3529845,
              48.9974831
            ]
          }
        },
        {
          "type": "Feature",
          "properties": {
            "id": "4304594227",
            "osm_type": "node",
            "lat": 48.9973545,
            "lon": 15.3512011,
            "addr:city": "Slavonice",
            "addr:conscriptionnumber": "466",
            "addr:housenumber": "466",
            "addr:postcode": "37881",
            "addr:street": "náměstí Míru",
            "email": "info@hotelarkada.cz",
            "name": "Arkáda",
            "payment:coins": "yes",
            "payment:mastercard": "yes",
            "payment:notes": "yes",
            "payment:visa": "yes",
            "stars": "3",
            "tourism": "hotel",
            "website": "www.hotelarkada.cz"
          },
          "geometry": {
            "type": "Point",
            "coordinates": [
              15.3512011,
              48.9973545
            ]
          }
        },
        {
          "type": "Feature",
          "properties": {
            "id": "10960368586",
            "osm_type": "node",
            "lat": 48.9352315,
            "lon": 15.3583734,
            "addr:city": "Waldkirchen an der Thaya",
            "addr:housenumber": "28",
            "addr:place": "Waldkirchen an der Thaya",
            "addr:postcode": "3844",
            "email": "office@zughotel.at",
            "name": "Zughotel Waldkirchen",
            "phone": "+43 670 500 66 77",
            "rooms": "7",
            "tourism": "hotel",
            "website": "https://www.zughotel.at"
          },
          "geometry": {
            "type": "Point",
            "coordinates": [
              15.3583734,
              48.9352315
            ]
          }
        },
        {
          "type": "Feature",
          "properties": {
            "id": "1431229290",
            "osm_type": "node",
            "lat": 48.98471,
            "lon": 15.9879008,
            "name": "Penzion Šalamoun",
            "tourism": "hotel"
          },
          "geometry": {
            "type": "Point",
            "coordinates": [
              15.9879008,
              48.98471
            ]
          }
        },
        {
          "type": "Feature",
          "properties": {
            "id": "4844196538",
            "osm_type": "node",
            "lat": 48.9147786,
            "lon": 15.811536,
            "name": "Volareza - hotel Vranov",
            "stars": "3",
            "tourism": "hotel",
            "website": "https://www.volareza.cz/"
          },
          "geometry": {
            "type": "Point",
            "coordinates": [
              15.811536,
              48.9147786
            ]
          }
        },
        {
          "type": "Feature",
          "properties": {
            "id": "7817915588",
            "osm_type": "node",
            "lat": 48.8964653,
            "lon": 15.8126624,
            "name": "Zámecký Hotel",
            "tourism": "hotel"
          },
          "geometry": {
            "type": "Point",
            "coordinates": [
              15.8126624,
              48.8964653
            ]
          }
        },
        {
          "type": "Feature",
          "properties": {
            "id": "7817915589",
            "osm_type": "node",
            "lat": 48.8944203,
            "lon": 15.8117952,
            "name": "Hotel pod Zámek",
            "tourism": "hotel"
          },
          "geometry": {
            "type": "Point",
            "coordinates": [
              15.8117952,
              48.8944203
            ]
          }
        },
        {
          "type": "Feature",
          "properties": {
            "id": "4789593327",
            "osm_type": "node",
            "lat": 48.8841121,
            "lon": 16.035209,
            "addr:city": "Znojmo-Přímětice",
            "addr:housenumber": "4",
            "addr:postcode": "66904",
            "addr:street": "Křížové náměstí",
            "capacity": "70",
            "email": "recepce@hoteln.cz",
            "name": "Hotel N",
            "phone": "+420 515 228 164",
            "ref:nap": "15312",
            "tourism": "hotel",
            "website": "https://www.hoteln.cz/"
          },
          "geometry": {
            "type": "Point",
            "coordinates": [
              16.035209,
              48.8841121
            ]
          }
        }
      ],
      "children": []
    },
    {
      "bbox": {
        "south": 48.68652475,
        "west": 16.2068765,
        "north": 49.017078,
        "east": 17.16058
      },
      "poiCount": 60,
      "leafCount": 0,
      "averagePosition": [
        16.769943476666665,
        48.831858020000006
      ],
      "data": [],
      "children": [
        {
          "bbox": {
            "south": 48.68652475,
            "west": 16.2068765,
            "north": 48.851801374999994,
            "east": 16.68372825
          },
          "poiCount": 13,
          "leafCount": 13,
          "averagePosition": [
            16.585800176923076,
            48.78228034615385
          ],
          "data": [
            {
              "type": "Feature",
              "properties": {
                "id": "2390428327",
                "osm_type": "node",
                "lat": 48.7190544,
                "lon": 16.4923499,
                "tourism": "hotel"
              },
              "geometry": {
                "type": "Point",
                "coordinates": [
                  16.4923499,
                  48.7190544
                ]
              }
            },
            {
              "type": "Feature",
              "properties": {
                "id": "9737037481",
                "osm_type": "node",
                "lat": 48.7503389,
                "lon": 16.3811299,
                "email": "hotel@hotelzetocha.cz",
                "internet_access": "wlan",
                "name": "Hotel Zetocha",
                "phone": "+420 515 274 233",
                "rooms": "20",
                "stars": "3",
                "tourism": "hotel",
                "website": "https://www.hotelzetocha.cz"
              },
              "geometry": {
                "type": "Point",
                "coordinates": [
                  16.3811299,
                  48.7503389
                ]
              }
            },
            {
              "type": "Feature",
              "properties": {
                "id": "11607348663",
                "osm_type": "node",
                "lat": 48.7255668,
                "lon": 16.400031,
                "addr:city": "Laa an der Thaya",
                "addr:housenumber": "5",
                "addr:postcode": "2136",
                "addr:street": "Thermenallee",
                "email": "office@freilich.at",
                "name": "freilich Hotel - digitaler self check in",
                "opening_hours": "Mo-Sa 00:00-23:59; Su 00:01-23:58",
                "phone": "+43 2522 210 00",
                "survey:date": "2024-02-10",
                "tourism": "hotel",
                "website": "https://www.freilich.at/",
                "wheelchair": "yes"
              },
              "geometry": {
                "type": "Point",
                "coordinates": [
                  16.400031,
                  48.7255668
                ]
              }
            },
            {
              "type": "Feature",
              "properties": {
                "id": "1511528422",
                "osm_type": "node",
                "lat": 48.8079374,
                "lon": 16.6409107,
                "email": "hotel@galant.cz",
                "internet_access": "wlan",
                "internet_access:fee": "yes",
                "name": "Hotel Galant",
                "operator": "Vinotel, s.r.o.",
                "phone": "+420 519 323 353",
                "source": "survey",
                "tourism": "hotel",
                "website": "https://www.galant.cz/",
                "wheelchair": "yes"
              },
              "geometry": {
                "type": "Point",
                "coordinates": [
                  16.6409107,
                  48.8079374
                ]
              }
            },
            {
              "type": "Feature",
              "properties": {
                "id": "1778425122",
                "osm_type": "node",
                "lat": 48.8077561,
                "lon": 16.6388404,
                "email": "info@hotelreva.cz",
                "name": "Hotel Réva",
                "phone": "+420 519 512 076",
                "tourism": "hotel",
                "website": "www.hotelreva.cz"
              },
              "geometry": {
                "type": "Point",
                "coordinates": [
                  16.6388404,
                  48.8077561
                ]
              }
            },
            {
              "type": "Feature",
              "properties": {
                "id": "1778425134",
                "osm_type": "node",
                "lat": 48.8080284,
                "lon": 16.6396469,
                "email": "moravia@penzion.com",
                "name": "Penzion Moravia",
                "phone": "+420 777 634 560",
                "tourism": "hotel",
                "website": "www.moravia.penzion.com",
                "wheelchair": "no"
              },
              "geometry": {
                "type": "Point",
                "coordinates": [
                  16.6396469,
                  48.8080284
                ]
              }
            },
            {
              "type": "Feature",
              "properties": {
                "id": "3049193568",
                "osm_type": "node",
                "lat": 48.8046234,
                "lon": 16.6345884,
                "addr:conscriptionnumber": "1000",
                "addr:housenumber": "1000/28",
                "addr:place": "Mikulov",
                "addr:postcode": "69201",
                "addr:street": "22. dubna",
                "addr:streetnumber": "28",
                "contact:email": "info@hoteleliska.cz",
                "contact:phone": "+420 519 513 073",
                "contact:website": "http://www.hoteleliska.cz/",
                "name": "Hotel Eliška",
                "operator": "VOLARIK HOTELS AND RESORTS",
                "ref:ruian:addr": "28042417",
                "tourism": "hotel"
              },
              "geometry": {
                "type": "Point",
                "coordinates": [
                  16.6345884,
                  48.8046234
                ]
              }
            },
            {
              "type": "Feature",
              "properties": {
                "id": "3667876808",
                "osm_type": "node",
                "lat": 48.8014903,
                "lon": 16.6315133,
                "addr:city": "Mikulov",
                "addr:housenumber": "10",
                "addr:postcode": "69201",
                "addr:street": "Republikánské obrany",
                "name": "Hotel Bonsai",
                "source": "survey",
                "tourism": "hotel"
              },
              "geometry": {
                "type": "Point",
                "coordinates": [
                  16.6315133,
                  48.8014903
                ]
              }
            },
            {
              "type": "Feature",
              "properties": {
                "id": "4259314190",
                "osm_type": "node",
                "lat": 48.800395,
                "lon": 16.6418433,
                "name": "Pension Kiwi",
                "tourism": "hotel"
              },
              "geometry": {
                "type": "Point",
                "coordinates": [
                  16.6418433,
                  48.800395
                ]
              }
            },
            {
              "type": "Feature",
              "properties": {
                "id": "5000146221",
                "osm_type": "node",
                "lat": 48.8137466,
                "lon": 16.6439713,
                "check_date": "2025-04-16",
                "name": "Pension Crhan",
                "name:cs": "Pension Crhan",
                "tourism": "hotel"
              },
              "geometry": {
                "type": "Point",
                "coordinates": [
                  16.6439713,
                  48.8137466
                ]
              }
            },
            {
              "type": "Feature",
              "properties": {
                "id": "5407051125",
                "osm_type": "node",
                "lat": 48.7192925,
                "lon": 16.5816128,
                "addr:city": "Falkenstein",
                "addr:housenumber": "104",
                "addr:postcode": "2162",
                "addr:street": "Stürzenbühel",
                "internet_access": "yes",
                "name": "Weingut Stadler",
                "rooms": "5",
                "stars": "4",
                "tourism": "hotel"
              },
              "geometry": {
                "type": "Point",
                "coordinates": [
                  16.5816128,
                  48.7192925
                ]
              }
            },
            {
              "type": "Feature",
              "properties": {
                "id": "8832765362",
                "osm_type": "node",
                "lat": 48.8020089,
                "lon": 16.645706,
                "capacity": "80",
                "email": "recepce@hotelryzlink.cz",
                "name": "Hotel Ryzlink",
                "phone": "+420 770 139 407",
                "ref:nap": "23888",
                "tourism": "hotel",
                "website": "https://www.hotelryzlink.cz/"
              },
              "geometry": {
                "type": "Point",
                "coordinates": [
                  16.645706,
                  48.8020089
                ]
              }
            },
            {
              "type": "Feature",
              "properties": {
                "id": "9805535679",
                "osm_type": "node",
                "lat": 48.8094058,
                "lon": 16.6432584,
                "email": "info@mikulovinn.cz",
                "name": "Hotel Venuše",
                "phone": "+420 737 118 118",
                "ref:nap": "24843",
                "tourism": "hotel",
                "website": "https://www.mikulovinn.cz/hotel-venuse/"
              },
              "geometry": {
                "type": "Point",
                "coordinates": [
                  16.6432584,
                  48.8094058
                ]
              }
            }
          ],
          "children": []
        },
        {
          "bbox": {
            "south": 48.68652475,
            "west": 16.68372825,
            "north": 48.851801374999994,
            "east": 17.16058
          },
          "poiCount": 24,
          "leafCount": 24,
          "averagePosition": [
            16.86361713333333,
            48.78894482916667
          ],
          "data": [
            {
              "type": "Feature",
              "properties": {
                "id": "255944198",
                "osm_type": "node",
                "lat": 48.7551193,
                "lon": 16.8476895,
                "tourism": "hotel"
              },
              "geometry": {
                "type": "Point",
                "coordinates": [
                  16.8476895,
                  48.7551193
                ]
              }
            },
            {
              "type": "Feature",
              "properties": {
                "id": "259569490",
                "osm_type": "node",
                "lat": 48.7396813,
                "lon": 16.756527,
                "addr:city": "Valtice",
                "addr:housenumber": "1",
                "addr:postcode": "69142",
                "addr:street": "Zámek",
                "email": "recepce@hotelhubertus.cz",
                "name": "Hotel Hubertus",
                "tourism": "hotel",
                "website": "http://www.hotelhubertus.cz/"
              },
              "geometry": {
                "type": "Point",
                "coordinates": [
                  16.756527,
                  48.7396813
                ]
              }
            },
            {
              "type": "Feature",
              "properties": {
                "id": "687527274",
                "osm_type": "node",
                "lat": 48.7178583,
                "lon": 16.8371119,
                "name": "Hotel Celnice",
                "toilets:wheelchair": "yes",
                "tourism": "hotel",
                "wheelchair": "yes"
              },
              "geometry": {
                "type": "Point",
                "coordinates": [
                  16.8371119,
                  48.7178583
                ]
              }
            },
            {
              "type": "Feature",
              "properties": {
                "id": "812445925",
                "osm_type": "node",
                "lat": 48.7807715,
                "lon": 16.7569444,
                "addr:city": "Hlohovec",
                "addr:housenumber": "16",
                "addr:place": "Hlohovec",
                "addr:postcode": "69143",
                "name": "Hotel Hraniční zámeček",
                "stars": "4",
                "tourism": "hotel"
              },
              "geometry": {
                "type": "Point",
                "coordinates": [
                  16.7569444,
                  48.7807715
                ]
              }
            },
            {
              "type": "Feature",
              "properties": {
                "id": "1085026645",
                "osm_type": "node",
                "lat": 48.7545249,
                "lon": 16.8837283,
                "name": "IMOS",
                "stars": "3",
                "tourism": "hotel"
              },
              "geometry": {
                "type": "Point",
                "coordinates": [
                  16.8837283,
                  48.7545249
                ]
              }
            },
            {
              "type": "Feature",
              "properties": {
                "id": "1217558554",
                "osm_type": "node",
                "lat": 48.8002725,
                "lon": 17.0166263,
                "addr:conscriptionnumber": "46",
                "addr:country": "CZ",
                "addr:housenumber": "46",
                "addr:place": "Moravská Nová Ves",
                "addr:postcode": "69155",
                "addr:street": "Medlov",
                "name": "penzion U Javora",
                "ref:ruian:addr": "10007318",
                "tourism": "hotel"
              },
              "geometry": {
                "type": "Point",
                "coordinates": [
                  17.0166263,
                  48.8002725
                ]
              }
            },
            {
              "type": "Feature",
              "properties": {
                "id": "1218534243",
                "osm_type": "node",
                "lat": 48.8479426,
                "lon": 16.8966563,
                "addr:conscriptionnumber": "111",
                "addr:country": "CZ",
                "addr:housenumber": "111",
                "addr:street": "Ve Dvoře",
                "name": "Vila Jarmila",
                "source": "http://velke-bilovice.hotelakademie.cz/vila-jarmila-depandance-a-vinny-sklep/",
                "source:addr": "mvcr:adresa",
                "source:loc": "cuzk:km",
                "tourism": "hotel"
              },
              "geometry": {
                "type": "Point",
                "coordinates": [
                  16.8966563,
                  48.8479426
                ]
              }
            },
            {
              "type": "Feature",
              "properties": {
                "id": "1218537376",
                "osm_type": "node",
                "lat": 48.8472701,
                "lon": 16.8972225,
                "addr:conscriptionnumber": "1295",
                "addr:country": "CZ",
                "addr:housenumber": "1295",
                "addr:street": "Zahradní",
                "name": "Hotel Akademie",
                "source": "http://velke-bilovice.hotelakademie.cz/",
                "tourism": "hotel"
              },
              "geometry": {
                "type": "Point",
                "coordinates": [
                  16.8972225,
                  48.8472701
                ]
              }
            },
            {
              "type": "Feature",
              "properties": {
                "id": "1343674366",
                "osm_type": "node",
                "lat": 48.8002089,
                "lon": 16.7929404,
                "name": "Penzion Včelařský dvůr",
                "tourism": "hotel"
              },
              "geometry": {
                "type": "Point",
                "coordinates": [
                  16.7929404,
                  48.8002089
                ]
              }
            },
            {
              "type": "Feature",
              "properties": {
                "id": "2286862871",
                "osm_type": "node",
                "lat": 48.732218,
                "lon": 16.9625303,
                "name": "Hotel Lanžhot",
                "tourism": "hotel"
              },
              "geometry": {
                "type": "Point",
                "coordinates": [
                  16.9625303,
                  48.732218
                ]
              }
            },
            {
              "type": "Feature",
              "properties": {
                "id": "2434496452",
                "osm_type": "node",
                "lat": 48.8008191,
                "lon": 16.8039571,
                "addr:city": "Lednice",
                "addr:housenumber": "66",
                "addr:postcode": "69144",
                "addr:street": "Zámecké náměstí",
                "name": "Zámecký hotel Lednice",
                "name:cs": "Zámecký hotel Lednice",
                "operator": "V. L. A. C., s.r.o",
                "stars": "4",
                "tourism": "hotel"
              },
              "geometry": {
                "type": "Point",
                "coordinates": [
                  16.8039571,
                  48.8008191
                ]
              }
            },
            {
              "type": "Feature",
              "properties": {
                "id": "2632051095",
                "osm_type": "node",
                "lat": 48.836464,
                "lon": 16.852779,
                "addr:housenumber": "973/27",
                "addr:street": "Nerudova",
                "name": "Pohostinství u Šveca",
                "tourism": "hotel"
              },
              "geometry": {
                "type": "Point",
                "coordinates": [
                  16.852779,
                  48.836464
                ]
              }
            },
            {
              "type": "Feature",
              "properties": {
                "id": "3145304001",
                "osm_type": "node",
                "lat": 48.8435427,
                "lon": 16.9856387,
                "name": "Beatrice",
                "tourism": "hotel",
                "website": "https://www.ujenoura.cz/cz/ubytovani/o-hotelu-beatrice.html"
              },
              "geometry": {
                "type": "Point",
                "coordinates": [
                  16.9856387,
                  48.8435427
                ]
              }
            },
            {
              "type": "Feature",
              "properties": {
                "id": "3375036430",
                "osm_type": "node",
                "lat": 48.7408995,
                "lon": 16.7489847,
                "name": "Penzion Klaret",
                "phone": "+420 733 348 305;+420 603 758 578",
                "tourism": "hotel"
              },
              "geometry": {
                "type": "Point",
                "coordinates": [
                  16.7489847,
                  48.7408995
                ]
              }
            },
            {
              "type": "Feature",
              "properties": {
                "id": "3376336843",
                "osm_type": "node",
                "lat": 48.7433501,
                "lon": 16.7562247,
                "check_date": "2025-08-17",
                "email": "kancelar@hotelbesednidum.cz",
                "internet_access": "wlan",
                "internet_access:fee": "no",
                "name": "Besední Dům",
                "phone": "+420 222 539 539",
                "tourism": "hotel",
                "website": "https://www.hotelbesednidum.cz/"
              },
              "geometry": {
                "type": "Point",
                "coordinates": [
                  16.7562247,
                  48.7433501
                ]
              }
            },
            {
              "type": "Feature",
              "properties": {
                "id": "3957417019",
                "osm_type": "node",
                "lat": 48.825912,
                "lon": 16.8471479,
                "name": "Hotel Arcade",
                "tourism": "hotel"
              },
              "geometry": {
                "type": "Point",
                "coordinates": [
                  16.8471479,
                  48.825912
                ]
              }
            },
            {
              "type": "Feature",
              "properties": {
                "id": "3966766743",
                "osm_type": "node",
                "lat": 48.8263025,
                "lon": 16.8480393,
                "name": "Penzion Miromar",
                "tourism": "hotel",
                "website": "https://www.penzion-miromar.cz/"
              },
              "geometry": {
                "type": "Point",
                "coordinates": [
                  16.8480393,
                  48.8263025
                ]
              }
            },
            {
              "type": "Feature",
              "properties": {
                "id": "4471355988",
                "osm_type": "node",
                "lat": 48.7418117,
                "lon": 16.7514147,
                "addr:housenumber": "155",
                "addr:street": "Střelecká",
                "name": "Penzion Rendezvous",
                "tourism": "hotel"
              },
              "geometry": {
                "type": "Point",
                "coordinates": [
                  16.7514147,
                  48.7418117
                ]
              }
            },
            {
              "type": "Feature",
              "properties": {
                "id": "4940458723",
                "osm_type": "node",
                "lat": 48.7388443,
                "lon": 16.7512434,
                "addr:housenumber": "81",
                "addr:postcode": "69142",
                "addr:street": "Růžová",
                "email": "info@valtice-ubytovani.info",
                "name": "Ubytování u Grbavčiců",
                "name:cs": "Ubytování u Grbavčiců",
                "name:en": "Accommodation Grbavčic",
                "phone": "+420 725 342 280",
                "tourism": "hotel",
                "website": "https://www.valtice-ubytovani.info/"
              },
              "geometry": {
                "type": "Point",
                "coordinates": [
                  16.7512434,
                  48.7388443
                ]
              }
            },
            {
              "type": "Feature",
              "properties": {
                "id": "5018684336",
                "osm_type": "node",
                "lat": 48.7985157,
                "lon": 16.8018295,
                "name": "Relax Hotel Štork",
                "tourism": "hotel"
              },
              "geometry": {
                "type": "Point",
                "coordinates": [
                  16.8018295,
                  48.7985157
                ]
              }
            },
            {
              "type": "Feature",
              "properties": {
                "id": "5483045485",
                "osm_type": "node",
                "lat": 48.7641155,
                "lon": 16.8818416,
                "name": "Hotel Rose",
                "tourism": "hotel"
              },
              "geometry": {
                "type": "Point",
                "coordinates": [
                  16.8818416,
                  48.7641155
                ]
              }
            },
            {
              "type": "Feature",
              "properties": {
                "id": "5602915933",
                "osm_type": "node",
                "lat": 48.8030689,
                "lon": 16.8014646,
                "name": "Hotel Galant",
                "stars": "4",
                "tourism": "hotel",
                "website": "https://lednice.galant.cz/"
              },
              "geometry": {
                "type": "Point",
                "coordinates": [
                  16.8014646,
                  48.8030689
                ]
              }
            },
            {
              "type": "Feature",
              "properties": {
                "id": "9805617310",
                "osm_type": "node",
                "lat": 48.8508521,
                "lon": 17.1214896,
                "capacity": "180",
                "email": "krystal@hotel-krystal.cz",
                "name": "Hotel Krystal",
                "phone": "+420 518 391 311",
                "ref:nap": "15388",
                "tourism": "hotel",
                "website": "https://www.hotel-krystal.cz/"
              },
              "geometry": {
                "type": "Point",
                "coordinates": [
                  17.1214896,
                  48.8508521
                ]
              }
            },
            {
              "type": "Feature",
              "properties": {
                "id": "9805617311",
                "osm_type": "node",
                "lat": 48.8443104,
                "lon": 17.1267795,
                "capacity": "198",
                "email": "info@hotelpanon.cz",
                "name": "Hotel Panon",
                "phone": "+420 518 341 243",
                "ref:nap": "15243",
                "tourism": "hotel",
                "website": "https://www.hotelpanon.cz/"
              },
              "geometry": {
                "type": "Point",
                "coordinates": [
                  17.1267795,
                  48.8443104
                ]
              }
            }
          ],
          "children": []
        },
        {
          "bbox": {
            "south": 48.851801374999994,
            "west": 16.2068765,
            "north": 49.017078,
            "east": 16.68372825
          },
          "poiCount": 7,
          "leafCount": 7,
          "averagePosition": [
            16.515515385714284,
            48.87496911428571
          ],
          "data": [
            {
              "type": "Feature",
              "properties": {
                "id": "812324740",
                "osm_type": "node",
                "lat": 48.8573738,
                "lon": 16.4866284,
                "addr:city": "Drnholec",
                "addr:housenumber": "5",
                "addr:postcode": "69183",
                "addr:street": "náměstí Svobody",
                "name": "Hotel Drnholec",
                "phone": "+420 725 555 580",
                "stars": "3",
                "tourism": "hotel",
                "website": "https://www.hoteldrnholec.cz/"
              },
              "geometry": {
                "type": "Point",
                "coordinates": [
                  16.4866284,
                  48.8573738
                ]
              }
            },
            {
              "type": "Feature",
              "properties": {
                "id": "5026707241",
                "osm_type": "node",
                "lat": 48.8571218,
                "lon": 16.4851054,
                "name": "Penzion U dvou lip",
                "tourism": "hotel"
              },
              "geometry": {
                "type": "Point",
                "coordinates": [
                  16.4851054,
                  48.8571218
                ]
              }
            },
            {
              "type": "Feature",
              "properties": {
                "id": "12056494453",
                "osm_type": "node",
                "lat": 48.859075,
                "lon": 16.4838207,
                "addr:city": "Drnholec",
                "addr:housenumber": "201",
                "addr:postcode": "69183",
                "addr:street": "Tyršova",
                "dog": "no",
                "email": "info@hotel14dveri.cz",
                "internet_access": "yes",
                "internet_access:fee": "no",
                "name": "HOTEL 14 DVEŘÍ",
                "phone": "+42 0 777 632 786",
                "tourism": "hotel",
                "website": "https://hotel14dveri.cz/"
              },
              "geometry": {
                "type": "Point",
                "coordinates": [
                  16.4838207,
                  48.859075
                ]
              }
            },
            {
              "type": "Feature",
              "properties": {
                "id": "6968644789",
                "osm_type": "node",
                "lat": 48.8719554,
                "lon": 16.6697564,
                "addr:city": "Pavlov",
                "addr:housenumber": "174",
                "addr:postcode": "69201",
                "addr:street": "Klentnická",
                "contact:facebook": "https://www.facebook.com/hotelpavlov/",
                "email": "recepce@hotelpavlov.cz",
                "internet_access": "wlan",
                "internet_access:fee": "no",
                "name": "Hotel Pavlov",
                "opening_hours": "Mo-Fr 08:00-17:00",
                "operator": "Pavlof s.r.o.",
                "payment:cash": "yes",
                "payment:mastercard": "yes",
                "payment:visa": "yes",
                "phone": "+420 733 534 088",
                "reservation": "required",
                "rooms": "16",
                "smoking": "no",
                "tourism": "hotel",
                "website": "https://www.hotelpavlov.cz/"
              },
              "geometry": {
                "type": "Point",
                "coordinates": [
                  16.6697564,
                  48.8719554
                ]
              }
            },
            {
              "type": "Feature",
              "properties": {
                "id": "599826086",
                "osm_type": "node",
                "lat": 48.8748329,
                "lon": 16.2359849,
                "tourism": "hotel"
              },
              "geometry": {
                "type": "Point",
                "coordinates": [
                  16.2359849,
                  48.8748329
                ]
              }
            },
            {
              "type": "Feature",
              "properties": {
                "id": "583867792",
                "osm_type": "node",
                "lat": 48.9298082,
                "lon": 16.5751206,
                "name": "U Stehlíků",
                "shop": "convenience",
                "tourism": "hotel"
              },
              "geometry": {
                "type": "Point",
                "coordinates": [
                  16.5751206,
                  48.9298082
                ]
              }
            },
            {
              "type": "Feature",
              "properties": {
                "id": "6972711465",
                "osm_type": "node",
                "lat": 48.8746167,
                "lon": 16.6721913,
                "addr:city": "Pavlov",
                "addr:housenumber": "215",
                "addr:postcode": "69201",
                "addr:street": "Lužní",
                "air_conditioning": "yes",
                "capacity": "62",
                "contact:facebook": "https://www.facebook.com/Hotel.IRIS.Pavlov/",
                "email": "hotel.iris@vasstav.cz",
                "internet_access": "wlan",
                "internet_access:fee": "no",
                "name": "Wellness Hotel IRIS",
                "opening_hours": "Mo-Su 07:30-20:30",
                "outdoor_seating": "yes",
                "phone": "+420 519 515 310",
                "ref:nap": "18945",
                "reservation": "required",
                "rooms": "25",
                "sauna": "yes",
                "stars": "3",
                "tourism": "hotel",
                "website": "https://www.hotel-iris.cz/"
              },
              "geometry": {
                "type": "Point",
                "coordinates": [
                  16.6721913,
                  48.8746167
                ]
              }
            }
          ],
          "children": []
        },
        {
          "bbox": {
            "south": 48.851801374999994,
            "west": 16.68372825,
            "north": 49.017078,
            "east": 17.16058
          },
          "poiCount": 16,
          "leafCount": 16,
          "averagePosition": [
            16.8903617125,
            48.9176485625
          ],
          "data": [
            {
              "type": "Feature",
              "properties": {
                "id": "6967027712",
                "osm_type": "node",
                "lat": 48.8559928,
                "lon": 16.9077277,
                "addr:city": "Velké Bílovice",
                "addr:housenumber": "656",
                "addr:postcode": "69102",
                "addr:street": "Sadová",
                "contact:facebook": "https://www.facebook.com/hotelmadl/",
                "email": "recepce@vasvinar.cz",
                "internet_access": "wlan",
                "name": "Hotel Mádl",
                "opening_hours": "Mo-Sa 08:00-20:00; Su 08:00-14:00",
                "phone": "+420 725 950 970",
                "reservation": "required",
                "tourism": "hotel",
                "website": "https://vasvinar.cz/hotelmadl_cz/index.php",
                "wheelchair": "yes"
              },
              "geometry": {
                "type": "Point",
                "coordinates": [
                  16.9077277,
                  48.8559928
                ]
              }
            },
            {
              "type": "Feature",
              "properties": {
                "id": "1695238465",
                "osm_type": "node",
                "lat": 48.8559132,
                "lon": 17.1227046,
                "addr:conscriptionnumber": "2273",
                "addr:country": "CZ",
                "addr:housenumber": "2273/6",
                "addr:place": "Hodonín",
                "addr:postcode": "69501",
                "addr:street": "Wilsonova",
                "addr:streetnumber": "6",
                "name": "Hotel Grand",
                "source": "http://www.hotelgrandhodonin.cz/",
                "tourism": "hotel"
              },
              "geometry": {
                "type": "Point",
                "coordinates": [
                  17.1227046,
                  48.8559132
                ]
              }
            },
            {
              "type": "Feature",
              "properties": {
                "id": "11037753806",
                "osm_type": "node",
                "lat": 48.8641371,
                "lon": 17.1429868,
                "name": "hotelový dům Eva",
                "tourism": "hotel"
              },
              "geometry": {
                "type": "Point",
                "coordinates": [
                  17.1429868,
                  48.8641371
                ]
              }
            },
            {
              "type": "Feature",
              "properties": {
                "id": "254018853",
                "osm_type": "node",
                "lat": 48.9194391,
                "lon": 16.8463398,
                "capacity": "101",
                "email": "hotel@kravihora.cz",
                "internet_access": "wlan",
                "internet_access:fee": "no",
                "name": "Hotel Kraví hora",
                "phone": "+420 519 430 090",
                "ref:nap": "19888",
                "tourism": "hotel",
                "website": "https://www.kravihora.cz/"
              },
              "geometry": {
                "type": "Point",
                "coordinates": [
                  16.8463398,
                  48.9194391
                ]
              }
            },
            {
              "type": "Feature",
              "properties": {
                "id": "1192923309",
                "osm_type": "node",
                "lat": 49.0142513,
                "lon": 16.7795325,
                "addr:conscriptionnumber": "403",
                "addr:country": "CZ",
                "addr:housenumber": "403",
                "addr:street": "Osvobození",
                "name": "Společenský dům Orlovna Šitbořice",
                "source:addr": "mvcr:adresa",
                "source:loc": "cuzk:km",
                "tourism": "hotel"
              },
              "geometry": {
                "type": "Point",
                "coordinates": [
                  16.7795325,
                  49.0142513
                ]
              }
            },
            {
              "type": "Feature",
              "properties": {
                "id": "2306122634",
                "osm_type": "node",
                "lat": 48.90423,
                "lon": 16.9460201,
                "addr:city": "Čejkovice",
                "addr:housenumber": "1",
                "addr:postcode": "69615",
                "addr:street": "Templářská",
                "check_date": "2024-05-19",
                "contact:facebook": "https://www.facebook.com/Hotel-Z%C3%A1mek-%C4%8Cejkovice-134154910022401/",
                "email": "info@hotelcejkovice.cz",
                "internet_access": "wlan",
                "internet_access:fee": "customers",
                "name": "Hotel Zámek",
                "payment:american_express": "yes",
                "payment:cash": "yes",
                "payment:diners_club": "yes",
                "payment:jcb": "yes",
                "payment:mastercard": "yes",
                "payment:visa": "yes",
                "phone": "+420 518 362 538",
                "rooms": "30",
                "source": "local knowledge",
                "tourism": "hotel",
                "website": "http://www.hotelcejkovice.cz/"
              },
              "geometry": {
                "type": "Point",
                "coordinates": [
                  16.9460201,
                  48.90423
                ]
              }
            },
            {
              "type": "Feature",
              "properties": {
                "id": "2625387309",
                "osm_type": "node",
                "lat": 48.9567969,
                "lon": 16.7629833,
                "name": "Adina",
                "tourism": "hotel"
              },
              "geometry": {
                "type": "Point",
                "coordinates": [
                  16.7629833,
                  48.9567969
                ]
              }
            },
            {
              "type": "Feature",
              "properties": {
                "id": "3979586735",
                "osm_type": "node",
                "lat": 48.9351899,
                "lon": 16.7377574,
                "name": "Apartmány Na Vinařské",
                "tourism": "hotel"
              },
              "geometry": {
                "type": "Point",
                "coordinates": [
                  16.7377574,
                  48.9351899
                ]
              }
            },
            {
              "type": "Feature",
              "properties": {
                "id": "4478733365",
                "osm_type": "node",
                "lat": 48.9468979,
                "lon": 16.7333741,
                "addr:city": "Hustopeče",
                "addr:housenumber": "448/21",
                "addr:postcode": "69301",
                "addr:street": "Šafaříkova",
                "name": "Hotel Formanka",
                "rooms": "26",
                "source": "survey;gps",
                "tourism": "hotel",
                "website": "https://www.formanka.net/inpage/hotel-formanka-hustopece/"
              },
              "geometry": {
                "type": "Point",
                "coordinates": [
                  16.7333741,
                  48.9468979
                ]
              }
            },
            {
              "type": "Feature",
              "properties": {
                "id": "4791700861",
                "osm_type": "node",
                "lat": 48.9416678,
                "lon": 16.7376882,
                "name": "Rustikal",
                "tourism": "hotel"
              },
              "geometry": {
                "type": "Point",
                "coordinates": [
                  16.7376882,
                  48.9416678
                ]
              }
            },
            {
              "type": "Feature",
              "properties": {
                "id": "6657466686",
                "osm_type": "node",
                "lat": 48.8984161,
                "lon": 16.8169379,
                "addr:city": "Velké Pavlovice",
                "addr:housenumber": "1177/69",
                "addr:postcode": "69106",
                "addr:street": "Dlouhá",
                "contact:facebook": "https://www.facebook.com/lotrinskyhotel/",
                "contact:instagram": "https://www.instagram.com/lotrinsky_hotel/",
                "email": "recepce@hotel-lotrinsky.cz",
                "internet_access": "wlan",
                "internet_access:fee": "no",
                "name": "Hotel Lotrinský",
                "phone": "+420515535828",
                "reservation": "required",
                "rooms": "42",
                "smoking": "no",
                "tourism": "hotel",
                "website": "https://www.hotel-lotrinsky.cz/"
              },
              "geometry": {
                "type": "Point",
                "coordinates": [
                  16.8169379,
                  48.8984161
                ]
              }
            },
            {
              "type": "Feature",
              "properties": {
                "id": "9805587315",
                "osm_type": "node",
                "lat": 48.9022651,
                "lon": 16.9397106,
                "capacity": "60",
                "email": "hotel@albor.cz",
                "name": "Hotel-Penzion Albor",
                "phone": "+420 518 362 333",
                "ref:nap": "15251",
                "tourism": "hotel",
                "website": "https://www.albor.cz/"
              },
              "geometry": {
                "type": "Point",
                "coordinates": [
                  16.9397106,
                  48.9022651
                ]
              }
            },
            {
              "type": "Feature",
              "properties": {
                "id": "9805592717",
                "osm_type": "node",
                "lat": 48.930055,
                "lon": 16.7607566,
                "capacity": "60",
                "email": "hotelruzeny@email.cz",
                "name": "Hotel Růženy",
                "phone": "+420 519 413 731",
                "ref:nap": "20787",
                "tourism": "hotel",
                "website": "https://www.hotelruzeny.cz/"
              },
              "geometry": {
                "type": "Point",
                "coordinates": [
                  16.7607566,
                  48.930055
                ]
              }
            },
            {
              "type": "Feature",
              "properties": {
                "id": "10797270724",
                "osm_type": "node",
                "lat": 48.9025881,
                "lon": 16.9498271,
                "addr:housenumber": "942",
                "addr:street": "Příhon",
                "name": "Boutique hotel Škrobák",
                "tourism": "hotel",
                "website": "https://vinoskrobak.cz/"
              },
              "geometry": {
                "type": "Point",
                "coordinates": [
                  16.9498271,
                  48.9025881
                ]
              }
            },
            {
              "type": "Feature",
              "properties": {
                "id": "11964100713",
                "osm_type": "node",
                "lat": 48.907523,
                "lon": 16.9425018,
                "email": "info@penzioncejkovice.cz",
                "internet_access": "wlan",
                "internet_access:fee": "yes",
                "name": "Adalbert penzion Čejkovice",
                "phone": "+420 602 760 001",
                "tourism": "hotel",
                "website": "http://www.penzioncejkovice.cz/"
              },
              "geometry": {
                "type": "Point",
                "coordinates": [
                  16.9425018,
                  48.907523
                ]
              }
            },
            {
              "type": "Feature",
              "properties": {
                "id": "9805587316",
                "osm_type": "node",
                "lat": 48.9470137,
                "lon": 17.1189389,
                "capacity": "40",
                "email": "info@hotelvinohrad.cz",
                "name": "Hotel Vinohrad",
                "phone": "+420 777 722 595",
                "ref:nap": "15911",
                "tourism": "hotel",
                "website": "https://www.hotelvinohrad.cz/"
              },
              "geometry": {
                "type": "Point",
                "coordinates": [
                  17.1189389,
                  48.9470137
                ]
              }
            }
          ],
          "children": []
        }
      ]
    }
  ]
}