{
  "bbox": {
    "south": 48.355971499999995,
    "west": 11.438358999999998,
    "north": 49.017078,
    "east": 13.345766
  },
  "poiCount": 209,
  "leafCount": 0,
  "averagePosition": [
    12.442145400956937,
    48.67249448899521
  ],
  "data": [],
  "children": [
    {
      "bbox": {
        "south": 48.355971499999995,
        "west": 11.438358999999998,
        "north": 48.68652475,
        "east": 12.392062499999998
      },
      "poiCount": 61,
      "leafCount": 0,
      "averagePosition": [
        11.858135721311477,
        48.49513162131147
      ],
      "data": [],
      "children": [
        {
          "bbox": {
            "south": 48.355971499999995,
            "west": 11.438358999999998,
            "north": 48.521248125,
            "east": 11.915210749999998
          },
          "poiCount": 24,
          "leafCount": 24,
          "averagePosition": [
            11.655993958333333,
            48.4221762125
          ],
          "data": [
            {
              "type": "Feature",
              "properties": {
                "id": "1786731457",
                "osm_type": "node",
                "lat": 48.361138,
                "lon": 11.4446684,
                "addr:city": "Vierkirchen",
                "addr:housenumber": "24",
                "addr:postcode": "85256",
                "addr:street": "Schloßstraße",
                "addr:suburb": "Pasenbach",
                "email": "info@hotel-cafe-paso.de",
                "fax": "+49 8139 9997039",
                "internet_access": "wlan",
                "internet_access:fee": "no",
                "name": "Hotel Paso",
                "operator": "Christoph Großmann",
                "payment:american_express": "yes",
                "payment:cards": "yes",
                "payment:coins": "yes",
                "payment:credit_cards": "yes",
                "payment:debit_cards": "yes",
                "payment:maestro": "yes",
                "payment:mastercard": "yes",
                "payment:notes": "yes",
                "payment:visa": "yes",
                "phone": "+49 8139 999700",
                "reservation": "yes",
                "rooms": "24",
                "smoking": "outside",
                "tourism": "hotel",
                "website": "https://hotel-paso.de/",
                "wheelchair": "yes"
              },
              "geometry": {
                "type": "Point",
                "coordinates": [
                  11.4446684,
                  48.361138
                ]
              }
            },
            {
              "type": "Feature",
              "properties": {
                "id": "1580903748",
                "osm_type": "node",
                "lat": 48.3606073,
                "lon": 11.8900658,
                "addr:city": "Eitting",
                "addr:country": "DE",
                "addr:housenumber": "4",
                "addr:postcode": "85462",
                "addr:street": "Sankt-Georg-Straße",
                "email": "info@hotel-postwirt.com",
                "fax": "+49812285295",
                "name": "Gasthaus Zur Post",
                "phone": "+49 8122-42912",
                "tourism": "hotel",
                "website": "https://www.hotel-postwirt.com/",
                "wheelchair": "limited"
              },
              "geometry": {
                "type": "Point",
                "coordinates": [
                  11.8900658,
                  48.3606073
                ]
              }
            },
            {
              "type": "Feature",
              "properties": {
                "id": "7083550817",
                "osm_type": "node",
                "lat": 48.3712694,
                "lon": 11.7735863,
                "addr:city": "Freising",
                "addr:country": "DE",
                "addr:housenumber": "7;9;9a",
                "addr:postcode": "85356",
                "addr:street": "Zur Mühle",
                "addr:suburb": "Attaching",
                "email": "info@monteurzimmer-freising.de",
                "internet_access": "wlan",
                "name": "Mühle Attaching",
                "operator": "Josef Angermair",
                "phone": "+49 170 2943620",
                "tourism": "hotel",
                "website": "https://monteurzimmer-freising.de/",
                "wikidata": "Q1958376",
                "wikipedia": "de:Mühle Attaching"
              },
              "geometry": {
                "type": "Point",
                "coordinates": [
                  11.7735863,
                  48.3712694
                ]
              }
            },
            {
              "type": "Feature",
              "properties": {
                "id": "1629481836",
                "osm_type": "node",
                "lat": 48.5010136,
                "lon": 11.4523669,
                "name": "Schyrenhof",
                "tourism": "hotel"
              },
              "geometry": {
                "type": "Point",
                "coordinates": [
                  11.4523669,
                  48.5010136
                ]
              }
            },
            {
              "type": "Feature",
              "properties": {
                "id": "8718812288",
                "osm_type": "node",
                "lat": 48.4175536,
                "lon": 11.4715049,
                "addr:city": "Petershausen",
                "addr:housenumber": "5",
                "addr:postcode": "85238",
                "addr:street": "Fraunhoferring",
                "email": "info@hotel-poellners.de",
                "internet_access": "wlan",
                "mobile": "+49 151 22051867",
                "name": "Pöllners",
                "note": "Hotel & Serviced Apartments ; Neueröffnung 2021",
                "operator": "Pöllner Hotel & Gastro GmbH",
                "phone": "+49 8137 9984004",
                "smoking": "no",
                "tourism": "hotel",
                "website": "https://www.hotel-poellners.de/"
              },
              "geometry": {
                "type": "Point",
                "coordinates": [
                  11.4715049,
                  48.4175536
                ]
              }
            },
            {
              "type": "Feature",
              "properties": {
                "id": "9100062934",
                "osm_type": "node",
                "lat": 48.4251987,
                "lon": 11.5196043,
                "addr:city": "Hohenkammer",
                "addr:country": "DE",
                "addr:housenumber": "18-25",
                "addr:postcode": "85411",
                "addr:street": "Schlossstraße",
                "email": "mail@schlosshohenkammer.de",
                "fax": "+49 8137 934390",
                "name": "Schloss Hohenkammer",
                "operator": "Schloss Hohenkammer GmbH",
                "phone": "+49 8137 9340",
                "tourism": "hotel",
                "website": "https://www.schlosshohenkammer.de/",
                "wheelchair": "yes"
              },
              "geometry": {
                "type": "Point",
                "coordinates": [
                  11.5196043,
                  48.4251987
                ]
              }
            },
            {
              "type": "Feature",
              "properties": {
                "id": "29985663",
                "osm_type": "node",
                "lat": 48.3968798,
                "lon": 11.7562387,
                "contact:email": "info@isarhotel.de",
                "contact:fax": "+49 8161 865555",
                "contact:phone": "+49 8161 8650",
                "contact:website": "https://www.isarhotel.de/",
                "name": "Isarhotel",
                "rooms": "50",
                "tourism": "hotel"
              },
              "geometry": {
                "type": "Point",
                "coordinates": [
                  11.7562387,
                  48.3968798
                ]
              }
            },
            {
              "type": "Feature",
              "properties": {
                "id": "366739624",
                "osm_type": "node",
                "lat": 48.4293177,
                "lon": 11.5931164,
                "addr:city": "Allershausen",
                "addr:country": "DE",
                "addr:housenumber": "4",
                "addr:postcode": "85391",
                "addr:street": "Mozartstraße",
                "name": "Eichinger",
                "phone": "+49 8166-7300",
                "tourism": "hotel"
              },
              "geometry": {
                "type": "Point",
                "coordinates": [
                  11.5931164,
                  48.4293177
                ]
              }
            },
            {
              "type": "Feature",
              "properties": {
                "id": "366739743",
                "osm_type": "node",
                "lat": 48.4301378,
                "lon": 11.5917,
                "addr:city": "Allershausen",
                "addr:country": "DE",
                "addr:housenumber": "2",
                "addr:postcode": "85391",
                "addr:street": "Robert-Koch-Straße",
                "name": "An der Glonn",
                "phone": "+49 8166-67610",
                "tourism": "hotel"
              },
              "geometry": {
                "type": "Point",
                "coordinates": [
                  11.5917,
                  48.4301378
                ]
              }
            },
            {
              "type": "Feature",
              "properties": {
                "id": "424163114",
                "osm_type": "node",
                "lat": 48.3894396,
                "lon": 11.5729431,
                "name": "Hörger Biohotel",
                "tourism": "hotel",
                "website": "https://www.hoerger-biohotel.de/"
              },
              "geometry": {
                "type": "Point",
                "coordinates": [
                  11.5729431,
                  48.3894396
                ]
              }
            },
            {
              "type": "Feature",
              "properties": {
                "id": "502956338",
                "osm_type": "node",
                "lat": 48.430166,
                "lon": 11.6015311,
                "addr:city": "Allershausen",
                "addr:country": "DE",
                "addr:housenumber": "18",
                "addr:postcode": "85391",
                "addr:street": "Freisinger Straße",
                "email": "info@hotel-huberhof.de",
                "internet_access": "wlan",
                "name": "Huberhof",
                "phone": "+49 8166 687120",
                "tourism": "hotel",
                "website": "https://www.hotel-huberhof.de/"
              },
              "geometry": {
                "type": "Point",
                "coordinates": [
                  11.6015311,
                  48.430166
                ]
              }
            },
            {
              "type": "Feature",
              "properties": {
                "id": "643614851",
                "osm_type": "node",
                "lat": 48.3960992,
                "lon": 11.7191078,
                "addr:city": "Freising",
                "addr:country": "DE",
                "addr:housenumber": "60",
                "addr:postcode": "85354",
                "addr:street": "Vöttinger Straße",
                "name": "Gasthof Lerner",
                "phone": "+49 8161 91646",
                "tourism": "hotel",
                "website": "https://www.gasthof-lerner.de/",
                "wheelchair": "yes"
              },
              "geometry": {
                "type": "Point",
                "coordinates": [
                  11.7191078,
                  48.3960992
                ]
              }
            },
            {
              "type": "Feature",
              "properties": {
                "id": "643615414",
                "osm_type": "node",
                "lat": 48.395833,
                "lon": 11.7198883,
                "addr:city": "Freising",
                "addr:country": "DE",
                "addr:housenumber": "1",
                "addr:postcode": "85354",
                "addr:street": "Weihenstephaner Steig",
                "name": "Pension Pflügler",
                "phone": "+49 8161-13074",
                "tourism": "hotel",
                "website": "https://pension-pfluegler.de/"
              },
              "geometry": {
                "type": "Point",
                "coordinates": [
                  11.7198883,
                  48.395833
                ]
              }
            },
            {
              "type": "Feature",
              "properties": {
                "id": "673199699",
                "osm_type": "node",
                "lat": 48.5107868,
                "lon": 11.5807053,
                "name": "Thannhof",
                "phone": "+49 8444 9287 0",
                "tourism": "hotel",
                "website": "http://www.thannhof.de/"
              },
              "geometry": {
                "type": "Point",
                "coordinates": [
                  11.5807053,
                  48.5107868
                ]
              }
            },
            {
              "type": "Feature",
              "properties": {
                "id": "831352530",
                "osm_type": "node",
                "lat": 48.4001758,
                "lon": 11.7505525,
                "addr:city": "Freising",
                "addr:country": "DE",
                "addr:housenumber": "1-3",
                "addr:postcode": "85356",
                "addr:street": "Dr.-von-Daller-Straße",
                "brand": "Mercure",
                "brand:wikidata": "Q1709809",
                "brand:wikipedia": "en:Mercure (hotel)",
                "check_date": "2024-12-17",
                "internet_access": "wlan",
                "internet_access:fee": "customers",
                "name": "Mercure Hotel München Freising Airport",
                "operator": "Accor Hotels",
                "phone": "+49 8161 532-0",
                "tourism": "hotel",
                "website": "https://all.accor.com/hotel/A0Q8/index.de.shtml",
                "wheelchair": "yes",
                "wikidata": "Q111387963"
              },
              "geometry": {
                "type": "Point",
                "coordinates": [
                  11.7505525,
                  48.4001758
                ]
              }
            },
            {
              "type": "Feature",
              "properties": {
                "id": "2077964142",
                "osm_type": "node",
                "lat": 48.3996261,
                "lon": 11.7376817,
                "addr:city": "Freising",
                "addr:country": "DE",
                "addr:housenumber": "7",
                "addr:postcode": "85354",
                "addr:street": "Wippenhauser Straße",
                "brand": "Achat",
                "email": "freising@achat-hotels.com",
                "internet_access": "wlan",
                "internet_access:fee": "no",
                "name": "Hotel Corbin",
                "phone": "+49-8161-88690",
                "tourism": "hotel",
                "website": "https://achat-hotels.com/hotels/corbin-muenchen-airport",
                "wheelchair": "yes"
              },
              "geometry": {
                "type": "Point",
                "coordinates": [
                  11.7376817,
                  48.3996261
                ]
              }
            },
            {
              "type": "Feature",
              "properties": {
                "id": "3581442293",
                "osm_type": "node",
                "lat": 48.5179852,
                "lon": 11.5611487,
                "addr:housenumber": "1",
                "addr:street": "Siebenecken",
                "email": "info@hotel-strasshof.de",
                "fax": "+49 (0)8444-915345",
                "name": "Hotel Straßhof",
                "phone": "+49 (0)8444-7239",
                "restaurant": "yes",
                "toilets:wheelchair": "yes",
                "tourism": "hotel",
                "website": "https://hotel-strasshof.de",
                "wheelchair": "yes"
              },
              "geometry": {
                "type": "Point",
                "coordinates": [
                  11.5611487,
                  48.5179852
                ]
              }
            },
            {
              "type": "Feature",
              "properties": {
                "id": "3757489294",
                "osm_type": "node",
                "lat": 48.5102406,
                "lon": 11.5809685,
                "name": "Apart Boardinghaus Holledau Inn",
                "operator": "Apart Boardinghaus Holledau Inn GmbH",
                "phone": "+49 8444 9244624",
                "tourism": "hotel",
                "website": "http://www.holledau-inn.de/"
              },
              "geometry": {
                "type": "Point",
                "coordinates": [
                  11.5809685,
                  48.5102406
                ]
              }
            },
            {
              "type": "Feature",
              "properties": {
                "id": "7056244458",
                "osm_type": "node",
                "lat": 48.4052803,
                "lon": 11.7576761,
                "addr:city": "Freising",
                "addr:country": "DE",
                "addr:housename": "Gasthaus zum Löwen",
                "addr:housenumber": "66",
                "addr:postcode": "85356",
                "addr:street": "Landshuter Straße",
                "check_date": "2024-12-19",
                "email": "info@der-heurige.de",
                "mapillary": "127990779699763",
                "name": "Der Heurige",
                "opening_hours": "\"Buchung telefonisch oder online\"",
                "operator": "Isabella Rauscher-Olschewski",
                "phone": "+49-8161-149494",
                "survey:date": "2022-01-09",
                "tourism": "hotel",
                "website": "https://www.der-heurige.de/hotel"
              },
              "geometry": {
                "type": "Point",
                "coordinates": [
                  11.7576761,
                  48.4052803
                ]
              }
            },
            {
              "type": "Feature",
              "properties": {
                "id": "8457163018",
                "osm_type": "node",
                "lat": 48.3878509,
                "lon": 11.7612357,
                "name": "We Jo",
                "tourism": "hotel"
              },
              "geometry": {
                "type": "Point",
                "coordinates": [
                  11.7612357,
                  48.3878509
                ]
              }
            },
            {
              "type": "Feature",
              "properties": {
                "id": "11756593503",
                "osm_type": "node",
                "lat": 48.4289069,
                "lon": 11.5856194,
                "name": "Hotel A9 Am Kreisverkehr",
                "tourism": "hotel"
              },
              "geometry": {
                "type": "Point",
                "coordinates": [
                  11.5856194,
                  48.4289069
                ]
              }
            },
            {
              "type": "Feature",
              "properties": {
                "id": "11987884486",
                "osm_type": "node",
                "lat": 48.4013809,
                "lon": 11.7446311,
                "addr:city": "Freising",
                "addr:country": "DE",
                "addr:housenumber": "3",
                "addr:postcode": "85354",
                "addr:street": "Untere Hauptstraße",
                "check_date": "2025-08-28",
                "check_date:internet_access": "2024-10-27",
                "internet_access": "wlan",
                "name": "Hotel Bayerischer Hof",
                "operator": "Marc Sielhöfer",
                "payment:girocard": "yes",
                "phone": "+49 8161 538300",
                "tourism": "hotel",
                "website": "https://movenpick.accor.com/en/europe/germany/munich/hotel-munich-airport.html",
                "wheelchair": "limited"
              },
              "geometry": {
                "type": "Point",
                "coordinates": [
                  11.7446311,
                  48.4013809
                ]
              }
            },
            {
              "type": "Feature",
              "properties": {
                "id": "12643392111",
                "osm_type": "node",
                "lat": 48.4074958,
                "lon": 11.7467792,
                "addr:city": "Freising",
                "addr:country": "DE",
                "addr:housenumber": "36",
                "addr:postcode": "85356",
                "addr:street": "Mainburger Straße",
                "contact:website": "https://booking.bobw.co/?property=freising-mai36",
                "name": "Bob W.",
                "tourism": "hotel"
              },
              "geometry": {
                "type": "Point",
                "coordinates": [
                  11.7467792,
                  48.4074958
                ]
              }
            },
            {
              "type": "Feature",
              "properties": {
                "id": "12744001538",
                "osm_type": "node",
                "lat": 48.4578461,
                "lon": 11.8305348,
                "addr:city": "Haag an der Amper",
                "addr:country": "DE",
                "addr:housenumber": "7a",
                "addr:postcode": "85410",
                "addr:street": "Freisinger Straße",
                "check_date": "2025-07-28",
                "name": "Ampertal",
                "operator": "Michaela Schwarzer",
                "tourism": "hotel"
              },
              "geometry": {
                "type": "Point",
                "coordinates": [
                  11.8305348,
                  48.4578461
                ]
              }
            }
          ],
          "children": []
        },
        {
          "bbox": {
            "south": 48.355971499999995,
            "west": 11.915210749999998,
            "north": 48.521248125,
            "east": 12.392062499999998
          },
          "poiCount": 11,
          "leafCount": 11,
          "averagePosition": [
            11.992830363636363,
            48.47027547272727
          ],
          "data": [
            {
              "type": "Feature",
              "properties": {
                "id": "275718460",
                "osm_type": "node",
                "lat": 48.4053234,
                "lon": 11.9889746,
                "addr:city": "Wartenberg",
                "addr:country": "DE",
                "addr:housenumber": "4",
                "addr:postcode": "85456",
                "addr:street": "Untere Hauptstraße",
                "description": "Singel room from 59 €, double room from 89 €",
                "email": "info@hotel-reiter-braeu.de",
                "internet_access": "wlan",
                "name": "Reiter Bräu",
                "operator": "Anton Müller",
                "phone": "+49 8762 73580",
                "rooms": "34",
                "tourism": "hotel",
                "website": "https://www.hotel-reiter-braeu.de/",
                "wheelchair": "no"
              },
              "geometry": {
                "type": "Point",
                "coordinates": [
                  11.9889746,
                  48.4053234
                ]
              }
            },
            {
              "type": "Feature",
              "properties": {
                "id": "1783749602",
                "osm_type": "node",
                "lat": 48.5155333,
                "lon": 12.0161058,
                "addr:city": "Bruckberg",
                "addr:country": "DE",
                "addr:housenumber": "2a,",
                "addr:postcode": "84079",
                "addr:street": "Plantagenstraße",
                "check_date": "2024-12-23",
                "name": "Gästehaus Hutzenthaler",
                "operator": "Hutzenthaler GbR",
                "phone": "+49 8765 204",
                "tourism": "hotel",
                "website": "https://www.hotel-hutzenthaler.de/",
                "wheelchair": "limited"
              },
              "geometry": {
                "type": "Point",
                "coordinates": [
                  12.0161058,
                  48.5155333
                ]
              }
            },
            {
              "type": "Feature",
              "properties": {
                "id": "2284838816",
                "osm_type": "node",
                "lat": 48.3908769,
                "lon": 11.9474569,
                "beds": "53",
                "description": "single room from 80 €, double room from 100 €",
                "email": "info@schweigers-landgasthof.de",
                "fax": "+49 8762 7307 92",
                "name": "Schweiger's Landgasthof",
                "operator": "Steffen Seibert",
                "phone": "+49 8762 7307 0",
                "rooms": "32",
                "tourism": "hotel",
                "website": "https://www.schweigers-landgasthof.de/"
              },
              "geometry": {
                "type": "Point",
                "coordinates": [
                  11.9474569,
                  48.3908769
                ]
              }
            },
            {
              "type": "Feature",
              "properties": {
                "id": "3964425025",
                "osm_type": "node",
                "lat": 48.4706072,
                "lon": 11.9318887,
                "addr:city": "Moosburg a.d. Isar",
                "addr:country": "DE",
                "addr:housenumber": "10",
                "addr:postcode": "85368",
                "addr:street": "Fronängerstraße",
                "check_date": "2025-07-26",
                "check_date:opening_hours": "2024-06-17",
                "email": "hotel@hotel-dreirosen.de",
                "fax": "+49 8761 3829441",
                "internet_access": "wlan",
                "internet_access:fee": "customers",
                "name": "Drei Rosen",
                "phone": "+49 8761 3829440",
                "rooms": "24",
                "tourism": "hotel",
                "website": "https://www.hoteldreirosen.de/",
                "wheelchair": "limited"
              },
              "geometry": {
                "type": "Point",
                "coordinates": [
                  11.9318887,
                  48.4706072
                ]
              }
            },
            {
              "type": "Feature",
              "properties": {
                "id": "4293358798",
                "osm_type": "node",
                "lat": 48.4662664,
                "lon": 11.9401973,
                "addr:city": "Moosburg a.d. Isar",
                "addr:country": "DE",
                "addr:housenumber": "5",
                "addr:postcode": "85368",
                "addr:street": "Viehmarktstraße",
                "amenity": "biergarten",
                "check_date": "2025-02-08",
                "cuisine": "german",
                "name": "Hotel Gasthaus Huber",
                "operator": "Anton Huber",
                "outdoor_seating": "yes",
                "phone": "+49 8761 7603-0",
                "tourism": "hotel",
                "website": "https://www.huber-hotel.de/",
                "wheelchair": "no"
              },
              "geometry": {
                "type": "Point",
                "coordinates": [
                  11.9401973,
                  48.4662664
                ]
              }
            },
            {
              "type": "Feature",
              "properties": {
                "id": "6570606311",
                "osm_type": "node",
                "lat": 48.466023,
                "lon": 11.9381341,
                "addr:city": "Moosburg a.d. Isar",
                "addr:country": "DE",
                "addr:housenumber": "14",
                "addr:postcode": "85368",
                "addr:street": "Landshuter Straße",
                "check_date": "2025-07-26",
                "internet_access": "wlan",
                "name": "Hotel Moosburger Hof",
                "operator": "Evangelos Bournazos",
                "phone": "+49 8761-9544",
                "tourism": "hotel",
                "website": "https://www.mythos-moosburg.de/",
                "wheelchair": "yes"
              },
              "geometry": {
                "type": "Point",
                "coordinates": [
                  11.9381341,
                  48.466023
                ]
              }
            },
            {
              "type": "Feature",
              "properties": {
                "id": "8297105417",
                "osm_type": "node",
                "lat": 48.4659029,
                "lon": 11.945802,
                "addr:city": "Moosburg a.d. Isar",
                "addr:country": "DE",
                "addr:housenumber": "1",
                "addr:postcode": "85368",
                "addr:street": "Lände",
                "check_date": "2025-07-23",
                "email": "info@zur-laend.de",
                "fax": "+49 8761 62559",
                "internet_access": "wlan",
                "internet_access:fee": "customers",
                "name": "Zur Länd",
                "operator": "Ivan Rimac",
                "phone": "+49 8761 2384",
                "rooms": "18",
                "smoking": "outside",
                "tourism": "hotel",
                "website": "https://www.zur-laend.de/",
                "wheelchair": "yes"
              },
              "geometry": {
                "type": "Point",
                "coordinates": [
                  11.945802,
                  48.4659029
                ]
              }
            },
            {
              "type": "Feature",
              "properties": {
                "id": "10148182155",
                "osm_type": "node",
                "lat": 48.5126525,
                "lon": 12.0100984,
                "addr:city": "Bruckberg",
                "addr:country": "DE",
                "addr:housenumber": "32",
                "addr:postcode": "84079",
                "addr:street": "Landshuter Straße",
                "check_date": "2024-06-15",
                "name": "Eberlwirt",
                "phone": "+49 8765 93070",
                "tourism": "hotel",
                "website": "https://www.eberlwirt.de/"
              },
              "geometry": {
                "type": "Point",
                "coordinates": [
                  12.0100984,
                  48.5126525
                ]
              }
            },
            {
              "type": "Feature",
              "properties": {
                "id": "4429662627",
                "osm_type": "node",
                "lat": 48.5038761,
                "lon": 12.0568525,
                "addr:city": "Eching",
                "addr:country": "DE",
                "addr:housenumber": "1",
                "addr:postcode": "84174",
                "addr:street": "Stauseestraße",
                "check_date": "2022-12-21",
                "contact:email": "info@forster-am-see.de",
                "contact:fax": "+49 8709 7110",
                "contact:phone": "+49 8709 1783",
                "contact:website": "https://forster-am-see.de/",
                "internet_access": "wlan",
                "internet_access:fee": "no",
                "name": "Gasthaus Forster am See",
                "operator": "Stefan Forster",
                "toilets:wheelchair": "yes",
                "tourism": "hotel",
                "wheelchair": "yes"
              },
              "geometry": {
                "type": "Point",
                "coordinates": [
                  12.0568525,
                  48.5038761
                ]
              }
            },
            {
              "type": "Feature",
              "properties": {
                "id": "6446599113",
                "osm_type": "node",
                "lat": 48.4743055,
                "lon": 12.0447084,
                "addr:city": "Eching",
                "addr:country": "DE",
                "addr:housenumber": "6",
                "addr:postcode": "84174",
                "addr:street": "Bucher Straße",
                "addr:suburb": "Haunwang",
                "check_date": "2023-11-14",
                "name": "Landgasthof & Landhotel Wild",
                "operator": "Sebastian Wild",
                "phone": "+49 8709 2314",
                "tourism": "hotel",
                "website": "https://www.landgasthofwild.de/",
                "wikidata": "Q111851933"
              },
              "geometry": {
                "type": "Point",
                "coordinates": [
                  12.0447084,
                  48.4743055
                ]
              }
            },
            {
              "type": "Feature",
              "properties": {
                "id": "11974775308",
                "osm_type": "node",
                "lat": 48.501663,
                "lon": 12.1009153,
                "addr:city": "Tiefenbach",
                "addr:country": "DE",
                "addr:housenumber": "49",
                "addr:postcode": "84184",
                "addr:street": "Hauptstraße",
                "check_date": "2024-06-12",
                "email": "info@laviehotel.de",
                "internet_access": "wlan",
                "name": "LA vie Hotel",
                "operator": "Ivica Letic",
                "phone": "+49 8709 2691222",
                "tourism": "hotel",
                "website": "https://laviehotel.de/"
              },
              "geometry": {
                "type": "Point",
                "coordinates": [
                  12.1009153,
                  48.501663
                ]
              }
            }
          ],
          "children": []
        },
        {
          "bbox": {
            "south": 48.521248125,
            "west": 11.438358999999998,
            "north": 48.68652475,
            "east": 11.915210749999998
          },
          "poiCount": 8,
          "leafCount": 8,
          "averagePosition": [
            11.6139708,
            48.5829794625
          ],
          "data": [
            {
              "type": "Feature",
              "properties": {
                "id": "309213359",
                "osm_type": "node",
                "lat": 48.5281075,
                "lon": 11.5107014,
                "name": "Moosburger Hof",
                "tourism": "hotel",
                "website": "https://www.moosburgerhof.de/",
                "wheelchair": "yes",
                "wikidata": "Q111852141"
              },
              "geometry": {
                "type": "Point",
                "coordinates": [
                  11.5107014,
                  48.5281075
                ]
              }
            },
            {
              "type": "Feature",
              "properties": {
                "id": "3758585790",
                "osm_type": "node",
                "lat": 48.5352004,
                "lon": 11.5151338,
                "name": "Pension Greppmair",
                "operator": "Else Greppmair",
                "phone": "+49 8441 7972425",
                "tourism": "hotel",
                "website": "https://www.pension-greppmair.de/"
              },
              "geometry": {
                "type": "Point",
                "coordinates": [
                  11.5151338,
                  48.5352004
                ]
              }
            },
            {
              "type": "Feature",
              "properties": {
                "id": "7764704233",
                "osm_type": "node",
                "lat": 48.5309246,
                "lon": 11.5256815,
                "brand": "Alea",
                "internet_access": "wlan",
                "internet_access:fee": "no",
                "name": "Alea Eco",
                "operator": "Hotel Alea GmbH",
                "phone": "+49 8441 47997 02",
                "rooms": "80",
                "tourism": "hotel",
                "website": "https://www.hotel-alea.de/alea-eco-story",
                "wheelchair": "yes"
              },
              "geometry": {
                "type": "Point",
                "coordinates": [
                  11.5256815,
                  48.5309246
                ]
              }
            },
            {
              "type": "Feature",
              "properties": {
                "id": "11083784530",
                "osm_type": "node",
                "lat": 48.5299445,
                "lon": 11.5088777,
                "brand": "Müllerbräu",
                "name": "Hotel Müllerbräu",
                "phone": "+49 8441 4009110",
                "tourism": "hotel",
                "website": "https://www.muellerbraeu.com/hotel/"
              },
              "geometry": {
                "type": "Point",
                "coordinates": [
                  11.5088777,
                  48.5299445
                ]
              }
            },
            {
              "type": "Feature",
              "properties": {
                "id": "318775140",
                "osm_type": "node",
                "lat": 48.6025793,
                "lon": 11.6282067,
                "email": "info@haimerlhof.de",
                "name": "Haimerlhof",
                "phone": "+49 8442 956910",
                "tourism": "hotel",
                "website": "https://www.haimerlhof.de"
              },
              "geometry": {
                "type": "Point",
                "coordinates": [
                  11.6282067,
                  48.6025793
                ]
              }
            },
            {
              "type": "Feature",
              "properties": {
                "id": "429337262",
                "osm_type": "node",
                "lat": 48.6836815,
                "lon": 11.6089628,
                "check_date": "2025-01-22",
                "name": "KH Hotel",
                "stars": "3",
                "tourism": "hotel",
                "website": "https://www.khhotel.de/",
                "wheelchair": "no"
              },
              "geometry": {
                "type": "Point",
                "coordinates": [
                  11.6089628,
                  48.6836815
                ]
              }
            },
            {
              "type": "Feature",
              "properties": {
                "id": "946408983",
                "osm_type": "node",
                "lat": 48.6119719,
                "lon": 11.828827,
                "addr:city": "Volkenschwand",
                "addr:housenumber": "15",
                "addr:street": "Dorfstraße",
                "addr:suburb": "Großgundertshausen",
                "name": "Stadler Hof",
                "tourism": "hotel"
              },
              "geometry": {
                "type": "Point",
                "coordinates": [
                  11.828827,
                  48.6119719
                ]
              }
            },
            {
              "type": "Feature",
              "properties": {
                "id": "1796911357",
                "osm_type": "node",
                "lat": 48.641426,
                "lon": 11.7853755,
                "check_date": "2022-08-10",
                "contact:website": "https://www.seidlbraeu.de",
                "name": "Hotel - Gasthof Seidlbräu",
                "tourism": "hotel"
              },
              "geometry": {
                "type": "Point",
                "coordinates": [
                  11.7853755,
                  48.641426
                ]
              }
            }
          ],
          "children": []
        },
        {
          "bbox": {
            "south": 48.521248125,
            "west": 11.915210749999998,
            "north": 48.68652475,
            "east": 12.392062499999998
          },
          "poiCount": 18,
          "leafCount": 18,
          "averagePosition": [
            12.153862422222224,
            48.568551883333335
          ],
          "data": [
            {
              "type": "Feature",
              "properties": {
                "id": "6002140873",
                "osm_type": "node",
                "lat": 48.5918657,
                "lon": 12.0278841,
                "addr:city": "Furth",
                "addr:country": "DE",
                "addr:housenumber": "1",
                "addr:postcode": "84095",
                "addr:street": "Am Klosterberg",
                "name": "Seminar- und Schulungszentrum Kloster Furth",
                "tourism": "hotel"
              },
              "geometry": {
                "type": "Point",
                "coordinates": [
                  12.0278841,
                  48.5918657
                ]
              }
            },
            {
              "type": "Feature",
              "properties": {
                "id": "258849748",
                "osm_type": "node",
                "lat": 48.5446517,
                "lon": 12.1477168,
                "addr:city": "Landshut",
                "addr:country": "DE",
                "addr:housenumber": "3",
                "addr:postcode": "84034",
                "addr:street": "Stethaimerstraße",
                "check_date": "2024-12-25",
                "email": "info@hotel-fuerstenhof-landshut.de",
                "name": "Hotel Fürstenhof",
                "operator": "Simone & Andrè Greul",
                "phone": "+49 871 9255-0",
                "tourism": "hotel",
                "website": "https://hotel-fuerstenhof-landshut.de/"
              },
              "geometry": {
                "type": "Point",
                "coordinates": [
                  12.1477168,
                  48.5446517
                ]
              }
            },
            {
              "type": "Feature",
              "properties": {
                "id": "529658862",
                "osm_type": "node",
                "lat": 48.545835,
                "lon": 12.1398621,
                "addr:city": "Landshut",
                "addr:country": "DE",
                "addr:housenumber": "51",
                "addr:postcode": "84034",
                "addr:street": "Nikolastraße",
                "check_date": "2024-07-12",
                "dog": "yes",
                "email": "info@weihenstephaner-stuben.de",
                "internet_access": "wlan",
                "internet_access:fee": "customers",
                "name": "Weihenstephaner Stuben",
                "operator": "Jacqueline Mang",
                "phone": "+49 871 966510",
                "stars": "3",
                "tourism": "hotel",
                "website": "https://weihenstephaner-stuben.de/",
                "website:booking": "https://weihenstephaner-stuben.de/online-buchung/",
                "wheelchair": "no"
              },
              "geometry": {
                "type": "Point",
                "coordinates": [
                  12.1398621,
                  48.545835
                ]
              }
            },
            {
              "type": "Feature",
              "properties": {
                "id": "797640304",
                "osm_type": "node",
                "lat": 48.668468,
                "lon": 12.1773026,
                "name": "Landgasthof Beck",
                "tourism": "hotel"
              },
              "geometry": {
                "type": "Point",
                "coordinates": [
                  12.1773026,
                  48.668468
                ]
              }
            },
            {
              "type": "Feature",
              "properties": {
                "id": "927748789",
                "osm_type": "node",
                "lat": 48.5445405,
                "lon": 12.1461801,
                "addr:city": "Landshut",
                "addr:country": "DE",
                "addr:housenumber": "28",
                "addr:postcode": "84034",
                "addr:street": "Seligenthaler Straße",
                "check_date": "2025-05-24",
                "email": "info@hotel-cristallo.de",
                "fax": "+49 871 96567666",
                "name": "Cristallo",
                "phone": "+49 871 9656760",
                "tourism": "hotel",
                "website": "https://www.hotel-cristallo.de",
                "wheelchair": "no"
              },
              "geometry": {
                "type": "Point",
                "coordinates": [
                  12.1461801,
                  48.5445405
                ]
              }
            },
            {
              "type": "Feature",
              "properties": {
                "id": "1818194688",
                "osm_type": "node",
                "lat": 48.676456,
                "lon": 12.3133052,
                "addr:city": "Postau",
                "addr:country": "DE",
                "addr:housenumber": "23",
                "addr:postcode": "84103",
                "addr:street": "Köllnbachstraße",
                "addr:suburb": "Oberköllnbach",
                "email": "info@Gasthaus-Lehner.de",
                "fax": "+49 8774 9100 74",
                "name": "Gasthaus Lehner",
                "phone": "+49 8774 9100 73",
                "tourism": "hotel",
                "website": "https://www.gasthaus-lehner.de/"
              },
              "geometry": {
                "type": "Point",
                "coordinates": [
                  12.3133052,
                  48.676456
                ]
              }
            },
            {
              "type": "Feature",
              "properties": {
                "id": "2503246634",
                "osm_type": "node",
                "lat": 48.6078581,
                "lon": 12.3165688,
                "addr:city": "Niederaichbach",
                "addr:country": "DE",
                "addr:housename": "Gästehaus",
                "addr:housenumber": "13",
                "addr:postcode": "84100",
                "addr:street": "Isarstraße",
                "name": "Gästehaus Kirchenwirt",
                "operator": "Fam. Reißner",
                "tourism": "hotel",
                "website": "https://www.pension-kirchenwirt.de",
                "wheelchair": "no"
              },
              "geometry": {
                "type": "Point",
                "coordinates": [
                  12.3165688,
                  48.6078581
                ]
              }
            },
            {
              "type": "Feature",
              "properties": {
                "id": "3387443905",
                "osm_type": "node",
                "lat": 48.5373711,
                "lon": 12.1536542,
                "addr:city": "Landshut",
                "addr:country": "DE",
                "addr:housenumber": "1",
                "addr:postcode": "84028",
                "addr:street": "Börmergasse",
                "check_date": "2016-04-02",
                "email": "info@freischuetz-hotel.de",
                "name": "Hotel Freischütz",
                "operator": "Xenios GmbH",
                "phone": "+49 871 430143210",
                "tourism": "hotel",
                "website": "https://www.freischuetz-hotel.de"
              },
              "geometry": {
                "type": "Point",
                "coordinates": [
                  12.1536542,
                  48.5373711
                ]
              }
            },
            {
              "type": "Feature",
              "properties": {
                "id": "4215841604",
                "osm_type": "node",
                "lat": 48.5738163,
                "lon": 12.1061163,
                "tourism": "hotel"
              },
              "geometry": {
                "type": "Point",
                "coordinates": [
                  12.1061163,
                  48.5738163
                ]
              }
            },
            {
              "type": "Feature",
              "properties": {
                "id": "4316195245",
                "osm_type": "node",
                "lat": 48.5466765,
                "lon": 12.0921967,
                "addr:city": "Altdorf",
                "addr:country": "DE",
                "addr:housenumber": "37a",
                "addr:postcode": "84032",
                "addr:street": "Bernsteinstraße",
                "check_date": "2024-09-06",
                "name": "Hotel 37",
                "tourism": "hotel",
                "website": "https://www.hotel37.de/"
              },
              "geometry": {
                "type": "Point",
                "coordinates": [
                  12.0921967,
                  48.5466765
                ]
              }
            },
            {
              "type": "Feature",
              "properties": {
                "id": "6541941516",
                "osm_type": "node",
                "lat": 48.578934,
                "lon": 12.0595643,
                "addr:city": "Furth",
                "addr:country": "DE",
                "addr:housenumber": "8",
                "addr:postcode": "84095",
                "addr:street": "Linden",
                "check_date": "2025-06-12",
                "name": "Hotel Landgasthof Linden",
                "tourism": "hotel",
                "website": "https://www.landgasthof-linden.de/"
              },
              "geometry": {
                "type": "Point",
                "coordinates": [
                  12.0595643,
                  48.578934
                ]
              }
            },
            {
              "type": "Feature",
              "properties": {
                "id": "6765203233",
                "osm_type": "node",
                "lat": 48.5362283,
                "lon": 12.1471558,
                "addr:city": "Landshut",
                "addr:country": "DE",
                "addr:housenumber": "2",
                "addr:postcode": "84034",
                "addr:street": "Papiererstraße",
                "check_date": "2024-06-15",
                "email": "info@michelhotel-landshut.de",
                "internet_access": "wlan",
                "name": "Achat Hotel Kaiserhof",
                "phone": "+49 871 430 99 0",
                "tourism": "hotel",
                "website": "https://achat-hotels.com/hotels/landshut",
                "wheelchair": "limited"
              },
              "geometry": {
                "type": "Point",
                "coordinates": [
                  12.1471558,
                  48.5362283
                ]
              }
            },
            {
              "type": "Feature",
              "properties": {
                "id": "8000326486",
                "osm_type": "node",
                "lat": 48.5364097,
                "lon": 12.1543214,
                "addr:city": "Landshut",
                "addr:country": "DE",
                "addr:housenumber": "520",
                "addr:postcode": "84028",
                "addr:street": "Neustadt",
                "check_date": "2024-12-10",
                "contact:email": "info@goldenesonne.de",
                "contact:facebook": "https://fb.com/HotelGoldeneSonne",
                "contact:fax": "+49 871 9253350",
                "contact:instagram": "https://www.instagram.com/goldenesonne_la/?hl=de",
                "contact:phone": "+49 871 92530",
                "contact:website": "https://www.goldenesonne.de/",
                "internet_access": "wlan",
                "internet_access:fee": "customers",
                "name": "Goldene Sonne",
                "opening_hours": "Mo-Fr 08:00-18:00; Sa,Su,PH 08:00-17:00",
                "operator": "Karl Baier",
                "rooms": "49",
                "stars": "4",
                "tourism": "hotel",
                "website:booking": "https://www.goldenesonne.de/angebote-preise/online-buchung"
              },
              "geometry": {
                "type": "Point",
                "coordinates": [
                  12.1543214,
                  48.5364097
                ]
              }
            },
            {
              "type": "Feature",
              "properties": {
                "id": "9248302301",
                "osm_type": "node",
                "lat": 48.5628031,
                "lon": 12.1697136,
                "addr:country": "DE",
                "addr:housenumber": "3",
                "addr:postcode": "84030",
                "addr:street": "Festplatzstraße",
                "check_date": "2024-08-05",
                "name": "Hotel Rosenhof",
                "toilets:wheelchair": "no",
                "tourism": "hotel",
                "website": "https://www.rosenhof-ergolding.de/",
                "wheelchair": "limited"
              },
              "geometry": {
                "type": "Point",
                "coordinates": [
                  12.1697136,
                  48.5628031
                ]
              }
            },
            {
              "type": "Feature",
              "properties": {
                "id": "9288153651",
                "osm_type": "node",
                "lat": 48.5362438,
                "lon": 12.1543542,
                "addr:city": "Landshut",
                "addr:country": "DE",
                "addr:housenumber": "519",
                "addr:postcode": "84028",
                "addr:street": "Neustadt",
                "check_date": "2024-05-02",
                "email": "info@stadthotel-landshut.de",
                "fax": "+49 871 9740579",
                "internet_access": "wlan",
                "internet_access:fee": "customers",
                "name": "Stadthotel Herzog Ludwig",
                "opening_hours": "Mo-Fr 07:00-21:00; Sa,Su,PH 08:00-12:00, 13:00-21:00",
                "operator": "Jutta Widmann",
                "phone": "+49 871 974050",
                "rooms": "26",
                "smoking": "no",
                "tourism": "hotel",
                "website": "https://www.stadthotel-landshut.de/",
                "wheelchair": "yes"
              },
              "geometry": {
                "type": "Point",
                "coordinates": [
                  12.1543542,
                  48.5362438
                ]
              }
            },
            {
              "type": "Feature",
              "properties": {
                "id": "10209926168",
                "osm_type": "node",
                "lat": 48.5616868,
                "lon": 12.1659059,
                "addr:city": "Ergolding",
                "addr:country": "DE",
                "addr:housenumber": "13",
                "addr:postcode": "84030",
                "addr:street": "Festplatzstraße",
                "air_conditioning": "yes",
                "internet_access": "wlan",
                "internet_access:fee": "no",
                "name": "easy sleep Hotel",
                "tourism": "hotel",
                "wheelchair": "limited"
              },
              "geometry": {
                "type": "Point",
                "coordinates": [
                  12.1659059,
                  48.5616868
                ]
              }
            },
            {
              "type": "Feature",
              "properties": {
                "id": "10233016311",
                "osm_type": "node",
                "lat": 48.5449805,
                "lon": 12.1448035,
                "addr:city": "Landshut",
                "addr:country": "DE",
                "addr:housenumber": "40",
                "addr:street": "Seligenthaler Straße",
                "internet_access": "wlan",
                "name": "Centerroom",
                "tourism": "hotel",
                "website": "https://www.centerroom.de"
              },
              "geometry": {
                "type": "Point",
                "coordinates": [
                  12.1448035,
                  48.5449805
                ]
              }
            },
            {
              "type": "Feature",
              "properties": {
                "id": "10976074851",
                "osm_type": "node",
                "lat": 48.5391088,
                "lon": 12.152918,
                "addr:city": "Landshut",
                "addr:country": "DE",
                "addr:housenumber": "395-397",
                "addr:postcode": "84028",
                "addr:street": "Postplatz",
                "check_date": "2024-04-06",
                "check_date:currency:XBT": "2023-08-01",
                "currency:XBT": "yes",
                "name": "Hotel Amalia - Boutique Hotel Landshut",
                "opening_hours": "Mo-Sa 06:00-22:00; Su 07:00-20:00",
                "payment:lightning": "yes",
                "payment:lightning_contactless": "no",
                "payment:onchain": "no",
                "phone": "+4901702923060",
                "tourism": "hotel",
                "website": "https://hotel-amalia.de/"
              },
              "geometry": {
                "type": "Point",
                "coordinates": [
                  12.152918,
                  48.5391088
                ]
              }
            }
          ],
          "children": []
        }
      ]
    },
    {
      "bbox": {
        "south": 48.355971499999995,
        "west": 12.392062499999998,
        "north": 48.68652475,
        "east": 13.345766
      },
      "poiCount": 56,
      "leafCount": 0,
      "averagePosition": [
        13.009271501785713,
        48.480000575000005
      ],
      "data": [],
      "children": [
        {
          "bbox": {
            "south": 48.355971499999995,
            "west": 12.392062499999998,
            "north": 48.521248125,
            "east": 12.86891425
          },
          "poiCount": 3,
          "leafCount": 3,
          "averagePosition": [
            12.5824029,
            48.427991
          ],
          "data": [
            {
              "type": "Feature",
              "properties": {
                "id": "1495646651",
                "osm_type": "node",
                "lat": 48.4443746,
                "lon": 12.4300674,
                "tourism": "hotel"
              },
              "geometry": {
                "type": "Point",
                "coordinates": [
                  12.4300674,
                  48.4443746
                ]
              }
            },
            {
              "type": "Feature",
              "properties": {
                "id": "3930312940",
                "osm_type": "node",
                "lat": 48.4033672,
                "lon": 12.753788,
                "check_date": "2016-01-18",
                "name": "Hotel Garni Leitl",
                "tourism": "hotel"
              },
              "geometry": {
                "type": "Point",
                "coordinates": [
                  12.753788,
                  48.4033672
                ]
              }
            },
            {
              "type": "Feature",
              "properties": {
                "id": "6763998494",
                "osm_type": "node",
                "lat": 48.4362312,
                "lon": 12.5633533,
                "name": "Hotel am Marktplatz",
                "tourism": "hotel"
              },
              "geometry": {
                "type": "Point",
                "coordinates": [
                  12.5633533,
                  48.4362312
                ]
              }
            }
          ],
          "children": []
        },
        {
          "bbox": {
            "south": 48.355971499999995,
            "west": 12.86891425,
            "north": 48.521248125,
            "east": 13.345766
          },
          "poiCount": 39,
          "leafCount": 39,
          "averagePosition": [
            13.156855376923076,
            48.43242974102564
          ],
          "data": [
            {
              "type": "Feature",
              "properties": {
                "id": "4394956523",
                "osm_type": "node",
                "lat": 48.3567628,
                "lon": 13.3113811,
                "addr:city": "Bad Füssing",
                "addr:country": "DE",
                "addr:housenumber": "1-5",
                "addr:postcode": "94072",
                "addr:street": "Pockinger Straße",
                "email": "info@ortners-resort.com",
                "fax": "+49 (0)8531 279-298",
                "name": "Ortner´s Resort *****",
                "operator": "Familie Ortner-Zwicklbauer",
                "phone": "+49 (0)8531 279-0",
                "stars": "4",
                "tourism": "hotel",
                "website": "https://www.ortners-lindenhof.de/"
              },
              "geometry": {
                "type": "Point",
                "coordinates": [
                  13.3113811,
                  48.3567628
                ]
              }
            },
            {
              "type": "Feature",
              "properties": {
                "id": "6814057976",
                "osm_type": "node",
                "lat": 48.3590036,
                "lon": 13.2023253,
                "addr:city": "Rotthalmünster",
                "addr:country": "DE",
                "addr:housenumber": "28",
                "addr:postcode": "94094",
                "addr:street": "Marktplatz",
                "name": "Dawin",
                "tourism": "hotel",
                "website": "https://www.hotel-dawin.de/"
              },
              "geometry": {
                "type": "Point",
                "coordinates": [
                  13.2023253,
                  48.3590036
                ]
              }
            },
            {
              "type": "Feature",
              "properties": {
                "id": "849909533",
                "osm_type": "node",
                "lat": 48.4158535,
                "lon": 12.8912512,
                "addr:housenumber": "10",
                "addr:street": "Seestraße",
                "dog": "yes",
                "internet_access": "wlan",
                "internet_access:fee": "no",
                "name": "Seehotel Moldan",
                "phone": "+49 8561 984 1770",
                "stars": "3",
                "tourism": "hotel",
                "website": "https://dogotel.de",
                "wheelchair": "limited"
              },
              "geometry": {
                "type": "Point",
                "coordinates": [
                  12.8912512,
                  48.4158535
                ]
              }
            },
            {
              "type": "Feature",
              "properties": {
                "id": "1842570618",
                "osm_type": "node",
                "lat": 48.4323015,
                "lon": 12.9363909,
                "addr:city": "Pfarrkirchen",
                "addr:country": "DE",
                "addr:housenumber": "14",
                "addr:postcode": "84347",
                "addr:street": "Lindnerstraße",
                "name": "Münchner Hof",
                "phone": "+49 8561 96450",
                "tourism": "hotel",
                "website": "http://www.muenchnerhof-pfarrkirchen.de/",
                "wheelchair": "no",
                "wheelchair:description": "Zimmer liegen in den oberen Etagen"
              },
              "geometry": {
                "type": "Point",
                "coordinates": [
                  12.9363909,
                  48.4323015
                ]
              }
            },
            {
              "type": "Feature",
              "properties": {
                "id": "340052437",
                "osm_type": "node",
                "lat": 48.4403431,
                "lon": 13.0845417,
                "check_date": "2024-10-30",
                "name": "Hotel Hofmark",
                "tourism": "hotel"
              },
              "geometry": {
                "type": "Point",
                "coordinates": [
                  13.0845417,
                  48.4403431
                ]
              }
            },
            {
              "type": "Feature",
              "properties": {
                "id": "541638041",
                "osm_type": "node",
                "lat": 48.4499981,
                "lon": 13.2089737,
                "addr:city": "Bad Griesbach i.Rottal",
                "addr:country": "DE",
                "addr:housenumber": "1",
                "addr:postcode": "94086",
                "addr:street": "Steinkart",
                "name": "Waldpension Jägerstüberl",
                "phone": "+498532972660",
                "tourism": "hotel",
                "wikidata": "Q111851903"
              },
              "geometry": {
                "type": "Point",
                "coordinates": [
                  13.2089737,
                  48.4499981
                ]
              }
            },
            {
              "type": "Feature",
              "properties": {
                "id": "542182546",
                "osm_type": "node",
                "lat": 48.4326516,
                "lon": 13.1865418,
                "name": "Pension Sankt Georg",
                "tourism": "hotel"
              },
              "geometry": {
                "type": "Point",
                "coordinates": [
                  13.1865418,
                  48.4326516
                ]
              }
            },
            {
              "type": "Feature",
              "properties": {
                "id": "572597484",
                "osm_type": "node",
                "lat": 48.4285922,
                "lon": 13.1879861,
                "name": "St. Leonhard",
                "tourism": "hotel"
              },
              "geometry": {
                "type": "Point",
                "coordinates": [
                  13.1879861,
                  48.4285922
                ]
              }
            },
            {
              "type": "Feature",
              "properties": {
                "id": "572597491",
                "osm_type": "node",
                "lat": 48.4292306,
                "lon": 13.1880242,
                "addr:city": "Bad Griesbach i.Rottal",
                "addr:country": "DE",
                "addr:housenumber": "5",
                "addr:postcode": "94086",
                "addr:street": "Thermalbadstraße",
                "name": "Drei Quellen Therme",
                "tourism": "hotel",
                "wheelchair": "limited"
              },
              "geometry": {
                "type": "Point",
                "coordinates": [
                  13.1880242,
                  48.4292306
                ]
              }
            },
            {
              "type": "Feature",
              "properties": {
                "id": "572597493",
                "osm_type": "node",
                "lat": 48.429265,
                "lon": 13.1870176,
                "name": "Summerhof",
                "tourism": "hotel"
              },
              "geometry": {
                "type": "Point",
                "coordinates": [
                  13.1870176,
                  48.429265
                ]
              }
            },
            {
              "type": "Feature",
              "properties": {
                "id": "599982403",
                "osm_type": "node",
                "lat": 48.4132316,
                "lon": 13.1404543,
                "addr:city": "Bayerbach",
                "addr:country": "DE",
                "addr:housenumber": "3",
                "addr:postcode": "94137",
                "addr:street": "Mühlstraße",
                "cuisine": "regional",
                "email": "info@gasthof-zur-muehle.de",
                "name": "Hotel Gasthof zur Mühle",
                "phone": "+49-8532-96160",
                "tourism": "hotel",
                "website": "https://www.gasthof-zur-muehle.de/",
                "wheelchair": "yes"
              },
              "geometry": {
                "type": "Point",
                "coordinates": [
                  13.1404543,
                  48.4132316
                ]
              }
            },
            {
              "type": "Feature",
              "properties": {
                "id": "615171984",
                "osm_type": "node",
                "lat": 48.4360511,
                "lon": 13.3354805,
                "cuisine": "regional",
                "name": "Gasthaus Besenhart",
                "tourism": "hotel",
                "wheelchair": "no"
              },
              "geometry": {
                "type": "Point",
                "coordinates": [
                  13.3354805,
                  48.4360511
                ]
              }
            },
            {
              "type": "Feature",
              "properties": {
                "id": "644628237",
                "osm_type": "node",
                "lat": 48.4305184,
                "lon": 13.1848443,
                "name": "Maximilian",
                "stars": "5",
                "tourism": "hotel"
              },
              "geometry": {
                "type": "Point",
                "coordinates": [
                  13.1848443,
                  48.4305184
                ]
              }
            },
            {
              "type": "Feature",
              "properties": {
                "id": "644660459",
                "osm_type": "node",
                "lat": 48.4263923,
                "lon": 13.1886029,
                "addr:city": "Bad Griesbach i. Rottal",
                "addr:country": "DE",
                "addr:housenumber": "30",
                "addr:postcode": "94086",
                "addr:street": "Thermalbadstraße",
                "name": "Hotel Konradshof",
                "note": "FIXME: drawn from memory",
                "tourism": "hotel"
              },
              "geometry": {
                "type": "Point",
                "coordinates": [
                  13.1886029,
                  48.4263923
                ]
              }
            },
            {
              "type": "Feature",
              "properties": {
                "id": "644660460",
                "osm_type": "node",
                "lat": 48.4258157,
                "lon": 13.1879537,
                "addr:city": "Bad Griesbach i.Rottal",
                "addr:country": "DE",
                "addr:housenumber": "28",
                "addr:postcode": "94086",
                "addr:street": "Thermalbadstraße",
                "check_date": "2024-04-04",
                "description": "Zufahrt nur über die Tiefgarage, Am Kurwald, im Kreisel möglich",
                "name": "Hotel Fürstenhof",
                "tourism": "hotel"
              },
              "geometry": {
                "type": "Point",
                "coordinates": [
                  13.1879537,
                  48.4258157
                ]
              }
            },
            {
              "type": "Feature",
              "properties": {
                "id": "644660461",
                "osm_type": "node",
                "lat": 48.4262739,
                "lon": 13.1886284,
                "name": "Hotel garni",
                "note": "FIXME: drawn from memory",
                "tourism": "hotel"
              },
              "geometry": {
                "type": "Point",
                "coordinates": [
                  13.1886284,
                  48.4262739
                ]
              }
            },
            {
              "type": "Feature",
              "properties": {
                "id": "644660462",
                "osm_type": "node",
                "lat": 48.4260097,
                "lon": 13.187479,
                "addr:city": "Bad Griesbach i.Rottal",
                "addr:country": "DE",
                "addr:housenumber": "24-26",
                "addr:postcode": "94086",
                "addr:street": "Thermalbadstraße",
                "name": "Appartementhotel Griesbacher Hof",
                "note": "FIXME: drawn from memory",
                "operator": "Griesbacher Hof Verwaltungs-GmbH",
                "phone": "+49 8532 7010",
                "tourism": "hotel",
                "website": "https://www.griesbacher-hof.de/"
              },
              "geometry": {
                "type": "Point",
                "coordinates": [
                  13.187479,
                  48.4260097
                ]
              }
            },
            {
              "type": "Feature",
              "properties": {
                "id": "644660463",
                "osm_type": "node",
                "lat": 48.4274934,
                "lon": 13.1879123,
                "addr:city": "Bad Griesbach i. Rottal",
                "addr:country": "DE",
                "addr:housenumber": "15-17",
                "addr:postcode": "94086",
                "addr:street": "Thermalbadstraße",
                "email": "birkenhof-griesbach@t-online.de",
                "fax": "+49 8532 703169",
                "name": "Hotel Birkenhof Therme",
                "note": "FIXME: drawn from memory",
                "operator": "Birkenhof Hotelverwaltungsgesellschaft mbH",
                "phone": "+49 8532 7030",
                "stars": "4",
                "tourism": "hotel",
                "website": "https://www.hotel-birkenhof.com/"
              },
              "geometry": {
                "type": "Point",
                "coordinates": [
                  13.1879123,
                  48.4274934
                ]
              }
            },
            {
              "type": "Feature",
              "properties": {
                "id": "646422936",
                "osm_type": "node",
                "lat": 48.4302669,
                "lon": 13.1881754,
                "addr:city": "Bad Griesbach i. Rottal",
                "addr:country": "DE",
                "addr:housenumber": "2",
                "addr:postcode": "94086",
                "addr:street": "Am Kurwald",
                "name": "Hotel \"Das Ludwig\"",
                "note": "FIXME: position",
                "stars": "5",
                "tourism": "hotel"
              },
              "geometry": {
                "type": "Point",
                "coordinates": [
                  13.1881754,
                  48.4302669
                ]
              }
            },
            {
              "type": "Feature",
              "properties": {
                "id": "646422937",
                "osm_type": "node",
                "lat": 48.441066,
                "lon": 13.1973175,
                "addr:city": "Bad Griesbach i. Rottal",
                "addr:housenumber": "1",
                "addr:postcode": "94086",
                "addr:street": "Prof.-Baumgartner-Straße",
                "name": "ActiVital Hotel",
                "note": "FIXME: position",
                "phone": "085327080",
                "tourism": "hotel",
                "website": "https://aktivitalhotel.de/"
              },
              "geometry": {
                "type": "Point",
                "coordinates": [
                  13.1973175,
                  48.441066
                ]
              }
            },
            {
              "type": "Feature",
              "properties": {
                "id": "646422938",
                "osm_type": "node",
                "lat": 48.4514738,
                "lon": 13.1942025,
                "addr:city": "Bad Griesbach i. Rottal",
                "addr:housenumber": "6",
                "addr:postcode": "94086",
                "addr:street": "Sparkassenstraße",
                "name": "Altstadthotel Griesbach",
                "note": "FIXME: position",
                "tourism": "hotel",
                "website": "http://www.altstadthotel-griesbach.de/"
              },
              "geometry": {
                "type": "Point",
                "coordinates": [
                  13.1942025,
                  48.4514738
                ]
              }
            },
            {
              "type": "Feature",
              "properties": {
                "id": "1720249241",
                "osm_type": "node",
                "lat": 48.4442063,
                "lon": 13.0865331,
                "check_date": "2024-10-28",
                "name": "Sammareier Gutshof",
                "tourism": "hotel",
                "website": "https://www.sammareier.de"
              },
              "geometry": {
                "type": "Point",
                "coordinates": [
                  13.0865331,
                  48.4442063
                ]
              }
            },
            {
              "type": "Feature",
              "properties": {
                "id": "2274208392",
                "osm_type": "node",
                "lat": 48.4877565,
                "lon": 13.1039531,
                "addr:city": "Bad Birnbach",
                "addr:country": "DE",
                "addr:housenumber": "16",
                "addr:place": "Brunndobl",
                "addr:postcode": "84364",
                "internet_access": "wlan",
                "name": "Hofgut Hafnerleiten",
                "tourism": "hotel",
                "website": "https://www.hofgut.info/"
              },
              "geometry": {
                "type": "Point",
                "coordinates": [
                  13.1039531,
                  48.4877565
                ]
              }
            },
            {
              "type": "Feature",
              "properties": {
                "id": "2472620379",
                "osm_type": "node",
                "lat": 48.3828947,
                "lon": 13.3025729,
                "addr:city": "Pocking",
                "addr:country": "DE",
                "addr:housenumber": "6",
                "addr:postcode": "94060",
                "addr:street": "Haid",
                "name": "Sternenhof Ferienappartements",
                "phone": "+4985311357090",
                "tourism": "hotel",
                "website": "https://www.sternenhof-appartements.de/"
              },
              "geometry": {
                "type": "Point",
                "coordinates": [
                  13.3025729,
                  48.3828947
                ]
              }
            },
            {
              "type": "Feature",
              "properties": {
                "id": "3085636002",
                "osm_type": "node",
                "lat": 48.4277111,
                "lon": 13.1870501,
                "addr:city": "Bad Griesbach i.Rottal",
                "addr:country": "DE",
                "addr:housenumber": "16",
                "addr:postcode": "94086",
                "addr:street": "Thermalbadstraße",
                "contact:phone": "+49 8532 7970",
                "contact:website": "https://www.haus-rottalblick.de",
                "description": "Appartementhaus",
                "name": "Appartementhaus Rottalblick",
                "ref:touristinfo": "13",
                "smoking": "outside",
                "tourism": "hotel"
              },
              "geometry": {
                "type": "Point",
                "coordinates": [
                  13.1870501,
                  48.4277111
                ]
              }
            },
            {
              "type": "Feature",
              "properties": {
                "id": "3085636003",
                "osm_type": "node",
                "lat": 48.4279456,
                "lon": 13.1870965,
                "addr:city": "Bad Griesbach i.Rottal",
                "addr:country": "DE",
                "addr:housenumber": "12",
                "addr:postcode": "94086",
                "addr:street": "Thermalbadstraße",
                "contact:phone": "+49 8532 7090",
                "contact:website": "https://www.sonnleiten-rupert.de/",
                "description": "Appartementhotel",
                "name": "Haus Rupert",
                "ref:touristinfo": "14",
                "tourism": "hotel"
              },
              "geometry": {
                "type": "Point",
                "coordinates": [
                  13.1870965,
                  48.4279456
                ]
              }
            },
            {
              "type": "Feature",
              "properties": {
                "id": "3085636004",
                "osm_type": "node",
                "lat": 48.4281185,
                "lon": 13.1870322,
                "addr:city": "Bad Griesbach i.Rottal",
                "addr:country": "DE",
                "addr:housenumber": "12",
                "addr:postcode": "94086",
                "addr:street": "Thermalbadstraße",
                "contact:phone": "+49 8532 7090",
                "contact:website": "https://www.sonnleiten-rupert.de/",
                "description": "Appartementhotel",
                "name": "Haus Sonnleiten",
                "ref:touristinfo": "15",
                "tourism": "hotel"
              },
              "geometry": {
                "type": "Point",
                "coordinates": [
                  13.1870322,
                  48.4281185
                ]
              }
            },
            {
              "type": "Feature",
              "properties": {
                "id": "3085636005",
                "osm_type": "node",
                "lat": 48.4283531,
                "lon": 13.186918,
                "addr:city": "Bad Griesbach i.Rottal",
                "addr:country": "DE",
                "addr:housenumber": "10",
                "addr:postcode": "94086",
                "addr:street": "Thermalbadstraße",
                "contact:email": "info@jagdhof-unertl.de",
                "contact:fax": "+49 8532 923 887",
                "contact:phone": "+49 8532 1311",
                "contact:website": "https://www.jagdhof-bad-griesbach.de",
                "description": "Apparthotel Garni Jagdhof",
                "name": "Jagdhof",
                "ref:touristinfo": "16",
                "tourism": "hotel"
              },
              "geometry": {
                "type": "Point",
                "coordinates": [
                  13.186918,
                  48.4283531
                ]
              }
            },
            {
              "type": "Feature",
              "properties": {
                "id": "3379575903",
                "osm_type": "node",
                "lat": 48.4406742,
                "lon": 13.0803869,
                "addr:city": "Bad Birnbach",
                "addr:country": "DE",
                "addr:housenumber": "11",
                "addr:postcode": "84364",
                "addr:street": "Brunnaderstraße",
                "email": "info@hotel-quellenhof.info",
                "fax": "+49 8563 307200",
                "name": "Hotel Quellenhof",
                "operator": "Gabriele Schampel",
                "phone": "+49 8563 3070",
                "tourism": "hotel"
              },
              "geometry": {
                "type": "Point",
                "coordinates": [
                  13.0803869,
                  48.4406742
                ]
              }
            },
            {
              "type": "Feature",
              "properties": {
                "id": "5204809486",
                "osm_type": "node",
                "lat": 48.4272025,
                "lon": 13.1895405,
                "addr:city": "Bad Griesbach i.Rottal",
                "addr:country": "DE",
                "addr:housenumber": "10",
                "addr:postcode": "94086",
                "addr:street": "Am Kurwald",
                "internet_access": "wlan",
                "internet_access:fee": "no",
                "name": "Parkhotel",
                "operator": "Parkhotel Griesbach GmbH",
                "stars": "4S",
                "tourism": "hotel",
                "website": "http://www.parkhotel.bayern"
              },
              "geometry": {
                "type": "Point",
                "coordinates": [
                  13.1895405,
                  48.4272025
                ]
              }
            },
            {
              "type": "Feature",
              "properties": {
                "id": "9176271083",
                "osm_type": "node",
                "lat": 48.5129649,
                "lon": 13.3027541,
                "addr:city": "Fürstenzell",
                "addr:country": "DE",
                "addr:housenumber": "4",
                "addr:postcode": "94081",
                "addr:street": "Pilzweg",
                "check_date": "2025-03-09",
                "contact:email": "info@aquaquell-badpilzweg.de",
                "contact:phone": "+4985029186673",
                "contact:website": "https://aquaquell-badpilzweg.de/",
                "internet_access": "wlan",
                "internet_access:fee": "customers",
                "name": "AquaQuell Bad Pilzweg Hotel & SPA",
                "old_name": "Viktoria Quelle",
                "tourism": "hotel",
                "wheelchair": "limited"
              },
              "geometry": {
                "type": "Point",
                "coordinates": [
                  13.3027541,
                  48.5129649
                ]
              }
            },
            {
              "type": "Feature",
              "properties": {
                "id": "11425604967",
                "osm_type": "node",
                "lat": 48.4421339,
                "lon": 13.1929716,
                "addr:city": "Bad Griesbach i.Rottal",
                "addr:country": "DE",
                "addr:housenumber": "48",
                "addr:postcode": "94086",
                "addr:street": "Aunhamer Weg",
                "name": "Das Aunhamer Suite &Spa",
                "phone": "+49 8532 9279000",
                "tourism": "hotel",
                "website": "https://www.das-aunhamer.de"
              },
              "geometry": {
                "type": "Point",
                "coordinates": [
                  13.1929716,
                  48.4421339
                ]
              }
            },
            {
              "type": "Feature",
              "properties": {
                "id": "11966350070",
                "osm_type": "node",
                "lat": 48.4433707,
                "lon": 13.0775338,
                "addr:housenumber": "27",
                "addr:postcode": "84364",
                "addr:street": "Brunnaderstraße",
                "contact:facebook": "Vitalhotelbadbirnbach",
                "email": "info@vitalhotel-badbirnbach.de",
                "internet_access": "wlan",
                "name": "Vitalhotel",
                "phone": "08563 308-0",
                "tourism": "hotel",
                "website": "https://www.vitalhotel-badbirnbach.de/"
              },
              "geometry": {
                "type": "Point",
                "coordinates": [
                  13.0775338,
                  48.4433707
                ]
              }
            },
            {
              "type": "Feature",
              "properties": {
                "id": "12202102625",
                "osm_type": "node",
                "lat": 48.4418751,
                "lon": 13.0785789,
                "name": "Hotel Eckershof",
                "tourism": "hotel"
              },
              "geometry": {
                "type": "Point",
                "coordinates": [
                  13.0785789,
                  48.4418751
                ]
              }
            },
            {
              "type": "Feature",
              "properties": {
                "id": "12202141501",
                "osm_type": "node",
                "lat": 48.4415072,
                "lon": 13.0794104,
                "name": "Lenauhof",
                "tourism": "hotel"
              },
              "geometry": {
                "type": "Point",
                "coordinates": [
                  13.0794104,
                  48.4415072
                ]
              }
            },
            {
              "type": "Feature",
              "properties": {
                "id": "12206521652",
                "osm_type": "node",
                "lat": 48.4409782,
                "lon": 13.0792816,
                "name": "Chalet an der Brunnader",
                "tourism": "hotel"
              },
              "geometry": {
                "type": "Point",
                "coordinates": [
                  13.0792816,
                  48.4409782
                ]
              }
            },
            {
              "type": "Feature",
              "properties": {
                "id": "12209085474",
                "osm_type": "node",
                "lat": 48.4428673,
                "lon": 13.0783668,
                "name": "Hotel Therme Garni",
                "tourism": "hotel"
              },
              "geometry": {
                "type": "Point",
                "coordinates": [
                  13.0783668,
                  48.4428673
                ]
              }
            },
            {
              "type": "Feature",
              "properties": {
                "id": "12212098303",
                "osm_type": "node",
                "lat": 48.442435,
                "lon": 13.0782813,
                "name": "Churfürstenhof",
                "tourism": "hotel"
              },
              "geometry": {
                "type": "Point",
                "coordinates": [
                  13.0782813,
                  48.442435
                ]
              }
            },
            {
              "type": "Feature",
              "properties": {
                "id": "12239227824",
                "osm_type": "node",
                "lat": 48.4531703,
                "lon": 13.0736135,
                "name": "Giglerhof",
                "tourism": "hotel"
              },
              "geometry": {
                "type": "Point",
                "coordinates": [
                  13.0736135,
                  48.4531703
                ]
              }
            }
          ],
          "children": []
        },
        {
          "bbox": {
            "south": 48.521248125,
            "west": 12.392062499999998,
            "north": 48.68652475,
            "east": 12.86891425
          },
          "poiCount": 11,
          "leafCount": 11,
          "averagePosition": [
            12.572087900000001,
            48.623840336363635
          ],
          "data": [
            {
              "type": "Feature",
              "properties": {
                "id": "370888222",
                "osm_type": "node",
                "lat": 48.6049124,
                "lon": 12.4568514,
                "name": "Räucherhansl",
                "toilets:wheelchair": "yes",
                "tourism": "hotel",
                "wheelchair": "yes"
              },
              "geometry": {
                "type": "Point",
                "coordinates": [
                  12.4568514,
                  48.6049124
                ]
              }
            },
            {
              "type": "Feature",
              "properties": {
                "id": "2704427735",
                "osm_type": "node",
                "lat": 48.6321831,
                "lon": 12.505228,
                "name": "Pension Isar",
                "tourism": "hotel"
              },
              "geometry": {
                "type": "Point",
                "coordinates": [
                  12.505228,
                  48.6321831
                ]
              }
            },
            {
              "type": "Feature",
              "properties": {
                "id": "6612436971",
                "osm_type": "node",
                "lat": 48.6291145,
                "lon": 12.4970175,
                "addr:city": "Dingolfing",
                "addr:country": "DE",
                "addr:housenumber": "7",
                "addr:postcode": "84130",
                "addr:street": "Bruckstraße",
                "name": "Postbräu",
                "tourism": "hotel",
                "website": "https://postbraeu-dingolfing.de/"
              },
              "geometry": {
                "type": "Point",
                "coordinates": [
                  12.4970175,
                  48.6291145
                ]
              }
            },
            {
              "type": "Feature",
              "properties": {
                "id": "6942362690",
                "osm_type": "node",
                "lat": 48.6283132,
                "lon": 12.4344719,
                "name": "nahdran-aparthotel",
                "tourism": "hotel"
              },
              "geometry": {
                "type": "Point",
                "coordinates": [
                  12.4344719,
                  48.6283132
                ]
              }
            },
            {
              "type": "Feature",
              "properties": {
                "id": "10559160609",
                "osm_type": "node",
                "lat": 48.6315283,
                "lon": 12.4940118,
                "addr:city": "Dingolfing",
                "addr:country": "DE",
                "addr:housenumber": "2",
                "addr:postcode": "84130",
                "addr:street": "Rennweg",
                "email": "info@hotel-adebar.de",
                "internet_access": "wlan",
                "name": "ADEBAR",
                "opening_hours": "24/7",
                "phone": "+498731939390",
                "tourism": "hotel",
                "website": "https://www.hotel-adebar.de"
              },
              "geometry": {
                "type": "Point",
                "coordinates": [
                  12.4940118,
                  48.6315283
                ]
              }
            },
            {
              "type": "Feature",
              "properties": {
                "id": "668081219",
                "osm_type": "node",
                "lat": 48.6546915,
                "lon": 12.606588,
                "addr:city": "Mamming",
                "addr:country": "DE",
                "addr:housenumber": "2",
                "addr:postcode": "94437",
                "addr:street": "Hochgarten",
                "contact:phone": "+49 9955 9100",
                "contact:website": "http://www.landgasthof-apfelbeck.de/",
                "internet_access": "wlan",
                "internet_access:fee": "no",
                "name": "Landgasthof Apfelbeck",
                "tourism": "hotel",
                "wheelchair": "yes"
              },
              "geometry": {
                "type": "Point",
                "coordinates": [
                  12.606588,
                  48.6546915
                ]
              }
            },
            {
              "type": "Feature",
              "properties": {
                "id": "798530628",
                "osm_type": "node",
                "lat": 48.6486606,
                "lon": 12.6630396,
                "name": "Gasthof Schachtner",
                "tourism": "hotel"
              },
              "geometry": {
                "type": "Point",
                "coordinates": [
                  12.6630396,
                  48.6486606
                ]
              }
            },
            {
              "type": "Feature",
              "properties": {
                "id": "1003755590",
                "osm_type": "node",
                "lat": 48.662835,
                "lon": 12.6970374,
                "name": "Gästehaus Numberger",
                "tourism": "hotel"
              },
              "geometry": {
                "type": "Point",
                "coordinates": [
                  12.6970374,
                  48.662835
                ]
              }
            },
            {
              "type": "Feature",
              "properties": {
                "id": "6611564890",
                "osm_type": "node",
                "lat": 48.5712291,
                "lon": 12.628289,
                "addr:city": "Reisbach",
                "addr:country": "DE",
                "addr:postcode": "94419",
                "addr:street": "Marktplatz",
                "email": "info@schlappinger-hof.de",
                "internet_access": "wlan",
                "internet_access:fee": "customers",
                "name": "Schlappinger Hof",
                "phone": "+49 8734 92110",
                "tourism": "hotel",
                "website": "https://www.schlappinger-hof.com/"
              },
              "geometry": {
                "type": "Point",
                "coordinates": [
                  12.628289,
                  48.5712291
                ]
              }
            },
            {
              "type": "Feature",
              "properties": {
                "id": "6753026594",
                "osm_type": "node",
                "lat": 48.5887763,
                "lon": 12.6149527,
                "addr:city": "Reisbach",
                "addr:country": "DE",
                "addr:housenumber": "94",
                "addr:postcode": "94419",
                "addr:street": "Dingolfinger Straße",
                "addr:suburb": "Englmannsberg",
                "name": "Zum Späth",
                "tourism": "hotel",
                "website": "http://www.gasthaus-spaeth.de"
              },
              "geometry": {
                "type": "Point",
                "coordinates": [
                  12.6149527,
                  48.5887763
                ]
              }
            },
            {
              "type": "Feature",
              "properties": {
                "id": "6782229002",
                "osm_type": "node",
                "lat": 48.6099997,
                "lon": 12.6954796,
                "addr:housename": "Vilstaler Hof",
                "addr:postcode": "94405",
                "addr:street": "Andreasstraße",
                "name": "Vilstaler Hof",
                "tourism": "hotel",
                "website": "https://www.vilstalerhof.de/"
              },
              "geometry": {
                "type": "Point",
                "coordinates": [
                  12.6954796,
                  48.6099997
                ]
              }
            }
          ],
          "children": []
        },
        {
          "bbox": {
            "south": 48.521248125,
            "west": 12.86891425,
            "north": 48.68652475,
            "east": 13.345766
          },
          "poiCount": 3,
          "leafCount": 3,
          "averagePosition": [
            13.120556266666668,
            48.62301853333333
          ],
          "data": [
            {
              "type": "Feature",
              "properties": {
                "id": "898955658",
                "osm_type": "node",
                "lat": 48.5679409,
                "lon": 13.0785903,
                "check_date": "2025-05-02",
                "name": "PAGA Hotel",
                "stars": "3",
                "tourism": "hotel",
                "wheelchair": "limited"
              },
              "geometry": {
                "type": "Point",
                "coordinates": [
                  13.0785903,
                  48.5679409
                ]
              }
            },
            {
              "type": "Feature",
              "properties": {
                "id": "1648872697",
                "osm_type": "node",
                "lat": 48.6342489,
                "lon": 13.1878103,
                "addr:city": "Vilshofen an der Donau",
                "addr:country": "DE",
                "addr:housenumber": "10-12",
                "addr:postcode": "94474",
                "addr:street": "Donaugasse",
                "check_date": "2025-08-20",
                "name": "Wittelsbacher Zollhaus",
                "tourism": "hotel",
                "website": "http://www.zollhaus-vilshofen.de",
                "wikidata": "Q41405115"
              },
              "geometry": {
                "type": "Point",
                "coordinates": [
                  13.1878103,
                  48.6342489
                ]
              }
            },
            {
              "type": "Feature",
              "properties": {
                "id": "12952134974",
                "osm_type": "node",
                "lat": 48.6668658,
                "lon": 13.0952682,
                "addr:housenumber": "1",
                "addr:street": "Salzbrunn",
                "check_date": "2025-06-25",
                "email": "info@villa-quintana.de",
                "name": "Villa Quintana",
                "phone": "+49 8549 7249959",
                "tourism": "hotel",
                "website": "https://www.villa-quintana.de/"
              },
              "geometry": {
                "type": "Point",
                "coordinates": [
                  13.0952682,
                  48.6668658
                ]
              }
            }
          ],
          "children": []
        }
      ]
    },
    {
      "bbox": {
        "south": 48.68652475,
        "west": 11.438358999999998,
        "north": 49.017078,
        "east": 12.392062499999998
      },
      "poiCount": 40,
      "leafCount": 40,
      "averagePosition": [
        11.886404525,
        48.8989543125
      ],
      "data": [
        {
          "type": "Feature",
          "properties": {
            "id": "1796794106",
            "osm_type": "node",
            "lat": 48.7169622,
            "lon": 11.4972095,
            "addr:city": "Manching",
            "addr:country": "DE",
            "addr:housenumber": "15",
            "addr:postcode": "85077",
            "addr:street": "Geisenfelder Straße",
            "internet_access": "yes",
            "name": "Hotel Manchinger Hof",
            "operator": "Markus Kienlein",
            "phone": "+49 8459 860",
            "rooms": "32",
            "stars": "3",
            "tourism": "hotel",
            "website": "https://www.manchinger-hof.de/"
          },
          "geometry": {
            "type": "Point",
            "coordinates": [
              11.4972095,
              48.7169622
            ]
          }
        },
        {
          "type": "Feature",
          "properties": {
            "id": "2139161829",
            "osm_type": "node",
            "lat": 48.7586151,
            "lon": 11.4384946,
            "addr:city": "Ingolstadt",
            "addr:country": "DE",
            "addr:housenumber": "1",
            "addr:postcode": "85053",
            "addr:street": "Bei der Arena",
            "name": "Enso",
            "tourism": "hotel",
            "website": "https://www.enso-hotel.de/"
          },
          "geometry": {
            "type": "Point",
            "coordinates": [
              11.4384946,
              48.7586151
            ]
          }
        },
        {
          "type": "Feature",
          "properties": {
            "id": "2429380724",
            "osm_type": "node",
            "lat": 48.7169434,
            "lon": 11.4893887,
            "addr:city": "Manching",
            "addr:country": "DE",
            "addr:housenumber": "31",
            "addr:postcode": "85077",
            "addr:street": "Ingolstädter Straße",
            "name": "Hotel Sandner",
            "tourism": "hotel"
          },
          "geometry": {
            "type": "Point",
            "coordinates": [
              11.4893887,
              48.7169434
            ]
          }
        },
        {
          "type": "Feature",
          "properties": {
            "id": "9888496294",
            "osm_type": "node",
            "lat": 48.7853782,
            "lon": 11.4782882,
            "internet_access": "wlan",
            "name": "Starton",
            "stars": "3",
            "tourism": "hotel",
            "website": "https://hotel-starton.de/"
          },
          "geometry": {
            "type": "Point",
            "coordinates": [
              11.4782882,
              48.7853782
            ]
          }
        },
        {
          "type": "Feature",
          "properties": {
            "id": "11179391997",
            "osm_type": "node",
            "lat": 48.7362292,
            "lon": 11.4746197,
            "name": "Boutique Hotels",
            "tourism": "hotel"
          },
          "geometry": {
            "type": "Point",
            "coordinates": [
              11.4746197,
              48.7362292
            ]
          }
        },
        {
          "type": "Feature",
          "properties": {
            "id": "267665814",
            "osm_type": "node",
            "lat": 48.82369,
            "lon": 11.7783337,
            "addr:city": "Neustadt an der Donau",
            "addr:country": "DE",
            "addr:housenumber": "20",
            "addr:postcode": "93333",
            "addr:street": "An der Abens",
            "addr:suburb": "Bad Gögging",
            "alt_name": "Wellness- und Genusshotel Der Eisvogel",
            "contact:email": "info@hotel-eisvogel.de",
            "contact:phone": "+49 9445 9690",
            "contact:website": "https://www.hotel-eisvogel.de",
            "name": "Der Eisvogel",
            "operator": "Familie Zettl-Feldmann",
            "stars": "4",
            "toilets:wheelchair": "yes",
            "tourism": "hotel",
            "wheelchair": "yes"
          },
          "geometry": {
            "type": "Point",
            "coordinates": [
              11.7783337,
              48.82369
            ]
          }
        },
        {
          "type": "Feature",
          "properties": {
            "id": "462339486",
            "osm_type": "node",
            "lat": 48.8154996,
            "lon": 11.8470943,
            "addr:city": "Abensberg",
            "addr:country": "DE",
            "addr:housenumber": "8",
            "addr:postcode": "93326",
            "addr:street": "Weinbergerstraße",
            "name": "Jungbräu",
            "phone": "+49 9443 9107-0",
            "toilets:wheelchair": "no",
            "tourism": "hotel",
            "website": "https://www.hotel-jungbraeu.de/",
            "wheelchair": "limited"
          },
          "geometry": {
            "type": "Point",
            "coordinates": [
              11.8470943,
              48.8154996
            ]
          }
        },
        {
          "type": "Feature",
          "properties": {
            "id": "616418852",
            "osm_type": "node",
            "lat": 48.8186417,
            "lon": 11.8458832,
            "addr:city": "Abensberg",
            "addr:country": "DE",
            "addr:housenumber": "23",
            "addr:postcode": "93326",
            "addr:street": "Bahnhofstraße",
            "fax": "+49 9443 992070",
            "name": "Hotel Garni Salleck",
            "phone": "+49 9443 6816",
            "tourism": "hotel",
            "wheelchair": "no"
          },
          "geometry": {
            "type": "Point",
            "coordinates": [
              11.8458832,
              48.8186417
            ]
          }
        },
        {
          "type": "Feature",
          "properties": {
            "id": "1427205489",
            "osm_type": "node",
            "lat": 48.8183918,
            "lon": 11.7877511,
            "addr:city": "Neustadt an der Donau",
            "addr:country": "DE",
            "addr:housenumber": "4",
            "addr:postcode": "93333",
            "addr:street": "Zur Limestherme",
            "addr:suburb": "Bad Gögging",
            "email": "info@hotelfortuna.de",
            "internet_access": "yes",
            "internet_access:fee": "customers",
            "name": "Hotel Fortuna",
            "phone": "+49 9445 95310",
            "tourism": "hotel",
            "website": "https://hotelfortuna.de/",
            "wheelchair": "no"
          },
          "geometry": {
            "type": "Point",
            "coordinates": [
              11.7877511,
              48.8183918
            ]
          }
        },
        {
          "type": "Feature",
          "properties": {
            "id": "2294369307",
            "osm_type": "node",
            "lat": 48.815517,
            "lon": 11.8452686,
            "addr:city": "Abensberg",
            "addr:country": "DE",
            "addr:housenumber": "5",
            "addr:postcode": "93326",
            "addr:street": "Stadtplatz",
            "name": "Altstadthotel Kneitinger",
            "tourism": "hotel"
          },
          "geometry": {
            "type": "Point",
            "coordinates": [
              11.8452686,
              48.815517
            ]
          }
        },
        {
          "type": "Feature",
          "properties": {
            "id": "4242926728",
            "osm_type": "node",
            "lat": 48.7329984,
            "lon": 11.574744,
            "name": "Heidi's Gästehaus",
            "tourism": "hotel"
          },
          "geometry": {
            "type": "Point",
            "coordinates": [
              11.574744,
              48.7329984
            ]
          }
        },
        {
          "type": "Feature",
          "properties": {
            "id": "5764440553",
            "osm_type": "node",
            "lat": 48.844811,
            "lon": 11.9861201,
            "addr:city": "Herrnwahlthann",
            "addr:housenumber": "9",
            "addr:postcode": "93345",
            "addr:street": "Dorfstraße",
            "contact:email": "info@stanglbraeu.de",
            "contact:fax": "+49 9448 9183-14",
            "contact:phone": "+49 9448 9183-0",
            "contact:website": "http://www.stanglbraeu.de/hotel",
            "name": "Stanglbräu",
            "operator": "Stanglbräu OHG",
            "smoking": "no",
            "tourism": "hotel"
          },
          "geometry": {
            "type": "Point",
            "coordinates": [
              11.9861201,
              48.844811
            ]
          }
        },
        {
          "type": "Feature",
          "properties": {
            "id": "7277100596",
            "osm_type": "node",
            "lat": 48.8192645,
            "lon": 11.7882456,
            "addr:city": "Neustadt an der Donau",
            "addr:country": "DE",
            "addr:housenumber": "6",
            "addr:postcode": "93333",
            "addr:street": "Am Brunnenforum",
            "addr:suburb": "Bad Gögging",
            "email": "info@hotel-centurio.com",
            "fax": "+49 9445 972212",
            "name": "Hotel Centurio",
            "operator": "Joseph Eisenschenk",
            "outdoor_seating": "yes",
            "phone": "+49 9445 97220",
            "restaurant": "yes",
            "stars": "3",
            "tourism": "hotel",
            "website": "https://hotel-centurio.com"
          },
          "geometry": {
            "type": "Point",
            "coordinates": [
              11.7882456,
              48.8192645
            ]
          }
        },
        {
          "type": "Feature",
          "properties": {
            "id": "9063551717",
            "osm_type": "node",
            "lat": 48.8156077,
            "lon": 11.8444185,
            "internet_access": "wlan",
            "name": "Altstadhotel Kneitinger",
            "tourism": "hotel"
          },
          "geometry": {
            "type": "Point",
            "coordinates": [
              11.8444185,
              48.8156077
            ]
          }
        },
        {
          "type": "Feature",
          "properties": {
            "id": "12277230101",
            "osm_type": "node",
            "lat": 48.8045258,
            "lon": 11.874711,
            "addr:city": "Abensberg",
            "addr:housenumber": "2",
            "addr:postcode": "93326",
            "addr:street": "Werkstraße",
            "name": "Alja Hotel",
            "tourism": "hotel"
          },
          "geometry": {
            "type": "Point",
            "coordinates": [
              11.874711,
              48.8045258
            ]
          }
        },
        {
          "type": "Feature",
          "properties": {
            "id": "12331545553",
            "osm_type": "node",
            "lat": 48.8170111,
            "lon": 11.7872992,
            "addr:city": "Neustadt an der Donau",
            "addr:country": "DE",
            "addr:housenumber": "34-36",
            "addr:postcode": "93333",
            "addr:street": "Heiligenstädter Straße",
            "addr:suburb": "Bad Gögging",
            "bar": "yes",
            "brand": "Dorint",
            "brand:wikidata": "Q1700015",
            "email": "info.marcaurel@dorint.com",
            "fax": "+49 9445 958 444",
            "internet_access": "wlan",
            "name": "Marc Aurel Resort",
            "phone": "+49 9445 958 0",
            "rooms": "163",
            "swimming_pool": "outdoor",
            "tourism": "hotel",
            "website": "https://www.marcaurel.de",
            "wheelchair": "yes"
          },
          "geometry": {
            "type": "Point",
            "coordinates": [
              11.7872992,
              48.8170111
            ]
          }
        },
        {
          "type": "Feature",
          "properties": {
            "id": "1003491752",
            "osm_type": "node",
            "lat": 48.7373223,
            "lon": 12.190113,
            "addr:city": "Neufahrn in Niederbayern",
            "addr:country": "DE",
            "addr:housenumber": "2",
            "addr:postcode": "84088",
            "addr:street": "Schloßweg",
            "check_date": "2024-11-29",
            "name": "Schloßhotel Neufahrn",
            "tourism": "hotel"
          },
          "geometry": {
            "type": "Point",
            "coordinates": [
              12.190113,
              48.7373223
            ]
          }
        },
        {
          "type": "Feature",
          "properties": {
            "id": "1159527152",
            "osm_type": "node",
            "lat": 48.7123148,
            "lon": 12.3537786,
            "addr:housenumber": "3",
            "addr:postcode": "84152",
            "addr:street": "Hagenau",
            "name": "Schwanenpension",
            "phone": "+49 8774 626",
            "tourism": "hotel"
          },
          "geometry": {
            "type": "Point",
            "coordinates": [
              12.3537786,
              48.7123148
            ]
          }
        },
        {
          "type": "Feature",
          "properties": {
            "id": "6366815285",
            "osm_type": "node",
            "lat": 48.9404584,
            "lon": 11.4732025,
            "addr:housenumber": "8",
            "addr:postcode": "85095",
            "addr:street": "Riedenburger Straße",
            "internet_access": "wlan",
            "name": "Sonnenhang",
            "tourism": "hotel",
            "website": "https://hotel-sonnenhang.de/"
          },
          "geometry": {
            "type": "Point",
            "coordinates": [
              11.4732025,
              48.9404584
            ]
          }
        },
        {
          "type": "Feature",
          "properties": {
            "id": "8098005090",
            "osm_type": "node",
            "lat": 49.0139548,
            "lon": 11.5044309,
            "addr:housenumber": "4a",
            "addr:street": "Dorfstraße",
            "contact:email": "info@altmuehlberg.de",
            "contact:phone": "+49 8461 605 300",
            "contact:website": "http://www.altmuehlberg.de/hotel.html",
            "internet_access": "wlan",
            "internet_access:fee": "no",
            "name": "Hotel Altmühlberg",
            "opening_hours": "Mo-Su,PH 7:00-22:00",
            "operator": "Stefan Rupp",
            "stars": "3",
            "tourism": "hotel"
          },
          "geometry": {
            "type": "Point",
            "coordinates": [
              11.5044309,
              49.0139548
            ]
          }
        },
        {
          "type": "Feature",
          "properties": {
            "id": "8098005092",
            "osm_type": "node",
            "lat": 49.0105805,
            "lon": 11.5028055,
            "contact:email": "willkommen@landgasthof-euringer.de",
            "contact:facebook": "https://www.facebook.com/pages/Landgasthof-Euringer/560044927354371",
            "contact:fax": "+49 8461 9143",
            "contact:phone": "+49 8641 6510",
            "contact:website": "https://www.landgasthof-euringer.de/hotel",
            "internet_access": "wlan",
            "name": "Landgasthof Euringer",
            "operator": "Landgasthof Euringer GmbH",
            "stars": "3",
            "tourism": "hotel",
            "wheelchair": "yes",
            "wheelchair:description": "Hotel mit Rollstuhzimmer, Restaurant, Tagungsräume und Metzgerei"
          },
          "geometry": {
            "type": "Point",
            "coordinates": [
              11.5028055,
              49.0105805
            ]
          }
        },
        {
          "type": "Feature",
          "properties": {
            "id": "676268282",
            "osm_type": "node",
            "lat": 48.9420027,
            "lon": 11.7099695,
            "addr:city": "Riedenburg",
            "addr:country": "DE",
            "addr:housenumber": "3",
            "addr:postcode": "93339",
            "addr:street": "Kirchstraße",
            "designation": "3 Sterne",
            "email": "info@landhotel-schneider.com",
            "fax": "+49 9442 3384",
            "name": "Landhotel Schneider",
            "phone": "+49 9442 1659",
            "source": "http://www.landhotel-schneider.com/",
            "source:date": "2016-06-13",
            "stars": "3S",
            "tourism": "hotel",
            "website": "http://www.landhotel-schneider.com/"
          },
          "geometry": {
            "type": "Point",
            "coordinates": [
              11.7099695,
              48.9420027
            ]
          }
        },
        {
          "type": "Feature",
          "properties": {
            "id": "4245068792",
            "osm_type": "node",
            "lat": 48.9191452,
            "lon": 11.8750477,
            "addr:city": "Kelheim",
            "addr:country": "DE",
            "addr:housenumber": "35-37",
            "addr:postcode": "93309",
            "addr:street": "Matthias-Kraus-Gasse",
            "amenity": "pub",
            "contact:website": "http://www.turmhotel-erasmus.de/",
            "email": "info@turmhotel-erasmus.de",
            "fax": "+49 9441 174737-19",
            "name": "Turmhotel \"Zum Erasmus\"",
            "phone": "+49 9441 174737-0",
            "rooms": "9",
            "source": "http://www.turmhotel-erasmus.de/",
            "tourism": "hotel",
            "website": "http://www.turmhotel-erasmus.de/"
          },
          "geometry": {
            "type": "Point",
            "coordinates": [
              11.8750477,
              48.9191452
            ]
          }
        },
        {
          "type": "Feature",
          "properties": {
            "id": "11555175781",
            "osm_type": "node",
            "lat": 48.9720415,
            "lon": 11.6489182,
            "addr:city": "Riedenburg",
            "addr:country": "DE",
            "addr:housenumber": "18",
            "addr:postcode": "93339",
            "addr:street": "Obereggersberg",
            "addr:suburb": "Obereggersberg",
            "name": "Schloß Eggersberg",
            "tourism": "hotel"
          },
          "geometry": {
            "type": "Point",
            "coordinates": [
              11.6489182,
              48.9720415
            ]
          }
        },
        {
          "type": "Feature",
          "properties": {
            "id": "410593643",
            "osm_type": "node",
            "lat": 49.0095909,
            "lon": 12.0575399,
            "addr:city": "Regensburg",
            "addr:housenumber": "111",
            "addr:postcode": "93051",
            "addr:street": "Ziegetsdorfer Straße",
            "brand": "Best Western Premier",
            "brand:wikidata": "Q830334",
            "brand:wikipedia": "en:Best Western",
            "check_date": "2025-04-07",
            "email": "info@hotel-regensburg.bestwestern.de",
            "fax": "+49 941 46393400",
            "name": "Best Western Premier",
            "operator": "Novina Hotels",
            "phone": "+49 941 463930",
            "tourism": "hotel",
            "website": "https://www.bestwestern.de/hotels/Regensburg/Best-Western-Premier-Novina-Hotel-Regensburg",
            "wheelchair": "yes"
          },
          "geometry": {
            "type": "Point",
            "coordinates": [
              12.0575399,
              49.0095909
            ]
          }
        },
        {
          "type": "Feature",
          "properties": {
            "id": "671921913",
            "osm_type": "node",
            "lat": 49.0165735,
            "lon": 12.1148542,
            "name": "Gästehaus 33",
            "tourism": "hotel"
          },
          "geometry": {
            "type": "Point",
            "coordinates": [
              12.1148542,
              49.0165735
            ]
          }
        },
        {
          "type": "Feature",
          "properties": {
            "id": "860271203",
            "osm_type": "node",
            "lat": 48.9661693,
            "lon": 12.1674913,
            "addr:city": "Obertraubling",
            "addr:country": "DE",
            "addr:housenumber": "2",
            "addr:postcode": "93083",
            "addr:street": "St.-Georg-Straße",
            "name": "Stocker Gasthof / Hotel / Metzgerei",
            "shop": "butcher",
            "tourism": "hotel",
            "wheelchair": "limited"
          },
          "geometry": {
            "type": "Point",
            "coordinates": [
              12.1674913,
              48.9661693
            ]
          }
        },
        {
          "type": "Feature",
          "properties": {
            "id": "951411141",
            "osm_type": "node",
            "lat": 49.0154916,
            "lon": 12.0981046,
            "addr:city": "Regensburg",
            "addr:housenumber": "11",
            "addr:street": "Fröhliche-Türken-Straße",
            "air_conditioning": "yes",
            "check_date": "2024-05-21",
            "description": "Ehemalig Hotel zum fröhlichen Türken",
            "email": "info@hotel-rosi.de",
            "fax": "+49 941 562256",
            "internet_access": "wlan",
            "internet_access:fee": "customers",
            "name": "Hotel Rosi",
            "opening_hours:reception": "Mo-Fr 07:00-22:00; Sa, Su, PH 07:00-21:00",
            "payment:cash": "yes",
            "payment:debit_cards": "yes",
            "phone": "+49 941 53651",
            "smoking": "no",
            "source": "survey",
            "stars": "3",
            "tourism": "hotel",
            "website": "http://www.hotel-rosi.de/"
          },
          "geometry": {
            "type": "Point",
            "coordinates": [
              12.0981046,
              49.0154916
            ]
          }
        },
        {
          "type": "Feature",
          "properties": {
            "id": "1411362928",
            "osm_type": "node",
            "lat": 49.0168318,
            "lon": 12.0946229,
            "addr:city": "Regensburg",
            "addr:country": "DE",
            "addr:housenumber": "21",
            "addr:postcode": "93047",
            "addr:street": "Obere Bachgasse",
            "check_date": "2024-05-26",
            "internet_access": "wlan",
            "name": "Brook Lane Hostel",
            "phone": "+49 941 6965521",
            "smoking": "no",
            "tourism": "hotel",
            "website": "http://www.hostel-regensburg.de",
            "wheelchair": "no"
          },
          "geometry": {
            "type": "Point",
            "coordinates": [
              12.0946229,
              49.0168318
            ]
          }
        },
        {
          "type": "Feature",
          "properties": {
            "id": "1853377369",
            "osm_type": "node",
            "lat": 48.9317518,
            "lon": 12.0385344,
            "addr:city": "Bad Abbach",
            "addr:country": "DE",
            "addr:housenumber": "4-8",
            "addr:postcode": "93077",
            "addr:street": "Ratsdienerweg",
            "email": "info@hotel-elisabeth.net",
            "fax": "+49 9405 950977",
            "internet_access": "wlan",
            "name": "Hotel Elisabeth",
            "operator": "Dieter Müller",
            "phone": "+49 9405 95090",
            "smoking": "no",
            "source:date": "2016-06-17",
            "stars": "3",
            "tourism": "hotel",
            "website": "http://www.hotel-elisabeth.net/"
          },
          "geometry": {
            "type": "Point",
            "coordinates": [
              12.0385344,
              48.9317518
            ]
          }
        },
        {
          "type": "Feature",
          "properties": {
            "id": "2775381873",
            "osm_type": "node",
            "lat": 49.0063014,
            "lon": 12.1209067,
            "addr:city": "Regensburg",
            "addr:housenumber": "6",
            "addr:postcode": "93053",
            "addr:street": "Hildegard-von-Bingen-Straße",
            "check_date": "2025-05-11",
            "email": "Info@stadthotel-bernstein.de",
            "fax": "+49 941 78527821",
            "internet_access": "wlan",
            "internet_access:fee": "no",
            "name": "Stadthotel Bernstein",
            "operator": "Beigel Hotel UG",
            "phone": "+49 941 38383793",
            "smoking": "no",
            "stars": "3",
            "toilets:wheelchair": "yes",
            "tourism": "hotel",
            "website": "http://www.hotel-ratisbona.de/"
          },
          "geometry": {
            "type": "Point",
            "coordinates": [
              12.1209067,
              49.0063014
            ]
          }
        },
        {
          "type": "Feature",
          "properties": {
            "id": "3658346017",
            "osm_type": "node",
            "lat": 49.0138244,
            "lon": 12.1333098,
            "addr:city": "Regensburg",
            "addr:country": "DE",
            "addr:housenumber": "2",
            "addr:postcode": "93055",
            "addr:street": "Belgrader Straße",
            "email": "info@gaestehaus-bavaria.de",
            "internet_access": "wlan",
            "internet_access:fee": "no",
            "name": "Gästehaus Bavaria",
            "note": "Haustiere erlaubt",
            "phone": "+49 941 60090200",
            "stars": "3",
            "tourism": "hotel",
            "website": "https://gaestehaus-bavaria.de/"
          },
          "geometry": {
            "type": "Point",
            "coordinates": [
              12.1333098,
              49.0138244
            ]
          }
        },
        {
          "type": "Feature",
          "properties": {
            "id": "3690191217",
            "osm_type": "node",
            "lat": 49.0158832,
            "lon": 12.1005256,
            "addr:city": "Regensburg",
            "addr:country": "DE",
            "addr:housenumber": "23",
            "addr:postcode": "93047",
            "addr:street": "Maximilianstraße",
            "check_date": "2025-07-05",
            "contact:email": "rezeption@hotel-weidenhof.de",
            "contact:fax": "+49 941 565166",
            "contact:phone": "+49 941 53031",
            "contact:website": "https://www.hotel-weidenhof.de",
            "name": "Hotel Weidenhof",
            "tourism": "hotel"
          },
          "geometry": {
            "type": "Point",
            "coordinates": [
              12.1005256,
              49.0158832
            ]
          }
        },
        {
          "type": "Feature",
          "properties": {
            "id": "4881106255",
            "osm_type": "node",
            "lat": 49.0157544,
            "lon": 12.3351226,
            "name": "Pension zum Vogelherd",
            "tourism": "hotel"
          },
          "geometry": {
            "type": "Point",
            "coordinates": [
              12.3351226,
              49.0157544
            ]
          }
        },
        {
          "type": "Feature",
          "properties": {
            "id": "5518225169",
            "osm_type": "node",
            "lat": 49.0040118,
            "lon": 12.0664459,
            "name": "ZAR Hotel Vitalis",
            "tourism": "hotel",
            "website": "https://www.zar-hotel-vitalis.de/"
          },
          "geometry": {
            "type": "Point",
            "coordinates": [
              12.0664459,
              49.0040118
            ]
          }
        },
        {
          "type": "Feature",
          "properties": {
            "id": "6378136515",
            "osm_type": "node",
            "lat": 49.012893,
            "lon": 12.0868648,
            "addr:city": "Regensburg",
            "addr:housenumber": "1",
            "addr:postcode": "93049",
            "addr:street": "Friedrich-Niedermayer-Straße",
            "air_conditioning": "yes",
            "brand": "Holiday Inn Express",
            "brand:wikidata": "Q5880423",
            "brand:wikipedia": "en:Holiday Inn Express",
            "internet_access": "wlan",
            "name": "Holiday Inn Express Regensburg",
            "start_date": "2019-11-15",
            "tourism": "hotel",
            "website": "https://www.ihg.com/holidayinnexpress/hotels/us/en/regensburg/zpmrb/hoteldetail",
            "wheelchair": "yes"
          },
          "geometry": {
            "type": "Point",
            "coordinates": [
              12.0868648,
              49.012893
            ]
          }
        },
        {
          "type": "Feature",
          "properties": {
            "id": "6708414478",
            "osm_type": "node",
            "lat": 49.0160548,
            "lon": 12.0990757,
            "addr:housenumber": "20",
            "addr:street": "Schäffnerstraße",
            "check_date": "2024-10-29",
            "name": "Ostello",
            "tourism": "hotel"
          },
          "geometry": {
            "type": "Point",
            "coordinates": [
              12.0990757,
              49.0160548
            ]
          }
        },
        {
          "type": "Feature",
          "properties": {
            "id": "11599206724",
            "osm_type": "node",
            "lat": 49.0159555,
            "lon": 12.1001216,
            "addr:city": "Regensburg",
            "addr:housenumber": "22",
            "addr:postcode": "93047",
            "addr:street": "Maximilianstraße",
            "air_conditioning": "yes",
            "check_date": "2025-08-10",
            "email": "regensburg-city-center@elaya-hotels.com",
            "internet_access": "wlan",
            "internet_access:fee": "no",
            "name": "elaya hotel regensburg city center",
            "phone": "+49 941 2060040",
            "tourism": "hotel",
            "website": "https://www.elaya-hotels.com/regensburg-city-center/"
          },
          "geometry": {
            "type": "Point",
            "coordinates": [
              12.1001216,
              49.0159555
            ]
          }
        },
        {
          "type": "Feature",
          "properties": {
            "id": "12927893789",
            "osm_type": "node",
            "lat": 48.9969519,
            "lon": 12.149063,
            "addr:city": "Regensburg",
            "addr:country": "DE",
            "addr:housenumber": "1",
            "addr:postcode": "93055",
            "addr:street": "Junkersstraße",
            "contact:email": "regensburg-ost@hotelbb.com",
            "contact:phone": "+49 941 46706030",
            "contact:website": "https://www.hotelbb.de/de/hotel/regensburg-ost",
            "internet_access": "wlan",
            "internet_access:fee": "no",
            "name": "tB&B Hotel",
            "official_name": "B&B Hotel Regensburg-Ost",
            "rooms": "73",
            "tourism": "hotel",
            "wheelchair": "yes"
          },
          "geometry": {
            "type": "Point",
            "coordinates": [
              12.149063,
              48.9969519
            ]
          }
        },
        {
          "type": "Feature",
          "properties": {
            "id": "12974351037",
            "osm_type": "node",
            "lat": 49.0162263,
            "lon": 12.0974621,
            "addr:housenumber": "19",
            "addr:street": "Obermünsterstraße",
            "air_conditioning": "no",
            "bar": "no",
            "check_date": "2025-07-03",
            "internet_access": "wlan",
            "internet_access:fee": "customers",
            "level": "2",
            "name": "Rote 19",
            "payment:cash": "yes",
            "payment:credit_cards": "yes",
            "payment:debit_cards": "yes",
            "reservation": "yes",
            "smoking": "no",
            "tourism": "hotel",
            "website": "https://hotel-rote19.de",
            "wheelchair": "no"
          },
          "geometry": {
            "type": "Point",
            "coordinates": [
              12.0974621,
              49.0162263
            ]
          }
        }
      ],
      "children": []
    },
    {
      "bbox": {
        "south": 48.68652475,
        "west": 12.392062499999998,
        "north": 49.017078,
        "east": 13.345766
      },
      "poiCount": 52,
      "leafCount": 0,
      "averagePosition": [
        12.943975475000002,
        48.91365604999999
      ],
      "data": [],
      "children": [
        {
          "bbox": {
            "south": 48.68652475,
            "west": 12.392062499999998,
            "north": 48.851801374999994,
            "east": 12.86891425
          },
          "poiCount": 1,
          "leafCount": 1,
          "averagePosition": [
            12.8651033,
            48.7788126
          ],
          "data": [
            {
              "type": "Feature",
              "properties": {
                "id": "442993094",
                "osm_type": "node",
                "lat": 48.7788126,
                "lon": 12.8651033,
                "name": "Hotel Liebl",
                "tourism": "hotel"
              },
              "geometry": {
                "type": "Point",
                "coordinates": [
                  12.8651033,
                  48.7788126
                ]
              }
            }
          ],
          "children": []
        },
        {
          "bbox": {
            "south": 48.68652475,
            "west": 12.86891425,
            "north": 48.851801374999994,
            "east": 13.345766
          },
          "poiCount": 9,
          "leafCount": 9,
          "averagePosition": [
            13.08385471111111,
            48.776089255555554
          ],
          "data": [
            {
              "type": "Feature",
              "properties": {
                "id": "1640979728",
                "osm_type": "node",
                "lat": 48.8319934,
                "lon": 12.9644726,
                "addr:city": "Deggendorf",
                "addr:housenumber": "13",
                "addr:postcode": "94469",
                "addr:street": "Östlicher Stadtgraben",
                "contact:website": "https://www.stadthotel-deggendorf.de/",
                "name": "Stadthotel Deggendorf",
                "phone": "+49 991 371640",
                "tourism": "hotel"
              },
              "geometry": {
                "type": "Point",
                "coordinates": [
                  12.9644726,
                  48.8319934
                ]
              }
            },
            {
              "type": "Feature",
              "properties": {
                "id": "2402344210",
                "osm_type": "node",
                "lat": 48.8001356,
                "lon": 12.9437341,
                "name": "Landhotel Hutter",
                "operator": "Siegfried Hutter",
                "tourism": "hotel",
                "website": "http://www.landhotel-hutter.de"
              },
              "geometry": {
                "type": "Point",
                "coordinates": [
                  12.9437341,
                  48.8001356
                ]
              }
            },
            {
              "type": "Feature",
              "properties": {
                "id": "3663231738",
                "osm_type": "node",
                "lat": 48.7011848,
                "lon": 13.0205894,
                "name": "Hotel Pirkl",
                "toilets:wheelchair": "no",
                "tourism": "hotel",
                "wheelchair": "limited"
              },
              "geometry": {
                "type": "Point",
                "coordinates": [
                  13.0205894,
                  48.7011848
                ]
              }
            },
            {
              "type": "Feature",
              "properties": {
                "id": "3663232615",
                "osm_type": "node",
                "lat": 48.7002689,
                "lon": 13.0217091,
                "check_date": "2024-10-03",
                "name": "Hotel Bayr. Löwe",
                "tourism": "hotel"
              },
              "geometry": {
                "type": "Point",
                "coordinates": [
                  13.0217091,
                  48.7002689
                ]
              }
            },
            {
              "type": "Feature",
              "properties": {
                "id": "701731698",
                "osm_type": "node",
                "lat": 48.8082181,
                "lon": 13.2171904,
                "name": "Pension Michael Wimmer",
                "tourism": "hotel"
              },
              "geometry": {
                "type": "Point",
                "coordinates": [
                  13.2171904,
                  48.8082181
                ]
              }
            },
            {
              "type": "Feature",
              "properties": {
                "id": "1025567487",
                "osm_type": "node",
                "lat": 48.8456621,
                "lon": 13.1385425,
                "name": "Lallinger Hof",
                "tourism": "hotel",
                "wheelchair": "limited"
              },
              "geometry": {
                "type": "Point",
                "coordinates": [
                  13.1385425,
                  48.8456621
                ]
              }
            },
            {
              "type": "Feature",
              "properties": {
                "id": "1414851215",
                "osm_type": "node",
                "lat": 48.7765872,
                "lon": 13.0495251,
                "addr:city": "Hengersberg",
                "addr:country": "DE",
                "addr:housenumber": "13",
                "addr:postcode": "94491",
                "addr:street": "Am Ohewehr",
                "name": "Hotel am Ohewehr",
                "tourism": "hotel",
                "wheelchair": "no"
              },
              "geometry": {
                "type": "Point",
                "coordinates": [
                  13.0495251,
                  48.7765872
                ]
              }
            },
            {
              "type": "Feature",
              "properties": {
                "id": "9510973756",
                "osm_type": "node",
                "lat": 48.7917266,
                "lon": 13.2582068,
                "addr:city": "Zenting",
                "addr:country": "DE",
                "addr:housenumber": "1",
                "addr:postcode": "94579",
                "addr:street": "Bräugasse",
                "contact:email": "info@kamm-braeu.de",
                "contact:fax": "+49 9907 892231",
                "contact:phone": "+49990789220",
                "contact:website": "https://www.kamm-braeu.de/de/der-kammbraeu.html",
                "name": "Landgasthof Kammbräu",
                "operator": "Sigrid Kamm",
                "tourism": "hotel"
              },
              "geometry": {
                "type": "Point",
                "coordinates": [
                  13.2582068,
                  48.7917266
                ]
              }
            },
            {
              "type": "Feature",
              "properties": {
                "id": "10033443750",
                "osm_type": "node",
                "lat": 48.7290266,
                "lon": 13.1407224,
                "addr:housenumber": "5",
                "addr:street": "Hauptstraße, 94547, Deutschland",
                "description": "Typisch bayrischer Gasthof mit Hotel und Metzgerei.",
                "name": "Hotel und Gasthof Linsmeier",
                "opening_hours": "Mo, We-Su 17:00-21:00",
                "phone": "+49 9903 8407",
                "tourism": "hotel",
                "website": "https://www.hotel-linsmeier.de/"
              },
              "geometry": {
                "type": "Point",
                "coordinates": [
                  13.1407224,
                  48.7290266
                ]
              }
            }
          ],
          "children": []
        },
        {
          "bbox": {
            "south": 48.851801374999994,
            "west": 12.392062499999998,
            "north": 49.017078,
            "east": 12.86891425
          },
          "poiCount": 21,
          "leafCount": 21,
          "averagePosition": [
            12.698460700000002,
            48.95635278571428
          ],
          "data": [
            {
              "type": "Feature",
              "properties": {
                "id": "1882825095",
                "osm_type": "node",
                "lat": 48.8709604,
                "lon": 12.5737775,
                "addr:city": "Straubing",
                "addr:country": "DE",
                "addr:housenumber": "65",
                "addr:postcode": "94315",
                "addr:street": "Landshuter Straße",
                "email": "info@weisses-roessl-straubing.de",
                "fax": "+499421 96363377",
                "name": "Weisses Rössl",
                "phone": "+49 9421 96363366",
                "tourism": "hotel",
                "website": "https://www.weisses-roessl-straubing.de/"
              },
              "geometry": {
                "type": "Point",
                "coordinates": [
                  12.5737775,
                  48.8709604
                ]
              }
            },
            {
              "type": "Feature",
              "properties": {
                "id": "1925276653",
                "osm_type": "node",
                "lat": 48.8662574,
                "lon": 12.5738566,
                "addr:city": "Straubing",
                "addr:postcode": "94315",
                "check_date": "2025-01-17",
                "name": "zur Sonne",
                "tourism": "hotel"
              },
              "geometry": {
                "type": "Point",
                "coordinates": [
                  12.5738566,
                  48.8662574
                ]
              }
            },
            {
              "type": "Feature",
              "properties": {
                "id": "278216778",
                "osm_type": "node",
                "lat": 49.0154456,
                "lon": 12.7810071,
                "addr:city": "Sankt Englmar",
                "addr:country": "DE",
                "addr:housenumber": "8",
                "addr:place": "Maibrunn",
                "addr:postcode": "94379",
                "check_date": "2024-08-05",
                "email": "info@simmerl-hotel.de",
                "internet_access": "wlan",
                "internet_access:fee": "no",
                "name": "Familotel \"Beim Simmerl\"",
                "operator": "Alexander Pielmeier e.K.",
                "payment:cash": "yes",
                "payment:credit_cards": "yes",
                "payment:debit_cards": "yes",
                "phone": "+49 9965 84120",
                "smoking": "outside",
                "stars": "4",
                "swimming_pool": "indoor",
                "tourism": "hotel",
                "website": "https://www.kinderhotel-bayern.de",
                "wheelchair": "limited"
              },
              "geometry": {
                "type": "Point",
                "coordinates": [
                  12.7810071,
                  49.0154456
                ]
              }
            },
            {
              "type": "Feature",
              "properties": {
                "id": "312353290",
                "osm_type": "node",
                "lat": 48.8785586,
                "lon": 12.5811508,
                "addr:city": "Straubing",
                "addr:country": "DE",
                "addr:housenumber": "59 - 61",
                "addr:postcode": "94315",
                "addr:street": "Innere Passauer Straße",
                "fax": "+49 9421 993180",
                "name": "Genusshotel Wenisch",
                "phone": "+49 9421 99310",
                "tourism": "hotel",
                "website": "https://www.genusshotel-wenisch.de/",
                "wheelchair": "yes",
                "wikidata": "Q111852059"
              },
              "geometry": {
                "type": "Point",
                "coordinates": [
                  12.5811508,
                  48.8785586
                ]
              }
            },
            {
              "type": "Feature",
              "properties": {
                "id": "323161307",
                "osm_type": "node",
                "lat": 48.8810975,
                "lon": 12.5653285,
                "addr:city": "Straubing",
                "addr:country": "DE",
                "addr:housenumber": "51",
                "addr:postcode": "94315",
                "addr:street": "Theresienplatz",
                "name": "Hotel Theresientor",
                "tourism": "hotel",
                "website": "https://hotel-theresientor.de/",
                "wheelchair": "yes",
                "wikidata": "Q111852038"
              },
              "geometry": {
                "type": "Point",
                "coordinates": [
                  12.5653285,
                  48.8810975
                ]
              }
            },
            {
              "type": "Feature",
              "properties": {
                "id": "434662586",
                "osm_type": "node",
                "lat": 48.8827154,
                "lon": 12.6358446,
                "addr:city": "Straubing",
                "addr:postcode": "94315",
                "name": "Hotel Nothaft",
                "stars": "3",
                "tourism": "hotel"
              },
              "geometry": {
                "type": "Point",
                "coordinates": [
                  12.6358446,
                  48.8827154
                ]
              }
            },
            {
              "type": "Feature",
              "properties": {
                "id": "458783075",
                "osm_type": "node",
                "lat": 48.8919863,
                "lon": 12.6611794,
                "addr:city": "Aiterhofen",
                "addr:housenumber": "4",
                "addr:postcode": "94330",
                "addr:street": "Hunderdorf",
                "email": "straubing@sunnyhotel.de",
                "name": "Sunny Hotel Straubing",
                "phone": "+4994217559082",
                "tourism": "hotel",
                "website": "https://sunnyhotel-straubing.de"
              },
              "geometry": {
                "type": "Point",
                "coordinates": [
                  12.6611794,
                  48.8919863
                ]
              }
            },
            {
              "type": "Feature",
              "properties": {
                "id": "1369801455",
                "osm_type": "node",
                "lat": 48.9059978,
                "lon": 12.5621108,
                "addr:city": "Straubing",
                "addr:country": "DE",
                "addr:housenumber": "1",
                "addr:postcode": "94315",
                "addr:street": "Sossauer Platz",
                "email": "essen@landgasthof-reisinger.de",
                "fax": "+49 9421 88127",
                "name": "Landgasthof Reisinger",
                "opening_hours": "Tu-Su 10:00+",
                "phone": "+49 9421 10658",
                "tourism": "hotel",
                "website": "https://landgasthof-reisinger.de/"
              },
              "geometry": {
                "type": "Point",
                "coordinates": [
                  12.5621108,
                  48.9059978
                ]
              }
            },
            {
              "type": "Feature",
              "properties": {
                "id": "1869457511",
                "osm_type": "node",
                "lat": 49.0045302,
                "lon": 12.8336711,
                "addr:city": "Sankt Englmar",
                "addr:housenumber": "2",
                "addr:postcode": "94379",
                "addr:street": "Am Predigtstuhl",
                "air_conditioning": "yes",
                "bar": "yes",
                "check_date": "2025-04-20",
                "email": "info@predigtstuhlresort.de",
                "internet_access": "wlan",
                "internet_access:fee": "no",
                "name": "Predigtstuhl Resort",
                "phone": "+499965981",
                "reservation": "recommended",
                "smoking": "isolated",
                "stars": "3",
                "swimming_pool": "yes",
                "tourism": "hotel",
                "website": "https://www.predigtstuhlresort.de/"
              },
              "geometry": {
                "type": "Point",
                "coordinates": [
                  12.8336711,
                  49.0045302
                ]
              }
            },
            {
              "type": "Feature",
              "properties": {
                "id": "2327923826",
                "osm_type": "node",
                "lat": 49.0160847,
                "lon": 12.7820435,
                "addr:housenumber": "13",
                "addr:postcode": "94379",
                "addr:street": "Maibrunn",
                "air_conditioning": "no",
                "check_date": "2022-05-24",
                "internet_access": "wlan",
                "internet_access:fee": "no",
                "name": "Privatpension Bergschütz",
                "smoking": "outside",
                "tourism": "hotel",
                "website": "https://bergschuetz.de/"
              },
              "geometry": {
                "type": "Point",
                "coordinates": [
                  12.7820435,
                  49.0160847
                ]
              }
            },
            {
              "type": "Feature",
              "properties": {
                "id": "2327925019",
                "osm_type": "node",
                "lat": 49.0168546,
                "lon": 12.7831029,
                "name": "FeWo Karlheinz Six",
                "tourism": "hotel"
              },
              "geometry": {
                "type": "Point",
                "coordinates": [
                  12.7831029,
                  49.0168546
                ]
              }
            },
            {
              "type": "Feature",
              "properties": {
                "id": "2327959323",
                "osm_type": "node",
                "lat": 49.0156906,
                "lon": 12.7837934,
                "addr:city": "Maibrunn",
                "addr:housenumber": "1",
                "addr:postcode": "94379",
                "addr:street": "Maibrunn",
                "name": "Berghotel Maibrunn",
                "phone": "+49 9965 8500",
                "tourism": "hotel",
                "website": "https://www.berghotel-maibrunn.de/"
              },
              "geometry": {
                "type": "Point",
                "coordinates": [
                  12.7837934,
                  49.0156906
                ]
              }
            },
            {
              "type": "Feature",
              "properties": {
                "id": "2327960447",
                "osm_type": "node",
                "lat": 49.0161058,
                "lon": 12.7807679,
                "name": "FeWo \"Linde\"",
                "tourism": "hotel"
              },
              "geometry": {
                "type": "Point",
                "coordinates": [
                  12.7807679,
                  49.0161058
                ]
              }
            },
            {
              "type": "Feature",
              "properties": {
                "id": "3017938436",
                "osm_type": "node",
                "lat": 49.0025641,
                "lon": 12.8237967,
                "name": "Haus Bayerweg",
                "tourism": "hotel",
                "website": "https://www.haus-bayerweg.de/"
              },
              "geometry": {
                "type": "Point",
                "coordinates": [
                  12.8237967,
                  49.0025641
                ]
              }
            },
            {
              "type": "Feature",
              "properties": {
                "id": "3017967487",
                "osm_type": "node",
                "lat": 49.0029271,
                "lon": 12.825071,
                "addr:city": "Sankt Englmar",
                "addr:housenumber": "48",
                "addr:postcode": "94379",
                "addr:street": "Bayerweg",
                "check_date": "2024-10-09",
                "name": "Haus Troiber",
                "tourism": "hotel"
              },
              "geometry": {
                "type": "Point",
                "coordinates": [
                  12.825071,
                  49.0029271
                ]
              }
            },
            {
              "type": "Feature",
              "properties": {
                "id": "3338445386",
                "osm_type": "node",
                "lat": 49.0050388,
                "lon": 12.8366866,
                "addr:city": "Sankt Englmar",
                "addr:housenumber": "6",
                "addr:postcode": "94379",
                "addr:street": "Hirschensteinweg",
                "name": "Haus Tannenhof",
                "phone": "+49 9965 333",
                "tourism": "hotel",
                "website": "https://www.tannenhof-englmar.de/"
              },
              "geometry": {
                "type": "Point",
                "coordinates": [
                  12.8366866,
                  49.0050388
                ]
              }
            },
            {
              "type": "Feature",
              "properties": {
                "id": "5409358835",
                "osm_type": "node",
                "lat": 49.0126064,
                "lon": 12.7911973,
                "name": "Hotel Reinerhof",
                "tourism": "hotel",
                "website": "https://www.reinerhof.de/",
                "wheelchair": "limited"
              },
              "geometry": {
                "type": "Point",
                "coordinates": [
                  12.7911973,
                  49.0126064
                ]
              }
            },
            {
              "type": "Feature",
              "properties": {
                "id": "8992255913",
                "osm_type": "node",
                "lat": 48.9533718,
                "lon": 12.5425498,
                "name": "Gasthof Zur Lacke",
                "tourism": "hotel"
              },
              "geometry": {
                "type": "Point",
                "coordinates": [
                  12.5425498,
                  48.9533718
                ]
              }
            },
            {
              "type": "Feature",
              "properties": {
                "id": "10586930551",
                "osm_type": "node",
                "lat": 48.9483759,
                "lon": 12.8520014,
                "beds": "29",
                "name": "Menauer",
                "operator": "Johann Menauer",
                "rooms": "14",
                "stars": "3",
                "tourism": "hotel"
              },
              "geometry": {
                "type": "Point",
                "coordinates": [
                  12.8520014,
                  48.9483759
                ]
              }
            },
            {
              "type": "Feature",
              "properties": {
                "id": "11624052318",
                "osm_type": "node",
                "lat": 48.9432541,
                "lon": 12.5566529,
                "name": "Bachhof Resort Hotel",
                "tourism": "hotel"
              },
              "geometry": {
                "type": "Point",
                "coordinates": [
                  12.5566529,
                  48.9432541
                ]
              }
            },
            {
              "type": "Feature",
              "properties": {
                "id": "11730113003",
                "osm_type": "node",
                "lat": 48.9529854,
                "lon": 12.5420849,
                "name": "Gashaus zur Post",
                "tourism": "hotel"
              },
              "geometry": {
                "type": "Point",
                "coordinates": [
                  12.5420849,
                  48.9529854
                ]
              }
            }
          ],
          "children": []
        },
        {
          "bbox": {
            "south": 48.851801374999994,
            "west": 12.86891425,
            "north": 49.017078,
            "east": 13.345766
          },
          "poiCount": 21,
          "leafCount": 21,
          "averagePosition": [
            13.133297823809524,
            48.93633762857142
          ],
          "data": [
            {
              "type": "Feature",
              "properties": {
                "id": "11046117012",
                "osm_type": "node",
                "lat": 48.8547026,
                "lon": 12.9952076,
                "contact:email": "info@dorfschaenke-deggendorf.de",
                "contact:phone": "+49 991 27 11 5",
                "contact:website": "https://www.dorfschaenke-deggendorf.de/de-DE/homepage",
                "name": "Zur Dorfschänke",
                "operator": "Melanie Mages",
                "tourism": "hotel"
              },
              "geometry": {
                "type": "Point",
                "coordinates": [
                  12.9952076,
                  48.8547026
                ]
              }
            },
            {
              "type": "Feature",
              "properties": {
                "id": "1719078038",
                "osm_type": "node",
                "lat": 48.8577666,
                "lon": 13.1444157,
                "addr:city": "Lalling",
                "addr:country": "DE",
                "addr:housenumber": "91 1/2",
                "addr:postcode": "94551",
                "addr:street": "Ranzingerberg",
                "beds": "35",
                "email": "info@thula-landhotel.de",
                "fax": "+49 9904 811099150",
                "internet_access": "wlan",
                "internet_access:fee": "no",
                "name": "Thula Wellness-Hotel Bayerischer Wald",
                "phone": "+49 9904 8110990",
                "smoking": "no",
                "stars": "3",
                "tourism": "hotel",
                "website": "https://www.thula-landhotel.de/",
                "wheelchair": "no"
              },
              "geometry": {
                "type": "Point",
                "coordinates": [
                  13.1444157,
                  48.8577666
                ]
              }
            },
            {
              "type": "Feature",
              "properties": {
                "id": "393350782",
                "osm_type": "node",
                "lat": 48.8810807,
                "lon": 12.9214544,
                "name": "Schloss Hotel",
                "tourism": "hotel"
              },
              "geometry": {
                "type": "Point",
                "coordinates": [
                  12.9214544,
                  48.8810807
                ]
              }
            },
            {
              "type": "Feature",
              "properties": {
                "id": "477922967",
                "osm_type": "node",
                "lat": 48.918625,
                "lon": 12.8837871,
                "name": "Posthotel",
                "stars": "3",
                "tourism": "hotel",
                "wheelchair": "yes"
              },
              "geometry": {
                "type": "Point",
                "coordinates": [
                  12.8837871,
                  48.918625
                ]
              }
            },
            {
              "type": "Feature",
              "properties": {
                "id": "477922972",
                "osm_type": "node",
                "lat": 48.9169558,
                "lon": 12.8811025,
                "addr:housenumber": "9",
                "addr:street": "Bogener Straße",
                "name": "Bernrieder Hof",
                "stars": "3",
                "tourism": "hotel",
                "website": "https://www.bernrieder-hof.de/",
                "wheelchair": "limited",
                "wikidata": "Q111853300"
              },
              "geometry": {
                "type": "Point",
                "coordinates": [
                  12.8811025,
                  48.9169558
                ]
              }
            },
            {
              "type": "Feature",
              "properties": {
                "id": "3750189526",
                "osm_type": "node",
                "lat": 48.9624491,
                "lon": 12.9147978,
                "addr:city": "Achslach",
                "addr:housenumber": "44",
                "addr:postcode": "94250",
                "addr:street": "Lindenau",
                "check_date": "2025-06-14",
                "name": "Pension -Familie & Wellness „Hirschenstein“",
                "tourism": "hotel"
              },
              "geometry": {
                "type": "Point",
                "coordinates": [
                  12.9147978,
                  48.9624491
                ]
              }
            },
            {
              "type": "Feature",
              "properties": {
                "id": "11017515961",
                "osm_type": "node",
                "lat": 48.9191419,
                "lon": 12.8814419,
                "addr:city": "Bernried",
                "addr:housenumber": "18",
                "addr:postcode": "94505",
                "addr:street": "Engerlgasse",
                "email": "hotel-winterl@t-online.de",
                "name": "Landhotel Winterl",
                "phone": "+49 9905 261",
                "tourism": "hotel",
                "website": "https://www.hotel-winterl.de/"
              },
              "geometry": {
                "type": "Point",
                "coordinates": [
                  12.8814419,
                  48.9191419
                ]
              }
            },
            {
              "type": "Feature",
              "properties": {
                "id": "534416702",
                "osm_type": "node",
                "lat": 49.0065048,
                "lon": 13.2253738,
                "addr:city": "Zwiesel",
                "addr:housenumber": "14",
                "addr:postcode": "94227",
                "addr:street": "Schützenstraße",
                "check_date": "2025-01-05",
                "email": "info@landhaushochfeld.de",
                "internet_access": "wlan",
                "internet_access:fee": "no",
                "name": "Pension Hochfeld",
                "phone": "+49 (0)9922 9409",
                "rooms": "12",
                "tourism": "hotel",
                "website": "https://www.landhaushochfeld.de/"
              },
              "geometry": {
                "type": "Point",
                "coordinates": [
                  13.2253738,
                  49.0065048
                ]
              }
            },
            {
              "type": "Feature",
              "properties": {
                "id": "650026496",
                "osm_type": "node",
                "lat": 48.9964563,
                "lon": 13.3030713,
                "addr:city": "Frauenau",
                "addr:housenumber": "18",
                "addr:postcode": "94258",
                "addr:street": "Dörflstraße",
                "name": "Hotel Büchler",
                "tourism": "hotel"
              },
              "geometry": {
                "type": "Point",
                "coordinates": [
                  13.3030713,
                  48.9964563
                ]
              }
            },
            {
              "type": "Feature",
              "properties": {
                "id": "1371474506",
                "osm_type": "node",
                "lat": 48.993851,
                "lon": 13.30455,
                "name": "Am Freibad",
                "tourism": "hotel",
                "website": "http://www.hotel-am-freibad-frauenau.de/"
              },
              "geometry": {
                "type": "Point",
                "coordinates": [
                  13.30455,
                  48.993851
                ]
              }
            },
            {
              "type": "Feature",
              "properties": {
                "id": "1675116981",
                "osm_type": "node",
                "lat": 48.9085615,
                "lon": 13.3423846,
                "addr:city": "Spiegelau",
                "addr:country": "DE",
                "addr:housenumber": "3",
                "addr:postcode": "94518",
                "addr:street": "Langdorfer Straße",
                "name": "Ferienhof Friedl",
                "phone": "+4985532951",
                "tourism": "hotel"
              },
              "geometry": {
                "type": "Point",
                "coordinates": [
                  13.3423846,
                  48.9085615
                ]
              }
            },
            {
              "type": "Feature",
              "properties": {
                "id": "1675116983",
                "osm_type": "node",
                "lat": 48.9136517,
                "lon": 13.3309173,
                "addr:city": "Spiegelau",
                "addr:country": "DE",
                "addr:housenumber": "3",
                "addr:postcode": "94518",
                "addr:street": "Eppenschlager",
                "name": "Gästehaus Apfelbacher",
                "phone": "+498553770",
                "tourism": "hotel",
                "website": "http://www.gaestehaus-apfelbacher.de"
              },
              "geometry": {
                "type": "Point",
                "coordinates": [
                  13.3309173,
                  48.9136517
                ]
              }
            },
            {
              "type": "Feature",
              "properties": {
                "id": "1919098519",
                "osm_type": "node",
                "lat": 48.975876,
                "lon": 13.0661421,
                "name": "Landgasthof \"Zur alten Post\"",
                "tourism": "hotel"
              },
              "geometry": {
                "type": "Point",
                "coordinates": [
                  13.0661421,
                  48.975876
                ]
              }
            },
            {
              "type": "Feature",
              "properties": {
                "id": "1949589068",
                "osm_type": "node",
                "lat": 48.8953045,
                "lon": 13.3444483,
                "addr:city": "Spiegelau",
                "addr:country": "DE",
                "addr:housenumber": "8",
                "addr:postcode": "94518",
                "addr:street": "Kreuzbergstraße",
                "addr:suburb": "Oberkreutzberg",
                "fax": "+498553/91110",
                "name": "Berggasthof Grobauer",
                "phone": "+498553/91109",
                "tourism": "hotel",
                "website": "https://www.hotel-grobauer.de/"
              },
              "geometry": {
                "type": "Point",
                "coordinates": [
                  13.3444483,
                  48.8953045
                ]
              }
            },
            {
              "type": "Feature",
              "properties": {
                "id": "2048074057",
                "osm_type": "node",
                "lat": 48.9649634,
                "lon": 13.0615472,
                "name": "Weber",
                "tourism": "hotel"
              },
              "geometry": {
                "type": "Point",
                "coordinates": [
                  13.0615472,
                  48.9649634
                ]
              }
            },
            {
              "type": "Feature",
              "properties": {
                "id": "3057058261",
                "osm_type": "node",
                "lat": 48.9764168,
                "lon": 13.0670057,
                "check_date": "2024-05-04",
                "contact:email": "info@tremml.de",
                "contact:fax": "+49 9921 904473",
                "contact:phone": "+49 9921 1888",
                "contact:website": "https://tremml.de/",
                "name": "Zum Oberen Wirt",
                "tourism": "hotel"
              },
              "geometry": {
                "type": "Point",
                "coordinates": [
                  13.0670057,
                  48.9764168
                ]
              }
            },
            {
              "type": "Feature",
              "properties": {
                "id": "4298771847",
                "osm_type": "node",
                "lat": 48.9239505,
                "lon": 13.0680882,
                "addr:city": "Bischofsmais",
                "addr:country": "DE",
                "addr:housenumber": "3",
                "addr:postcode": "94253",
                "addr:street": "Lina-Müller-Weg",
                "addr:suburb": "Wastlsäge",
                "internet_access": "wlan",
                "name": "Familotel Wastlsäge",
                "smoking": "outside",
                "tourism": "hotel"
              },
              "geometry": {
                "type": "Point",
                "coordinates": [
                  13.0680882,
                  48.9239505
                ]
              }
            },
            {
              "type": "Feature",
              "properties": {
                "id": "5372507949",
                "osm_type": "node",
                "lat": 48.9445935,
                "lon": 13.3369151,
                "addr:housenumber": "14",
                "addr:street": "Klingenbrunn-Bahnhof",
                "name": "Hotel Bayernstern",
                "phone": "+4985536630",
                "tourism": "hotel",
                "website": "https://www.bayernstern.de/"
              },
              "geometry": {
                "type": "Point",
                "coordinates": [
                  13.3369151,
                  48.9445935
                ]
              }
            },
            {
              "type": "Feature",
              "properties": {
                "id": "5450881748",
                "osm_type": "node",
                "lat": 48.889719,
                "lon": 13.297328,
                "tourism": "hotel"
              },
              "geometry": {
                "type": "Point",
                "coordinates": [
                  13.297328,
                  48.889719
                ]
              }
            },
            {
              "type": "Feature",
              "properties": {
                "id": "5833860176",
                "osm_type": "node",
                "lat": 48.9721634,
                "lon": 13.1276536,
                "email": "info@arberland-hotel.com",
                "internet_access": "yes",
                "internet_access:fee": "no",
                "name": "Arberland Hotel",
                "phone": "+49-9921-950-411",
                "tourism": "hotel",
                "website": "https://www.tagungshotel-bayerischer-wald.de"
              },
              "geometry": {
                "type": "Point",
                "coordinates": [
                  13.1276536,
                  48.9721634
                ]
              }
            },
            {
              "type": "Feature",
              "properties": {
                "id": "12461403462",
                "osm_type": "node",
                "lat": 48.9903561,
                "lon": 13.3016221,
                "addr:city": "Frauenau",
                "addr:housenumber": "18",
                "addr:postcode": "94258",
                "addr:street": "Hauptstraße",
                "email": "info@eibl-brunner.de",
                "name": "Wellnesshotel Eibl-Brunner",
                "phone": "+49 9926 9510",
                "tourism": "hotel",
                "website": "https://www.eibl-brunner.de"
              },
              "geometry": {
                "type": "Point",
                "coordinates": [
                  13.3016221,
                  48.9903561
                ]
              }
            }
          ],
          "children": []
        }
      ]
    }
  ]
}