{
  "bbox": {
    "south": 46.372652,
    "west": 15.253173,
    "north": 47.033758500000005,
    "east": 17.16058
  },
  "poiCount": 212,
  "leafCount": 0,
  "averagePosition": [
    16.033544865566036,
    46.699410161320756
  ],
  "data": [],
  "children": [
    {
      "bbox": {
        "south": 46.372652,
        "west": 15.253173,
        "north": 46.70320525,
        "east": 16.2068765
      },
      "poiCount": 69,
      "leafCount": 0,
      "averagePosition": [
        15.793650385507247,
        46.53991920869564
      ],
      "data": [],
      "children": [
        {
          "bbox": {
            "south": 46.372652,
            "west": 15.253173,
            "north": 46.537928625000006,
            "east": 15.73002475
          },
          "poiCount": 12,
          "leafCount": 12,
          "averagePosition": [
            15.617034641666665,
            46.447331575
          ],
          "data": [
            {
              "type": "Feature",
              "properties": {
                "id": "445849192",
                "osm_type": "node",
                "lat": 46.3956732,
                "lon": 15.6605896,
                "addr:housenumber": "7",
                "addr:street": "Kolodvorska ulica",
                "amenity": "bank",
                "operator": "Nova KBM d.d."
              },
              "geometry": {
                "type": "Point",
                "coordinates": [
                  15.6605896,
                  46.3956732
                ]
              }
            },
            {
              "type": "Feature",
              "properties": {
                "id": "491196552",
                "osm_type": "node",
                "lat": 46.5001222,
                "lon": 15.6576833,
                "amenity": "bank",
                "name": "NKBM",
                "opening_hours": "Mo 08:30-16:00; Tu,Th 08:30-12:30,13:00-16:00; We 08:30-12:30,13:00-17:00; Fr 08:30-12:30,13:00-15:00",
                "operator": "Nova KBM"
              },
              "geometry": {
                "type": "Point",
                "coordinates": [
                  15.6576833,
                  46.5001222
                ]
              }
            },
            {
              "type": "Feature",
              "properties": {
                "id": "1847529914",
                "osm_type": "node",
                "lat": 46.5326948,
                "lon": 15.6680123,
                "amenity": "bank",
                "name": "Abanka"
              },
              "geometry": {
                "type": "Point",
                "coordinates": [
                  15.6680123,
                  46.5326948
                ]
              }
            },
            {
              "type": "Feature",
              "properties": {
                "id": "2345321406",
                "osm_type": "node",
                "lat": 46.5127667,
                "lon": 15.6908962,
                "amenity": "bank",
                "atm": "yes",
                "name": "Banka Koper"
              },
              "geometry": {
                "type": "Point",
                "coordinates": [
                  15.6908962,
                  46.5127667
                ]
              }
            },
            {
              "type": "Feature",
              "properties": {
                "id": "2780253656",
                "osm_type": "node",
                "lat": 46.3903903,
                "lon": 15.5712321,
                "addr:city": "Slovenska Bistrica",
                "addr:housenumber": "16",
                "addr:postcode": "2310",
                "addr:street": "Ljubljanska cesta",
                "amenity": "bank",
                "name": "Intesa Sanpaolo Bank",
                "wheelchair": "yes"
              },
              "geometry": {
                "type": "Point",
                "coordinates": [
                  15.5712321,
                  46.3903903
                ]
              }
            },
            {
              "type": "Feature",
              "properties": {
                "id": "2780399111",
                "osm_type": "node",
                "lat": 46.3925697,
                "lon": 15.5727852,
                "addr:city": "Slovenska Bistrica",
                "addr:housenumber": "26",
                "addr:postcode": "2310",
                "addr:street": "Trg svobode",
                "amenity": "bank",
                "brand": "NLB",
                "brand:wikidata": "Q1481509",
                "name": "NLB",
                "website": "https://www.nlb.si/poslovalnica?doc=31870&oe=4073",
                "wheelchair": "yes"
              },
              "geometry": {
                "type": "Point",
                "coordinates": [
                  15.5727852,
                  46.3925697
                ]
              }
            },
            {
              "type": "Feature",
              "properties": {
                "id": "2780401994",
                "osm_type": "node",
                "lat": 46.3926392,
                "lon": 15.5729269,
                "addr:city": "Slovenska Bistrica",
                "addr:housenumber": "22",
                "addr:postcode": "2310",
                "addr:street": "Trg svobode",
                "amenity": "bank",
                "name": "Delavska hranilnica",
                "website": "https://www.delavska-hranilnica.si/DH,,o_hranilnici,poslovna_mreza,slovenska_bistrica.htm",
                "wheelchair": "yes"
              },
              "geometry": {
                "type": "Point",
                "coordinates": [
                  15.5729269,
                  46.3926392
                ]
              }
            },
            {
              "type": "Feature",
              "properties": {
                "id": "2780416318",
                "osm_type": "node",
                "lat": 46.3923302,
                "lon": 15.5730758,
                "addr:city": "Slovenska Bistrica",
                "addr:housenumber": "21",
                "addr:postcode": "2310",
                "addr:street": "Trg svobode",
                "amenity": "bank",
                "brand": "UniCredit Bank",
                "brand:wikidata": "Q45568",
                "name": "UniCredit Bank",
                "website": "https://www.unicreditbank.si/poslovne_enote.asp?idi=20",
                "wheelchair": "yes"
              },
              "geometry": {
                "type": "Point",
                "coordinates": [
                  15.5730758,
                  46.3923302
                ]
              }
            },
            {
              "type": "Feature",
              "properties": {
                "id": "2780547412",
                "osm_type": "node",
                "lat": 46.3957752,
                "lon": 15.5581078,
                "amenity": "bank",
                "name": "Nova KBM",
                "wheelchair": "yes"
              },
              "geometry": {
                "type": "Point",
                "coordinates": [
                  15.5581078,
                  46.3957752
                ]
              }
            },
            {
              "type": "Feature",
              "properties": {
                "id": "4618961197",
                "osm_type": "node",
                "lat": 46.5336921,
                "lon": 15.6651318,
                "addr:city": "Maribor",
                "addr:housenumber": "105",
                "addr:postcode": "2000",
                "addr:street": "Ptujska cesta",
                "amenity": "bank",
                "atm": "yes",
                "email": "poslovalnica.tezno@nkbm.si",
                "level": "0",
                "name": "NKBM - Poslovalnica Tezno",
                "opening_hours": "Mo,Tu,Th 8:30-12:00,13:00-16:30; We 8:30-12:00,13:00-17:30; Fr 8:30-12:00,13:00-15:30",
                "phone": "+386 2 229 1690",
                "website": "https://www.nkbm.si/vstopna-stran"
              },
              "geometry": {
                "type": "Point",
                "coordinates": [
                  15.6651318,
                  46.5336921
                ]
              }
            },
            {
              "type": "Feature",
              "properties": {
                "id": "4724381546",
                "osm_type": "node",
                "lat": 46.5376641,
                "lon": 15.6409554,
                "addr:city": "Maribor",
                "addr:housenumber": "15",
                "addr:postcode": "2000",
                "addr:street": "Ulica Eve Lovše",
                "amenity": "bank",
                "email": "info@dbs.si",
                "name": "Deželna banka Slovenije",
                "opening_hours": "Mo-Fr 8:30-12:00,13:00-16:30",
                "phone": "+386 2 330 2859",
                "website": "https://www.dbs.si/"
              },
              "geometry": {
                "type": "Point",
                "coordinates": [
                  15.6409554,
                  46.5376641
                ]
              }
            },
            {
              "type": "Feature",
              "properties": {
                "id": "6245195681",
                "osm_type": "node",
                "lat": 46.3916612,
                "lon": 15.5730193,
                "addr:city": "Slovenska Bistrica",
                "addr:housenumber": "1",
                "addr:postcode": "2310",
                "addr:street": "Ljubljanska cesta",
                "amenity": "bank",
                "name": "Delavska hranilnica"
              },
              "geometry": {
                "type": "Point",
                "coordinates": [
                  15.5730193,
                  46.3916612
                ]
              }
            }
          ],
          "children": []
        },
        {
          "bbox": {
            "south": 46.372652,
            "west": 15.73002475,
            "north": 46.537928625000006,
            "east": 16.2068765
          },
          "poiCount": 15,
          "leafCount": 15,
          "averagePosition": [
            15.9440996,
            46.43920129333333
          ],
          "data": [
            {
              "type": "Feature",
              "properties": {
                "id": "2024911783",
                "osm_type": "node",
                "lat": 46.4046159,
                "lon": 15.7949264,
                "amenity": "bank",
                "name": "nKBM",
                "wheelchair": "yes"
              },
              "geometry": {
                "type": "Point",
                "coordinates": [
                  15.7949264,
                  46.4046159
                ]
              }
            },
            {
              "type": "Feature",
              "properties": {
                "id": "3148777929",
                "osm_type": "node",
                "lat": 46.4198773,
                "lon": 15.8698025,
                "addr:city": "Ptuj",
                "addr:housenumber": "3",
                "addr:postcode": "2250",
                "addr:street": "Slovenski trg",
                "amenity": "bank",
                "branch": "Bank  Poslovalnica Ptuj",
                "brand": "Intesa Sanpaolo",
                "brand:wikidata": "Q1343118",
                "name": "Intesa Sanpaolo",
                "operator": "Intesa Sanpaolo Bank",
                "website": "https://www.intesasanpaolobank.si/",
                "wheelchair": "yes"
              },
              "geometry": {
                "type": "Point",
                "coordinates": [
                  15.8698025,
                  46.4198773
                ]
              }
            },
            {
              "type": "Feature",
              "properties": {
                "id": "3159013562",
                "osm_type": "node",
                "lat": 46.4210291,
                "lon": 15.8724497,
                "addr:city": "Ptuj",
                "addr:housenumber": "12",
                "addr:postcode": "2250",
                "addr:street": "Miklošičeva ulica",
                "amenity": "bank",
                "atm": "yes",
                "name": "Deželna banka Slovenije d.d. Ptuj",
                "opening_hours": "Mo-Fr 08:00-12:00,13:00-16:00",
                "operator": "Deželna banka Slovenije d.d.",
                "website": "https://www.dbs.si/osebne-finance",
                "wheelchair": "yes"
              },
              "geometry": {
                "type": "Point",
                "coordinates": [
                  15.8724497,
                  46.4210291
                ]
              }
            },
            {
              "type": "Feature",
              "properties": {
                "id": "3159020961",
                "osm_type": "node",
                "lat": 46.4197754,
                "lon": 15.8714303,
                "addr:city": "Ptuj",
                "addr:country": "SI",
                "addr:housenumber": "2",
                "addr:postcode": "2250",
                "addr:street": "Murkova ulica",
                "amenity": "bank",
                "atm": "yes",
                "brand": "UniCredit Bank",
                "brand:wikidata": "Q45568",
                "name": "UniCredit Bank",
                "opening_hours": "Mo-Th 08:30-12:00,13:30-16:00; Fr 08:30-12:00,13:30-15:00",
                "operator": "UniCredit Bank",
                "wheelchair": "yes"
              },
              "geometry": {
                "type": "Point",
                "coordinates": [
                  15.8714303,
                  46.4197754
                ]
              }
            },
            {
              "type": "Feature",
              "properties": {
                "id": "3159102861",
                "osm_type": "node",
                "lat": 46.4206975,
                "lon": 15.8755552,
                "addr:city": "Ptuj",
                "addr:housenumber": "9",
                "addr:postcode": "2250",
                "addr:street": "Osojnikova cesta",
                "amenity": "bank",
                "name": "Abanka",
                "wheelchair": "yes"
              },
              "geometry": {
                "type": "Point",
                "coordinates": [
                  15.8755552,
                  46.4206975
                ]
              }
            },
            {
              "type": "Feature",
              "properties": {
                "id": "3739770902",
                "osm_type": "node",
                "lat": 46.4191247,
                "lon": 15.8740726,
                "addr:city": "Ptuj",
                "addr:housenumber": "12",
                "addr:postcode": "2250",
                "addr:street": "Ulica heroja Lacka",
                "amenity": "bank",
                "atm": "yes",
                "drive_through": "no",
                "name": "Delavska hranilnica - Poslovna enota Ptuj",
                "opening_hours": "Mo-Fr 08:30-17:00",
                "operator": "Delavska hranilnica d.d.",
                "phone": "+386 2 620 93 60",
                "website": "https://www.delavska-hranilnica.si/o-hranilnici/poslovna-mreza/podruznica-ptuj"
              },
              "geometry": {
                "type": "Point",
                "coordinates": [
                  15.8740726,
                  46.4191247
                ]
              }
            },
            {
              "type": "Feature",
              "properties": {
                "id": "3782555297",
                "osm_type": "node",
                "lat": 46.4102536,
                "lon": 16.0125845,
                "amenity": "bank",
                "name": "Nova KBM"
              },
              "geometry": {
                "type": "Point",
                "coordinates": [
                  16.0125845,
                  46.4102536
                ]
              }
            },
            {
              "type": "Feature",
              "properties": {
                "id": "7242496597",
                "osm_type": "node",
                "lat": 46.4198725,
                "lon": 15.8738554,
                "addr:city": "Ptuj",
                "addr:housenumber": "11",
                "addr:place": "Vinarski trg",
                "addr:postcode": "2250",
                "amenity": "bank",
                "atm": "yes",
                "brand": "NLB",
                "brand:wikidata": "Q1481509",
                "name": "NLB",
                "operator": "NLB d.d. - Poslovalnica Ptuj",
                "phone": "+386 (02) 787 04 36",
                "website": "https://www.nlb.si/poslovalnice/poslovalnica-ptuj"
              },
              "geometry": {
                "type": "Point",
                "coordinates": [
                  15.8738554,
                  46.4198725
                ]
              }
            },
            {
              "type": "Feature",
              "properties": {
                "id": "9861117241",
                "osm_type": "node",
                "lat": 46.426887,
                "lon": 15.8915185,
                "addr:city": "Ptuj",
                "addr:housenumber": "3",
                "addr:postcode": "2250",
                "addr:street": "Špindlerjeva ulica",
                "amenity": "bank",
                "atm": "yes",
                "name": "Nova KBM - poslovalnica Rogoznica",
                "operator": "Aleja Finance d.o.o."
              },
              "geometry": {
                "type": "Point",
                "coordinates": [
                  15.8915185,
                  46.426887
                ]
              }
            },
            {
              "type": "Feature",
              "properties": {
                "id": "9885867259",
                "osm_type": "node",
                "lat": 46.4230077,
                "lon": 15.8869327,
                "addr:city": "Ptuj",
                "addr:housenumber": "21",
                "addr:postcode": "2250",
                "addr:street": "Puhova ulica",
                "amenity": "bank",
                "brand": "SKB Banka",
                "brand:wikidata": "Q93363069",
                "check_date": "2025-06-19",
                "name": "OTP Banka",
                "opening_hours": "Mo-Tu,Th 08:30-16:00; We 08:30-17:00; Fr 08:30-15:00; Sa-Su off",
                "operator": "SKB banka d.d.",
                "website": "https://www.skb.si/",
                "wheelchair": "yes"
              },
              "geometry": {
                "type": "Point",
                "coordinates": [
                  15.8869327,
                  46.4230077
                ]
              }
            },
            {
              "type": "Feature",
              "properties": {
                "id": "10861023502",
                "osm_type": "node",
                "lat": 46.4206542,
                "lon": 15.8725274,
                "addr:city": "Ptuj",
                "addr:housenumber": "1",
                "addr:postcode": "2250",
                "addr:street": "Novi trg",
                "amenity": "bank",
                "atm": "yes",
                "name": "Nova KBM - Poslovalnica Novi trg",
                "opening_hours": "Mo,Tu,Th 08:30-16:00; We 08:30-17:00; Fr 08:30-15:00",
                "operator": "NKBM"
              },
              "geometry": {
                "type": "Point",
                "coordinates": [
                  15.8725274,
                  46.4206542
                ]
              }
            },
            {
              "type": "Feature",
              "properties": {
                "id": "11599177698",
                "osm_type": "node",
                "lat": 46.4189159,
                "lon": 15.8791067,
                "addr:city": "Ptuj",
                "addr:housenumber": "15",
                "addr:postcode": "2250",
                "addr:street": "Ormoška cesta",
                "amenity": "bank",
                "brand": "Addiko Bank",
                "brand:wikidata": "Q27926559",
                "name": "Addiko Bank",
                "operator": "Adiko Bank d.d.",
                "website": "https://www.addiko.si/"
              },
              "geometry": {
                "type": "Point",
                "coordinates": [
                  15.8791067,
                  46.4189159
                ]
              }
            },
            {
              "type": "Feature",
              "properties": {
                "id": "268850246",
                "osm_type": "node",
                "lat": 46.5175149,
                "lon": 16.1978153,
                "amenity": "bank",
                "name": "NLB"
              },
              "geometry": {
                "type": "Point",
                "coordinates": [
                  16.1978153,
                  46.5175149
                ]
              }
            },
            {
              "type": "Feature",
              "properties": {
                "id": "1587310504",
                "osm_type": "node",
                "lat": 46.5287434,
                "lon": 16.1913616,
                "amenity": "bank",
                "name": "Deželna banka Slovenije"
              },
              "geometry": {
                "type": "Point",
                "coordinates": [
                  16.1913616,
                  46.5287434
                ]
              }
            },
            {
              "type": "Feature",
              "properties": {
                "id": "4172655389",
                "osm_type": "node",
                "lat": 46.5170503,
                "lon": 16.1975552,
                "amenity": "bank",
                "name": "SKB"
              },
              "geometry": {
                "type": "Point",
                "coordinates": [
                  16.1975552,
                  46.5170503
                ]
              }
            }
          ],
          "children": []
        },
        {
          "bbox": {
            "south": 46.537928625000006,
            "west": 15.253173,
            "north": 46.70320525,
            "east": 15.73002475
          },
          "poiCount": 26,
          "leafCount": 26,
          "averagePosition": [
            15.60299898076923,
            46.56998603461538
          ],
          "data": [
            {
              "type": "Feature",
              "properties": {
                "id": "1177087949",
                "osm_type": "node",
                "lat": 46.58967,
                "lon": 15.329087,
                "amenity": "bank",
                "atm": "no",
                "brand": "NLB",
                "brand:wikidata": "Q1481509",
                "name": "NLB",
                "operator": "NLB"
              },
              "geometry": {
                "type": "Point",
                "coordinates": [
                  15.329087,
                  46.58967
                ]
              }
            },
            {
              "type": "Feature",
              "properties": {
                "id": "1716554217",
                "osm_type": "node",
                "lat": 46.6760193,
                "lon": 15.4016208,
                "addr:city": "Arnfels",
                "addr:country": "AT",
                "addr:housenumber": "23",
                "addr:postcode": "8454",
                "addr:street": "Schulgasse",
                "amenity": "bank",
                "at_bev:addr_date": "2019-10-01",
                "atm": "yes",
                "branch": "Arnfels",
                "brand": "Raiffeisen",
                "brand:wikidata": "Q2127528",
                "designation": "de: Raiffeisenbank",
                "drive_through": "no",
                "name": "Raiffeisen",
                "operator": "Raiffeisenbank Arnfels"
              },
              "geometry": {
                "type": "Point",
                "coordinates": [
                  15.4016208,
                  46.6760193
                ]
              }
            },
            {
              "type": "Feature",
              "properties": {
                "id": "2537819731",
                "osm_type": "node",
                "lat": 46.6659909,
                "lon": 15.4694247,
                "addr:city": "Leutschach",
                "addr:housenumber": "29",
                "addr:postcode": "8463",
                "addr:street": "Marburger Straße",
                "amenity": "bank",
                "atm": "yes",
                "brand": "Raiffeisen",
                "brand:wikidata": "Q2127528",
                "name": "Raiffeisen",
                "operator": "Raiffeisenbank Leutschach"
              },
              "geometry": {
                "type": "Point",
                "coordinates": [
                  15.4694247,
                  46.6659909
                ]
              }
            },
            {
              "type": "Feature",
              "properties": {
                "id": "4678752503",
                "osm_type": "node",
                "lat": 46.5408868,
                "lon": 15.5188048,
                "addr:city": "Ruše",
                "addr:housenumber": "31",
                "addr:postcode": "2342",
                "addr:street": "Mariborska cesta",
                "amenity": "bank",
                "atm": "yes",
                "contact:email": "ruse@lon.si",
                "contact:phone": "+386 2 621 72 90",
                "description": "Najvišjo stopnjo zadovoljstva naših komitentov in izpolnitev njihovih pričakovanj dosegamo preko hitrega in kvalitetnega servisa, individualne obravnave, konkurenčnih produktov, velike prilagodljivosti in prožnosti, kar smo zapisali tudi v svoj slogan BAN",
                "name": "Hranilnica LON – Ruše",
                "opening_hours": "Mo-Su 08:30-12:00,13:00-16:30",
                "website": "https://www.lon.si/"
              },
              "geometry": {
                "type": "Point",
                "coordinates": [
                  15.5188048,
                  46.5408868
                ]
              }
            },
            {
              "type": "Feature",
              "properties": {
                "id": "9176316211",
                "osm_type": "node",
                "lat": 46.6998317,
                "lon": 15.3936992,
                "addr:city": "Sankt Johann im Saggautal",
                "addr:housenumber": "166",
                "addr:postcode": "8453",
                "addr:street": "Saggau",
                "alt_name": "Raiffeisenbank St. Johann im Saggautal",
                "amenity": "bank",
                "atm": "yes",
                "bank": "construction",
                "brand": "Raiffeisen",
                "brand:wikidata": "Q22093483",
                "drive_through": "no",
                "name": "Raiffeisenbank",
                "opening_hours": "Mo,Fr 08:00-12:00,14:30-16:20; Tu-Th 08:00-12:00; Sa,Su,PH off",
                "operator": "Raiffeisenbank Gleinstätten-Leutschach-Groß St. Florian eGen",
                "short_name": "Raika",
                "start_date": "2021-11-19",
                "website": "https://www.raiffeisen.at/stmk/gleinstaetten-leutschach-gross-st-florian/de/meine-bank/bankstellen/st-johann-im-saggautal.html",
                "wheelchair": "yes"
              },
              "geometry": {
                "type": "Point",
                "coordinates": [
                  15.3936992,
                  46.6998317
                ]
              }
            },
            {
              "type": "Feature",
              "properties": {
                "id": "811037773",
                "osm_type": "node",
                "lat": 46.55972,
                "lon": 15.6506715,
                "addr:housenumber": "2",
                "addr:street": "Titova cesta",
                "amenity": "bank",
                "name": "NLB d.d.",
                "opening_hours": "Mo-Fr 08:00-12:00, 14:30-17:00",
                "phone": "0801585",
                "website": "https://www.nlb.si/"
              },
              "geometry": {
                "type": "Point",
                "coordinates": [
                  15.6506715,
                  46.55972
                ]
              }
            },
            {
              "type": "Feature",
              "properties": {
                "id": "1673423325",
                "osm_type": "node",
                "lat": 46.5420223,
                "lon": 15.6339705,
                "addr:city": "Maribor",
                "addr:housenumber": "61",
                "addr:postcode": "2000",
                "addr:street": "Kardeljeva cesta",
                "amenity": "bank",
                "atm": "yes",
                "drive_through": "no",
                "name": "Nova KBM - Poslovalnica Tabor",
                "opening_hours": "Mo-Fr 08:30-17:00",
                "operator": "Nova KBM"
              },
              "geometry": {
                "type": "Point",
                "coordinates": [
                  15.6339705,
                  46.5420223
                ]
              }
            },
            {
              "type": "Feature",
              "properties": {
                "id": "1710396579",
                "osm_type": "node",
                "lat": 46.5605708,
                "lon": 15.6519032,
                "addr:city": "Maribor",
                "addr:housenumber": "2",
                "addr:postcode": "2000",
                "addr:street": "Prešernova ulica",
                "amenity": "bank",
                "check_date": "2025-08-05",
                "email": "maribor@bksbank.si",
                "fax": "+386 2 290 9520",
                "name": "BKS Bank AG",
                "opening_hours": "Mo-Th 08:30-16:30; Fr 08:30-16:00",
                "phone": "+386 2 290 9500",
                "website": "https://www.bksbank.si/",
                "wheelchair": "no"
              },
              "geometry": {
                "type": "Point",
                "coordinates": [
                  15.6519032,
                  46.5605708
                ]
              }
            },
            {
              "type": "Feature",
              "properties": {
                "id": "1710471620",
                "osm_type": "node",
                "lat": 46.5582447,
                "lon": 15.6507498,
                "addr:city": "Maribor",
                "addr:housenumber": "5",
                "addr:postcode": "2000",
                "addr:street": "Ulica Vita Kraigherja",
                "amenity": "bank",
                "atm": "yes",
                "name": "Intesa Sanpaolo",
                "opening_hours": "Mo-Fr 8:30-16:30",
                "phone": "+386 2 2288 100",
                "website": "https://www.intesasanpaolobank.si/"
              },
              "geometry": {
                "type": "Point",
                "coordinates": [
                  15.6507498,
                  46.5582447
                ]
              }
            },
            {
              "type": "Feature",
              "properties": {
                "id": "1710471622",
                "osm_type": "node",
                "lat": 46.5577723,
                "lon": 15.6507359,
                "addr:city": "Maribor",
                "addr:housenumber": "8",
                "addr:street": "Titova cesta",
                "amenity": "bank",
                "email": "igor.sujica@sparkasse.si",
                "name": "Banka Sparkasse d.d.",
                "opening_hours": "Mo-Fr 9:00-12:00,14:00-17:00",
                "phone": "+386 3 061 2666",
                "website": "https://www.sparkasse.si/sl-si/poslovalnica/8/poslovna-enota-maribor"
              },
              "geometry": {
                "type": "Point",
                "coordinates": [
                  15.6507359,
                  46.5577723
                ]
              }
            },
            {
              "type": "Feature",
              "properties": {
                "id": "1710471625",
                "osm_type": "node",
                "lat": 46.5579571,
                "lon": 15.6502168,
                "addr:city": "Maribor",
                "addr:housenumber": "6",
                "addr:postcode": "2000",
                "addr:street": "Ulica heroja Bračiča",
                "amenity": "bank",
                "atm": "yes",
                "drive_through": "no",
                "name": "N Banka",
                "opening_hours": "Mo-Tue and Thu 08:30-13:00,14:00-16:00 Wed 10:00-13:00,14:00-18:00 Fri 08:00-15:00",
                "operator": "N Banka d.d., Dunajska cesta 128 a, 1000 Ljubljana",
                "phone": "080 22 65",
                "website": "https://www.nbanka.si/"
              },
              "geometry": {
                "type": "Point",
                "coordinates": [
                  15.6502168,
                  46.5579571
                ]
              }
            },
            {
              "type": "Feature",
              "properties": {
                "id": "1710471637",
                "osm_type": "node",
                "lat": 46.5583326,
                "lon": 15.6494762,
                "addr:city": "Maribor",
                "addr:housenumber": "1",
                "addr:postcode": "2000",
                "addr:street": "Ulica heroja Bračiča",
                "amenity": "bank",
                "atm": "yes",
                "name": "SKB Banka",
                "opening_hours": "Mo-Fr 08:30-12:00,14:00-17:00",
                "phone": "+386 2 234 7720",
                "website": "https://www.skb.si/osebne-finance"
              },
              "geometry": {
                "type": "Point",
                "coordinates": [
                  15.6494762,
                  46.5583326
                ]
              }
            },
            {
              "type": "Feature",
              "properties": {
                "id": "2330781901",
                "osm_type": "node",
                "lat": 46.5496838,
                "lon": 15.6436528,
                "addr:city": "Maribor",
                "addr:housenumber": "19",
                "addr:postcode": "2000",
                "addr:street": "Žolgarjeva ulica",
                "amenity": "bank",
                "atm": "yes",
                "internet_access": "wlan",
                "internet_access:fee": "no",
                "name": "UniCredit Bank",
                "opening_hours": "Mo-Fr 8:30-12:00,13:00-16:30",
                "operator": "UniCredit Bank",
                "phone": "+386 2 600 5650"
              },
              "geometry": {
                "type": "Point",
                "coordinates": [
                  15.6436528,
                  46.5496838
                ]
              }
            },
            {
              "type": "Feature",
              "properties": {
                "id": "2810619675",
                "osm_type": "node",
                "lat": 46.5570771,
                "lon": 15.6464272,
                "addr:housenumber": "25",
                "addr:postcode": "2000",
                "addr:street": "Glavni Trg",
                "amenity": "bank",
                "atm": "yes",
                "email": "maribor@delavska-hranilnica.si",
                "name": "Delavska hranilnica - enota Glavni trg",
                "opening_hours": "Mo-Fr 08:30-12:00, Mo,Tu,Th,Fr 13:00-16:30, We 12:00-17:00",
                "phone": "+386 2 620 9330",
                "website": "https://www.delavska-hranilnica.si/o-hranilnici/poslovna-mreza/podruznica-glavni-trg"
              },
              "geometry": {
                "type": "Point",
                "coordinates": [
                  15.6464272,
                  46.5570771
                ]
              }
            },
            {
              "type": "Feature",
              "properties": {
                "id": "2904168001",
                "osm_type": "node",
                "lat": 46.5616543,
                "lon": 15.6505175,
                "addr:city": "Maribor",
                "addr:housenumber": "4",
                "addr:postcode": "2000",
                "addr:street": "Razlagova ulica",
                "amenity": "bank",
                "atm": "yes",
                "email": "poslovalnica.premium@nkbm.si",
                "fax": "+386 2 229 2809",
                "image": "https://i.imgur.com/GaP5Gu6.jpg",
                "name": "Nova KBM - Premium poslovalnica",
                "opening_hours": "Mo,Tu,Th 8:30-12:00,13:00-16:30; We 8:30-12:00,13:00-17:30; Fr 8:30-12:00,13:00-15:30",
                "phone": "+386 2 229 2120",
                "website": "https://www.nkbm.si/premium"
              },
              "geometry": {
                "type": "Point",
                "coordinates": [
                  15.6505175,
                  46.5616543
                ]
              }
            },
            {
              "type": "Feature",
              "properties": {
                "id": "3010304259",
                "osm_type": "node",
                "lat": 46.5628255,
                "lon": 15.6300111,
                "addr:city": "Maribor",
                "addr:housenumber": "17a",
                "addr:postcode": "2000",
                "addr:street": "Turnerjeva ulica",
                "amenity": "bank",
                "atm": "yes",
                "drive_through": "no",
                "name": "Nova KBM",
                "opening_hours": "Mo-Fr 08:30-12:00,13:30-17:00",
                "operator": "OTP Bank",
                "wheelchair": "yes"
              },
              "geometry": {
                "type": "Point",
                "coordinates": [
                  15.6300111,
                  46.5628255
                ]
              }
            },
            {
              "type": "Feature",
              "properties": {
                "id": "5056679223",
                "osm_type": "node",
                "lat": 46.5530477,
                "lon": 15.6466677,
                "addr:housenumber": "9b",
                "addr:street": "Ljubljanska ulica",
                "amenity": "bank",
                "check_date": "2025-08-07",
                "name": "otpbanka",
                "opening_hours": "24/7",
                "operator": "Nova KBM",
                "phone": "+386 2 333 8522",
                "wheelchair": "yes"
              },
              "geometry": {
                "type": "Point",
                "coordinates": [
                  15.6466677,
                  46.5530477
                ]
              }
            },
            {
              "type": "Feature",
              "properties": {
                "id": "5075001123",
                "osm_type": "node",
                "lat": 46.5402564,
                "lon": 15.632299,
                "addr:city": "Maribor",
                "addr:housenumber": "94",
                "addr:postcode": "2000",
                "addr:street": "Kardeljeva cesta",
                "amenity": "bank",
                "atm": "yes",
                "name": "SKB",
                "opening_hours": "Mo-Fr 8:30-12:00,14:00-17:00",
                "phone": "+386 2 333 8544",
                "website": "https://www.skb.si/"
              },
              "geometry": {
                "type": "Point",
                "coordinates": [
                  15.632299,
                  46.5402564
                ]
              }
            },
            {
              "type": "Feature",
              "properties": {
                "id": "5178974909",
                "osm_type": "node",
                "lat": 46.5541571,
                "lon": 15.6516981,
                "addr:city": "Maribor",
                "addr:housenumber": "18",
                "addr:postcode": "2000",
                "addr:street": "Pobreška cesta",
                "amenity": "bank",
                "email": "poslovalnica.europark@nkbm.si",
                "level": "0",
                "name": "Nova KBM",
                "opening_hours": "Mo-Fr 09:00-18:00",
                "phone": "+386 2 229 1510",
                "website": "https://www.nkbm.si/"
              },
              "geometry": {
                "type": "Point",
                "coordinates": [
                  15.6516981,
                  46.5541571
                ]
              }
            },
            {
              "type": "Feature",
              "properties": {
                "id": "5186728668",
                "osm_type": "node",
                "lat": 46.5535632,
                "lon": 15.647446,
                "addr:city": "Maribor",
                "addr:housenumber": "1-3",
                "addr:postcode": "2000",
                "addr:street": "Ljubljanska ulica",
                "amenity": "bank",
                "atm": "yes",
                "drive_through": "no",
                "email": "poslovalnica.ljubljanska@nkbm.si",
                "fax": "+386 2 333 8303",
                "name": "Nova KBM - Ljubljanska",
                "opening_hours": "Mo,Tu,Th 8:30-12:00,13:00-16:30; We 8:30-12:00,13:00-17:30; Fr 8:30-12:00,13:00-15:30",
                "phone": "+386 2 229 1520",
                "website": "https://www.nkbm.si/vstopna-stran"
              },
              "geometry": {
                "type": "Point",
                "coordinates": [
                  15.647446,
                  46.5535632
                ]
              }
            },
            {
              "type": "Feature",
              "properties": {
                "id": "5226810721",
                "osm_type": "node",
                "lat": 46.5592181,
                "lon": 15.6489569,
                "addr:city": "Maribor",
                "addr:housenumber": "4",
                "addr:postcode": "2000",
                "addr:street": "Trg Leona Štuklja",
                "amenity": "bank",
                "atm": "yes",
                "brand": "Addiko Bank",
                "brand:wikidata": "Q27926559",
                "brand:wikipedia": "en:Addiko Bank",
                "email": "info.mbce.si@addiko.com",
                "fax": "+386 2 234 7901",
                "name": "Addiko Bank",
                "opening_hours": "Mo-Fr 08:00-12:00,13:00-16:30",
                "phone": "+386 2 450 3935",
                "website": "https://www.addiko.si/"
              },
              "geometry": {
                "type": "Point",
                "coordinates": [
                  15.6489569,
                  46.5592181
                ]
              }
            },
            {
              "type": "Feature",
              "properties": {
                "id": "5235619765",
                "osm_type": "node",
                "lat": 46.5597124,
                "lon": 15.6491634,
                "addr:city": "Maribor",
                "addr:housenumber": "6",
                "addr:postcode": "2000",
                "addr:street": "Ulica škofa Maksimilijana Držečnika",
                "amenity": "bank",
                "atm": "yes",
                "fax": "+386 2 2526 386",
                "internet_access": "wlan",
                "name": "UniCredit Bank",
                "opening_hours": "Mo-Th 08:30-12:00, 13:30-16:00; Fr 08:30-12:00, 13:30-15:00",
                "phone": "+386 2 2285 320",
                "website": "https://www.unicreditbank.si/si/prebivalstvo.html"
              },
              "geometry": {
                "type": "Point",
                "coordinates": [
                  15.6491634,
                  46.5597124
                ]
              }
            },
            {
              "type": "Feature",
              "properties": {
                "id": "5305463585",
                "osm_type": "node",
                "lat": 46.5394916,
                "lon": 15.6404275,
                "amenity": "bank",
                "atm": "yes",
                "email": "hypo-bank-mb@hypo.si",
                "name": "Addiko banka",
                "phone": "+386 2 450 3930",
                "website": "https://www.addiko.si/"
              },
              "geometry": {
                "type": "Point",
                "coordinates": [
                  15.6404275,
                  46.5394916
                ]
              }
            },
            {
              "type": "Feature",
              "properties": {
                "id": "6140717377",
                "osm_type": "node",
                "lat": 46.5425795,
                "lon": 15.6342802,
                "addr:city": "Maribor",
                "addr:housenumber": "57",
                "addr:postcode": "2000",
                "addr:street": "Kardeljeva cesta",
                "amenity": "bank",
                "email": "novavas@delavska-hranilnica.si",
                "name": "Delavska hranilnica - Kardeljeva",
                "opening_hours": "Mo-Fr 8:30-17:00",
                "phone": "+386 1 300 0200",
                "website": "https://www.delavska-hranilnica.si/"
              },
              "geometry": {
                "type": "Point",
                "coordinates": [
                  15.6342802,
                  46.5425795
                ]
              }
            },
            {
              "type": "Feature",
              "properties": {
                "id": "10940908384",
                "osm_type": "node",
                "lat": 46.558317,
                "lon": 15.6497729,
                "addr:city": "Maribor",
                "addr:housenumber": "3",
                "addr:postcode": "2000",
                "addr:street": "Ulica heroja Bračiča",
                "amenity": "bank",
                "contact:facebook": "LONslovenija",
                "contact:twitter": "LONslovenija",
                "email": "maribor@lon.si",
                "name": "LON",
                "name:en": "LON Bank",
                "name:sl": "Hranilnica LON",
                "opening_hours": "Mo-Tu, Th 08:00-12:00,14:00-16:00; We 08:00-12:00,14:00-17:00; Fr 08:00-12:00,13:00-15:00",
                "phone": "02 62 00 520",
                "website": "https://www.lon.si/"
              },
              "geometry": {
                "type": "Point",
                "coordinates": [
                  15.6497729,
                  46.558317
                ]
              }
            },
            {
              "type": "Feature",
              "properties": {
                "id": "11035377325",
                "osm_type": "node",
                "lat": 46.5610347,
                "lon": 15.6562928,
                "addr:city": "Maribor",
                "addr:country": "SI",
                "addr:housenumber": "42",
                "addr:postcode": "2000",
                "addr:street": "Partizanska cesta",
                "amenity": "bank",
                "check_date": "2025-09-11",
                "email": "poslovalnica.melje@nkbm.si",
                "fax": "+386 2 252 6488",
                "image:0": "https://i.imgur.com/uQKJE3M.jpg",
                "image:1": "https://i.imgur.com/71gmCBg.jpg",
                "name": "OTP banka",
                "opening_hours": "Mo-Th 08:30-12:30,13:00-16:00; We 08:30-12:30,13:00-17:00; Fr 08:30-12:30,13:00-15:00",
                "phone": "+386 2 229 22 90",
                "ref": "Poslovalnica Melje"
              },
              "geometry": {
                "type": "Point",
                "coordinates": [
                  15.6562928,
                  46.5610347
                ]
              }
            }
          ],
          "children": []
        },
        {
          "bbox": {
            "south": 46.537928625000006,
            "west": 15.73002475,
            "north": 46.70320525,
            "east": 16.2068765
          },
          "poiCount": 16,
          "leafCount": 16,
          "averagePosition": [
            16.0948745875,
            46.6549243875
          ],
          "data": [
            {
              "type": "Feature",
              "properties": {
                "id": "3505938125",
                "osm_type": "node",
                "lat": 46.6768369,
                "lon": 15.9906567,
                "addr:city": "Gornja Radgona",
                "addr:housenumber": "22",
                "addr:postcode": "9250",
                "addr:street": "Partizanska cesta",
                "amenity": "bank",
                "name": "SKB"
              },
              "geometry": {
                "type": "Point",
                "coordinates": [
                  15.9906567,
                  46.6768369
                ]
              }
            },
            {
              "type": "Feature",
              "properties": {
                "id": "4814732928",
                "osm_type": "node",
                "lat": 46.6758556,
                "lon": 15.9915174,
                "amenity": "bank",
                "name": "bankomat NKBM"
              },
              "geometry": {
                "type": "Point",
                "coordinates": [
                  15.9915174,
                  46.6758556
                ]
              }
            },
            {
              "type": "Feature",
              "properties": {
                "id": "4820088841",
                "osm_type": "node",
                "lat": 46.6760196,
                "lon": 15.9919665,
                "amenity": "bank",
                "name": "Deželna banka Slovenije"
              },
              "geometry": {
                "type": "Point",
                "coordinates": [
                  15.9919665,
                  46.6760196
                ]
              }
            },
            {
              "type": "Feature",
              "properties": {
                "id": "6855892179",
                "osm_type": "node",
                "lat": 46.696885,
                "lon": 15.9019656,
                "amenity": "bank",
                "name": "Deželna Banka"
              },
              "geometry": {
                "type": "Point",
                "coordinates": [
                  15.9019656,
                  46.696885
                ]
              }
            },
            {
              "type": "Feature",
              "properties": {
                "id": "7532601735",
                "osm_type": "node",
                "lat": 46.687702,
                "lon": 15.9885781,
                "addr:city": "Bad Radkersburg",
                "addr:country": "AT",
                "addr:housenumber": "17",
                "addr:postcode": "8490",
                "addr:street": "Hauptplatz",
                "amenity": "bank",
                "atm": "yes",
                "brand": "bank99",
                "brand:wikidata": "Q91200481",
                "brand:wikipedia": "de:Bank99",
                "drive_through": "no",
                "name": "bank99",
                "opening_hours": "Mo-Fr 08:00-12:00,14:00-17:30; Sa,Su,PH off",
                "operator": "bank99 AG",
                "website": "https://www.bank99.at"
              },
              "geometry": {
                "type": "Point",
                "coordinates": [
                  15.9885781,
                  46.687702
                ]
              }
            },
            {
              "type": "Feature",
              "properties": {
                "id": "3098235113",
                "osm_type": "node",
                "lat": 46.6594387,
                "lon": 16.1635601,
                "addr:city": "Murska Sobota",
                "addr:housenumber": "9",
                "addr:postcode": "9000",
                "addr:street": "Kocljeva ulica",
                "amenity": "bank",
                "atm": "yes",
                "name": "SKB",
                "ref:gurs:hs_mid": "13525889",
                "source:addr": "GURS"
              },
              "geometry": {
                "type": "Point",
                "coordinates": [
                  16.1635601,
                  46.6594387
                ]
              }
            },
            {
              "type": "Feature",
              "properties": {
                "id": "3098235114",
                "osm_type": "node",
                "lat": 46.6594097,
                "lon": 16.1631327,
                "addr:city": "Murska Sobota",
                "addr:postcode": "9000",
                "addr:street": "Kocljeva ulica",
                "amenity": "bank",
                "atm": "yes",
                "name": "NKBM",
                "operator": "Pošta Slovenije",
                "phone": "+3862229 17 78",
                "website": "https://www.nkbm.si/poslovalnice-in-bankomati?atmdocid=6921&zip=9000"
              },
              "geometry": {
                "type": "Point",
                "coordinates": [
                  16.1631327,
                  46.6594097
                ]
              }
            },
            {
              "type": "Feature",
              "properties": {
                "id": "3109147642",
                "osm_type": "node",
                "lat": 46.6613096,
                "lon": 16.1635201,
                "addr:city": "Murska Sobota",
                "addr:housenumber": "5",
                "addr:postcode": "9000",
                "addr:street": "Trg Zmage",
                "amenity": "bank",
                "atm": "yes",
                "brand": "UniCredit Bank",
                "brand:wikidata": "Q45568",
                "brand:wikipedia": "en:UniCredit",
                "name": "UniCredit Bank",
                "phone": "080 8800"
              },
              "geometry": {
                "type": "Point",
                "coordinates": [
                  16.1635201,
                  46.6613096
                ]
              }
            },
            {
              "type": "Feature",
              "properties": {
                "id": "3109187951",
                "osm_type": "node",
                "lat": 46.6607605,
                "lon": 16.1632972,
                "addr:city": "Murska Sobota",
                "addr:housenumber": "2",
                "addr:postcode": "9000",
                "addr:street": "Kocljeva ulica",
                "amenity": "bank",
                "atm": "yes",
                "brand": "Addiko Bank",
                "brand:wikidata": "Q27926559",
                "brand:wikipedia": "en:Addiko Bank",
                "check_date": "2025-01-26",
                "name": "Addiko Bank",
                "opening_hours": "Mo-Fr 08:00-12:00; Sa 13:00-16:00"
              },
              "geometry": {
                "type": "Point",
                "coordinates": [
                  16.1632972,
                  46.6607605
                ]
              }
            },
            {
              "type": "Feature",
              "properties": {
                "id": "3113213115",
                "osm_type": "node",
                "lat": 46.6616033,
                "lon": 16.1673545,
                "addr:city": "Murska Sobota",
                "addr:housenumber": "11A",
                "addr:postcode": "9000",
                "addr:street": "Ulica Staneta Rozmana",
                "amenity": "bank",
                "atm": "yes",
                "name": "Deželna Banka",
                "ref:gurs:hs_mid": "16392022",
                "source:addr": "GURS"
              },
              "geometry": {
                "type": "Point",
                "coordinates": [
                  16.1673545,
                  46.6616033
                ]
              }
            },
            {
              "type": "Feature",
              "properties": {
                "id": "3113213117",
                "osm_type": "node",
                "lat": 46.6616349,
                "lon": 16.1649799,
                "addr:city": "Murska Sobota",
                "addr:housenumber": "1B",
                "addr:postcode": "9000",
                "addr:street": "Ulica Staneta Rozmana",
                "amenity": "bank",
                "atm": "yes",
                "brand": "Intesa Sanpaolo",
                "brand:wikidata": "Q1343118",
                "check_date": "2023-07-21",
                "drive_through": "no",
                "name": "Intesa Sanpaolo",
                "operator": "Intesa Sanpaolo Bank",
                "ref:gurs:hs_mid": "13538433",
                "source:addr": "GURS"
              },
              "geometry": {
                "type": "Point",
                "coordinates": [
                  16.1649799,
                  46.6616349
                ]
              }
            },
            {
              "type": "Feature",
              "properties": {
                "id": "3134808702",
                "osm_type": "node",
                "lat": 46.6647813,
                "lon": 16.1710249,
                "addr:city": "Murska Sobota",
                "addr:housenumber": "41B",
                "addr:postcode": "9000",
                "addr:street": "Lendavska ulica",
                "amenity": "bank",
                "atm": "yes",
                "brand": "NLB",
                "brand:wikidata": "Q1481509",
                "brand:wikipedia": "en:NLB Group",
                "name": "NLB",
                "ref:gurs:hs_mid": "13528292",
                "source:addr": "GURS"
              },
              "geometry": {
                "type": "Point",
                "coordinates": [
                  16.1710249,
                  46.6647813
                ]
              }
            },
            {
              "type": "Feature",
              "properties": {
                "id": "3357632598",
                "osm_type": "node",
                "lat": 46.6427403,
                "lon": 16.0393305,
                "amenity": "bank",
                "branch": "Radenci",
                "brand": "NLB",
                "brand:wikidata": "Q1481509",
                "brand:wikipedia": "en:NLB Group",
                "name": "NLB"
              },
              "geometry": {
                "type": "Point",
                "coordinates": [
                  16.0393305,
                  46.6427403
                ]
              }
            },
            {
              "type": "Feature",
              "properties": {
                "id": "3441608811",
                "osm_type": "node",
                "lat": 46.5626107,
                "lon": 16.1411598,
                "amenity": "bank",
                "brand": "NLB",
                "brand:wikidata": "Q1481509",
                "name": "NLB"
              },
              "geometry": {
                "type": "Point",
                "coordinates": [
                  16.1411598,
                  46.5626107
                ]
              }
            },
            {
              "type": "Feature",
              "properties": {
                "id": "3463233352",
                "osm_type": "node",
                "lat": 46.5629352,
                "lon": 16.1393598,
                "amenity": "bank",
                "name": "Deželna banka Slovenije"
              },
              "geometry": {
                "type": "Point",
                "coordinates": [
                  16.1393598,
                  46.5629352
                ]
              }
            },
            {
              "type": "Feature",
              "properties": {
                "id": "4830815762",
                "osm_type": "node",
                "lat": 46.6682669,
                "lon": 16.1765896,
                "amenity": "bank",
                "name": "NLB Leasing"
              },
              "geometry": {
                "type": "Point",
                "coordinates": [
                  16.1765896,
                  46.6682669
                ]
              }
            }
          ],
          "children": []
        }
      ]
    },
    {
      "bbox": {
        "south": 46.372652,
        "west": 16.2068765,
        "north": 46.70320525,
        "east": 17.16058
      },
      "poiCount": 41,
      "leafCount": 41,
      "averagePosition": [
        16.654496599999998,
        46.47237842926829
      ],
      "data": [
        {
          "type": "Feature",
          "properties": {
            "id": "414214340",
            "osm_type": "node",
            "lat": 46.39053,
            "lon": 16.4404843,
            "addr:city": "Čakovec",
            "addr:housenumber": "2",
            "addr:postcode": "40000",
            "addr:street": "Ulica Ivana Mažuranića",
            "amenity": "bank",
            "atm": "yes",
            "brand": "Croatia banka",
            "brand:wikidata": "Q25495576",
            "name": "Croatia banka",
            "opening_hours": "Mo-Fr 08:00-15:00",
            "operator": "Croatia banka d.d.",
            "ref:vatin": "HR32247795989",
            "website": "https://www.croatiabanka.hr/"
          },
          "geometry": {
            "type": "Point",
            "coordinates": [
              16.4404843,
              46.39053
            ]
          }
        },
        {
          "type": "Feature",
          "properties": {
            "id": "747387769",
            "osm_type": "node",
            "lat": 46.379416,
            "lon": 16.4428982,
            "addr:city": "Čakovec",
            "addr:housenumber": "2",
            "addr:postcode": "40000",
            "addr:street": "Ulica Tomaša Goričanca",
            "amenity": "bank",
            "atm": "yes",
            "branch": "Poslovnica 372 jug - Čakovec",
            "brand": "PBZ",
            "brand:wikidata": "Q7246343",
            "brand:wikipedia": "en:Privredna banka Zagreb",
            "name": "PBZ",
            "opening_hours": "Mo, Wd, Fr 08:00-15:00; Tu, Th 11:00-18:00; Sa 08:00-11:00",
            "operator": "Privredna banka Zagreb d.d.",
            "ref:vatin": "HR02535697732",
            "website": "https://www.pbz.hr/"
          },
          "geometry": {
            "type": "Point",
            "coordinates": [
              16.4428982,
              46.379416
            ]
          }
        },
        {
          "type": "Feature",
          "properties": {
            "id": "747876378",
            "osm_type": "node",
            "lat": 46.3895166,
            "lon": 16.428362,
            "addr:city": "Čakovec",
            "addr:housenumber": "12",
            "addr:postcode": "40000",
            "addr:street": "Zrinsko-Frankopanska ulica",
            "amenity": "bank",
            "atm": "yes",
            "brand": "Privredna banka Zagreb",
            "brand:wikidata": "Q7246343",
            "brand:wikipedia": "en:Privredna banka Zagreb",
            "name": "Privredna banka Zagreb",
            "opening_hours": "Mo-Fr 08:00-18:00; Sa 08:00-12:00",
            "short_name": "PBZ"
          },
          "geometry": {
            "type": "Point",
            "coordinates": [
              16.428362,
              46.3895166
            ]
          }
        },
        {
          "type": "Feature",
          "properties": {
            "id": "760806439",
            "osm_type": "node",
            "lat": 46.3884008,
            "lon": 16.4382611,
            "addr:city": "Čakovec",
            "addr:housenumber": "37",
            "addr:postcode": "40000",
            "addr:street": "Ulica Valenta Morandinija",
            "alt_name": "PBZ",
            "amenity": "bank",
            "atm": "yes",
            "branch": "Poslovnica 370 centrala - Čakovec",
            "brand": "Privredna banka Zagreb",
            "brand:wikidata": "Q7246343",
            "brand:wikipedia": "en:Privredna banka Zagreb",
            "name": "Privredna banka Zagreb",
            "opening_hours": "Mo-Fr 07:30-19:00; Sa 08:00-12:00",
            "operator": "Privredna banka Zagreb d.d.",
            "short_name": "PBZ",
            "website": "https://www.pbz.hr/"
          },
          "geometry": {
            "type": "Point",
            "coordinates": [
              16.4382611,
              46.3884008
            ]
          }
        },
        {
          "type": "Feature",
          "properties": {
            "id": "760806446",
            "osm_type": "node",
            "lat": 46.389684,
            "lon": 16.4406394,
            "addr:city": "Čakovec",
            "addr:housenumber": "1",
            "addr:postcode": "40000",
            "addr:street": "Trg Eugena Kvaternika",
            "amenity": "bank",
            "atm": "yes",
            "brand": "Raiffeisen bank",
            "brand:wikidata": "Q125756787",
            "brand:wikipedia": "cs:Raiffeisenbank",
            "name": "Raiffeisen bank",
            "website": "https://www.rba.hr/"
          },
          "geometry": {
            "type": "Point",
            "coordinates": [
              16.4406394,
              46.389684
            ]
          }
        },
        {
          "type": "Feature",
          "properties": {
            "id": "1039853279",
            "osm_type": "node",
            "lat": 46.3888169,
            "lon": 16.4356576,
            "addr:city": "Čakovec",
            "addr:housenumber": "10",
            "addr:postcode": "40000",
            "addr:street": "Ulica Matice Hrvatske",
            "amenity": "bank",
            "atm": "yes",
            "brand": "Zagrebačka banka",
            "brand:wikidata": "Q140381",
            "brand:wikipedia": "en:Zagrebačka banka",
            "name": "Zagrebačka banka",
            "operator": "Zagrebačka banka d.d.",
            "ref:vatin": "HR92963223473",
            "short_name": "ZaBa",
            "website": "https://www.zaba.hr/"
          },
          "geometry": {
            "type": "Point",
            "coordinates": [
              16.4356576,
              46.3888169
            ]
          }
        },
        {
          "type": "Feature",
          "properties": {
            "id": "1891783674",
            "osm_type": "node",
            "lat": 46.3769034,
            "lon": 16.3805103,
            "addr:city": "Nedelišće",
            "addr:housenumber": "1",
            "addr:postcode": "40305",
            "addr:street": "Ulica maršala Tita",
            "amenity": "bank",
            "atm": "yes",
            "branch": "Poslovnica 381 Nedelišće",
            "brand": "PBZ",
            "brand:wikidata": "Q7246343",
            "brand:wikipedia": "en:Privredna banka Zagreb",
            "full_name": "Privredna banka Zagreb",
            "name": "PBZ",
            "opening_hours": "Mo 08:00-15:00; Tu 11:00-18:00; We 08:00-15:00; Th 11:00-18:00; Fr 08:00-15:00; Sa 08:00-11:00",
            "operator": "Privredna banka Zagreb d.d.",
            "website": "https://www.pbz.hr/"
          },
          "geometry": {
            "type": "Point",
            "coordinates": [
              16.3805103,
              46.3769034
            ]
          }
        },
        {
          "type": "Feature",
          "properties": {
            "id": "2145124604",
            "osm_type": "node",
            "lat": 46.5004962,
            "lon": 16.2882989,
            "addr:city": "Štrigova",
            "addr:housenumber": "22A",
            "addr:postcode": "40312",
            "addr:street": "Štrigova",
            "amenity": "bank",
            "atm": "yes",
            "branch": "Ispostava 383 Štrigova",
            "brand": "PBZ",
            "brand:wikidata": "Q7246343",
            "brand:wikipedia": "en:Privredna banka Zagreb",
            "name": "PBZ",
            "operator": "Privredna banka Zagreb d.d.",
            "ref:vatin": "HR02535697732",
            "website": "https://www.pbz.hr/"
          },
          "geometry": {
            "type": "Point",
            "coordinates": [
              16.2882989,
              46.5004962
            ]
          }
        },
        {
          "type": "Feature",
          "properties": {
            "id": "3078182636",
            "osm_type": "node",
            "lat": 46.3902501,
            "lon": 16.4356933,
            "addr:city": "Čakovec",
            "addr:housenumber": "1",
            "addr:postcode": "40000",
            "addr:street": "Ulica Katarine Zrinski",
            "amenity": "bank",
            "atm": "yes",
            "brand": "Erste Bank",
            "brand:wikidata": "Q696867",
            "brand:wikipedia": "de:Erste Bank",
            "name": "Erste Bank",
            "opening_hours": "Mo-Fr 08:00-18:00; Sa 08:00-12:00",
            "operator": "Erste&Steiermärkische Bank d.d.",
            "website": "https://www.erstebank.hr/hr/"
          },
          "geometry": {
            "type": "Point",
            "coordinates": [
              16.4356933,
              46.3902501
            ]
          }
        },
        {
          "type": "Feature",
          "properties": {
            "id": "3089092198",
            "osm_type": "node",
            "lat": 46.5619181,
            "lon": 16.4537753,
            "addr:city": "Lendava / Lendva",
            "addr:city:hu": "Lendva",
            "addr:city:sl": "Lendava",
            "addr:housenumber": "11",
            "addr:postcode": "9220",
            "addr:street": "Trg Ljudske pravice / Ljudska pravica tér",
            "addr:street:hu": "Ljudska pravica tér",
            "addr:street:sl": "Trg Ljudske pravice",
            "amenity": "bank",
            "atm": "no",
            "brand": "OTP bank",
            "drive_through": "no",
            "name": "OTP bank",
            "opening_hours": "Mo-Th 08:30-12:00,13:00-16:30; We 08:30-12:00,13:00-17:30; Fr 08:30-12:00,13:00-15:30",
            "operator": "OTP bank",
            "phone": "+3862 229 16 32",
            "ref:gurs:hs_mid": "12616970"
          },
          "geometry": {
            "type": "Point",
            "coordinates": [
              16.4537753,
              46.5619181
            ]
          }
        },
        {
          "type": "Feature",
          "properties": {
            "id": "3235288561",
            "osm_type": "node",
            "lat": 46.3911512,
            "lon": 16.4348509,
            "addr:city": "Čakovec",
            "addr:country": "HR",
            "addr:housenumber": "26",
            "addr:postcode": "40000",
            "addr:street": "Ulica Tome Masaryka",
            "amenity": "bank",
            "atm": "no",
            "bic": "HPBZHR2X",
            "branch": "Poslovnica Čakovec",
            "brand": "Hrvatska poštanska banka",
            "brand:wikidata": "Q5923981",
            "brand:wikipedia": "en:Hrvatska poštanska banka",
            "name": "Hrvatska poštanska banka",
            "opening_hours": "Mo-Fr 08:00-16:00; Sa 08:00-12:00",
            "operator": "HPB d.d.",
            "short_name": "HPB",
            "website": "https://www.hpb.hr/"
          },
          "geometry": {
            "type": "Point",
            "coordinates": [
              16.4348509,
              46.3911512
            ]
          }
        },
        {
          "type": "Feature",
          "properties": {
            "id": "3811031417",
            "osm_type": "node",
            "lat": 46.5562774,
            "lon": 16.4616454,
            "amenity": "bank",
            "brand": "NLB",
            "brand:wikidata": "Q1481509",
            "name": "NLB"
          },
          "geometry": {
            "type": "Point",
            "coordinates": [
              16.4616454,
              46.5562774
            ]
          }
        },
        {
          "type": "Feature",
          "properties": {
            "id": "3872680533",
            "osm_type": "node",
            "lat": 46.3897899,
            "lon": 16.4373561,
            "addr:city": "Čakovec",
            "addr:housenumber": "12",
            "addr:postcode": "40000",
            "addr:street": "Ulica kralja Tomislava",
            "alt_name": "PBZ",
            "amenity": "bank",
            "atm": "yes",
            "branch": "Poslovnica Trg - Čakovec",
            "brand": "Privredna banka Zagreb",
            "brand:wikidata": "Q7246343",
            "name": "Privredna banka Zagreb",
            "operator": "Privredna banka Zagreb d.d.",
            "short_name": "PBZ"
          },
          "geometry": {
            "type": "Point",
            "coordinates": [
              16.4373561,
              46.3897899
            ]
          }
        },
        {
          "type": "Feature",
          "properties": {
            "id": "3887574644",
            "osm_type": "node",
            "lat": 46.3894939,
            "lon": 16.4385176,
            "addr:city": "Čakovec",
            "addr:housenumber": "3",
            "addr:postcode": "40000",
            "addr:street": "Ulica Josipa Jurja Strossmayera",
            "amenity": "bank",
            "brand": "Banka Kovanica",
            "brand:wikidata": "Q25382167",
            "name": "Banka Kovanica",
            "opening_hours": "Mo-Fr 08:00-17:00; Sa 08:00-12:00",
            "operator": "Banka Kovanica d.d.",
            "website": "https://www.kovanica.hr/saqwe"
          },
          "geometry": {
            "type": "Point",
            "coordinates": [
              16.4385176,
              46.3894939
            ]
          }
        },
        {
          "type": "Feature",
          "properties": {
            "id": "4718875827",
            "osm_type": "node",
            "lat": 46.5133838,
            "lon": 16.4397377,
            "addr:city": "Mursko Središće",
            "addr:housenumber": "1",
            "addr:postcode": "40315",
            "addr:street": "Frankopanska ulica",
            "alt_name": "PBZ",
            "amenity": "bank",
            "atm": "yes",
            "branch": "Poslovnica Mursko Središće",
            "name": "Privredna banka Zagreb"
          },
          "geometry": {
            "type": "Point",
            "coordinates": [
              16.4397377,
              46.5133838
            ]
          }
        },
        {
          "type": "Feature",
          "properties": {
            "id": "5189023575",
            "osm_type": "node",
            "lat": 46.5629004,
            "lon": 16.4515844,
            "amenity": "bank",
            "name": "Deželna banka Slovenije"
          },
          "geometry": {
            "type": "Point",
            "coordinates": [
              16.4515844,
              46.5629004
            ]
          }
        },
        {
          "type": "Feature",
          "properties": {
            "id": "6465384024",
            "osm_type": "node",
            "lat": 46.3895582,
            "lon": 16.4380012,
            "addr:city": "Čakovec",
            "addr:housenumber": "14",
            "addr:postcode": "40000",
            "addr:street": "Ulica kralja Tomislava",
            "amenity": "bank",
            "brand": "OTP banka",
            "brand:wikidata": "Q31198593",
            "brand:wikipedia": "en:OTP Bank",
            "name": "OTP banka",
            "operator": "OTP banka  Hrvatska d.d.",
            "website": "https://www.otpbanka.hr"
          },
          "geometry": {
            "type": "Point",
            "coordinates": [
              16.4380012,
              46.3895582
            ]
          }
        },
        {
          "type": "Feature",
          "properties": {
            "id": "6470797652",
            "osm_type": "node",
            "lat": 46.3891402,
            "lon": 16.4356945,
            "addr:city": "Čakovec",
            "addr:housenumber": "6",
            "addr:postcode": "40000",
            "addr:street": "Ulica Matice Hrvatske",
            "amenity": "bank",
            "atm": "yes",
            "brand": "Addiko Bank",
            "brand:wikidata": "Q27926559",
            "brand:wikipedia": "en:Addiko Bank",
            "name": "Addiko Bank",
            "operator": "Addiko Bank d.d.",
            "website": "https://www.addiko.hr/"
          },
          "geometry": {
            "type": "Point",
            "coordinates": [
              16.4356945,
              46.3891402
            ]
          }
        },
        {
          "type": "Feature",
          "properties": {
            "id": "6612969866",
            "osm_type": "node",
            "lat": 46.3880006,
            "lon": 16.4397524,
            "addr:city": "Čakovec",
            "addr:housenumber": "1",
            "addr:postcode": "40000",
            "addr:street": "Ulica Otokara Keršovanija",
            "amenity": "bank",
            "atm": "yes",
            "brand": "Sberbank",
            "brand:wikidata": "Q205012",
            "brand:wikipedia": "en:Sberbank of Russia",
            "name": "Sberbank",
            "opening_hours": "Mo-Fr 09:00-17:00",
            "website": "https://www.sberbank.hr/"
          },
          "geometry": {
            "type": "Point",
            "coordinates": [
              16.4397524,
              46.3880006
            ]
          }
        },
        {
          "type": "Feature",
          "properties": {
            "id": "1774751908",
            "osm_type": "node",
            "lat": 46.4551144,
            "lon": 16.9921656,
            "addr:city": "Nagykanizsa",
            "addr:housenumber": "15",
            "addr:postcode": "8800",
            "addr:street": "Deák Ferenc tér",
            "amenity": "bank",
            "brand": "OTP Bank",
            "brand:wikidata": "Q912778",
            "brand:wikipedia": "en:OTP Bank",
            "level": "0",
            "name": "OTP Bank",
            "opening_hours": "Mo 07:45-18:00; Tu-Th 07:45-17:00; Fr 07:45-16:00",
            "short_name": "OTP",
            "website": "https://www.otpbank.hu",
            "wheelchair": "yes"
          },
          "geometry": {
            "type": "Point",
            "coordinates": [
              16.9921656,
              46.4551144
            ]
          }
        },
        {
          "type": "Feature",
          "properties": {
            "id": "2279290629",
            "osm_type": "node",
            "lat": 46.4549708,
            "lon": 16.9898978,
            "addr:city": "Nagykanizsa",
            "addr:housenumber": "2",
            "addr:postcode": "8800",
            "addr:street": "Fő út",
            "amenity": "bank",
            "atm": "yes",
            "brand": "Erste Bank",
            "brand:wikidata": "Q696867",
            "brand:wikipedia": "de:Erste Bank",
            "name": "Erste Bank",
            "opening_hours": "Mo 08:00-17:00; Tu-Th 08:00-16:00; Fr 08:00-15:00",
            "operator": "Erste Bank Hungary Zrt.",
            "website": "https://www.erstebank.hu/"
          },
          "geometry": {
            "type": "Point",
            "coordinates": [
              16.9898978,
              46.4549708
            ]
          }
        },
        {
          "type": "Feature",
          "properties": {
            "id": "2279290631",
            "osm_type": "node",
            "lat": 46.4549414,
            "lon": 16.990092,
            "addr:city": "Nagykanizsa",
            "addr:housenumber": "2",
            "addr:postcode": "8800",
            "addr:street": "Fő út",
            "amenity": "bank",
            "atm": "yes",
            "brand": "K&H Bank",
            "brand:wikidata": "Q6393834",
            "brand:wikipedia": "en:K&H Bank",
            "name": "K&H Bank",
            "opening_hours": "Mo 08:00-17:00; Tu-Th 08:00-16:00; Fr 08:00-15:00",
            "phone": "+36 93 537 160",
            "website": "https://www.kh.hu",
            "wheelchair": "yes"
          },
          "geometry": {
            "type": "Point",
            "coordinates": [
              16.990092,
              46.4549414
            ]
          }
        },
        {
          "type": "Feature",
          "properties": {
            "id": "2279290637",
            "osm_type": "node",
            "lat": 46.4551755,
            "lon": 16.9930302,
            "addr:city": "Nagykanizsa",
            "addr:housenumber": "11-12",
            "addr:postcode": "8800",
            "addr:street": "Deák Ferenc tér",
            "amenity": "bank",
            "atm": "yes",
            "brand": "Raiffeisen Bank",
            "brand:wikidata": "Q16522506",
            "brand:wikipedia": "hu:Raiffeisen Bank (Magyarország)",
            "contact:facebook": "https://www.facebook.com/raiffeisenbankHU",
            "contact:phone": "+36 80 488 588",
            "contact:website": "https://www.raiffeisen.hu/",
            "name": "Raiffeisen Bank",
            "opening_hours": "Mo 08:00-17:00; Tu-Th 08:00-16:00; Fr 08:00-15:30",
            "operator": "Raiffeisen Bank Zrt.",
            "wheelchair": "yes"
          },
          "geometry": {
            "type": "Point",
            "coordinates": [
              16.9930302,
              46.4551755
            ]
          }
        },
        {
          "type": "Feature",
          "properties": {
            "id": "2279290645",
            "osm_type": "node",
            "lat": 46.4547646,
            "lon": 16.9910402,
            "addr:city": "Nagykanizsa",
            "addr:housenumber": "8",
            "addr:postcode": "8800",
            "addr:street": "Fő út",
            "amenity": "bank",
            "atm": "yes",
            "brand": "UniCredit Bank",
            "brand:wikidata": "Q45568",
            "brand:wikipedia": "en:UniCredit",
            "name": "UniCredit Bank",
            "name:it": "Unicredit",
            "opening_hours": "Mo 08:00-17:00; Tu-Th 08:00-16:00; Fr 08:00-15:00",
            "website": "https://www.unicreditbank.hu/"
          },
          "geometry": {
            "type": "Point",
            "coordinates": [
              16.9910402,
              46.4547646
            ]
          }
        },
        {
          "type": "Feature",
          "properties": {
            "id": "2366239550",
            "osm_type": "node",
            "lat": 46.4561633,
            "lon": 16.9890122,
            "addr:city": "Nagykanizsa",
            "addr:housenumber": "19",
            "addr:postcode": "8800",
            "addr:street": "Erzsébet tér",
            "air_conditioning": "yes",
            "amenity": "bank",
            "atm": "yes",
            "branch": "Nagykanizsa",
            "brand": "MBH Bank",
            "name": "MBH Bank",
            "opening_hours": "Mo 08:00-17:00; Tu-Th 08:00-16:00; Fr 08:00-15:00; PH off",
            "operator": "MBH Bank",
            "operator:addr": "1056 Budapest, Váci utca 38.",
            "ref:HU:company": "01-10-041037",
            "ref:HU:vatin": "10196445-4-44",
            "ref:vatin": "HU10196445",
            "source": "website",
            "source:date": "2021-12-17"
          },
          "geometry": {
            "type": "Point",
            "coordinates": [
              16.9890122,
              46.4561633
            ]
          }
        },
        {
          "type": "Feature",
          "properties": {
            "id": "2366239557",
            "osm_type": "node",
            "lat": 46.4552866,
            "lon": 16.9875449,
            "addr:city": "Nagykanizsa",
            "addr:housenumber": "53",
            "addr:postcode": "8800",
            "addr:street": "Király utca",
            "air_conditioning": "yes",
            "amenity": "bank",
            "atm": "yes",
            "bic": "CIBHHUHB",
            "branch": "Nagykanizsai fiók",
            "brand": "CIB Bank",
            "brand:wikidata": "Q839566",
            "brand:wikipedia": "hu:CIB Bank",
            "contact:email": "kanizsa@cib.hu",
            "contact:phone": "+36 1 424 2242",
            "contact:website": "https://www.cib.hu",
            "name": "CIB Bank",
            "operator": "CIB Bank Zrt.",
            "operator:addr": "1027 Budapest, Medve u 4-14.",
            "ref:HU:company": "01-10-041004",
            "ref:HU:vatin": "10136915-4-44",
            "ref:vatin": "HU10136915",
            "source": "website;import",
            "source:date": "2023-11-12"
          },
          "geometry": {
            "type": "Point",
            "coordinates": [
              16.9875449,
              46.4552866
            ]
          }
        },
        {
          "type": "Feature",
          "properties": {
            "id": "2861865769",
            "osm_type": "node",
            "lat": 46.6247865,
            "lon": 16.5411819,
            "amenity": "bank",
            "atm": "yes",
            "brand": "Erste Bank",
            "brand:wikidata": "Q696867",
            "name": "Erste Bank",
            "operator": "Erste Bank Hungary Zrt.",
            "website": "https://www.erstebank.hu/",
            "wheelchair": "no"
          },
          "geometry": {
            "type": "Point",
            "coordinates": [
              16.5411819,
              46.6247865
            ]
          }
        },
        {
          "type": "Feature",
          "properties": {
            "id": "2862035183",
            "osm_type": "node",
            "lat": 46.6226723,
            "lon": 16.5382866,
            "amenity": "bank",
            "name": "Széchenyi Hitelszövetkezet"
          },
          "geometry": {
            "type": "Point",
            "coordinates": [
              16.5382866,
              46.6226723
            ]
          }
        },
        {
          "type": "Feature",
          "properties": {
            "id": "2862505426",
            "osm_type": "node",
            "lat": 46.6237229,
            "lon": 16.544986,
            "amenity": "bank",
            "brand": "OTP Bank",
            "brand:wikidata": "Q912778",
            "brand:wikipedia": "en:OTP Bank",
            "name": "OTP Bank",
            "short_name": "OTP",
            "website": "https://www.otpbank.hu",
            "wheelchair": "yes"
          },
          "geometry": {
            "type": "Point",
            "coordinates": [
              16.544986,
              46.6237229
            ]
          }
        },
        {
          "type": "Feature",
          "properties": {
            "id": "3456437189",
            "osm_type": "node",
            "lat": 46.6483388,
            "lon": 16.9232305,
            "amenity": "bank",
            "name": "Takarékszövetkezet",
            "source": "turistautak.hu",
            "source:date": "2011-09-19",
            "url": "http://turistautak.hu/poi.php?id=107665"
          },
          "geometry": {
            "type": "Point",
            "coordinates": [
              16.9232305,
              46.6483388
            ]
          }
        },
        {
          "type": "Feature",
          "properties": {
            "id": "3465219347",
            "osm_type": "node",
            "lat": 46.4326277,
            "lon": 16.722043,
            "amenity": "bank",
            "atm": "yes",
            "brand": "K&H Bank",
            "brand:wikidata": "Q6393834",
            "brand:wikipedia": "en:K&H Bank",
            "name": "K&H",
            "source:date": "2011-09-19",
            "url": "http://turistautak.hu/poi.php?id=32387"
          },
          "geometry": {
            "type": "Point",
            "coordinates": [
              16.722043,
              46.4326277
            ]
          }
        },
        {
          "type": "Feature",
          "properties": {
            "id": "3468083349",
            "osm_type": "node",
            "lat": 46.5161323,
            "lon": 16.556931,
            "amenity": "bank",
            "name": "Takarékszövetkezet",
            "source": "turistautak.hu",
            "source:date": "2011-09-19",
            "url": "http://turistautak.hu/poi.php?id=18214"
          },
          "geometry": {
            "type": "Point",
            "coordinates": [
              16.556931,
              46.5161323
            ]
          }
        },
        {
          "type": "Feature",
          "properties": {
            "id": "4345526134",
            "osm_type": "node",
            "lat": 46.6226738,
            "lon": 16.538331,
            "amenity": "bank",
            "brand": "K&H Bank",
            "brand:wikidata": "Q6393834",
            "name": "K&H Bank"
          },
          "geometry": {
            "type": "Point",
            "coordinates": [
              16.538331,
              46.6226738
            ]
          }
        },
        {
          "type": "Feature",
          "properties": {
            "id": "4387233887",
            "osm_type": "node",
            "lat": 46.6227975,
            "lon": 16.5409252,
            "amenity": "bank",
            "atm": "yes",
            "brand": "MBH Bank",
            "name": "MBH Bank",
            "old_name": "Takarékbank",
            "operator": "MBH Bank",
            "operator:addr": "1056 Budapest, Váci utca 38."
          },
          "geometry": {
            "type": "Point",
            "coordinates": [
              16.5409252,
              46.6227975
            ]
          }
        },
        {
          "type": "Feature",
          "properties": {
            "id": "4909050799",
            "osm_type": "node",
            "lat": 46.4327729,
            "lon": 16.7220631,
            "amenity": "bank",
            "atm": "yes",
            "brand": "OTP",
            "brand:wikidata": "Q912778",
            "brand:wikipedia": "en:OTP Bank",
            "name": "OTP"
          },
          "geometry": {
            "type": "Point",
            "coordinates": [
              16.7220631,
              46.4327729
            ]
          }
        },
        {
          "type": "Feature",
          "properties": {
            "id": "5578640822",
            "osm_type": "node",
            "lat": 46.4563218,
            "lon": 16.9876763,
            "addr:city": "Nagykanizsa",
            "addr:housenumber": "8",
            "addr:postcode": "8800",
            "addr:street": "Erzsébet tér",
            "air_conditioning": "yes",
            "amenity": "bank",
            "atm": "yes",
            "brand": "MBH Bank",
            "contact:email": "k682@mkb.hu",
            "contact:phone": "+36 93 509 650",
            "contact:website": "https://lny.io/mkb-web-k68",
            "description": "Akadálymentesen megközelíthető fiók; Telefonszám:(93) 509-650;",
            "name": "MBH Bank",
            "old_name": "MKB Bank",
            "opening_hours": "Mo 08:00-17:00; Tu-Th 08:00-16:00; Fr 08:00-15:00; PH off",
            "operator": "MBH Bank",
            "operator:addr": "1056 Budapest, Váci utca 38.",
            "ref:HU:company": "01-10-040952",
            "ref:HU:vatin": "10011922-4-44",
            "ref:vatin": "HU10011922",
            "source": "website",
            "source:date": "2022-06-22"
          },
          "geometry": {
            "type": "Point",
            "coordinates": [
              16.9876763,
              46.4563218
            ]
          }
        },
        {
          "type": "Feature",
          "properties": {
            "id": "9041472785",
            "osm_type": "node",
            "lat": 46.453937,
            "lon": 16.9875242,
            "amenity": "bank",
            "brand": "MBH Bank",
            "name": "MBH Bank",
            "old_name": "Takarékbank",
            "operator": "MBH Bank",
            "operator:addr": "1056 Budapest, Váci utca 38."
          },
          "geometry": {
            "type": "Point",
            "coordinates": [
              16.9875242,
              46.453937
            ]
          }
        },
        {
          "type": "Feature",
          "properties": {
            "id": "11763909655",
            "osm_type": "node",
            "lat": 46.4552274,
            "lon": 16.9897637,
            "amenity": "bank",
            "atm": "yes",
            "name": "Oberbank"
          },
          "geometry": {
            "type": "Point",
            "coordinates": [
              16.9897637,
              46.4552274
            ]
          }
        },
        {
          "type": "Feature",
          "properties": {
            "id": "12165349308",
            "osm_type": "node",
            "lat": 46.4335397,
            "lon": 16.8986692,
            "amenity": "bank",
            "name": "M7 Takarék"
          },
          "geometry": {
            "type": "Point",
            "coordinates": [
              16.8986692,
              46.4335397
            ]
          }
        },
        {
          "type": "Feature",
          "properties": {
            "id": "2362065577",
            "osm_type": "node",
            "lat": 46.5226284,
            "lon": 17.1258602,
            "amenity": "bank",
            "atm": "yes",
            "name": "MBH Bank",
            "opening_hours": "Mo 08:00-12:00,12:30-17:00; Tu-Th 08:00-12:00,12:30-16:00; Fr 08:00-12:00,12:30-15:00"
          },
          "geometry": {
            "type": "Point",
            "coordinates": [
              17.1258602,
              46.5226284
            ]
          }
        },
        {
          "type": "Feature",
          "properties": {
            "id": "2362065580",
            "osm_type": "node",
            "lat": 46.5872923,
            "lon": 17.1223852,
            "amenity": "bank",
            "name": "Dél-zalai Egyesült Takarékszövetkezet"
          },
          "geometry": {
            "type": "Point",
            "coordinates": [
              17.1223852,
              46.5872923
            ]
          }
        }
      ],
      "children": []
    },
    {
      "bbox": {
        "south": 46.70320525,
        "west": 15.253173,
        "north": 47.033758500000005,
        "east": 16.2068765
      },
      "poiCount": 74,
      "leafCount": 0,
      "averagePosition": [
        15.650274002702703,
        46.908425840540545
      ],
      "data": [],
      "children": [
        {
          "bbox": {
            "south": 46.70320525,
            "west": 15.253173,
            "north": 46.868481875,
            "east": 15.73002475
          },
          "poiCount": 15,
          "leafCount": 15,
          "averagePosition": [
            15.536540760000001,
            46.78142198666667
          ],
          "data": [
            {
              "type": "Feature",
              "properties": {
                "id": "1715208687",
                "osm_type": "node",
                "lat": 46.7373567,
                "lon": 15.4425069,
                "addr:city": "Großklein",
                "addr:country": "AT",
                "addr:housenumber": "32",
                "addr:place": "Großklein",
                "addr:postcode": "8452",
                "amenity": "bank",
                "at_bev:addr_date": "2019-10-01",
                "atm": "yes",
                "designation": "de: Bank, Raika",
                "name": "Raiffeisenbank",
                "opening_hours": "Mo,We-Fr 08:00-12:00,14:30-17:00; Tu 08:00-12:00; PH off",
                "operator": "Raiffeisenbank Gleinstätten eGen",
                "source": "survey",
                "website": "https://www.raiffeisen.at/gleinstaetten/1065217255034957662_1065217904648762471_1065218465410431442-1078208285572744591-NA-30-NA.html?clickedContent=1078208285572744591&querySource=gro%C3%9Fklein",
                "wheelchair": "yes"
              },
              "geometry": {
                "type": "Point",
                "coordinates": [
                  15.4425069,
                  46.7373567
                ]
              }
            },
            {
              "type": "Feature",
              "properties": {
                "id": "1782898613",
                "osm_type": "node",
                "lat": 46.8213571,
                "lon": 15.4493135,
                "addr:city": "Sankt Nikolai im Sausal",
                "addr:country": "AT",
                "addr:housenumber": "12",
                "addr:place": "Sankt Nikolai im Sausal",
                "addr:postcode": "8505",
                "amenity": "bank",
                "at_bev:addr_date": "2018-10-01",
                "atm": "yes",
                "name": "Raiffeisenbank",
                "operator": "Raiffeisen"
              },
              "geometry": {
                "type": "Point",
                "coordinates": [
                  15.4493135,
                  46.8213571
                ]
              }
            },
            {
              "type": "Feature",
              "properties": {
                "id": "5261942096",
                "osm_type": "node",
                "lat": 46.8220519,
                "lon": 15.3163022,
                "addr:city": "Gross-St.Florian",
                "addr:housenumber": "10a",
                "addr:postcode": "8522",
                "addr:street": "Marktstraße",
                "amenity": "bank",
                "atm": "yes",
                "brand": "Steiermärkische Sparkasse",
                "brand:wikidata": "Q1555572",
                "drive_through": "no",
                "name": "Steiermärkische Sparkasse",
                "opening_hours": "Mo-Fr 08:30-12:00; Mo,Fr 14:00-16:00; Sa,Su,PH off",
                "operator": "Steiermärkische Bank und Sparkassen AG",
                "phone": "+43 5 0100 36068",
                "website": "https://www.sparkasse.at/steiermaerkische/privatkunden"
              },
              "geometry": {
                "type": "Point",
                "coordinates": [
                  15.3163022,
                  46.8220519
                ]
              }
            },
            {
              "type": "Feature",
              "properties": {
                "id": "6694526805",
                "osm_type": "node",
                "lat": 46.7911278,
                "lon": 15.3780775,
                "addr:city": "Sankt Andrä-Höch",
                "addr:country": "AT",
                "addr:housenumber": "120",
                "addr:place": "Sankt Andrä im Sausal",
                "addr:postcode": "8444",
                "amenity": "bank",
                "at_bev:addr_date": "2019-04-01",
                "atm": "yes",
                "name": "Raiffeisen",
                "operator": "Raiffeisenbank Gleinstätten-Leutschach",
                "phone": "+43 3457 4051 0",
                "website": "https://raiffeisen.at/stmk/gleinstaetten-leutschach/de.html"
              },
              "geometry": {
                "type": "Point",
                "coordinates": [
                  15.3780775,
                  46.7911278
                ]
              }
            },
            {
              "type": "Feature",
              "properties": {
                "id": "302348103",
                "osm_type": "node",
                "lat": 46.7822139,
                "lon": 15.590658,
                "addr:city": "Gabersdorf",
                "addr:housenumber": "93",
                "addr:place": "Gabersdorf",
                "addr:postcode": "8424",
                "amenity": "bank",
                "atm": "yes",
                "drive_through": "no",
                "name": "Raiffeisenbank Straß-Spielfeld, Bankstelle Gabersdorf",
                "opening_hours": "Mo,Fr 08:00-12:00; We 14:30-16:30",
                "operator": "Raiffeisenbank Straß-Spielfeld",
                "website": "https://www.raiffeisen.at/stmk/strass"
              },
              "geometry": {
                "type": "Point",
                "coordinates": [
                  15.590658,
                  46.7822139
                ]
              }
            },
            {
              "type": "Feature",
              "properties": {
                "id": "479158914",
                "osm_type": "node",
                "lat": 46.7110037,
                "lon": 15.6965434,
                "amenity": "bank",
                "atm": "yes",
                "operator": "Raiffeisen",
                "wheelchair": "no"
              },
              "geometry": {
                "type": "Point",
                "coordinates": [
                  15.6965434,
                  46.7110037
                ]
              }
            },
            {
              "type": "Feature",
              "properties": {
                "id": "520165771",
                "osm_type": "node",
                "lat": 46.7805323,
                "lon": 15.5376068,
                "addr:city": "Leibnitz",
                "addr:housenumber": "1",
                "addr:postcode": "8430",
                "addr:street": "Kadagasse",
                "amenity": "bank",
                "atm": "yes",
                "drive_through": "no",
                "note": "„Leibnitz lädt ein“-Gutschein",
                "opening_hours": "Mo-Fr 8:00-12:30,13:30-16:00",
                "operator": "BKS",
                "website": "https://www.bks.at/",
                "wheelchair": "yes"
              },
              "geometry": {
                "type": "Point",
                "coordinates": [
                  15.5376068,
                  46.7805323
                ]
              }
            },
            {
              "type": "Feature",
              "properties": {
                "id": "1045771556",
                "osm_type": "node",
                "lat": 46.7278364,
                "lon": 15.6229554,
                "addr:city": "Straß in Steiermark",
                "addr:housenumber": "59",
                "addr:postcode": "8472",
                "addr:street": "Hauptstraße",
                "amenity": "bank",
                "atm": "yes",
                "brand": "Raiffeisen",
                "brand:wikidata": "Q22093483",
                "drive_through": "no",
                "name": "Raiffeisenbank Straß-Spielfeld",
                "wheelchair": "limited"
              },
              "geometry": {
                "type": "Point",
                "coordinates": [
                  15.6229554,
                  46.7278364
                ]
              }
            },
            {
              "type": "Feature",
              "properties": {
                "id": "2862560460",
                "osm_type": "node",
                "lat": 46.7933295,
                "lon": 15.5381285,
                "addr:city": "Leibnitz",
                "addr:country": "AT",
                "addr:housenumber": "137",
                "addr:postcode": "8430",
                "addr:street": "Grazer Straße",
                "addr:suburb": "Kaindorf an der Sulm",
                "amenity": "bank",
                "name": "Sparkasse",
                "toilets:wheelchair": "no",
                "wheelchair": "yes"
              },
              "geometry": {
                "type": "Point",
                "coordinates": [
                  15.5381285,
                  46.7933295
                ]
              }
            },
            {
              "type": "Feature",
              "properties": {
                "id": "3975479402",
                "osm_type": "node",
                "lat": 46.7092341,
                "lon": 15.6334694,
                "addr:city": "Straß in Steiermark",
                "addr:country": "AT",
                "addr:housenumber": "2",
                "addr:postcode": "8472",
                "addr:street": "Südbahnstraße",
                "addr:suburb": "Spielfeld",
                "amenity": "bank",
                "at_bev:addr_date": "2018-04-02",
                "atm": "yes",
                "branch": "Bankstelle Spielfeld",
                "brand": "Raiffeisen",
                "brand:wikidata": "Q2127528",
                "drive_through": "no",
                "name": "Raiffeisen",
                "opening_hours": "Mo,We,Fr 08:00-12:00",
                "operator": "Raiffeisenbank Straß-Spielfeld eGen",
                "website": "https://www.raiffeisen.at/stmk/strass"
              },
              "geometry": {
                "type": "Point",
                "coordinates": [
                  15.6334694,
                  46.7092341
                ]
              }
            },
            {
              "type": "Feature",
              "properties": {
                "id": "5114849996",
                "osm_type": "node",
                "lat": 46.7875396,
                "lon": 15.5409254,
                "addr:city": "Leibnitz",
                "addr:country": "AT",
                "addr:housenumber": "32",
                "addr:postcode": "8430",
                "addr:street": "Dechant Thaller-Straße",
                "amenity": "bank",
                "atm": "yes",
                "fixme": "richtige position",
                "name": "Raiffeisen-Landesbank Steiermark AG.",
                "opening_hours": "Mo,We,Fr 08:30-12:00,14:00-16:30; Tu,Th 08:30-12:00",
                "phone": "+43 3452 71133",
                "website": "https://www.raiffeisen.at",
                "wikipedia": "de:Landes-Hypothekenbank Steiermark"
              },
              "geometry": {
                "type": "Point",
                "coordinates": [
                  15.5409254,
                  46.7875396
                ]
              }
            },
            {
              "type": "Feature",
              "properties": {
                "id": "5382902480",
                "osm_type": "node",
                "lat": 46.843798,
                "lon": 15.6561602,
                "addr:city": "Schwarzautal",
                "addr:country": "AT",
                "addr:housenumber": "125",
                "addr:place": "Wolfsberg",
                "addr:postcode": "8421",
                "amenity": "bank",
                "atm": "yes",
                "brand": "Raiffeisen",
                "brand:wikidata": "Q22093483",
                "drive_through": "no",
                "name": "Raiffeisenbank St. Stefan-Jagerberg-Wolfsberg, Bankstelle Wolfsberg",
                "opening_hours": "Mo-Fr 08:00-12:00; Th-Fr 14:00-16:00; Sa,Su,PH off",
                "operator": "Raiffeisenbank St. Stefan-Jagerberg-Wolfsberg"
              },
              "geometry": {
                "type": "Point",
                "coordinates": [
                  15.6561602,
                  46.843798
                ]
              }
            },
            {
              "type": "Feature",
              "properties": {
                "id": "6808375301",
                "osm_type": "node",
                "lat": 46.8589759,
                "lon": 15.5346881,
                "addr:city": "Lebring-Sankt Margarethen",
                "addr:country": "AT",
                "addr:housenumber": "6",
                "addr:postcode": "8403",
                "addr:street": "Grazerstraße",
                "amenity": "bank",
                "at_bev:addr_date": "2018-10-01",
                "atm": "yes",
                "brand": "Raiffeisen",
                "brand:wikidata": "Q2127528",
                "name": "Raiffeisenbank Lebring",
                "name:de": "Raika Lebring"
              },
              "geometry": {
                "type": "Point",
                "coordinates": [
                  15.5346881,
                  46.8589759
                ]
              }
            },
            {
              "type": "Feature",
              "properties": {
                "id": "7410411705",
                "osm_type": "node",
                "lat": 46.7823905,
                "lon": 15.5420352,
                "addr:city": "Leibnitz",
                "addr:housenumber": "3",
                "addr:postcode": "8430",
                "addr:street": "Bahnhofstraße",
                "amenity": "bank",
                "atm": "yes",
                "brand": "bank99",
                "brand:wikidata": "Q91200481",
                "brand:wikipedia": "de:Bank99",
                "drive_through": "no",
                "name": "bank99",
                "opening_hours": "Mo-Fr 08:00-18:00; Sa 09:00-12:00",
                "operator": "bank99 AG"
              },
              "geometry": {
                "type": "Point",
                "coordinates": [
                  15.5420352,
                  46.7823905
                ]
              }
            },
            {
              "type": "Feature",
              "properties": {
                "id": "7608329118",
                "osm_type": "node",
                "lat": 46.7725824,
                "lon": 15.5687409,
                "addr:city": "Wagna",
                "addr:housenumber": "19",
                "addr:postcode": "8435",
                "addr:street": "Leitringer Hauptstraße",
                "amenity": "bank",
                "brand": "BAWAG PSK",
                "brand:wikidata": "Q379938",
                "brand:wikipedia": "en:BAWAG P.S.K.",
                "drive_through": "no",
                "name": "BAWAG PSK",
                "opening_hours": "Mo-Fr 09:00-17:00; Sa,Su,PH off",
                "operator": "BAWAG PSK AG"
              },
              "geometry": {
                "type": "Point",
                "coordinates": [
                  15.5687409,
                  46.7725824
                ]
              }
            }
          ],
          "children": []
        },
        {
          "bbox": {
            "south": 46.70320525,
            "west": 15.73002475,
            "north": 46.868481875,
            "east": 16.2068765
          },
          "poiCount": 8,
          "leafCount": 8,
          "averagePosition": [
            15.8743015625,
            46.772483475
          ],
          "data": [
            {
              "type": "Feature",
              "properties": {
                "id": "443259020",
                "osm_type": "node",
                "lat": 46.7630616,
                "lon": 15.966402,
                "addr:city": "Klöch",
                "addr:housenumber": "110",
                "addr:place": "Klöch",
                "addr:postcode": "8493",
                "amenity": "bank",
                "atm": "yes",
                "brand": "Raiffeisenbank",
                "name": "Raiffeisenbank Klöch",
                "operator": "Raiffeisenbank Bad Radkersburg-Klöch"
              },
              "geometry": {
                "type": "Point",
                "coordinates": [
                  15.966402,
                  46.7630616
                ]
              }
            },
            {
              "type": "Feature",
              "properties": {
                "id": "1233893789",
                "osm_type": "node",
                "lat": 46.7523051,
                "lon": 15.8292085,
                "amenity": "bank",
                "brand": "Raiffeisenbank",
                "name": "Raiffeisenbank Deutsch Goritz"
              },
              "geometry": {
                "type": "Point",
                "coordinates": [
                  15.8292085,
                  46.7523051
                ]
              }
            },
            {
              "type": "Feature",
              "properties": {
                "id": "1328488127",
                "osm_type": "node",
                "lat": 46.7074027,
                "lon": 15.7712427,
                "addr:city": "Mureck",
                "addr:country": "AT",
                "addr:housenumber": "2",
                "addr:postcode": "8480",
                "addr:street": "Hauptplatz",
                "amenity": "bank",
                "atm": "yes",
                "brand": "Steiermärkische Sparkasse",
                "drive_through": "no",
                "name": "Steiermärkische Sparkasse",
                "opening_hours": "Mo-Fr 08:30-12:00; Mo,We,Fr 14:00-16:30; Sa,Su,PH off",
                "operator": "Steiermärkische Bank und Sparkassen AG",
                "phone": "+43 5 0100 36075",
                "website": "https://www.sparkasse.at/steiermaerkische/privatkunden"
              },
              "geometry": {
                "type": "Point",
                "coordinates": [
                  15.7712427,
                  46.7074027
                ]
              }
            },
            {
              "type": "Feature",
              "properties": {
                "id": "1504238417",
                "osm_type": "node",
                "lat": 46.7868737,
                "lon": 15.9458048,
                "amenity": "bank",
                "atm": "yes",
                "brand": "Raiffeisenbank",
                "name": "Raiffeisenbank"
              },
              "geometry": {
                "type": "Point",
                "coordinates": [
                  15.9458048,
                  46.7868737
                ]
              }
            },
            {
              "type": "Feature",
              "properties": {
                "id": "2362013731",
                "osm_type": "node",
                "lat": 46.8537728,
                "lon": 15.7387652,
                "amenity": "bank"
              },
              "geometry": {
                "type": "Point",
                "coordinates": [
                  15.7387652,
                  46.8537728
                ]
              }
            },
            {
              "type": "Feature",
              "properties": {
                "id": "2609156378",
                "osm_type": "node",
                "lat": 46.7898686,
                "lon": 15.852976,
                "addr:city": "Straden",
                "addr:housenumber": "35",
                "addr:place": "Wieden-Klausen",
                "addr:postcode": "8345",
                "amenity": "bank",
                "atm": "yes",
                "brand": "Steiermärkische Sparkasse",
                "brand:wikidata": "Q1555572",
                "brand:wikipedia": "de:Steiermärkische Sparkasse",
                "drive_through": "no",
                "name": "Steiermärkische Sparkasse",
                "opening_hours": "Mo-Fr 08:30-12:00; Mo,We,Fr 14:00-16:30; Sa,Su,PH off",
                "operator": "Steiermärkische Bank und Sparkassen AG",
                "phone": "+43 5 0100 36077",
                "website": "https://www.sparkasse.at/steiermaerkische/privatkunden"
              },
              "geometry": {
                "type": "Point",
                "coordinates": [
                  15.852976,
                  46.7898686
                ]
              }
            },
            {
              "type": "Feature",
              "properties": {
                "id": "5799495709",
                "osm_type": "node",
                "lat": 46.8073884,
                "lon": 15.8690217,
                "addr:city": "Straden",
                "addr:housenumber": "75",
                "addr:place": "Straden",
                "addr:postcode": "8345",
                "amenity": "bank",
                "name": "Raiffeisenbank Straden"
              },
              "geometry": {
                "type": "Point",
                "coordinates": [
                  15.8690217,
                  46.8073884
                ]
              }
            },
            {
              "type": "Feature",
              "properties": {
                "id": "7606896752",
                "osm_type": "node",
                "lat": 46.7191949,
                "lon": 16.0209916,
                "amenity": "bank",
                "atm": "no",
                "drive_through": "no",
                "name": "Deželna banka Slovenije",
                "opening_hours": "Tu-Fr 08:00-12:00,13:00-16:00; We off",
                "operator": "DBS"
              },
              "geometry": {
                "type": "Point",
                "coordinates": [
                  16.0209916,
                  46.7191949
                ]
              }
            }
          ],
          "children": []
        },
        {
          "bbox": {
            "south": 46.868481875,
            "west": 15.253173,
            "north": 47.033758500000005,
            "east": 15.73002475
          },
          "poiCount": 31,
          "leafCount": 31,
          "averagePosition": [
            15.45368836451613,
            46.987630677419354
          ],
          "data": [
            {
              "type": "Feature",
              "properties": {
                "id": "269042362",
                "osm_type": "node",
                "lat": 47.0068063,
                "lon": 15.4816184,
                "addr:city": "Gössendorf",
                "addr:housenumber": "1",
                "addr:postcode": "8077",
                "addr:street": "Hauptstraße",
                "amenity": "bank",
                "atm": "yes",
                "name": "Raiffeisenbank",
                "wheelchair": "yes"
              },
              "geometry": {
                "type": "Point",
                "coordinates": [
                  15.4816184,
                  47.0068063
                ]
              }
            },
            {
              "type": "Feature",
              "properties": {
                "id": "292265698",
                "osm_type": "node",
                "lat": 47.0105097,
                "lon": 15.4041643,
                "addr:city": "Seiersberg-Pirka",
                "addr:country": "AT",
                "addr:housenumber": "1",
                "addr:postcode": "8054",
                "addr:street": "Haushamerstraße",
                "amenity": "bank",
                "atm": "yes",
                "brand": "Steiermärkische Sparkasse",
                "brand:wikidata": "Q1555572",
                "brand:wikipedia": "de:Steiermärkische Sparkasse",
                "drive_through": "no",
                "name": "Steiermärkische Sparkasse",
                "opening_hours": "Mo-Fr 08:30-12:30; Th 14:00-16:00; Sa,Su,PH off",
                "operator": "Steiermärkische Bank und Sparkassen AG",
                "phone": "+43 5 0100 36058",
                "website": "https://www.sparkasse.at/steiermaerkische/privatkunden"
              },
              "geometry": {
                "type": "Point",
                "coordinates": [
                  15.4041643,
                  47.0105097
                ]
              }
            },
            {
              "type": "Feature",
              "properties": {
                "id": "340515570",
                "osm_type": "node",
                "lat": 46.9638911,
                "lon": 15.4789603,
                "addr:city": "Kalsdorf bei Graz",
                "addr:housenumber": "119",
                "addr:postcode": "8401",
                "addr:street": "Hauptstraße",
                "amenity": "bank",
                "atm": "yes",
                "brand": "bank99",
                "drive_through": "no",
                "name": "bank99",
                "opening_hours": "Mo-Fr 08:00-12:00,14:00-17:30; Sa,Su,PH off",
                "operator": "bank99 AG",
                "website": "https://www.bank99.at"
              },
              "geometry": {
                "type": "Point",
                "coordinates": [
                  15.4789603,
                  46.9638911
                ]
              }
            },
            {
              "type": "Feature",
              "properties": {
                "id": "523625243",
                "osm_type": "node",
                "lat": 46.9854023,
                "lon": 15.2817732,
                "addr:city": "Mooskirchen",
                "addr:country": "AT",
                "addr:housenumber": "6",
                "addr:postcode": "8562",
                "addr:street": "Raiffeisenplatz",
                "alt_name": "Raika",
                "amenity": "bank",
                "name": "Raiffeisenbank",
                "operator": "Raiffeisen",
                "phone": "+433137 2228-0"
              },
              "geometry": {
                "type": "Point",
                "coordinates": [
                  15.2817732,
                  46.9854023
                ]
              }
            },
            {
              "type": "Feature",
              "properties": {
                "id": "865229071",
                "osm_type": "node",
                "lat": 47.0246384,
                "lon": 15.4003371,
                "addr:city": "Graz",
                "addr:country": "AT",
                "addr:housenumber": "394",
                "addr:postcode": "8054",
                "addr:street": "Kärntner Straße",
                "amenity": "bank",
                "brand": "Raiffeisenbank",
                "brand:wikidata": "Q24282825",
                "brand:wikipedia": "cs:Raiffeisenbank",
                "contact:email": "info.38439@rb-38439.raiffeisen.at",
                "contact:phone": "+43 316 2550 0",
                "name": "Raiffeisenbank",
                "opening_hours": "Mo-Th 14:00-16:00, Fr 08:00-15:00, Mo-Th 08:00-12:00",
                "website": "https://www.raiffeisen.at/graz-strassgang/"
              },
              "geometry": {
                "type": "Point",
                "coordinates": [
                  15.4003371,
                  47.0246384
                ]
              }
            },
            {
              "type": "Feature",
              "properties": {
                "id": "1078523752",
                "osm_type": "node",
                "lat": 46.9757553,
                "lon": 15.403776,
                "addr:city": "Premstätten",
                "addr:housenumber": "103",
                "addr:postcode": "8141",
                "addr:street": "Hauptstraße",
                "amenity": "bank",
                "atm": "yes",
                "brand": "Steiermärkische Sparkasse",
                "brand:wikidata": "Q1555572",
                "drive_through": "no",
                "name": "Steiermärkische Sparkasse",
                "opening_hours": "Mo-Fr 08:30-12:30; Fr 14:00-16:00; Sa,Su,PH off",
                "operator": "Steiermärkische Bank und Sparkassen AG",
                "phone": "+43 5 0100 36052",
                "website": "https://www.sparkasse.at/steiermaerkische/privatkunden"
              },
              "geometry": {
                "type": "Point",
                "coordinates": [
                  15.403776,
                  46.9757553
                ]
              }
            },
            {
              "type": "Feature",
              "properties": {
                "id": "1388336296",
                "osm_type": "node",
                "lat": 47.0228824,
                "lon": 15.4001095,
                "amenity": "bank",
                "atm": "yes",
                "brand": "Bank Austria",
                "brand:wikidata": "Q697619",
                "brand:wikipedia": "en:Bank Austria",
                "name": "Bank Austria"
              },
              "geometry": {
                "type": "Point",
                "coordinates": [
                  15.4001095,
                  47.0228824
                ]
              }
            },
            {
              "type": "Feature",
              "properties": {
                "id": "1388337200",
                "osm_type": "node",
                "lat": 47.0221073,
                "lon": 15.400053,
                "amenity": "bank",
                "atm": "yes",
                "name": "Volksbank"
              },
              "geometry": {
                "type": "Point",
                "coordinates": [
                  15.400053,
                  47.0221073
                ]
              }
            },
            {
              "type": "Feature",
              "properties": {
                "id": "1388337613",
                "osm_type": "node",
                "lat": 47.0279774,
                "lon": 15.4331316,
                "addr:city": "Graz",
                "addr:country": "AT",
                "addr:housenumber": "368",
                "addr:postcode": "8055",
                "addr:street": "Triester Straße",
                "amenity": "bank",
                "atm": "yes",
                "brand": "Raiffeisen",
                "brand:wikidata": "Q2127528",
                "brand:wikipedia": "cs:Raiffeisenbank",
                "name": "Raiffeisen",
                "opening_hours": "Mo-Th 08:00-12:30,14:00-16:00; Fr 08:00-15:00",
                "phone": "+43 316 2550 2600",
                "website": "https://www.rb-strassgang.at/"
              },
              "geometry": {
                "type": "Point",
                "coordinates": [
                  15.4331316,
                  47.0279774
                ]
              }
            },
            {
              "type": "Feature",
              "properties": {
                "id": "1742823846",
                "osm_type": "node",
                "lat": 46.9443205,
                "lon": 15.330606,
                "addr:city": "Lannach",
                "addr:housenumber": "11",
                "addr:postcode": "8502",
                "addr:street": "Franz-Kandler-Straße",
                "amenity": "bank",
                "atm": "yes",
                "drive_through": "no",
                "ele": "320",
                "name": "Raiffeisenbank Lieboch-Stainz, Bankstelle Lannach",
                "operator": "Raiffeisenbank Lieboch-Stainz"
              },
              "geometry": {
                "type": "Point",
                "coordinates": [
                  15.330606,
                  46.9443205
                ]
              }
            },
            {
              "type": "Feature",
              "properties": {
                "id": "1769427045",
                "osm_type": "node",
                "lat": 46.9743539,
                "lon": 15.3345377,
                "addr:city": "Lieboch",
                "addr:country": "AT",
                "addr:housenumber": "113",
                "addr:postcode": "8501",
                "addr:street": "Packer Straße",
                "amenity": "bank",
                "atm": "yes",
                "brand": "Steiermärkische Sparkasse",
                "brand:wikidata": "Q1555572",
                "drive_through": "no",
                "name": "Steiermärkische Sparkasse",
                "opening_hours": "Mo-Fr 08:30-12:30; Fr 14:00-16:00; Sa,Su,PH off",
                "operator": "Steiermärkische Bank und Sparkassen AG",
                "phone": "+43 5 0100 36050",
                "website": "https://www.sparkasse.at/steiermaerkische/privatkunden"
              },
              "geometry": {
                "type": "Point",
                "coordinates": [
                  15.3345377,
                  46.9743539
                ]
              }
            },
            {
              "type": "Feature",
              "properties": {
                "id": "1769475503",
                "osm_type": "node",
                "lat": 46.9712077,
                "lon": 15.3413003,
                "addr:city": "Lieboch",
                "addr:country": "AT",
                "addr:housenumber": "69",
                "addr:postcode": "8501",
                "addr:street": "Packer Straße",
                "amenity": "bank",
                "at_bev:addr_date": "2018-10-01",
                "brand": "Volksbank",
                "brand:wikidata": "Q695110",
                "name": "Volksbank"
              },
              "geometry": {
                "type": "Point",
                "coordinates": [
                  15.3413003,
                  46.9712077
                ]
              }
            },
            {
              "type": "Feature",
              "properties": {
                "id": "2061772777",
                "osm_type": "node",
                "lat": 46.9724782,
                "lon": 15.4976061,
                "addr:city": "Fernitz",
                "addr:housenumber": "1",
                "addr:postcode": "8072",
                "addr:street": "Peter-Rosegger-Straße",
                "amenity": "bank",
                "check_date": "2025-04-02",
                "name": "Raiffeisenbank",
                "opening_hours": "Mo-Tu, Th 08:00-12:00, 14:00-16:00; Fr 08:00-12:00, 13:00-15:00; We 08:00-12:00",
                "phone": "+4331354621210",
                "website": "https://www.raiffeisen.at/hausmannstaetten/889247615151899417_889249607748294071-889249607748294071-NA-30-NA.html"
              },
              "geometry": {
                "type": "Point",
                "coordinates": [
                  15.4976061,
                  46.9724782
                ]
              }
            },
            {
              "type": "Feature",
              "properties": {
                "id": "2073023061",
                "osm_type": "node",
                "lat": 47.0098959,
                "lon": 15.3988313,
                "addr:housenumber": "550",
                "addr:postcode": "8054",
                "addr:street": "Kärntner Straße",
                "amenity": "bank",
                "brand": "Raiffeisenbank",
                "brand:wikidata": "Q24282825",
                "brand:wikipedia": "cs:Raiffeisenbank",
                "name": "Raiffeisenbank"
              },
              "geometry": {
                "type": "Point",
                "coordinates": [
                  15.3988313,
                  47.0098959
                ]
              }
            },
            {
              "type": "Feature",
              "properties": {
                "id": "2902593236",
                "osm_type": "node",
                "lat": 46.9910336,
                "lon": 15.5078159,
                "addr:city": "Hausmannstätten",
                "addr:housenumber": "4",
                "addr:postcode": "8071",
                "addr:street": "Marktplatz",
                "amenity": "bank",
                "atm": "yes",
                "brand": "Steiermärkische Sparkasse",
                "brand:wikidata": "Q1555572",
                "brand:wikipedia": "de:Steiermärkische Sparkasse",
                "drive_through": "no",
                "name": "Steiermärkische Sparkasse",
                "opening_hours": "Mo-Fr 08:30-12:30; Fr 14:00-16:00; Sa,Su,PH off",
                "operator": "Steiermärkische Bank und Sparkassen AG",
                "phone": "+43 5 0100 36054",
                "website": "https://www.sparkasse.at/steiermaerkische/privatkunden"
              },
              "geometry": {
                "type": "Point",
                "coordinates": [
                  15.5078159,
                  46.9910336
                ]
              }
            },
            {
              "type": "Feature",
              "properties": {
                "id": "3906586431",
                "osm_type": "node",
                "lat": 47.0041502,
                "lon": 15.26483,
                "addr:city": "Söding-Sankt Johann",
                "addr:country": "AT",
                "addr:housenumber": "183",
                "addr:postcode": "8561",
                "addr:street": "Packerstraße",
                "amenity": "bank",
                "atm": "yes",
                "brand": "Steiermärkische Sparkasse",
                "brand:wikidata": "Q1555572",
                "drive_through": "no",
                "name": "Steiermärkische Sparkasse",
                "opening_hours": "Mo-Th 08:00-12:00; Mo 14:00-16:30; We 14:00-18:00; Fr 08:00-15:30; Sa,Su,PH off",
                "operator": "Sparkasse Voitsberg-Köflach Bank AG",
                "phone": "+43 5 0100 37640",
                "website": "https://www.sparkasse.at/voitsberg-koeflach/privatkunden"
              },
              "geometry": {
                "type": "Point",
                "coordinates": [
                  15.26483,
                  47.0041502
                ]
              }
            },
            {
              "type": "Feature",
              "properties": {
                "id": "4080440035",
                "osm_type": "node",
                "lat": 46.9220981,
                "lon": 15.4812628,
                "amenity": "bank",
                "atm": "yes",
                "name": "Steiermärkische Bank und Sparkassen AG;SB-Filiale",
                "operator": "Steiermärkische Bank und Sparkassen AG"
              },
              "geometry": {
                "type": "Point",
                "coordinates": [
                  15.4812628,
                  46.9220981
                ]
              }
            },
            {
              "type": "Feature",
              "properties": {
                "id": "5210159087",
                "osm_type": "node",
                "lat": 47.0292367,
                "lon": 15.4950161,
                "addr:city": "Raaba",
                "addr:country": "AT",
                "addr:housenumber": "2",
                "addr:postcode": "8074",
                "addr:street": "Dr.-Auner-Straße",
                "amenity": "bank",
                "atm": "yes",
                "brand": "bank99",
                "brand:wikidata": "Q91200481",
                "brand:wikipedia": "de:Bank99",
                "check_date:opening_hours": "2024-07-21",
                "drive_through": "no",
                "name": "bank99",
                "opening_hours": "Mo-Fr 08:00-12:00,14:00-17:30; Sa,Su,PH off",
                "operator": "bank99 AG",
                "website": "https://www.bank99.at"
              },
              "geometry": {
                "type": "Point",
                "coordinates": [
                  15.4950161,
                  47.0292367
                ]
              }
            },
            {
              "type": "Feature",
              "properties": {
                "id": "5872005632",
                "osm_type": "node",
                "lat": 47.0233191,
                "lon": 15.4690772,
                "addr:city": "Graz",
                "addr:country": "AT",
                "addr:housenumber": "273",
                "addr:postcode": "8041",
                "addr:street": "Liebenauer Hauptstraße",
                "amenity": "bank",
                "atm": "yes",
                "bic": "VBOEATWWGRA",
                "brand": "Volksbank",
                "name": "Volksbank Thondorf",
                "opening_hours": "Mo,We 08:30-12:00,14:00-16:30; Tu,Th 08:30-12:00; Fr 08:30-12:00,14:00-16:00",
                "operator": "Volksbank Steiermark AG",
                "wheelchair": "yes"
              },
              "geometry": {
                "type": "Point",
                "coordinates": [
                  15.4690772,
                  47.0233191
                ]
              }
            },
            {
              "type": "Feature",
              "properties": {
                "id": "7522425027",
                "osm_type": "node",
                "lat": 46.9738961,
                "lon": 15.4032856,
                "addr:city": "Premstätten",
                "addr:country": "AT",
                "addr:housenumber": "124a",
                "addr:postcode": "8141",
                "addr:street": "Hauptstraße",
                "amenity": "bank",
                "at_bev:addr_date": "2020-10-01",
                "atm": "yes",
                "brand": "bank99",
                "brand:wikidata": "Q91200481",
                "drive_through": "no",
                "name": "bank99",
                "opening_hours": "Mo-Fr 08:00-12:00, 14:00-17:30; Sa,Su,PH off",
                "operator": "bank99 AG",
                "website": "https://www.bank99.at"
              },
              "geometry": {
                "type": "Point",
                "coordinates": [
                  15.4032856,
                  46.9738961
                ]
              }
            },
            {
              "type": "Feature",
              "properties": {
                "id": "7522425028",
                "osm_type": "node",
                "lat": 46.9735196,
                "lon": 15.3363901,
                "addr:city": "Lieboch",
                "addr:housenumber": "1",
                "addr:postcode": "8501",
                "addr:street": "Marktplatz",
                "amenity": "bank",
                "atm": "yes",
                "brand": "bank99",
                "brand:wikidata": "Q91200481",
                "brand:wikipedia": "de:Bank99",
                "drive_through": "no",
                "name": "bank99",
                "opening_hours": "Mo-Fr 08:00-12:00, 14:00-17:30; Sa,Su,PH off",
                "operator": "bank99 AG",
                "website": "https://www.bank99.at"
              },
              "geometry": {
                "type": "Point",
                "coordinates": [
                  15.3363901,
                  46.9735196
                ]
              }
            },
            {
              "type": "Feature",
              "properties": {
                "id": "7522425029",
                "osm_type": "node",
                "lat": 47.0113233,
                "lon": 15.4431127,
                "addr:city": "Feldkirchen bei Graz",
                "addr:country": "AT",
                "addr:housenumber": "1",
                "addr:postcode": "8073",
                "addr:street": "Marktplatz",
                "amenity": "bank",
                "atm": "yes",
                "brand": "bank99",
                "brand:wikidata": "Q91200481",
                "drive_through": "no",
                "name": "bank99",
                "opening_hours": "Mo-Fr 08:00-12:00,14:00-17:30; Sa,Su,PH off",
                "operator": "bank99 AG",
                "website": "https://www.bank99.at"
              },
              "geometry": {
                "type": "Point",
                "coordinates": [
                  15.4431127,
                  47.0113233
                ]
              }
            },
            {
              "type": "Feature",
              "properties": {
                "id": "7531300133",
                "osm_type": "node",
                "lat": 47.0252993,
                "lon": 15.4010041,
                "addr:city": "Graz",
                "addr:country": "AT",
                "addr:housenumber": "391",
                "addr:postcode": "8054",
                "addr:street": "Kärntner Straße",
                "amenity": "bank",
                "atm": "yes",
                "brand": "bank99",
                "brand:wikidata": "Q91200481",
                "drive_through": "no",
                "name": "bank99",
                "opening_hours": "Mo-Fr 08:00-12:00,14:00-17:30; Sa,Su,PH off",
                "operator": "bank99 AG",
                "website": "https://www.bank99.at"
              },
              "geometry": {
                "type": "Point",
                "coordinates": [
                  15.4010041,
                  47.0252993
                ]
              }
            },
            {
              "type": "Feature",
              "properties": {
                "id": "7531649038",
                "osm_type": "node",
                "lat": 47.0285582,
                "lon": 15.432725,
                "addr:city": "Graz",
                "addr:country": "AT",
                "addr:housenumber": "364",
                "addr:postcode": "8055",
                "addr:street": "Triester Straße",
                "amenity": "bank",
                "atm": "yes",
                "brand": "bank99",
                "brand:wikidata": "Q91200481",
                "brand:wikipedia": "de:Bank99",
                "drive_through": "no",
                "name": "bank99",
                "opening_hours": "Mo-Fr 08:00-12:00, 14:00-17:30; Sa,Su,PH off",
                "operator": "bank99 AG",
                "website": "https://www.bank99.at"
              },
              "geometry": {
                "type": "Point",
                "coordinates": [
                  15.432725,
                  47.0285582
                ]
              }
            },
            {
              "type": "Feature",
              "properties": {
                "id": "9750235394",
                "osm_type": "node",
                "lat": 47.012156,
                "lon": 15.4102378,
                "amenity": "bank",
                "atm": "yes",
                "brand": "Steiermärkische Sparkasse",
                "brand:wikidata": "Q1555572",
                "level": "0",
                "name": "Steiermärkische Sparkasse"
              },
              "geometry": {
                "type": "Point",
                "coordinates": [
                  15.4102378,
                  47.012156
                ]
              }
            },
            {
              "type": "Feature",
              "properties": {
                "id": "85795198",
                "osm_type": "node",
                "lat": 47.012715,
                "lon": 15.5543794,
                "addr:city": "Vasoldsberg",
                "addr:country": "AT",
                "addr:housenumber": "33",
                "addr:place": "Vasoldsberg",
                "addr:postcode": "8076",
                "amenity": "bank",
                "at_bev:addr_date": "2022-10-01",
                "atm": "yes",
                "name": "Raika",
                "operator": "Raiffeisen"
              },
              "geometry": {
                "type": "Point",
                "coordinates": [
                  15.5543794,
                  47.012715
                ]
              }
            },
            {
              "type": "Feature",
              "properties": {
                "id": "1259861059",
                "osm_type": "node",
                "lat": 46.9308903,
                "lon": 15.6626606,
                "addr:city": "Kirchbach-Zerlach",
                "addr:housename": "Sparkasse Kirchbach",
                "addr:housenumber": "10",
                "addr:place": "Kirchbach",
                "addr:postcode": "8082",
                "amenity": "bank",
                "atm": "yes",
                "brand": "Steiermärkische Sparkasse",
                "brand:wikidata": "Q1555572",
                "brand:wikipedia": "de:Steiermärkische Sparkasse",
                "drive_through": "no",
                "name": "Steiermärkische Sparkasse",
                "opening_hours": "Mo-Fr 08:30-12:00; Mo,Fr 14:00-16:30; Sa,Su,PH off",
                "operator": "Steiermärkische Bank und Sparkassen AG",
                "phone": "+43 5 0100 36274",
                "website": "https://www.sparkasse.at/steiermaerkische/privatkunden"
              },
              "geometry": {
                "type": "Point",
                "coordinates": [
                  15.6626606,
                  46.9308903
                ]
              }
            },
            {
              "type": "Feature",
              "properties": {
                "id": "1259865752",
                "osm_type": "node",
                "lat": 46.9317021,
                "lon": 15.662185,
                "addr:housenumber": "15",
                "addr:place": "Kirchbach in Steiermark",
                "addr:postcode": "8082",
                "amenity": "bank",
                "brand": "Raiffeisenbank",
                "brand:wikidata": "Q7283807",
                "brand:wikipedia": "de:Raiffeisen_Bankengruppe_(Österreich)",
                "name": "Raiffeisenbank",
                "operator": "Raiffeisenbank Heiligenkreuz-Kirchbach eGen",
                "phone": "+433116 2255"
              },
              "geometry": {
                "type": "Point",
                "coordinates": [
                  15.662185,
                  46.9317021
                ]
              }
            },
            {
              "type": "Feature",
              "properties": {
                "id": "2085740888",
                "osm_type": "node",
                "lat": 47.0179783,
                "lon": 15.6884631,
                "addr:city": "Sankt Marein bei Graz",
                "addr:country": "AT",
                "addr:housenumber": "108",
                "addr:postcode": "8323",
                "addr:street": "Markt",
                "amenity": "bank",
                "atm": "yes",
                "brand": "Raiffeisen",
                "brand:wikidata": "Q22093483",
                "brand:wikipedia": "de:Raiffeisen_Bankengruppe_(Österreich)",
                "contact:email": "info@wearebanking.at",
                "contact:phone": "+43 3133 2202-240",
                "name": "Raiffeisen",
                "operator": "Raiffeisenbank Nestelbach-Eggersdorf",
                "website": "https://www.raiffeisen.at/stmk/nestelbach-eggersdorf/de/meine-bank/bankstellen/st-marein-bei-graz.html",
                "wheelchair": "yes"
              },
              "geometry": {
                "type": "Point",
                "coordinates": [
                  15.6884631,
                  47.0179783
                ]
              }
            },
            {
              "type": "Feature",
              "properties": {
                "id": "2330882315",
                "osm_type": "node",
                "lat": 46.9138958,
                "lon": 15.5531701,
                "addr:city": "Allerheiligen bei Wildon",
                "addr:housenumber": "152",
                "addr:postcode": "8412",
                "addr:street": "Allerheiligen bei Wildon",
                "amenity": "bank",
                "atm": "yes",
                "name": "Raiffeisen",
                "operator": "Raiffeisenbank Wildon-Lebring",
                "phone": "+31828234"
              },
              "geometry": {
                "type": "Point",
                "coordinates": [
                  15.5531701,
                  46.9138958
                ]
              }
            },
            {
              "type": "Feature",
              "properties": {
                "id": "4969155957",
                "osm_type": "node",
                "lat": 46.9025529,
                "lon": 15.711919,
                "addr:city": "St. Stefan im Rosental",
                "addr:housenumber": "23",
                "addr:postcode": "8083",
                "addr:street": "Mureckerstraße",
                "amenity": "bank",
                "atm": "yes",
                "drive_through": "no",
                "name": "Raiffeisenbank St. Stefan-Jagerberg-Wolfsberg, Hauptanstalt St. Stefan im Rosental",
                "opening_hours": "PH,Sa,Su off; Mo,Tu,Th,Fr 08:30-12:00,14:00-16:30; We 08:30-12:00",
                "operator": "Raiffeisenbank St. Stefan-Jagerberg-Wolfsberg",
                "website": "https://www.raiffeisen.at/stmk/st-stefan-rosental"
              },
              "geometry": {
                "type": "Point",
                "coordinates": [
                  15.711919,
                  46.9025529
                ]
              }
            }
          ],
          "children": []
        },
        {
          "bbox": {
            "south": 46.868481875,
            "west": 15.73002475,
            "north": 47.033758500000005,
            "east": 16.2068765
          },
          "poiCount": 20,
          "leafCount": 20,
          "averagePosition": [
            15.950670650000001,
            46.93528818
          ],
          "data": [
            {
              "type": "Feature",
              "properties": {
                "id": "854670399",
                "osm_type": "node",
                "lat": 46.8706533,
                "lon": 15.9029071,
                "addr:city": "Bad Gleichenberg",
                "addr:housenumber": "4",
                "addr:postcode": "8344",
                "addr:street": "Grazer Straße",
                "amenity": "bank",
                "atm": "yes",
                "brand": "Steiermärkische Sparkasse",
                "brand:wikidata": "Q1555572",
                "brand:wikipedia": "de:Steiermärkische Sparkasse",
                "drive_through": "no",
                "name": "Steiermärkische Sparkasse",
                "opening_hours": "Mo-Fr 08:30-12:00; Mo,Tu,Fr 14:30-16:30; Sa,Su,PH off",
                "operator": "Steiermärkische Bank und Sparkassen AG",
                "phone": "+43 5 0100 36275",
                "website": "https://www.sparkasse.at/steiermaerkische/privatkunden"
              },
              "geometry": {
                "type": "Point",
                "coordinates": [
                  15.9029071,
                  46.8706533
                ]
              }
            },
            {
              "type": "Feature",
              "properties": {
                "id": "1726062258",
                "osm_type": "node",
                "lat": 46.8713326,
                "lon": 15.902946,
                "amenity": "bank",
                "atm": "yes",
                "name": "Raiffeisenbank Bad Gleichenberg"
              },
              "geometry": {
                "type": "Point",
                "coordinates": [
                  15.902946,
                  46.8713326
                ]
              }
            },
            {
              "type": "Feature",
              "properties": {
                "id": "5173545245",
                "osm_type": "node",
                "lat": 46.8686013,
                "lon": 16.0303474,
                "addr:city": "Neuhaus am Klausenbach",
                "addr:country": "AT",
                "addr:housenumber": "14",
                "addr:postcode": "8385",
                "addr:street": "Hauptstraße",
                "amenity": "bank",
                "atm": "yes",
                "brand": "Raiffeisenbank",
                "name": "Raiffeisenbank",
                "operator": "Raiffeisen"
              },
              "geometry": {
                "type": "Point",
                "coordinates": [
                  16.0303474,
                  46.8686013
                ]
              }
            },
            {
              "type": "Feature",
              "properties": {
                "id": "7532601734",
                "osm_type": "node",
                "lat": 46.8708511,
                "lon": 15.9035148,
                "addr:city": "Bad Gleichenberg",
                "addr:housenumber": "6",
                "addr:postcode": "8344",
                "addr:street": "Grazer Straße",
                "amenity": "bank",
                "atm": "yes",
                "brand": "bank99",
                "brand:wikidata": "Q91200481",
                "brand:wikipedia": "de:Bank99",
                "drive_through": "no",
                "name": "bank99",
                "opening_hours": "Mo-Fr 08:00-12:00, 14:00-17:30; Sa,Su,PH off",
                "operator": "bank99 AG",
                "website": "https://www.bank99.at"
              },
              "geometry": {
                "type": "Point",
                "coordinates": [
                  15.9035148,
                  46.8708511
                ]
              }
            },
            {
              "type": "Feature",
              "properties": {
                "id": "449116781",
                "osm_type": "node",
                "lat": 47.0300666,
                "lon": 15.9580205,
                "addr:city": "Breitenfeld an der Rittschein",
                "addr:housenumber": "22",
                "addr:place": "Breitenfeld",
                "addr:postcode": "8313",
                "amenity": "bank",
                "atm": "yes",
                "brand": "Raiffeisenbank",
                "name": "Raiffeisenbank Breitenfeld an der Rittschein",
                "operator": "Raiffeisenbank Ilz-Großsteinbach-Riegersburg"
              },
              "geometry": {
                "type": "Point",
                "coordinates": [
                  15.9580205,
                  47.0300666
                ]
              }
            },
            {
              "type": "Feature",
              "properties": {
                "id": "866523973",
                "osm_type": "node",
                "lat": 46.9527673,
                "lon": 15.8875765,
                "amenity": "bank",
                "atm": "yes",
                "brand": "Raiffeisenbank",
                "brand:wikidata": "Q24282825",
                "brand:wikipedia": "cs:Raiffeisenbank",
                "name": "Raiffeisenbank Feldbach",
                "wheelchair": "yes"
              },
              "geometry": {
                "type": "Point",
                "coordinates": [
                  15.8875765,
                  46.9527673
                ]
              }
            },
            {
              "type": "Feature",
              "properties": {
                "id": "866530250",
                "osm_type": "node",
                "lat": 46.9531283,
                "lon": 15.8890075,
                "addr:city": "Feldbach",
                "addr:housenumber": "8",
                "addr:postcode": "8330",
                "addr:street": "Hauptplatz",
                "amenity": "bank",
                "atm": "yes",
                "name": "Volksbank"
              },
              "geometry": {
                "type": "Point",
                "coordinates": [
                  15.8890075,
                  46.9531283
                ]
              }
            },
            {
              "type": "Feature",
              "properties": {
                "id": "866532224",
                "osm_type": "node",
                "lat": 46.9536468,
                "lon": 15.8889569,
                "addr:city": "Feldbach",
                "addr:housenumber": "4",
                "addr:place": "Hauptplatz",
                "addr:postcode": "8330",
                "amenity": "bank",
                "atm": "yes",
                "brand": "Bank Austria",
                "brand:wikidata": "Q697619",
                "brand:wikipedia": "en:Bank Austria",
                "name": "Bank Austria"
              },
              "geometry": {
                "type": "Point",
                "coordinates": [
                  15.8889569,
                  46.9536468
                ]
              }
            },
            {
              "type": "Feature",
              "properties": {
                "id": "866534225",
                "osm_type": "node",
                "lat": 46.9539428,
                "lon": 15.8884257,
                "addr:city": "Feldbach",
                "addr:housenumber": "30",
                "addr:postcode": "8330",
                "addr:street": "Hauptplatz",
                "amenity": "bank",
                "atm": "yes",
                "brand": "bank99",
                "brand:wikidata": "Q91200481",
                "brand:wikipedia": "de:Bank99",
                "drive_through": "no",
                "name": "bank99",
                "opening_hours": "Mo-Fr 08:00-12:00,14:00-17:30; PH,Sa,Su off",
                "operator": "bank99 AG",
                "website": "https://www.bank99.at"
              },
              "geometry": {
                "type": "Point",
                "coordinates": [
                  15.8884257,
                  46.9539428
                ]
              }
            },
            {
              "type": "Feature",
              "properties": {
                "id": "1248107846",
                "osm_type": "node",
                "lat": 46.883741,
                "lon": 15.9732888,
                "addr:city": "Kapfenstein",
                "addr:housenumber": "125",
                "addr:place": "Kapfenstein",
                "addr:postcode": "8353",
                "amenity": "bank",
                "name": "Raiffeisenbank Kapfenstein"
              },
              "geometry": {
                "type": "Point",
                "coordinates": [
                  15.9732888,
                  46.883741
                ]
              }
            },
            {
              "type": "Feature",
              "properties": {
                "id": "1637029816",
                "osm_type": "node",
                "lat": 46.9364293,
                "lon": 16.0112903,
                "addr:country": "AT",
                "addr:postcode": "8350",
                "amenity": "bank",
                "atm": "yes",
                "brand": "Raiffeisenbank",
                "name": "Raiffeisenbank Fehring"
              },
              "geometry": {
                "type": "Point",
                "coordinates": [
                  16.0112903,
                  46.9364293
                ]
              }
            },
            {
              "type": "Feature",
              "properties": {
                "id": "1961331308",
                "osm_type": "node",
                "lat": 46.9409235,
                "lon": 15.7978131,
                "addr:country": "AT",
                "addr:housenumber": "40",
                "addr:place": "Paldau",
                "addr:postcode": "8341",
                "amenity": "bank",
                "brand": "Raiffeisenbank",
                "name": "Raiffeisenbank",
                "opening_hours": "Mo,Tu,Th,Fr 08:00-12:00,14:00-16:30; We 08:00-12:00",
                "operator": "Raiffeisenbank Mittleres Raabtal eGen",
                "phone": "+433150 5150 0"
              },
              "geometry": {
                "type": "Point",
                "coordinates": [
                  15.7978131,
                  46.9409235
                ]
              }
            },
            {
              "type": "Feature",
              "properties": {
                "id": "1968974494",
                "osm_type": "node",
                "lat": 46.9570811,
                "lon": 15.8888013,
                "addr:city": "Feldbach",
                "addr:housenumber": "12",
                "addr:postcode": "8330",
                "addr:street": "Franz-Josef-Straße",
                "amenity": "bank",
                "name": "BKS"
              },
              "geometry": {
                "type": "Point",
                "coordinates": [
                  15.8888013,
                  46.9570811
                ]
              }
            },
            {
              "type": "Feature",
              "properties": {
                "id": "2497876543",
                "osm_type": "node",
                "lat": 46.8728738,
                "lon": 15.8268754,
                "addr:city": "Gnas",
                "addr:country": "AT",
                "addr:housenumber": "8",
                "addr:place": "Gnas",
                "addr:postcode": "8342",
                "amenity": "bank",
                "atm": "yes",
                "brand": "Steiermärkische Sparkasse",
                "brand:wikidata": "Q1555572",
                "brand:wikipedia": "de:Steiermärkische Sparkasse",
                "check_date": "2023-04-16",
                "drive_through": "no",
                "name": "Steiermärkische Sparkasse",
                "opening_hours": "Mo-Fr 08:30-12:00; Mo,We,Fr 14:00-16:00; Sa,Su,PH off",
                "operator": "Steiermärkische Bank und Sparkassen AG",
                "phone": "+43 5 0100 36276",
                "website": "https://www.sparkasse.at/steiermaerkische/privatkunden"
              },
              "geometry": {
                "type": "Point",
                "coordinates": [
                  15.8268754,
                  46.8728738
                ]
              }
            },
            {
              "type": "Feature",
              "properties": {
                "id": "9360267070",
                "osm_type": "node",
                "lat": 46.9526232,
                "lon": 15.8879638,
                "amenity": "bank",
                "atm": "yes",
                "brand": "BKS",
                "name": "BKS",
                "operator": "Bank für Kärnten und Steiermark"
              },
              "geometry": {
                "type": "Point",
                "coordinates": [
                  15.8879638,
                  46.9526232
                ]
              }
            },
            {
              "type": "Feature",
              "properties": {
                "id": "9804716191",
                "osm_type": "node",
                "lat": 46.9989048,
                "lon": 15.9366869,
                "amenity": "bank",
                "atm": "yes",
                "brand": "Raiffeisen",
                "brand:wikidata": "Q22093483",
                "name": "Raiffeisen"
              },
              "geometry": {
                "type": "Point",
                "coordinates": [
                  15.9366869,
                  46.9989048
                ]
              }
            },
            {
              "type": "Feature",
              "properties": {
                "id": "316774056",
                "osm_type": "node",
                "lat": 46.9373328,
                "lon": 16.1392949,
                "addr:city": "Jennersdorf",
                "addr:country": "AT",
                "addr:housenumber": "4",
                "addr:postcode": "8380",
                "addr:street": "Hauptstraße",
                "amenity": "bank",
                "atm": "yes",
                "brand": "Erste Bank",
                "brand:wikidata": "Q696867",
                "brand:wikipedia": "de:Erste Bank",
                "check_date": "2025-07-30",
                "name": "Erste Bank",
                "operator": "Erste Bank"
              },
              "geometry": {
                "type": "Point",
                "coordinates": [
                  16.1392949,
                  46.9373328
                ]
              }
            },
            {
              "type": "Feature",
              "properties": {
                "id": "340518877",
                "osm_type": "node",
                "lat": 46.9368158,
                "lon": 16.1315237,
                "addr:city": "Jennersdorf",
                "addr:country": "AT",
                "addr:housenumber": "53",
                "addr:postcode": "8380",
                "addr:street": "Hauptstraße",
                "amenity": "bank",
                "atm": "yes",
                "brand": "bank99",
                "brand:wikidata": "Q91200481",
                "brand:wikipedia": "de:Bank99",
                "drive_through": "no",
                "name": "bank99",
                "opening_hours": "Mo-Fr 08:00-12:00, 14:00-17:00; Sa,Su,PH off",
                "operator": "bank99 AG",
                "website": "https://www.bank99.at"
              },
              "geometry": {
                "type": "Point",
                "coordinates": [
                  16.1315237,
                  46.9368158
                ]
              }
            },
            {
              "type": "Feature",
              "properties": {
                "id": "539354333",
                "osm_type": "node",
                "lat": 46.9790082,
                "lon": 16.0577156,
                "amenity": "bank",
                "atm": "yes",
                "brand": "Raiffeisen",
                "name": "Raiffeisen",
                "operator": "Raiffeisen"
              },
              "geometry": {
                "type": "Point",
                "coordinates": [
                  16.0577156,
                  46.9790082
                ]
              }
            },
            {
              "type": "Feature",
              "properties": {
                "id": "4978915246",
                "osm_type": "node",
                "lat": 46.98504,
                "lon": 16.1104568,
                "amenity": "bank"
              },
              "geometry": {
                "type": "Point",
                "coordinates": [
                  16.1104568,
                  46.98504
                ]
              }
            }
          ],
          "children": []
        }
      ]
    },
    {
      "bbox": {
        "south": 46.70320525,
        "west": 16.2068765,
        "north": 47.033758500000005,
        "east": 17.16058
      },
      "poiCount": 28,
      "leafCount": 28,
      "averagePosition": [
        16.728392789285714,
        46.87248217857143
      ],
      "data": [
        {
          "type": "Feature",
          "properties": {
            "id": "3009569283",
            "osm_type": "node",
            "lat": 46.838573,
            "lon": 16.4217984,
            "amenity": "bank",
            "atm": "yes",
            "brand": "OTP Bank",
            "name": "OTP Bank",
            "website": "https://www.otpbank.hu"
          },
          "geometry": {
            "type": "Point",
            "coordinates": [
              16.4217984,
              46.838573
            ]
          }
        },
        {
          "type": "Feature",
          "properties": {
            "id": "3009569284",
            "osm_type": "node",
            "lat": 46.8385171,
            "lon": 16.4220189,
            "amenity": "bank",
            "atm": "yes",
            "brand": "MBH Bank",
            "name": "MBH Bank",
            "old_name": "Savaria Takarékszövetkezet;Takarékbank",
            "opening_hours": "Mo-Th 07:40-15:40; Fr 07:40-14:40; PH off",
            "operator": "MBH Bank",
            "operator:addr": "1056 Budapest, Váci utca 38.",
            "website": "https://www.takarek.hu/"
          },
          "geometry": {
            "type": "Point",
            "coordinates": [
              16.4220189,
              46.8385171
            ]
          }
        },
        {
          "type": "Feature",
          "properties": {
            "id": "3017485266",
            "osm_type": "node",
            "lat": 46.8419885,
            "lon": 16.8466583,
            "addr:city": "Zalaegerszeg",
            "addr:housenumber": "7",
            "addr:postcode": "8900",
            "addr:street": "Dísz tér",
            "amenity": "bank",
            "atm": "yes",
            "name": "MBH Bank"
          },
          "geometry": {
            "type": "Point",
            "coordinates": [
              16.8466583,
              46.8419885
            ]
          }
        },
        {
          "type": "Feature",
          "properties": {
            "id": "3446767176",
            "osm_type": "node",
            "lat": 46.720334,
            "lon": 17.010412,
            "amenity": "bank",
            "name": "Takarékszövetkezet",
            "source": "turistautak.hu",
            "source:date": "2011-09-19",
            "url": "http://turistautak.hu/poi.php?id=107555"
          },
          "geometry": {
            "type": "Point",
            "coordinates": [
              17.010412,
              46.720334
            ]
          }
        },
        {
          "type": "Feature",
          "properties": {
            "id": "4143681130",
            "osm_type": "node",
            "lat": 46.8422731,
            "lon": 16.8460359,
            "amenity": "bank",
            "atm": "yes",
            "brand": "K&H Bank",
            "brand:wikidata": "Q6393834",
            "brand:wikipedia": "en:K&H Bank",
            "name": "K&H Bank"
          },
          "geometry": {
            "type": "Point",
            "coordinates": [
              16.8460359,
              46.8422731
            ]
          }
        },
        {
          "type": "Feature",
          "properties": {
            "id": "4795270101",
            "osm_type": "node",
            "lat": 46.8451805,
            "lon": 16.8466982,
            "amenity": "bank",
            "name": "Zalavölgye Takarék"
          },
          "geometry": {
            "type": "Point",
            "coordinates": [
              16.8466982,
              46.8451805
            ]
          }
        },
        {
          "type": "Feature",
          "properties": {
            "id": "4936702686",
            "osm_type": "node",
            "lat": 46.7669821,
            "lon": 16.7864364,
            "amenity": "bank"
          },
          "geometry": {
            "type": "Point",
            "coordinates": [
              16.7864364,
              46.7669821
            ]
          }
        },
        {
          "type": "Feature",
          "properties": {
            "id": "5153327862",
            "osm_type": "node",
            "lat": 46.8437998,
            "lon": 16.8452054,
            "amenity": "bank",
            "name": "MBH Bank",
            "opening_hours": "Mo 08:00-17:00; Tu-Th 08:00-16:00; Fr 08:00-15:00"
          },
          "geometry": {
            "type": "Point",
            "coordinates": [
              16.8452054,
              46.8437998
            ]
          }
        },
        {
          "type": "Feature",
          "properties": {
            "id": "6700635848",
            "osm_type": "node",
            "lat": 46.8437192,
            "lon": 16.8462739,
            "amenity": "bank",
            "brand": "Erste Bank",
            "brand:wikidata": "Q696867",
            "brand:wikipedia": "de:Erste Bank",
            "check_date:opening_hours": "2024-03-19",
            "name": "Erste Bank",
            "opening_hours": "Tu-Th 08:00-16:00; Mo 08:00-17:00; Fr 08:00-15:00"
          },
          "geometry": {
            "type": "Point",
            "coordinates": [
              16.8462739,
              46.8437192
            ]
          }
        },
        {
          "type": "Feature",
          "properties": {
            "id": "6760370751",
            "osm_type": "node",
            "lat": 46.843435,
            "lon": 16.845918,
            "addr:city": "Zalaegerszeg",
            "addr:housenumber": "2",
            "addr:postcode": "8900",
            "addr:street": "Kossuth Lajos utca",
            "air_conditioning": "yes",
            "amenity": "bank",
            "atm": "yes",
            "branch": "Zalaegerszeg",
            "brand": "MBH Bank",
            "name": "MBH Bank",
            "opening_hours": "Mo 08:00-17:00; Tu-Th 08:00-16:00; Fr 08:00-15:00; PH off",
            "operator": "MBH Bank",
            "operator:addr": "1056 Budapest, Váci utca 38.",
            "ref:HU:company": "01-10-041037",
            "ref:HU:vatin": "10196445-4-44",
            "ref:vatin": "HU10196445",
            "source": "website",
            "source:date": "2021-12-17"
          },
          "geometry": {
            "type": "Point",
            "coordinates": [
              16.845918,
              46.843435
            ]
          }
        },
        {
          "type": "Feature",
          "properties": {
            "id": "8197145638",
            "osm_type": "node",
            "lat": 46.84236,
            "lon": 16.84604,
            "addr:city": "Zalaegerszeg",
            "addr:housenumber": "8-10",
            "addr:postcode": "8900",
            "addr:street": "Kossuth Lajos utca",
            "air_conditioning": "yes",
            "amenity": "bank",
            "atm": "yes",
            "bic": "CIBHHUHB",
            "branch": "Zalaegerszegi fiók",
            "brand": "CIB Bank",
            "brand:wikidata": "Q839566",
            "brand:wikipedia": "hu:CIB Bank",
            "contact:email": "zala@cib.hu",
            "contact:phone": "+36 1 424 2242",
            "contact:website": "https://www.cib.hu",
            "fixme": "verify import;position",
            "name": "CIB Bank",
            "operator": "CIB Bank Zrt.",
            "operator:addr": "1027 Budapest, Medve u 4-14.",
            "ref:HU:company": "01-10-041004",
            "ref:HU:vatin": "10136915-4-44",
            "ref:vatin": "HU10136915",
            "source": "website;import",
            "source:date": "2023-11-12"
          },
          "geometry": {
            "type": "Point",
            "coordinates": [
              16.84604,
              46.84236
            ]
          }
        },
        {
          "type": "Feature",
          "properties": {
            "id": "9133237256",
            "osm_type": "node",
            "lat": 46.8432324,
            "lon": 16.8460035,
            "amenity": "bank",
            "brand": "MBH Bank",
            "brand:wikidata": "Q27493463",
            "brand:wikipedia": "en:Budapest Bank",
            "name": "MBH Bank",
            "opening_hours": "Mo 08:00-17:00; Tu-Th 08:00-16:00; Fr 08:00-15:00"
          },
          "geometry": {
            "type": "Point",
            "coordinates": [
              16.8460035,
              46.8432324
            ]
          }
        },
        {
          "type": "Feature",
          "properties": {
            "id": "9853129326",
            "osm_type": "node",
            "lat": 46.84107,
            "lon": 16.84602,
            "addr:city": "Zalaegerszeg",
            "addr:housenumber": "22",
            "addr:postcode": "8900",
            "addr:street": "Kossuth Lajos utca",
            "air_conditioning": "yes",
            "amenity": "bank",
            "atm": "yes",
            "brand": "MBH Bank",
            "contact:email": "k882@mkb.hu",
            "contact:phone": "+36 92 550 690",
            "contact:website": "https://lny.io/mkb-web-k88",
            "description": "Akadálymentesen megközelíthető fiók és ATM; Telefonszám: (92) 550-690;",
            "fixme": "verify import",
            "name": "MBH Bank",
            "old_name": "MKB Bank",
            "opening_hours": "Mo 08:00-17:00; Tu-Th 08:00-16:00; Fr 08:00-15:00; PH off",
            "operator": "MBH Bank",
            "operator:addr": "1056 Budapest, Váci utca 38.",
            "ref:HU:company": "01-10-040952",
            "ref:HU:vatin": "10011922-4-44",
            "ref:vatin": "HU10011922",
            "source": "website",
            "source:date": "2022-06-22",
            "wheelchair": "yes"
          },
          "geometry": {
            "type": "Point",
            "coordinates": [
              16.84602,
              46.84107
            ]
          }
        },
        {
          "type": "Feature",
          "properties": {
            "id": "11251468312",
            "osm_type": "node",
            "lat": 46.8627334,
            "lon": 16.8007565,
            "amenity": "bank"
          },
          "geometry": {
            "type": "Point",
            "coordinates": [
              16.8007565,
              46.8627334
            ]
          }
        },
        {
          "type": "Feature",
          "properties": {
            "id": "11758340319",
            "osm_type": "node",
            "lat": 46.7304485,
            "lon": 16.8465149,
            "amenity": "bank",
            "atm": "yes",
            "name": "MBH"
          },
          "geometry": {
            "type": "Point",
            "coordinates": [
              16.8465149,
              46.7304485
            ]
          }
        },
        {
          "type": "Feature",
          "properties": {
            "id": "11833209206",
            "osm_type": "node",
            "lat": 46.8404684,
            "lon": 16.8456336,
            "addr:city": "Zalaegerszeg",
            "addr:housenumber": "21-23",
            "addr:postcode": "8900",
            "addr:street": "Kossuth Lajos utca",
            "amenity": "bank",
            "brand": "Raiffeisen Bank",
            "brand:wikidata": "Q16522506",
            "name": "Raiffeisen Bank"
          },
          "geometry": {
            "type": "Point",
            "coordinates": [
              16.8456336,
              46.8404684
            ]
          }
        },
        {
          "type": "Feature",
          "properties": {
            "id": "12112721198",
            "osm_type": "node",
            "lat": 46.8416865,
            "lon": 16.846641,
            "amenity": "bank",
            "atm": "yes",
            "name": "MBH Bank"
          },
          "geometry": {
            "type": "Point",
            "coordinates": [
              16.846641,
              46.8416865
            ]
          }
        },
        {
          "type": "Feature",
          "properties": {
            "id": "2362065627",
            "osm_type": "node",
            "lat": 46.7269683,
            "lon": 17.1064989,
            "amenity": "bank",
            "name": "Takarékszövetkezet"
          },
          "geometry": {
            "type": "Point",
            "coordinates": [
              17.1064989,
              46.7269683
            ]
          }
        },
        {
          "type": "Feature",
          "properties": {
            "id": "1749651680",
            "osm_type": "node",
            "lat": 46.9527083,
            "lon": 16.2731515,
            "addr:city": "Szentgotthárd",
            "addr:housenumber": "2",
            "addr:postcode": "9970",
            "addr:street": "Széchenyi út",
            "amenity": "bank",
            "atm": "yes",
            "brand": "Erste Bank",
            "brand:wikidata": "Q696867",
            "name": "Erste Bank",
            "opening_hours": "24/7",
            "operator": "Erste Bank Hungary Zrt.",
            "phone": "+36 1 298 0222",
            "website": "https://www.erstebank.hu/"
          },
          "geometry": {
            "type": "Point",
            "coordinates": [
              16.2731515,
              46.9527083
            ]
          }
        },
        {
          "type": "Feature",
          "properties": {
            "id": "1764396786",
            "osm_type": "node",
            "lat": 46.9529542,
            "lon": 16.273968,
            "addr:city": "Szentgotthárd",
            "addr:housenumber": "23",
            "addr:postcode": "9970",
            "addr:street": "Széll Kálmán tér",
            "amenity": "bank",
            "atm": "yes",
            "brand": "K&H Bank",
            "brand:wikidata": "Q6393834",
            "name": "K&H Bank",
            "opening_hours": "24/7",
            "website": "https://www.kh.hu"
          },
          "geometry": {
            "type": "Point",
            "coordinates": [
              16.273968,
              46.9529542
            ]
          }
        },
        {
          "type": "Feature",
          "properties": {
            "id": "1764396799",
            "osm_type": "node",
            "lat": 46.9553579,
            "lon": 16.2708706,
            "addr:city": "Szentgotthárd",
            "addr:postcode": "9970",
            "addr:street": "Hunyadi János utca",
            "amenity": "bank",
            "atm": "yes",
            "name": "Savaria Takarékszövetkezet",
            "opening_hours": "24/7"
          },
          "geometry": {
            "type": "Point",
            "coordinates": [
              16.2708706,
              46.9553579
            ]
          }
        },
        {
          "type": "Feature",
          "properties": {
            "id": "2613429158",
            "osm_type": "node",
            "lat": 46.9524007,
            "lon": 16.2721861,
            "addr:city": "Szentgotthárd",
            "addr:housenumber": "2",
            "addr:postcode": "9970",
            "addr:street": "Mártírok út",
            "amenity": "bank",
            "atm": "yes",
            "brand": "OTP Bank",
            "brand:wikidata": "Q912778",
            "name": "OTP Bank",
            "short_name": "OTP",
            "website": "https://www.otpbank.hu"
          },
          "geometry": {
            "type": "Point",
            "coordinates": [
              16.2721861,
              46.9524007
            ]
          }
        },
        {
          "type": "Feature",
          "properties": {
            "id": "5848364903",
            "osm_type": "node",
            "lat": 47.0095335,
            "lon": 16.6040448,
            "addr:city": "Körmend",
            "addr:housenumber": "12",
            "addr:postcode": "9900",
            "addr:street": "Vida József utca",
            "amenity": "bank",
            "brand": "OTP",
            "brand:wikidata": "Q912778",
            "brand:wikipedia": "en:OTP Bank",
            "name": "OTP Bank",
            "opening_hours": "Mo 08:00-17:00; Tu 08:00-15:00; We 08:00-16:00; Th,Fr 08:00-15:00"
          },
          "geometry": {
            "type": "Point",
            "coordinates": [
              16.6040448,
              47.0095335
            ]
          }
        },
        {
          "type": "Feature",
          "properties": {
            "id": "5848364904",
            "osm_type": "node",
            "lat": 47.0099877,
            "lon": 16.6036929,
            "amenity": "bank",
            "brand": "K&H Bank",
            "brand:wikidata": "Q6393834",
            "brand:wikipedia": "en:K&H Bank",
            "name": "K&H Bank"
          },
          "geometry": {
            "type": "Point",
            "coordinates": [
              16.6036929,
              47.0099877
            ]
          }
        },
        {
          "type": "Feature",
          "properties": {
            "id": "5884431471",
            "osm_type": "node",
            "lat": 47.0106884,
            "lon": 16.6035235,
            "addr:city": "Körmend",
            "addr:housenumber": "1",
            "addr:postcode": "9900",
            "addr:street": "Thököly Imre utca",
            "amenity": "bank",
            "name": "Savaria Takarékszövetkezet"
          },
          "geometry": {
            "type": "Point",
            "coordinates": [
              16.6035235,
              47.0106884
            ]
          }
        },
        {
          "type": "Feature",
          "properties": {
            "id": "6178329974",
            "osm_type": "node",
            "lat": 47.0104974,
            "lon": 16.6011833,
            "amenity": "bank",
            "name": "Körmend és Vidéke Takarékszövetkezet"
          },
          "geometry": {
            "type": "Point",
            "coordinates": [
              16.6011833,
              47.0104974
            ]
          }
        },
        {
          "type": "Feature",
          "properties": {
            "id": "1281898458",
            "osm_type": "node",
            "lat": 46.9454071,
            "lon": 17.0791277,
            "amenity": "bank",
            "brand": "K&H Bank",
            "name": "K&H Bank",
            "website": "https://www.kh.hu"
          },
          "geometry": {
            "type": "Point",
            "coordinates": [
              17.0791277,
              46.9454071
            ]
          }
        },
        {
          "type": "Feature",
          "properties": {
            "id": "8348128661",
            "osm_type": "node",
            "lat": 46.876196,
            "lon": 17.1116859,
            "amenity": "bank",
            "name": "Takarékszövetkezet"
          },
          "geometry": {
            "type": "Point",
            "coordinates": [
              17.1116859,
              46.876196
            ]
          }
        }
      ],
      "children": []
    }
  ]
}