{
  "bbox": {
    "south": 47.033758500000005,
    "west": 13.345766,
    "north": 47.694865,
    "east": 15.253173
  },
  "poiCount": 145,
  "leafCount": 0,
  "averagePosition": [
    14.275642600689656,
    47.34572678758621
  ],
  "data": [],
  "children": [
    {
      "bbox": {
        "south": 47.033758500000005,
        "west": 13.345766,
        "north": 47.36431175,
        "east": 14.2994695
      },
      "poiCount": 23,
      "leafCount": 23,
      "averagePosition": [
        13.805377073913045,
        47.15103456956522
      ],
      "data": [
        {
          "type": "Feature",
          "properties": {
            "id": "340123287",
            "osm_type": "node",
            "lat": 47.344837,
            "lon": 13.391855,
            "amenity": "bank",
            "atm": "yes",
            "name": "Raiffeisen",
            "operator": "Raiffeisen"
          },
          "geometry": {
            "type": "Point",
            "coordinates": [
              13.391855,
              47.344837
            ]
          }
        },
        {
          "type": "Feature",
          "properties": {
            "id": "6189899540",
            "osm_type": "node",
            "lat": 47.3603682,
            "lon": 13.381029,
            "amenity": "bank",
            "atm": "yes",
            "drive_through": "no",
            "name": "Euro-ATM"
          },
          "geometry": {
            "type": "Point",
            "coordinates": [
              13.381029,
              47.3603682
            ]
          }
        },
        {
          "type": "Feature",
          "properties": {
            "id": "9017321562",
            "osm_type": "node",
            "lat": 47.099181,
            "lon": 13.4976225,
            "amenity": "bank",
            "atm": "yes",
            "drive_through": "no",
            "name": "Raiffeisenbank"
          },
          "geometry": {
            "type": "Point",
            "coordinates": [
              13.4976225,
              47.099181
            ]
          }
        },
        {
          "type": "Feature",
          "properties": {
            "id": "10878069539",
            "osm_type": "node",
            "lat": 47.1513223,
            "lon": 13.5093447,
            "amenity": "bank",
            "name": "Bank99"
          },
          "geometry": {
            "type": "Point",
            "coordinates": [
              13.5093447,
              47.1513223
            ]
          }
        },
        {
          "type": "Feature",
          "properties": {
            "id": "930409437",
            "osm_type": "node",
            "lat": 47.1334005,
            "lon": 13.6801058,
            "addr:city": "Mauterndorf",
            "addr:housenumber": "87",
            "addr:place": "Markt",
            "addr:postcode": "5570",
            "amenity": "bank",
            "atm": "yes",
            "name": "Raiffeisenbank Mauterndorf",
            "operator": "Raiffeisen",
            "phone": "+43 6472 7227",
            "website": "https://www.mauterndorf.raiffeisen.at/"
          },
          "geometry": {
            "type": "Point",
            "coordinates": [
              13.6801058,
              47.1334005
            ]
          }
        },
        {
          "type": "Feature",
          "properties": {
            "id": "958701057",
            "osm_type": "node",
            "lat": 47.097549,
            "lon": 13.6372898,
            "amenity": "bank",
            "atm": "yes",
            "contact:email": "fil.st.michael@hyposalzburg.at",
            "contact:phone": "+43 6477 88611",
            "name": "HYPO Salzburg",
            "opening_hours": "Mo-Th 08:00-12:00, 14:00-17:00; Fr 08:00-12:00, 14:00-18:00",
            "opening_hours:atm": "05:00-24:00",
            "operator": "Hypo Bank",
            "wheelchair": "yes"
          },
          "geometry": {
            "type": "Point",
            "coordinates": [
              13.6372898,
              47.097549
            ]
          }
        },
        {
          "type": "Feature",
          "properties": {
            "id": "958701071",
            "osm_type": "node",
            "lat": 47.0969499,
            "lon": 13.6380648,
            "addr:city": "Sankt Michael im Lungau",
            "addr:housenumber": "16",
            "addr:street": "Marktstraße",
            "amenity": "bank",
            "atm": "yes",
            "name": "Sparkasse",
            "operator": "Salzburger Sparkasse",
            "wheelchair": "yes"
          },
          "geometry": {
            "type": "Point",
            "coordinates": [
              13.6380648,
              47.0969499
            ]
          }
        },
        {
          "type": "Feature",
          "properties": {
            "id": "2289015644",
            "osm_type": "node",
            "lat": 47.0990855,
            "lon": 13.6382376,
            "addr:city": "Sankt Michael im Lungau",
            "addr:country": "AT",
            "addr:housenumber": "242",
            "addr:postcode": "5582",
            "addr:street": "Marktstraße",
            "amenity": "bank",
            "at_bev:addr_date": "2021-04-01",
            "atm": "yes",
            "name": "Raiffeisenbank"
          },
          "geometry": {
            "type": "Point",
            "coordinates": [
              13.6382376,
              47.0990855
            ]
          }
        },
        {
          "type": "Feature",
          "properties": {
            "id": "2610559948",
            "osm_type": "node",
            "lat": 47.2485409,
            "lon": 13.558331,
            "amenity": "bank",
            "atm": "yes",
            "brand": "Raiffeisen",
            "brand:wikidata": "Q2127528",
            "name": "Raiffeisen",
            "opening_hours": "Mo,Sa 08:00-13:00, 14:30-17:00; Tu-Fr 08:30-13:00, 14:30-17:00; Su 08:00-11:00"
          },
          "geometry": {
            "type": "Point",
            "coordinates": [
              13.558331,
              47.2485409
            ]
          }
        },
        {
          "type": "Feature",
          "properties": {
            "id": "3364544715",
            "osm_type": "node",
            "lat": 47.1287349,
            "lon": 13.8107454,
            "amenity": "bank",
            "brand": "Volksbank",
            "brand:wikidata": "Q695110",
            "name": "Volksbank"
          },
          "geometry": {
            "type": "Point",
            "coordinates": [
              13.8107454,
              47.1287349
            ]
          }
        },
        {
          "type": "Feature",
          "properties": {
            "id": "5837628285",
            "osm_type": "node",
            "lat": 47.0974631,
            "lon": 13.6372176,
            "addr:city": "Sankt Michael im Lungau",
            "addr:housenumber": "6",
            "addr:postcode": "5582",
            "addr:street": "Poststraße",
            "amenity": "bank",
            "atm": "yes",
            "brand": "bank99",
            "brand:wikidata": "Q91200481",
            "brand:wikipedia": "de:Bank99",
            "drive_through": "no",
            "name": "bank99",
            "opening_hours": "Mo-Fr 08:00-12:00,14:00-17:00; Sa,Su,PH off",
            "operator": "bank99 AG",
            "website": "https://www.bank99.at",
            "wheelchair": "yes"
          },
          "geometry": {
            "type": "Point",
            "coordinates": [
              13.6372176,
              47.0974631
            ]
          }
        },
        {
          "type": "Feature",
          "properties": {
            "id": "7591639273",
            "osm_type": "node",
            "lat": 47.1278263,
            "lon": 13.8112863,
            "addr:city": "Tamsweg",
            "addr:country": "AT",
            "addr:housenumber": "7",
            "addr:postcode": "5580",
            "addr:street": "Kuenburgstraße",
            "amenity": "bank",
            "at_bev:addr_date": "2018-04-02",
            "atm": "yes",
            "brand": "bank99",
            "brand:wikidata": "Q91200481",
            "drive_through": "no",
            "name": "bank99",
            "opening_hours": "Mo-Fr 08:00-12:00, 14:00-17:30; Sa,Su,PH off",
            "operator": "bank99 AG",
            "website": "https://www.bank99.at"
          },
          "geometry": {
            "type": "Point",
            "coordinates": [
              13.8112863,
              47.1278263
            ]
          }
        },
        {
          "type": "Feature",
          "properties": {
            "id": "7634795302",
            "osm_type": "node",
            "lat": 47.0887787,
            "lon": 13.9832669,
            "addr:city": "Stadl-Predlitz",
            "addr:country": "AT",
            "addr:housenumber": "118a",
            "addr:place": "Stadl an der Mur",
            "addr:postcode": "8862",
            "amenity": "bank",
            "atm": "yes",
            "brand": "Steiermärkische Sparkasse",
            "brand:wikidata": "Q1555572",
            "drive_through": "no",
            "name": "Steiermärkische Sparkasse",
            "opening_hours": "Mo,Fr 08:30-12:00, 14:00-16:00; Tu,Th 08:30-12:00; We,Sa,Su,PH off",
            "operator": "Steiermärkische Bank und Sparkassen AG",
            "phone": "+43 5 0100 36170",
            "website": "https://www.sparkasse.at/steiermaerkische/privatkunden"
          },
          "geometry": {
            "type": "Point",
            "coordinates": [
              13.9832669,
              47.0887787
            ]
          }
        },
        {
          "type": "Feature",
          "properties": {
            "id": "10771938816",
            "osm_type": "node",
            "lat": 47.248703,
            "lon": 13.5579281,
            "addr:city": "Obertauern",
            "addr:country": "AT",
            "addr:housenumber": "57",
            "addr:postcode": "5562",
            "addr:street": "Römerstraße",
            "amenity": "bank",
            "atm": "yes",
            "brand": "Raiffeisen",
            "brand:wikidata": "Q2127528",
            "name": "Raiffeisen",
            "opening_hours": "Nov-Apr 08:30-12:00,14:30-16:00; May-Oct Mo,We,Fr 08:30-12:00"
          },
          "geometry": {
            "type": "Point",
            "coordinates": [
              13.5579281,
              47.248703
            ]
          }
        },
        {
          "type": "Feature",
          "properties": {
            "id": "13013479014",
            "osm_type": "node",
            "lat": 47.133504,
            "lon": 13.6826425,
            "amenity": "bank",
            "atm": "yes",
            "brand": "Sparkasse",
            "name": "Sparkasse SB Mauterndorf",
            "operator": "Salzburger Sparkasse Bank AG",
            "wheelchair": "yes"
          },
          "geometry": {
            "type": "Point",
            "coordinates": [
              13.6826425,
              47.133504
            ]
          }
        },
        {
          "type": "Feature",
          "properties": {
            "id": "13051631026",
            "osm_type": "node",
            "lat": 47.0759919,
            "lon": 13.8417125,
            "amenity": "bank",
            "brand": "Raiffeisen",
            "brand:wikidata": "Q22093483",
            "name": "Raiffeisen"
          },
          "geometry": {
            "type": "Point",
            "coordinates": [
              13.8417125,
              47.0759919
            ]
          }
        },
        {
          "type": "Feature",
          "properties": {
            "id": "324694060",
            "osm_type": "node",
            "lat": 47.1044615,
            "lon": 14.0992329,
            "amenity": "bank",
            "name": "Raika"
          },
          "geometry": {
            "type": "Point",
            "coordinates": [
              14.0992329,
              47.1044615
            ]
          }
        },
        {
          "type": "Feature",
          "properties": {
            "id": "325780139",
            "osm_type": "node",
            "lat": 47.1107869,
            "lon": 14.1712925,
            "addr:city": "Murau",
            "addr:country": "AT",
            "addr:housenumber": "5",
            "addr:postcode": "8850",
            "addr:street": "Schillerplatz",
            "amenity": "bank",
            "atm": "yes",
            "name": "Volksbank",
            "operator": "Volksbank",
            "phone": "+433532 2073 0"
          },
          "geometry": {
            "type": "Point",
            "coordinates": [
              14.1712925,
              47.1107869
            ]
          }
        },
        {
          "type": "Feature",
          "properties": {
            "id": "325790952",
            "osm_type": "node",
            "lat": 47.1103932,
            "lon": 14.1717311,
            "addr:city": "Murau",
            "addr:country": "AT",
            "addr:housenumber": "4-6",
            "addr:postcode": "8850",
            "addr:street": "Schillerplatz",
            "amenity": "bank",
            "atm": "yes",
            "brand": "Steiermärkische Sparkasse",
            "brand:wikidata": "Q1555572",
            "drive_through": "no",
            "name": "Steiermärkische Sparkasse",
            "opening_hours": "Mo-Fr 08:30-12:30, 14:00-16:00; Sa,Su,PH off",
            "operator": "Steiermärkische Bank und Sparkassen AG",
            "phone": "+43 5 0100 36166",
            "website": "https://www.sparkasse.at/steiermaerkische/privatkunden"
          },
          "geometry": {
            "type": "Point",
            "coordinates": [
              14.1717311,
              47.1103932
            ]
          }
        },
        {
          "type": "Feature",
          "properties": {
            "id": "1403754483",
            "osm_type": "node",
            "lat": 47.1120021,
            "lon": 14.180341,
            "addr:housenumber": "5",
            "addr:postcode": "8850",
            "addr:street": "Bundesstraße",
            "amenity": "bank",
            "atm": "yes",
            "branch": "Murau",
            "brand": "Raiffeisen",
            "brand:wikidata": "Q2127528",
            "name": "Raiffeisen",
            "operator": "Raiffeisenbank Murau",
            "phone": "+433532 2315 0",
            "wheelchair": "yes"
          },
          "geometry": {
            "type": "Point",
            "coordinates": [
              14.180341,
              47.1120021
            ]
          }
        },
        {
          "type": "Feature",
          "properties": {
            "id": "1854590715",
            "osm_type": "node",
            "lat": 47.1869198,
            "lon": 14.1875949,
            "amenity": "bank",
            "name": "Raiffeisenbank"
          },
          "geometry": {
            "type": "Point",
            "coordinates": [
              14.1875949,
              47.1869198
            ]
          }
        },
        {
          "type": "Feature",
          "properties": {
            "id": "2922005586",
            "osm_type": "node",
            "lat": 47.2036753,
            "lon": 14.2767735,
            "amenity": "bank",
            "atm": "yes",
            "brand": "Raiffeisen",
            "name": "Raiffeisenbank Oberwölz"
          },
          "geometry": {
            "type": "Point",
            "coordinates": [
              14.2767735,
              47.2036753
            ]
          }
        },
        {
          "type": "Feature",
          "properties": {
            "id": "7532279979",
            "osm_type": "node",
            "lat": 47.1133201,
            "lon": 14.1800273,
            "addr:city": "Murau",
            "addr:country": "AT",
            "addr:housenumber": "140",
            "addr:postcode": "8850",
            "addr:street": "Keltensiedlung",
            "amenity": "bank",
            "atm": "yes",
            "brand": "bank99",
            "brand:wikidata": "Q91200481",
            "brand:wikipedia": "de:Bank99",
            "drive_through": "no",
            "name": "bank99",
            "opening_hours": "Mo-Fr 08:00-12:00, 14:00-17:30; Sa,Su,PH off",
            "operator": "bank99 AG",
            "website": "https://www.bank99.at"
          },
          "geometry": {
            "type": "Point",
            "coordinates": [
              14.1800273,
              47.1133201
            ]
          }
        }
      ],
      "children": []
    },
    {
      "bbox": {
        "south": 47.033758500000005,
        "west": 14.2994695,
        "north": 47.36431175,
        "east": 15.253173
      },
      "poiCount": 41,
      "leafCount": 41,
      "averagePosition": [
        14.805157378048781,
        47.157192565853656
      ],
      "data": [
        {
          "type": "Feature",
          "properties": {
            "id": "477264228",
            "osm_type": "node",
            "lat": 47.129653,
            "lon": 14.3588891,
            "addr:city": "Teufenbach-Katsch",
            "addr:country": "AT",
            "addr:housenumber": "5",
            "addr:postcode": "8833",
            "addr:street": "Hauptstraße",
            "amenity": "bank",
            "atm": "yes",
            "name": "Raiffeisenbank Teufenbach"
          },
          "geometry": {
            "type": "Point",
            "coordinates": [
              14.3588891,
              47.129653
            ]
          }
        },
        {
          "type": "Feature",
          "properties": {
            "id": "797022318",
            "osm_type": "node",
            "lat": 47.0729712,
            "lon": 14.4264633,
            "addr:city": "Neumarkt in der Steiermark",
            "addr:country": "AT",
            "addr:housenumber": "29",
            "addr:postcode": "8820",
            "addr:street": "Hauptplatz",
            "amenity": "bank",
            "atm": "yes",
            "brand": "Steiermärkische Sparkasse",
            "brand:wikidata": "Q1555572",
            "drive_through": "no",
            "name": "Steiermärkische Sparkasse",
            "opening_hours": "Mo-Fr 08:30-12:00; Mo,Fr 14:00-16:00; Sa,Su,PH off",
            "operator": "Steiermärkische Bank und Sparkassen AG",
            "phone": "+43 5 0100 36158",
            "website": "https://www.sparkasse.at/steiermaerkische/privatkunden",
            "wheelchair": "yes"
          },
          "geometry": {
            "type": "Point",
            "coordinates": [
              14.4264633,
              47.0729712
            ]
          }
        },
        {
          "type": "Feature",
          "properties": {
            "id": "988624644",
            "osm_type": "node",
            "lat": 47.0720535,
            "lon": 14.4261885,
            "addr:city": "Neumarkt in der Steiermark",
            "addr:country": "AT",
            "addr:housenumber": "47",
            "addr:postcode": "8820",
            "addr:street": "Hauptplatz",
            "amenity": "bank",
            "atm": "yes",
            "brand": "Raiffeisen",
            "brand:wikidata": "Q22093483",
            "name": "Raiffeisenbank Neumarkt",
            "opening_hours": "Mo,Tu,Th,Fr 08:00-12:00,14:00-16:00; We 08:00-12:00"
          },
          "geometry": {
            "type": "Point",
            "coordinates": [
              14.4261885,
              47.0720535
            ]
          }
        },
        {
          "type": "Feature",
          "properties": {
            "id": "4241518294",
            "osm_type": "node",
            "lat": 47.1991103,
            "lon": 14.4461109,
            "addr:city": "Unzmarkt",
            "addr:country": "AT",
            "addr:district": "Murtal",
            "addr:housenumber": "6",
            "addr:postcode": "8800",
            "addr:street": "Simon Hafnerplatz",
            "amenity": "bank",
            "email": "info@rb-zirbenland.at",
            "fax": "+43 3572 82651-219",
            "name": "Raiffeisenbank",
            "opening_hours": "Tu,Th 14:00-17:00",
            "phone": "+43 3583 23170",
            "website": "https://www.raiffeisen.at/"
          },
          "geometry": {
            "type": "Point",
            "coordinates": [
              14.4461109,
              47.1991103
            ]
          }
        },
        {
          "type": "Feature",
          "properties": {
            "id": "4488591403",
            "osm_type": "node",
            "lat": 47.188928,
            "lon": 14.3464059,
            "addr:city": "Oberwölz",
            "addr:country": "AT",
            "addr:housenumber": "1",
            "addr:place": "Schönberg-Lachtal",
            "addr:postcode": "8831",
            "amenity": "bank",
            "at_bev:addr_date": "2018-10-01",
            "name": "Raiffeisenbank",
            "phone": "+43 3587 236"
          },
          "geometry": {
            "type": "Point",
            "coordinates": [
              14.3464059,
              47.188928
            ]
          }
        },
        {
          "type": "Feature",
          "properties": {
            "id": "4893355225",
            "osm_type": "node",
            "lat": 47.1498098,
            "lon": 14.4103469,
            "addr:city": "Scheifling",
            "addr:country": "AT",
            "addr:housenumber": "7",
            "addr:postcode": "8811",
            "addr:street": "Marktplatz",
            "amenity": "bank",
            "atm": "yes",
            "brand": "Steiermärkische Sparkasse",
            "brand:wikidata": "Q1555572",
            "check_date": "2025-04-12",
            "drive_through": "no",
            "name": "Steiermärkische Sparkasse",
            "opening_hours": "Mo-Fr 08:30-12:00; Fr 14:00-16:00; Sa,Su,PH off",
            "operator": "Steiermärkische Bank und Sparkassen AG",
            "phone": "+43 5 0100 36161",
            "website": "https://www.sparkasse.at/steiermaerkische/privatkunden",
            "wheelchair": "yes"
          },
          "geometry": {
            "type": "Point",
            "coordinates": [
              14.4103469,
              47.1498098
            ]
          }
        },
        {
          "type": "Feature",
          "properties": {
            "id": "4893391623",
            "osm_type": "node",
            "lat": 47.1503159,
            "lon": 14.4103796,
            "addr:city": "Scheifling",
            "addr:country": "AT",
            "addr:housenumber": "9",
            "addr:postcode": "8811",
            "addr:street": "Marktplatz",
            "amenity": "bank",
            "brand": "Raiffeisen",
            "check_date": "2025-04-12",
            "contact:phone": "+43 3584 229 117",
            "name": "Raiffeisenbank",
            "opening_hours": "Mo, Fr 08:00-12:00, 14:30-16:30; Tu-Th 08:00-12:00",
            "wheelchair": "yes"
          },
          "geometry": {
            "type": "Point",
            "coordinates": [
              14.4103796,
              47.1503159
            ]
          }
        },
        {
          "type": "Feature",
          "properties": {
            "id": "370535026",
            "osm_type": "node",
            "lat": 47.0690459,
            "lon": 14.6944055,
            "addr:country": "AT",
            "addr:housenumber": "18b",
            "addr:postcode": "8742",
            "addr:street": "Hauptstraße",
            "amenity": "bank",
            "name": "RAIBA Obdach-Weißkirchen",
            "wheelchair": "limited"
          },
          "geometry": {
            "type": "Point",
            "coordinates": [
              14.6944055,
              47.0690459
            ]
          }
        },
        {
          "type": "Feature",
          "properties": {
            "id": "443959370",
            "osm_type": "node",
            "lat": 47.2139876,
            "lon": 14.8295977,
            "addr:city": "Knittelfeld",
            "addr:country": "AT",
            "addr:housenumber": "7",
            "addr:postcode": "8720",
            "addr:street": "Hauptplatz",
            "amenity": "bank",
            "atm": "yes",
            "brand": "Sparkasse",
            "brand:wikidata": "Q2307785",
            "brand:wikipedia": "de:Steiermärkische Sparkasse",
            "contact:phone": "+43 5 0100 36257",
            "drive_through": "no",
            "name": "Steiermärkische Sparkasse",
            "opening_hours": "Mo, We, Fr 08:30-12:00, 14:00-16:00; Tu, Th 08:30-12:00",
            "operator": "Steiermärkische Bank und Sparkassen AG",
            "website": "https://www.sparkasse.at/steiermaerkische/privatkunden"
          },
          "geometry": {
            "type": "Point",
            "coordinates": [
              14.8295977,
              47.2139876
            ]
          }
        },
        {
          "type": "Feature",
          "properties": {
            "id": "624026945",
            "osm_type": "node",
            "lat": 47.2146457,
            "lon": 14.8266555,
            "amenity": "bank",
            "atm": "yes",
            "name": "Volksbank",
            "operator": "Volksbank"
          },
          "geometry": {
            "type": "Point",
            "coordinates": [
              14.8266555,
              47.2146457
            ]
          }
        },
        {
          "type": "Feature",
          "properties": {
            "id": "624191031",
            "osm_type": "node",
            "lat": 47.2151083,
            "lon": 14.8302812,
            "addr:city": "Knittelfeld",
            "addr:country": "AT",
            "addr:district": "Murtal",
            "addr:housenumber": "19",
            "addr:postcode": "8720",
            "addr:street": "Hauptplatz",
            "amenity": "bank",
            "atm": "yes",
            "brand": "Bank Austria",
            "brand:wikidata": "Q697619",
            "brand:wikipedia": "en:Bank Austria",
            "name": "Bank Austria",
            "operator": "Bank Austria",
            "website": "https://www.bankaustria.at/"
          },
          "geometry": {
            "type": "Point",
            "coordinates": [
              14.8302812,
              47.2151083
            ]
          }
        },
        {
          "type": "Feature",
          "properties": {
            "id": "684084269",
            "osm_type": "node",
            "lat": 47.2734512,
            "lon": 14.7850254,
            "addr:city": "Seckau",
            "addr:conscriptionnumber": "83b",
            "addr:country": "AT",
            "addr:hamlet": "Seckau",
            "addr:postcode": "8732",
            "amenity": "bank",
            "atm": "yes",
            "email": "office@rbaichfeld.at",
            "fax": "+43 35124 845 50-505",
            "name": "Raiffeisen",
            "opening_hours": "Mo-Th 09:00-12:00; Tu off; Fr 09:00-12:00,14:30-16:30",
            "phone": "+43 3512 845 50-0",
            "website": "https://www.raiffeisen.at/stmk/aichfeld/de/meine-bank/bankstellen/seckau.html"
          },
          "geometry": {
            "type": "Point",
            "coordinates": [
              14.7850254,
              47.2734512
            ]
          }
        },
        {
          "type": "Feature",
          "properties": {
            "id": "1613490159",
            "osm_type": "node",
            "lat": 47.1897356,
            "lon": 14.7533685,
            "addr:city": "Zeltweg",
            "addr:country": "AT",
            "addr:housenumber": "45",
            "addr:postcode": "8740",
            "addr:street": "Bahnhofstraße",
            "amenity": "bank",
            "atm": "yes",
            "email": "office@rbaichfeld.at",
            "fax": "+43 3512 84550-505",
            "name": "Raiffeisenbank Zeltweg",
            "opening_hours": "Mo 08:30-12:00,14:30-17:00; Tu-Th 08:30-12:00; Fr 08:30-12:00,14:00-16:30",
            "phone": "+43 3512 845500",
            "website": "https://www.raiffeisen.at/aichfeld/1005155874558883321_1005156872601910153_1005157105872322318-1005157105872322318-NA-30-NA.html"
          },
          "geometry": {
            "type": "Point",
            "coordinates": [
              14.7533685,
              47.1897356
            ]
          }
        },
        {
          "type": "Feature",
          "properties": {
            "id": "1614274342",
            "osm_type": "node",
            "lat": 47.1907702,
            "lon": 14.745695,
            "addr:city": "Zeltweg",
            "addr:country": "AT",
            "addr:housenumber": "110",
            "addr:postcode": "8740",
            "addr:street": "Hauptstraße",
            "amenity": "bank",
            "atm": "yes",
            "brand": "Steiermärkische Sparkasse",
            "brand:wikidata": "Q1555572",
            "drive_through": "no",
            "name": "Steiermärkische Sparkasse",
            "opening_hours": "Mo-Fr 08:30-12:30, 14:00-16:00; Sa,Su,PH off",
            "operator": "Steiermärkische Bank und Sparkassen AG",
            "phone": "+43 5 0100 36258",
            "website": "https://www.sparkasse.at/steiermaerkische/privatkunden"
          },
          "geometry": {
            "type": "Point",
            "coordinates": [
              14.745695,
              47.1907702
            ]
          }
        },
        {
          "type": "Feature",
          "properties": {
            "id": "1936863571",
            "osm_type": "node",
            "lat": 47.1676233,
            "lon": 14.6600533,
            "addr:city": "Judenburg",
            "addr:country": "AT",
            "addr:housenumber": "7",
            "addr:postcode": "8750",
            "addr:street": "Burggasse",
            "amenity": "bank",
            "name": "Volksbank",
            "opening_hours": "Mo,We,Th 08:00-12:00,14:00-16:00, Tu 08:00-12:00, Fr 08:00-15:00",
            "phone": "+43 50 901 6000",
            "website": "https://www.volksbank-stmk.at/"
          },
          "geometry": {
            "type": "Point",
            "coordinates": [
              14.6600533,
              47.1676233
            ]
          }
        },
        {
          "type": "Feature",
          "properties": {
            "id": "1936863574",
            "osm_type": "node",
            "lat": 47.1685187,
            "lon": 14.6614064,
            "addr:city": "Judenburg",
            "addr:country": "AT",
            "addr:housenumber": "12",
            "addr:postcode": "8750",
            "addr:street": "Hauptplatz",
            "amenity": "bank",
            "at_bev:addr_date": "2019-10-01",
            "name": "Raiffeisenbank",
            "opening_hours": "Mo,We-Fr 08:00-12:00, Mo-We,Fr 14:30-16:30, Th 08:00-12:00"
          },
          "geometry": {
            "type": "Point",
            "coordinates": [
              14.6614064,
              47.1685187
            ]
          }
        },
        {
          "type": "Feature",
          "properties": {
            "id": "4585800589",
            "osm_type": "node",
            "lat": 47.2081622,
            "lon": 14.6775156,
            "addr:city": "Fohnsdorf",
            "addr:country": "AT",
            "addr:housenumber": "2",
            "addr:postcode": "8753",
            "addr:street": "Hauptstraße",
            "amenity": "bank",
            "at_bev:addr_date": "2017-04-07",
            "name": "Raiffeisenbank Aichfeld",
            "name:de": "Raiffeisenbank Aichfeld",
            "wheelchair": "yes"
          },
          "geometry": {
            "type": "Point",
            "coordinates": [
              14.6775156,
              47.2081622
            ]
          }
        },
        {
          "type": "Feature",
          "properties": {
            "id": "4876541822",
            "osm_type": "node",
            "lat": 47.2198869,
            "lon": 14.5807434,
            "addr:city": "Pöls-Oberkurzheim",
            "addr:country": "AT",
            "addr:housenumber": "2",
            "addr:postcode": "8761",
            "addr:street": "Fohnsdorfer Straße",
            "amenity": "bank",
            "at_bev:addr_date": "2017-04-07",
            "contact:phone": "+43 3512 845 500",
            "name": "Raiffeisenbank Aichfeld Filiale Pöls",
            "wheelchair": "yes"
          },
          "geometry": {
            "type": "Point",
            "coordinates": [
              14.5807434,
              47.2198869
            ]
          }
        },
        {
          "type": "Feature",
          "properties": {
            "id": "5060560921",
            "osm_type": "node",
            "lat": 47.2711709,
            "lon": 14.7035425,
            "addr:city": "Gaal",
            "addr:country": "AT",
            "addr:housenumber": "25",
            "addr:place": "Bischoffeld",
            "addr:postcode": "8731",
            "amenity": "bank",
            "at_bev:addr_date": "2018-10-01",
            "brand": "Raiffeisenbank",
            "brand:wikidata": "Q24282825",
            "brand:wikipedia": "cs:Raiffeisenbank",
            "name": "Raiffeisenbank",
            "name:de": "Raiffeisen Bank",
            "name:en": "Raiffeisen Bank"
          },
          "geometry": {
            "type": "Point",
            "coordinates": [
              14.7035425,
              47.2711709
            ]
          }
        },
        {
          "type": "Feature",
          "properties": {
            "id": "5479532572",
            "osm_type": "node",
            "lat": 47.1692326,
            "lon": 14.6541698,
            "addr:city": "Judenburg",
            "addr:country": "AT",
            "addr:district": "Murtal",
            "addr:housenumber": "2",
            "addr:postcode": "8750",
            "addr:street": "Frauengasse",
            "amenity": "bank",
            "atm": "yes",
            "brand": "Steiermärkische Sparkasse",
            "brand:wikidata": "Q1555572",
            "drive_through": "no",
            "name": "Steiermärkische Sparkasse",
            "opening_hours": "Mo-Fr 08:30-12:30, 14:00-16:00; Sa,Su,PH off",
            "operator": "Steiermärkische Bank und Sparkassen AG",
            "phone": "+43 5 0100 36269",
            "website": "https://www.sparkasse.at/steiermaerkische/privatkunden"
          },
          "geometry": {
            "type": "Point",
            "coordinates": [
              14.6541698,
              47.1692326
            ]
          }
        },
        {
          "type": "Feature",
          "properties": {
            "id": "5570922126",
            "osm_type": "node",
            "lat": 47.2155984,
            "lon": 14.8376182,
            "addr:city": "Knittefeld",
            "addr:country": "AT",
            "addr:district": "Murtal",
            "addr:housenumber": "8",
            "addr:postcode": "8720",
            "addr:street": "Bahnhofplatz",
            "amenity": "bank",
            "atm": "yes",
            "brand": "Sparda-Bank",
            "brand:wikidata": "Q2307136",
            "brand:wikipedia": "de:Sparda-Bank (Deutschland)",
            "email": "kundenservice@sparda.at",
            "fax": "+43 3512 82813 9679",
            "name": "Sparda-Bank",
            "opening_hours": "Mo-We 08:00-12:00,14:00-16:00; Th 08:00-12:00,14:00-17:00; Fr 08:00-15:00",
            "phone": "+43 3512 82813",
            "website": "https://www.sparda.at/m101/volksbank/m209_46660/de/filiale/knittelfeld.jsp",
            "wheelchair": "yes"
          },
          "geometry": {
            "type": "Point",
            "coordinates": [
              14.8376182,
              47.2155984
            ]
          }
        },
        {
          "type": "Feature",
          "properties": {
            "id": "5585754102",
            "osm_type": "node",
            "lat": 47.2074775,
            "lon": 14.796946,
            "addr:city": "Spielberg",
            "addr:country": "AT",
            "addr:district": "Murtal",
            "addr:housenumber": "1",
            "addr:postcode": "8724",
            "addr:street": "Marktpassage",
            "amenity": "bank",
            "atm": "yes",
            "brand": "Steiermärkische Sparkasse",
            "brand:wikidata": "Q1555572",
            "drive_through": "no",
            "name": "Steiermärkische Sparkasse",
            "opening_hours": "Mo-Fr 08:30-12:00; Mo,Fr 14:00-16:00; Sa,Su,PH off",
            "operator": "Steiermärkische Bank und Sparkassen AG",
            "phone": "+43 5 0100 36259",
            "website": "https://www.sparkasse.at/steiermaerkische/privatkunden",
            "wheelchair": "yes"
          },
          "geometry": {
            "type": "Point",
            "coordinates": [
              14.796946,
              47.2074775
            ]
          }
        },
        {
          "type": "Feature",
          "properties": {
            "id": "5599986569",
            "osm_type": "node",
            "lat": 47.1687676,
            "lon": 14.6571953,
            "addr:city": "Judenburg",
            "addr:country": "AT",
            "addr:housenumber": "3",
            "addr:postcode": "8750",
            "addr:street": "Postgasse",
            "amenity": "bank",
            "name": "UniCredit Bank Austria AG",
            "phone": "+43 50 5053 4470"
          },
          "geometry": {
            "type": "Point",
            "coordinates": [
              14.6571953,
              47.1687676
            ]
          }
        },
        {
          "type": "Feature",
          "properties": {
            "id": "5632395135",
            "osm_type": "node",
            "lat": 47.2085619,
            "lon": 14.8230055,
            "addr:city": "Knittelfeld",
            "addr:country": "AT",
            "addr:housenumber": "29",
            "addr:postcode": "8720",
            "addr:street": "Parkstraße",
            "amenity": "bank",
            "atm": "yes",
            "name": "Sparkasse",
            "website": "https://www.sparkasse.at/steiermaerkische/privatkunden"
          },
          "geometry": {
            "type": "Point",
            "coordinates": [
              14.8230055,
              47.2085619
            ]
          }
        },
        {
          "type": "Feature",
          "properties": {
            "id": "7008306641",
            "osm_type": "node",
            "lat": 47.2148514,
            "lon": 14.8301147,
            "addr:city": "Knittelfeld",
            "addr:housenumber": "1",
            "addr:postcode": "8720",
            "addr:street": "Hauptplatz",
            "amenity": "bank",
            "atm": "yes",
            "brand": "BAWAG PSK",
            "brand:wikidata": "Q379938",
            "brand:wikipedia": "en:BAWAG P.S.K.",
            "drive_through": "no",
            "name": "BAWAG PSK",
            "opening_hours": "Mo-Fr 09:00-17:00; Sa,Su,PH off",
            "operator": "BAWAG PSK AG",
            "wheelchair": "yes"
          },
          "geometry": {
            "type": "Point",
            "coordinates": [
              14.8301147,
              47.2148514
            ]
          }
        },
        {
          "type": "Feature",
          "properties": {
            "id": "7532143474",
            "osm_type": "node",
            "lat": 47.2153359,
            "lon": 14.8266116,
            "addr:city": "Knittefeld",
            "addr:country": "AT",
            "addr:district": "Murtal",
            "addr:housenumber": "5",
            "addr:postcode": "8720",
            "addr:street": "Kapuzinerplatz",
            "amenity": "bank",
            "atm": "yes",
            "brand": "bank99",
            "brand:wikidata": "Q91200481",
            "brand:wikipedia": "de:Bank99",
            "drive_through": "no",
            "name": "bank99",
            "opening_hours": "Mo-Fr 08:00-12:00, 14:00-17:00; Sa,Su,PH off",
            "operator": "bank99 AG",
            "website": "https://www.bank99.at",
            "wheelchair": "limited"
          },
          "geometry": {
            "type": "Point",
            "coordinates": [
              14.8266116,
              47.2153359
            ]
          }
        },
        {
          "type": "Feature",
          "properties": {
            "id": "7532143475",
            "osm_type": "node",
            "lat": 47.1890728,
            "lon": 14.7473512,
            "addr:city": "Zeltweg",
            "addr:country": "AT",
            "addr:housenumber": "85",
            "addr:postcode": "8740",
            "addr:street": "Bahnhofstraße",
            "amenity": "bank",
            "atm": "yes",
            "brand": "bank99",
            "brand:wikidata": "Q91200481",
            "drive_through": "no",
            "name": "bank99",
            "opening_hours": "Mo-Fr 08:00-12:00, 14:00-17:30; Sa,Su,PH off",
            "operator": "bank99 AG",
            "website": "https://www.bank99.at"
          },
          "geometry": {
            "type": "Point",
            "coordinates": [
              14.7473512,
              47.1890728
            ]
          }
        },
        {
          "type": "Feature",
          "properties": {
            "id": "7532143477",
            "osm_type": "node",
            "lat": 47.1689564,
            "lon": 14.6575256,
            "addr:city": "Judenburg",
            "addr:housenumber": "17",
            "addr:postcode": "8750",
            "addr:street": "Herrengasse",
            "amenity": "bank",
            "atm": "yes",
            "brand": "bank99",
            "drive_through": "no",
            "name": "bank99",
            "opening_hours": "Mo-Fr 08:00-12:00, 14:00-17:30; Sa,Su,PH off",
            "operator": "bank99 AG",
            "website": "https://www.bank99.at"
          },
          "geometry": {
            "type": "Point",
            "coordinates": [
              14.6575256,
              47.1689564
            ]
          }
        },
        {
          "type": "Feature",
          "properties": {
            "id": "12595736183",
            "osm_type": "node",
            "lat": 47.3396982,
            "lon": 15.0123135,
            "addr:city": "Sankt Michael in Obersteiermark",
            "addr:housenumber": "1",
            "addr:postcode": "8770",
            "addr:street": "Raiffeisen-Platz",
            "amenity": "bank",
            "atm": "yes",
            "brand": "Raiffeisen",
            "brand:wikidata": "Q22093483",
            "drive_through": "no",
            "name": "Raiffeisenbank Liesingtal-St. Stefan",
            "opening_hours": "Mo-Fr 08:00-12:00,13:00-16:00; PH off",
            "phone": "+43 599 38227 - 497 23",
            "website": "https://www.raiffeisen.at/stmk/liesingtal-st-stefan/de/meine-bank/bankstellen/st-michael.html"
          },
          "geometry": {
            "type": "Point",
            "coordinates": [
              15.0123135,
              47.3396982
            ]
          }
        },
        {
          "type": "Feature",
          "properties": {
            "id": "1192670808",
            "osm_type": "node",
            "lat": 47.0554711,
            "lon": 15.1142679,
            "addr:city": "Rosental an der Kainach",
            "addr:country": "AT",
            "addr:housenumber": "86",
            "addr:postcode": "8582",
            "addr:street": "Hauptstraße",
            "amenity": "bank",
            "atm": "yes",
            "name": "Sparkasse"
          },
          "geometry": {
            "type": "Point",
            "coordinates": [
              15.1142679,
              47.0554711
            ]
          }
        },
        {
          "type": "Feature",
          "properties": {
            "id": "1373737967",
            "osm_type": "node",
            "lat": 47.0490947,
            "lon": 15.0713716,
            "addr:housenumber": "65-67",
            "addr:postcode": "8580",
            "addr:street": "Packerstraße",
            "amenity": "bank",
            "brand": "Sparkasse",
            "brand:wikidata": "Q2307785",
            "name": "Sparkasse Pichling"
          },
          "geometry": {
            "type": "Point",
            "coordinates": [
              15.0713716,
              47.0490947
            ]
          }
        },
        {
          "type": "Feature",
          "properties": {
            "id": "1417890896",
            "osm_type": "node",
            "lat": 47.0494342,
            "lon": 15.2200552,
            "addr:city": "Stallhofen",
            "addr:country": "AT",
            "addr:housenumber": "1",
            "addr:postcode": "8152",
            "addr:street": "Raiffeisenplatz",
            "amenity": "bank",
            "at_bev:addr_date": "2019-04-01",
            "name": "Raiffeisenbank Stallhofen"
          },
          "geometry": {
            "type": "Point",
            "coordinates": [
              15.2200552,
              47.0494342
            ]
          }
        },
        {
          "type": "Feature",
          "properties": {
            "id": "1702835339",
            "osm_type": "node",
            "lat": 47.0537345,
            "lon": 15.1300725,
            "addr:city": "Bärnbach",
            "addr:country": "AT",
            "addr:housenumber": "18",
            "addr:postcode": "8572",
            "addr:street": "Packer Straße",
            "amenity": "bank",
            "atm": "yes",
            "brand": "BAWAG PSK",
            "brand:wikidata": "Q379938",
            "brand:wikipedia": "en:BAWAG P.S.K.",
            "drive_through": "no",
            "name": "BAWAG PSK",
            "opening_hours": "Mo-Fr 09:00-17:00; Sa,Su,PH off",
            "operator": "BAWAG PSK AG"
          },
          "geometry": {
            "type": "Point",
            "coordinates": [
              15.1300725,
              47.0537345
            ]
          }
        },
        {
          "type": "Feature",
          "properties": {
            "id": "1720978840",
            "osm_type": "node",
            "lat": 47.0628859,
            "lon": 15.0802971,
            "addr:city": "Köflach",
            "addr:country": "AT",
            "addr:housenumber": "12",
            "addr:postcode": "8580",
            "addr:street": "Kärntnerstraße",
            "amenity": "bank",
            "atm": "yes",
            "brand": "bank99",
            "brand:wikidata": "Q91200481",
            "brand:wikipedia": "de:Bank99",
            "drive_through": "no",
            "name": "bank99",
            "opening_hours": "Mo-Fr 08:00-12:00, 14:00-17:30",
            "operator": "bank99 AG",
            "website": "https://www.bank99.at"
          },
          "geometry": {
            "type": "Point",
            "coordinates": [
              15.0802971,
              47.0628859
            ]
          }
        },
        {
          "type": "Feature",
          "properties": {
            "id": "1720978971",
            "osm_type": "node",
            "lat": 47.0641878,
            "lon": 15.0811291,
            "addr:city": "Köflach",
            "addr:postcode": "8580",
            "amenity": "bank",
            "atm": "yes",
            "contact:phone": "+43 50 901 3000",
            "name": "Volksbank",
            "opening_hours": "Mo-Fr 08:00-12:00, 14:30-16:30",
            "operator": "Volksbank Steiermark AG",
            "website": "https://www.volksbank-stmk.at/oeffnungszeiten",
            "wheelchair": "yes"
          },
          "geometry": {
            "type": "Point",
            "coordinates": [
              15.0811291,
              47.0641878
            ]
          }
        },
        {
          "type": "Feature",
          "properties": {
            "id": "1837524945",
            "osm_type": "node",
            "lat": 47.0643837,
            "lon": 15.0847848,
            "addr:city": "Köflach",
            "addr:country": "AT",
            "addr:housenumber": "4",
            "addr:postcode": "8580",
            "addr:street": "Hauptplatz",
            "alt_name": "Steiermärkische Sparkasse",
            "amenity": "bank",
            "atm": "yes",
            "branch": "Köflach",
            "brand": "Steiermärkische Sparkasse",
            "brand:wikidata": "Q1555572",
            "drive_through": "no",
            "name": "Sparkasse Voitsberg-Köflach",
            "opening_hours": "Mo-Fr 08:00-12:00; Mo,We,Fr 14:30-16:30; Sa,Su,PH off",
            "operator": "Sparkasse Voitsberg-Köflach Bank AG",
            "phone": "+43 5 0100 37610",
            "website": "https://www.sparkasse.at/voitsberg-koeflach/privatkunden"
          },
          "geometry": {
            "type": "Point",
            "coordinates": [
              15.0847848,
              47.0643837
            ]
          }
        },
        {
          "type": "Feature",
          "properties": {
            "id": "2207793455",
            "osm_type": "node",
            "lat": 47.168279,
            "lon": 15.1670074,
            "addr:housenumber": "83",
            "addr:postcode": "8153",
            "addr:street": "Geisthal",
            "amenity": "bank",
            "name": "Raiffeisenbank"
          },
          "geometry": {
            "type": "Point",
            "coordinates": [
              15.1670074,
              47.168279
            ]
          }
        },
        {
          "type": "Feature",
          "properties": {
            "id": "2324215427",
            "osm_type": "node",
            "lat": 47.2258325,
            "lon": 15.2363155,
            "addr:housenumber": "196",
            "addr:postcode": "8124",
            "addr:street": "Alter Markt",
            "amenity": "bank",
            "atm": "yes",
            "name": "Raiffeisenbank"
          },
          "geometry": {
            "type": "Point",
            "coordinates": [
              15.2363155,
              47.2258325
            ]
          }
        },
        {
          "type": "Feature",
          "properties": {
            "id": "3361720182",
            "osm_type": "node",
            "lat": 47.0480333,
            "lon": 15.1533318,
            "addr:city": "Voitsberg",
            "addr:housenumber": "7",
            "addr:postcode": "8570",
            "addr:street": "Grazer Vorstadt",
            "amenity": "bank",
            "atm": "yes",
            "brand": "bank99",
            "brand:wikidata": "Q91200481",
            "brand:wikipedia": "de:Bank99",
            "drive_through": "no",
            "name": "bank99",
            "opening_hours": "Mo-Fr 08:00-12:00,14:00-17:30",
            "operator": "bank99 AG"
          },
          "geometry": {
            "type": "Point",
            "coordinates": [
              15.1533318,
              47.0480333
            ]
          }
        },
        {
          "type": "Feature",
          "properties": {
            "id": "7404855080",
            "osm_type": "node",
            "lat": 47.0708118,
            "lon": 15.129969,
            "addr:city": "Bärnbach",
            "addr:country": "AT",
            "addr:housenumber": "5",
            "addr:postcode": "8572",
            "addr:street": "Voitsberger Straße",
            "amenity": "bank",
            "atm": "yes",
            "brand": "Raiffeisen",
            "drive_through": "no",
            "name": "Raiffeisenbank Lipizzanerheimat, Bankstelle Bärnbach",
            "opening_hours": "Mo-Fr 08:00-12:00",
            "operator": "Raiffeisenbank Lipizzanerheimat",
            "website": "https://www.raiffeisen.at/stmk/lipizzanerheimat"
          },
          "geometry": {
            "type": "Point",
            "coordinates": [
              15.129969,
              47.0708118
            ]
          }
        },
        {
          "type": "Feature",
          "properties": {
            "id": "7642323875",
            "osm_type": "node",
            "lat": 47.0702458,
            "lon": 15.126925,
            "addr:city": "Bärnbach",
            "addr:country": "AT",
            "addr:housenumber": "1",
            "addr:postcode": "8572",
            "addr:street": "Telepark",
            "amenity": "bank",
            "atm": "yes",
            "drive_through": "no",
            "name": "Sparkasse Bärnbach",
            "opening_hours": "Mo-Fr 08:00-12:00; Mo,We,Fr 14:30-16:30; Sa,Su,PH off",
            "operator": "Sparkasse Voitsberg-Köflach Bank AG",
            "phone": "+43 5 0100 37620",
            "website": "https://www.sparkasse.at/voitsberg-koeflach/privatkunden"
          },
          "geometry": {
            "type": "Point",
            "coordinates": [
              15.126925,
              47.0702458
            ]
          }
        }
      ],
      "children": []
    },
    {
      "bbox": {
        "south": 47.36431175,
        "west": 13.345766,
        "north": 47.694865,
        "east": 14.2994695
      },
      "poiCount": 51,
      "leafCount": 0,
      "averagePosition": [
        13.752285437254903,
        47.49113815882353
      ],
      "data": [],
      "children": [
        {
          "bbox": {
            "south": 47.36431175,
            "west": 13.345766,
            "north": 47.529588375,
            "east": 13.82261775
          },
          "poiCount": 23,
          "leafCount": 23,
          "averagePosition": [
            13.575241300000002,
            47.40537354347826
          ],
          "data": [
            {
              "type": "Feature",
              "properties": {
                "id": "661565711",
                "osm_type": "node",
                "lat": 47.3720265,
                "lon": 13.3883191,
                "amenity": "bank",
                "atm": "yes",
                "drive_through": "no",
                "name": "JB"
              },
              "geometry": {
                "type": "Point",
                "coordinates": [
                  13.3883191,
                  47.3720265
                ]
              }
            },
            {
              "type": "Feature",
              "properties": {
                "id": "495350649",
                "osm_type": "node",
                "lat": 47.4344665,
                "lon": 13.5219882,
                "addr:city": "Filzmoos",
                "addr:country": "AT",
                "addr:housenumber": "4",
                "addr:postcode": "5532",
                "addr:street": "Dorfstraße",
                "amenity": "bank",
                "atm": "yes",
                "brand": "Raiffeisen",
                "brand:wikidata": "Q2127528",
                "name": "Raiffeisen"
              },
              "geometry": {
                "type": "Point",
                "coordinates": [
                  13.5219882,
                  47.4344665
                ]
              }
            },
            {
              "type": "Feature",
              "properties": {
                "id": "495350655",
                "osm_type": "node",
                "lat": 47.4345205,
                "lon": 13.5208521,
                "amenity": "bank",
                "name": "Volksbank",
                "operator": "Volksbank"
              },
              "geometry": {
                "type": "Point",
                "coordinates": [
                  13.5208521,
                  47.4345205
                ]
              }
            },
            {
              "type": "Feature",
              "properties": {
                "id": "495350670",
                "osm_type": "node",
                "lat": 47.4333627,
                "lon": 13.5187076,
                "amenity": "bank",
                "atm": "yes",
                "name": "Sparkasse"
              },
              "geometry": {
                "type": "Point",
                "coordinates": [
                  13.5187076,
                  47.4333627
                ]
              }
            },
            {
              "type": "Feature",
              "properties": {
                "id": "853134007",
                "osm_type": "node",
                "lat": 47.3848372,
                "lon": 13.4631413,
                "amenity": "bank",
                "atm": "yes",
                "name": "Raiffeisenbank",
                "opening_hours": "Mo-Fr 08:00-12:00,14:30-17:00; Sa 09:00-11:00"
              },
              "geometry": {
                "type": "Point",
                "coordinates": [
                  13.4631413,
                  47.3848372
                ]
              }
            },
            {
              "type": "Feature",
              "properties": {
                "id": "925177297",
                "osm_type": "node",
                "lat": 47.3793234,
                "lon": 13.42051,
                "addr:city": "Altenmarkt im Pongau",
                "addr:housenumber": "24",
                "addr:postcode": "5541",
                "addr:street": "Obere Marktstraße",
                "amenity": "bank",
                "atm": "yes",
                "name": "Volksbank Salzburg",
                "opening_hours": "PH,Mo-Su 00:00-24:00, Mo,Fr 08:00-16:30, Tu-Th 08:00-12:00",
                "website": "https://www.volksbanksalzburg.at/m101/volksbank/m007_45010/de/filiale/filiale_altenmarkt.jsp"
              },
              "geometry": {
                "type": "Point",
                "coordinates": [
                  13.42051,
                  47.3793234
                ]
              }
            },
            {
              "type": "Feature",
              "properties": {
                "id": "1191909024",
                "osm_type": "node",
                "lat": 47.3852847,
                "lon": 13.4626065,
                "amenity": "bank",
                "atm": "yes",
                "name": "Salzburger Sparkasse"
              },
              "geometry": {
                "type": "Point",
                "coordinates": [
                  13.4626065,
                  47.3852847
                ]
              }
            },
            {
              "type": "Feature",
              "properties": {
                "id": "1429983126",
                "osm_type": "node",
                "lat": 47.5136679,
                "lon": 13.4310288,
                "amenity": "bank",
                "atm": "yes",
                "check_date": "2023-10-02",
                "name": "Raiffeisenbank"
              },
              "geometry": {
                "type": "Point",
                "coordinates": [
                  13.4310288,
                  47.5136679
                ]
              }
            },
            {
              "type": "Feature",
              "properties": {
                "id": "3940707875",
                "osm_type": "node",
                "lat": 47.4073283,
                "lon": 13.3954278,
                "amenity": "bank",
                "atm": "yes",
                "brand": "Raiffeisen",
                "brand:wikidata": "Q22093483",
                "name": "Raiffeisenbank"
              },
              "geometry": {
                "type": "Point",
                "coordinates": [
                  13.3954278,
                  47.4073283
                ]
              }
            },
            {
              "type": "Feature",
              "properties": {
                "id": "7211075168",
                "osm_type": "node",
                "lat": 47.3791007,
                "lon": 13.4219111,
                "addr:city": "Altenmarkt im Pongau",
                "addr:housenumber": "14",
                "addr:postcode": "5541",
                "addr:street": "Obere Marktstraße",
                "amenity": "bank",
                "atm": "yes",
                "image": "https://www.hyposalzburg.at/content/data/hyposbg/55/55000/bankstellen/bankstelle-16-55000/jcr:content/image.imgTransformer/bank/lg/1623369976293/Filiale+Altenmarkt_1536x1024.jpg",
                "name": "Hypo",
                "opening_hours": "Mo-Fr 08:30-12:00",
                "operator": "Hypo Salzburg",
                "phone": "+43 6452 6486",
                "website": "https://www.hyposalzburg.at/de/privatkunden/Standorte/filiale-altenmarkt.html"
              },
              "geometry": {
                "type": "Point",
                "coordinates": [
                  13.4219111,
                  47.3791007
                ]
              }
            },
            {
              "type": "Feature",
              "properties": {
                "id": "7367649075",
                "osm_type": "node",
                "lat": 47.3784353,
                "lon": 13.4237882,
                "amenity": "bank",
                "contact:phone": "+43 50100 20404",
                "name": "Sparkasse",
                "opening_hours": "Mo-Fr 08:30-12:00, 14:00-16:30",
                "operator": "Salzburger Sparkasse Bank AG"
              },
              "geometry": {
                "type": "Point",
                "coordinates": [
                  13.4237882,
                  47.3784353
                ]
              }
            },
            {
              "type": "Feature",
              "properties": {
                "id": "7591639276",
                "osm_type": "node",
                "lat": 47.3844475,
                "lon": 13.4599636,
                "addr:city": "Radstadt",
                "addr:housenumber": "1",
                "addr:postcode": "5550",
                "addr:street": "Salzburger Straße",
                "amenity": "bank",
                "atm": "yes",
                "brand": "bank99",
                "brand:wikidata": "Q91200481",
                "brand:wikipedia": "de:Bank99",
                "drive_through": "no",
                "name": "bank99",
                "opening_hours": "Mo-Fr 08:00-17:30; Sa,Su,PH off",
                "operator": "bank99 AG",
                "website": "https://www.bank99.at"
              },
              "geometry": {
                "type": "Point",
                "coordinates": [
                  13.4599636,
                  47.3844475
                ]
              }
            },
            {
              "type": "Feature",
              "properties": {
                "id": "1044750242",
                "osm_type": "node",
                "lat": 47.4213638,
                "lon": 13.6553876,
                "addr:city": "Ramsau am Dachstein",
                "addr:country": "AT",
                "addr:housenumber": "207",
                "addr:place": "Ramsau",
                "addr:postcode": "8972",
                "amenity": "bank",
                "at_bev:addr_date": "2019-10-01",
                "atm": "yes",
                "brand": "Steiermärkische Sparkasse",
                "brand:wikidata": "Q1555572",
                "brand:wikipedia": "de:Steiermärkische Sparkasse",
                "drive_through": "no",
                "name": "Steiermärkische Sparkasse",
                "opening_hours": "Mo-Fr 08:30-12:00; Mo,Fr 14:30-16:30; Sa,Su,PH off",
                "operator": "Steiermärkische Bank und Sparkassen AG",
                "phone": "+43 5 0100 36177",
                "website": "https://www.sparkasse.at/steiermaerkische/privatkunden"
              },
              "geometry": {
                "type": "Point",
                "coordinates": [
                  13.6553876,
                  47.4213638
                ]
              }
            },
            {
              "type": "Feature",
              "properties": {
                "id": "1044750392",
                "osm_type": "node",
                "lat": 47.4218281,
                "lon": 13.6560314,
                "addr:city": "Ramsau am Dachstein",
                "addr:housenumber": "177",
                "addr:postcode": "8972",
                "addr:street": "Ramsau",
                "amenity": "bank",
                "atm": "yes",
                "brand": "Raiffeisen",
                "brand:wikidata": "Q2127528",
                "name": "Raiffeisen"
              },
              "geometry": {
                "type": "Point",
                "coordinates": [
                  13.6560314,
                  47.4218281
                ]
              }
            },
            {
              "type": "Feature",
              "properties": {
                "id": "1044802472",
                "osm_type": "node",
                "lat": 47.3928686,
                "lon": 13.6883059,
                "addr:city": "Schladming",
                "addr:housenumber": "189",
                "addr:postcode": "8970",
                "addr:street": "Schulgasse",
                "amenity": "bank",
                "atm": "yes",
                "brand": "Raiffeisen",
                "brand:wikidata": "Q22093483",
                "name": "Raiffeisen",
                "opening_hours": "Mo-Fr 08:00-12:00, Mo,Fr 14:30-16:30",
                "wheelchair": "yes"
              },
              "geometry": {
                "type": "Point",
                "coordinates": [
                  13.6883059,
                  47.3928686
                ]
              }
            },
            {
              "type": "Feature",
              "properties": {
                "id": "1044831680",
                "osm_type": "node",
                "lat": 47.4103925,
                "lon": 13.7693737,
                "addr:city": "Haus",
                "addr:country": "AT",
                "addr:housenumber": "188",
                "addr:postcode": "8967",
                "addr:street": "Raiffeisenstraße",
                "amenity": "bank",
                "at_bev:addr_date": "2018-04-02",
                "atm": "yes",
                "brand": "Raiffeisen",
                "brand:wikidata": "Q22093483",
                "name": "Raiffeisenbank",
                "phone": "+43 3686 2375",
                "wheelchair": "yes"
              },
              "geometry": {
                "type": "Point",
                "coordinates": [
                  13.7693737,
                  47.4103925
                ]
              }
            },
            {
              "type": "Feature",
              "properties": {
                "id": "1044924095",
                "osm_type": "node",
                "lat": 47.391438,
                "lon": 13.688638,
                "addr:city": "Schladming",
                "addr:housenumber": "36",
                "addr:postcode": "8970",
                "addr:street": "Hauptplatz",
                "amenity": "bank",
                "atm": "yes",
                "brand": "Bank Austria",
                "brand:wikidata": "Q697619",
                "brand:wikipedia": "en:Bank Austria",
                "name": "Bank Austria"
              },
              "geometry": {
                "type": "Point",
                "coordinates": [
                  13.688638,
                  47.391438
                ]
              }
            },
            {
              "type": "Feature",
              "properties": {
                "id": "1044924184",
                "osm_type": "node",
                "lat": 47.3917572,
                "lon": 13.6886413,
                "addr:city": "Schladming",
                "addr:country": "AT",
                "addr:housenumber": "15",
                "addr:postcode": "8970",
                "addr:street": "Hauptplatz",
                "amenity": "bank",
                "atm": "yes",
                "brand": "Volksbank",
                "brand:wikidata": "Q695110",
                "contact:phone": "+43 50 901 5300",
                "name": "Volksbank",
                "opening_hours": "Mo,We,Fr 08:30-12:00,14:00-16:30; Tu,Th 08:30-12:00",
                "website": "https://www.volksbank-stmk.at/"
              },
              "geometry": {
                "type": "Point",
                "coordinates": [
                  13.6886413,
                  47.3917572
                ]
              }
            },
            {
              "type": "Feature",
              "properties": {
                "id": "1388247580",
                "osm_type": "node",
                "lat": 47.4105033,
                "lon": 13.7661561,
                "addr:city": "Haus im Ennstal",
                "addr:housenumber": "30",
                "addr:postcode": "8967",
                "addr:street": "Marktstraße",
                "amenity": "bank",
                "atm": "yes",
                "brand": "Sparkasse",
                "brand:wikidata": "Q2307785",
                "brand:wikipedia": "de:Steiermärkische Sparkasse",
                "drive_through": "no",
                "name": "Steiermärkische Sparkasse",
                "opening_hours": "Mo-Fr 08:30-12:00; Fr 14:00-16:30",
                "operator": "Steiermärkische Bank und Sparkassen AG",
                "phone": "+43 5 0100 36176",
                "website": "https://www.sparkasse.at/steiermaerkische/filialen-oeffungszeiten/filialsuche/filiale/8967-haus/marktstrasse-30/ST04500176"
              },
              "geometry": {
                "type": "Point",
                "coordinates": [
                  13.7661561,
                  47.4105033
                ]
              }
            },
            {
              "type": "Feature",
              "properties": {
                "id": "1617524546",
                "osm_type": "node",
                "lat": 47.390682,
                "lon": 13.68827,
                "addr:city": "Schladming",
                "addr:postcode": "8970",
                "addr:street": "Martin-Luther-Straße",
                "amenity": "bank",
                "name": "Hypo Steiermark"
              },
              "geometry": {
                "type": "Point",
                "coordinates": [
                  13.68827,
                  47.390682
                ]
              }
            },
            {
              "type": "Feature",
              "properties": {
                "id": "3257125904",
                "osm_type": "node",
                "lat": 47.4213745,
                "lon": 13.8207962,
                "amenity": "bank",
                "atm": "yes",
                "name": "Raika"
              },
              "geometry": {
                "type": "Point",
                "coordinates": [
                  13.8207962,
                  47.4213745
                ]
              }
            },
            {
              "type": "Feature",
              "properties": {
                "id": "5850699493",
                "osm_type": "node",
                "lat": 47.3919562,
                "lon": 13.6891487,
                "addr:city": "Schladming",
                "addr:country": "AT",
                "addr:housenumber": "13",
                "addr:postcode": "8970",
                "addr:street": "Hauptplatz",
                "amenity": "bank",
                "atm": "yes",
                "brand": "Sparkasse",
                "brand:wikidata": "Q2307785",
                "drive_through": "no",
                "name": "Steiermärkische Sparkasse",
                "opening_hours": "Mo-Tu,Th-Fr 08:30-12:00, 14:30-16:30; We 08:30-12:00; Sa,Su,PH off",
                "operator": "Steiermärkische Bank und Sparkassen AG",
                "phone": "+43 5 0100 36174",
                "website": "https://www.sparkasse.at/steiermaerkische/privatkunden"
              },
              "geometry": {
                "type": "Point",
                "coordinates": [
                  13.6891487,
                  47.3919562
                ]
              }
            },
            {
              "type": "Feature",
              "properties": {
                "id": "7532279980",
                "osm_type": "node",
                "lat": 47.3926261,
                "lon": 13.6915567,
                "addr:city": "Schladming",
                "addr:country": "AT",
                "addr:housenumber": "44",
                "addr:postcode": "8970",
                "addr:street": "Coburgstraße",
                "amenity": "bank",
                "atm": "yes",
                "brand": "bank99",
                "brand:wikidata": "Q91200481",
                "drive_through": "no",
                "name": "bank99",
                "opening_hours": "Mo-Fr 08:00-12:00, 14:00-17:30; Sa,Su,PH off",
                "operator": "bank99 AG",
                "website": "https://www.bank99.at"
              },
              "geometry": {
                "type": "Point",
                "coordinates": [
                  13.6915567,
                  47.3926261
                ]
              }
            }
          ],
          "children": []
        },
        {
          "bbox": {
            "south": 47.36431175,
            "west": 13.82261775,
            "north": 47.529588375,
            "east": 14.2994695
          },
          "poiCount": 5,
          "leafCount": 5,
          "averagePosition": [
            13.992941859999998,
            47.466900880000004
          ],
          "data": [
            {
              "type": "Feature",
              "properties": {
                "id": "2163687736",
                "osm_type": "node",
                "lat": 47.4363359,
                "lon": 13.9399283,
                "amenity": "bank",
                "name": "Raiffeisenbank"
              },
              "geometry": {
                "type": "Point",
                "coordinates": [
                  13.9399283,
                  47.4363359
                ]
              }
            },
            {
              "type": "Feature",
              "properties": {
                "id": "5649200716",
                "osm_type": "node",
                "lat": 47.4230693,
                "lon": 13.8756432,
                "addr:city": "Michaelerberg-Pruggern",
                "addr:country": "AT",
                "addr:housenumber": "96",
                "addr:place": "Pruggern",
                "addr:postcode": "8965",
                "amenity": "bank",
                "at_bev:addr_date": "2017-10-01",
                "name": "Raiffeisenbank",
                "operator": "Raiffeisenbank Gröbming"
              },
              "geometry": {
                "type": "Point",
                "coordinates": [
                  13.8756432,
                  47.4230693
                ]
              }
            },
            {
              "type": "Feature",
              "properties": {
                "id": "7532279981",
                "osm_type": "node",
                "lat": 47.4490289,
                "lon": 13.9011777,
                "addr:city": "Gröbming",
                "addr:country": "AT",
                "addr:housenumber": "899",
                "addr:postcode": "8962",
                "addr:street": "Horstigstraße",
                "amenity": "bank",
                "atm": "yes",
                "brand": "bank99",
                "drive_through": "no",
                "name": "bank99",
                "opening_hours": "Mo-Fr 08:00-12:30,14:00-17:30; PH,Sa,Su off",
                "operator": "bank99 AG",
                "website": "https://www.bank99.at"
              },
              "geometry": {
                "type": "Point",
                "coordinates": [
                  13.9011777,
                  47.4490289
                ]
              }
            },
            {
              "type": "Feature",
              "properties": {
                "id": "1905075883",
                "osm_type": "node",
                "lat": 47.520692,
                "lon": 14.144048,
                "amenity": "bank",
                "atm": "yes",
                "name": "Raiffeisenbank Aigen"
              },
              "geometry": {
                "type": "Point",
                "coordinates": [
                  14.144048,
                  47.520692
                ]
              }
            },
            {
              "type": "Feature",
              "properties": {
                "id": "3093849103",
                "osm_type": "node",
                "lat": 47.5053783,
                "lon": 14.1039121,
                "addr:city": "Irdning-Donnersbachtal",
                "addr:country": "AT",
                "addr:housenumber": "9",
                "addr:postcode": "8952",
                "addr:street": "Irdning Hauptplatz",
                "amenity": "bank",
                "at_bev:addr_date": "2018-10-01",
                "atm": "yes",
                "brand": "Steiermärkische Sparkasse",
                "brand:wikidata": "Q1555572",
                "drive_through": "no",
                "name": "Steiermärkische Sparkasse"
              },
              "geometry": {
                "type": "Point",
                "coordinates": [
                  14.1039121,
                  47.5053783
                ]
              }
            }
          ],
          "children": []
        },
        {
          "bbox": {
            "south": 47.529588375,
            "west": 13.345766,
            "north": 47.694865,
            "east": 13.82261775
          },
          "poiCount": 11,
          "leafCount": 11,
          "averagePosition": [
            13.645025027272727,
            47.603160972727274
          ],
          "data": [
            {
              "type": "Feature",
              "properties": {
                "id": "1370782376",
                "osm_type": "node",
                "lat": 47.5927933,
                "lon": 13.467038,
                "addr:housename": "Raiffeisenbank",
                "amenity": "bank",
                "atm": "yes",
                "name": "Raiffeisenbank",
                "wheelchair": "yes"
              },
              "geometry": {
                "type": "Point",
                "coordinates": [
                  13.467038,
                  47.5927933
                ]
              }
            },
            {
              "type": "Feature",
              "properties": {
                "id": "4571678343",
                "osm_type": "node",
                "lat": 47.5632311,
                "lon": 13.346842,
                "addr:city": "Abtenau",
                "addr:country": "AT",
                "addr:housenumber": "150",
                "addr:place": "Markt",
                "addr:postcode": "5441",
                "amenity": "bank",
                "atm": "no",
                "brand": "bank99",
                "brand:wikidata": "Q91200481",
                "drive_through": "no",
                "name": "bank99",
                "opening_hours": "Mo-Fr 08:00-12:00,14:00-17:30; PH,Sa,Su off",
                "operator": "bank99 AG",
                "website": "https://www.bank99.at"
              },
              "geometry": {
                "type": "Point",
                "coordinates": [
                  13.346842,
                  47.5632311
                ]
              }
            },
            {
              "type": "Feature",
              "properties": {
                "id": "281043495",
                "osm_type": "node",
                "lat": 47.6403668,
                "lon": 13.6177642,
                "addr:city": "Bad Goisern",
                "addr:country": "AT",
                "addr:housenumber": "5",
                "addr:postcode": "4822",
                "addr:street": "Obere Marktstraße",
                "amenity": "bank",
                "atm": "yes",
                "full_name": "Raiffeisen Bankstelle Bad Goisern",
                "name": "Raiffeisenbank",
                "opening_hours": "Mo-Fr 08:00-12:00,14:00-17:00; We 08:00-12:00",
                "phone": "+43 6135 7781 0",
                "ref:bic": "RZOOAT2L545",
                "ref:blz": "34545",
                "wheelchair": "yes"
              },
              "geometry": {
                "type": "Point",
                "coordinates": [
                  13.6177642,
                  47.6403668
                ]
              }
            },
            {
              "type": "Feature",
              "properties": {
                "id": "281043496",
                "osm_type": "node",
                "lat": 47.6403865,
                "lon": 13.6172793,
                "amenity": "bank",
                "atm": "yes",
                "name": "Volksbank",
                "operator": "Volksbank",
                "wheelchair": "yes"
              },
              "geometry": {
                "type": "Point",
                "coordinates": [
                  13.6172793,
                  47.6403865
                ]
              }
            },
            {
              "type": "Feature",
              "properties": {
                "id": "281887683",
                "osm_type": "node",
                "lat": 47.6413326,
                "lon": 13.6160742,
                "amenity": "bank",
                "atm": "yes",
                "name": "Sparkasse"
              },
              "geometry": {
                "type": "Point",
                "coordinates": [
                  13.6160742,
                  47.6413326
                ]
              }
            },
            {
              "type": "Feature",
              "properties": {
                "id": "1396352131",
                "osm_type": "node",
                "lat": 47.5612464,
                "lon": 13.6483327,
                "amenity": "bank",
                "atm": "yes",
                "name": "Volksbank",
                "opening_hours": "Mo,Tu,Th,Fr 08:00-12:00,14:00-17:00, We 08:00-12:00",
                "wheelchair": "no"
              },
              "geometry": {
                "type": "Point",
                "coordinates": [
                  13.6483327,
                  47.5612464
                ]
              }
            },
            {
              "type": "Feature",
              "properties": {
                "id": "7384408151",
                "osm_type": "node",
                "lat": 47.5572893,
                "lon": 13.6472217,
                "amenity": "bank",
                "atm": "yes",
                "contact:fax": "+43 50100 949505",
                "contact:phone": "+43 50100 49505",
                "name": "Sparkasse Hallstatt",
                "opening_hours": "Mo-Fr 08:00-12:00; Mo 14:00-16:30",
                "website": "https://www.sparkasse.at/salzkammergut/wir-ueber-uns/Geschaeftsstellen/gs05",
                "wheelchair": "yes"
              },
              "geometry": {
                "type": "Point",
                "coordinates": [
                  13.6472217,
                  47.5572893
                ]
              }
            },
            {
              "type": "Feature",
              "properties": {
                "id": "7532279983",
                "osm_type": "node",
                "lat": 47.6091899,
                "lon": 13.7831166,
                "addr:city": "Bad Aussee",
                "addr:country": "AT",
                "addr:housenumber": "94",
                "addr:postcode": "8990",
                "addr:street": "Ischler Straße",
                "amenity": "bank",
                "atm": "yes",
                "brand": "bank99",
                "brand:wikidata": "Q91200481",
                "brand:wikipedia": "de:Bank99",
                "drive_through": "no",
                "name": "bank99",
                "opening_hours": "Mo-Fr 08:00-12:00, 14:00-17:30; Sa,Su,PH off",
                "operator": "bank99 AG",
                "website": "https://www.bank99.at"
              },
              "geometry": {
                "type": "Point",
                "coordinates": [
                  13.7831166,
                  47.6091899
                ]
              }
            },
            {
              "type": "Feature",
              "properties": {
                "id": "9034290250",
                "osm_type": "node",
                "lat": 47.6094597,
                "lon": 13.7829193,
                "amenity": "bank",
                "atm": "yes",
                "name": "Raiffeisenbank Steir. Salzkammergut",
                "opening_hours": "Mo-Fr 08:00-12:00, 14:00-16:30"
              },
              "geometry": {
                "type": "Point",
                "coordinates": [
                  13.7829193,
                  47.6094597
                ]
              }
            },
            {
              "type": "Feature",
              "properties": {
                "id": "10811572268",
                "osm_type": "node",
                "lat": 47.610664,
                "lon": 13.7851508,
                "amenity": "bank",
                "atm": "yes",
                "brand": "Oberbank",
                "brand:wikidata": "Q2009139",
                "brand:wikipedia": "de:Oberbank",
                "name": "Oberbank"
              },
              "geometry": {
                "type": "Point",
                "coordinates": [
                  13.7851508,
                  47.610664
                ]
              }
            },
            {
              "type": "Feature",
              "properties": {
                "id": "11260092748",
                "osm_type": "node",
                "lat": 47.6088111,
                "lon": 13.7835365,
                "addr:city": "Bad Aussee",
                "addr:country": "AT",
                "addr:housenumber": "95",
                "addr:postcode": "8990",
                "addr:street": "Bahnhofstraße",
                "amenity": "bank",
                "atm": "yes",
                "brand": "Steiermärkische Sparkasse",
                "brand:wikidata": "Q1555572",
                "brand:wikipedia": "de:Steiermärkische Sparkasse",
                "drive_through": "no",
                "name": "Steiermärkische Sparkasse",
                "opening_hours": "Mo-Tu,Th-Fr 08:30-12:00, 14:30-16:30; We 08:30-12:00; Sa,Su,PH off",
                "operator": "Steiermärkische Bank und Sparkassen AG",
                "phone": "+43 5 0100 36216",
                "website": "https://www.sparkasse.at/steiermaerkische/privatkunden"
              },
              "geometry": {
                "type": "Point",
                "coordinates": [
                  13.7835365,
                  47.6088111
                ]
              }
            }
          ],
          "children": []
        },
        {
          "bbox": {
            "south": 47.529588375,
            "west": 13.82261775,
            "north": 47.694865,
            "east": 14.2994695
          },
          "poiCount": 12,
          "leafCount": 12,
          "averagePosition": [
            14.089668566666667,
            47.562931625000004
          ],
          "data": [
            {
              "type": "Feature",
              "properties": {
                "id": "356721807",
                "osm_type": "node",
                "lat": 47.5553204,
                "lon": 13.9321581,
                "addr:city": "Bad Mitterndorf",
                "addr:country": "AT",
                "addr:housenumber": "348",
                "addr:place": "Bad Mitterndorf",
                "addr:postcode": "8983",
                "amenity": "bank",
                "atm": "yes",
                "brand": "Steiermärkische Sparkasse",
                "brand:wikidata": "Q1555572",
                "brand:wikipedia": "de:Steiermärkische Sparkasse",
                "drive_through": "no",
                "name": "Steiermärkische Sparkasse",
                "opening_hours": "Mo-Fr 08:30-12:00; Mo,Fr 14:30-16:30; Sa,Su,PH off",
                "operator": "Steiermärkische Bank und Sparkassen AG",
                "phone": "+43 5 0100 36218",
                "website": "https://www.sparkasse.at/steiermaerkische/privatkunden"
              },
              "geometry": {
                "type": "Point",
                "coordinates": [
                  13.9321581,
                  47.5553204
                ]
              }
            },
            {
              "type": "Feature",
              "properties": {
                "id": "356721808",
                "osm_type": "node",
                "lat": 47.5549537,
                "lon": 13.9321658,
                "amenity": "bank",
                "atm": "yes",
                "brand": "Raiffeisen",
                "brand:wikidata": "Q2127528",
                "contact:phone": "+43 3623 6000",
                "name": "Raiffeisen",
                "website": "https://www.raiffeisen.at/stmk/steirisches-salzkammergut-oeblarn/de/meine-bank/bankstellen/bad-mitterndorf.html"
              },
              "geometry": {
                "type": "Point",
                "coordinates": [
                  13.9321658,
                  47.5549537
                ]
              }
            },
            {
              "type": "Feature",
              "properties": {
                "id": "1643419608",
                "osm_type": "node",
                "lat": 47.5551113,
                "lon": 13.9348773,
                "addr:city": "Bad Mitterndorf",
                "addr:country": "AT",
                "addr:postcode": "8983",
                "amenity": "bank",
                "atm": "yes",
                "check_date": "2025-02-21",
                "contact:email": "badmitterndorf@volksbanksalzburg.at",
                "contact:phone": "+43 3623 2323",
                "name": "Volksbank",
                "opening_hours": "Mo, Fr 08:30-12:00, 14:30-16:30; Tu-Th 08:30-12:00",
                "operator": "Volksbank Salzburg eG",
                "website": "https://www.volksbanksalzburg.at/m101/volksbank/m007_45010/de/filiale/filiale_bad_mitterndorf.jsp"
              },
              "geometry": {
                "type": "Point",
                "coordinates": [
                  13.9348773,
                  47.5551113
                ]
              }
            },
            {
              "type": "Feature",
              "properties": {
                "id": "1877193024",
                "osm_type": "node",
                "lat": 47.561626,
                "lon": 14.0119258,
                "addr:city": "Bad Mitterndorf",
                "addr:country": "AT",
                "addr:housenumber": "13",
                "addr:place": "Tauplitz",
                "addr:postcode": "8982",
                "amenity": "bank",
                "at_bev:addr_date": "2018-10-01",
                "atm": "yes",
                "contact:phone": "+43 3688 2223",
                "fee": "yes",
                "name": "Raiffeisenbank",
                "operator": "Raiffeisenbank",
                "website": "https://www.raiffeisen.at/stmk/steirisches-salzkammergut-oeblarn/de/meine-bank/bankstellen/tauplitz.html"
              },
              "geometry": {
                "type": "Point",
                "coordinates": [
                  14.0119258,
                  47.561626
                ]
              }
            },
            {
              "type": "Feature",
              "properties": {
                "id": "8971693420",
                "osm_type": "node",
                "lat": 47.626382,
                "lon": 13.8383773,
                "amenity": "bank",
                "brand": "bank99",
                "brand:wikidata": "Q91200481",
                "brand:wikipedia": "de:Bank99",
                "level": "0",
                "name": "bank99"
              },
              "geometry": {
                "type": "Point",
                "coordinates": [
                  13.8383773,
                  47.626382
                ]
              }
            },
            {
              "type": "Feature",
              "properties": {
                "id": "463216384",
                "osm_type": "node",
                "lat": 47.5673894,
                "lon": 14.2406387,
                "addr:city": "Liezen",
                "addr:country": "AT",
                "addr:housenumber": "14",
                "addr:postcode": "8940",
                "addr:street": "Hauptplatz",
                "amenity": "bank",
                "atm": "yes",
                "brand": "Volksbank",
                "brand:wikidata": "Q695110",
                "contact:phone": "+43 50 901 5200",
                "name": "Volksbank",
                "opening_hours": "Mo-Fr 08:30-12:30, 14:30-16:30",
                "operator": "Volksbank",
                "source": "Adressdaten: © Österreichisches Adressregister, Stichtagsdaten vom 02.10.2016",
                "website": "https://www.volksbank-stmk.at/",
                "wheelchair": "limited"
              },
              "geometry": {
                "type": "Point",
                "coordinates": [
                  14.2406387,
                  47.5673894
                ]
              }
            },
            {
              "type": "Feature",
              "properties": {
                "id": "463216385",
                "osm_type": "node",
                "lat": 47.5668712,
                "lon": 14.2410403,
                "addr:city": "Liezen",
                "addr:country": "AT",
                "addr:housenumber": "11",
                "addr:postcode": "8940",
                "addr:street": "Hauptplatz",
                "amenity": "bank",
                "at_bev:addr_date": "2019-10-01",
                "atm": "yes",
                "brand": "Raiffeisen",
                "brand:wikidata": "Q22093483",
                "contact:phone": "+43 3612 22203",
                "name": "Raiffeisenbank Liezen",
                "opening_hours": "Mo, We, Fr 09:00-12:00, 14:00-16:00; Tu, Th 09:00-12:00",
                "operator": "Raiffeisenbank",
                "website": "https://www.raiffeisen.at/stmk/region-liezen/de/meine-bank/bankstellen/liezen.html",
                "wheelchair": "yes"
              },
              "geometry": {
                "type": "Point",
                "coordinates": [
                  14.2410403,
                  47.5668712
                ]
              }
            },
            {
              "type": "Feature",
              "properties": {
                "id": "1081753193",
                "osm_type": "node",
                "lat": 47.5679994,
                "lon": 14.2430971,
                "amenity": "bank",
                "atm": "yes",
                "brand": "Bank Austria",
                "brand:wikidata": "Q697619",
                "brand:wikipedia": "en:Bank Austria",
                "name": "Bank Austria",
                "operator": "Bank Austria"
              },
              "geometry": {
                "type": "Point",
                "coordinates": [
                  14.2430971,
                  47.5679994
                ]
              }
            },
            {
              "type": "Feature",
              "properties": {
                "id": "1829741394",
                "osm_type": "node",
                "lat": 47.5670815,
                "lon": 14.2407001,
                "addr:city": "Liezen",
                "addr:country": "AT",
                "addr:housenumber": "13",
                "addr:postcode": "8940",
                "addr:street": "Hauptplatz",
                "amenity": "bank",
                "atm": "yes",
                "brand": "bank99",
                "brand:wikidata": "Q91200481",
                "brand:wikipedia": "de:Bank99",
                "drive_through": "no",
                "name": "bank99",
                "opening_hours": "Mo-Fr 08:00-12:00, 14:00-17:30; Sa,Su,PH off",
                "operator": "bank99 AG",
                "website": "https://www.bank99.at"
              },
              "geometry": {
                "type": "Point",
                "coordinates": [
                  14.2407001,
                  47.5670815
                ]
              }
            },
            {
              "type": "Feature",
              "properties": {
                "id": "5485628319",
                "osm_type": "node",
                "lat": 47.5335042,
                "lon": 14.1087534,
                "amenity": "bank",
                "atm": "yes",
                "brand": "Steiermärkische Sparkasse",
                "brand:wikidata": "Q1555572",
                "brand:wikipedia": "de:Steiermärkische Sparkasse",
                "name": "Steiermärkische Sparkasse"
              },
              "geometry": {
                "type": "Point",
                "coordinates": [
                  14.1087534,
                  47.5335042
                ]
              }
            },
            {
              "type": "Feature",
              "properties": {
                "id": "6780851817",
                "osm_type": "node",
                "lat": 47.5330723,
                "lon": 14.1088834,
                "addr:city": "Stainach-Pürgg",
                "addr:country": "AT",
                "addr:housenumber": "155",
                "addr:postcode": "8950",
                "addr:street": "Bahnhofstraße",
                "amenity": "bank",
                "at_bev:addr_date": "2018-10-01",
                "brand": "Raiffeisen",
                "brand:wikidata": "Q22093483",
                "name": "Raiffeisen",
                "opening_hours": "Mo-Fr 08:00-12:00"
              },
              "geometry": {
                "type": "Point",
                "coordinates": [
                  14.1088834,
                  47.5330723
                ]
              }
            },
            {
              "type": "Feature",
              "properties": {
                "id": "7608329119",
                "osm_type": "node",
                "lat": 47.5658681,
                "lon": 14.2434055,
                "addr:city": "Liezen",
                "addr:housenumber": "1",
                "addr:postcode": "8940",
                "addr:street": "Bahnhofweg",
                "amenity": "bank",
                "brand": "BAWAG PSK",
                "brand:wikidata": "Q379938",
                "brand:wikipedia": "en:BAWAG P.S.K.",
                "drive_through": "no",
                "name": "BAWAG PSK",
                "opening_hours": "Mo-Fr 09:00-17:00; Sa,Su,PH off",
                "operator": "BAWAG PSK AG"
              },
              "geometry": {
                "type": "Point",
                "coordinates": [
                  14.2434055,
                  47.5658681
                ]
              }
            }
          ],
          "children": []
        }
      ]
    },
    {
      "bbox": {
        "south": 47.36431175,
        "west": 14.2994695,
        "north": 47.694865,
        "east": 15.253173
      },
      "poiCount": 30,
      "leafCount": 30,
      "averagePosition": [
        14.802216486666667,
        47.505454926666665
      ],
      "data": [
        {
          "type": "Feature",
          "properties": {
            "id": "616466883",
            "osm_type": "node",
            "lat": 47.5776888,
            "lon": 14.4607655,
            "addr:city": "Admont",
            "addr:housenumber": "536",
            "addr:postcode": "8911",
            "addr:street": "Dr. Genger Platz",
            "amenity": "bank",
            "atm": "yes",
            "brand": "Steiermärkische Sparkasse",
            "brand:wikidata": "Q1555572",
            "drive_through": "no",
            "name": "Steiermärkische Sparkasse",
            "opening_hours": "Mo-Fr 08:30-12:00; Mo,Th-Fr 14:00-16:00; Sa,Su,PH off",
            "operator": "Steiermärkische Bank und Sparkassen AG",
            "phone": "+43 5 0100 36092",
            "website": "https://www.sparkasse.at/steiermaerkische/privatkunden"
          },
          "geometry": {
            "type": "Point",
            "coordinates": [
              14.4607655,
              47.5776888
            ]
          }
        },
        {
          "type": "Feature",
          "properties": {
            "id": "1377600379",
            "osm_type": "node",
            "lat": 47.4867975,
            "lon": 14.4866067,
            "addr:city": "Trieben",
            "addr:country": "AT",
            "addr:housenumber": "4",
            "addr:postcode": "8784",
            "addr:street": "Triebener Bundesstraße",
            "amenity": "bank",
            "atm": "yes",
            "brand": "Steiermärkische Sparkasse",
            "brand:wikidata": "Q1555572",
            "brand:wikipedia": "de:Steiermärkische Sparkasse",
            "drive_through": "no",
            "name": "Steiermärkische Sparkasse",
            "opening_hours": "Mo-Fr 08:30-12:00; Mo,Th-Fr 14:00-16:00; Sa,Su,PH off",
            "operator": "Steiermärkische Bank und Sparkassen AG",
            "phone": "+43 5 0100 36094",
            "website": "https://www.sparkasse.at/steiermaerkische/privatkunden"
          },
          "geometry": {
            "type": "Point",
            "coordinates": [
              14.4866067,
              47.4867975
            ]
          }
        },
        {
          "type": "Feature",
          "properties": {
            "id": "1377600380",
            "osm_type": "node",
            "lat": 47.4872466,
            "lon": 14.4862995,
            "amenity": "bank",
            "atm": "yes",
            "brand": "Raiffeisen",
            "name": "Raiffeisenbank"
          },
          "geometry": {
            "type": "Point",
            "coordinates": [
              14.4862995,
              47.4872466
            ]
          }
        },
        {
          "type": "Feature",
          "properties": {
            "id": "1742185759",
            "osm_type": "node",
            "lat": 47.5250839,
            "lon": 14.3576,
            "amenity": "bank",
            "atm": "yes",
            "brand": "Raiffeisen",
            "brand:wikidata": "Q22093483",
            "name": "Raiffeisen",
            "wheelchair": "yes"
          },
          "geometry": {
            "type": "Point",
            "coordinates": [
              14.3576,
              47.5250839
            ]
          }
        },
        {
          "type": "Feature",
          "properties": {
            "id": "1742185761",
            "osm_type": "node",
            "lat": 47.5254268,
            "lon": 14.3580395,
            "addr:city": "Rottenmann",
            "addr:country": "AT",
            "addr:housenumber": "56",
            "addr:postcode": "8786",
            "addr:street": "Hauptstraße",
            "amenity": "bank",
            "atm": "yes",
            "brand": "Sparkasse",
            "brand:wikidata": "Q2307785",
            "brand:wikipedia": "de:Steiermärkische Sparkasse",
            "drive_through": "no",
            "name": "Steiermärkische Sparkasse",
            "opening_hours": "Mo-Fr 08:30-12:00; Mo,Th-Fr 14:00-16:00; Sa,Su,PH off",
            "operator": "Steiermärkische Bank und Sparkassen AG",
            "phone": "+43 5 0100 36093",
            "website": "https://www.sparkasse.at/steiermaerkische/privatkunden",
            "wheelchair": "limited"
          },
          "geometry": {
            "type": "Point",
            "coordinates": [
              14.3580395,
              47.5254268
            ]
          }
        },
        {
          "type": "Feature",
          "properties": {
            "id": "1742185764",
            "osm_type": "node",
            "lat": 47.5256735,
            "lon": 14.3607377,
            "amenity": "bank",
            "atm": "yes",
            "brand": "Volksbank",
            "brand:wikidata": "Q695110",
            "name": "Volksbank"
          },
          "geometry": {
            "type": "Point",
            "coordinates": [
              14.3607377,
              47.5256735
            ]
          }
        },
        {
          "type": "Feature",
          "properties": {
            "id": "6452706747",
            "osm_type": "node",
            "lat": 47.5494194,
            "lon": 14.3144741,
            "addr:city": "Selzthal",
            "addr:country": "AT",
            "addr:housenumber": "40a",
            "addr:postcode": "8900",
            "addr:street": "Hauptstraße",
            "amenity": "bank",
            "at_bev:addr_date": "2019-04-01",
            "atm": "yes",
            "drive_through": "no",
            "name": "Raiffeisenbank",
            "opening_hours": "Mo,Tu,Th 09:00-12:00; We,Fr 14:00-16:00; PH off"
          },
          "geometry": {
            "type": "Point",
            "coordinates": [
              14.3144741,
              47.5494194
            ]
          }
        },
        {
          "type": "Feature",
          "properties": {
            "id": "6845030381",
            "osm_type": "node",
            "lat": 47.5256061,
            "lon": 14.3591306,
            "addr:city": "Rottenmann",
            "addr:country": "AT",
            "addr:housenumber": "51",
            "addr:postcode": "8786",
            "addr:street": "Fürstgasse",
            "amenity": "bank",
            "atm": "yes",
            "brand": "bank99",
            "brand:wikidata": "Q91200481",
            "brand:wikipedia": "de:Bank99",
            "drive_through": "no",
            "name": "bank99",
            "opening_hours": "Mo-Fr 08:00-12:00, 14:00-17:30; Sa,Su,PH off",
            "operator": "bank99 AG",
            "website": "https://www.bank99.at",
            "wheelchair": "yes"
          },
          "geometry": {
            "type": "Point",
            "coordinates": [
              14.3591306,
              47.5256061
            ]
          }
        },
        {
          "type": "Feature",
          "properties": {
            "id": "9312813862",
            "osm_type": "node",
            "lat": 47.490372,
            "lon": 14.4847332,
            "addr:city": "Trieben",
            "addr:housenumber": "10",
            "addr:postcode": "8784",
            "addr:street": "Europastraße",
            "amenity": "bank",
            "brand": "bank99",
            "brand:wikidata": "Q91200481",
            "brand:wikipedia": "de:Bank99",
            "name": "bank99",
            "wheelchair": "yes"
          },
          "geometry": {
            "type": "Point",
            "coordinates": [
              14.4847332,
              47.490372
            ]
          }
        },
        {
          "type": "Feature",
          "properties": {
            "id": "12976492101",
            "osm_type": "node",
            "lat": 47.5982505,
            "lon": 14.4593786,
            "addr:housenumber": "739",
            "addr:street": "Hall",
            "amenity": "bank"
          },
          "geometry": {
            "type": "Point",
            "coordinates": [
              14.4593786,
              47.5982505
            ]
          }
        },
        {
          "type": "Feature",
          "properties": {
            "id": "1344333026",
            "osm_type": "node",
            "lat": 47.5434119,
            "lon": 14.8838531,
            "amenity": "bank",
            "brand": "Raiffeisen",
            "name": "Raiffeisen"
          },
          "geometry": {
            "type": "Point",
            "coordinates": [
              14.8838531,
              47.5434119
            ]
          }
        },
        {
          "type": "Feature",
          "properties": {
            "id": "2445562312",
            "osm_type": "node",
            "lat": 47.4257147,
            "lon": 15.0051137,
            "addr:city": "Trofaiach",
            "addr:country": "AT",
            "addr:housenumber": "5",
            "addr:postcode": "8793",
            "addr:street": "Hauptplatz",
            "amenity": "bank",
            "atm": "yes",
            "brand": "bank99",
            "brand:wikidata": "Q91200481",
            "drive_through": "no",
            "name": "bank99",
            "opening_hours": "Mo-Fr 08:00-12:00, 14:00-17:30; Sa,Su,PH off",
            "operator": "bank99 AG",
            "website": "https://www.bank99.at"
          },
          "geometry": {
            "type": "Point",
            "coordinates": [
              15.0051137,
              47.4257147
            ]
          }
        },
        {
          "type": "Feature",
          "properties": {
            "id": "3750654390",
            "osm_type": "node",
            "lat": 47.6632446,
            "lon": 14.9874849,
            "addr:postcode": "8924",
            "amenity": "bank",
            "atm": "yes",
            "name": "Raiffeisenbank",
            "opening_hours": "We 14:00-16:00; Fr 08:30-12:00",
            "phone": "+43 3636 224"
          },
          "geometry": {
            "type": "Point",
            "coordinates": [
              14.9874849,
              47.6632446
            ]
          }
        },
        {
          "type": "Feature",
          "properties": {
            "id": "4333843519",
            "osm_type": "node",
            "lat": 47.4287923,
            "lon": 14.7558252,
            "addr:city": "Kalwang",
            "addr:country": "AT",
            "addr:housenumber": "8",
            "addr:postcode": "8775",
            "addr:street": "Marktstraße",
            "amenity": "bank",
            "at_bev:addr_date": "2021-10-01",
            "atm": "yes",
            "name": "Raiffeisenbank"
          },
          "geometry": {
            "type": "Point",
            "coordinates": [
              14.7558252,
              47.4287923
            ]
          }
        },
        {
          "type": "Feature",
          "properties": {
            "id": "7131947842",
            "osm_type": "node",
            "lat": 47.426458,
            "lon": 15.006537,
            "addr:city": "Trofaiach",
            "addr:country": "AT",
            "addr:housenumber": "1",
            "addr:postcode": "8793",
            "addr:street": "Hauptplatz",
            "amenity": "bank",
            "at_bev:addr_date": "2019-10-01",
            "atm": "yes",
            "brand": "Steiermärkische Sparkasse",
            "brand:wikidata": "Q1555572",
            "drive_through": "no",
            "name": "Steiermärkische Sparkasse",
            "opening_hours": "Mo-Fr 08:30-12:00; Mo,We-Fr 14:00-16:00; Sa,Su,PH off",
            "operator": "Steiermärkische Bank und Sparkassen AG",
            "phone": "+43 5 0100 36242",
            "website": "https://www.sparkasse.at/steiermaerkische/privatkunden",
            "wheelchair": "yes"
          },
          "geometry": {
            "type": "Point",
            "coordinates": [
              15.006537,
              47.426458
            ]
          }
        },
        {
          "type": "Feature",
          "properties": {
            "id": "7532472239",
            "osm_type": "node",
            "lat": 47.5433438,
            "lon": 14.8838737,
            "addr:city": "Eisenerz",
            "addr:housenumber": "21-23",
            "addr:postcode": "8790",
            "addr:street": "Hieflauer Straße",
            "amenity": "bank",
            "atm": "yes",
            "brand": "bank99",
            "brand:wikidata": "Q91200481",
            "drive_through": "no",
            "name": "bank99",
            "opening_hours": "Mo-Fr 08:00-12:00, 14:00-17:00; Sa,Su,PH off",
            "operator": "bank99 AG",
            "website": "https://www.bank99.at"
          },
          "geometry": {
            "type": "Point",
            "coordinates": [
              14.8838737,
              47.5433438
            ]
          }
        },
        {
          "type": "Feature",
          "properties": {
            "id": "9962702687",
            "osm_type": "node",
            "lat": 47.6917732,
            "lon": 14.6172573,
            "addr:city": "St. Gallen",
            "addr:housenumber": "48",
            "addr:postcode": "8933",
            "addr:street": "Markt",
            "amenity": "bank",
            "atm": "yes",
            "brand": "Steiermärkische Sparkasse",
            "brand:wikidata": "Q1555572",
            "name": "Steiermärkische Sparkasse",
            "opening_hours": "Mo-Fr 08:30-12:00",
            "source": "https://www.sparkasse.at/sgruppe/filialen-oeffungszeiten/filialsuche/filiale/8933-st-gallen/markt-48/ST04500090"
          },
          "geometry": {
            "type": "Point",
            "coordinates": [
              14.6172573,
              47.6917732
            ]
          }
        },
        {
          "type": "Feature",
          "properties": {
            "id": "9962702689",
            "osm_type": "node",
            "lat": 47.6924661,
            "lon": 14.6170544,
            "addr:street": "Markt",
            "amenity": "bank",
            "atm": "yes",
            "name": "Raiffeisenbank, SB-Bankstelle",
            "opening_hours": "24/7",
            "operator": "Raiffeisenbank Admont",
            "wheelchair": "yes"
          },
          "geometry": {
            "type": "Point",
            "coordinates": [
              14.6170544,
              47.6924661
            ]
          }
        },
        {
          "type": "Feature",
          "properties": {
            "id": "10560126370",
            "osm_type": "node",
            "lat": 47.42361,
            "lon": 15.0021032,
            "amenity": "bank",
            "atm": "yes",
            "name": "Volksbank"
          },
          "geometry": {
            "type": "Point",
            "coordinates": [
              15.0021032,
              47.42361
            ]
          }
        },
        {
          "type": "Feature",
          "properties": {
            "id": "12662926504",
            "osm_type": "node",
            "lat": 47.6559771,
            "lon": 14.7362705,
            "addr:city": "Landl",
            "addr:country": "AT",
            "addr:housenumber": "148",
            "addr:place": "Kirchenlandl",
            "addr:postcode": "8931",
            "amenity": "bank",
            "atm": "yes",
            "brand": "Raiffeisen",
            "brand:wikidata": "Q22093483",
            "name": "Raiffeisen",
            "opening_hours": "24/7",
            "self_service": "only"
          },
          "geometry": {
            "type": "Point",
            "coordinates": [
              14.7362705,
              47.6559771
            ]
          }
        },
        {
          "type": "Feature",
          "properties": {
            "id": "248060302",
            "osm_type": "node",
            "lat": 47.5435223,
            "lon": 15.2383414,
            "amenity": "bank",
            "atm": "yes",
            "automated": "yes",
            "name": "Sparkasse nur Geldautomat & Kontoauszüge",
            "self_service": "yes"
          },
          "geometry": {
            "type": "Point",
            "coordinates": [
              15.2383414,
              47.5435223
            ]
          }
        },
        {
          "type": "Feature",
          "properties": {
            "id": "248060370",
            "osm_type": "node",
            "lat": 47.5444901,
            "lon": 15.2409885,
            "amenity": "bank",
            "name": "Raiffeisen"
          },
          "geometry": {
            "type": "Point",
            "coordinates": [
              15.2409885,
              47.5444901
            ]
          }
        },
        {
          "type": "Feature",
          "properties": {
            "id": "649548731",
            "osm_type": "node",
            "lat": 47.3809956,
            "lon": 15.0942689,
            "amenity": "bank",
            "atm": "yes",
            "brand": "Raiffeisen",
            "brand:wikidata": "Q2127528",
            "name": "Raiffeisen"
          },
          "geometry": {
            "type": "Point",
            "coordinates": [
              15.0942689,
              47.3809956
            ]
          }
        },
        {
          "type": "Feature",
          "properties": {
            "id": "649548758",
            "osm_type": "node",
            "lat": 47.3798962,
            "lon": 15.0953832,
            "addr:city": "Leoben",
            "addr:country": "AT",
            "addr:housenumber": "4",
            "addr:postcode": "8700",
            "addr:street": "Hauptplatz",
            "addr:suburb": "Leoben",
            "amenity": "bank",
            "atm": "yes",
            "name": "Volksbank",
            "source": "survey",
            "wheelchair": "yes"
          },
          "geometry": {
            "type": "Point",
            "coordinates": [
              15.0953832,
              47.3798962
            ]
          }
        },
        {
          "type": "Feature",
          "properties": {
            "id": "840572471",
            "osm_type": "node",
            "lat": 47.3819127,
            "lon": 15.0926735,
            "addr:city": "Leoben",
            "addr:housenumber": "13",
            "addr:postcode": "8700",
            "addr:street": "Erzherzog Johann-Straße",
            "addr:suburb": "Leoben",
            "amenity": "bank",
            "atm": "yes",
            "brand": "Steiermärkische Sparkasse",
            "brand:wikidata": "Q1555572",
            "brand:wikipedia": "de:Steiermärkische Sparkasse",
            "drive_through": "no",
            "name": "Steiermärkische Sparkasse",
            "opening_hours": "Mo-Th 08:30-12:00, 14:00-16:00; Fr 08:30-12:00, 14:00-15:00; Sa,Su,PH off",
            "operator": "Steiermärkische Bank und Sparkassen AG",
            "phone": "+43 5 0100 36240",
            "website": "https://www.sparkasse.at/steiermaerkische/privatkunden",
            "wheelchair": "yes"
          },
          "geometry": {
            "type": "Point",
            "coordinates": [
              15.0926735,
              47.3819127
            ]
          }
        },
        {
          "type": "Feature",
          "properties": {
            "id": "1301795899",
            "osm_type": "node",
            "lat": 47.47094,
            "lon": 15.1601227,
            "amenity": "bank",
            "atm": "yes",
            "name": "Raiba",
            "wheelchair": "no"
          },
          "geometry": {
            "type": "Point",
            "coordinates": [
              15.1601227,
              47.47094
            ]
          }
        },
        {
          "type": "Feature",
          "properties": {
            "id": "1393370520",
            "osm_type": "node",
            "lat": 47.3821553,
            "lon": 15.0936887,
            "addr:city": "Leoben",
            "addr:housenumber": "17",
            "addr:postcode": "8700",
            "addr:street": "Erzherzog Johann-Straße",
            "addr:suburb": "Leoben",
            "amenity": "bank",
            "atm": "yes",
            "brand": "bank99",
            "brand:wikidata": "Q91200481",
            "brand:wikipedia": "de:Bank99",
            "drive_through": "no",
            "name": "bank99",
            "opening_hours": "Mo-Fr 08:00-18:00; Sa,Su,PH off",
            "operator": "bank99 AG",
            "website": "https://www.bank99.at"
          },
          "geometry": {
            "type": "Point",
            "coordinates": [
              15.0936887,
              47.3821553
            ]
          }
        },
        {
          "type": "Feature",
          "properties": {
            "id": "4827197646",
            "osm_type": "node",
            "lat": 47.5161429,
            "lon": 15.1737203,
            "amenity": "bank",
            "name": "Raiffeisenbank Bankstelle Etmißl"
          },
          "geometry": {
            "type": "Point",
            "coordinates": [
              15.1737203,
              47.5161429
            ]
          }
        },
        {
          "type": "Feature",
          "properties": {
            "id": "9895464592",
            "osm_type": "node",
            "lat": 47.3810114,
            "lon": 15.0959539,
            "addr:housenumber": "5",
            "addr:street": "Josef Graf-Gasse",
            "amenity": "bank",
            "atm": "yes",
            "brand": "BAWAG PSK",
            "brand:wikidata": "Q379938",
            "name": "BAWAG PSK",
            "opening_hours": "Mo-Fr 09:00-13:00"
          },
          "geometry": {
            "type": "Point",
            "coordinates": [
              15.0959539,
              47.3810114
            ]
          }
        },
        {
          "type": "Feature",
          "properties": {
            "id": "10678432966",
            "osm_type": "node",
            "lat": 47.3962245,
            "lon": 15.1582151,
            "amenity": "bank",
            "brand": "Raiffeisen",
            "brand:wikidata": "Q2127528",
            "contact:phone": "+43 50 460",
            "name": "Raiffeisen",
            "opening_hours": "Mo 08:30-12:00, 14:00-16:00; We 08:30-12:00",
            "operator": "Raiffeisenbank Leoben-Bruck"
          },
          "geometry": {
            "type": "Point",
            "coordinates": [
              15.1582151,
              47.3962245
            ]
          }
        }
      ],
      "children": []
    }
  ]
}