{
  "bbox": {
    "south": 48.355971499999995,
    "west": 13.345766,
    "north": 49.017078,
    "east": 15.253173
  },
  "poiCount": 227,
  "leafCount": 0,
  "averagePosition": [
    14.183619283259914,
    48.63017257621145
  ],
  "data": [],
  "children": [
    {
      "bbox": {
        "south": 48.355971499999995,
        "west": 13.345766,
        "north": 48.68652475,
        "east": 14.2994695
      },
      "poiCount": 99,
      "leafCount": 0,
      "averagePosition": [
        13.722172719191919,
        48.5132918989899
      ],
      "data": [],
      "children": [
        {
          "bbox": {
            "south": 48.355971499999995,
            "west": 13.345766,
            "north": 48.521248125,
            "east": 13.82261775
          },
          "poiCount": 26,
          "leafCount": 26,
          "averagePosition": [
            13.549983450000001,
            48.435310211538464
          ],
          "data": [
            {
              "type": "Feature",
              "properties": {
                "id": "693248007",
                "osm_type": "node",
                "lat": 48.3710406,
                "lon": 13.5750794,
                "addr:city": "Andorf",
                "addr:country": "AT",
                "addr:housenumber": "9",
                "addr:postcode": "4770",
                "addr:street": "Hauptstraße",
                "amenity": "bank",
                "atm": "yes",
                "name": "Volksbank",
                "note": "BLZ 42630 BIC VBOEATWWSRD",
                "opening_hours": "Mo,Tu,Th 08:00-12:00,14:00-16:30; We 08:00-12:00; Fr 08:00-12:00,14:00-17:00",
                "operator": "Volksbank Schärding",
                "phone": "+43 (7766) 2168-0",
                "website": "http://www.schaerding.volksbank.at/"
              },
              "geometry": {
                "type": "Point",
                "coordinates": [
                  13.5750794,
                  48.3710406
                ]
              }
            },
            {
              "type": "Feature",
              "properties": {
                "id": "693262529",
                "osm_type": "node",
                "lat": 48.370335,
                "lon": 13.5735988,
                "addr:city": "Andorf",
                "addr:country": "AT",
                "addr:housenumber": "1",
                "addr:postcode": "4770",
                "addr:street": "Raiffeisenweg",
                "amenity": "bank",
                "atm": "yes",
                "name": "Raiffeisenbank",
                "note": "BLZ 34455 BIC RZOOAT2L455",
                "opening_hours": "Mo,Tu,Th 08:00-12:00,14:00-16:30; We 08:00-12:00; Fr 08:00-12:00,14:00-17:00",
                "operator": "Raiffeisenbank Region Pramtal",
                "website": "https://www.raiffeisen-ooe.at/"
              },
              "geometry": {
                "type": "Point",
                "coordinates": [
                  13.5735988,
                  48.370335
                ]
              }
            },
            {
              "type": "Feature",
              "properties": {
                "id": "1546433806",
                "osm_type": "node",
                "lat": 48.3715178,
                "lon": 13.57349,
                "addr:city": "Andorf",
                "addr:housenumber": "1",
                "addr:postcode": "4770",
                "addr:street": "Rathausstraße",
                "amenity": "bank",
                "name": "Sparkasse"
              },
              "geometry": {
                "type": "Point",
                "coordinates": [
                  13.57349,
                  48.3715178
                ]
              }
            },
            {
              "type": "Feature",
              "properties": {
                "id": "12061299167",
                "osm_type": "node",
                "lat": 48.3694929,
                "lon": 13.5713329,
                "addr:city": "Andorf",
                "addr:country": "AT",
                "addr:housenumber": "44",
                "addr:postcode": "4770",
                "addr:street": "Hauptstraße",
                "amenity": "bank",
                "atm": "yes",
                "name": "bank99",
                "operator": "Schrattenecker Spielwaren Bürobedarf",
                "website": "https://bank99.at/"
              },
              "geometry": {
                "type": "Point",
                "coordinates": [
                  13.5713329,
                  48.3694929
                ]
              }
            },
            {
              "type": "Feature",
              "properties": {
                "id": "662498453",
                "osm_type": "node",
                "lat": 48.411489,
                "lon": 13.430712,
                "amenity": "bank",
                "atm": "yes",
                "bic": "RZOOAT2L455",
                "contact:email": "schaerding@raiffeisen-ooe.at",
                "contact:fax": "+43 7711 2315-31429",
                "contact:phone": "+43 7711 2315",
                "name": "Raiffeisenbank",
                "operator": "Raiffeisenbank Region Schärding"
              },
              "geometry": {
                "type": "Point",
                "coordinates": [
                  13.430712,
                  48.411489
                ]
              }
            },
            {
              "type": "Feature",
              "properties": {
                "id": "773215127",
                "osm_type": "node",
                "lat": 48.4565537,
                "lon": 13.4314409,
                "amenity": "bank",
                "name": "Raiffeisenbank",
                "operator": "Raiffeisen",
                "wheelchair": "yes"
              },
              "geometry": {
                "type": "Point",
                "coordinates": [
                  13.4314409,
                  48.4565537
                ]
              }
            },
            {
              "type": "Feature",
              "properties": {
                "id": "1429948501",
                "osm_type": "node",
                "lat": 48.3879952,
                "lon": 13.4510468,
                "amenity": "bank",
                "name": "Raiffeisenbank"
              },
              "geometry": {
                "type": "Point",
                "coordinates": [
                  13.4510468,
                  48.3879952
                ]
              }
            },
            {
              "type": "Feature",
              "properties": {
                "id": "1545997185",
                "osm_type": "node",
                "lat": 48.4570142,
                "lon": 13.4308049,
                "addr:city": "Schärding",
                "addr:country": "AT",
                "addr:housenumber": "25 - 26",
                "addr:postcode": "4780",
                "addr:street": "Oberer Stadtplatz",
                "amenity": "bank",
                "atm": "yes",
                "email": "office@vb-ooe.at",
                "name": "Volksbank Schärding",
                "opening_hours": "Mo-Fr 09:00-12:00",
                "operator": "Volksbank Oberösterreich AG",
                "phone": "+43 7712 3264 3600",
                "website": "https://www.vb-ooe.at/m101/volksbank/m075_44800/de/filiale/30_schaerding.jsp",
                "wheelchair": "yes"
              },
              "geometry": {
                "type": "Point",
                "coordinates": [
                  13.4308049,
                  48.4570142
                ]
              }
            },
            {
              "type": "Feature",
              "properties": {
                "id": "1546070070",
                "osm_type": "node",
                "lat": 48.4571102,
                "lon": 13.4318969,
                "addr:city": "Schärding",
                "addr:country": "AT",
                "addr:housenumber": "12",
                "addr:postcode": "4780",
                "addr:street": "Silberzeile",
                "amenity": "bank",
                "atm": "yes",
                "email": "sd@oberbank.at",
                "name": "Oberbank",
                "opening_hours": "Mo-Fr 09:00-12:00",
                "operator": "Oberbank AG",
                "phone": "+43 7712 51110",
                "website": "https://www.oberbank.at/filialdetail/schaerding",
                "wheelchair": "yes"
              },
              "geometry": {
                "type": "Point",
                "coordinates": [
                  13.4318969,
                  48.4571102
                ]
              }
            },
            {
              "type": "Feature",
              "properties": {
                "id": "1769461955",
                "osm_type": "node",
                "lat": 48.5204908,
                "lon": 13.4970624,
                "amenity": "bank",
                "atm": "yes",
                "name": "Raiffeisenbank",
                "wheelchair": "yes"
              },
              "geometry": {
                "type": "Point",
                "coordinates": [
                  13.4970624,
                  48.5204908
                ]
              }
            },
            {
              "type": "Feature",
              "properties": {
                "id": "2058713938",
                "osm_type": "node",
                "lat": 48.4027583,
                "lon": 13.3895135,
                "amenity": "bank",
                "name": "Raiffeisenbank Unteres Inntal",
                "wheelchair": "yes"
              },
              "geometry": {
                "type": "Point",
                "coordinates": [
                  13.3895135,
                  48.4027583
                ]
              }
            },
            {
              "type": "Feature",
              "properties": {
                "id": "2058713939",
                "osm_type": "node",
                "lat": 48.4027441,
                "lon": 13.3901545,
                "amenity": "bank",
                "name": "Sparkasse"
              },
              "geometry": {
                "type": "Point",
                "coordinates": [
                  13.3901545,
                  48.4027441
                ]
              }
            },
            {
              "type": "Feature",
              "properties": {
                "id": "3491139838",
                "osm_type": "node",
                "lat": 48.4464827,
                "lon": 13.4430411,
                "amenity": "bank",
                "atm": "yes",
                "name": "Sparkasse"
              },
              "geometry": {
                "type": "Point",
                "coordinates": [
                  13.4430411,
                  48.4464827
                ]
              }
            },
            {
              "type": "Feature",
              "properties": {
                "id": "3600627405",
                "osm_type": "node",
                "lat": 48.4485113,
                "lon": 13.4387423,
                "amenity": "bank",
                "atm": "yes",
                "name": "Hypo Bank Oberösterreich",
                "operator": "Oberösterreichische Landesbank Aktiengesellschaft"
              },
              "geometry": {
                "type": "Point",
                "coordinates": [
                  13.4387423,
                  48.4485113
                ]
              }
            },
            {
              "type": "Feature",
              "properties": {
                "id": "4905134760",
                "osm_type": "node",
                "lat": 48.4574157,
                "lon": 13.430998,
                "amenity": "bank",
                "name": "Sparkasse Schärding",
                "wheelchair": "yes"
              },
              "geometry": {
                "type": "Point",
                "coordinates": [
                  13.430998,
                  48.4574157
                ]
              }
            },
            {
              "type": "Feature",
              "properties": {
                "id": "7592541400",
                "osm_type": "node",
                "lat": 48.4563463,
                "lon": 13.4351254,
                "addr:city": "Schärding",
                "addr:country": "AT",
                "addr:housenumber": "2",
                "addr:postcode": "4780",
                "addr:street": "Franz-Xaver-Brunner-Straße",
                "amenity": "bank",
                "atm": "yes",
                "drive_through": "no",
                "name": "bank99",
                "opening_hours": "Mo-Fr 08:00-18:00; Sa,Su,PH off",
                "operator": "bank99 AG",
                "website": "https://www.bank99.at",
                "wheelchair": "yes"
              },
              "geometry": {
                "type": "Point",
                "coordinates": [
                  13.4351254,
                  48.4563463
                ]
              }
            },
            {
              "type": "Feature",
              "properties": {
                "id": "12157299229",
                "osm_type": "node",
                "lat": 48.4656264,
                "lon": 13.4394872,
                "amenity": "bank",
                "atm": "yes",
                "name": "Sparkasse"
              },
              "geometry": {
                "type": "Point",
                "coordinates": [
                  13.4394872,
                  48.4656264
                ]
              }
            },
            {
              "type": "Feature",
              "properties": {
                "id": "356918663",
                "osm_type": "node",
                "lat": 48.4824847,
                "lon": 13.8125079,
                "addr:housenumber": "1",
                "addr:postcode": "4142",
                "addr:street": "Lembacher Straße",
                "amenity": "bank",
                "brand": "Raiffeisen",
                "brand:wikidata": "Q22093483",
                "name": "Raiffeisen",
                "operator": "Raiffeisen",
                "wheelchair": "yes"
              },
              "geometry": {
                "type": "Point",
                "coordinates": [
                  13.8125079,
                  48.4824847
                ]
              }
            },
            {
              "type": "Feature",
              "properties": {
                "id": "1347696617",
                "osm_type": "node",
                "lat": 48.5074353,
                "lon": 13.7308336,
                "addr:city": "Engelhartszell",
                "addr:country": "AT",
                "addr:housenumber": "95",
                "addr:postcode": "4090",
                "addr:street": "Marktstraße",
                "amenity": "bank",
                "atm": "yes",
                "name": "Sparkasse"
              },
              "geometry": {
                "type": "Point",
                "coordinates": [
                  13.7308336,
                  48.5074353
                ]
              }
            },
            {
              "type": "Feature",
              "properties": {
                "id": "1347696628",
                "osm_type": "node",
                "lat": 48.5059692,
                "lon": 13.7327324,
                "amenity": "bank",
                "atm": "yes",
                "brand": "Raiffeisen",
                "brand:wikidata": "Q22093483",
                "name": "Raiffeisen"
              },
              "geometry": {
                "type": "Point",
                "coordinates": [
                  13.7327324,
                  48.5059692
                ]
              }
            },
            {
              "type": "Feature",
              "properties": {
                "id": "2281021611",
                "osm_type": "node",
                "lat": 48.440415,
                "lon": 13.8217596,
                "addr:city": "Waldkirchen am Wesen",
                "addr:country": "AT",
                "addr:housenumber": "61",
                "addr:place": "Waldkirchen",
                "addr:postcode": "4085",
                "amenity": "bank",
                "name": "Sparkasse",
                "operator": "Sparkasse Eferding-Peuerbach-Waizenkirchen"
              },
              "geometry": {
                "type": "Point",
                "coordinates": [
                  13.8217596,
                  48.440415
                ]
              }
            },
            {
              "type": "Feature",
              "properties": {
                "id": "4181673086",
                "osm_type": "node",
                "lat": 48.3976524,
                "lon": 13.7487008,
                "amenity": "bank",
                "atm": "yes",
                "name": "Raiffeisen"
              },
              "geometry": {
                "type": "Point",
                "coordinates": [
                  13.7487008,
                  48.3976524
                ]
              }
            },
            {
              "type": "Feature",
              "properties": {
                "id": "4181673087",
                "osm_type": "node",
                "lat": 48.3966576,
                "lon": 13.7490453,
                "amenity": "bank",
                "atm": "yes",
                "name": "Sparkasse"
              },
              "geometry": {
                "type": "Point",
                "coordinates": [
                  13.7490453,
                  48.3966576
                ]
              }
            },
            {
              "type": "Feature",
              "properties": {
                "id": "5714037445",
                "osm_type": "node",
                "lat": 48.4402802,
                "lon": 13.6577198,
                "addr:city": "Kopfing im Innkreis",
                "addr:country": "AT",
                "addr:housenumber": "120",
                "addr:postcode": "4794",
                "addr:street": "Hauptstraße",
                "amenity": "bank",
                "name": "Raiffeisen"
              },
              "geometry": {
                "type": "Point",
                "coordinates": [
                  13.6577198,
                  48.4402802
                ]
              }
            },
            {
              "type": "Feature",
              "properties": {
                "id": "5792105253",
                "osm_type": "node",
                "lat": 48.4108076,
                "lon": 13.5439163,
                "amenity": "bank",
                "name": "Sparkasse Taufkirchen",
                "phone": "05010040073"
              },
              "geometry": {
                "type": "Point",
                "coordinates": [
                  13.5439163,
                  48.4108076
                ]
              }
            },
            {
              "type": "Feature",
              "properties": {
                "id": "11806582703",
                "osm_type": "node",
                "lat": 48.4834393,
                "lon": 13.568827,
                "amenity": "bank",
                "atm": "yes",
                "brand": "Raiffeisen",
                "brand:wikidata": "Q2127528",
                "name": "Raiffeisen",
                "wheelchair": "yes"
              },
              "geometry": {
                "type": "Point",
                "coordinates": [
                  13.568827,
                  48.4834393
                ]
              }
            }
          ],
          "children": []
        },
        {
          "bbox": {
            "south": 48.355971499999995,
            "west": 13.82261775,
            "north": 48.521248125,
            "east": 14.2994695
          },
          "poiCount": 20,
          "leafCount": 20,
          "averagePosition": [
            14.074633965,
            48.422782425
          ],
          "data": [
            {
              "type": "Feature",
              "properties": {
                "id": "448590911",
                "osm_type": "node",
                "lat": 48.3677338,
                "lon": 14.0257331,
                "amenity": "bank",
                "atm": "yes",
                "name": "Sparkasse",
                "wheelchair": "limited"
              },
              "geometry": {
                "type": "Point",
                "coordinates": [
                  14.0257331,
                  48.3677338
                ]
              }
            },
            {
              "type": "Feature",
              "properties": {
                "id": "1270833398",
                "osm_type": "node",
                "lat": 48.3612562,
                "lon": 14.0028778,
                "amenity": "bank",
                "atm": "yes",
                "name": "Sparkasse Hartkirchen",
                "wheelchair": "yes"
              },
              "geometry": {
                "type": "Point",
                "coordinates": [
                  14.0028778,
                  48.3612562
                ]
              }
            },
            {
              "type": "Feature",
              "properties": {
                "id": "8240140544",
                "osm_type": "node",
                "lat": 48.3621951,
                "lon": 14.0053363,
                "addr:city": "Hartkirchen",
                "addr:country": "AT",
                "addr:housenumber": "1",
                "addr:postcode": "4081",
                "addr:street": "Aschacherstraße",
                "amenity": "bank",
                "atm": "yes",
                "brand": "Raiffeisen",
                "brand:wikidata": "Q22093483",
                "name": "Raiffeisenbank Hartkirchen",
                "operator": "Raiffeisenbank Region Eferding"
              },
              "geometry": {
                "type": "Point",
                "coordinates": [
                  14.0053363,
                  48.3621951
                ]
              }
            },
            {
              "type": "Feature",
              "properties": {
                "id": "6506022786",
                "osm_type": "node",
                "lat": 48.359797,
                "lon": 14.257493,
                "addr:city": "Lichtenberg",
                "addr:country": "AT",
                "addr:housenumber": "1",
                "addr:postcode": "4040",
                "addr:street": "Am Ortsplatz",
                "amenity": "bank",
                "at_bev:addr_date": "2019-04-01",
                "atm": "yes",
                "brand": "Raiffeisenbank",
                "brand:wikidata": "Q24282825",
                "brand:wikipedia": "cs:Raiffeisenbank",
                "contact:phone": "+43 7239 62 50",
                "name": "Raiffeisenbank",
                "website": "https://www.raiffeisen.at/ooe/gramastetten-herzogsdorf/de/meine-bank/bankstellen/lichtenberg.html"
              },
              "geometry": {
                "type": "Point",
                "coordinates": [
                  14.257493,
                  48.359797
                ]
              }
            },
            {
              "type": "Feature",
              "properties": {
                "id": "1488950183",
                "osm_type": "node",
                "lat": 48.4107499,
                "lon": 13.9170881,
                "amenity": "bank",
                "atm": "yes",
                "name": "Raiffeisenbank Region Eferding"
              },
              "geometry": {
                "type": "Point",
                "coordinates": [
                  13.9170881,
                  48.4107499
                ]
              }
            },
            {
              "type": "Feature",
              "properties": {
                "id": "2075409061",
                "osm_type": "node",
                "lat": 48.4565469,
                "lon": 13.9922554,
                "addr:city": "Kleinzell im Mühlkreis",
                "addr:country": "AT",
                "addr:housenumber": "18",
                "addr:place": "Kleinzell im Mühlkreis",
                "addr:postcode": "4115",
                "amenity": "bank",
                "atm": "yes",
                "branch": "Kleinzell",
                "brand": "Raiffeisen",
                "brand:wikidata": "Q22093483",
                "name": "Raiffeisen"
              },
              "geometry": {
                "type": "Point",
                "coordinates": [
                  13.9922554,
                  48.4565469
                ]
              }
            },
            {
              "type": "Feature",
              "properties": {
                "id": "2326990012",
                "osm_type": "node",
                "lat": 48.4951262,
                "lon": 13.895023,
                "amenity": "bank",
                "branch": "Lembach",
                "brand": "Raiffeisen",
                "brand:wikidata": "Q22093483",
                "name": "Raiffeisen"
              },
              "geometry": {
                "type": "Point",
                "coordinates": [
                  13.895023,
                  48.4951262
                ]
              }
            },
            {
              "type": "Feature",
              "properties": {
                "id": "2485010883",
                "osm_type": "node",
                "lat": 48.3871705,
                "lon": 13.8807822,
                "amenity": "bank",
                "name": "Sparkasse St. Agatha",
                "name:de": "Sparkasse St. Agatha",
                "operator": "Sparkasse"
              },
              "geometry": {
                "type": "Point",
                "coordinates": [
                  13.8807822,
                  48.3871705
                ]
              }
            },
            {
              "type": "Feature",
              "properties": {
                "id": "4190445121",
                "osm_type": "node",
                "lat": 48.4658754,
                "lon": 13.8807812,
                "amenity": "bank",
                "atm": "yes",
                "brand": "Raiffeisen",
                "brand:wikidata": "Q22093483",
                "name": "Raiffeisen"
              },
              "geometry": {
                "type": "Point",
                "coordinates": [
                  13.8807812,
                  48.4658754
                ]
              }
            },
            {
              "type": "Feature",
              "properties": {
                "id": "367075372",
                "osm_type": "node",
                "lat": 48.4168257,
                "lon": 14.0384733,
                "addr:city": "St. Martin im Mühlkreis",
                "addr:country": "AT",
                "addr:housenumber": "17",
                "addr:postcode": "4113",
                "addr:street": "Markt",
                "amenity": "bank",
                "brand": "Raiffeisen",
                "brand:wikidata": "Q22093483",
                "name": "Raiffeisenbank",
                "operator": "Raiffeisen",
                "wheelchair": "yes"
              },
              "geometry": {
                "type": "Point",
                "coordinates": [
                  14.0384733,
                  48.4168257
                ]
              }
            },
            {
              "type": "Feature",
              "properties": {
                "id": "419135550",
                "osm_type": "node",
                "lat": 48.4885431,
                "lon": 14.1302245,
                "amenity": "bank",
                "atm": "yes",
                "check_date": "2025-07-16",
                "name": "Raiffeisenbank"
              },
              "geometry": {
                "type": "Point",
                "coordinates": [
                  14.1302245,
                  48.4885431
                ]
              }
            },
            {
              "type": "Feature",
              "properties": {
                "id": "470932377",
                "osm_type": "node",
                "lat": 48.464886,
                "lon": 14.2273097,
                "amenity": "bank",
                "brand": "Raiffeisen",
                "brand:wikidata": "Q2127528",
                "name": "Raiffeisen",
                "operator": "Raiffeisenbank",
                "phone": "+43 7212 70560"
              },
              "geometry": {
                "type": "Point",
                "coordinates": [
                  14.2273097,
                  48.464886
                ]
              }
            },
            {
              "type": "Feature",
              "properties": {
                "id": "470932383",
                "osm_type": "node",
                "lat": 48.4645622,
                "lon": 14.2273945,
                "amenity": "bank",
                "operator": "Sparkasse OÖ"
              },
              "geometry": {
                "type": "Point",
                "coordinates": [
                  14.2273945,
                  48.4645622
                ]
              }
            },
            {
              "type": "Feature",
              "properties": {
                "id": "470941035",
                "osm_type": "node",
                "lat": 48.3804495,
                "lon": 14.1916311,
                "amenity": "bank",
                "atm": "yes",
                "name": "Raiffeisenbank",
                "opening_hours": "Mo-Fr 08:30-11:30, Mo,Th 14:30-16:30"
              },
              "geometry": {
                "type": "Point",
                "coordinates": [
                  14.1916311,
                  48.3804495
                ]
              }
            },
            {
              "type": "Feature",
              "properties": {
                "id": "866164664",
                "osm_type": "node",
                "lat": 48.4304796,
                "lon": 14.1124269,
                "addr:city": "Herzogsdorf",
                "addr:country": "AT",
                "addr:housenumber": "9",
                "addr:postcode": "4175",
                "addr:street": "Kirchplatz",
                "amenity": "bank",
                "atm": "yes",
                "name": "Raiffeisenbank Herzogsdorf"
              },
              "geometry": {
                "type": "Point",
                "coordinates": [
                  14.1124269,
                  48.4304796
                ]
              }
            },
            {
              "type": "Feature",
              "properties": {
                "id": "874324467",
                "osm_type": "node",
                "lat": 48.4146443,
                "lon": 14.0397011,
                "amenity": "bank",
                "atm": "yes",
                "brand": "Sparkasse",
                "brand:wikidata": "Q2307785",
                "name": "Sparkasse"
              },
              "geometry": {
                "type": "Point",
                "coordinates": [
                  14.0397011,
                  48.4146443
                ]
              }
            },
            {
              "type": "Feature",
              "properties": {
                "id": "878851067",
                "osm_type": "node",
                "lat": 48.4674449,
                "lon": 14.16323,
                "addr:city": "St. Veit im Mühlkreis",
                "addr:country": "AT",
                "addr:housenumber": "11",
                "addr:postcode": "4173",
                "addr:street": "Schnopfhagenplatz",
                "amenity": "bank",
                "atm": "yes",
                "name": "Raiffeisenbank St. Veit im Mühlkreis"
              },
              "geometry": {
                "type": "Point",
                "coordinates": [
                  14.16323,
                  48.4674449
                ]
              }
            },
            {
              "type": "Feature",
              "properties": {
                "id": "1388442474",
                "osm_type": "node",
                "lat": 48.3800831,
                "lon": 14.19089,
                "amenity": "bank",
                "atm": "yes",
                "brand": "Erste Bank",
                "brand:wikidata": "Q696867",
                "drive_through": "no",
                "name": "Erste Bank"
              },
              "geometry": {
                "type": "Point",
                "coordinates": [
                  14.19089,
                  48.3800831
                ]
              }
            },
            {
              "type": "Feature",
              "properties": {
                "id": "2983653436",
                "osm_type": "node",
                "lat": 48.4657502,
                "lon": 14.2717678,
                "amenity": "bank",
                "atm": "yes",
                "branch": "Zwettl an der Rodl",
                "brand": "Raiffeisen",
                "brand:wikidata": "Q2127528",
                "defibrillator:location": "yes",
                "name": "Raiffeisen",
                "phone": "0043 7212 6292",
                "source": "survey",
                "wheelchair": "yes"
              },
              "geometry": {
                "type": "Point",
                "coordinates": [
                  14.2717678,
                  48.4657502
                ]
              }
            },
            {
              "type": "Feature",
              "properties": {
                "id": "7594803026",
                "osm_type": "node",
                "lat": 48.4155289,
                "lon": 14.0422603,
                "addr:city": "Sankt Martin im Mühlkreis",
                "addr:country": "AT",
                "addr:housenumber": "2",
                "addr:postcode": "4113",
                "addr:street": "Am Wimberg",
                "amenity": "bank",
                "atm": "yes",
                "brand": "bank99",
                "brand:wikidata": "Q91200481",
                "drive_through": "no",
                "name": "bank99",
                "opening_hours": "Mo-Fr 08:00-12:00, 14:00-17:30; Sa,Su,PH off",
                "operator": "bank99 AG",
                "website": "https://www.bank99.at"
              },
              "geometry": {
                "type": "Point",
                "coordinates": [
                  14.0422603,
                  48.4155289
                ]
              }
            }
          ],
          "children": []
        },
        {
          "bbox": {
            "south": 48.521248125,
            "west": 13.345766,
            "north": 48.68652475,
            "east": 13.82261775
          },
          "poiCount": 37,
          "leafCount": 37,
          "averagePosition": [
            13.515631286486487,
            48.588924627027026
          ],
          "data": [
            {
              "type": "Feature",
              "properties": {
                "id": "60901717",
                "osm_type": "node",
                "lat": 48.5735929,
                "lon": 13.4577757,
                "amenity": "bank",
                "atm": "yes",
                "bic": "GENODEF1PA1",
                "name": "Volks-Raiffeisenbank Passau",
                "opening_hours": "Mo-Th 08:30-16:30; Fr 08:30-16:00",
                "wheelchair": "yes"
              },
              "geometry": {
                "type": "Point",
                "coordinates": [
                  13.4577757,
                  48.5735929
                ]
              }
            },
            {
              "type": "Feature",
              "properties": {
                "id": "263026857",
                "osm_type": "node",
                "lat": 48.5745972,
                "lon": 13.4595481,
                "addr:city": "Passau",
                "addr:country": "DE",
                "addr:housenumber": "8",
                "addr:postcode": "94032",
                "addr:street": "Ludwigstraße",
                "amenity": "bank",
                "atm": "yes",
                "bic": "BYLADEM1PAS",
                "name": "Sparkasse Passau",
                "opening_hours": "Mo,Tu,Fr 09:30-16:00, We 09:30-13:00, Th 07:30-18:30",
                "wheelchair": "yes"
              },
              "geometry": {
                "type": "Point",
                "coordinates": [
                  13.4595481,
                  48.5745972
                ]
              }
            },
            {
              "type": "Feature",
              "properties": {
                "id": "293022421",
                "osm_type": "node",
                "lat": 48.5719913,
                "lon": 13.4582766,
                "addr:city": "Passau",
                "addr:country": "DE",
                "addr:housenumber": "4",
                "addr:postcode": "94032",
                "addr:street": "Nibelungenplatz",
                "amenity": "bank",
                "bic": "GENODEF1S05",
                "brand": "Sparda-Bank",
                "brand:wikidata": "Q2307136",
                "brand:wikipedia": "de:Sparda-Bank (Deutschland)",
                "name": "Sparda-Bank",
                "opening_hours": "Mo-Th 09:00-12:30, Mo 14:00-16:00, Fr 09:00-14:00",
                "phone": "+499415831222",
                "wheelchair": "yes"
              },
              "geometry": {
                "type": "Point",
                "coordinates": [
                  13.4582766,
                  48.5719913
                ]
              }
            },
            {
              "type": "Feature",
              "properties": {
                "id": "300822198",
                "osm_type": "node",
                "lat": 48.5627137,
                "lon": 13.4169178,
                "addr:city": "Passau",
                "amenity": "bank",
                "bic": "BYLADEM1PAS",
                "name": "Sparkasse Passau",
                "wheelchair": "yes"
              },
              "geometry": {
                "type": "Point",
                "coordinates": [
                  13.4169178,
                  48.5627137
                ]
              }
            },
            {
              "type": "Feature",
              "properties": {
                "id": "333688159",
                "osm_type": "node",
                "lat": 48.5733406,
                "lon": 13.4578622,
                "addr:city": "Passau",
                "addr:postcode": "94032",
                "amenity": "bank",
                "atm": "yes",
                "bic": "BYLADEM1PAS",
                "name": "Sparkasse Passau",
                "opening_hours": "Mo-Fr 09:00-17:00",
                "wheelchair": "yes"
              },
              "geometry": {
                "type": "Point",
                "coordinates": [
                  13.4578622,
                  48.5733406
                ]
              }
            },
            {
              "type": "Feature",
              "properties": {
                "id": "333915567",
                "osm_type": "node",
                "lat": 48.5743393,
                "lon": 13.4679858,
                "addr:city": "Passau",
                "addr:country": "DE",
                "addr:housenumber": "14",
                "addr:postcode": "94032",
                "addr:street": "Residenzplatz",
                "amenity": "bank",
                "atm": "yes",
                "bic": "BYLADEM1PAS",
                "check_date": "2023-10-01",
                "name": "Sparkasse Passau",
                "wheelchair": "no"
              },
              "geometry": {
                "type": "Point",
                "coordinates": [
                  13.4679858,
                  48.5743393
                ]
              }
            },
            {
              "type": "Feature",
              "properties": {
                "id": "411518085",
                "osm_type": "node",
                "lat": 48.57057,
                "lon": 13.423036,
                "addr:city": "Passau",
                "amenity": "bank",
                "atm": "yes",
                "bic": "BYLADEM1PAS",
                "check_date": "2024-10-27",
                "name": "Sparkasse",
                "wheelchair": "yes"
              },
              "geometry": {
                "type": "Point",
                "coordinates": [
                  13.423036,
                  48.57057
                ]
              }
            },
            {
              "type": "Feature",
              "properties": {
                "id": "447836017",
                "osm_type": "node",
                "lat": 48.6185093,
                "lon": 13.4833507,
                "addr:city": "Salzweg",
                "addr:housenumber": "11",
                "addr:postcode": "94121",
                "addr:street": "Passauer Straße",
                "amenity": "bank",
                "atm": "yes",
                "bic": "BYLADEM1PAS",
                "name": "Sparkasse Salzweg",
                "wheelchair": "limited"
              },
              "geometry": {
                "type": "Point",
                "coordinates": [
                  13.4833507,
                  48.6185093
                ]
              }
            },
            {
              "type": "Feature",
              "properties": {
                "id": "869558768",
                "osm_type": "node",
                "lat": 48.5623428,
                "lon": 13.4268274,
                "addr:city": "Passau",
                "addr:country": "DE",
                "addr:housenumber": "108",
                "addr:postcode": "94036",
                "addr:street": "Neuburger Straße",
                "amenity": "bank",
                "atm": "yes",
                "bic": "GENODEF1PA1",
                "name": "VR-Bank",
                "official_name": "VR-Bank Passau, Geschäftsstelle Haidenhof",
                "operator": "VR-Bank Passau eG"
              },
              "geometry": {
                "type": "Point",
                "coordinates": [
                  13.4268274,
                  48.5623428
                ]
              }
            },
            {
              "type": "Feature",
              "properties": {
                "id": "994588833",
                "osm_type": "node",
                "lat": 48.5850746,
                "lon": 13.4933034,
                "addr:city": "Passau",
                "addr:postcode": "94034",
                "amenity": "bank",
                "bic": "GENODEF1PA1",
                "name": "Raiffeisenbank",
                "opening_hours": "Mo,Tu,Th 08:30-12:30,13:30-16:30; We off; Fr 08:30-12:30,13:30-16:00",
                "wheelchair": "no"
              },
              "geometry": {
                "type": "Point",
                "coordinates": [
                  13.4933034,
                  48.5850746
                ]
              }
            },
            {
              "type": "Feature",
              "properties": {
                "id": "1117938295",
                "osm_type": "node",
                "lat": 48.5744877,
                "lon": 13.4531939,
                "addr:city": "Passau",
                "addr:country": "DE",
                "addr:housenumber": "22",
                "addr:postcode": "94032",
                "addr:street": "Bahnhofstraße",
                "addr:suburb": "St. Nikola",
                "amenity": "bank",
                "bic": "COBADEFFXXX",
                "brand": "Commerzbank",
                "brand:wikidata": "Q157617",
                "brand:wikipedia": "de:Commerzbank",
                "name": "Commerzbank",
                "opening_hours": "Mo-Fr 09:00-13:00, Mo,We,Fr 14:00-16:00, Tu,Th 14:00-18:00",
                "wheelchair": "limited",
                "wikidata": "Q41425575"
              },
              "geometry": {
                "type": "Point",
                "coordinates": [
                  13.4531939,
                  48.5744877
                ]
              }
            },
            {
              "type": "Feature",
              "properties": {
                "id": "1456567484",
                "osm_type": "node",
                "lat": 48.5798153,
                "lon": 13.4380574,
                "addr:city": "Passau",
                "addr:postcode": "94034",
                "amenity": "bank",
                "atm": "yes",
                "bic": "BYLADEM1PAS",
                "contact:email": "info@sparkasse.de",
                "contact:phone": "+498516428",
                "contact:website": "http://www.sparkasse-passau.de",
                "opening_hours": "Mo,Tu,Th,Fr 9:00-12:00; Mo,Th,Fr 13:30-16:00",
                "operator": "Sparkasse Passau"
              },
              "geometry": {
                "type": "Point",
                "coordinates": [
                  13.4380574,
                  48.5798153
                ]
              }
            },
            {
              "type": "Feature",
              "properties": {
                "id": "1458164524",
                "osm_type": "node",
                "lat": 48.5743506,
                "lon": 13.4551693,
                "addr:city": "Passau",
                "addr:country": "DE",
                "addr:housenumber": "10",
                "addr:postcode": "94032",
                "addr:street": "Brunngasse",
                "amenity": "bank",
                "atm": "yes",
                "bic": "OBKLDEMXXXX",
                "brand": "Oberbank",
                "brand:wikidata": "Q2009139",
                "brand:wikipedia": "de:Oberbank",
                "name": "Oberbank",
                "opening_hours": "Mo-Fr 08:30-12:00, Mo,Th 14:00-16:00",
                "operator": "Oberbank",
                "wheelchair": "yes"
              },
              "geometry": {
                "type": "Point",
                "coordinates": [
                  13.4551693,
                  48.5743506
                ]
              }
            },
            {
              "type": "Feature",
              "properties": {
                "id": "1769454076",
                "osm_type": "node",
                "lat": 48.5667757,
                "lon": 13.4934252,
                "amenity": "bank",
                "name": "Sparkasse"
              },
              "geometry": {
                "type": "Point",
                "coordinates": [
                  13.4934252,
                  48.5667757
                ]
              }
            },
            {
              "type": "Feature",
              "properties": {
                "id": "1920672906",
                "osm_type": "node",
                "lat": 48.6262475,
                "lon": 13.401327,
                "addr:city": "Tiefenbach",
                "addr:country": "DE",
                "addr:housenumber": "14",
                "addr:postcode": "94113",
                "addr:street": "Nibelungenstraße",
                "amenity": "bank",
                "name": "Raiffeisenbank i. Lkrs Passau Nord eG",
                "wikidata": "Q124419371"
              },
              "geometry": {
                "type": "Point",
                "coordinates": [
                  13.401327,
                  48.6262475
                ]
              }
            },
            {
              "type": "Feature",
              "properties": {
                "id": "1920673964",
                "osm_type": "node",
                "lat": 48.6245388,
                "lon": 13.3991882,
                "addr:city": "Tiefenbach",
                "addr:country": "DE",
                "addr:housenumber": "1a",
                "addr:postcode": "94113",
                "addr:street": "Weideneckerstraße",
                "amenity": "bank",
                "name": "Sparkasse"
              },
              "geometry": {
                "type": "Point",
                "coordinates": [
                  13.3991882,
                  48.6245388
                ]
              }
            },
            {
              "type": "Feature",
              "properties": {
                "id": "1979778280",
                "osm_type": "node",
                "lat": 48.6543757,
                "lon": 13.4076327,
                "addr:city": "Ruderting",
                "addr:country": "DE",
                "addr:housenumber": "10",
                "addr:postcode": "94161",
                "addr:street": "Passauer Straße",
                "amenity": "bank",
                "atm": "yes",
                "name": "Raiffeisenbank i. Landkreis Passau Nord eG",
                "opening_hours": "Mo,Tu,Th,Fr 08:00-12:00,13:30-16:30;We 08:00-12:00;Sa,Su,PH off",
                "phone": "+49 85099373962",
                "wheelchair": "limited"
              },
              "geometry": {
                "type": "Point",
                "coordinates": [
                  13.4076327,
                  48.6543757
                ]
              }
            },
            {
              "type": "Feature",
              "properties": {
                "id": "1979806767",
                "osm_type": "node",
                "lat": 48.6461575,
                "lon": 13.3879619,
                "amenity": "bank",
                "name": "Raiffeisenbank"
              },
              "geometry": {
                "type": "Point",
                "coordinates": [
                  13.3879619,
                  48.6461575
                ]
              }
            },
            {
              "type": "Feature",
              "properties": {
                "id": "3000609239",
                "osm_type": "node",
                "lat": 48.5838151,
                "lon": 13.3939991,
                "amenity": "bank",
                "atm": "yes",
                "name": "Volksbank Raiffeisenbank Heining",
                "opening_hours": "Mo-We, Fr 08:15-12:30, 13:30-16:15; Th 08:15-12:30, 13:30-17:00",
                "operator": "VR-Bank Passau",
                "source": "knowledge"
              },
              "geometry": {
                "type": "Point",
                "coordinates": [
                  13.3939991,
                  48.5838151
                ]
              }
            },
            {
              "type": "Feature",
              "properties": {
                "id": "3002614383",
                "osm_type": "node",
                "lat": 48.5735234,
                "lon": 13.3934162,
                "amenity": "bank",
                "atm": "yes",
                "name": "Sparkasse",
                "opening_hours": "Mo-Fr 08:30-12:30; Mo, Tu, Th, Fr 14:00-16:30",
                "source": "knowledge",
                "wheelchair": "yes"
              },
              "geometry": {
                "type": "Point",
                "coordinates": [
                  13.3934162,
                  48.5735234
                ]
              }
            },
            {
              "type": "Feature",
              "properties": {
                "id": "3546482213",
                "osm_type": "node",
                "lat": 48.6538241,
                "lon": 13.4084983,
                "addr:city": "Ruderting",
                "addr:country": "DE",
                "addr:housenumber": "17",
                "addr:postcode": "94161",
                "addr:street": "Passauer Straße",
                "amenity": "bank",
                "atm": "yes",
                "name": "Sparkasse Passau",
                "opening_hours": "Mo,We,Th,Fr 08:30-12:00,13:30-16:30; Tu,Sa,Su,PH off; Mo-Fr 08:00-19:00 \"Beratungszeiten\"",
                "phone": "+49850991190",
                "wheelchair": "yes"
              },
              "geometry": {
                "type": "Point",
                "coordinates": [
                  13.4084983,
                  48.6538241
                ]
              }
            },
            {
              "type": "Feature",
              "properties": {
                "id": "3694971503",
                "osm_type": "node",
                "lat": 48.6676896,
                "lon": 13.5100557,
                "addr:city": "Büchlberg",
                "addr:postcode": "94124",
                "amenity": "bank",
                "bic": "BYLADEM1PAS",
                "name": "Sparkasse"
              },
              "geometry": {
                "type": "Point",
                "coordinates": [
                  13.5100557,
                  48.6676896
                ]
              }
            },
            {
              "type": "Feature",
              "properties": {
                "id": "4753262168",
                "osm_type": "node",
                "lat": 48.5713712,
                "lon": 13.457859,
                "addr:city": "Passau",
                "addr:country": "DE",
                "addr:housenumber": "13",
                "addr:postcode": "94032",
                "addr:street": "Kleiner Exerzierplatz",
                "amenity": "bank",
                "atm": "yes",
                "bic": "BYLADEM1PAS",
                "level": "0",
                "name": "LBS"
              },
              "geometry": {
                "type": "Point",
                "coordinates": [
                  13.457859,
                  48.5713712
                ]
              }
            },
            {
              "type": "Feature",
              "properties": {
                "id": "4753332914",
                "osm_type": "node",
                "lat": 48.574457,
                "lon": 13.4564039,
                "amenity": "bank",
                "atm": "yes",
                "bic": "CMCIDEDDXXX",
                "brand": "Targobank",
                "brand:wikidata": "Q1455437",
                "brand:wikipedia": "en:Targobank",
                "name": "Targobank"
              },
              "geometry": {
                "type": "Point",
                "coordinates": [
                  13.4564039,
                  48.574457
                ]
              }
            },
            {
              "type": "Feature",
              "properties": {
                "id": "11548038260",
                "osm_type": "node",
                "lat": 48.5735743,
                "lon": 13.3942169,
                "amenity": "bank",
                "brand": "Volksbank-Raiffeisenbank",
                "name": "VR-Bank Passau Geschäftsstelle Neustift",
                "opening_hours": "Mo,Tu,Th 08:30-12:30,13:30-16:30;Fr 08:30-12:30,13:30-16:00; PH off"
              },
              "geometry": {
                "type": "Point",
                "coordinates": [
                  13.3942169,
                  48.5735743
                ]
              }
            },
            {
              "type": "Feature",
              "properties": {
                "id": "309963419",
                "osm_type": "node",
                "lat": 48.6159538,
                "lon": 13.5401666,
                "amenity": "bank",
                "atm": "yes",
                "name": "Sparkasse Thyrnau",
                "wheelchair": "limited"
              },
              "geometry": {
                "type": "Point",
                "coordinates": [
                  13.5401666,
                  48.6159538
                ]
              }
            },
            {
              "type": "Feature",
              "properties": {
                "id": "335982395",
                "osm_type": "node",
                "lat": 48.5734137,
                "lon": 13.6676142,
                "addr:city": "Untergriesbach",
                "addr:country": "DE",
                "addr:housenumber": "13",
                "addr:postcode": "94107",
                "addr:street": "Marktstraße",
                "amenity": "bank",
                "atm": "yes",
                "name": "Sparkasse",
                "opening_hours": "Mo 09:00-11:00,14:00-16:00; Tu 09:00-11:00; We 09:00-11:00; Th 09:00-11:00; Fr 09:00-11:00,14:00-16:00",
                "wheelchair": "limited"
              },
              "geometry": {
                "type": "Point",
                "coordinates": [
                  13.6676142,
                  48.5734137
                ]
              }
            },
            {
              "type": "Feature",
              "properties": {
                "id": "335982399",
                "osm_type": "node",
                "lat": 48.5546921,
                "lon": 13.6365735,
                "amenity": "bank",
                "atm": "yes",
                "name": "VR-Bank",
                "opening_hours": "Mo,Tu,Th 08:30-12:30,13:30-16:30; Fr 08:30-12:30,13:30-16:00",
                "wheelchair": "yes"
              },
              "geometry": {
                "type": "Point",
                "coordinates": [
                  13.6365735,
                  48.5546921
                ]
              }
            },
            {
              "type": "Feature",
              "properties": {
                "id": "335996378",
                "osm_type": "node",
                "lat": 48.5734346,
                "lon": 13.6682233,
                "addr:city": "Untergriesbach",
                "addr:country": "DE",
                "addr:housenumber": "7",
                "addr:postcode": "94107",
                "addr:street": "Marktstraße",
                "amenity": "bank",
                "atm": "yes",
                "name": "VR-Bank",
                "opening_hours": "Mo-Fr 08:30-12:30, Mo,Tu,Th 13:30-16:30, Fr 13:30-16:00",
                "wheelchair": "yes"
              },
              "geometry": {
                "type": "Point",
                "coordinates": [
                  13.6682233,
                  48.5734346
                ]
              }
            },
            {
              "type": "Feature",
              "properties": {
                "id": "451824962",
                "osm_type": "node",
                "lat": 48.651924,
                "lon": 13.6238243,
                "amenity": "bank",
                "atm": "yes",
                "name": "Sparkasse Hauzenberg",
                "opening_hours": "Mo-Fr 09:00-12:00, Mo,Th,Fr 14:00-16:00",
                "wheelchair": "no"
              },
              "geometry": {
                "type": "Point",
                "coordinates": [
                  13.6238243,
                  48.651924
                ]
              }
            },
            {
              "type": "Feature",
              "properties": {
                "id": "659630599",
                "osm_type": "node",
                "lat": 48.6515687,
                "lon": 13.6236154,
                "amenity": "bank",
                "atm": "yes",
                "name": "Raiffeisenbank i. Südl. Bayerischen Wald",
                "wheelchair": "no"
              },
              "geometry": {
                "type": "Point",
                "coordinates": [
                  13.6236154,
                  48.6515687
                ]
              }
            },
            {
              "type": "Feature",
              "properties": {
                "id": "1492409647",
                "osm_type": "node",
                "lat": 48.5439918,
                "lon": 13.5723989,
                "amenity": "bank",
                "atm": "yes",
                "name": "Raiffeisenbank Esternberg",
                "wheelchair": "yes"
              },
              "geometry": {
                "type": "Point",
                "coordinates": [
                  13.5723989,
                  48.5439918
                ]
              }
            },
            {
              "type": "Feature",
              "properties": {
                "id": "3060445574",
                "osm_type": "node",
                "lat": 48.5522462,
                "lon": 13.7714206,
                "amenity": "bank",
                "atm": "yes",
                "brand": "Raiffeisen",
                "brand:wikidata": "Q22093483",
                "name": "Raiffeisen",
                "operator": "Raiffeisen"
              },
              "geometry": {
                "type": "Point",
                "coordinates": [
                  13.7714206,
                  48.5522462
                ]
              }
            },
            {
              "type": "Feature",
              "properties": {
                "id": "3240128872",
                "osm_type": "node",
                "lat": 48.5291017,
                "lon": 13.7543335,
                "amenity": "bank",
                "atm": "yes",
                "brand": "Raiffeisen",
                "brand:wikidata": "Q22093483",
                "name": "Raiffeisen"
              },
              "geometry": {
                "type": "Point",
                "coordinates": [
                  13.7543335,
                  48.5291017
                ]
              }
            },
            {
              "type": "Feature",
              "properties": {
                "id": "3401512346",
                "osm_type": "node",
                "lat": 48.5293787,
                "lon": 13.648774,
                "amenity": "bank",
                "atm": "yes",
                "name": "Raiffeisenbankstelle Vichtenstein"
              },
              "geometry": {
                "type": "Point",
                "coordinates": [
                  13.648774,
                  48.5293787
                ]
              }
            },
            {
              "type": "Feature",
              "properties": {
                "id": "3661988829",
                "osm_type": "node",
                "lat": 48.6012265,
                "lon": 13.7890571,
                "amenity": "bank",
                "atm": "yes",
                "name": "Raiffeisenbank Wegscheid",
                "operator": "Raiffeisenbank Wegscheid",
                "wikidata": "Q124398856"
              },
              "geometry": {
                "type": "Point",
                "coordinates": [
                  13.7890571,
                  48.6012265
                ]
              }
            },
            {
              "type": "Feature",
              "properties": {
                "id": "3661988830",
                "osm_type": "node",
                "lat": 48.6012042,
                "lon": 13.7870678,
                "amenity": "bank",
                "atm": "yes",
                "name": "Sparkasse Passau"
              },
              "geometry": {
                "type": "Point",
                "coordinates": [
                  13.7870678,
                  48.6012042
                ]
              }
            }
          ],
          "children": []
        },
        {
          "bbox": {
            "south": 48.521248125,
            "west": 13.82261775,
            "north": 48.68652475,
            "east": 14.2994695
          },
          "poiCount": 16,
          "leafCount": 16,
          "averagePosition": [
            14.0390307875,
            48.5782483
          ],
          "data": [
            {
              "type": "Feature",
              "properties": {
                "id": "294915669",
                "osm_type": "node",
                "lat": 48.6462085,
                "lon": 13.9708937,
                "amenity": "bank",
                "atm": "yes",
                "brand": "Sparkasse",
                "brand:wikidata": "Q2307785",
                "name": "Sparkasse",
                "operator": "Sparkasse"
              },
              "geometry": {
                "type": "Point",
                "coordinates": [
                  13.9708937,
                  48.6462085
                ]
              }
            },
            {
              "type": "Feature",
              "properties": {
                "id": "294915822",
                "osm_type": "node",
                "lat": 48.6466091,
                "lon": 13.9714623,
                "amenity": "bank",
                "atm": "yes",
                "brand": "Raiffeisen",
                "brand:wikidata": "Q22093483",
                "name": "Raiffeisen",
                "operator": "Raiffeisen"
              },
              "geometry": {
                "type": "Point",
                "coordinates": [
                  13.9714623,
                  48.6466091
                ]
              }
            },
            {
              "type": "Feature",
              "properties": {
                "id": "306503892",
                "osm_type": "node",
                "lat": 48.5726297,
                "lon": 13.9900388,
                "addr:city": "Rohrbach-Berg",
                "addr:country": "AT",
                "addr:housename": "Bankstelle Rohrbach",
                "addr:housenumber": "30",
                "addr:postcode": "4150",
                "addr:street": "Stadtplatz",
                "amenity": "bank",
                "atm": "yes",
                "brand": "Raiffeisen",
                "brand:wikidata": "Q22093483",
                "name": "Raiffeisen",
                "operator": "Raiffeisen",
                "wheelchair": "yes"
              },
              "geometry": {
                "type": "Point",
                "coordinates": [
                  13.9900388,
                  48.5726297
                ]
              }
            },
            {
              "type": "Feature",
              "properties": {
                "id": "306503966",
                "osm_type": "node",
                "lat": 48.5719791,
                "lon": 13.9909007,
                "addr:housename": "Bankstelle Rohrbach",
                "addr:housenumber": "24",
                "addr:postcode": "4150",
                "addr:street": "Stadtplatz",
                "amenity": "bank",
                "atm": "yes",
                "name": "Sparkasse Mühlviertel West",
                "operator": "Sparkasse",
                "wheelchair": "yes"
              },
              "geometry": {
                "type": "Point",
                "coordinates": [
                  13.9909007,
                  48.5719791
                ]
              }
            },
            {
              "type": "Feature",
              "properties": {
                "id": "307741540",
                "osm_type": "node",
                "lat": 48.5714092,
                "lon": 13.992513,
                "addr:housenumber": "16",
                "addr:postcode": "4150",
                "addr:street": "Stadtplatz",
                "amenity": "bank",
                "atm": "yes",
                "branch": "Rohrbach",
                "brand": "Oberbank",
                "brand:wikidata": "Q2009139",
                "brand:wikipedia": "de:Oberbank",
                "name": "Oberbank",
                "operator": "Oberbank"
              },
              "geometry": {
                "type": "Point",
                "coordinates": [
                  13.992513,
                  48.5714092
                ]
              }
            },
            {
              "type": "Feature",
              "properties": {
                "id": "309470013",
                "osm_type": "node",
                "lat": 48.6177347,
                "lon": 13.8953112,
                "amenity": "bank",
                "atm": "yes",
                "brand": "Raiffeisen",
                "brand:wikidata": "Q22093483",
                "name": "Raiffeisen",
                "operator": "Raiffeisen"
              },
              "geometry": {
                "type": "Point",
                "coordinates": [
                  13.8953112,
                  48.6177347
                ]
              }
            },
            {
              "type": "Feature",
              "properties": {
                "id": "340516023",
                "osm_type": "node",
                "lat": 48.5718714,
                "lon": 13.9911381,
                "addr:city": "Rohrbach-Berg",
                "addr:country": "AT",
                "addr:housenumber": "23",
                "addr:postcode": "4150",
                "addr:street": "Stadtplatz",
                "amenity": "bank",
                "brand": "bank99",
                "brand:wikidata": "Q91200481",
                "brand:wikipedia": "de:Bank99",
                "drive_through": "no",
                "name": "bank99",
                "opening_hours": "Mo-Fr 08:00-12:00, 14:00-17:30; Sa,Su,PH off",
                "operator": "bank99 AG",
                "website": "https://www.bank99.at",
                "wheelchair": "yes"
              },
              "geometry": {
                "type": "Point",
                "coordinates": [
                  13.9911381,
                  48.5718714
                ]
              }
            },
            {
              "type": "Feature",
              "properties": {
                "id": "2329944659",
                "osm_type": "node",
                "lat": 48.5704612,
                "lon": 13.994048,
                "addr:city": "Rohrbach-Berg",
                "addr:country": "AT",
                "addr:housename": "Volkskreditbank",
                "addr:housenumber": "11",
                "addr:postcode": "4150",
                "addr:street": "Linzer Straße",
                "amenity": "bank",
                "contact:phone": "+43 7289 408 100",
                "name": "VKB Rohrbach",
                "website": "https://www.vkb-bank.at/"
              },
              "geometry": {
                "type": "Point",
                "coordinates": [
                  13.994048,
                  48.5704612
                ]
              }
            },
            {
              "type": "Feature",
              "properties": {
                "id": "3036639278",
                "osm_type": "node",
                "lat": 48.6053458,
                "lon": 13.8410263,
                "addr:city": "Kollerschlag",
                "addr:country": "AT",
                "addr:housenumber": "14",
                "addr:postcode": "4154",
                "addr:street": "Markt",
                "amenity": "bank",
                "brand": "Sparkasse",
                "brand:wikidata": "Q2307785",
                "name": "Sparkasse",
                "opening_hours": "Mo,Tu,Th,Fr 08:00-12:00,14:00-16:30; We 08:00-12:00"
              },
              "geometry": {
                "type": "Point",
                "coordinates": [
                  13.8410263,
                  48.6053458
                ]
              }
            },
            {
              "type": "Feature",
              "properties": {
                "id": "294914747",
                "osm_type": "node",
                "lat": 48.5749666,
                "lon": 14.0432295,
                "addr:city": "Haslach an der Mühl",
                "addr:country": "AT",
                "addr:housenumber": "2",
                "addr:postcode": "4170",
                "addr:street": "Sternwaldstraße",
                "amenity": "bank",
                "atm": "yes",
                "brand": "Sparkasse",
                "brand:wikidata": "Q2307785",
                "name": "Sparkasse"
              },
              "geometry": {
                "type": "Point",
                "coordinates": [
                  14.0432295,
                  48.5749666
                ]
              }
            },
            {
              "type": "Feature",
              "properties": {
                "id": "401892202",
                "osm_type": "node",
                "lat": 48.5515485,
                "lon": 14.2202907,
                "amenity": "bank",
                "atm": "yes",
                "name": "Raiffeisenbank Vorderweißenbach",
                "operator": "Raiffeisen"
              },
              "geometry": {
                "type": "Point",
                "coordinates": [
                  14.2202907,
                  48.5515485
                ]
              }
            },
            {
              "type": "Feature",
              "properties": {
                "id": "475763076",
                "osm_type": "node",
                "lat": 48.5679492,
                "lon": 14.1025662,
                "amenity": "bank",
                "atm": "yes",
                "branch": "Sankt Stefan",
                "brand": "Raiffeisen",
                "brand:wikidata": "Q22093483",
                "name": "Raiffeisen"
              },
              "geometry": {
                "type": "Point",
                "coordinates": [
                  14.1025662,
                  48.5679492
                ]
              }
            },
            {
              "type": "Feature",
              "properties": {
                "id": "475885978",
                "osm_type": "node",
                "lat": 48.5434145,
                "lon": 14.1429043,
                "addr:city": "Helfenberg",
                "addr:country": "AT",
                "addr:housenumber": "5",
                "addr:postcode": "4184",
                "addr:street": "Leonfeldner Straße",
                "amenity": "bank",
                "atm": "yes",
                "name": "Raiffeisenbank Helfenberg"
              },
              "geometry": {
                "type": "Point",
                "coordinates": [
                  14.1429043,
                  48.5434145
                ]
              }
            },
            {
              "type": "Feature",
              "properties": {
                "id": "475885995",
                "osm_type": "node",
                "lat": 48.5423316,
                "lon": 14.142396,
                "amenity": "bank",
                "atm": "yes",
                "name": "Sparkasse Helfenberg"
              },
              "geometry": {
                "type": "Point",
                "coordinates": [
                  14.142396,
                  48.5423316
                ]
              }
            },
            {
              "type": "Feature",
              "properties": {
                "id": "783941104",
                "osm_type": "node",
                "lat": 48.5755421,
                "lon": 14.0407281,
                "addr:city": "Haslach an der Mühl",
                "addr:country": "AT",
                "addr:housenumber": "42",
                "addr:postcode": "4170",
                "addr:street": "Marktplatz",
                "amenity": "bank",
                "atm": "yes",
                "branch": "Haslach",
                "brand": "Raiffeisen",
                "brand:wikidata": "Q22093483",
                "name": "Raiffeisen",
                "opening_hours": "Mo-Tu,Fr 08:00-12:00,14:30-16:30; We-Th 08:00-12:00"
              },
              "geometry": {
                "type": "Point",
                "coordinates": [
                  14.0407281,
                  48.5755421
                ]
              }
            },
            {
              "type": "Feature",
              "properties": {
                "id": "7592541399",
                "osm_type": "node",
                "lat": 48.5219716,
                "lon": 14.2950457,
                "addr:city": "Bad Leonfelden",
                "addr:country": "AT",
                "addr:housenumber": "18",
                "addr:postcode": "4190",
                "addr:street": "Hauptplatz",
                "amenity": "bank",
                "atm": "yes",
                "brand": "bank99",
                "brand:wikidata": "Q91200481",
                "drive_through": "no",
                "name": "bank99",
                "opening_hours": "Mo-Fr 08:00-12:00, 14:00-17:30; Sa,Su,PH off",
                "operator": "bank99 AG",
                "website": "https://www.bank99.at"
              },
              "geometry": {
                "type": "Point",
                "coordinates": [
                  14.2950457,
                  48.5219716
                ]
              }
            }
          ],
          "children": []
        }
      ]
    },
    {
      "bbox": {
        "south": 48.355971499999995,
        "west": 14.2994695,
        "north": 48.68652475,
        "east": 15.253173
      },
      "poiCount": 50,
      "leafCount": 50,
      "averagePosition": [
        14.842819948,
        48.501288538
      ],
      "data": [
        {
          "type": "Feature",
          "properties": {
            "id": "60116284",
            "osm_type": "node",
            "lat": 48.3673578,
            "lon": 14.5164555,
            "amenity": "bank",
            "atm": "yes",
            "brand": "Raiffeisen",
            "brand:wikidata": "Q22093483",
            "contact:fax": "+43 7236 2315-99",
            "contact:phone": "+43 7236 2315",
            "name": "Raiffeisenbank",
            "operator": "Raiffeisen",
            "wheelchair": "yes"
          },
          "geometry": {
            "type": "Point",
            "coordinates": [
              14.5164555,
              48.3673578
            ]
          }
        },
        {
          "type": "Feature",
          "properties": {
            "id": "343318766",
            "osm_type": "node",
            "lat": 48.3665326,
            "lon": 14.5159315,
            "addr:city": "Hagenberg im Mühlkreis",
            "addr:housenumber": "5",
            "addr:postcode": "4232",
            "addr:street": "Weingarten",
            "amenity": "bank",
            "atm": "yes",
            "name": "Sparkasse",
            "opening_hours": "Mo-Fr 08:00-12:00",
            "operator": "Sparkasse Pregarten-Unterweißenbach AG",
            "phone": "+43 5 0100 - 42703",
            "website": "https://www.sparkasse.at/pregarten/filialen-oeffungszeiten/filialsuche/filiale/4232-hagenberg-im-muhlkreis/weingarten-5/AT02220003",
            "wheelchair": "yes"
          },
          "geometry": {
            "type": "Point",
            "coordinates": [
              14.5159315,
              48.3665326
            ]
          }
        },
        {
          "type": "Feature",
          "properties": {
            "id": "2078668002",
            "osm_type": "node",
            "lat": 48.3596189,
            "lon": 14.8957328,
            "addr:city": "St. Georgen am Walde",
            "addr:country": "AT",
            "addr:housenumber": "24",
            "addr:postcode": "4372",
            "addr:street": "Markt",
            "amenity": "bank",
            "name": "Raiffeisenbank"
          },
          "geometry": {
            "type": "Point",
            "coordinates": [
              14.8957328,
              48.3596189
            ]
          }
        },
        {
          "type": "Feature",
          "properties": {
            "id": "2078668071",
            "osm_type": "node",
            "lat": 48.3599094,
            "lon": 14.8966501,
            "addr:city": "St. Georgen am Walde",
            "addr:country": "AT",
            "addr:housenumber": "5",
            "addr:postcode": "4372",
            "addr:street": "Markt",
            "amenity": "bank",
            "name": "Sparkasse"
          },
          "geometry": {
            "type": "Point",
            "coordinates": [
              14.8966501,
              48.3599094
            ]
          }
        },
        {
          "type": "Feature",
          "properties": {
            "id": "312565072",
            "osm_type": "node",
            "lat": 48.50685,
            "lon": 14.5031218,
            "amenity": "bank",
            "atm": "yes",
            "check_date": "2025-04-15",
            "name": "Raiffeisenbank",
            "wheelchair": "yes"
          },
          "geometry": {
            "type": "Point",
            "coordinates": [
              14.5031218,
              48.50685
            ]
          }
        },
        {
          "type": "Feature",
          "properties": {
            "id": "330451127",
            "osm_type": "node",
            "lat": 48.5115392,
            "lon": 14.5046527,
            "amenity": "bank",
            "atm": "yes",
            "name": "Volkskreditbank"
          },
          "geometry": {
            "type": "Point",
            "coordinates": [
              14.5046527,
              48.5115392
            ]
          }
        },
        {
          "type": "Feature",
          "properties": {
            "id": "330451130",
            "osm_type": "node",
            "lat": 48.5094334,
            "lon": 14.5013605,
            "amenity": "bank",
            "atm": "yes",
            "check_date": "2025-04-15",
            "name": "Oberbank",
            "operator": "Oberbank",
            "wheelchair": "yes"
          },
          "geometry": {
            "type": "Point",
            "coordinates": [
              14.5013605,
              48.5094334
            ]
          }
        },
        {
          "type": "Feature",
          "properties": {
            "id": "338333003",
            "osm_type": "node",
            "lat": 48.5106583,
            "lon": 14.5026417,
            "addr:city": "Freistadt",
            "addr:country": "AT",
            "addr:housenumber": "12",
            "addr:postcode": "4240",
            "addr:street": "Eisengasse",
            "amenity": "bank",
            "atm": "yes",
            "email": "office@vb-ooe.at",
            "name": "Volksbank Oberösterreich AG",
            "opening_hours": "Mo-Fr 08:00-12:00,14:00-15:30; We 08:00-12:00",
            "operator": "Volksbank",
            "phone": "+437942748113050",
            "website": "https://www.vb-ooe.at/",
            "wheelchair": "limited"
          },
          "geometry": {
            "type": "Point",
            "coordinates": [
              14.5026417,
              48.5106583
            ]
          }
        },
        {
          "type": "Feature",
          "properties": {
            "id": "411276959",
            "osm_type": "node",
            "lat": 48.5114299,
            "lon": 14.5056574,
            "amenity": "bank",
            "atm": "yes",
            "name": "Sparkasse",
            "wheelchair": "yes"
          },
          "geometry": {
            "type": "Point",
            "coordinates": [
              14.5056574,
              48.5114299
            ]
          }
        },
        {
          "type": "Feature",
          "properties": {
            "id": "568279010",
            "osm_type": "node",
            "lat": 48.4272425,
            "lon": 14.4857805,
            "amenity": "bank",
            "atm": "yes",
            "name": "Raiffeisen Neumarkt",
            "opening_hours": "Mo-We,Fr 08:30-12:00, Fr 14:00-16:00"
          },
          "geometry": {
            "type": "Point",
            "coordinates": [
              14.4857805,
              48.4272425
            ]
          }
        },
        {
          "type": "Feature",
          "properties": {
            "id": "573631588",
            "osm_type": "node",
            "lat": 48.4318948,
            "lon": 14.299889,
            "amenity": "bank",
            "atm": "yes",
            "brand": "Raiffeisen",
            "brand:wikidata": "Q2127528",
            "name": "Raiffeisen",
            "operator": "Raiffeisen"
          },
          "geometry": {
            "type": "Point",
            "coordinates": [
              14.299889,
              48.4318948
            ]
          }
        },
        {
          "type": "Feature",
          "properties": {
            "id": "573651439",
            "osm_type": "node",
            "lat": 48.4318886,
            "lon": 14.3008866,
            "addr:city": "Hellmonsödt",
            "addr:country": "AT",
            "addr:housenumber": "17",
            "addr:postcode": "4202",
            "addr:street": "Marktplatz",
            "amenity": "bank",
            "atm": "yes",
            "name": "Sparkasse"
          },
          "geometry": {
            "type": "Point",
            "coordinates": [
              14.3008866,
              48.4318886
            ]
          }
        },
        {
          "type": "Feature",
          "properties": {
            "id": "4672248633",
            "osm_type": "node",
            "lat": 48.4075186,
            "lon": 14.4184824,
            "amenity": "bank",
            "atm": "yes"
          },
          "geometry": {
            "type": "Point",
            "coordinates": [
              14.4184824,
              48.4075186
            ]
          }
        },
        {
          "type": "Feature",
          "properties": {
            "id": "5316664137",
            "osm_type": "node",
            "lat": 48.6165039,
            "lon": 14.3123518,
            "amenity": "bank",
            "atm": "yes",
            "operator": "Česká Spořitelna, a.s."
          },
          "geometry": {
            "type": "Point",
            "coordinates": [
              14.3123518,
              48.6165039
            ]
          }
        },
        {
          "type": "Feature",
          "properties": {
            "id": "7592399776",
            "osm_type": "node",
            "lat": 48.510943,
            "lon": 14.5012624,
            "addr:city": "Freistadt",
            "addr:country": "AT",
            "addr:housenumber": "11",
            "addr:postcode": "4240",
            "addr:street": "Promenade",
            "amenity": "bank",
            "atm": "yes",
            "drive_through": "no",
            "name": "bank99",
            "opening_hours": "Mo-Fr 08:00-18:00; Sa,Su,PH off",
            "operator": "bank99 AG",
            "website": "https://www.bank99.at"
          },
          "geometry": {
            "type": "Point",
            "coordinates": [
              14.5012624,
              48.510943
            ]
          }
        },
        {
          "type": "Feature",
          "properties": {
            "id": "9159586063",
            "osm_type": "node",
            "lat": 48.3741278,
            "lon": 14.3488792,
            "addr:city": "Altenberg bei Linz",
            "addr:country": "AT",
            "addr:housenumber": "2",
            "addr:postcode": "4203",
            "addr:street": "Raiffeisenweg",
            "amenity": "bank",
            "atm": "yes",
            "building": "office",
            "building:levels": "3",
            "contact:website": "https://www.raiffeisen.at/ooe/region-gallneukirchen/de/meine-bank/bankstellen/altenberg-bei-linz.html",
            "name": "Raiffeisenlandesbank Oberösterreich",
            "operator": "Raiffeisen"
          },
          "geometry": {
            "type": "Point",
            "coordinates": [
              14.3488792,
              48.3741278
            ]
          }
        },
        {
          "type": "Feature",
          "properties": {
            "id": "12758931706",
            "osm_type": "node",
            "lat": 48.5586168,
            "lon": 14.4765499,
            "amenity": "bank",
            "atm": "yes",
            "check_date": "2025-04-15",
            "name": "Raiba Rainbach",
            "wheelchair": "yes"
          },
          "geometry": {
            "type": "Point",
            "coordinates": [
              14.4765499,
              48.5586168
            ]
          }
        },
        {
          "type": "Feature",
          "properties": {
            "id": "13090132455",
            "osm_type": "node",
            "lat": 48.6155077,
            "lon": 14.503766,
            "amenity": "bank",
            "brand": "Raiffeisen",
            "brand:wikidata": "Q22093483",
            "name": "Raiffeisenbank Region Freistadt",
            "opening_hours": "5-24",
            "phone": "+43794966330",
            "website": "https://www.raiffeisen.at/ooe/region-freistadt/de/meine-bank/bankstellen/leopoldschlag.html"
          },
          "geometry": {
            "type": "Point",
            "coordinates": [
              14.503766,
              48.6155077
            ]
          }
        },
        {
          "type": "Feature",
          "properties": {
            "id": "323222565",
            "osm_type": "node",
            "lat": 48.4167353,
            "lon": 14.6126194,
            "amenity": "bank",
            "name": "Sparkasse",
            "operator": "Sparkasse",
            "wheelchair": "yes"
          },
          "geometry": {
            "type": "Point",
            "coordinates": [
              14.6126194,
              48.4167353
            ]
          }
        },
        {
          "type": "Feature",
          "properties": {
            "id": "582480124",
            "osm_type": "node",
            "lat": 48.5743644,
            "lon": 14.9577152,
            "addr:city": "Groß Gerungs",
            "addr:housenumber": "17",
            "addr:postcode": "3920",
            "addr:street": "Hauptplatz",
            "amenity": "bank",
            "atm": "yes",
            "name": "Sparkasse Bank AG",
            "website": "https://www.sparkasse.at/waldviertel-mitte",
            "wheelchair": "yes"
          },
          "geometry": {
            "type": "Point",
            "coordinates": [
              14.9577152,
              48.5743644
            ]
          }
        },
        {
          "type": "Feature",
          "properties": {
            "id": "901544106",
            "osm_type": "node",
            "lat": 48.5316451,
            "lon": 14.8092777,
            "amenity": "bank",
            "atm": "yes",
            "brand": "Raiffeisen",
            "brand:wikidata": "Q2127528",
            "name": "Raiffeisen"
          },
          "geometry": {
            "type": "Point",
            "coordinates": [
              14.8092777,
              48.5316451
            ]
          }
        },
        {
          "type": "Feature",
          "properties": {
            "id": "1546440004",
            "osm_type": "node",
            "lat": 48.573938,
            "lon": 14.8873866,
            "amenity": "bank",
            "atm": "yes",
            "name": "Raiffeisenbank Region Waldviertel Mitte Bankstelle Langschlag",
            "wheelchair": "yes"
          },
          "geometry": {
            "type": "Point",
            "coordinates": [
              14.8873866,
              48.573938
            ]
          }
        },
        {
          "type": "Feature",
          "properties": {
            "id": "1604801818",
            "osm_type": "node",
            "lat": 48.4454818,
            "lon": 14.679909,
            "amenity": "bank",
            "branch": "St  Leonhard",
            "brand": "Raiffeisen",
            "brand:wikidata": "Q2127528",
            "name": "Raiffeisen"
          },
          "geometry": {
            "type": "Point",
            "coordinates": [
              14.679909,
              48.4454818
            ]
          }
        },
        {
          "type": "Feature",
          "properties": {
            "id": "1784517545",
            "osm_type": "node",
            "lat": 48.4767386,
            "lon": 14.7266549,
            "amenity": "bank",
            "atm": "yes",
            "brand": "Raiffeisen",
            "brand:wikidata": "Q22093483",
            "name": "Raiffeisenbank",
            "operator": "Raiffeisenbank Mühlviertler Alm"
          },
          "geometry": {
            "type": "Point",
            "coordinates": [
              14.7266549,
              48.4767386
            ]
          }
        },
        {
          "type": "Feature",
          "properties": {
            "id": "1850341717",
            "osm_type": "node",
            "lat": 48.4941664,
            "lon": 14.9556187,
            "amenity": "bank",
            "atm": "yes",
            "branch": "Region Waldviertel Mitte",
            "brand": "Raiffeisen",
            "brand:wikidata": "Q2127528",
            "name": "Raiffeisen"
          },
          "geometry": {
            "type": "Point",
            "coordinates": [
              14.9556187,
              48.4941664
            ]
          }
        },
        {
          "type": "Feature",
          "properties": {
            "id": "2371536585",
            "osm_type": "node",
            "lat": 48.6289658,
            "lon": 14.8238125,
            "ATS": "yes",
            "addr:city": "Bad Großpertholz",
            "addr:country": "AT",
            "addr:housenumber": "31",
            "addr:place": "Bad Großpertholz",
            "addr:postcode": "3972",
            "amenity": "bank",
            "at_bev:addr_date": "2021-10-01",
            "name": "Raiffeisenbank",
            "operator": "Raiffeisenbank Weitra regGenmbH",
            "website": "http://www.rbweitra.at"
          },
          "geometry": {
            "type": "Point",
            "coordinates": [
              14.8238125,
              48.6289658
            ]
          }
        },
        {
          "type": "Feature",
          "properties": {
            "id": "3429803280",
            "osm_type": "node",
            "lat": 48.5739181,
            "lon": 14.957037,
            "amenity": "bank",
            "atm": "yes",
            "name": "Raiffeisenbank Groß Gerungs",
            "website": "https://www.raiffeisen.at/grossgerungs"
          },
          "geometry": {
            "type": "Point",
            "coordinates": [
              14.957037,
              48.5739181
            ]
          }
        },
        {
          "type": "Feature",
          "properties": {
            "id": "3429807698",
            "osm_type": "node",
            "lat": 48.5738891,
            "lon": 14.957601,
            "amenity": "bank",
            "atm": "yes",
            "name": "Volksbank Groß Gerungs",
            "website": "http://www.horn.volksbank.at"
          },
          "geometry": {
            "type": "Point",
            "coordinates": [
              14.957601,
              48.5738891
            ]
          }
        },
        {
          "type": "Feature",
          "properties": {
            "id": "3523263427",
            "osm_type": "node",
            "lat": 48.4931173,
            "lon": 14.9527704,
            "amenity": "bank",
            "name": "Waldviertler Sparkasse Bank AG"
          },
          "geometry": {
            "type": "Point",
            "coordinates": [
              14.9527704,
              48.4931173
            ]
          }
        },
        {
          "type": "Feature",
          "properties": {
            "id": "4021661144",
            "osm_type": "node",
            "lat": 48.3908353,
            "lon": 15.0064064,
            "amenity": "bank",
            "name": "Raiffeisenbank"
          },
          "geometry": {
            "type": "Point",
            "coordinates": [
              15.0064064,
              48.3908353
            ]
          }
        },
        {
          "type": "Feature",
          "properties": {
            "id": "10673453726",
            "osm_type": "node",
            "lat": 48.4628267,
            "lon": 14.9655172,
            "amenity": "bank",
            "atm": "yes",
            "branch": "Region Waldviertel Mitte",
            "brand": "Raiffeisen",
            "brand:wikidata": "Q2127528",
            "drive_through": "no",
            "name": "Raiffeisen"
          },
          "geometry": {
            "type": "Point",
            "coordinates": [
              14.9655172,
              48.4628267
            ]
          }
        },
        {
          "type": "Feature",
          "properties": {
            "id": "457141339",
            "osm_type": "node",
            "lat": 48.6038452,
            "lon": 15.16612,
            "amenity": "bank",
            "branch": "AG",
            "brand": "Oberbank",
            "brand:wikidata": "Q2009139",
            "name": "Oberbank",
            "operator": "Oberbank",
            "website": "https://www.oberbank.at/"
          },
          "geometry": {
            "type": "Point",
            "coordinates": [
              15.16612,
              48.6038452
            ]
          }
        },
        {
          "type": "Feature",
          "properties": {
            "id": "457141389",
            "osm_type": "node",
            "lat": 48.6040757,
            "lon": 15.1666984,
            "amenity": "bank",
            "check_date": "2024-01-23",
            "name": "Raiffeisenbank Waldviertel Mitte",
            "operator": "Raiffeisenbanken"
          },
          "geometry": {
            "type": "Point",
            "coordinates": [
              15.1666984,
              48.6040757
            ]
          }
        },
        {
          "type": "Feature",
          "properties": {
            "id": "457141395",
            "osm_type": "node",
            "lat": 48.6045594,
            "lon": 15.1672887,
            "amenity": "bank",
            "name": "Waldviertler Sparkasse Bank AG",
            "opening_hours": "Mo-Fr 08:00-12:00,13:00-16:00",
            "operator": "Sparkasse"
          },
          "geometry": {
            "type": "Point",
            "coordinates": [
              15.1672887,
              48.6045594
            ]
          }
        },
        {
          "type": "Feature",
          "properties": {
            "id": "457676821",
            "osm_type": "node",
            "lat": 48.5211795,
            "lon": 15.0796369,
            "amenity": "bank",
            "name": "Raiffeisenbank Waldviertel Mitte",
            "operator": "Raiffeisenbanken"
          },
          "geometry": {
            "type": "Point",
            "coordinates": [
              15.0796369,
              48.5211795
            ]
          }
        },
        {
          "type": "Feature",
          "properties": {
            "id": "517235855",
            "osm_type": "node",
            "lat": 48.6678429,
            "lon": 15.0634714,
            "amenity": "bank",
            "name": "Bank und Sparkassen AG Waldviertel-Mitte"
          },
          "geometry": {
            "type": "Point",
            "coordinates": [
              15.0634714,
              48.6678429
            ]
          }
        },
        {
          "type": "Feature",
          "properties": {
            "id": "582476532",
            "osm_type": "node",
            "lat": 48.4343184,
            "lon": 15.1134921,
            "amenity": "bank",
            "name": "Raiffeisenbank",
            "operator": "Raiffeisen",
            "website": "https://www.rbw4.at/"
          },
          "geometry": {
            "type": "Point",
            "coordinates": [
              15.1134921,
              48.4343184
            ]
          }
        },
        {
          "type": "Feature",
          "properties": {
            "id": "1707332291",
            "osm_type": "node",
            "lat": 48.3940048,
            "lon": 15.2226659,
            "addr:city": "Kirchschlag",
            "addr:country": "AT",
            "addr:housename": "Gemeindeamt",
            "addr:housenumber": "2",
            "addr:place": "Kirchschlag",
            "addr:postcode": "3631",
            "amenity": "bank",
            "atm": "no",
            "name": "Raiffeisenkasse Kirchschlag"
          },
          "geometry": {
            "type": "Point",
            "coordinates": [
              15.2226659,
              48.3940048
            ]
          }
        },
        {
          "type": "Feature",
          "properties": {
            "id": "3781286543",
            "osm_type": "node",
            "lat": 48.3757014,
            "lon": 15.1494699,
            "amenity": "bank",
            "name": "Raiffeisenbank Martinsberg"
          },
          "geometry": {
            "type": "Point",
            "coordinates": [
              15.1494699,
              48.3757014
            ]
          }
        },
        {
          "type": "Feature",
          "properties": {
            "id": "3794023305",
            "osm_type": "node",
            "lat": 48.5381525,
            "lon": 15.0516457,
            "amenity": "bank",
            "name": "Raiffeisenbank"
          },
          "geometry": {
            "type": "Point",
            "coordinates": [
              15.0516457,
              48.5381525
            ]
          }
        },
        {
          "type": "Feature",
          "properties": {
            "id": "4325945443",
            "osm_type": "node",
            "lat": 48.4243842,
            "lon": 15.2201428,
            "amenity": "bank",
            "atm": "yes",
            "check_date": "2024-08-30",
            "drive_through": "no",
            "name": "Raiffeisenkasse Ottenschlag-Martinsberg",
            "opening_hours": "Mo,Tu,Th 08:00-12:30,13:30-16:00; We 08:00-12:00,13:30-15:00; Fr 08:00-12:30,13:30-17:00",
            "short_name": "Raiffeisen"
          },
          "geometry": {
            "type": "Point",
            "coordinates": [
              15.2201428,
              48.4243842
            ]
          }
        },
        {
          "type": "Feature",
          "properties": {
            "id": "4335557328",
            "osm_type": "node",
            "lat": 48.4232647,
            "lon": 15.22182,
            "addr:city": "Ottenschlag",
            "addr:housenumber": "6",
            "addr:postcode": "3631",
            "addr:street": "Oberer Markt",
            "amenity": "bank",
            "check_date": "2023-07-10",
            "name": "Waldviertler Sparkasse Bank AG"
          },
          "geometry": {
            "type": "Point",
            "coordinates": [
              15.22182,
              48.4232647
            ]
          }
        },
        {
          "type": "Feature",
          "properties": {
            "id": "4639774727",
            "osm_type": "node",
            "lat": 48.5215014,
            "lon": 15.0786756,
            "amenity": "bank",
            "name": "Sparkasse Waldviertel-Mitte AG",
            "website": "https://www.sparkasse.at/waldviertel-mitte"
          },
          "geometry": {
            "type": "Point",
            "coordinates": [
              15.0786756,
              48.5215014
            ]
          }
        },
        {
          "type": "Feature",
          "properties": {
            "id": "5063856779",
            "osm_type": "node",
            "lat": 48.604294,
            "lon": 15.1683193,
            "amenity": "bank",
            "name": "Volksbank Niederösterreich AG",
            "website": "https://www.vbnoe.at/"
          },
          "geometry": {
            "type": "Point",
            "coordinates": [
              15.1683193,
              48.604294
            ]
          }
        },
        {
          "type": "Feature",
          "properties": {
            "id": "5081860116",
            "osm_type": "node",
            "lat": 48.6041553,
            "lon": 15.1664019,
            "addr:city": "Zwettl",
            "addr:country": "AT",
            "addr:housenumber": "24",
            "addr:postcode": "3910",
            "addr:street": "Landstraße",
            "amenity": "bank",
            "atm": "yes",
            "brand": "bank99",
            "brand:wikidata": "Q91200481",
            "drive_through": "no",
            "name": "bank99",
            "opening_hours": "Mo-Fr 08:00-12:00, 13:00-18:00; Sa,Su,PH off",
            "operator": "bank99 AG",
            "website": "https://www.bank99.at"
          },
          "geometry": {
            "type": "Point",
            "coordinates": [
              15.1664019,
              48.6041553
            ]
          }
        },
        {
          "type": "Feature",
          "properties": {
            "id": "5431034001",
            "osm_type": "node",
            "lat": 48.6329433,
            "lon": 15.1156897,
            "amenity": "bank",
            "name": "Raiffeisenbank"
          },
          "geometry": {
            "type": "Point",
            "coordinates": [
              15.1156897,
              48.6329433
            ]
          }
        },
        {
          "type": "Feature",
          "properties": {
            "id": "5890545446",
            "osm_type": "node",
            "lat": 48.5393695,
            "lon": 15.189415,
            "addr:city": "Großgöttfritz",
            "addr:country": "AT",
            "addr:housenumber": "100",
            "addr:place": "Großgöttfritz",
            "addr:postcode": "3913",
            "amenity": "bank",
            "name": "Raiffeisenbank Waldviertel Mitte",
            "opening_hours": "Mo 08:00-11:00, Fr 08:00-11:00",
            "wheelchair": "yes"
          },
          "geometry": {
            "type": "Point",
            "coordinates": [
              15.189415,
              48.5393695
            ]
          }
        },
        {
          "type": "Feature",
          "properties": {
            "id": "7977019464",
            "osm_type": "node",
            "lat": 48.4667044,
            "lon": 15.2313702,
            "amenity": "bank",
            "name": "Raiba Region Waldviertel Mitte"
          },
          "geometry": {
            "type": "Point",
            "coordinates": [
              15.2313702,
              48.4667044
            ]
          }
        },
        {
          "type": "Feature",
          "properties": {
            "id": "8338481108",
            "osm_type": "node",
            "lat": 48.6676638,
            "lon": 15.0639312,
            "amenity": "bank",
            "name": "Raiffeisenbank Region Waldviertel Mitte"
          },
          "geometry": {
            "type": "Point",
            "coordinates": [
              15.0639312,
              48.6676638
            ]
          }
        },
        {
          "type": "Feature",
          "properties": {
            "id": "11040248762",
            "osm_type": "node",
            "lat": 48.4222714,
            "lon": 15.2223649,
            "amenity": "bank",
            "brand": "bank99",
            "brand:wikidata": "Q91200481",
            "check_date": "2023-07-11",
            "name": "bank99"
          },
          "geometry": {
            "type": "Point",
            "coordinates": [
              15.2223649,
              48.4222714
            ]
          }
        }
      ],
      "children": []
    },
    {
      "bbox": {
        "south": 48.68652475,
        "west": 13.345766,
        "north": 49.017078,
        "east": 14.2994695
      },
      "poiCount": 25,
      "leafCount": 25,
      "averagePosition": [
        13.533374383999998,
        48.812002512
      ],
      "data": [
        {
          "type": "Feature",
          "properties": {
            "id": "534336671",
            "osm_type": "node",
            "lat": 48.7788732,
            "lon": 13.4424814,
            "amenity": "bank",
            "name": "Sparkasse",
            "operator": "Sparkasse"
          },
          "geometry": {
            "type": "Point",
            "coordinates": [
              13.4424814,
              48.7788732
            ]
          }
        },
        {
          "type": "Feature",
          "properties": {
            "id": "1056067652",
            "osm_type": "node",
            "lat": 48.7790766,
            "lon": 13.4436614,
            "amenity": "bank",
            "name": "Raiffeisenbank"
          },
          "geometry": {
            "type": "Point",
            "coordinates": [
              13.4436614,
              48.7790766
            ]
          }
        },
        {
          "type": "Feature",
          "properties": {
            "id": "1386714200",
            "osm_type": "node",
            "lat": 48.7766315,
            "lon": 13.5121381,
            "amenity": "bank",
            "atm": "yes",
            "bic": "GENODEF1RGS",
            "name": "Raiffeisenbank Am Goldenen Steig eG",
            "opening_hours": "Mo,Th,Fr 08:00-12:00; Fr 13:30-16:30"
          },
          "geometry": {
            "type": "Point",
            "coordinates": [
              13.5121381,
              48.7766315
            ]
          }
        },
        {
          "type": "Feature",
          "properties": {
            "id": "1979950716",
            "osm_type": "node",
            "lat": 48.8496669,
            "lon": 13.4886377,
            "addr:city": "Hohenau",
            "amenity": "bank",
            "atm": "yes",
            "bic": "BYLADEM1FRG",
            "name": "Sparkasse"
          },
          "geometry": {
            "type": "Point",
            "coordinates": [
              13.4886377,
              48.8496669
            ]
          }
        },
        {
          "type": "Feature",
          "properties": {
            "id": "1979951209",
            "osm_type": "node",
            "lat": 48.8502758,
            "lon": 13.4883131,
            "addr:city": "Hohenau",
            "addr:housenumber": "2",
            "addr:postcode": "94545",
            "addr:street": "Dorfplatz",
            "amenity": "bank",
            "atm": "yes",
            "bic": "GENODEF1PA1",
            "drive_through": "no",
            "level": "0",
            "name": "Raiffeisenbank"
          },
          "geometry": {
            "type": "Point",
            "coordinates": [
              13.4883131,
              48.8502758
            ]
          }
        },
        {
          "type": "Feature",
          "properties": {
            "id": "2094912200",
            "osm_type": "node",
            "lat": 48.7384713,
            "lon": 13.5232599,
            "amenity": "bank",
            "atm": "yes",
            "bic": "BYLADEM1FRG",
            "name": "Sparkasse Freyung-Grafenau"
          },
          "geometry": {
            "type": "Point",
            "coordinates": [
              13.5232599,
              48.7384713
            ]
          }
        },
        {
          "type": "Feature",
          "properties": {
            "id": "2094913301",
            "osm_type": "node",
            "lat": 48.7379167,
            "lon": 13.522936,
            "addr:city": "Röhrnbach",
            "addr:housenumber": "10",
            "addr:postcode": "94133",
            "addr:street": "Passauer Straße",
            "amenity": "bank",
            "atm": "yes",
            "bic": "GENODEF1RGS",
            "check_date": "2023-10-12",
            "name": "Raiffeisenbank"
          },
          "geometry": {
            "type": "Point",
            "coordinates": [
              13.522936,
              48.7379167
            ]
          }
        },
        {
          "type": "Feature",
          "properties": {
            "id": "3376370518",
            "osm_type": "node",
            "lat": 48.7281042,
            "lon": 13.380139,
            "addr:city": "Tittling",
            "addr:country": "DE",
            "addr:housenumber": "4",
            "addr:postcode": "94104",
            "addr:street": "Marktplatz",
            "amenity": "bank",
            "atm": "yes",
            "name": "Sparkasse Passau",
            "wheelchair": "yes"
          },
          "geometry": {
            "type": "Point",
            "coordinates": [
              13.380139,
              48.7281042
            ]
          }
        },
        {
          "type": "Feature",
          "properties": {
            "id": "3421241467",
            "osm_type": "node",
            "lat": 48.7267184,
            "lon": 13.3809945,
            "addr:city": "Tittling",
            "addr:country": "DE",
            "addr:housenumber": "2",
            "addr:postcode": "94104",
            "addr:street": "Passauer Straße",
            "amenity": "bank",
            "atm": "yes",
            "name": "Raiffeisenbank",
            "opening_hours": "Mo,Tu,Th,Fr 08:00-12:00, 13:30-16:30;We 08:00-12:00",
            "operator": "Raiffeisenbank i. Lkrs. Passau-Nord eG"
          },
          "geometry": {
            "type": "Point",
            "coordinates": [
              13.3809945,
              48.7267184
            ]
          }
        },
        {
          "type": "Feature",
          "properties": {
            "id": "3506840996",
            "osm_type": "node",
            "lat": 48.7315605,
            "lon": 13.3764566,
            "addr:city": "Tittling",
            "addr:country": "DE",
            "addr:housenumber": "5",
            "addr:postcode": "94104",
            "addr:street": "Rothauer Straße",
            "amenity": "bank",
            "atm": "no",
            "brand": "Postbank",
            "brand:wikidata": "Q708835",
            "name": "Postbank",
            "note:de": "Einzahlungen; Auszahlungen; Kontostandsabfrage",
            "note:en": "deposit, payout, account balance request",
            "opening_hours": "Mo-Fr 08:00-18:00;Sa 09:00-13:00",
            "operator": "Postbank",
            "wheelchair": "yes"
          },
          "geometry": {
            "type": "Point",
            "coordinates": [
              13.3764566,
              48.7315605
            ]
          }
        },
        {
          "type": "Feature",
          "properties": {
            "id": "8445563847",
            "osm_type": "node",
            "lat": 48.803069,
            "lon": 13.3973631,
            "amenity": "bank",
            "atm": "yes",
            "name": "Raiffeisenbank"
          },
          "geometry": {
            "type": "Point",
            "coordinates": [
              13.3973631,
              48.803069
            ]
          }
        },
        {
          "type": "Feature",
          "properties": {
            "id": "415801260",
            "osm_type": "node",
            "lat": 48.8090552,
            "lon": 13.5477393,
            "addr:city": "Freyung",
            "addr:housenumber": "1",
            "addr:postcode": "94078",
            "addr:street": "Langgasse",
            "amenity": "bank",
            "atm": "yes",
            "bic": "BYLADEM1PAS",
            "drive_through": "no",
            "name": "Volksbank Freyung",
            "opening_hours": "Mo-Fr 08:15-12:30, Mo-We 13:30-16:15, Tu 13:30-17:00, Fr 13:30-16:15; PH off",
            "operator": "VR-Bank Passau eG",
            "wheelchair": "no"
          },
          "geometry": {
            "type": "Point",
            "coordinates": [
              13.5477393,
              48.8090552
            ]
          }
        },
        {
          "type": "Feature",
          "properties": {
            "id": "860402810",
            "osm_type": "node",
            "lat": 48.8227335,
            "lon": 13.5990871,
            "addr:street": "Dorfplatz",
            "amenity": "bank",
            "atm": "yes",
            "designation": "VR Bank",
            "drive_through": "no",
            "name": "Sparkasse",
            "operator": "Sparkasse Freyung-Grafenau",
            "wheelchair": "yes"
          },
          "geometry": {
            "type": "Point",
            "coordinates": [
              13.5990871,
              48.8227335
            ]
          }
        },
        {
          "type": "Feature",
          "properties": {
            "id": "1374088893",
            "osm_type": "node",
            "lat": 48.7303357,
            "lon": 13.6009417,
            "amenity": "bank",
            "atm": "yes",
            "name": "Sparkasse",
            "operator": "Sparkasse Waldkirchen",
            "wheelchair": "yes"
          },
          "geometry": {
            "type": "Point",
            "coordinates": [
              13.6009417,
              48.7303357
            ]
          }
        },
        {
          "type": "Feature",
          "properties": {
            "id": "2691174327",
            "osm_type": "node",
            "lat": 48.8249972,
            "lon": 13.7753895,
            "amenity": "bank",
            "name": "Raiffeisenbank",
            "wheelchair": "limited"
          },
          "geometry": {
            "type": "Point",
            "coordinates": [
              13.7753895,
              48.8249972
            ]
          }
        },
        {
          "type": "Feature",
          "properties": {
            "id": "3051762831",
            "osm_type": "node",
            "lat": 48.7022696,
            "lon": 13.7920759,
            "amenity": "bank",
            "atm": "yes",
            "name": "Sparkasse Breitenberg"
          },
          "geometry": {
            "type": "Point",
            "coordinates": [
              13.7920759,
              48.7022696
            ]
          }
        },
        {
          "type": "Feature",
          "properties": {
            "id": "3098759881",
            "osm_type": "node",
            "lat": 48.7289084,
            "lon": 13.5999923,
            "amenity": "bank",
            "atm": "yes",
            "name": "Raiffeisenbank",
            "opening_hours": "Mo,Tu,Th,Fr 08:30-12:00,13:30-16:30; We 08:30-12:00"
          },
          "geometry": {
            "type": "Point",
            "coordinates": [
              13.5999923,
              48.7289084
            ]
          }
        },
        {
          "type": "Feature",
          "properties": {
            "id": "5873326817",
            "osm_type": "node",
            "lat": 48.8227419,
            "lon": 13.6011889,
            "addr:city": "Hinterschmiding",
            "addr:housenumber": "34",
            "addr:postcode": "94146",
            "addr:street": "Dorfplatz",
            "amenity": "bank",
            "name": "Volksbank-Raiffeisenbank Freyung",
            "opening_hours": "Mo, Tu, Th, Fr 08:30-12:00, 14:00-17:00; We 08:30-12:00",
            "phone": "+49-8551-353"
          },
          "geometry": {
            "type": "Point",
            "coordinates": [
              13.6011889,
              48.8227419
            ]
          }
        },
        {
          "type": "Feature",
          "properties": {
            "id": "474824032",
            "osm_type": "node",
            "lat": 48.9068965,
            "lon": 13.384034,
            "addr:city": "Sankt Oswald-Riedlhütte",
            "addr:country": "DE",
            "addr:housenumber": "2",
            "addr:postcode": "94566",
            "addr:street": "Hammerberg",
            "amenity": "bank",
            "atm": "yes",
            "bic": "GENODEF1DGV",
            "name": "VR-Bank Riedlhütte",
            "wheelchair": "yes"
          },
          "geometry": {
            "type": "Point",
            "coordinates": [
              13.384034,
              48.9068965
            ]
          }
        },
        {
          "type": "Feature",
          "properties": {
            "id": "938868691",
            "osm_type": "node",
            "lat": 48.884081,
            "lon": 13.476984,
            "addr:city": "Neuschönau",
            "addr:housenumber": "14",
            "addr:postcode": "94556",
            "addr:street": "Kaiserstraße",
            "amenity": "bank",
            "atm": "yes",
            "bic": "BYLADEM1FRG",
            "name": "Sparkasse",
            "opening_hours": "Mo,Th 09:00-12:00; Tu 14:00-16:00; Fr 09:00-12:00"
          },
          "geometry": {
            "type": "Point",
            "coordinates": [
              13.476984,
              48.884081
            ]
          }
        },
        {
          "type": "Feature",
          "properties": {
            "id": "938868692",
            "osm_type": "node",
            "lat": 48.8840336,
            "lon": 13.4748538,
            "addr:city": "Neuschönau",
            "addr:housenumber": "2",
            "addr:postcode": "94556",
            "addr:street": "Kaiserstraße",
            "amenity": "bank",
            "atm": "yes",
            "bic": "GENODEF1DGV",
            "drive_through": "no",
            "name": "VR-Bank"
          },
          "geometry": {
            "type": "Point",
            "coordinates": [
              13.4748538,
              48.8840336
            ]
          }
        },
        {
          "type": "Feature",
          "properties": {
            "id": "1374063785",
            "osm_type": "node",
            "lat": 48.9131284,
            "lon": 13.3634418,
            "addr:city": "Spiegelau",
            "addr:housenumber": "1",
            "addr:postcode": "94518",
            "addr:street": "Steinklammstraße",
            "amenity": "bank",
            "atm": "yes",
            "fax": "+49 8551 581-2219",
            "level": "0",
            "name": "Sparkasse",
            "operator": "Filiale Spiegelau",
            "phone": "+49 8551 581-0"
          },
          "geometry": {
            "type": "Point",
            "coordinates": [
              13.3634418,
              48.9131284
            ]
          }
        },
        {
          "type": "Feature",
          "properties": {
            "id": "3079075902",
            "osm_type": "node",
            "lat": 48.8911512,
            "lon": 13.4280244,
            "amenity": "bank",
            "bic": "GENODEF1DGV",
            "operator": "VR-Bank"
          },
          "geometry": {
            "type": "Point",
            "coordinates": [
              13.4280244,
              48.8911512
            ]
          }
        },
        {
          "type": "Feature",
          "properties": {
            "id": "1459765056",
            "osm_type": "node",
            "lat": 48.8847682,
            "lon": 13.5841134,
            "amenity": "bank",
            "name": "Sparkasse",
            "wheelchair": "limited"
          },
          "geometry": {
            "type": "Point",
            "coordinates": [
              13.5841134,
              48.8847682
            ]
          }
        },
        {
          "type": "Feature",
          "properties": {
            "id": "429418142",
            "osm_type": "node",
            "lat": 48.9945983,
            "lon": 14.1501127,
            "amenity": "bank",
            "atm": "no",
            "brand": "Česká spořitelna",
            "brand:wikidata": "Q341100",
            "brand:wikipedia": "en:Česká spořitelna",
            "name": "Česká spořitelna",
            "operator": "Česká spořitelna"
          },
          "geometry": {
            "type": "Point",
            "coordinates": [
              14.1501127,
              48.9945983
            ]
          }
        }
      ],
      "children": []
    },
    {
      "bbox": {
        "south": 48.68652475,
        "west": 14.2994695,
        "north": 49.017078,
        "east": 15.253173
      },
      "poiCount": 53,
      "leafCount": 0,
      "averagePosition": [
        14.730398511320756,
        48.88431673773585
      ],
      "data": [],
      "children": [
        {
          "bbox": {
            "south": 48.68652475,
            "west": 14.2994695,
            "north": 48.851801374999994,
            "east": 14.77632125
          },
          "poiCount": 10,
          "leafCount": 10,
          "averagePosition": [
            14.39309442,
            48.79362067
          ],
          "data": [
            {
              "type": "Feature",
              "properties": {
                "id": "360023645",
                "osm_type": "node",
                "lat": 48.8097488,
                "lon": 14.3255705,
                "addr:city": "Český Krumlov",
                "addr:housenumber": "439",
                "addr:postcode": "38101",
                "addr:street": "Kaplická",
                "amenity": "bank",
                "atm": "yes",
                "brand": "Komerční banka",
                "brand:wikidata": "Q1541079",
                "brand:wikipedia": "en:Komerční banka",
                "drive_through": "no",
                "name": "Komerční banka",
                "opening_hours": "Mo-Th 09:00-12:00,13:00-17:00; Fr 08:00-12:00,13:00-15:00; Sa,Su,PH off",
                "operator": "Komerční banka"
              },
              "geometry": {
                "type": "Point",
                "coordinates": [
                  14.3255705,
                  48.8097488
                ]
              }
            },
            {
              "type": "Feature",
              "properties": {
                "id": "2409801994",
                "osm_type": "node",
                "lat": 48.8110768,
                "lon": 14.3149544,
                "addr:city": "Český Krumlov",
                "addr:postcode": "381 01",
                "addr:street": "Radniční",
                "amenity": "bank",
                "atm": "yes",
                "brand": "Oberbank",
                "brand:wikidata": "Q2009139",
                "brand:wikipedia": "de:Oberbank",
                "name": "Oberbank",
                "opening_hours": "Mo-Fr 09:00-12:00"
              },
              "geometry": {
                "type": "Point",
                "coordinates": [
                  14.3149544,
                  48.8110768
                ]
              }
            },
            {
              "type": "Feature",
              "properties": {
                "id": "3908680352",
                "osm_type": "node",
                "lat": 48.7380631,
                "lon": 14.4906044,
                "addr:housenumber": "349",
                "addr:postcode": "38241",
                "addr:street": "Linecká",
                "amenity": "bank",
                "branch": "Kaplice",
                "brand": "MONETA Money Bank",
                "brand:wikidata": "Q24282966",
                "name": "MONETA Money Bank",
                "name:cs": "MONETA Money Bank",
                "name:en": "MONETA Money Bank",
                "opening_hours": "Mo-Fr 8:30-12:00, 13:00-16:30",
                "operator": "MONETA Money Bank, a.s.",
                "phone": "+420380309900",
                "website": "https://moneta.cz/"
              },
              "geometry": {
                "type": "Point",
                "coordinates": [
                  14.4906044,
                  48.7380631
                ]
              }
            },
            {
              "type": "Feature",
              "properties": {
                "id": "5513798679",
                "osm_type": "node",
                "lat": 48.8110162,
                "lon": 14.3239992,
                "addr:city": "Český Krumlov",
                "addr:postcode": "381 01",
                "addr:street": "Za Tiskárnou",
                "amenity": "bank",
                "atm": "yes",
                "brand": "Česká spořitelna",
                "brand:wikidata": "Q341100",
                "brand:wikipedia": "en:Česká spořitelna",
                "drive_through": "no",
                "name": "Česká spořitelna",
                "opening_hours": "Tu,Th,Fr 08:30-12:30,13:30-16:00; Mo,We 08:30-12:30,13:30-17:00",
                "website": "https://www.csas.cz"
              },
              "geometry": {
                "type": "Point",
                "coordinates": [
                  14.3239992,
                  48.8110162
                ]
              }
            },
            {
              "type": "Feature",
              "properties": {
                "id": "7012733201",
                "osm_type": "node",
                "lat": 48.8154172,
                "lon": 14.3176615,
                "addr:city": "Český Krumlov",
                "addr:housenumber": "149",
                "addr:postcode": "381 01",
                "addr:street": "Latrán",
                "amenity": "bank",
                "atm": "yes",
                "brand": "MONETA Money Bank",
                "brand:wikidata": "Q24282966",
                "brand:wikipedia": "cs:Moneta Money Bank",
                "drive_through": "no",
                "name": "MONETA Money Bank",
                "opening_hours": "Mo-Th 09:00-12:00, Tu-Th 13:00-17:00, Mo 13:00-18:00; Fr 08:00-12:00, Fr 13:00-15:00",
                "website": "https://www.moneta.cz/"
              },
              "geometry": {
                "type": "Point",
                "coordinates": [
                  14.3176615,
                  48.8154172
                ]
              }
            },
            {
              "type": "Feature",
              "properties": {
                "id": "7968429171",
                "osm_type": "node",
                "lat": 48.73859,
                "lon": 14.4935464,
                "addr:city": "Kaplice",
                "addr:postcode": "38241",
                "amenity": "bank",
                "atm": "yes",
                "brand": "Česká spořitelna",
                "brand:wikidata": "Q341100",
                "brand:wikipedia": "en:Česká spořitelna",
                "name": "Česká spořitelna",
                "operator": "Česká spořitelna",
                "website": "https://www.csas.cz"
              },
              "geometry": {
                "type": "Point",
                "coordinates": [
                  14.4935464,
                  48.73859
                ]
              }
            },
            {
              "type": "Feature",
              "properties": {
                "id": "7968429181",
                "osm_type": "node",
                "lat": 48.7380212,
                "lon": 14.4905975,
                "addr:city": "Kaplice",
                "addr:housenumber": "349",
                "addr:postcode": "38241",
                "addr:street": "Linecká",
                "amenity": "bank",
                "atm": "yes",
                "brand": "MONETA Money Bank",
                "brand:wikidata": "Q24282966",
                "brand:wikipedia": "cs:Moneta Money Bank",
                "currency:CZK": "yes",
                "currency:EUR": "yes",
                "drive_through": "no",
                "email": "info@moneta.cz",
                "name": "MONETA Money Bank",
                "phone": "+420 380 309 900",
                "website": "https://www.moneta.cz/"
              },
              "geometry": {
                "type": "Point",
                "coordinates": [
                  14.4905975,
                  48.7380212
                ]
              }
            },
            {
              "type": "Feature",
              "properties": {
                "id": "9227661718",
                "osm_type": "node",
                "lat": 48.8236109,
                "lon": 14.3296905,
                "addr:city": "Český Krumlov",
                "addr:housenumber": "182",
                "addr:postcode": "38101",
                "addr:street": "Urbinská",
                "amenity": "bank",
                "atm": "yes",
                "brand": "UniCredit Bank",
                "brand:wikidata": "Q45568",
                "brand:wikipedia": "en:UniCredit",
                "drive_through": "no",
                "email": "info@unicreditgroup.cz",
                "name": "UniCredit Bank",
                "opening_hours": "Mo 09:00-18:00; Tu 08:00-16:00; We 08:00-17:00; Th 08:00-16:00; Fr 09:00-15:00",
                "phone": "+420 702 064 458",
                "website": "https://cz.unicreditbanking.net/branch/map?country=cz&lang=cz&id=682946840407575963"
              },
              "geometry": {
                "type": "Point",
                "coordinates": [
                  14.3296905,
                  48.8236109
                ]
              }
            },
            {
              "type": "Feature",
              "properties": {
                "id": "11288194562",
                "osm_type": "node",
                "lat": 48.8256118,
                "lon": 14.3349666,
                "addr:city": "Český Krumlov",
                "addr:postcode": "381 01",
                "addr:street": "Tovární",
                "amenity": "bank",
                "atm": "yes",
                "branch": "Místo toho hledat Raiffesen",
                "brand": "Raiffeisenbank",
                "brand:wikidata": "Q24282825",
                "drive_through": "no",
                "email": "reditel.ceskykrumlov@rb.cz",
                "name": "Raiffeisenbank",
                "opening_hours": "Mo,We 08:30-12:00,12:45-17:00; Tu,Th,Fr 08:30-12:00,12:45-16:00",
                "website": "https://www.rb.cz/o-nas/kontakty/pobocky-a-bankomaty/detail-pobocky?branchId=5"
              },
              "geometry": {
                "type": "Point",
                "coordinates": [
                  14.3349666,
                  48.8256118
                ]
              }
            },
            {
              "type": "Feature",
              "properties": {
                "id": "13125504696",
                "osm_type": "node",
                "lat": 48.8250507,
                "lon": 14.5093532,
                "addr:city": "Svatý Jan nad Malší",
                "addr:housenumber": "106",
                "addr:postcode": "373 23",
                "amenity": "bank",
                "brand": "ČSOB",
                "brand:wikidata": "Q340135",
                "name": "ČSOB"
              },
              "geometry": {
                "type": "Point",
                "coordinates": [
                  14.5093532,
                  48.8250507
                ]
              }
            }
          ],
          "children": []
        },
        {
          "bbox": {
            "south": 48.68652475,
            "west": 14.77632125,
            "north": 48.851801374999994,
            "east": 15.253173
          },
          "poiCount": 13,
          "leafCount": 13,
          "averagePosition": [
            15.008926053846153,
            48.7718602
          ],
          "data": [
            {
              "type": "Feature",
              "properties": {
                "id": "881215843",
                "osm_type": "node",
                "lat": 48.7903581,
                "lon": 14.7778621,
                "amenity": "bank",
                "brand": "Česká spořitelna",
                "brand:wikidata": "Q341100",
                "brand:wikipedia": "en:Česká spořitelna",
                "name": "Česká spořitelna",
                "operator": "Česká spořitelna",
                "source": "survey"
              },
              "geometry": {
                "type": "Point",
                "coordinates": [
                  14.7778621,
                  48.7903581
                ]
              }
            },
            {
              "type": "Feature",
              "properties": {
                "id": "2477819069",
                "osm_type": "node",
                "lat": 48.7726858,
                "lon": 14.9840149,
                "amenity": "bank",
                "brand": "Bank Austria",
                "brand:wikidata": "Q697619",
                "name": "Bank Austria",
                "operator": "Bank Austria"
              },
              "geometry": {
                "type": "Point",
                "coordinates": [
                  14.9840149,
                  48.7726858
                ]
              }
            },
            {
              "type": "Feature",
              "properties": {
                "id": "2501561016",
                "osm_type": "node",
                "lat": 48.7292005,
                "lon": 15.0199132,
                "amenity": "bank",
                "name": "Raiffeisenbank mit Bankomat"
              },
              "geometry": {
                "type": "Point",
                "coordinates": [
                  15.0199132,
                  48.7292005
                ]
              }
            },
            {
              "type": "Feature",
              "properties": {
                "id": "2569978772",
                "osm_type": "node",
                "lat": 48.7716689,
                "lon": 14.9850117,
                "amenity": "bank",
                "atm": "yes",
                "brand": "Raiffeisen",
                "brand:wikidata": "Q2127528",
                "check_date": "2024-01-06",
                "name": "Raiffeisen"
              },
              "geometry": {
                "type": "Point",
                "coordinates": [
                  14.9850117,
                  48.7716689
                ]
              }
            },
            {
              "type": "Feature",
              "properties": {
                "id": "3138408929",
                "osm_type": "node",
                "lat": 48.7648404,
                "lon": 14.9850906,
                "addr:city": "Gmünd",
                "addr:housenumber": "1",
                "addr:postcode": "3950",
                "addr:street": "Bahnhofsplatz",
                "amenity": "bank",
                "atm": "yes",
                "drive_through": "no",
                "name": "bank99",
                "opening_hours": "Mo-Fr 08:00-12:00, 13:00-18:00; Sa,Su,PH off",
                "operator": "bank99 AG",
                "website": "https://www.bank99.at"
              },
              "geometry": {
                "type": "Point",
                "coordinates": [
                  14.9850906,
                  48.7648404
                ]
              }
            },
            {
              "type": "Feature",
              "properties": {
                "id": "3328603615",
                "osm_type": "node",
                "lat": 48.7718217,
                "lon": 14.9850535,
                "amenity": "bank",
                "atm": "yes",
                "check_date": "2024-01-06",
                "name": "Volksbank"
              },
              "geometry": {
                "type": "Point",
                "coordinates": [
                  14.9850535,
                  48.7718217
                ]
              }
            },
            {
              "type": "Feature",
              "properties": {
                "id": "3412538283",
                "osm_type": "node",
                "lat": 48.7615593,
                "lon": 14.9716888,
                "addr:city": "Gmünd",
                "addr:country": "AT",
                "addr:housenumber": "12",
                "addr:postcode": "3950",
                "addr:street": "Schubertplatz",
                "amenity": "bank",
                "at_bev:addr_date": "2021-04-01",
                "atm": "yes",
                "name": "Raiffeisenbank",
                "operator": "Raiffeisen"
              },
              "geometry": {
                "type": "Point",
                "coordinates": [
                  14.9716888,
                  48.7615593
                ]
              }
            },
            {
              "type": "Feature",
              "properties": {
                "id": "4338866031",
                "osm_type": "node",
                "lat": 48.7713269,
                "lon": 15.0263397,
                "amenity": "bank",
                "atm": "yes",
                "name": "Raiffeisenbank",
                "wheelchair": "yes"
              },
              "geometry": {
                "type": "Point",
                "coordinates": [
                  15.0263397,
                  48.7713269
                ]
              }
            },
            {
              "type": "Feature",
              "properties": {
                "id": "10229177082",
                "osm_type": "node",
                "lat": 48.7645247,
                "lon": 14.9848621,
                "addr:city": "Gmünd",
                "addr:housenumber": "7",
                "addr:postcode": "3950",
                "addr:street": "Bahnhofsplatz",
                "amenity": "bank",
                "atm": "yes",
                "drive_through": "no",
                "name": "Bank Austria",
                "opening_hours": "Mo-Fr 08:30-12:30, 13:30-15:00; Sa,Su,PH off",
                "operator": "Bank Austria",
                "website": "https://www.bankaustria.at/"
              },
              "geometry": {
                "type": "Point",
                "coordinates": [
                  14.9848621,
                  48.7645247
                ]
              }
            },
            {
              "type": "Feature",
              "properties": {
                "id": "343807752",
                "osm_type": "node",
                "lat": 48.7927286,
                "lon": 15.0714685,
                "addr:city": "Schrems",
                "addr:country": "AT",
                "addr:housenumber": "20",
                "addr:postcode": "3943",
                "addr:street": "Hauptplatz",
                "amenity": "bank",
                "atm": "yes",
                "email": "schrems@horn.volksbank.at",
                "fax": "+43 2853 77386 6",
                "name": "Volksbank",
                "opening_hours": "Mo-We 08:00-12:15,13:30-16:00; Th 08:00-12:15,13:30-17:00; Fr 08:00-12:15,13:30-16:00",
                "operator": "Volksbank",
                "phone": "+43 2853 77386",
                "wheelchair": "yes"
              },
              "geometry": {
                "type": "Point",
                "coordinates": [
                  15.0714685,
                  48.7927286
                ]
              }
            },
            {
              "type": "Feature",
              "properties": {
                "id": "343807756",
                "osm_type": "node",
                "lat": 48.7926703,
                "lon": 15.0718897,
                "addr:city": "Schrems",
                "addr:country": "AT",
                "addr:housenumber": "22",
                "addr:postcode": "3943",
                "addr:street": "Hauptplatz",
                "amenity": "bank",
                "atm": "yes",
                "check_date": "2024-05-10",
                "fax": "+43 2853 700 900 09",
                "name": "Raiffeisen",
                "opening_hours": "Mo-We 07:45-12:15,13:30-16:00; Th 07:45-12:15,13:30-17:00; Fr 07:45-12:15,13:30-16:00",
                "operator": "Raiffeisen",
                "phone": "+43 2853 700 900 00",
                "website": "https://www.raiffeisen.at/oberes-waldviertel/565894738893044288-547124855972309635-NA-30-NA.html",
                "wheelchair": "yes"
              },
              "geometry": {
                "type": "Point",
                "coordinates": [
                  15.0718897,
                  48.7926703
                ]
              }
            },
            {
              "type": "Feature",
              "properties": {
                "id": "1933418881",
                "osm_type": "node",
                "lat": 48.7590268,
                "lon": 15.1823835,
                "amenity": "bank",
                "name": "Raiffeisenbank Vitis"
              },
              "geometry": {
                "type": "Point",
                "coordinates": [
                  15.1823835,
                  48.7590268
                ]
              }
            },
            {
              "type": "Feature",
              "properties": {
                "id": "4266321133",
                "osm_type": "node",
                "lat": 48.7917706,
                "lon": 15.0704604,
                "amenity": "bank",
                "name": "Sparkasse",
                "phone": "+43 664 1702401"
              },
              "geometry": {
                "type": "Point",
                "coordinates": [
                  15.0704604,
                  48.7917706
                ]
              }
            }
          ],
          "children": []
        },
        {
          "bbox": {
            "south": 48.851801374999994,
            "west": 14.2994695,
            "north": 49.017078,
            "east": 14.77632125
          },
          "poiCount": 20,
          "leafCount": 20,
          "averagePosition": [
            14.530764809999999,
            48.983062155
          ],
          "data": [
            {
              "type": "Feature",
              "properties": {
                "id": "629540696",
                "osm_type": "node",
                "lat": 48.9751859,
                "lon": 14.4753478,
                "addr:city": "České Budějovice",
                "addr:housenumber": "1",
                "addr:postcode": "37001",
                "addr:street": "U Černé věže",
                "amenity": "bank",
                "atm": "yes",
                "brand": "Česká spořitelna",
                "brand:wikidata": "Q341100",
                "brand:wikipedia": "en:Česká spořitelna",
                "check_date:opening_hours": "2024-12-21",
                "name": "Česká spořitelna",
                "opening_hours": "Mo-Fr 08:30-17:00",
                "operator": "Česká spořitelna",
                "wheelchair": "yes"
              },
              "geometry": {
                "type": "Point",
                "coordinates": [
                  14.4753478,
                  48.9751859
                ]
              }
            },
            {
              "type": "Feature",
              "properties": {
                "id": "629540975",
                "osm_type": "node",
                "lat": 48.9757141,
                "lon": 14.4753812,
                "amenity": "bank",
                "atm": "yes",
                "brand": "ČSOB",
                "brand:wikidata": "Q340135",
                "brand:wikipedia": "en:Československá obchodní banka",
                "check_date": "2025-05-23",
                "name": "ČSOB",
                "operator": "ČSOB",
                "wheelchair": "yes"
              },
              "geometry": {
                "type": "Point",
                "coordinates": [
                  14.4753812,
                  48.9757141
                ]
              }
            },
            {
              "type": "Feature",
              "properties": {
                "id": "2485170060",
                "osm_type": "node",
                "lat": 48.9746166,
                "lon": 14.4795628,
                "amenity": "bank",
                "atm": "yes",
                "branch": "a s ",
                "brand": "ČSOB",
                "brand:wikidata": "Q340135",
                "brand:wikipedia": "en:Československá obchodní banka",
                "name": "ČSOB",
                "opening_hours": "Mo,We 09:00-11:30,12:30-17:00; Tu 09:00-11:30,12:30-16:00; Th,Fr 08:00-11:30,12:30-16:00",
                "source": "survey"
              },
              "geometry": {
                "type": "Point",
                "coordinates": [
                  14.4795628,
                  48.9746166
                ]
              }
            },
            {
              "type": "Feature",
              "properties": {
                "id": "3366418613",
                "osm_type": "node",
                "lat": 48.9880774,
                "lon": 14.4730198,
                "addr:city": "České Budějovice",
                "addr:conscriptionnumber": "2296",
                "addr:country": "CZ",
                "addr:housenumber": "2296/8A",
                "addr:postcode": "37004",
                "addr:street": "Kněžskodvorská",
                "addr:streetnumber": "8A",
                "amenity": "bank",
                "atm": "yes",
                "brand": "Česká spořitelna",
                "brand:wikidata": "Q341100",
                "brand:wikipedia": "en:Česká spořitelna",
                "name": "Česká spořitelna",
                "opening_hours": "Mo 07:30-12:30,13:30-17:15; Tu,Th 07:30-12:30,13:30-15:00; We 07:30-12:30,13:30-17:00; Fr 07:30-12:30,13:30-16:00",
                "operator": "Česká spořitelna, a.s.",
                "wheelchair": "yes"
              },
              "geometry": {
                "type": "Point",
                "coordinates": [
                  14.4730198,
                  48.9880774
                ]
              }
            },
            {
              "type": "Feature",
              "properties": {
                "id": "3410786094",
                "osm_type": "node",
                "lat": 48.973211,
                "lon": 14.4749334,
                "amenity": "bank",
                "atm": "yes",
                "branch": "České Budějovice",
                "brand": "Fio banka",
                "brand:wikidata": "Q12016657",
                "brand:wikipedia": "cs:Fio banka",
                "email": "ceske.budejovice@fio.cz",
                "name": "Fio banka",
                "opening_hours": "Mo-Th 08:30-18:00; Fr 08:30-17:00",
                "phone": "+420 224 346 858",
                "source": "fio.cz",
                "website": "https://www.fio.cz/o-nas/kontakty/23-ceske-budejovice-nam-premysla-otakara-ii-117-32-370-01",
                "wheelchair": "no"
              },
              "geometry": {
                "type": "Point",
                "coordinates": [
                  14.4749334,
                  48.973211
                ]
              }
            },
            {
              "type": "Feature",
              "properties": {
                "id": "3601993748",
                "osm_type": "node",
                "lat": 48.9743388,
                "lon": 14.4753125,
                "addr:city": "České Budějovice",
                "addr:housenumber": "27",
                "addr:postcode": "37001",
                "addr:street": "nám. Přemysla Otakara II.",
                "amenity": "bank",
                "atm": "yes",
                "brand": "Trinity Bank",
                "brand:wikidata": "Q20755332",
                "brand:wikipedia": "cs:Trinity Bank",
                "check_date": "2025-05-23",
                "name": "Trinity Bank",
                "opening_hours": "Mo-Fr 08:30-17:00",
                "wheelchair": "no"
              },
              "geometry": {
                "type": "Point",
                "coordinates": [
                  14.4753125,
                  48.9743388
                ]
              }
            },
            {
              "type": "Feature",
              "properties": {
                "id": "3601993750",
                "osm_type": "node",
                "lat": 48.9739178,
                "lon": 14.4741985,
                "addr:city": "České Budějovice",
                "addr:housenumber": "35",
                "addr:postcode": "37001",
                "addr:street": "nám. Přemysla Otakara II.",
                "amenity": "bank",
                "atm": "yes",
                "brand": "UniCredit Bank",
                "brand:wikidata": "Q45568",
                "brand:wikipedia": "en:UniCredit",
                "name": "UniCredit Bank",
                "opening_hours": "Mo-Tu,Th 08:30-12:45,13:30-16:30;We 08:30-12:45,13:30-17:30;Fr 08:30-12:45,13:30-15:30",
                "wheelchair": "yes"
              },
              "geometry": {
                "type": "Point",
                "coordinates": [
                  14.4741985,
                  48.9739178
                ]
              }
            },
            {
              "type": "Feature",
              "properties": {
                "id": "3602273458",
                "osm_type": "node",
                "lat": 48.9746114,
                "lon": 14.4732687,
                "addr:city": "České Budějovice",
                "addr:housenumber": "6/3",
                "addr:postcode": "37001",
                "addr:street": "nám. Přemysla Otakara II.",
                "amenity": "bank",
                "atm": "yes",
                "brand": "Oberbank",
                "brand:wikidata": "Q2009139",
                "brand:wikipedia": "de:Oberbank",
                "name": "Oberbank",
                "wheelchair": "yes"
              },
              "geometry": {
                "type": "Point",
                "coordinates": [
                  14.4732687,
                  48.9746114
                ]
              }
            },
            {
              "type": "Feature",
              "properties": {
                "id": "3602273461",
                "osm_type": "node",
                "lat": 48.9752294,
                "lon": 14.4742047,
                "addr:city": "České Budějovice",
                "addr:housenumber": "49/13",
                "addr:postcode": "37001",
                "addr:street": "nám. Přemysla Otakara II.",
                "amenity": "bank",
                "atm": "yes",
                "brand": "Raiffeisenbank",
                "brand:wikidata": "Q24282825",
                "brand:wikipedia": "cs:Raiffeisenbank",
                "name": "Raiffeisenbank",
                "wheelchair": "no"
              },
              "geometry": {
                "type": "Point",
                "coordinates": [
                  14.4742047,
                  48.9752294
                ]
              }
            },
            {
              "type": "Feature",
              "properties": {
                "id": "3711606028",
                "osm_type": "node",
                "lat": 48.9774832,
                "lon": 14.476905,
                "addr:city": "České Budějovice",
                "addr:housenumber": "1863/1",
                "addr:postcode": "37001",
                "addr:street": "Jírovcova",
                "amenity": "bank",
                "atm": "yes",
                "brand": "MONETA Money Bank",
                "brand:wikidata": "Q24282966",
                "brand:wikipedia": "cs:Moneta Money Bank",
                "check_date": "2025-04-15",
                "name": "MONETA Money Bank",
                "operator": "MONETA Money Bank, a.s.",
                "wheelchair": "yes"
              },
              "geometry": {
                "type": "Point",
                "coordinates": [
                  14.476905,
                  48.9774832
                ]
              }
            },
            {
              "type": "Feature",
              "properties": {
                "id": "4364979507",
                "osm_type": "node",
                "lat": 48.9812389,
                "lon": 14.446267,
                "addr:city": "České Budějovice",
                "addr:housenumber": "970/63",
                "addr:postcode": "37005",
                "addr:street": "Sokolská",
                "amenity": "bank",
                "atm": "yes",
                "brand": "Česká spořitelna",
                "brand:wikidata": "Q341100",
                "brand:wikipedia": "en:Česká spořitelna",
                "name": "Česká spořitelna",
                "opening_hours": "Mo,We 08:30-12:30,13:30-17:00; Tu,Th,Fr 08:30-12:30,13:30-16:00; Sa,Su,PH off"
              },
              "geometry": {
                "type": "Point",
                "coordinates": [
                  14.446267,
                  48.9812389
                ]
              }
            },
            {
              "type": "Feature",
              "properties": {
                "id": "5215238121",
                "osm_type": "node",
                "lat": 48.9845886,
                "lon": 14.4719551,
                "amenity": "bank",
                "opening_hours": "Mo 09:00-12:00, 13:00-18:00; Tu-Th 09:00-12:00, 13:00-17:00; Fr 08:00-12:00, 13:00-15:00",
                "operator": "Moneta Money Bank, a. s.",
                "wheelchair": "yes"
              },
              "geometry": {
                "type": "Point",
                "coordinates": [
                  14.4719551,
                  48.9845886
                ]
              }
            },
            {
              "type": "Feature",
              "properties": {
                "id": "5267700817",
                "osm_type": "node",
                "lat": 48.9834494,
                "lon": 14.4721685,
                "amenity": "bank",
                "brand": "Česká spořitelna",
                "brand:wikidata": "Q341100",
                "name": "Česká spořitelna",
                "operator": "Česká spořitelna"
              },
              "geometry": {
                "type": "Point",
                "coordinates": [
                  14.4721685,
                  48.9834494
                ]
              }
            },
            {
              "type": "Feature",
              "properties": {
                "id": "9402427614",
                "osm_type": "node",
                "lat": 48.9730902,
                "lon": 14.486647,
                "amenity": "bank",
                "brand": "ČSOB",
                "brand:wikidata": "Q340135",
                "brand:wikipedia": "en:Československá obchodní banka",
                "level": "0",
                "name": "ČSOB"
              },
              "geometry": {
                "type": "Point",
                "coordinates": [
                  14.486647,
                  48.9730902
                ]
              }
            },
            {
              "type": "Feature",
              "properties": {
                "id": "9431814485",
                "osm_type": "node",
                "lat": 48.974674,
                "lon": 14.4844303,
                "amenity": "bank",
                "brand": "Banka Creditas",
                "brand:facebook": "https://www.facebook.com/creditascz",
                "brand:instagram": "https://www.instagram.com/banka_creditas/",
                "brand:website": "https://www.creditas.cz/",
                "brand:wikidata": "Q27910063",
                "brand:wikipedia": "cs:Creditas",
                "level": "0",
                "name": "Banka Creditas",
                "opening_hours": "Mo,Tu,Th 08:00-16:00; We 08:00-17:00; Fr 08:00-15:00; Sa,Su,PH off",
                "operator": "Banka Creditas",
                "wheelchair": "no"
              },
              "geometry": {
                "type": "Point",
                "coordinates": [
                  14.4844303,
                  48.974674
                ]
              }
            },
            {
              "type": "Feature",
              "properties": {
                "id": "10939575511",
                "osm_type": "node",
                "lat": 48.9826104,
                "lon": 14.4418032,
                "amenity": "bank",
                "brand": "Raiffeisenbank",
                "brand:wikidata": "Q24282825",
                "level": "0",
                "name": "Raiffeisenbank",
                "opening_hours": "Mo 09:00-18:00; Tu-Th 09:00-17:00; Fr 09:00-16:00; Sa,Su,PH off",
                "wheelchair": "yes"
              },
              "geometry": {
                "type": "Point",
                "coordinates": [
                  14.4418032,
                  48.9826104
                ]
              }
            },
            {
              "type": "Feature",
              "properties": {
                "id": "2404902121",
                "osm_type": "node",
                "lat": 49.0043205,
                "lon": 14.7661147,
                "amenity": "bank",
                "atm": "yes",
                "brand": "ČSOB",
                "brand:wikidata": "Q340135",
                "brand:wikipedia": "en:Československá obchodní banka",
                "name": "ČSOB"
              },
              "geometry": {
                "type": "Point",
                "coordinates": [
                  14.7661147,
                  49.0043205
                ]
              }
            },
            {
              "type": "Feature",
              "properties": {
                "id": "6554071670",
                "osm_type": "node",
                "lat": 49.0050215,
                "lon": 14.7737848,
                "amenity": "bank",
                "atm": "yes",
                "name": "Waldviertler Sparkasse"
              },
              "geometry": {
                "type": "Point",
                "coordinates": [
                  14.7737848,
                  49.0050215
                ]
              }
            },
            {
              "type": "Feature",
              "properties": {
                "id": "12989296597",
                "osm_type": "node",
                "lat": 49.0034704,
                "lon": 14.7612135,
                "amenity": "bank",
                "brand": "Česká spořitelna",
                "brand:wikidata": "Q341100",
                "name": "Česká spořitelna",
                "opening_hours": "Mo,We 08:30-12:30,13:30-17:00; Tu,Th,Fr 08:30-12:30,13:30-16:00"
              },
              "geometry": {
                "type": "Point",
                "coordinates": [
                  14.7612135,
                  49.0034704
                ]
              }
            },
            {
              "type": "Feature",
              "properties": {
                "id": "13081629034",
                "osm_type": "node",
                "lat": 49.0063936,
                "lon": 14.7587777,
                "amenity": "bank",
                "brand": "ČSOB",
                "brand:wikidata": "Q340135",
                "name": "ČSOB"
              },
              "geometry": {
                "type": "Point",
                "coordinates": [
                  14.7587777,
                  49.0063936
                ]
              }
            }
          ],
          "children": []
        },
        {
          "bbox": {
            "south": 48.851801374999994,
            "west": 14.77632125,
            "north": 49.017078,
            "east": 15.253173
          },
          "poiCount": 10,
          "leafCount": 10,
          "averagePosition": [
            15.1048842,
            48.923715470000005
          ],
          "data": [
            {
              "type": "Feature",
              "properties": {
                "id": "300433132",
                "osm_type": "node",
                "lat": 48.8675152,
                "lon": 15.1236532,
                "addr:city": "Heidenreichstein",
                "addr:country": "AT",
                "addr:housenumber": "7",
                "addr:postcode": "3860",
                "addr:street": "Litschauer Straße",
                "amenity": "bank",
                "atm": "yes",
                "drive_through": "no",
                "name": "bank99",
                "opening_hours": "Mo-Fr 08:00-12:00, 14:00-17:30; Sa,Su,PH off",
                "operator": "bank99 AG",
                "website": "https://www.bank99.at"
              },
              "geometry": {
                "type": "Point",
                "coordinates": [
                  15.1236532,
                  48.8675152
                ]
              }
            },
            {
              "type": "Feature",
              "properties": {
                "id": "1365578827",
                "osm_type": "node",
                "lat": 48.8653773,
                "lon": 15.1232639,
                "addr:city": "Heidenreichstein",
                "addr:country": "AT",
                "addr:housenumber": "17",
                "addr:postcode": "3860",
                "addr:street": "Stadtplatz",
                "amenity": "bank",
                "at_bev:addr_date": "2023-04-15",
                "atm": "yes",
                "contact:phone": "+43 2862 5240 30",
                "name": "Volksbank"
              },
              "geometry": {
                "type": "Point",
                "coordinates": [
                  15.1232639,
                  48.8653773
                ]
              }
            },
            {
              "type": "Feature",
              "properties": {
                "id": "1361074932",
                "osm_type": "node",
                "lat": 48.8881129,
                "lon": 14.8750025,
                "amenity": "bank",
                "atm": "yes",
                "brand": "Česká spořitelna",
                "brand:wikidata": "Q341100",
                "brand:wikipedia": "en:Česká spořitelna",
                "name": "Česká spořitelna"
              },
              "geometry": {
                "type": "Point",
                "coordinates": [
                  14.8750025,
                  48.8881129
                ]
              }
            },
            {
              "type": "Feature",
              "properties": {
                "id": "776265663",
                "osm_type": "node",
                "lat": 48.9075087,
                "lon": 15.1493853,
                "addr:city": "Eggern",
                "addr:country": "AT",
                "addr:housenumber": "24",
                "addr:postcode": "3861",
                "addr:street": "Marktplatz",
                "amenity": "bank",
                "name": "Raika",
                "operator": "Raiffeisenbank Oberes Waldviertel",
                "wheelchair": "yes"
              },
              "geometry": {
                "type": "Point",
                "coordinates": [
                  15.1493853,
                  48.9075087
                ]
              }
            },
            {
              "type": "Feature",
              "properties": {
                "id": "2371914406",
                "osm_type": "node",
                "lat": 48.9442005,
                "lon": 15.0467521,
                "amenity": "bank",
                "atm": "yes",
                "name": "Raiffeisenbank"
              },
              "geometry": {
                "type": "Point",
                "coordinates": [
                  15.0467521,
                  48.9442005
                ]
              }
            },
            {
              "type": "Feature",
              "properties": {
                "id": "2371962100",
                "osm_type": "node",
                "lat": 48.9441745,
                "lon": 15.0445442,
                "amenity": "bank",
                "atm": "yes",
                "name": "Sparkasse"
              },
              "geometry": {
                "type": "Point",
                "coordinates": [
                  15.0445442,
                  48.9441745
                ]
              }
            },
            {
              "type": "Feature",
              "properties": {
                "id": "2452779835",
                "osm_type": "node",
                "lat": 48.9952501,
                "lon": 15.0581325,
                "amenity": "bank",
                "atm": "no",
                "brand": "Raiffeisen",
                "brand:wikidata": "Q2127528",
                "name": "Raiffeisen",
                "operator": "Raiffeisen bank",
                "source": "survey"
              },
              "geometry": {
                "type": "Point",
                "coordinates": [
                  15.0581325,
                  48.9952501
                ]
              }
            },
            {
              "type": "Feature",
              "properties": {
                "id": "5250170276",
                "osm_type": "node",
                "lat": 48.9303075,
                "lon": 15.2388018,
                "amenity": "bank",
                "name": "Waldviertler Sparkasse",
                "office": "Waldviertler Sparkasse Bank AG",
                "website": "www.wspk.at"
              },
              "geometry": {
                "type": "Point",
                "coordinates": [
                  15.2388018,
                  48.9303075
                ]
              }
            },
            {
              "type": "Feature",
              "properties": {
                "id": "5858290584",
                "osm_type": "node",
                "lat": 48.9654557,
                "lon": 15.1487662,
                "amenity": "bank",
                "name": "Raiffeisen"
              },
              "geometry": {
                "type": "Point",
                "coordinates": [
                  15.1487662,
                  48.9654557
                ]
              }
            },
            {
              "type": "Feature",
              "properties": {
                "id": "12049071057",
                "osm_type": "node",
                "lat": 48.9292523,
                "lon": 15.2405403,
                "amenity": "bank",
                "brand": "Raiffeisen",
                "brand:wikidata": "Q2127528",
                "name": "Raiffeisen",
                "website": "https://www.rbtt.at/"
              },
              "geometry": {
                "type": "Point",
                "coordinates": [
                  15.2405403,
                  48.9292523
                ]
              }
            }
          ],
          "children": []
        }
      ]
    }
  ]
}