{
  "bbox": {
    "south": 48.355971499999995,
    "west": 15.253173,
    "north": 49.017078,
    "east": 17.16058
  },
  "poiCount": 8,
  "leafCount": 8,
  "averagePosition": [
    16.708308912499998,
    48.5432826875
  ],
  "data": [
    {
      "type": "Feature",
      "properties": {
        "id": "7401781474",
        "osm_type": "node",
        "lat": 48.3608623,
        "lon": 17.0154468,
        "addr:city": "Lozorno",
        "addr:postcode": "90055",
        "contact:facebook": "https://www.facebook.com/KAMENN%C3%9D-MLYN-Vajarsk%C3%BD-122883937755579/",
        "email": "kamennymlyn@kamennymlyn.sk",
        "internet_access": "wlan",
        "internet_access:fee": "customers",
        "name": "Rozália",
        "opening_hours:covid19": "off",
        "payment:cash": "yes",
        "phone": "+421 34 779 32 79",
        "tourism": "motel",
        "website": "https://www.kamennymlyn.sk/ubytovanie/"
      },
      "geometry": {
        "type": "Point",
        "coordinates": [
          17.0154468,
          48.3608623
        ]
      }
    },
    {
      "type": "Feature",
      "properties": {
        "id": "7413595652",
        "osm_type": "node",
        "lat": 48.3688409,
        "lon": 17.1387885,
        "contact:facebook": "https://www.facebook.com/Motel-pod-He%C5%A1t%C3%BAnom-101218757972822/",
        "email": "zuzana.halinarova@gmail.com",
        "name": "Pod Heštúnom",
        "phone": "+421 908 074 788",
        "tourism": "motel"
      },
      "geometry": {
        "type": "Point",
        "coordinates": [
          17.1387885,
          48.3688409
        ]
      }
    },
    {
      "type": "Feature",
      "properties": {
        "id": "4173084038",
        "osm_type": "node",
        "lat": 48.4632516,
        "lon": 15.7227844,
        "addr:city": "Hadersdorf am Kamp",
        "addr:country": "AT",
        "addr:housenumber": "1",
        "addr:postcode": "3493",
        "addr:street": "Rosaliastraße",
        "name": "TOP",
        "phone": "+43 2735 210 10",
        "tourism": "motel",
        "website": "http://www.toptankstellen.at/"
      },
      "geometry": {
        "type": "Point",
        "coordinates": [
          15.7227844,
          48.4632516
        ]
      }
    },
    {
      "type": "Feature",
      "properties": {
        "id": "5760440227",
        "osm_type": "node",
        "lat": 48.8684493,
        "lon": 16.0341538,
        "addr:housenumber": "94",
        "addr:street": "Pražská",
        "name": "Motorest pension u Benziny",
        "phone": "515 221 259",
        "tourism": "motel",
        "website": "www.motorestpension.cz"
      },
      "geometry": {
        "type": "Point",
        "coordinates": [
          16.0341538,
          48.8684493
        ]
      }
    },
    {
      "type": "Feature",
      "properties": {
        "id": "2035504429",
        "osm_type": "node",
        "lat": 48.3785596,
        "lon": 16.8268249,
        "addr:city": "Angern an der March",
        "addr:country": "AT",
        "addr:housenumber": "5",
        "addr:postcode": "2261",
        "addr:street": "Wiener Straße",
        "name": "Motel Angern an der March",
        "phone": "+43 664 73634007",
        "tourism": "motel",
        "website": "http://www.motel-angern.at/"
      },
      "geometry": {
        "type": "Point",
        "coordinates": [
          16.8268249,
          48.3785596
        ]
      }
    },
    {
      "type": "Feature",
      "properties": {
        "id": "7674417827",
        "osm_type": "node",
        "lat": 48.6375284,
        "lon": 17.0005284,
        "contact:facebook": "https://www.facebook.com/ujanickov/",
        "email": "info@moteljanicky.sk",
        "internet_access": "wlan",
        "name": "Motorest u Janíčkov",
        "opening_hours": "24/7",
        "phone": "+421 905 555 500",
        "rooms": "39",
        "tourism": "motel",
        "website": "https://www.moteljanicky.sk/"
      },
      "geometry": {
        "type": "Point",
        "coordinates": [
          17.0005284,
          48.6375284
        ]
      }
    },
    {
      "type": "Feature",
      "properties": {
        "id": "11212672550",
        "osm_type": "node",
        "lat": 48.4378138,
        "lon": 16.7915641,
        "addr:city": "Ebenthal",
        "addr:housenumber": "19",
        "addr:postcode": "2251",
        "addr:street": "Hauptstraße",
        "name": "WeinlandMotel",
        "phone": "+43 664 1921200",
        "tourism": "motel",
        "website": "https://www.weinlandmotel.at/"
      },
      "geometry": {
        "type": "Point",
        "coordinates": [
          16.7915641,
          48.4378138
        ]
      }
    },
    {
      "type": "Feature",
      "properties": {
        "id": "11741463493",
        "osm_type": "node",
        "lat": 48.8309556,
        "lon": 17.1363804,
        "name": "Gas Truck centrum",
        "tourism": "motel",
        "website": "https://gastruckcentrum.bedsandhotels.com/"
      },
      "geometry": {
        "type": "Point",
        "coordinates": [
          17.1363804,
          48.8309556
        ]
      }
    }
  ],
  "children": []
}