{
  "bbox": {
    "south": 47.694865,
    "west": 15.253173,
    "north": 48.355971499999995,
    "east": 17.16058
  },
  "poiCount": 9,
  "leafCount": 9,
  "averagePosition": [
    16.229159455555553,
    48.16913882222222
  ],
  "data": [
    {
      "type": "Feature",
      "properties": {
        "id": "1826029096",
        "osm_type": "node",
        "lat": 47.8103222,
        "lon": 16.3502717,
        "name": "Gasthof zur Grenze",
        "tourism": "motel"
      },
      "geometry": {
        "type": "Point",
        "coordinates": [
          16.3502717,
          47.8103222
        ]
      }
    },
    {
      "type": "Feature",
      "properties": {
        "id": "5481835802",
        "osm_type": "node",
        "lat": 48.1906563,
        "lon": 15.4096931,
        "addr:city": "Loosdorf",
        "addr:country": "AT",
        "addr:housenumber": "12",
        "addr:postcode": "3382",
        "addr:street": "Gewerbestraße",
        "name": "Sleep-in",
        "tourism": "motel",
        "website": "https://sleepin.at/"
      },
      "geometry": {
        "type": "Point",
        "coordinates": [
          15.4096931,
          48.1906563
        ]
      }
    },
    {
      "type": "Feature",
      "properties": {
        "id": "11456281571",
        "osm_type": "node",
        "lat": 48.1812929,
        "lon": 15.4144996,
        "addr:city": "Hürm",
        "addr:country": "AT",
        "addr:place": "Inning Betriebsgebiet I",
        "addr:postcode": "3383",
        "contact:phone": "+43 664 1201912",
        "name": "A1 Premium Motel",
        "tourism": "motel",
        "website": "https://www.a1motel.at/premium-motel/"
      },
      "geometry": {
        "type": "Point",
        "coordinates": [
          15.4144996,
          48.1812929
        ]
      }
    },
    {
      "type": "Feature",
      "properties": {
        "id": "9783952186",
        "osm_type": "node",
        "lat": 48.0465616,
        "lon": 15.6194107,
        "name": "XL Lounge",
        "tourism": "motel"
      },
      "geometry": {
        "type": "Point",
        "coordinates": [
          15.6194107,
          48.0465616
        ]
      }
    },
    {
      "type": "Feature",
      "properties": {
        "id": "4100034216",
        "osm_type": "node",
        "lat": 48.2044149,
        "lon": 16.3405034,
        "check_date": "2025-06-25",
        "designation": "Burggasse 118",
        "name": "Pension Atrium",
        "tourism": "motel"
      },
      "geometry": {
        "type": "Point",
        "coordinates": [
          16.3405034,
          48.2044149
        ]
      }
    },
    {
      "type": "Feature",
      "properties": {
        "id": "9861778357",
        "osm_type": "node",
        "lat": 48.2516123,
        "lon": 16.4986365,
        "addr:city": "Wien",
        "addr:country": "AT",
        "addr:housenumber": "253",
        "addr:postcode": "1220",
        "addr:street": "Breitenleer Straße",
        "check_date": "2024-09-16",
        "name": "motel22",
        "tourism": "motel",
        "website": "https://www.motel22.at/"
      },
      "geometry": {
        "type": "Point",
        "coordinates": [
          16.4986365,
          48.2516123
        ]
      }
    },
    {
      "type": "Feature",
      "properties": {
        "id": "1949967577",
        "osm_type": "node",
        "lat": 48.2227416,
        "lon": 16.6833084,
        "tourism": "motel"
      },
      "geometry": {
        "type": "Point",
        "coordinates": [
          16.6833084,
          48.2227416
        ]
      }
    },
    {
      "type": "Feature",
      "properties": {
        "id": "3328773168",
        "osm_type": "node",
        "lat": 48.2598414,
        "lon": 17.01083,
        "tourism": "motel"
      },
      "geometry": {
        "type": "Point",
        "coordinates": [
          17.01083,
          48.2598414
        ]
      }
    },
    {
      "type": "Feature",
      "properties": {
        "id": "11658320395",
        "osm_type": "node",
        "lat": 48.3548062,
        "lon": 16.7352817,
        "email": "office@wein4tler-motel.at",
        "internet_access": "wlan",
        "internet_access:fee": "no",
        "phone": "+43 699 100 008 74",
        "tourism": "motel",
        "website": "https://www.wein4tler-motel.at"
      },
      "geometry": {
        "type": "Point",
        "coordinates": [
          16.7352817,
          48.3548062
        ]
      }
    }
  ],
  "children": []
}