{
  "bbox": {
    "south": 48.355971499999995,
    "west": 11.438358999999998,
    "north": 49.017078,
    "east": 13.345766
  },
  "poiCount": 5,
  "leafCount": 5,
  "averagePosition": [
    11.97616874,
    48.56618644
  ],
  "data": [
    {
      "type": "Feature",
      "properties": {
        "id": "2126645653",
        "osm_type": "node",
        "lat": 48.4713171,
        "lon": 11.6167838,
        "name": "Landgasthof Weiß",
        "tourism": "motel"
      },
      "geometry": {
        "type": "Point",
        "coordinates": [
          11.6167838,
          48.4713171
        ]
      }
    },
    {
      "type": "Feature",
      "properties": {
        "id": "2357522442",
        "osm_type": "node",
        "lat": 48.4296152,
        "lon": 11.5974662,
        "name": "Mooseder",
        "tourism": "motel"
      },
      "geometry": {
        "type": "Point",
        "coordinates": [
          11.5974662,
          48.4296152
        ]
      }
    },
    {
      "type": "Feature",
      "properties": {
        "id": "2361685014",
        "osm_type": "node",
        "lat": 48.4290917,
        "lon": 11.5940412,
        "addr:city": "Allershausen",
        "addr:country": "DE",
        "addr:housenumber": "7a",
        "addr:postcode": "85391",
        "addr:street": "Mozartstraße",
        "name": "Zimmer Kreitmair",
        "tourism": "motel"
      },
      "geometry": {
        "type": "Point",
        "coordinates": [
          11.5940412,
          48.4290917
        ]
      }
    },
    {
      "type": "Feature",
      "properties": {
        "id": "11982058401",
        "osm_type": "node",
        "lat": 48.6285919,
        "lon": 12.4987106,
        "addr:city": "Dingolfing",
        "addr:country": "DE",
        "addr:housenumber": "8",
        "addr:postcode": "84130",
        "addr:street": "Kirchgasse",
        "name": "Motel Q",
        "tourism": "motel",
        "website": "https://www.klimaschutz-dingolfing.de/motel-q-das-kleine-stadthotel"
      },
      "geometry": {
        "type": "Point",
        "coordinates": [
          12.4987106,
          48.6285919
        ]
      }
    },
    {
      "type": "Feature",
      "properties": {
        "id": "4007931608",
        "osm_type": "node",
        "lat": 48.8723163,
        "lon": 12.5738419,
        "name": "Donau Motel",
        "tourism": "motel"
      },
      "geometry": {
        "type": "Point",
        "coordinates": [
          12.5738419,
          48.8723163
        ]
      }
    }
  ],
  "children": []
}