{
  "bbox": {
    "south": 47.694865,
    "west": 13.345766,
    "north": 48.355971499999995,
    "east": 15.253173
  },
  "poiCount": 4,
  "leafCount": 4,
  "averagePosition": [
    14.636156,
    48.170856075
  ],
  "data": [
    {
      "type": "Feature",
      "properties": {
        "id": "11612746639",
        "osm_type": "node",
        "lat": 48.2319063,
        "lon": 13.8341388,
        "addr:city": "Grieskirchen",
        "addr:housenumber": "6",
        "addr:postcode": "4710",
        "addr:street": "Schulstraße",
        "email": "office@motel-grieskirchen.at",
        "name": "Motel Grieskirchen",
        "phone": "07248 62206",
        "tourism": "motel",
        "website": "https://www.motel-grieskirchen.at/"
      },
      "geometry": {
        "type": "Point",
        "coordinates": [
          13.8341388,
          48.2319063
        ]
      }
    },
    {
      "type": "Feature",
      "properties": {
        "id": "3119352502",
        "osm_type": "node",
        "lat": 48.0473489,
        "lon": 14.3825481,
        "addr:city": "Steyr",
        "addr:country": "AT",
        "addr:housenumber": "25",
        "addr:postcode": "4400",
        "addr:street": "Reindlgutstraße",
        "at_bev:addr_date": "2018-10-01",
        "name": "Motel Maria",
        "phone": "+43 7252 71062",
        "tourism": "motel",
        "website": "http://www.motel-maria.at/"
      },
      "geometry": {
        "type": "Point",
        "coordinates": [
          14.3825481,
          48.0473489
        ]
      }
    },
    {
      "type": "Feature",
      "properties": {
        "id": "4913661442",
        "osm_type": "node",
        "lat": 48.1998606,
        "lon": 15.1087278,
        "beds": "16",
        "name": "Fischwirtshaus Landmotel Die Donaurast",
        "rooms": "8",
        "stars": "3",
        "tourism": "motel",
        "website": "http://www.donaurast.com/"
      },
      "geometry": {
        "type": "Point",
        "coordinates": [
          15.1087278,
          48.1998606
        ]
      }
    },
    {
      "type": "Feature",
      "properties": {
        "id": "8301028207",
        "osm_type": "node",
        "lat": 48.2043085,
        "lon": 15.2192093,
        "addr:city": "Pöchlarn",
        "addr:country": "AT",
        "addr:housenumber": "54 a",
        "addr:postcode": "3380",
        "addr:street": "Manker Straße",
        "name": "Nibelungenmotel Pöchlarn",
        "phone": "+43 2757 4873",
        "tourism": "motel",
        "website": "http://www.gramel.at/nibelungenmotel/"
      },
      "geometry": {
        "type": "Point",
        "coordinates": [
          15.2192093,
          48.2043085
        ]
      }
    }
  ],
  "children": []
}