{
  "bbox": {
    "south": 46.372652,
    "west": 15.253173,
    "north": 47.033758500000005,
    "east": 17.16058
  },
  "poiCount": 73,
  "leafCount": 0,
  "averagePosition": [
    16.030256812328766,
    46.708009928767126
  ],
  "data": [],
  "children": [
    {
      "bbox": {
        "south": 46.372652,
        "west": 15.253173,
        "north": 46.70320525,
        "east": 16.2068765
      },
      "poiCount": 18,
      "leafCount": 18,
      "averagePosition": [
        15.80473897777778,
        46.51202583888889
      ],
      "data": [
        {
          "type": "Feature",
          "properties": {
            "id": "1177087215",
            "osm_type": "node",
            "lat": 46.5897411,
            "lon": 15.3293059,
            "name": "Mesarstvo Reš",
            "opening_hours": "Mo,Sa 08:00-12:00; Tu-Fr 08:00-15:00",
            "shop": "butcher"
          },
          "geometry": {
            "type": "Point",
            "coordinates": [
              15.3293059,
              46.5897411
            ]
          }
        },
        {
          "type": "Feature",
          "properties": {
            "id": "3292823983",
            "osm_type": "node",
            "lat": 46.5363189,
            "lon": 15.6882333,
            "addr:housenumber": "1b",
            "addr:postcode": "2000",
            "addr:street": "Ulica borcev",
            "name": "Mesnica Brezje",
            "shop": "butcher"
          },
          "geometry": {
            "type": "Point",
            "coordinates": [
              15.6882333,
              46.5363189
            ]
          }
        },
        {
          "type": "Feature",
          "properties": {
            "id": "3608897306",
            "osm_type": "node",
            "lat": 46.6820134,
            "lon": 15.99057,
            "name": "Mesni Center",
            "shop": "butcher"
          },
          "geometry": {
            "type": "Point",
            "coordinates": [
              15.99057,
              46.6820134
            ]
          }
        },
        {
          "type": "Feature",
          "properties": {
            "id": "3782523721",
            "osm_type": "node",
            "lat": 46.4109668,
            "lon": 16.0131122,
            "name": "Sveže meso in mesni izdelki",
            "operator": "Krabonja Jožef s.p.",
            "shop": "butcher"
          },
          "geometry": {
            "type": "Point",
            "coordinates": [
              16.0131122,
              46.4109668
            ]
          }
        },
        {
          "type": "Feature",
          "properties": {
            "id": "4763733721",
            "osm_type": "node",
            "lat": 46.5635974,
            "lon": 15.6553497,
            "addr:city": "Maribor",
            "addr:housenumber": "5",
            "addr:postcode": "2000",
            "addr:street": "Dominkuševa ulica",
            "name": "Mesarija Čas",
            "opening_hours": "Tu-Th,Sa 08:00-13:00; Fr 08:00-15:00",
            "operator": "Kmetija Čas d.o.o.",
            "shop": "butcher"
          },
          "geometry": {
            "type": "Point",
            "coordinates": [
              15.6553497,
              46.5635974
            ]
          }
        },
        {
          "type": "Feature",
          "properties": {
            "id": "5048002428",
            "osm_type": "node",
            "lat": 46.5363122,
            "lon": 15.6583136,
            "delivery": "no",
            "name": "AVE mesnine",
            "shop": "butcher"
          },
          "geometry": {
            "type": "Point",
            "coordinates": [
              15.6583136,
              46.5363122
            ]
          }
        },
        {
          "type": "Feature",
          "properties": {
            "id": "5320983891",
            "osm_type": "node",
            "lat": 46.5543047,
            "lon": 15.6452367,
            "addr:housenumber": "1",
            "addr:street": "Ruška cesta",
            "name": "Mesarija Škodič",
            "shop": "butcher"
          },
          "geometry": {
            "type": "Point",
            "coordinates": [
              15.6452367,
              46.5543047
            ]
          }
        },
        {
          "type": "Feature",
          "properties": {
            "id": "5700529971",
            "osm_type": "node",
            "lat": 46.5370589,
            "lon": 15.6331828,
            "name": "Mesarstvo",
            "shop": "butcher"
          },
          "geometry": {
            "type": "Point",
            "coordinates": [
              15.6331828,
              46.5370589
            ]
          }
        },
        {
          "type": "Feature",
          "properties": {
            "id": "5813206385",
            "osm_type": "node",
            "lat": 46.5385958,
            "lon": 15.6358543,
            "email": "nikl.mesarstvo@gmail.com",
            "name": "Mesarstvo Nikl",
            "opening_hours": "Mo,Sa 7:00-13:00; Tu-Fr 7:00-17:00",
            "phone": "+386 2 331 8492",
            "shop": "butcher",
            "website": "https://www.facebook.com/Mesarstvo-Nikl-sp-800020436762259/"
          },
          "geometry": {
            "type": "Point",
            "coordinates": [
              15.6358543,
              46.5385958
            ]
          }
        },
        {
          "type": "Feature",
          "properties": {
            "id": "7242496608",
            "osm_type": "node",
            "lat": 46.4202918,
            "lon": 15.872989,
            "addr:city": "Ptuj",
            "addr:housenumber": "2",
            "addr:postcode": "2250",
            "addr:street": "Novi trg",
            "name": "PERUTNINA PTUJ d.o.o., PE Mesnica in delikatesa PP",
            "opening_hours": "Mo-Fr 08:00-19:00; Sa 08:00-13:00; Su 08:00-12:00",
            "operator": "PERUTNINA PTUJ d.o.o.",
            "phone": "+386 2 749 06 21",
            "shop": "butcher"
          },
          "geometry": {
            "type": "Point",
            "coordinates": [
              15.872989,
              46.4202918
            ]
          }
        },
        {
          "type": "Feature",
          "properties": {
            "id": "10777522005",
            "osm_type": "node",
            "lat": 46.4093874,
            "lon": 15.8655277,
            "addr:city": "Ptuj",
            "addr:housenumber": "32",
            "addr:postcode": "2250",
            "addr:street": "Zagrebška cesta",
            "name": "PERUTNINA PTUJ d.o.o., PE Mesnica Zagrebška",
            "operator": "PERUTNINA PTUJ D.O.O.",
            "phone": "+386 2 788 07 90",
            "ref:gurs:hs_mid": "14269797",
            "shop": "butcher"
          },
          "geometry": {
            "type": "Point",
            "coordinates": [
              15.8655277,
              46.4093874
            ]
          }
        },
        {
          "type": "Feature",
          "properties": {
            "id": "10916300242",
            "osm_type": "node",
            "lat": 46.4033786,
            "lon": 15.8539186,
            "addr:city": "Ptuj",
            "addr:housenumber": "31",
            "addr:postcode": "2250",
            "addr:street": "Na postajo",
            "name": "Ewi Mesarski team obdelava mesa d.o.o.",
            "ref:gurs:hs_mid": "21025305",
            "shop": "butcher"
          },
          "geometry": {
            "type": "Point",
            "coordinates": [
              15.8539186,
              46.4033786
            ]
          }
        },
        {
          "type": "Feature",
          "properties": {
            "id": "10916667684",
            "osm_type": "node",
            "lat": 46.4168889,
            "lon": 15.8846464,
            "addr:city": "Ptuj",
            "addr:housenumber": "5",
            "addr:postcode": "2250",
            "addr:street": "Arnuševa ulica",
            "name": "Mesnica Sirc, Mesnica Ptuj",
            "operator": "SIRC JANKO S.P.",
            "phone": "+386 2 7711558",
            "shop": "butcher",
            "website": "https://www.mesnica.si/prodajna-mesta/mesnica-ptuj.html"
          },
          "geometry": {
            "type": "Point",
            "coordinates": [
              15.8846464,
              46.4168889
            ]
          }
        },
        {
          "type": "Feature",
          "properties": {
            "id": "10916667685",
            "osm_type": "node",
            "lat": 46.4257767,
            "lon": 15.8673967,
            "addr:city": "Ptuj",
            "addr:housenumber": "15",
            "addr:postcode": "2250",
            "addr:street": "Maistrova ulica",
            "name": "Mesnica Sirc, Mesnica Ptuj 2",
            "operator": "SIRC JANKO S.P.",
            "phone": "+386 64 262 919",
            "shop": "butcher",
            "website": "https://www.mesnica.si/prodajna-mesta/mesnica-ptuj2.html"
          },
          "geometry": {
            "type": "Point",
            "coordinates": [
              15.8673967,
              46.4257767
            ]
          }
        },
        {
          "type": "Feature",
          "properties": {
            "id": "10974150211",
            "osm_type": "node",
            "lat": 46.5536093,
            "lon": 15.5805588,
            "name": "Mesnica",
            "shop": "butcher"
          },
          "geometry": {
            "type": "Point",
            "coordinates": [
              15.5805588,
              46.5536093
            ]
          }
        },
        {
          "type": "Feature",
          "properties": {
            "id": "11478637825",
            "osm_type": "node",
            "lat": 46.436232,
            "lon": 15.9514467,
            "addr:city": "Dornava",
            "addr:housenumber": "33A",
            "addr:postcode": "2252",
            "addr:street": "Dornava",
            "mobile": "+ 386 (0) 31 693 084",
            "name": "Mesarstvo Valenko, proizvodnja in trgovina, d.o.o.",
            "phone": "+386 (0) 2 755 03 01",
            "ref:gurs:hs_mid": "14154477",
            "shop": "butcher",
            "source:addr": "GURS",
            "website": "https://mesarstvo-valenko.si/"
          },
          "geometry": {
            "type": "Point",
            "coordinates": [
              15.9514467,
              46.436232
            ]
          }
        },
        {
          "type": "Feature",
          "properties": {
            "id": "3322809142",
            "osm_type": "node",
            "lat": 46.5183704,
            "lon": 16.1964964,
            "name": "Kmetija Kolar",
            "shop": "butcher"
          },
          "geometry": {
            "type": "Point",
            "coordinates": [
              16.1964964,
              46.5183704
            ]
          }
        },
        {
          "type": "Feature",
          "properties": {
            "id": "7619959616",
            "osm_type": "node",
            "lat": 46.6836208,
            "lon": 16.1631628,
            "addr:city": "Murska Sobota",
            "addr:postcode": "9000",
            "addr:street": "Markišavci",
            "name": "Kodila",
            "opening_hours": "Mo-Fr 08:00-18:00; Sa 07:00-18:00; PH off",
            "shop": "butcher"
          },
          "geometry": {
            "type": "Point",
            "coordinates": [
              16.1631628,
              46.6836208
            ]
          }
        }
      ],
      "children": []
    },
    {
      "bbox": {
        "south": 46.372652,
        "west": 16.2068765,
        "north": 46.70320525,
        "east": 17.16058
      },
      "poiCount": 17,
      "leafCount": 17,
      "averagePosition": [
        16.61243561764706,
        46.48714350588235
      ],
      "data": [
        {
          "type": "Feature",
          "properties": {
            "id": "3816921144",
            "osm_type": "node",
            "lat": 46.3786782,
            "lon": 16.4433721,
            "addr:city": "Čakovec",
            "addr:housenumber": "17",
            "addr:postcode": "40000",
            "addr:street": "Ulica Nikole Pavića",
            "name": "KIŠ",
            "shop": "butcher",
            "website": "http://www.kis-mesoprerada.hr/"
          },
          "geometry": {
            "type": "Point",
            "coordinates": [
              16.4433721,
              46.3786782
            ]
          }
        },
        {
          "type": "Feature",
          "properties": {
            "id": "5047258270",
            "osm_type": "node",
            "lat": 46.5136182,
            "lon": 16.4390706,
            "addr:city": "Mursko Središće",
            "addr:housenumber": "9",
            "addr:postcode": "40315",
            "addr:street": "Trg bana Josipa Jelačića",
            "shop": "butcher"
          },
          "geometry": {
            "type": "Point",
            "coordinates": [
              16.4390706,
              46.5136182
            ]
          }
        },
        {
          "type": "Feature",
          "properties": {
            "id": "5047261645",
            "osm_type": "node",
            "lat": 46.5132829,
            "lon": 16.4392908,
            "addr:city": "Mursko Središće",
            "addr:housenumber": "7",
            "addr:postcode": "40315",
            "addr:street": "Trg bana Josipa Jelačića",
            "name": "Mesnica MIhalić",
            "opening_hours": "Mo-Fr 07:00-20:00; Sa 07:00-14:00; Su 07:00-12:00",
            "phone": "+385800330011",
            "shop": "butcher"
          },
          "geometry": {
            "type": "Point",
            "coordinates": [
              16.4392908,
              46.5132829
            ]
          }
        },
        {
          "type": "Feature",
          "properties": {
            "id": "6485709438",
            "osm_type": "node",
            "lat": 46.3884503,
            "lon": 16.4373631,
            "addr:city": "Čakovec",
            "addr:housenumber": "17",
            "addr:postcode": "40000",
            "addr:street": "Ulica Valenta Morandinija",
            "name": "Vajda",
            "operator": "Mesna industrija braća Pivac d.o.o.",
            "shop": "butcher",
            "website": "https://www.pivac.hr/"
          },
          "geometry": {
            "type": "Point",
            "coordinates": [
              16.4373631,
              46.3884503
            ]
          }
        },
        {
          "type": "Feature",
          "properties": {
            "id": "6485756346",
            "osm_type": "node",
            "lat": 46.3884989,
            "lon": 16.4379385,
            "addr:city": "Čakovec",
            "addr:housenumber": "31",
            "addr:postcode": "40000",
            "addr:street": "Ulica Valenta Morandinija",
            "name": "Međimurski pilići Blagus",
            "opening_hours": "Mo-Sa 07:00-15:00; Su 08:00-12:00",
            "shop": "butcher"
          },
          "geometry": {
            "type": "Point",
            "coordinates": [
              16.4379385,
              46.3884989
            ]
          }
        },
        {
          "type": "Feature",
          "properties": {
            "id": "6853986886",
            "osm_type": "node",
            "lat": 46.3794381,
            "lon": 16.4431908,
            "addr:city": "Čakovec",
            "addr:housenumber": "4",
            "addr:postcode": "40000",
            "addr:street": "Ulica Tomaša Goričanca",
            "name": "Pertunina Ptuj",
            "operator": "Perutnina Ptuj-Pipo d.o.o.",
            "shop": "butcher",
            "website": "https://www.perutnina.hr/"
          },
          "geometry": {
            "type": "Point",
            "coordinates": [
              16.4431908,
              46.3794381
            ]
          }
        },
        {
          "type": "Feature",
          "properties": {
            "id": "7161062143",
            "osm_type": "node",
            "lat": 46.3767107,
            "lon": 16.3847783,
            "alt_name": "JANpicek",
            "butcher": "poultry",
            "name": "Međimurski pilići Jančec",
            "shop": "butcher",
            "website": "https://janpicek.hr/"
          },
          "geometry": {
            "type": "Point",
            "coordinates": [
              16.3847783,
              46.3767107
            ]
          }
        },
        {
          "type": "Feature",
          "properties": {
            "id": "7184757265",
            "osm_type": "node",
            "lat": 46.3761508,
            "lon": 16.3790765,
            "addr:city": "Nedelišće",
            "addr:housenumber": "2A",
            "addr:postcode": "40305",
            "addr:street": "Ulica Martina Viljevca",
            "name": "Vajda",
            "shop": "butcher"
          },
          "geometry": {
            "type": "Point",
            "coordinates": [
              16.3790765,
              46.3761508
            ]
          }
        },
        {
          "type": "Feature",
          "properties": {
            "id": "10112449755",
            "osm_type": "node",
            "lat": 46.5747361,
            "lon": 16.3403653,
            "name": "Joko",
            "shop": "butcher"
          },
          "geometry": {
            "type": "Point",
            "coordinates": [
              16.3403653,
              46.5747361
            ]
          }
        },
        {
          "type": "Feature",
          "properties": {
            "id": "1774431849",
            "osm_type": "node",
            "lat": 46.671225,
            "lon": 16.8540818,
            "shop": "butcher"
          },
          "geometry": {
            "type": "Point",
            "coordinates": [
              16.8540818,
              46.671225
            ]
          }
        },
        {
          "type": "Feature",
          "properties": {
            "id": "2283937429",
            "osm_type": "node",
            "lat": 46.4574834,
            "lon": 17.0047217,
            "name": "Kanizsa Csülök Bt",
            "shop": "butcher"
          },
          "geometry": {
            "type": "Point",
            "coordinates": [
              17.0047217,
              46.4574834
            ]
          }
        },
        {
          "type": "Feature",
          "properties": {
            "id": "2366239533",
            "osm_type": "node",
            "lat": 46.4547299,
            "lon": 16.9914086,
            "name": "Belvárosi hentes üzlet",
            "opening_hours": "Mo 06:00-12:00; Tu-Fr 06:00-17:00; Sa 06:00-13:00",
            "shop": "butcher"
          },
          "geometry": {
            "type": "Point",
            "coordinates": [
              16.9914086,
              46.4547299
            ]
          }
        },
        {
          "type": "Feature",
          "properties": {
            "id": "2366239634",
            "osm_type": "node",
            "lat": 46.4559278,
            "lon": 16.983926,
            "level": "0",
            "name": "Hús bolt",
            "shop": "butcher"
          },
          "geometry": {
            "type": "Point",
            "coordinates": [
              16.983926,
              46.4559278
            ]
          }
        },
        {
          "type": "Feature",
          "properties": {
            "id": "4292614950",
            "osm_type": "node",
            "lat": 46.6715099,
            "lon": 16.8541544,
            "name": "Hentesüzlet",
            "shop": "butcher"
          },
          "geometry": {
            "type": "Point",
            "coordinates": [
              16.8541544,
              46.6715099
            ]
          }
        },
        {
          "type": "Feature",
          "properties": {
            "id": "5715927278",
            "osm_type": "node",
            "lat": 46.4332977,
            "lon": 16.8987809,
            "name": "Szepetneki Húsüzem Mintaboltja",
            "opening_hours": "Mo-Fr 05:00-14:00; Sa 05:00-11:30; Su off",
            "payment:cards": "yes",
            "payment:cash": "yes",
            "payment:coins": "yes",
            "payment:credit_cards": "yes",
            "payment:debit_cards": "yes",
            "shop": "butcher",
            "wheelchair": "yes"
          },
          "geometry": {
            "type": "Point",
            "coordinates": [
              16.8987809,
              46.4332977
            ]
          }
        },
        {
          "type": "Feature",
          "properties": {
            "id": "7593135716",
            "osm_type": "node",
            "lat": 46.6247063,
            "lon": 16.5406894,
            "addr:city": "Lenti",
            "addr:housenumber": "6",
            "addr:postcode": "8960",
            "addr:street": "Zrínyi Miklós utca",
            "name": "Húsbolt",
            "operator": "Ferenczi Zoltán",
            "shop": "butcher"
          },
          "geometry": {
            "type": "Point",
            "coordinates": [
              16.5406894,
              46.6247063
            ]
          }
        },
        {
          "type": "Feature",
          "properties": {
            "id": "12100177934",
            "osm_type": "node",
            "lat": 46.6229954,
            "lon": 16.5391967,
            "check_date": "2025-07-23",
            "name": "Belvárosi Húsbolt",
            "opening_hours": "Mo-Fr 08:00-17:00; Sa 08:00-12:00",
            "shop": "butcher"
          },
          "geometry": {
            "type": "Point",
            "coordinates": [
              16.5391967,
              46.6229954
            ]
          }
        }
      ],
      "children": []
    },
    {
      "bbox": {
        "south": 46.70320525,
        "west": 15.253173,
        "north": 47.033758500000005,
        "east": 16.2068765
      },
      "poiCount": 30,
      "leafCount": 30,
      "averagePosition": [
        15.662700526666667,
        46.899131176666664
      ],
      "data": [
        {
          "type": "Feature",
          "properties": {
            "id": "1879196626",
            "osm_type": "node",
            "lat": 46.7541086,
            "lon": 15.3689251,
            "name": "Fleischerei Brand",
            "shop": "butcher",
            "wheelchair": "no"
          },
          "geometry": {
            "type": "Point",
            "coordinates": [
              15.3689251,
              46.7541086
            ]
          }
        },
        {
          "type": "Feature",
          "properties": {
            "id": "5261871058",
            "osm_type": "node",
            "lat": 46.8260962,
            "lon": 15.2557003,
            "addr:city": "Frauental an der Laßnitz",
            "addr:country": "AT",
            "addr:housenumber": "249",
            "addr:postcode": "8523",
            "addr:street": "Grazerstraße",
            "at_bev:addr_date": "2018-10-01",
            "name": "SORGER Wurst- und Schickenspezialitäten",
            "phone": "+43 3462 23020",
            "shop": "butcher",
            "website": "https://sorger.co.at/"
          },
          "geometry": {
            "type": "Point",
            "coordinates": [
              15.2557003,
              46.8260962
            ]
          }
        },
        {
          "type": "Feature",
          "properties": {
            "id": "10286705669",
            "osm_type": "node",
            "lat": 46.7373188,
            "lon": 15.4422198,
            "addr:housenumber": "24",
            "addr:place": "Großklein",
            "addr:postcode": "8452",
            "name": "Fleischerei Brauchart",
            "opening_hours": "Mo,We,Th,Fr 06:30-12:00,15:00-18:00; Tu,Sa 06:30-12:00; PH,Su off",
            "operator": "Brauchart Stefan",
            "shop": "butcher"
          },
          "geometry": {
            "type": "Point",
            "coordinates": [
              15.4422198,
              46.7373188
            ]
          }
        },
        {
          "type": "Feature",
          "properties": {
            "id": "1979389780",
            "osm_type": "node",
            "lat": 46.8688216,
            "lon": 15.9027705,
            "name": "Triebl",
            "shop": "butcher"
          },
          "geometry": {
            "type": "Point",
            "coordinates": [
              15.9027705,
              46.8688216
            ]
          }
        },
        {
          "type": "Feature",
          "properties": {
            "id": "2292326442",
            "osm_type": "node",
            "lat": 46.7850691,
            "lon": 15.9434345,
            "name": "Fleischerei Tschiggerl",
            "shop": "butcher"
          },
          "geometry": {
            "type": "Point",
            "coordinates": [
              15.9434345,
              46.7850691
            ]
          }
        },
        {
          "type": "Feature",
          "properties": {
            "id": "2362024859",
            "osm_type": "node",
            "lat": 46.8540777,
            "lon": 15.738009,
            "shop": "butcher"
          },
          "geometry": {
            "type": "Point",
            "coordinates": [
              15.738009,
              46.8540777
            ]
          }
        },
        {
          "type": "Feature",
          "properties": {
            "id": "2364561611",
            "osm_type": "node",
            "lat": 46.8533331,
            "lon": 15.7257673,
            "name": "Scheucher Schlachthof",
            "shop": "butcher"
          },
          "geometry": {
            "type": "Point",
            "coordinates": [
              15.7257673,
              46.8533331
            ]
          }
        },
        {
          "type": "Feature",
          "properties": {
            "id": "2466723402",
            "osm_type": "node",
            "lat": 46.8056687,
            "lon": 15.5588352,
            "addr:housenumber": "8",
            "addr:postcode": "8431",
            "addr:street": "Gewerbepark Nord",
            "name": "Abholmarkt - Fleisch- und Wurstwaren",
            "shop": "butcher",
            "wheelchair": "yes"
          },
          "geometry": {
            "type": "Point",
            "coordinates": [
              15.5588352,
              46.8056687
            ]
          }
        },
        {
          "type": "Feature",
          "properties": {
            "id": "4812900672",
            "osm_type": "node",
            "lat": 46.8397072,
            "lon": 15.8623793,
            "addr:city": "Straden",
            "addr:housenumber": "12",
            "addr:place": "Krusdorf",
            "addr:postcode": "8345",
            "name": "Waltraud & August Hütter",
            "phone": "+43 3473 8642",
            "shop": "butcher",
            "website": "https://www.pute-huhn.at/"
          },
          "geometry": {
            "type": "Point",
            "coordinates": [
              15.8623793,
              46.8397072
            ]
          }
        },
        {
          "type": "Feature",
          "properties": {
            "id": "4812935410",
            "osm_type": "node",
            "lat": 46.7976534,
            "lon": 15.7779461,
            "addr:city": "Sankt Peter am Ottersbach",
            "addr:housenumber": "21",
            "addr:place": "Edla",
            "addr:postcode": "8093",
            "name": "Marianne & Erwin Patz",
            "shop": "butcher"
          },
          "geometry": {
            "type": "Point",
            "coordinates": [
              15.7779461,
              46.7976534
            ]
          }
        },
        {
          "type": "Feature",
          "properties": {
            "id": "5799495708",
            "osm_type": "node",
            "lat": 46.8075429,
            "lon": 15.8695177,
            "addr:city": "Straden",
            "addr:housenumber": "23",
            "addr:place": "Straden",
            "addr:postcode": "8345",
            "name": "Fleischerei Scharfy",
            "operator": "Scharfy GesmbH",
            "payment:cash": "yes",
            "shop": "butcher"
          },
          "geometry": {
            "type": "Point",
            "coordinates": [
              15.8695177,
              46.8075429
            ]
          }
        },
        {
          "type": "Feature",
          "properties": {
            "id": "317172219",
            "osm_type": "node",
            "lat": 47.013857,
            "lon": 15.4231031,
            "addr:housenumber": "140",
            "addr:postcode": "8055",
            "addr:street": "Feldkirchner Straße",
            "name": "Fleischerei Rinner",
            "shop": "butcher"
          },
          "geometry": {
            "type": "Point",
            "coordinates": [
              15.4231031,
              47.013857
            ]
          }
        },
        {
          "type": "Feature",
          "properties": {
            "id": "2345340009",
            "osm_type": "node",
            "lat": 46.9466002,
            "lon": 15.377883,
            "addr:city": "Dobl-Zwaring",
            "addr:housenumber": "63",
            "addr:postcode": "8143",
            "addr:street": "Unterberg",
            "diet:local": "yes",
            "diet:meat": "yes",
            "name": "Fürnschuß",
            "opening_hours": "Mo-Tu 06:00-14:00; Fr 06:00-18:00; Sa 06:00-12:30",
            "operator": "Fleischerei Fürnschuß GmbH",
            "payment:cash": "yes",
            "payment:coins": "yes",
            "phone": "+43 3136 52204",
            "regional": "yes",
            "shop": "butcher",
            "website": "https://www.fuernschuss.or.at/"
          },
          "geometry": {
            "type": "Point",
            "coordinates": [
              15.377883,
              46.9466002
            ]
          }
        },
        {
          "type": "Feature",
          "properties": {
            "id": "2438726528",
            "osm_type": "node",
            "lat": 46.8867197,
            "lon": 15.5162341,
            "shop": "butcher",
            "source": "local_knowledge"
          },
          "geometry": {
            "type": "Point",
            "coordinates": [
              15.5162341,
              46.8867197
            ]
          }
        },
        {
          "type": "Feature",
          "properties": {
            "id": "4191881584",
            "osm_type": "node",
            "lat": 46.8872161,
            "lon": 15.5141297,
            "addr:city": "Wildon",
            "addr:housenumber": "46",
            "addr:postcode": "8410",
            "addr:street": "Hauptplatz",
            "name": "Fleischerei Prenner",
            "phone": "+43 3182 2342",
            "shop": "butcher"
          },
          "geometry": {
            "type": "Point",
            "coordinates": [
              15.5141297,
              46.8872161
            ]
          }
        },
        {
          "type": "Feature",
          "properties": {
            "id": "5695982121",
            "osm_type": "node",
            "lat": 46.9643722,
            "lon": 15.4788206,
            "addr:postcode": "8401",
            "email": "wolfgang.pecigus@pecigus.at",
            "name": "Fleischerei Pecigus",
            "opening_hours": "Tu-Fr 07:00-18:00; Sa 07:00-12:00; Mo 07:00-13:00",
            "phone": "+430313552228",
            "shop": "butcher"
          },
          "geometry": {
            "type": "Point",
            "coordinates": [
              15.4788206,
              46.9643722
            ]
          }
        },
        {
          "type": "Feature",
          "properties": {
            "id": "6707484185",
            "osm_type": "node",
            "lat": 46.8936785,
            "lon": 15.2640591,
            "addr:city": "Stainz",
            "addr:country": "AT",
            "addr:housenumber": "22",
            "addr:postcode": "8510",
            "addr:street": "Hauptplatz",
            "at_bev:addr_date": "2018-04-02",
            "name": "Messner",
            "opening_hours": "Mo-Fr 06:30-13:00, 15:00-18:00; Sa 06:30-13:00",
            "shop": "butcher"
          },
          "geometry": {
            "type": "Point",
            "coordinates": [
              15.2640591,
              46.8936785
            ]
          }
        },
        {
          "type": "Feature",
          "properties": {
            "id": "12754410804",
            "osm_type": "node",
            "lat": 46.9295003,
            "lon": 15.2543965,
            "contact:phone": "+43 3463 812 32",
            "name": "Fleischhauerei Franz Fritz",
            "shop": "butcher",
            "website": "https://www.fritzwurst.at/kontakt/"
          },
          "geometry": {
            "type": "Point",
            "coordinates": [
              15.2543965,
              46.9295003
            ]
          }
        },
        {
          "type": "Feature",
          "properties": {
            "id": "1682906745",
            "osm_type": "node",
            "lat": 46.9084074,
            "lon": 15.9838548,
            "name": "Viehhandel Viehtransporte Engelbert Lamprecht",
            "shop": "butcher"
          },
          "geometry": {
            "type": "Point",
            "coordinates": [
              15.9838548,
              46.9084074
            ]
          }
        },
        {
          "type": "Feature",
          "properties": {
            "id": "1884379647",
            "osm_type": "node",
            "lat": 46.9331079,
            "lon": 15.6632995,
            "addr:country": "AT",
            "addr:housenumber": "21",
            "addr:place": "Kirchbach in Steiermark",
            "addr:postcode": "8082",
            "name": "Direktvermarkter Platzer",
            "shop": "butcher"
          },
          "geometry": {
            "type": "Point",
            "coordinates": [
              15.6632995,
              46.9331079
            ]
          }
        },
        {
          "type": "Feature",
          "properties": {
            "id": "2018633366",
            "osm_type": "node",
            "lat": 47.0138584,
            "lon": 15.8539334,
            "addr:city": "Feldbach",
            "addr:housenumber": "26",
            "addr:place": "Auersbach",
            "addr:postcode": "8330",
            "name": "Vulcano Schinkenmanufaktur",
            "shop": "butcher"
          },
          "geometry": {
            "type": "Point",
            "coordinates": [
              15.8539334,
              47.0138584
            ]
          }
        },
        {
          "type": "Feature",
          "properties": {
            "id": "2891521468",
            "osm_type": "node",
            "lat": 46.8729505,
            "lon": 15.8824563,
            "name": "Johann Rauch",
            "shop": "butcher"
          },
          "geometry": {
            "type": "Point",
            "coordinates": [
              15.8824563,
              46.8729505
            ]
          }
        },
        {
          "type": "Feature",
          "properties": {
            "id": "3186284253",
            "osm_type": "node",
            "lat": 47.0152076,
            "lon": 15.6880483,
            "addr:housenumber": "110",
            "addr:place": "Markt",
            "addr:postcode": "8323",
            "name": "Imbiss Fleischerei Fraiss",
            "phone": "+433119 2819",
            "shop": "butcher"
          },
          "geometry": {
            "type": "Point",
            "coordinates": [
              15.6880483,
              47.0152076
            ]
          }
        },
        {
          "type": "Feature",
          "properties": {
            "id": "4022717568",
            "osm_type": "node",
            "lat": 46.989401,
            "lon": 15.8391245,
            "addr:city": "Edelsbach bei Feldbach",
            "addr:housenumber": "5",
            "addr:place": "Edelsbach",
            "addr:postcode": "8332",
            "name": "Fleischerei Rodler",
            "operator": "Reinhard Rodler",
            "shop": "butcher"
          },
          "geometry": {
            "type": "Point",
            "coordinates": [
              15.8391245,
              46.989401
            ]
          }
        },
        {
          "type": "Feature",
          "properties": {
            "id": "4063779405",
            "osm_type": "node",
            "lat": 47.0081581,
            "lon": 15.7491317,
            "addr:city": "Kirchberg an der Raab",
            "addr:housenumber": "56",
            "addr:place": "Studenzen",
            "addr:postcode": "8322",
            "name": "Kicker Geflügel",
            "operator": "Johann Kicker, Geflügel u. Wild GmbH & CoKG",
            "shop": "butcher",
            "website": "http://www.kicker-gefluegel.at/"
          },
          "geometry": {
            "type": "Point",
            "coordinates": [
              15.7491317,
              47.0081581
            ]
          }
        },
        {
          "type": "Feature",
          "properties": {
            "id": "4812904638",
            "osm_type": "node",
            "lat": 46.894861,
            "lon": 15.6780978,
            "addr:city": "Sankt Stefan im Rosental",
            "addr:housenumber": "17",
            "addr:place": "Tagensdorf",
            "addr:postcode": "8083",
            "name": "Christine Kaufmann",
            "phone": "+43 664 7991113",
            "shop": "butcher",
            "website": "http://www.ausbauernhand.at"
          },
          "geometry": {
            "type": "Point",
            "coordinates": [
              15.6780978,
              46.894861
            ]
          }
        },
        {
          "type": "Feature",
          "properties": {
            "id": "4812908324",
            "osm_type": "node",
            "lat": 46.9969124,
            "lon": 15.6188893,
            "addr:city": "Pirching am Traubenberg",
            "addr:housenumber": "19",
            "addr:place": "Rettenbach",
            "addr:postcode": "8081",
            "name": "Monika und Martin Krenn",
            "phone": "+43 3134 2462",
            "shop": "butcher"
          },
          "geometry": {
            "type": "Point",
            "coordinates": [
              15.6188893,
              46.9969124
            ]
          }
        },
        {
          "type": "Feature",
          "properties": {
            "id": "5131671806",
            "osm_type": "node",
            "lat": 47.0053538,
            "lon": 15.5853967,
            "addr:housename": "Hacker",
            "addr:housenumber": "48",
            "addr:place": "Michelbach",
            "butcher": "pork",
            "name": "Familie Hacker Ab-Hof",
            "operator": "Familie Hacker",
            "phone": "0043 664 / 4616899",
            "shop": "butcher",
            "website": "http://www.familie-hacker.at/"
          },
          "geometry": {
            "type": "Point",
            "coordinates": [
              15.5853967,
              47.0053538
            ]
          }
        },
        {
          "type": "Feature",
          "properties": {
            "id": "6342523304",
            "osm_type": "node",
            "lat": 46.9466525,
            "lon": 15.9165151,
            "name": "Abholmarkt Fleisch- & Wurstwaren",
            "shop": "butcher"
          },
          "geometry": {
            "type": "Point",
            "coordinates": [
              15.9165151,
              46.9466525
            ]
          }
        },
        {
          "type": "Feature",
          "properties": {
            "id": "11227912255",
            "osm_type": "node",
            "lat": 46.9377234,
            "lon": 16.1481375,
            "addr:city": "Jennersdorf",
            "addr:housenumber": "2",
            "addr:postcode": "8380",
            "addr:street": "Technologiepark",
            "shop": "butcher"
          },
          "geometry": {
            "type": "Point",
            "coordinates": [
              16.1481375,
              46.9377234
            ]
          }
        }
      ],
      "children": []
    },
    {
      "bbox": {
        "south": 46.70320525,
        "west": 16.2068765,
        "north": 47.033758500000005,
        "east": 17.16058
      },
      "poiCount": 8,
      "leafCount": 8,
      "averagePosition": [
        16.67887805,
        46.9016106
      ],
      "data": [
        {
          "type": "Feature",
          "properties": {
            "id": "5153327860",
            "osm_type": "node",
            "lat": 46.8434356,
            "lon": 16.8474366,
            "name": "Zalai Baromfi Szaküzlet",
            "shop": "butcher"
          },
          "geometry": {
            "type": "Point",
            "coordinates": [
              16.8474366,
              46.8434356
            ]
          }
        },
        {
          "type": "Feature",
          "properties": {
            "id": "11251468330",
            "osm_type": "node",
            "lat": 46.8637734,
            "lon": 16.7995304,
            "name": "Hús",
            "shop": "butcher"
          },
          "geometry": {
            "type": "Point",
            "coordinates": [
              16.7995304,
              46.8637734
            ]
          }
        },
        {
          "type": "Feature",
          "properties": {
            "id": "11827197472",
            "osm_type": "node",
            "lat": 46.8426901,
            "lon": 16.860181,
            "name": "Házi füstölt áruk boltja",
            "shop": "butcher"
          },
          "geometry": {
            "type": "Point",
            "coordinates": [
              16.860181,
              46.8426901
            ]
          }
        },
        {
          "type": "Feature",
          "properties": {
            "id": "11833303080",
            "osm_type": "node",
            "lat": 46.8407128,
            "lon": 16.8466594,
            "shop": "butcher"
          },
          "geometry": {
            "type": "Point",
            "coordinates": [
              16.8466594,
              46.8407128
            ]
          }
        },
        {
          "type": "Feature",
          "properties": {
            "id": "12127553710",
            "osm_type": "node",
            "lat": 46.8462541,
            "lon": 16.5885253,
            "name": "Irsa Farm Húsbolt",
            "shop": "butcher"
          },
          "geometry": {
            "type": "Point",
            "coordinates": [
              16.5885253,
              46.8462541
            ]
          }
        },
        {
          "type": "Feature",
          "properties": {
            "id": "12140682543",
            "osm_type": "node",
            "lat": 46.9524044,
            "lon": 16.2745855,
            "name": "Babati Húsbolt",
            "opening_hours": "Mo 07:00-15:00; Tu-Fr 06:30-16:30; Sa 06:30-11:00",
            "shop": "butcher",
            "wheelchair": "no"
          },
          "geometry": {
            "type": "Point",
            "coordinates": [
              16.2745855,
              46.9524044
            ]
          }
        },
        {
          "type": "Feature",
          "properties": {
            "id": "3239943351",
            "osm_type": "node",
            "lat": 47.0154993,
            "lon": 16.6149129,
            "addr:city": "Körmend",
            "addr:postcode": "9900",
            "addr:street": "Bartók Béla lakótelep",
            "name": "Babati húsbolt",
            "shop": "butcher"
          },
          "geometry": {
            "type": "Point",
            "coordinates": [
              16.6149129,
              47.0154993
            ]
          }
        },
        {
          "type": "Feature",
          "properties": {
            "id": "8189847989",
            "osm_type": "node",
            "lat": 47.0081151,
            "lon": 16.5991933,
            "name": "Húsbolt",
            "shop": "butcher"
          },
          "geometry": {
            "type": "Point",
            "coordinates": [
              16.5991933,
              47.0081151
            ]
          }
        }
      ],
      "children": []
    }
  ]
}