{
  "bbox": {
    "south": 47.033758500000005,
    "west": 13.345766,
    "north": 47.694865,
    "east": 15.253173
  },
  "poiCount": 29,
  "leafCount": 29,
  "averagePosition": [
    14.399827368965516,
    47.3285449137931
  ],
  "data": [
    {
      "type": "Feature",
      "properties": {
        "id": "3051297395",
        "osm_type": "node",
        "lat": 47.0957197,
        "lon": 13.6336111,
        "addr:city": "Sankt Michael im Lungau",
        "addr:housenumber": "580",
        "addr:street": "Gewerbestraße",
        "contact:website": "https://www.ebster-gruppe.at/blog/die-ladnerei-st-michael/",
        "name": "Die Ladnerei",
        "opening_hours": "Mo-Fr 00:00-18:00; Sa 07:00-13:00",
        "operator": "S&P Catering GmbH",
        "shop": "butcher"
      },
      "geometry": {
        "type": "Point",
        "coordinates": [
          13.6336111,
          47.0957197
        ]
      }
    },
    {
      "type": "Feature",
      "properties": {
        "id": "3364610724",
        "osm_type": "node",
        "lat": 47.1271971,
        "lon": 13.8086946,
        "contact:email": "info@preberwurst.com",
        "contact:phone": "+43 6474-2440",
        "contact:website": "http://www.preberwurst.com/",
        "name": "Schader",
        "opening_hours": "Mo-Fr 06:30-13:00, 14:30-18:00, Sa 06:30-12:00; PH off",
        "shop": "butcher"
      },
      "geometry": {
        "type": "Point",
        "coordinates": [
          13.8086946,
          47.1271971
        ]
      }
    },
    {
      "type": "Feature",
      "properties": {
        "id": "9946716335",
        "osm_type": "node",
        "lat": 47.1725183,
        "lon": 14.2072658,
        "contact:email": "bauernhof@speckbauer.at",
        "contact:phone": "+43 664 1700842",
        "name": "Speckbauer",
        "shop": "butcher",
        "website": "https://www.speckbauer.at/"
      },
      "geometry": {
        "type": "Point",
        "coordinates": [
          14.2072658,
          47.1725183
        ]
      }
    },
    {
      "type": "Feature",
      "properties": {
        "id": "1718034616",
        "osm_type": "node",
        "lat": 47.3456038,
        "lon": 15.0118594,
        "addr:city": "St. Michael in der Obersteiermark",
        "addr:country": "AT",
        "addr:housenumber": "47a",
        "addr:postcode": "8770",
        "addr:street": "Bundesstraße",
        "name": "Fleischhauerei Mario Kofler",
        "operator": "Mario Kofler",
        "payment:cash": "yes",
        "payment:debit_cards": "yes",
        "phone": "+43 3843 35 3 18",
        "shop": "butcher",
        "website": "https://www.fleisch-mario.at/"
      },
      "geometry": {
        "type": "Point",
        "coordinates": [
          15.0118594,
          47.3456038
        ]
      }
    },
    {
      "type": "Feature",
      "properties": {
        "id": "4896700421",
        "osm_type": "node",
        "lat": 47.2048479,
        "lon": 14.6754448,
        "addr:city": "Fohnsdorf",
        "addr:country": "AT",
        "addr:district": "Murtal",
        "addr:housenumber": "7",
        "addr:postcode": "8753",
        "addr:street": "Siemensstraße",
        "email": "office.autischer@twin.at",
        "name": "Fleischerei Autischer",
        "payment:coins": "yes",
        "payment:notes": "yes",
        "phone": "+43 3573 2359",
        "shop": "butcher",
        "website": "https://autischerfleischerei.gemeindeausstellung.at/",
        "wheelchair": "yes"
      },
      "geometry": {
        "type": "Point",
        "coordinates": [
          14.6754448,
          47.2048479
        ]
      }
    },
    {
      "type": "Feature",
      "properties": {
        "id": "4903710321",
        "osm_type": "node",
        "lat": 47.1903645,
        "lon": 14.6844481,
        "addr:city": "Hetzendorf",
        "addr:country": "AT",
        "addr:housenumber": "24-26",
        "addr:postcode": "8753",
        "addr:street": "Judenburgerstraße",
        "at_bev:addr_date": "2017-04-07",
        "name": "Kaiserfleisch Peter Kaiser",
        "phone": "0357320157",
        "shop": "butcher"
      },
      "geometry": {
        "type": "Point",
        "coordinates": [
          14.6844481,
          47.1903645
        ]
      }
    },
    {
      "type": "Feature",
      "properties": {
        "id": "5600399741",
        "osm_type": "node",
        "lat": 47.1690147,
        "lon": 14.6603376,
        "addr:city": "Judenburg",
        "addr:country": "AT",
        "addr:housenumber": "2",
        "addr:postcode": "8750",
        "addr:street": "Hauptplatz",
        "email": "mail@kaiserfleisch.at",
        "name": "Kaiserfleisch",
        "opening_hours": "Tu-Fr 07:30-12:30,15:00-18:00; Sa 07:30-12:00",
        "phone": "+43 3572/ 44 168",
        "shop": "butcher",
        "website": "http://www.kaiserfleisch.at/#kontakt",
        "wheelchair": "yes"
      },
      "geometry": {
        "type": "Point",
        "coordinates": [
          14.6603376,
          47.1690147
        ]
      }
    },
    {
      "type": "Feature",
      "properties": {
        "id": "5633143321",
        "osm_type": "node",
        "lat": 47.2168555,
        "lon": 14.8108819,
        "addr:city": "Knittefeld",
        "addr:country": "AT",
        "addr:district": "Murtal",
        "addr:housenumber": "93",
        "addr:postcode": "8720",
        "addr:street": "Gaaler Straße",
        "name": "Kammerhofer",
        "opening_hours": "Mo-Fr 05:00-14:00; Sa 07:00-11:00",
        "shop": "butcher",
        "website": "https://www.kammerhofer.co.at/"
      },
      "geometry": {
        "type": "Point",
        "coordinates": [
          14.8108819,
          47.2168555
        ]
      }
    },
    {
      "type": "Feature",
      "properties": {
        "id": "12650075213",
        "osm_type": "node",
        "lat": 47.3177143,
        "lon": 14.9773923,
        "addr:city": "Sankt Stefan ob Leoben",
        "addr:housenumber": "15",
        "addr:postcode": "8713",
        "addr:street": "Dorfplatz",
        "name": "Emersdorfee",
        "payment:cash": "yes",
        "shop": "butcher"
      },
      "geometry": {
        "type": "Point",
        "coordinates": [
          14.9773923,
          47.3177143
        ]
      }
    },
    {
      "type": "Feature",
      "properties": {
        "id": "1723096588",
        "osm_type": "node",
        "lat": 47.0719118,
        "lon": 15.1282739,
        "addr:city": "Bärnbach",
        "addr:country": "AT",
        "addr:housenumber": "12",
        "addr:postcode": "8572",
        "addr:street": "Hauptstraße",
        "at_bev:addr_date": "2017-10-01",
        "contact:email": "office@grossschaedl.net",
        "contact:phone": "+43 3142 625 26",
        "name": "Fleischerei Großschädl",
        "old_name": "Bäckerei Köck",
        "opening_hours": "Mo-Th 05:30-12:30; Fr 05:30-12:30, 15:00-18:00; Sa 07:00-11:30",
        "shop": "butcher",
        "website": "http://grossschaedl.net/kontakt/"
      },
      "geometry": {
        "type": "Point",
        "coordinates": [
          15.1282739,
          47.0719118
        ]
      }
    },
    {
      "type": "Feature",
      "properties": {
        "id": "1918570867",
        "osm_type": "node",
        "lat": 47.0492603,
        "lon": 15.1511965,
        "addr:city": "Voitsberg",
        "addr:country": "AT",
        "addr:housenumber": "38",
        "addr:postcode": "8570",
        "addr:street": "Hauptplatz",
        "name": "Reiner",
        "phone": "+43 3142 22342-0",
        "shop": "butcher"
      },
      "geometry": {
        "type": "Point",
        "coordinates": [
          15.1511965,
          47.0492603
        ]
      }
    },
    {
      "type": "Feature",
      "properties": {
        "id": "2324215035",
        "osm_type": "node",
        "lat": 47.2266876,
        "lon": 15.2339526,
        "addr:housenumber": "39",
        "addr:postcode": "8124",
        "addr:street": "Alter Markt",
        "name": "Fleischhauerei Jauschnig",
        "phone": "+433125 22 01",
        "shop": "butcher",
        "website": "http://www.fleischerei-jauschnig.at"
      },
      "geometry": {
        "type": "Point",
        "coordinates": [
          15.2339526,
          47.2266876
        ]
      }
    },
    {
      "type": "Feature",
      "properties": {
        "id": "3828992472",
        "osm_type": "node",
        "lat": 47.0543802,
        "lon": 15.1169241,
        "addr:city": "Rosental an der Kainach",
        "addr:country": "AT",
        "addr:housenumber": "63",
        "addr:postcode": "8582",
        "addr:street": "Hauptstraße",
        "name": "Passegger",
        "phone": "+433142 21623",
        "shop": "butcher",
        "website": "https://www.passegger.at/"
      },
      "geometry": {
        "type": "Point",
        "coordinates": [
          15.1169241,
          47.0543802
        ]
      }
    },
    {
      "type": "Feature",
      "properties": {
        "id": "11740798983",
        "osm_type": "node",
        "lat": 47.0557125,
        "lon": 15.1137038,
        "addr:city": "Rosental an der Kainach",
        "addr:country": "AT",
        "addr:housenumber": "99",
        "addr:postcode": "8582",
        "addr:street": "Hauptstraße",
        "email": "rosental@abholmarkt.co.at",
        "name": "Fleisch & Wurstwaren Abholmarkt",
        "opening_hours": "Mo-Fr 08:00-18:00; Sa 08:00-17:00",
        "phone": "+43 314 225440",
        "shop": "butcher",
        "website": "https://www.fleischundwurstmarkt.com/"
      },
      "geometry": {
        "type": "Point",
        "coordinates": [
          15.1137038,
          47.0557125
        ]
      }
    },
    {
      "type": "Feature",
      "properties": {
        "id": "4719949481",
        "osm_type": "node",
        "lat": 47.3840169,
        "lon": 13.4628322,
        "addr:city": "Radstadt",
        "addr:housenumber": "13",
        "addr:postcode": "5550",
        "addr:street": "Stadtplatz",
        "description": "Eigene Fleischhauerei, SB-Restaurant “Metzgerstub’n”, Exklusiver Partyservice, Mittagsmenü",
        "name": "Fleischhauerei und Imbiss Metzger Stub'n",
        "opening_hours": "Mo-Fr 07:45-18:00; Sa 07:45-12:00",
        "operator": "J.Ladinger",
        "outdoor_seating": "yes",
        "phone": "+43 6452 4234",
        "shop": "butcher",
        "website": "https://www.ladinger.cc/"
      },
      "geometry": {
        "type": "Point",
        "coordinates": [
          13.4628322,
          47.3840169
        ]
      }
    },
    {
      "type": "Feature",
      "properties": {
        "id": "8856907970",
        "osm_type": "node",
        "lat": 47.3793167,
        "lon": 13.4243429,
        "addr:housenumber": "10",
        "addr:street": "Untere Marktstraße",
        "name": "Metzgerei Buchsteiner",
        "opening_hours": "Mo-Sa 08:00-13:00; Th, Fr 15:00-18:00",
        "phone": "+43 664 2370657",
        "shop": "butcher",
        "website": "https://www.mund-ort.at/"
      },
      "geometry": {
        "type": "Point",
        "coordinates": [
          13.4243429,
          47.3793167
        ]
      }
    },
    {
      "type": "Feature",
      "properties": {
        "id": "2163706724",
        "osm_type": "node",
        "lat": 47.4364976,
        "lon": 13.9400089,
        "name": "Fleischerei Tasch",
        "shop": "butcher"
      },
      "geometry": {
        "type": "Point",
        "coordinates": [
          13.9400089,
          47.4364976
        ]
      }
    },
    {
      "type": "Feature",
      "properties": {
        "id": "3663488459",
        "osm_type": "node",
        "lat": 47.4188834,
        "lon": 13.8188858,
        "name": "Mein Zefferer",
        "shop": "butcher"
      },
      "geometry": {
        "type": "Point",
        "coordinates": [
          13.8188858,
          47.4188834
        ]
      }
    },
    {
      "type": "Feature",
      "properties": {
        "id": "4563883595",
        "osm_type": "node",
        "lat": 47.5829186,
        "lon": 13.5334982,
        "addr:city": "Gosau",
        "addr:country": "AT",
        "addr:housenumber": "2",
        "addr:postcode": "4824",
        "addr:street": "Gosauseestraße",
        "name": "Gosauer Speiserei",
        "operator": "Gosauer Fleischmanufaktur",
        "shop": "butcher",
        "start_date": "2017_05",
        "website": "https://www.gosauer-speiserei.at",
        "wheelchair": "yes"
      },
      "geometry": {
        "type": "Point",
        "coordinates": [
          13.5334982,
          47.5829186
        ]
      }
    },
    {
      "type": "Feature",
      "properties": {
        "id": "4996745539",
        "osm_type": "node",
        "lat": 47.6162804,
        "lon": 13.635069,
        "name": "Vieh Heli Metzger Wirt",
        "opening_hours": "Mo 08:00-13:00; Tu-Fr 08:00-13:00, 15:00-18:00; Sa 08:00-12:00",
        "shop": "butcher"
      },
      "geometry": {
        "type": "Point",
        "coordinates": [
          13.635069,
          47.6162804
        ]
      }
    },
    {
      "type": "Feature",
      "properties": {
        "id": "4996760166",
        "osm_type": "node",
        "lat": 47.6430338,
        "lon": 13.6162185,
        "addr:city": "Bad Goisern am Hallstättersee",
        "addr:country": "AT",
        "addr:housenumber": "24",
        "addr:postcode": "4822",
        "addr:street": "Untere Marktstraße",
        "contact:phone": "+43 6135 8215",
        "name": "Zauner",
        "opening_hours": "Mo-Fr 07:15-13:00, 15:00-18:00; Sa 07:15-12:00",
        "shop": "butcher"
      },
      "geometry": {
        "type": "Point",
        "coordinates": [
          13.6162185,
          47.6430338
        ]
      }
    },
    {
      "type": "Feature",
      "properties": {
        "id": "5916412540",
        "osm_type": "node",
        "lat": 47.5549933,
        "lon": 13.931525,
        "name": "Aichinger",
        "shop": "butcher"
      },
      "geometry": {
        "type": "Point",
        "coordinates": [
          13.931525,
          47.5549933
        ]
      }
    },
    {
      "type": "Feature",
      "properties": {
        "id": "6780939355",
        "osm_type": "node",
        "lat": 47.4449164,
        "lon": 13.9011651,
        "addr:city": "Gröbming",
        "addr:country": "AT",
        "addr:housenumber": "234",
        "addr:postcode": "8962",
        "addr:street": "Stoderplatzl",
        "at_bev:addr_date": "2018-10-01",
        "name": "Fleischerei Spanberger",
        "opening_hours": "Mo-Tu 07:00-14:00,We-Fr 07:00-18:00, Sa 07:00-12:00",
        "phone": "+43 3685 22375",
        "shop": "butcher",
        "website": "http://www.fleisch-spanberger.at"
      },
      "geometry": {
        "type": "Point",
        "coordinates": [
          13.9011651,
          47.4449164
        ]
      }
    },
    {
      "type": "Feature",
      "properties": {
        "id": "10556723624",
        "osm_type": "node",
        "lat": 47.3925234,
        "lon": 13.6880856,
        "alt_name": "Schladminger Tauerngenuss",
        "name": "Hofladen",
        "opening_hours": "Mo-Sa 08:30-12:00",
        "shop": "butcher",
        "website": "http://www.tauerngenuss.at"
      },
      "geometry": {
        "type": "Point",
        "coordinates": [
          13.6880856,
          47.3925234
        ]
      }
    },
    {
      "type": "Feature",
      "properties": {
        "id": "5485628574",
        "osm_type": "node",
        "lat": 47.5333335,
        "lon": 14.108009,
        "addr:city": "Stainach-Pürgg",
        "addr:country": "AT",
        "addr:housenumber": "109",
        "addr:postcode": "8950",
        "addr:street": "Hauptplatz",
        "at_bev:addr_date": "2017-10-01",
        "name": "Köll",
        "opening_hours": "Mo-Fr 07:00-12:00,15:00-18:00; Sa 07:00-12:00; Su,PH off",
        "shop": "butcher"
      },
      "geometry": {
        "type": "Point",
        "coordinates": [
          14.108009,
          47.5333335
        ]
      }
    },
    {
      "type": "Feature",
      "properties": {
        "id": "1644561589",
        "osm_type": "node",
        "lat": 47.5391983,
        "lon": 14.8878034,
        "addr:city": "Eisenerz",
        "addr:country": "AT",
        "addr:housenumber": "11-13",
        "addr:postcode": "8790",
        "addr:street": "Flutergasse",
        "fax": "+43 3848 24346",
        "name": "Fleischerei Moser",
        "opening_hours": "Mo-Sa 08:00-12:00; Fr 15:00-18:00",
        "phone": "+43 3848 24340",
        "shop": "butcher"
      },
      "geometry": {
        "type": "Point",
        "coordinates": [
          14.8878034,
          47.5391983
        ]
      }
    },
    {
      "type": "Feature",
      "properties": {
        "id": "1436582131",
        "osm_type": "node",
        "lat": 47.3825707,
        "lon": 15.0955238,
        "addr:city": "Leoben",
        "addr:country": "AT",
        "addr:housename": "LCS Passage",
        "addr:housenumber": "19",
        "addr:postcode": "8700",
        "addr:street": "Hauptplatz",
        "addr:suburb": "Leoben",
        "name": "Buchi`s",
        "opening_hours": "Mo-Fr 07:30-19:00; Sa 07:30-18:00",
        "operator": "Buchberger (Fleischer) & Buchgraber (Bäcker)",
        "phone": "+43 3842 44555",
        "shop": "butcher",
        "source": "survey; http://www.brot-fleisch.at/",
        "website": "https://www.brot-fleisch.at/"
      },
      "geometry": {
        "type": "Point",
        "coordinates": [
          15.0955238,
          47.3825707
        ]
      }
    },
    {
      "type": "Feature",
      "properties": {
        "id": "5323523039",
        "osm_type": "node",
        "lat": 47.5437584,
        "lon": 15.2382843,
        "addr:city": "Aflenz",
        "addr:country": "AT",
        "addr:housenumber": "49",
        "addr:place": "Aflenz Kurort",
        "addr:postcode": "8623",
        "at_bev:addr_date": "2018-10-01",
        "contact:phone": "+43 3861 23 53",
        "level": "0",
        "name": "Fleischerei Aigner",
        "shop": "butcher"
      },
      "geometry": {
        "type": "Point",
        "coordinates": [
          15.2382843,
          47.5437584
        ]
      }
    },
    {
      "type": "Feature",
      "properties": {
        "id": "11530271204",
        "osm_type": "node",
        "lat": 47.3777729,
        "lon": 15.0997555,
        "addr:city": "Leoben",
        "addr:housenumber": "165",
        "addr:postcode": "8700",
        "addr:street": "Kärntner Straße",
        "addr:suburb": "Mühltal",
        "contact:facebook": "https://www.facebook.com/people/Lebensmittel-Alisic",
        "email": "info@alisic.at",
        "name": "Lebensmittel Alisic",
        "opening_hours": "Mo-Fr 09:00-17:00; Sa 08:00-14:00",
        "phone": "+436765000886",
        "shop": "butcher",
        "source": "local_knowledge",
        "start_date": "2024-01-08"
      },
      "geometry": {
        "type": "Point",
        "coordinates": [
          15.0997555,
          47.3777729
        ]
      }
    }
  ],
  "children": []
}