{
  "bbox": {
    "south": 46.372652,
    "west": 13.345766,
    "north": 47.033758500000005,
    "east": 15.253173
  },
  "poiCount": 39,
  "leafCount": 39,
  "averagePosition": [
    14.363011405128205,
    46.670962882051285
  ],
  "data": [
    {
      "type": "Feature",
      "properties": {
        "id": "1445292381",
        "osm_type": "node",
        "lat": 46.6665156,
        "lon": 14.6363997,
        "addr:city": "Klagenfurt",
        "addr:postcode": "9020",
        "addr:street": "Schlachthofstraße (Schlachthof)",
        "name": "Fleisch Boutique",
        "shop": "butcher",
        "wheelchair": "no"
      },
      "geometry": {
        "type": "Point",
        "coordinates": [
          14.6363997,
          46.6665156
        ]
      }
    },
    {
      "type": "Feature",
      "properties": {
        "id": "1922454059",
        "osm_type": "node",
        "lat": 46.8260529,
        "lon": 14.846217,
        "name": "Fleisch Feinkost Sajovitz",
        "shop": "butcher"
      },
      "geometry": {
        "type": "Point",
        "coordinates": [
          14.846217,
          46.8260529
        ]
      }
    },
    {
      "type": "Feature",
      "properties": {
        "id": "3366728108",
        "osm_type": "node",
        "lat": 46.7659801,
        "lon": 14.8247546,
        "addr:city": "Sankt Andrä",
        "addr:housenumber": "14",
        "addr:postcode": "9433",
        "addr:street": "Blaiken",
        "butcher": "pork/beef",
        "name": "Fleischerei Adolf Kriegl",
        "opening_hours": "Mo 07:30-12:30; Tu-Fr 07:30-12:30,14:30-18:00; Sa 07:30-12:30",
        "shop": "butcher",
        "website": "fleischerei-kriegl.at",
        "wheelchair": "limited"
      },
      "geometry": {
        "type": "Point",
        "coordinates": [
          14.8247546,
          46.7659801
        ]
      }
    },
    {
      "type": "Feature",
      "properties": {
        "id": "3668787229",
        "osm_type": "node",
        "lat": 46.8087402,
        "lon": 14.8325046,
        "name": "Kehraus",
        "shop": "butcher"
      },
      "geometry": {
        "type": "Point",
        "coordinates": [
          14.8325046,
          46.8087402
        ]
      }
    },
    {
      "type": "Feature",
      "properties": {
        "id": "8950295593",
        "osm_type": "node",
        "lat": 46.5767007,
        "lon": 14.6328001,
        "addr:city": "Gösselsdorf/Goselna vas",
        "addr:postcode": "9141",
        "addr:street": "Fliederweg",
        "name": "Uran Silvia - Jauntaler Salami, Wurst- und Selchwaren",
        "operator": "Uran Silvia",
        "payment:cash": "yes",
        "phone": "+43 4236 2230",
        "shop": "butcher"
      },
      "geometry": {
        "type": "Point",
        "coordinates": [
          14.6328001,
          46.5767007
        ]
      }
    },
    {
      "type": "Feature",
      "properties": {
        "id": "9792707350",
        "osm_type": "node",
        "lat": 46.671129,
        "lon": 14.9483073,
        "addr:housenumber": "28",
        "addr:street": "Ettendorf",
        "name": "Kaimbacher",
        "shop": "butcher"
      },
      "geometry": {
        "type": "Point",
        "coordinates": [
          14.9483073,
          46.671129
        ]
      }
    },
    {
      "type": "Feature",
      "properties": {
        "id": "11681689393",
        "osm_type": "node",
        "lat": 46.7195865,
        "lon": 14.9134468,
        "name": "Fleischerei Libiseller",
        "shop": "butcher",
        "website": "https://www.fleischerei-libiseller.at/"
      },
      "geometry": {
        "type": "Point",
        "coordinates": [
          14.9134468,
          46.7195865
        ]
      }
    },
    {
      "type": "Feature",
      "properties": {
        "id": "11682610773",
        "osm_type": "node",
        "lat": 46.7683747,
        "lon": 14.8216918,
        "name": "J. Kehraus",
        "shop": "butcher"
      },
      "geometry": {
        "type": "Point",
        "coordinates": [
          14.8216918,
          46.7683747
        ]
      }
    },
    {
      "type": "Feature",
      "properties": {
        "id": "12058790052",
        "osm_type": "node",
        "lat": 46.5207093,
        "lon": 14.8531482,
        "name": "Mesarija Lečnik",
        "shop": "butcher"
      },
      "geometry": {
        "type": "Point",
        "coordinates": [
          14.8531482,
          46.5207093
        ]
      }
    },
    {
      "type": "Feature",
      "properties": {
        "id": "12062010211",
        "osm_type": "node",
        "lat": 46.4696882,
        "lon": 14.8516247,
        "name": "Mesarija",
        "shop": "butcher"
      },
      "geometry": {
        "type": "Point",
        "coordinates": [
          14.8516247,
          46.4696882
        ]
      }
    },
    {
      "type": "Feature",
      "properties": {
        "id": "924121222",
        "osm_type": "node",
        "lat": 46.8146906,
        "lon": 15.2147984,
        "addr:city": "Deutschlandsberg",
        "addr:housenumber": "10",
        "addr:postcode": "8530",
        "addr:street": "Hauptplatz",
        "contact:email": "kollar.goebl@aon.at",
        "contact:phone": "+43 3462 26 42 14",
        "name": "Kollar-Göbl",
        "shop": "butcher",
        "toilets:wheelchair": "yes",
        "wheelchair": "yes"
      },
      "geometry": {
        "type": "Point",
        "coordinates": [
          15.2147984,
          46.8146906
        ]
      }
    },
    {
      "type": "Feature",
      "properties": {
        "id": "1381410990",
        "osm_type": "node",
        "lat": 46.757067,
        "lon": 15.2007647,
        "name": "Mauthner",
        "shop": "butcher"
      },
      "geometry": {
        "type": "Point",
        "coordinates": [
          15.2007647,
          46.757067
        ]
      }
    },
    {
      "type": "Feature",
      "properties": {
        "id": "1676880996",
        "osm_type": "node",
        "lat": 46.687703,
        "lon": 15.2484236,
        "name": "Lais",
        "shop": "butcher"
      },
      "geometry": {
        "type": "Point",
        "coordinates": [
          15.2484236,
          46.687703
        ]
      }
    },
    {
      "type": "Feature",
      "properties": {
        "id": "10716459805",
        "osm_type": "node",
        "lat": 46.8949809,
        "lon": 14.3315118,
        "addr:postcode": "9341",
        "name": "Seiser",
        "opening_hours": "Mo-Fr 07:00-12:15, 14:45-18:00; Sa 07:00-12:15",
        "phone": "+43204266202225",
        "shop": "butcher",
        "website": "http://fleischerei-seiser.at/"
      },
      "geometry": {
        "type": "Point",
        "coordinates": [
          14.3315118,
          46.8949809
        ]
      }
    },
    {
      "type": "Feature",
      "properties": {
        "id": "1012750741",
        "osm_type": "node",
        "lat": 47.0074305,
        "lon": 14.7406682,
        "name": "Sajowitz",
        "shop": "butcher"
      },
      "geometry": {
        "type": "Point",
        "coordinates": [
          14.7406682,
          47.0074305
        ]
      }
    },
    {
      "type": "Feature",
      "properties": {
        "id": "3378037789",
        "osm_type": "node",
        "lat": 46.7894678,
        "lon": 13.5161784,
        "addr:city": "Spittal an der Drau",
        "addr:country": "AT",
        "addr:housenumber": "92",
        "addr:postcode": "9800",
        "addr:street": "Villacher Straße",
        "email": "spittal@karnerta.at",
        "name": "KARNERTA Fleischmarkt im Kärntnermilch-Markt",
        "opening_hours": "Mo-Fr 07:00-18:00; Sa 07:00-12:00; PH off",
        "phone": "+43 5 9970 2-2100",
        "shop": "butcher",
        "website": "https://www.karnerta.at/"
      },
      "geometry": {
        "type": "Point",
        "coordinates": [
          13.5161784,
          46.7894678
        ]
      }
    },
    {
      "type": "Feature",
      "properties": {
        "id": "3379980694",
        "osm_type": "node",
        "lat": 46.7990615,
        "lon": 13.4960949,
        "addr:city": "Spittal/Drau",
        "addr:housenumber": "5",
        "addr:postcode": "9800",
        "addr:street": "Neuer Platz",
        "name": "Fleischerei Koch",
        "shop": "butcher"
      },
      "geometry": {
        "type": "Point",
        "coordinates": [
          13.4960949,
          46.7990615
        ]
      }
    },
    {
      "type": "Feature",
      "properties": {
        "id": "8979619551",
        "osm_type": "node",
        "lat": 46.619485,
        "lon": 13.5161442,
        "name": "Smole",
        "shop": "butcher"
      },
      "geometry": {
        "type": "Point",
        "coordinates": [
          13.5161442,
          46.619485
        ]
      }
    },
    {
      "type": "Feature",
      "properties": {
        "id": "330245506",
        "osm_type": "node",
        "lat": 46.5936865,
        "lon": 13.8397506,
        "addr:country": "AT",
        "addr:postcode": "9500",
        "name": "Ilgenfritz",
        "shop": "butcher",
        "wheelchair": "yes"
      },
      "geometry": {
        "type": "Point",
        "coordinates": [
          13.8397506,
          46.5936865
        ]
      }
    },
    {
      "type": "Feature",
      "properties": {
        "id": "1312148118",
        "osm_type": "node",
        "lat": 46.6175024,
        "lon": 13.871863,
        "name": "Abholmarkt Marcher",
        "shop": "butcher"
      },
      "geometry": {
        "type": "Point",
        "coordinates": [
          13.871863,
          46.6175024
        ]
      }
    },
    {
      "type": "Feature",
      "properties": {
        "id": "4395969417",
        "osm_type": "node",
        "lat": 46.6138459,
        "lon": 13.8432277,
        "name": "Hartl's",
        "shop": "butcher"
      },
      "geometry": {
        "type": "Point",
        "coordinates": [
          13.8432277,
          46.6138459
        ]
      }
    },
    {
      "type": "Feature",
      "properties": {
        "id": "4396071509",
        "osm_type": "node",
        "lat": 46.6177638,
        "lon": 13.8514636,
        "name": "Frierss",
        "shop": "butcher"
      },
      "geometry": {
        "type": "Point",
        "coordinates": [
          13.8514636,
          46.6177638
        ]
      }
    },
    {
      "type": "Feature",
      "properties": {
        "id": "7649964741",
        "osm_type": "node",
        "lat": 46.823727,
        "lon": 13.8611157,
        "contact:website": "https://nockfleisch.at",
        "name": "Nockfleisch",
        "opening_hours": "Tu-Th 08:30-12:30; Fr 08:30-17:00; Sa 08:00-12:00; Su, Mo, PH off",
        "shop": "butcher"
      },
      "geometry": {
        "type": "Point",
        "coordinates": [
          13.8611157,
          46.823727
        ]
      }
    },
    {
      "type": "Feature",
      "properties": {
        "id": "8899924214",
        "osm_type": "node",
        "lat": 46.6121246,
        "lon": 13.8447668,
        "name": "Butchery",
        "shop": "butcher"
      },
      "geometry": {
        "type": "Point",
        "coordinates": [
          13.8447668,
          46.6121246
        ]
      }
    },
    {
      "type": "Feature",
      "properties": {
        "id": "10138231347",
        "osm_type": "node",
        "lat": 46.5057819,
        "lon": 13.5777217,
        "addr:city": "Tarvisio",
        "addr:housenumber": "1",
        "addr:postcode": "33018",
        "addr:street": "Via IV Novembre",
        "name": "Macelleria Krcivoj",
        "shop": "butcher"
      },
      "geometry": {
        "type": "Point",
        "coordinates": [
          13.5777217,
          46.5057819
        ]
      }
    },
    {
      "type": "Feature",
      "properties": {
        "id": "355897148",
        "osm_type": "node",
        "lat": 46.610527,
        "lon": 14.4686821,
        "name": "Fleischhauer Jurtschitsch",
        "shop": "butcher"
      },
      "geometry": {
        "type": "Point",
        "coordinates": [
          14.4686821,
          46.610527
        ]
      }
    },
    {
      "type": "Feature",
      "properties": {
        "id": "486585641",
        "osm_type": "node",
        "lat": 46.6255924,
        "lon": 14.3067203,
        "addr:city": "Klagenfurt am Wörthersee",
        "addr:country": "AT",
        "addr:housenumber": "4",
        "addr:postcode": "9020",
        "addr:street": "Herrengasse",
        "name": "Rotter",
        "opening_hours": "Sa 07:30-12:30; Mo-Fr 08:00-18:00",
        "operator": "Rotter",
        "shop": "butcher",
        "wheelchair": "yes"
      },
      "geometry": {
        "type": "Point",
        "coordinates": [
          14.3067203,
          46.6255924
        ]
      }
    },
    {
      "type": "Feature",
      "properties": {
        "id": "528170304",
        "osm_type": "node",
        "lat": 46.6244351,
        "lon": 14.3118985,
        "addr:city": "Klagenfurt am Wörthersee",
        "addr:country": "AT",
        "addr:housenumber": "2",
        "addr:postcode": "9020",
        "addr:street": "Kardinalplatz",
        "check_date:opening_hours": "2023-11-12",
        "name": "Fleischhauerrei Fuchs",
        "opening_hours": "Mo-Fr 08:00-13:30; Sa 08:00-12:30; Su off",
        "operator": "Raimund Fuchs",
        "shop": "butcher",
        "wheelchair": "no"
      },
      "geometry": {
        "type": "Point",
        "coordinates": [
          14.3118985,
          46.6244351
        ]
      }
    },
    {
      "type": "Feature",
      "properties": {
        "id": "528986671",
        "osm_type": "node",
        "lat": 46.6226981,
        "lon": 14.3072923,
        "addr:city": "Klagenfurt am Wörthersee",
        "addr:country": "AT",
        "addr:housenumber": "10",
        "addr:postcode": "9020",
        "addr:street": "10.-Oktober-Straße",
        "check_date": "2024-09-30",
        "check_date:opening_hours": "2024-09-30",
        "level": "0",
        "name": "Raimund Plautz",
        "opening_hours": "Mo-We,Fr 08:00-13:30,14:30-18:00; Th 07:30-13:30,14:30-18:00; Sa 07:30-12:15",
        "operator": "Raimund Plautz",
        "payment:cash": "yes",
        "payment:credit_cards": "yes",
        "payment:mastercard": "yes",
        "payment:visa": "yes",
        "shop": "butcher"
      },
      "geometry": {
        "type": "Point",
        "coordinates": [
          14.3072923,
          46.6226981
        ]
      }
    },
    {
      "type": "Feature",
      "properties": {
        "id": "602752588",
        "osm_type": "node",
        "lat": 46.622822,
        "lon": 14.3123764,
        "addr:city": "Klagenfurt am Wörthersee",
        "addr:country": "AT",
        "addr:housenumber": "20",
        "addr:street": "Adlergasse",
        "name": "Fleischerei Woschitz",
        "shop": "butcher",
        "wheelchair": "no"
      },
      "geometry": {
        "type": "Point",
        "coordinates": [
          14.3123764,
          46.622822
        ]
      }
    },
    {
      "type": "Feature",
      "properties": {
        "id": "1433832859",
        "osm_type": "node",
        "lat": 46.6171327,
        "lon": 14.2942524,
        "addr:city": "Klagenfurt am Wörthersee",
        "addr:country": "AT",
        "addr:housenumber": "57",
        "addr:postcode": "9020",
        "addr:street": "Waidmannsdorfer Straße",
        "name": "Grillspezialitäten beim Bato",
        "shop": "butcher",
        "wheelchair": "no"
      },
      "geometry": {
        "type": "Point",
        "coordinates": [
          14.2942524,
          46.6171327
        ]
      }
    },
    {
      "type": "Feature",
      "properties": {
        "id": "1444275933",
        "osm_type": "node",
        "lat": 46.6379733,
        "lon": 14.3317341,
        "addr:city": "Klagenfurt am Wörthersee",
        "addr:country": "AT",
        "addr:housenumber": "151",
        "addr:street": "Pischeldorfer Straße",
        "name": "Fleischerei Jäger",
        "shop": "butcher",
        "wheelchair": "yes"
      },
      "geometry": {
        "type": "Point",
        "coordinates": [
          14.3317341,
          46.6379733
        ]
      }
    },
    {
      "type": "Feature",
      "properties": {
        "id": "1665405262",
        "osm_type": "node",
        "lat": 46.6155944,
        "lon": 14.0428136,
        "name": "Goritschnigg",
        "shop": "butcher"
      },
      "geometry": {
        "type": "Point",
        "coordinates": [
          14.0428136,
          46.6155944
        ]
      }
    },
    {
      "type": "Feature",
      "properties": {
        "id": "4585518311",
        "osm_type": "node",
        "lat": 46.5331485,
        "lon": 14.3039189,
        "addr:city": "Ferlach",
        "addr:country": "AT",
        "addr:housenumber": "31",
        "addr:postcode": "9170",
        "addr:street": "Freibacher Straße",
        "at_bev:addr_date": "2017-10-01",
        "name": "Werner Markowitz e.U.",
        "opening_hours": "Fr 07:00-18:00",
        "shop": "butcher"
      },
      "geometry": {
        "type": "Point",
        "coordinates": [
          14.3039189,
          46.5331485
        ]
      }
    },
    {
      "type": "Feature",
      "properties": {
        "id": "6546977959",
        "osm_type": "node",
        "lat": 46.7679806,
        "lon": 14.3587827,
        "name": "Pfandl Konrad",
        "shop": "butcher"
      },
      "geometry": {
        "type": "Point",
        "coordinates": [
          14.3587827,
          46.7679806
        ]
      }
    },
    {
      "type": "Feature",
      "properties": {
        "id": "11093642959",
        "osm_type": "node",
        "lat": 46.6477132,
        "lon": 14.3147987,
        "addr:city": "Klagenfurt am Wörthersee",
        "addr:housenumber": "194",
        "addr:postcode": "9020",
        "addr:street": "St. Veiter Straße",
        "currency:EUR": "yes",
        "email": "kaerntnerei@frierss.at",
        "name": "Genussraum Frierss",
        "opening_hours": "Mo-Fr 07:30-18:00; Sa 07:30-17:00; Su off",
        "phone": "+43 463 420 450-60",
        "shop": "butcher"
      },
      "geometry": {
        "type": "Point",
        "coordinates": [
          14.3147987,
          46.6477132
        ]
      }
    },
    {
      "type": "Feature",
      "properties": {
        "id": "11343700464",
        "osm_type": "node",
        "lat": 46.6402429,
        "lon": 14.3139458,
        "check_date": "2024-02-19",
        "diet:halal": "yes",
        "level": "0",
        "name": "Halal Metzgerei Arnaut",
        "opening_hours": "Mo-Sa 09:00-18:00; Su,PH off",
        "shop": "butcher"
      },
      "geometry": {
        "type": "Point",
        "coordinates": [
          14.3139458,
          46.6402429
        ]
      }
    },
    {
      "type": "Feature",
      "properties": {
        "id": "11579195355",
        "osm_type": "node",
        "lat": 46.4310543,
        "lon": 14.0690084,
        "name": "Mesarstvo Rešet",
        "operator": "Matjaž Krč s.p.",
        "shop": "butcher"
      },
      "geometry": {
        "type": "Point",
        "coordinates": [
          14.0690084,
          46.4310543
        ]
      }
    },
    {
      "type": "Feature",
      "properties": {
        "id": "11662427613",
        "osm_type": "node",
        "lat": 46.6228423,
        "lon": 14.3058325,
        "addr:city": "Klagenfurt am Wörthersee",
        "addr:housenumber": "15A",
        "addr:postcode": "9020",
        "addr:street": "Benediktinerplatz",
        "name": "Frierss am Markt",
        "opening_hours": "Mo-Sa 07:00-14:00",
        "operator": "Rudolf Frierss & Söhne Fleisch- und Wurstspezialitäten GmbH",
        "phone": "+43 676 843040319",
        "shop": "butcher"
      },
      "geometry": {
        "type": "Point",
        "coordinates": [
          14.3058325,
          46.6228423
        ]
      }
    }
  ],
  "children": []
}