{
  "bbox": {
    "south": 46.372652,
    "west": 11.438358999999998,
    "north": 47.033758500000005,
    "east": 13.345766
  },
  "poiCount": 75,
  "leafCount": 0,
  "averagePosition": [
    11.993536069333333,
    46.67899825066667
  ],
  "data": [],
  "children": [
    {
      "bbox": {
        "south": 46.372652,
        "west": 11.438358999999998,
        "north": 46.70320525,
        "east": 12.392062499999998
      },
      "poiCount": 29,
      "leafCount": 29,
      "averagePosition": [
        11.754282762068966,
        46.52863306206897
      ],
      "data": [
        {
          "type": "Feature",
          "properties": {
            "id": "2840188676",
            "osm_type": "node",
            "lat": 46.5914424,
            "lon": 11.5244549,
            "addr:city": "Barbian - Barbiano",
            "addr:city:de": "Barbian",
            "addr:city:it": "Barbiano",
            "addr:housenumber": "5",
            "addr:postcode": "39040",
            "addr:street": "Kirchweg",
            "email": "info@trocknerspeck.com",
            "fax": "+39 0471 654621",
            "name": "Trockner",
            "operator": "Trockner Sebastian",
            "phone": "+39 0471 654135",
            "shop": "butcher",
            "website": "http://www.trocknerspeck.com/"
          },
          "geometry": {
            "type": "Point",
            "coordinates": [
              11.5244549,
              46.5914424
            ]
          }
        },
        {
          "type": "Feature",
          "properties": {
            "id": "13134834976",
            "osm_type": "node",
            "lat": 46.4990022,
            "lon": 11.4525959,
            "shop": "butcher"
          },
          "geometry": {
            "type": "Point",
            "coordinates": [
              11.4525959,
              46.4990022
            ]
          }
        },
        {
          "type": "Feature",
          "properties": {
            "id": "335690099",
            "osm_type": "node",
            "lat": 46.4992826,
            "lon": 11.8751865,
            "addr:city": "Arabba",
            "addr:housenumber": "47",
            "addr:postcode": "32020",
            "name": "Macelleria Delmonego s.n.c.",
            "shop": "butcher"
          },
          "geometry": {
            "type": "Point",
            "coordinates": [
              11.8751865,
              46.4992826
            ]
          }
        },
        {
          "type": "Feature",
          "properties": {
            "id": "606983327",
            "osm_type": "node",
            "lat": 46.5736395,
            "lon": 11.537475,
            "butcher": "pork",
            "name": "Trocker Speck",
            "shop": "butcher"
          },
          "geometry": {
            "type": "Point",
            "coordinates": [
              11.537475,
              46.5736395
            ]
          }
        },
        {
          "type": "Feature",
          "properties": {
            "id": "722859170",
            "osm_type": "node",
            "lat": 46.4306943,
            "lon": 11.686357,
            "addr:city": "Pozza di Fassa",
            "addr:country": "IT",
            "addr:housenumber": "1",
            "addr:postcode": "38036",
            "addr:street": "Strada de Col de Zecol",
            "cuisine": "chicken;fish;eggs",
            "shop": "butcher",
            "takeaway": "only"
          },
          "geometry": {
            "type": "Point",
            "coordinates": [
              11.686357,
              46.4306943
            ]
          }
        },
        {
          "type": "Feature",
          "properties": {
            "id": "737145771",
            "osm_type": "node",
            "lat": 46.4306008,
            "lon": 11.6868882,
            "addr:city": "Pozza di Fassa",
            "addr:country": "IT",
            "addr:housenumber": "15",
            "addr:postcode": "38036",
            "addr:street": "Strada de Meida",
            "alt_name": "Carpano - Pozza di Fassa",
            "name": "Macelleria Carpano",
            "shop": "butcher",
            "website": "http://www.carpanoshop.com/pozza-di-fassa/"
          },
          "geometry": {
            "type": "Point",
            "coordinates": [
              11.6868882,
              46.4306008
            ]
          }
        },
        {
          "type": "Feature",
          "properties": {
            "id": "866739479",
            "osm_type": "node",
            "lat": 46.3958061,
            "lon": 11.6675122,
            "name": "Macelleria Braido Livio",
            "shop": "butcher"
          },
          "geometry": {
            "type": "Point",
            "coordinates": [
              11.6675122,
              46.3958061
            ]
          }
        },
        {
          "type": "Feature",
          "properties": {
            "id": "946047243",
            "osm_type": "node",
            "lat": 46.4298484,
            "lon": 11.691885,
            "addr:city": "Pozza di Fassa",
            "addr:country": "IT",
            "addr:housenumber": "102",
            "addr:postcode": "38036",
            "addr:street": "Strada de Meida",
            "name": "Macelleria Pezzei Lorenzo",
            "shop": "butcher"
          },
          "geometry": {
            "type": "Point",
            "coordinates": [
              11.691885,
              46.4298484
            ]
          }
        },
        {
          "type": "Feature",
          "properties": {
            "id": "1481506640",
            "osm_type": "node",
            "lat": 46.598408,
            "lon": 11.5323922,
            "name": "Metzgerei Merler",
            "shop": "butcher"
          },
          "geometry": {
            "type": "Point",
            "coordinates": [
              11.5323922,
              46.598408
            ]
          }
        },
        {
          "type": "Feature",
          "properties": {
            "id": "2154207438",
            "osm_type": "node",
            "lat": 46.6990754,
            "lon": 11.9299491,
            "addr:city": "Mareo - Marebbe - Enneberg",
            "addr:city:de": "Enneberg",
            "addr:city:it": "Marebbe",
            "addr:city:lld": "Mareo",
            "addr:hamlet": "San Vigilio",
            "addr:hamlet:de": "St. Vigil",
            "addr:hamlet:it": "San Vigilio",
            "addr:hamlet:lld": "San Vigilio",
            "addr:housenumber": "20",
            "addr:postcode": "39030",
            "addr:street": "Strada Catarina Lanz",
            "addr:street:de": "Straße Catarina Lanz",
            "addr:street:it": "Strada Catarina Lanz",
            "addr:street:lld": "Strada Catarina Lanz",
            "entrance": "yes",
            "name": "Bocaria Call",
            "shop": "butcher"
          },
          "geometry": {
            "type": "Point",
            "coordinates": [
              11.9299491,
              46.6990754
            ]
          }
        },
        {
          "type": "Feature",
          "properties": {
            "id": "2184359868",
            "osm_type": "node",
            "lat": 46.4765045,
            "lon": 11.7410287,
            "name": "Marcelleria Spiedo",
            "opening_hours": "Mo-Sa 08:30-12:00,16:00-19:00",
            "shop": "butcher"
          },
          "geometry": {
            "type": "Point",
            "coordinates": [
              11.7410287,
              46.4765045
            ]
          }
        },
        {
          "type": "Feature",
          "properties": {
            "id": "2749544044",
            "osm_type": "node",
            "lat": 46.5717642,
            "lon": 11.9302804,
            "addr:city": "Badia - Abtei",
            "addr:city:de": "Abtei",
            "addr:city:it": "Badia",
            "addr:city:lld": "Badia",
            "addr:country": "IT",
            "addr:hamlet": "San Ćiascian - St. Kassian - San Cassiano",
            "addr:hamlet:de": "St. Kassian",
            "addr:hamlet:it": "San Cassiano",
            "addr:hamlet:lld": "San Ćiascian",
            "addr:housenumber": "16",
            "addr:postcode": "39030",
            "addr:street": "Strada Micura De Rü",
            "addr:street:de": "Straße Micura De Rü",
            "addr:street:it": "Strada Micura De Rü",
            "addr:street:lld": "Strada Micura De Rü",
            "name": "Pizzinini",
            "name:de": "Metzgerei Pizzinini",
            "name:it": "Macelleria Pizzinini",
            "name:lld": "Bocaria Pizzinini",
            "shop": "butcher"
          },
          "geometry": {
            "type": "Point",
            "coordinates": [
              11.9302804,
              46.5717642
            ]
          }
        },
        {
          "type": "Feature",
          "properties": {
            "id": "2755691864",
            "osm_type": "node",
            "lat": 46.5446675,
            "lon": 11.5599087,
            "addr:city": "Kastelruth - Castelrotto",
            "addr:city:de": "Kastelruth",
            "addr:city:it": "Castelrotto",
            "addr:hamlet": "Seis - Siusi",
            "addr:hamlet:de": "Seis",
            "addr:hamlet:it": "Siusi",
            "addr:housenumber": "1a",
            "addr:postcode": "39040",
            "addr:street": "Oswald von Wolkenstein-Platz - Piazza Oswald von Wolkenstein",
            "addr:street:de": "Oswald von Wolkenstein-Platz",
            "addr:street:it": "Piazza Oswald von Wolkenstein",
            "name": "Macelleria Stefan",
            "name:it": "Macelleria Stefan",
            "opening_hours": "Mo-Sa 07:00-12:30,15:00-19:00",
            "shop": "butcher",
            "wheelchair": "yes"
          },
          "geometry": {
            "type": "Point",
            "coordinates": [
              11.5599087,
              46.5446675
            ]
          }
        },
        {
          "type": "Feature",
          "properties": {
            "id": "2755710041",
            "osm_type": "node",
            "lat": 46.6691179,
            "lon": 11.5502523,
            "addr:city": "Klausen - Chiusa",
            "addr:city:de": "Klausen",
            "addr:city:it": "Chiusa",
            "addr:hamlet": "Latzfons - Lazfons",
            "addr:hamlet:de": "Latzfons",
            "addr:hamlet:it": "Lazfons",
            "addr:housenumber": "27",
            "addr:postcode": "39043",
            "addr:street": "Dorfstraße - Via Paese",
            "addr:street:de": "Dorfstraße",
            "addr:street:it": "Via Paese",
            "name": "Pfattner Johann",
            "shop": "butcher"
          },
          "geometry": {
            "type": "Point",
            "coordinates": [
              11.5502523,
              46.6691179
            ]
          }
        },
        {
          "type": "Feature",
          "properties": {
            "id": "2756043853",
            "osm_type": "node",
            "lat": 46.5729809,
            "lon": 11.6753115,
            "addr:city": "Urtijëi - St.Ulrich - Ortisei",
            "addr:city:de": "St.Ulrich",
            "addr:city:it": "Ortisei",
            "addr:city:lld": "Urtijëi",
            "addr:housenumber": "165",
            "addr:postcode": "39046",
            "addr:street": "Streda Rezia",
            "addr:street:de": "Rezia-Straße",
            "addr:street:it": "Via Rezia",
            "addr:street:lld": "Streda Rezia",
            "name": "Maso dello Speck",
            "phone": "+39 0471 798612",
            "shop": "butcher",
            "website": "https://www.valgardena.it/en/addresses/detail/base/poi/ortisei-val-gardena/maso-dello-speck/EF7FA6FC6FD24049AE95599CDB5525C6/"
          },
          "geometry": {
            "type": "Point",
            "coordinates": [
              11.6753115,
              46.5729809
            ]
          }
        },
        {
          "type": "Feature",
          "properties": {
            "id": "3073675508",
            "osm_type": "node",
            "lat": 46.4816309,
            "lon": 11.9540439,
            "addr:city": "Livinallongo del Col di Lana",
            "addr:housenumber": "235",
            "addr:postcode": "32020",
            "addr:street": "via Pieve",
            "name": "Macelleria Ploner",
            "opening_hours": "Mo-Fr 08:00-12:00, 15:00-18:00",
            "phone": "+39 0436 7132",
            "shop": "butcher",
            "source": "local knowledge"
          },
          "geometry": {
            "type": "Point",
            "coordinates": [
              11.9540439,
              46.4816309
            ]
          }
        },
        {
          "type": "Feature",
          "properties": {
            "id": "3385955616",
            "osm_type": "node",
            "lat": 46.4767615,
            "lon": 11.7726068,
            "name": "Carpano Macelleria",
            "shop": "butcher"
          },
          "geometry": {
            "type": "Point",
            "coordinates": [
              11.7726068,
              46.4767615
            ]
          }
        },
        {
          "type": "Feature",
          "properties": {
            "id": "3979761600",
            "osm_type": "node",
            "lat": 46.4309772,
            "lon": 11.5423374,
            "name": "Metzgerei Pattis",
            "shop": "butcher"
          },
          "geometry": {
            "type": "Point",
            "coordinates": [
              11.5423374,
              46.4309772
            ]
          }
        },
        {
          "type": "Feature",
          "properties": {
            "id": "4326501397",
            "osm_type": "node",
            "lat": 46.4206533,
            "lon": 11.6736985,
            "check_date": "2025-04-20",
            "name": "Macelleria Bolgi",
            "shop": "butcher"
          },
          "geometry": {
            "type": "Point",
            "coordinates": [
              11.6736985,
              46.4206533
            ]
          }
        },
        {
          "type": "Feature",
          "properties": {
            "id": "4326504293",
            "osm_type": "node",
            "lat": 46.420808,
            "lon": 11.6718119,
            "addr:city": "San Giovanni di Fassa",
            "addr:country": "IT",
            "addr:housenumber": "9",
            "addr:postcode": "38034",
            "addr:street": "Strada Daniel Zen",
            "check_date": "2024-07-25",
            "name": "Macelleria Pellegrini",
            "phone": "+39 0462 763156",
            "shop": "butcher"
          },
          "geometry": {
            "type": "Point",
            "coordinates": [
              11.6718119,
              46.420808
            ]
          }
        },
        {
          "type": "Feature",
          "properties": {
            "id": "5442453643",
            "osm_type": "node",
            "lat": 46.5546712,
            "lon": 11.7610649,
            "addr:city": "Sëlva - Wolkenstein in Gröden - Selva di Val Gardena",
            "addr:housenumber": "49",
            "addr:postcode": "39048",
            "addr:street": "Streda Nives",
            "name": "Pramstraller",
            "name:de": "Metzgerei Pramstraller",
            "name:it": "Macelleria Pramstraller",
            "phone": "+39 0471 794250",
            "shop": "butcher",
            "website": "https://www.valgardena.it/en/addresses/detail/base/poi/selva-val-gardena/butcher-s-shop-pramstraller-f-co/1CC40D383C304A4884E9DD321D12F985/"
          },
          "geometry": {
            "type": "Point",
            "coordinates": [
              11.7610649,
              46.5546712
            ]
          }
        },
        {
          "type": "Feature",
          "properties": {
            "id": "5468810923",
            "osm_type": "node",
            "lat": 46.6092305,
            "lon": 11.5668757,
            "addr:housenumber": "39a",
            "addr:postcode": "39040",
            "addr:street": "Walther-von-der-Vogelweide-Straße",
            "name": "Metzgerei Ploner - Macelleria Ploner",
            "name:de": "Metzgerei Ploner",
            "name:it": "Macelleria Ploner",
            "opening_hours": "Mo-Fr 08:00-12:00, 15:00-19:00; Sa 08:00-12:00",
            "phone": "+39 0471 655682",
            "shop": "butcher"
          },
          "geometry": {
            "type": "Point",
            "coordinates": [
              11.5668757,
              46.6092305
            ]
          }
        },
        {
          "type": "Feature",
          "properties": {
            "id": "9144797407",
            "osm_type": "node",
            "lat": 46.476027,
            "lon": 11.7404643,
            "addr:housenumber": "64",
            "addr:street": "Strèda Dolomites",
            "name": "La Anita delle Speck",
            "operator": "La Baita dello Speck Sas",
            "ref:vatin": "IT02214550226",
            "shop": "butcher"
          },
          "geometry": {
            "type": "Point",
            "coordinates": [
              11.7404643,
              46.476027
            ]
          }
        },
        {
          "type": "Feature",
          "properties": {
            "id": "10106661361",
            "osm_type": "node",
            "lat": 46.567393,
            "lon": 11.5602334,
            "addr:city": "Kastelruth - Castelrotto",
            "name": "Silbernagl",
            "opening_hours": "Mo-Sa 08:00-12:30,15:00-19:00",
            "shop": "butcher",
            "website": "https://www.metzgerei-silbernagl.it/",
            "wheelchair": "no"
          },
          "geometry": {
            "type": "Point",
            "coordinates": [
              11.5602334,
              46.567393
            ]
          }
        },
        {
          "type": "Feature",
          "properties": {
            "id": "12876209638",
            "osm_type": "node",
            "lat": 46.6848259,
            "lon": 11.5365364,
            "contact:city": "Klausen - Chiusa",
            "contact:city:de": "Klausen",
            "contact:city:it": "Chiusa",
            "contact:hamlet": "Latzfons - Lazfons",
            "contact:hamlet:de": "Latzfons",
            "contact:hamlet:it": "Lazfons",
            "contact:housenumber": "24",
            "contact:phone": "+39 328 2220979",
            "contact:postcode": "39043",
            "contact:street": "Runggen",
            "contact:website": "https://www.gruenbergerputen.net/",
            "description:de": "Direktvermarktung Putenfleisch",
            "name": "Grünberger Puten",
            "operator": "Fam. Meraner",
            "organic": "yes",
            "shop": "butcher"
          },
          "geometry": {
            "type": "Point",
            "coordinates": [
              11.5365364,
              46.6848259
            ]
          }
        },
        {
          "type": "Feature",
          "properties": {
            "id": "922493500",
            "osm_type": "node",
            "lat": 46.6900356,
            "lon": 12.3665335,
            "shop": "butcher"
          },
          "geometry": {
            "type": "Point",
            "coordinates": [
              12.3665335,
              46.6900356
            ]
          }
        },
        {
          "type": "Feature",
          "properties": {
            "id": "6269603737",
            "osm_type": "node",
            "lat": 46.7010057,
            "lon": 12.3511208,
            "addr:city": "Sexten - Sesto",
            "addr:housenumber": "21",
            "addr:street": "Dolomitenstraße - Via Dolomiti",
            "contact:email": "info@villgrater.bz",
            "contact:phone": "+39474710361",
            "contact:website": "https://www.villgrater.bz/",
            "name": "Villgrater",
            "shop": "butcher"
          },
          "geometry": {
            "type": "Point",
            "coordinates": [
              12.3511208,
              46.7010057
            ]
          }
        },
        {
          "type": "Feature",
          "properties": {
            "id": "9984094694",
            "osm_type": "node",
            "lat": 46.374268,
            "lon": 12.1301564,
            "addr:city": "Val di Zoldo",
            "addr:housenumber": "10",
            "addr:postcode": "32012",
            "addr:street": "Via Fusine",
            "name": "Mc Macelleria",
            "shop": "butcher"
          },
          "geometry": {
            "type": "Point",
            "coordinates": [
              12.1301564,
              46.374268
            ]
          }
        },
        {
          "type": "Feature",
          "properties": {
            "id": "11081552340",
            "osm_type": "node",
            "lat": 46.4592363,
            "lon": 12.2052386,
            "addr:city": "San Vito di Cadore",
            "addr:housenumber": "104",
            "addr:street": "Corso Italia",
            "name": "Macelleria de Villa",
            "opening_hours": "Mo-Tu,Th-Sa 08:30-12:30, 16:00-19:00; We 08:30-12:30; Su closed",
            "shop": "butcher",
            "source": "survey",
            "website": "https://www.macelleriadevilla.it/"
          },
          "geometry": {
            "type": "Point",
            "coordinates": [
              12.2052386,
              46.4592363
            ]
          }
        }
      ],
      "children": []
    },
    {
      "bbox": {
        "south": 46.372652,
        "west": 12.392062499999998,
        "north": 46.70320525,
        "east": 13.345766
      },
      "poiCount": 8,
      "leafCount": 8,
      "averagePosition": [
        12.900197725,
        46.5617713125
      ],
      "data": [
        {
          "type": "Feature",
          "properties": {
            "id": "967061110",
            "osm_type": "node",
            "lat": 46.4848083,
            "lon": 12.4452238,
            "addr:housenumber": "210",
            "name": "Lasc",
            "shop": "butcher"
          },
          "geometry": {
            "type": "Point",
            "coordinates": [
              12.4452238,
              46.4848083
            ]
          }
        },
        {
          "type": "Feature",
          "properties": {
            "id": "1540327330",
            "osm_type": "node",
            "lat": 46.5520548,
            "lon": 12.8525438,
            "name": "Macelleria Bacchetta Michele",
            "shop": "butcher"
          },
          "geometry": {
            "type": "Point",
            "coordinates": [
              12.8525438,
              46.5520548
            ]
          }
        },
        {
          "type": "Feature",
          "properties": {
            "id": "1882709553",
            "osm_type": "node",
            "lat": 46.530192,
            "lon": 13.017123,
            "name": "Il Salumiere",
            "shop": "butcher"
          },
          "geometry": {
            "type": "Point",
            "coordinates": [
              13.017123,
              46.530192
            ]
          }
        },
        {
          "type": "Feature",
          "properties": {
            "id": "2853608294",
            "osm_type": "node",
            "lat": 46.4832566,
            "lon": 12.8651382,
            "name": "Macelleria Martinis",
            "shop": "butcher"
          },
          "geometry": {
            "type": "Point",
            "coordinates": [
              12.8651382,
              46.4832566
            ]
          }
        },
        {
          "type": "Feature",
          "properties": {
            "id": "5136377309",
            "osm_type": "node",
            "lat": 46.678391,
            "lon": 13.0050469,
            "name": "Fleischerei Engl",
            "operator": "Engel",
            "shop": "butcher"
          },
          "geometry": {
            "type": "Point",
            "coordinates": [
              13.0050469,
              46.678391
            ]
          }
        },
        {
          "type": "Feature",
          "properties": {
            "id": "5198563121",
            "osm_type": "node",
            "lat": 46.7018044,
            "lon": 12.7852066,
            "addr:city": "Sankt Lorenzen im Lesachtal",
            "addr:country": "AT",
            "addr:postcode": "9654",
            "addr:street": "Gailtal Bundesstraße",
            "name": "Lesachtaler Fleisch Markus Salcher",
            "name:en": "Lesachtaler Fleisch",
            "opening_hours": "Mo-Sa 09:00-12:00",
            "operator": "Markus und Leo Salcher OG",
            "phone": "+434716227",
            "shop": "butcher",
            "website": "https://www.lesachtaler-fleisch.at/"
          },
          "geometry": {
            "type": "Point",
            "coordinates": [
              12.7852066,
              46.7018044
            ]
          }
        },
        {
          "type": "Feature",
          "properties": {
            "id": "2422472376",
            "osm_type": "node",
            "lat": 46.5315078,
            "lon": 13.115533,
            "name": "Macelleria Del Negro",
            "shop": "butcher"
          },
          "geometry": {
            "type": "Point",
            "coordinates": [
              13.115533,
              46.5315078
            ]
          }
        },
        {
          "type": "Feature",
          "properties": {
            "id": "2422472377",
            "osm_type": "node",
            "lat": 46.5321556,
            "lon": 13.1157665,
            "name": "Macelleria Sgardello",
            "shop": "butcher"
          },
          "geometry": {
            "type": "Point",
            "coordinates": [
              13.1157665,
              46.5321556
            ]
          }
        }
      ],
      "children": []
    },
    {
      "bbox": {
        "south": 46.70320525,
        "west": 11.438358999999998,
        "north": 47.033758500000005,
        "east": 12.392062499999998
      },
      "poiCount": 32,
      "leafCount": 32,
      "averagePosition": [
        11.850794615625,
        46.8107115875
      ],
      "data": [
        {
          "type": "Feature",
          "properties": {
            "id": "2749725030",
            "osm_type": "node",
            "lat": 46.8812765,
            "lon": 11.4599412,
            "addr:city": "Freienfeld - Campo di Trens",
            "addr:city:de": "Freienfeld",
            "addr:city:it": "Campo di Trens",
            "addr:housenumber": "11",
            "addr:place": "Sprechenstein - Castelpietra",
            "addr:place:de": "Sprechenstein",
            "addr:place:it": "Castelpietra",
            "addr:postcode": "39040",
            "name": "Wipplamb",
            "opening_hours": "Sa 09:00-13:00",
            "operator": "Wipplamb Gen.m.b.H.",
            "phone": "+39 0472 766 800",
            "shop": "butcher",
            "website": "http://www.wippland.com/"
          },
          "geometry": {
            "type": "Point",
            "coordinates": [
              11.4599412,
              46.8812765
            ]
          }
        },
        {
          "type": "Feature",
          "properties": {
            "id": "2749726271",
            "osm_type": "node",
            "lat": 46.8765899,
            "lon": 11.4851218,
            "addr:city": "Freienfeld - Campo di Trens",
            "addr:city:de": "Freienfeld",
            "addr:city:it": "Campo di Trens",
            "addr:hamlet": "Trens",
            "addr:housenumber": "4",
            "addr:postcode": "39040",
            "addr:street": "Innozenz-Barat-Straße - Via Innozenz Barat",
            "addr:street:de": "Innozenz-Barat-Straße",
            "addr:street:it": "Via Innozenz Barat",
            "name": "Arthur’s Mountain Meat",
            "operator": "Arthur Mair, Prezhof",
            "phone": "+39 333 749 35 74",
            "shop": "butcher",
            "website": "https://mountain-meat.it/"
          },
          "geometry": {
            "type": "Point",
            "coordinates": [
              11.4851218,
              46.8765899
            ]
          }
        },
        {
          "type": "Feature",
          "properties": {
            "id": "5502367818",
            "osm_type": "node",
            "lat": 47.0028985,
            "lon": 11.5046221,
            "description:de": "Wurstwaren",
            "description:it": "Salumeria",
            "shop": "butcher"
          },
          "geometry": {
            "type": "Point",
            "coordinates": [
              11.5046221,
              47.0028985
            ]
          }
        },
        {
          "type": "Feature",
          "properties": {
            "id": "1824065563",
            "osm_type": "node",
            "lat": 46.8993655,
            "lon": 11.9397254,
            "name": "Metzgerei Schneider",
            "shop": "butcher"
          },
          "geometry": {
            "type": "Point",
            "coordinates": [
              11.9397254,
              46.8993655
            ]
          }
        },
        {
          "type": "Feature",
          "properties": {
            "id": "2616694249",
            "osm_type": "node",
            "lat": 46.9191924,
            "lon": 11.9516855,
            "name": "Oberhuber",
            "name:de": "Oberhuber",
            "opening_hours": "Mo-Fr 08:00-12:00, 15:00-18:30; Sa 08:00-12:00",
            "shop": "butcher"
          },
          "geometry": {
            "type": "Point",
            "coordinates": [
              11.9516855,
              46.9191924
            ]
          }
        },
        {
          "type": "Feature",
          "properties": {
            "id": "3661327805",
            "osm_type": "node",
            "lat": 46.8901615,
            "lon": 11.862802,
            "shop": "butcher"
          },
          "geometry": {
            "type": "Point",
            "coordinates": [
              11.862802,
              46.8901615
            ]
          }
        },
        {
          "type": "Feature",
          "properties": {
            "id": "5282293776",
            "osm_type": "node",
            "lat": 46.994514,
            "lon": 11.9786988,
            "addr:city": "Ahrntal - Valle Aurina",
            "addr:country": "IT",
            "addr:housenumber": "71",
            "addr:postcode": "39030",
            "addr:street": "Klausbergstraße - Via Klausberg",
            "name": "Ahrentaler Metzgerei",
            "shop": "butcher"
          },
          "geometry": {
            "type": "Point",
            "coordinates": [
              11.9786988,
              46.994514
            ]
          }
        },
        {
          "type": "Feature",
          "properties": {
            "id": "5811801584",
            "osm_type": "node",
            "lat": 46.9510214,
            "lon": 11.920298,
            "check_date": "2024-03-31",
            "contact:email": "info@ahrnaspeck.com",
            "contact:phone": "+39 0474 671292",
            "contact:website": "http://www.metzgerei-obermair.com/",
            "name": "Metzgerei Obermair",
            "opening_hours": "Mo-Fr 08:00-12:00,15:00-18:30; Sa 8:00-12:00",
            "operator": "Otmar Obermair, Luttach",
            "shop": "butcher"
          },
          "geometry": {
            "type": "Point",
            "coordinates": [
              11.920298,
              46.9510214
            ]
          }
        },
        {
          "type": "Feature",
          "properties": {
            "id": "5827963377",
            "osm_type": "node",
            "lat": 46.8994896,
            "lon": 11.9429863,
            "name": "Ahrntaler Metzgerei",
            "shop": "butcher"
          },
          "geometry": {
            "type": "Point",
            "coordinates": [
              11.9429863,
              46.8994896
            ]
          }
        },
        {
          "type": "Feature",
          "properties": {
            "id": "492213899",
            "osm_type": "node",
            "lat": 46.7099138,
            "lon": 11.6613879,
            "name": "Metzgerei Schanung",
            "opening_hours": "Mo-Sa 08:00-12:30, Mo-Fr 15:00-19:00",
            "shop": "butcher"
          },
          "geometry": {
            "type": "Point",
            "coordinates": [
              11.6613879,
              46.7099138
            ]
          }
        },
        {
          "type": "Feature",
          "properties": {
            "id": "939108205",
            "osm_type": "node",
            "lat": 46.807453,
            "lon": 11.5740341,
            "shop": "butcher"
          },
          "geometry": {
            "type": "Point",
            "coordinates": [
              11.5740341,
              46.807453
            ]
          }
        },
        {
          "type": "Feature",
          "properties": {
            "id": "1128111185",
            "osm_type": "node",
            "lat": 46.7630091,
            "lon": 11.6807624,
            "name": "Viumser Speck",
            "shop": "butcher",
            "wheelchair": "limited"
          },
          "geometry": {
            "type": "Point",
            "coordinates": [
              11.6807624,
              46.7630091
            ]
          }
        },
        {
          "type": "Feature",
          "properties": {
            "id": "1296017914",
            "osm_type": "node",
            "lat": 46.7930658,
            "lon": 11.9307425,
            "addr:city": "Bruneck - Brunico",
            "addr:country": "IT",
            "addr:housenumber": "6a",
            "addr:postcode": "39031",
            "addr:street": "Sankt Lorenzner Straße - Via San Lorenzo",
            "name": "Stolzlechner",
            "shop": "butcher"
          },
          "geometry": {
            "type": "Point",
            "coordinates": [
              11.9307425,
              46.7930658
            ]
          }
        },
        {
          "type": "Feature",
          "properties": {
            "id": "1653040298",
            "osm_type": "node",
            "lat": 46.783243,
            "lon": 11.9014811,
            "addr:city": "Sankt Lorenzen",
            "addr:country": "IT",
            "addr:housenumber": "16",
            "addr:postcode": "39030",
            "addr:street": "Josef-Renzler-Straße",
            "name": "Baumgartner",
            "shop": "butcher"
          },
          "geometry": {
            "type": "Point",
            "coordinates": [
              11.9014811,
              46.783243
            ]
          }
        },
        {
          "type": "Feature",
          "properties": {
            "id": "1924964657",
            "osm_type": "node",
            "lat": 46.8062867,
            "lon": 11.8354486,
            "addr:city": "Kiens - Chienes",
            "addr:city:de": "Kiens",
            "addr:city:it": "Chienes",
            "addr:country": "IT",
            "addr:housenumber": "8",
            "addr:postcode": "39030",
            "addr:street": "Pustertaler Straße - Via Valle Pusteria",
            "addr:street:de": "Pustertaler Straße",
            "addr:street:it": "Via Valle Pusteria",
            "name": "Mair",
            "opening_hours": "Mo-Fr 07:30-12:00,15:00-18:30; Sa 07:30-12:00",
            "shop": "butcher"
          },
          "geometry": {
            "type": "Point",
            "coordinates": [
              11.8354486,
              46.8062867
            ]
          }
        },
        {
          "type": "Feature",
          "properties": {
            "id": "2015440892",
            "osm_type": "node",
            "lat": 46.8070682,
            "lon": 11.8370377,
            "name": "Ploner",
            "shop": "butcher"
          },
          "geometry": {
            "type": "Point",
            "coordinates": [
              11.8370377,
              46.8070682
            ]
          }
        },
        {
          "type": "Feature",
          "properties": {
            "id": "2294713130",
            "osm_type": "node",
            "lat": 46.8171914,
            "lon": 11.7234018,
            "name": "Stampfl",
            "shop": "butcher"
          },
          "geometry": {
            "type": "Point",
            "coordinates": [
              11.7234018,
              46.8171914
            ]
          }
        },
        {
          "type": "Feature",
          "properties": {
            "id": "2427876852",
            "osm_type": "node",
            "lat": 46.7163548,
            "lon": 11.6554109,
            "diet:halal": "no",
            "diet:kosher": "no",
            "name": "Thomas Fink",
            "opening_hours": "Mo-Fr 08:30-12:30,15:00-18:00; Sa 08:30-12:30",
            "shop": "butcher"
          },
          "geometry": {
            "type": "Point",
            "coordinates": [
              11.6554109,
              46.7163548
            ]
          }
        },
        {
          "type": "Feature",
          "properties": {
            "id": "2429269704",
            "osm_type": "node",
            "lat": 46.7153211,
            "lon": 11.6548558,
            "addr:city": "Brixen - Bressanone",
            "addr:housenumber": "7",
            "addr:postcode": "39042",
            "addr:street": "Regensburger Allee - Viale Ratisbona",
            "diet:halal": "no",
            "diet:kosher": "no",
            "name": "Metzgerei Heinz Macelleria",
            "note": "Dont’t know if these opening hours will stays the same in the future or if they are temporary due to the corona crisis.",
            "opening_hours": "Mo-Tu 08:30-12:00; We-Fr 08:30-12:00, 15:30-18:00; Sa 08:30-12:30",
            "phone": "+39 0472 832048",
            "shop": "butcher",
            "wheelchair": "yes"
          },
          "geometry": {
            "type": "Point",
            "coordinates": [
              11.6548558,
              46.7153211
            ]
          }
        },
        {
          "type": "Feature",
          "properties": {
            "id": "2440274875",
            "osm_type": "node",
            "lat": 46.7388704,
            "lon": 11.6361675,
            "name": "Amort",
            "shop": "butcher"
          },
          "geometry": {
            "type": "Point",
            "coordinates": [
              11.6361675,
              46.7388704
            ]
          }
        },
        {
          "type": "Feature",
          "properties": {
            "id": "2615596534",
            "osm_type": "node",
            "lat": 46.8351449,
            "lon": 11.9473658,
            "check_date": "2025-08-10",
            "name": "Stolzlechner",
            "opening_hours": "Mo-Fr 08:00-12:00,15:00-18:30; Sa 08:00-12:00; Su off",
            "shop": "butcher",
            "wheelchair": "yes"
          },
          "geometry": {
            "type": "Point",
            "coordinates": [
              11.9473658,
              46.8351449
            ]
          }
        },
        {
          "type": "Feature",
          "properties": {
            "id": "2755887714",
            "osm_type": "node",
            "lat": 46.7968539,
            "lon": 11.6676412,
            "addr:city": "Mühlbach - Rio di Pusteria",
            "addr:city:de": "Mühlbach",
            "addr:city:it": "Rio di Pusteria",
            "addr:housenumber": "68",
            "addr:postcode": "39037",
            "addr:street": "Katharina-Lanz-Straße - Via Katharina Lanz",
            "addr:street:de": "Katharina-Lanz-Straße",
            "addr:street:it": "Via Katharina Lanz",
            "name": "Metzgerei Pichler",
            "shop": "butcher"
          },
          "geometry": {
            "type": "Point",
            "coordinates": [
              11.6676412,
              46.7968539
            ]
          }
        },
        {
          "type": "Feature",
          "properties": {
            "id": "3696111668",
            "osm_type": "node",
            "lat": 46.709412,
            "lon": 11.6516034,
            "name": "Vontavon",
            "shop": "butcher"
          },
          "geometry": {
            "type": "Point",
            "coordinates": [
              11.6516034,
              46.709412
            ]
          }
        },
        {
          "type": "Feature",
          "properties": {
            "id": "12196493906",
            "osm_type": "node",
            "lat": 46.7333826,
            "lon": 11.6491063,
            "name": "Rainer",
            "opening_hours": "Mo-Tu 08:00-12:15; 15:30-18:30; We 08:00-12:15; Th-Fr 08:00-12:15; 15:30-18:30; Sa 08:00-12:15",
            "shop": "butcher"
          },
          "geometry": {
            "type": "Point",
            "coordinates": [
              11.6491063,
              46.7333826
            ]
          }
        },
        {
          "type": "Feature",
          "properties": {
            "id": "279714471",
            "osm_type": "node",
            "lat": 46.7358491,
            "lon": 12.2240442,
            "shop": "butcher"
          },
          "geometry": {
            "type": "Point",
            "coordinates": [
              12.2240442,
              46.7358491
            ]
          }
        },
        {
          "type": "Feature",
          "properties": {
            "id": "2042483094",
            "osm_type": "node",
            "lat": 46.7783208,
            "lon": 12.0487208,
            "name": "Metzgerei Steiner",
            "shop": "butcher"
          },
          "geometry": {
            "type": "Point",
            "coordinates": [
              12.0487208,
              46.7783208
            ]
          }
        },
        {
          "type": "Feature",
          "properties": {
            "id": "2333491017",
            "osm_type": "node",
            "lat": 46.7320614,
            "lon": 12.2826755,
            "addr:city": "Innichen - San Candido",
            "addr:country": "IT",
            "addr:housenumber": "4",
            "addr:postcode": "39038",
            "addr:street": "Alter Markt - Mercato Vecchio",
            "check_date:opening_hours": "2025-09-11",
            "email": "info@senfter-metzgerei.it",
            "level": "0",
            "name": "Senfter",
            "opening_hours": "Mo-Sa 08:30-12:00,15:00-19:00",
            "phone": "+39 0474 913139",
            "shop": "butcher",
            "website": "https://www.senfter-metzgerei.it/it/home",
            "wheelchair": "yes"
          },
          "geometry": {
            "type": "Point",
            "coordinates": [
              12.2826755,
              46.7320614
            ]
          }
        },
        {
          "type": "Feature",
          "properties": {
            "id": "2755898353",
            "osm_type": "node",
            "lat": 46.7375474,
            "lon": 12.1707601,
            "contact:city": "Niederdorf - Villabassa",
            "contact:city:de": "Niederdorf",
            "contact:city:it": "Villabassa",
            "contact:housenumber": "12",
            "contact:postcode": "39039",
            "contact:street": "Frau-Emma-Straße - Via Frau Emma",
            "contact:street:de": "Frau-Emma-Straße",
            "contact:street:it": "Via Frau Emma",
            "name": "Metzgerei Weissteiner",
            "phone": "+39 0474 745110",
            "shop": "butcher"
          },
          "geometry": {
            "type": "Point",
            "coordinates": [
              12.1707601,
              46.7375474
            ]
          }
        },
        {
          "type": "Feature",
          "properties": {
            "id": "2755901630",
            "osm_type": "node",
            "lat": 46.7613658,
            "lon": 12.0313701,
            "addr:city": "Olang - Valdaora",
            "addr:city:de": "Olang",
            "addr:city:it": "Valdaora",
            "addr:hamlet": "Mitterolang - Valdaora di Mezzo",
            "addr:hamlet:de": "Mitterolang",
            "addr:hamlet:it": "Valdaora di Mezzo",
            "addr:housenumber": "1",
            "addr:postcode": "39030",
            "addr:street": "Florianiplatz - Piazza Floriani",
            "addr:street:de": "Florianiplatz",
            "addr:street:it": "Piazza Floriani",
            "check_date": "2025-08-09",
            "name": "Meatery",
            "opening_hours": "Mo-Fr 08:00-12:00,15:00-19:00; Sa 08:00-12:00,15:00-18:00",
            "payment:coins": "yes",
            "payment:maestro": "yes",
            "payment:notes": "yes",
            "phone": "+39 0474 496216",
            "shop": "butcher",
            "website": "https://www.meatery.eu",
            "wheelchair": "yes"
          },
          "geometry": {
            "type": "Point",
            "coordinates": [
              12.0313701,
              46.7613658
            ]
          }
        },
        {
          "type": "Feature",
          "properties": {
            "id": "4401627448",
            "osm_type": "node",
            "lat": 46.8590964,
            "lon": 12.0998662,
            "name": "Steiner",
            "shop": "butcher"
          },
          "geometry": {
            "type": "Point",
            "coordinates": [
              12.0998662,
              46.8590964
            ]
          }
        },
        {
          "type": "Feature",
          "properties": {
            "id": "13073881247",
            "osm_type": "node",
            "lat": 46.7584061,
            "lon": 12.0345053,
            "addr:city": "Olang - Valdaora",
            "addr:housenumber": "11",
            "addr:postcode": "39030",
            "addr:street": "Rodelbahnweg - Via dello Slittino",
            "contact:email": "info@pittola.com",
            "contact:facebook": "https://www.facebook.com/profile.php?id=61566119834805",
            "contact:instagram": "https://www.instagram.com/pittola_ethical_meat/",
            "mobile": "+39 327 4321336",
            "name": "Pittola – Ethical Meat",
            "opening_hours": "24/7",
            "shop": "butcher",
            "website": "https://www.pittola.com"
          },
          "geometry": {
            "type": "Point",
            "coordinates": [
              12.0345053,
              46.7584061
            ]
          }
        },
        {
          "type": "Feature",
          "properties": {
            "id": "13143970400",
            "osm_type": "node",
            "lat": 46.7330438,
            "lon": 12.2811574,
            "shop": "butcher"
          },
          "geometry": {
            "type": "Point",
            "coordinates": [
              12.2811574,
              46.7330438
            ]
          }
        }
      ],
      "children": []
    },
    {
      "bbox": {
        "south": 46.70320525,
        "west": 12.392062499999998,
        "north": 47.033758500000005,
        "east": 13.345766
      },
      "poiCount": 6,
      "leafCount": 6,
      "averagePosition": [
        12.7023326,
        46.859594783333335
      ],
      "data": [
        {
          "type": "Feature",
          "properties": {
            "id": "1640305065",
            "osm_type": "node",
            "lat": 47.0007111,
            "lon": 12.5385436,
            "addr:city": "Matrei in Osttirol",
            "addr:country": "AT",
            "addr:housenumber": "7",
            "addr:postcode": "9971",
            "addr:street": "Rauterplatz",
            "brewery": "Gösser",
            "email": "office@henkele.at",
            "fax": "+43-4875-6464-4",
            "name": "Fleischerei Mühlstätter",
            "opening_hours": "Mo-Fr 07:30-18:30; Sa 07:30-16:00",
            "phone": "+43-4875-6464",
            "shop": "butcher",
            "website": "https://www.henkele.at/"
          },
          "geometry": {
            "type": "Point",
            "coordinates": [
              12.5385436,
              47.0007111
            ]
          }
        },
        {
          "type": "Feature",
          "properties": {
            "id": "11655858941",
            "osm_type": "node",
            "lat": 47.0019144,
            "lon": 12.5406468,
            "addr:city": "Matrei in Osttirol",
            "addr:country": "AT",
            "addr:housenumber": "3a",
            "addr:postcode": "9971",
            "addr:street": "Grabenweg",
            "fax": "+43-4875-6101-4",
            "name": "Dornauer",
            "opening_hours": "Mo-Sa 08:00-19:00",
            "phone": "+43-4875-6101",
            "shop": "butcher"
          },
          "geometry": {
            "type": "Point",
            "coordinates": [
              12.5406468,
              47.0019144
            ]
          }
        },
        {
          "type": "Feature",
          "properties": {
            "id": "1375887274",
            "osm_type": "node",
            "lat": 46.7477582,
            "lon": 12.4185952,
            "addr:city": "Sillian",
            "addr:country": "AT",
            "addr:housenumber": "96",
            "addr:place": "Sillian",
            "addr:postcode": "9020",
            "email": "office@metzgerei-ortner.at",
            "name": "Metzgerei Ortner",
            "phone": "+43 4842 625077",
            "shop": "butcher",
            "website": "https://www.metzgerei-ortner.at"
          },
          "geometry": {
            "type": "Point",
            "coordinates": [
              12.4185952,
              46.7477582
            ]
          }
        },
        {
          "type": "Feature",
          "properties": {
            "id": "1403560107",
            "osm_type": "node",
            "lat": 46.8290278,
            "lon": 12.7680637,
            "addr:city": "Lienz",
            "addr:housenumber": "15",
            "addr:postcode": "9900",
            "addr:street": "Hauptplatz",
            "name": "Metzgerei Ortner",
            "opening_hours": "Mo-Fr 08:30-18:00; Sa 08:30-17:00",
            "phone": "+43 4852 72925",
            "shop": "butcher"
          },
          "geometry": {
            "type": "Point",
            "coordinates": [
              12.7680637,
              46.8290278
            ]
          }
        },
        {
          "type": "Feature",
          "properties": {
            "id": "5841290543",
            "osm_type": "node",
            "lat": 46.8302322,
            "lon": 12.7688129,
            "name": "Ortner",
            "opening_hours": "Mo-Fr 07:30-18:00; Sa 07:30-12:15",
            "shop": "butcher",
            "website": "https://www.metzgerei-ortner.at/"
          },
          "geometry": {
            "type": "Point",
            "coordinates": [
              12.7688129,
              46.8302322
            ]
          }
        },
        {
          "type": "Feature",
          "properties": {
            "id": "4460642792",
            "osm_type": "node",
            "lat": 46.747925,
            "lon": 13.1793334,
            "name": "Metzgerei Auer",
            "name:de": "Metzgerei Auer",
            "opening_hours": "Tu-Fr 08:00-12:00, Sa 08:00-12:00, Tu-Th 16:30-18:00",
            "shop": "butcher"
          },
          "geometry": {
            "type": "Point",
            "coordinates": [
              13.1793334,
              46.747925
            ]
          }
        }
      ],
      "children": []
    }
  ]
}