{
  "bbox": {
    "south": 47.694865,
    "west": 15.253173,
    "north": 48.355971499999995,
    "east": 17.16058
  },
  "poiCount": 191,
  "leafCount": 0,
  "averagePosition": [
    16.3581719329843,
    48.150941529319375
  ],
  "data": [],
  "children": [
    {
      "bbox": {
        "south": 47.694865,
        "west": 15.253173,
        "north": 48.02541825,
        "east": 16.2068765
      },
      "poiCount": 11,
      "leafCount": 11,
      "averagePosition": [
        15.9615008,
        47.861876472727275
      ],
      "data": [
        {
          "type": "Feature",
          "properties": {
            "id": "1625266518",
            "osm_type": "node",
            "lat": 47.7415602,
            "lon": 15.309027,
            "addr:city": "Gußwerk",
            "addr:country": "AT",
            "addr:housenumber": "30",
            "addr:postcode": "8632",
            "addr:street": "Hauptstraße",
            "name": "Koch",
            "shop": "butcher"
          },
          "geometry": {
            "type": "Point",
            "coordinates": [
              15.309027,
              47.7415602
            ]
          }
        },
        {
          "type": "Feature",
          "properties": {
            "id": "11873446365",
            "osm_type": "node",
            "lat": 47.7894016,
            "lon": 15.9104206,
            "email": "flh.rhabek@utanet.at",
            "name": "Fleischerei Rhabek",
            "opening_hours": "Mo-Sa 06:00-12:00, Mo-We 15:00-18:00, Fr 14:00-18:00; PH off",
            "phone": "+43 2636 2227",
            "shop": "butcher"
          },
          "geometry": {
            "type": "Point",
            "coordinates": [
              15.9104206,
              47.7894016
            ]
          }
        },
        {
          "type": "Feature",
          "properties": {
            "id": "1706100186",
            "osm_type": "node",
            "lat": 47.7896096,
            "lon": 16.0568349,
            "email": "office@fleischerei-stickler.at",
            "name": "Landfleischerei Stickler",
            "opening_hours": "Mo-Sa 06:30-12:00,Tu,We,Fr 15:00-18:00; PH off",
            "phone": "+43 2620 2204",
            "shop": "butcher",
            "url": "https://www.fleischerei-stickler.at/",
            "wheelchair": "yes"
          },
          "geometry": {
            "type": "Point",
            "coordinates": [
              16.0568349,
              47.7896096
            ]
          }
        },
        {
          "type": "Feature",
          "properties": {
            "id": "4517614105",
            "osm_type": "node",
            "lat": 47.8649857,
            "lon": 16.1696117,
            "addr:city": "Wöllersdorf",
            "addr:country": "AT",
            "addr:housenumber": "8",
            "addr:postcode": "2752",
            "addr:street": "Hauptstraße",
            "email": "landfleischerei@aon.at",
            "fax": "+43 2633 42 247",
            "name": "Friedrich",
            "phone": "+43 2633 42 247",
            "shop": "butcher"
          },
          "geometry": {
            "type": "Point",
            "coordinates": [
              16.1696117,
              47.8649857
            ]
          }
        },
        {
          "type": "Feature",
          "properties": {
            "id": "10685691501",
            "osm_type": "node",
            "lat": 47.8314754,
            "lon": 16.1673032,
            "name": "Zum Riegler",
            "opening_hours": "Mo-Th 07:00-12:30; Fr 07:00-13:00; Sa 07:00-12:00",
            "shop": "butcher",
            "website": "https://www.zumriegler-spezialitaeten.at/fleischerei/"
          },
          "geometry": {
            "type": "Point",
            "coordinates": [
              16.1673032,
              47.8314754
            ]
          }
        },
        {
          "type": "Feature",
          "properties": {
            "id": "12657303203",
            "osm_type": "node",
            "lat": 47.7247939,
            "lon": 16.082059,
            "addr:city": "Neunkirchen",
            "addr:country": "AT",
            "addr:housenumber": "7",
            "addr:postcode": "2620",
            "addr:street": "Lokalbahnstraße",
            "brand": "Radatz",
            "name": "Radatz",
            "opening_hours": "Mo-Fr 08:00-18:00; Sa 08:00-13:00; Dec 24,Dec 31 08:00-13:00; PH off",
            "shop": "butcher"
          },
          "geometry": {
            "type": "Point",
            "coordinates": [
              16.082059,
              47.7247939
            ]
          }
        },
        {
          "type": "Feature",
          "properties": {
            "id": "6949521323",
            "osm_type": "node",
            "lat": 47.8967995,
            "lon": 15.9652652,
            "addr:city": "Pernitz",
            "addr:country": "AT",
            "addr:housenumber": "31",
            "addr:postcode": "2763",
            "addr:street": "Hauptstraße",
            "at_bev:addr_date": "2019-10-01",
            "opening_hours": "Mo-Sa 06:00-12:00, Mo-We 15:00-18:00, Fr 06:00-18:00",
            "shop": "butcher"
          },
          "geometry": {
            "type": "Point",
            "coordinates": [
              15.9652652,
              47.8967995
            ]
          }
        },
        {
          "type": "Feature",
          "properties": {
            "id": "10764227600",
            "osm_type": "node",
            "lat": 48.0176341,
            "lon": 15.5967505,
            "addr:city": "Lilienfeld",
            "addr:housenumber": "23",
            "addr:postcode": "3180",
            "addr:street": "Babenbergerstraße",
            "name": "Der Fleischfürst",
            "shop": "butcher"
          },
          "geometry": {
            "type": "Point",
            "coordinates": [
              15.5967505,
              48.0176341
            ]
          }
        },
        {
          "type": "Feature",
          "properties": {
            "id": "1042778012",
            "osm_type": "node",
            "lat": 47.9457499,
            "lon": 16.110731,
            "addr:city": "Berndorf",
            "addr:country": "AT",
            "addr:housenumber": "3",
            "addr:postcode": "2560",
            "addr:street": "Leobersdorfer Straße",
            "contact:email": "stephan@hoppel-fleischer.at",
            "contact:facebook": "https://www.facebook.com/FleischermeisterGrillstaatsmeisterBerndorf",
            "contact:website": "https://pepperl-hoppel-berndorf.stadtausstellung.at/",
            "name": "Josef Hoppel",
            "opening_hours": "Mo-Sa 06:30-12:00; Tu-We 15:00-18:00; Fr 14:00-18:00",
            "phone": "+43 2672 82306",
            "shop": "butcher"
          },
          "geometry": {
            "type": "Point",
            "coordinates": [
              16.110731,
              47.9457499
            ]
          }
        },
        {
          "type": "Feature",
          "properties": {
            "id": "1042778108",
            "osm_type": "node",
            "lat": 47.9436181,
            "lon": 16.1072164,
            "addr:city": "Berndorf",
            "addr:country": "AT",
            "addr:housenumber": "12",
            "addr:postcode": "2560",
            "addr:street": "Hernsteiner Straße",
            "name": "Johann Hoppel",
            "phone": "+43 2672 82232",
            "shop": "butcher"
          },
          "geometry": {
            "type": "Point",
            "coordinates": [
              16.1072164,
              47.9436181
            ]
          }
        },
        {
          "type": "Feature",
          "properties": {
            "id": "8714992905",
            "osm_type": "node",
            "lat": 47.9350132,
            "lon": 16.1012893,
            "addr:city": "Berndorf",
            "addr:country": "AT",
            "addr:housenumber": "84",
            "addr:postcode": "2560",
            "addr:street": "Hernsteiner Straße",
            "at_bev:addr_date": "2021-04-01",
            "contact:phone": "+43 2672 82274",
            "name": "Fleischerei Hubert Prendinger",
            "opening_hours": "Mo 08:00-12:00; Tu 07:00-12:00, 15:00-18:00; We 07:00-12:00, 14:30-18:00; Th 07:00-12:00; Fr 07:00-12:00, 14:00-18:00; Sa 06:30-12:00",
            "shop": "butcher"
          },
          "geometry": {
            "type": "Point",
            "coordinates": [
              16.1012893,
              47.9350132
            ]
          }
        }
      ],
      "children": []
    },
    {
      "bbox": {
        "south": 47.694865,
        "west": 16.2068765,
        "north": 48.02541825,
        "east": 17.16058
      },
      "poiCount": 23,
      "leafCount": 23,
      "averagePosition": [
        16.528369547826088,
        47.88872015652174
      ],
      "data": [
        {
          "type": "Feature",
          "properties": {
            "id": "1669071211",
            "osm_type": "node",
            "lat": 47.7449998,
            "lon": 16.4885164,
            "addr:city": "Draßburg",
            "addr:country": "AT",
            "addr:housenumber": "6",
            "addr:postcode": "7021",
            "addr:street": "Baumgartnerstraße",
            "at_bev:addr_date": "2017-10-01",
            "name": "Mario Pichler",
            "shop": "butcher"
          },
          "geometry": {
            "type": "Point",
            "coordinates": [
              16.4885164,
              47.7449998
            ]
          }
        },
        {
          "type": "Feature",
          "properties": {
            "id": "1714540609",
            "osm_type": "node",
            "lat": 47.7368673,
            "lon": 16.398494,
            "addr:city": "Mattersburg",
            "addr:country": "AT",
            "addr:housenumber": "2",
            "addr:postcode": "7210",
            "addr:street": "Hauptplatz",
            "contact:phone": "+43 2626 672 70",
            "name": "Fleischerei Gebhardt",
            "opening_hours": "Mo-Fr 07:00-12:30, 15:00-18:00; Sa 07:00-12:30",
            "shop": "butcher",
            "website": "https://www.fleischerei-gebhardt.at/filialen.php",
            "wheelchair": "no"
          },
          "geometry": {
            "type": "Point",
            "coordinates": [
              16.398494,
              47.7368673
            ]
          }
        },
        {
          "type": "Feature",
          "properties": {
            "id": "2073634943",
            "osm_type": "node",
            "lat": 47.760186,
            "lon": 16.448609,
            "name": "Fleischerei Wagenhofer",
            "shop": "butcher"
          },
          "geometry": {
            "type": "Point",
            "coordinates": [
              16.448609,
              47.760186
            ]
          }
        },
        {
          "type": "Feature",
          "properties": {
            "id": "2073635941",
            "osm_type": "node",
            "lat": 47.7619584,
            "lon": 16.4524392,
            "name": "Fleischerei Fröch",
            "shop": "butcher"
          },
          "geometry": {
            "type": "Point",
            "coordinates": [
              16.4524392,
              47.7619584
            ]
          }
        },
        {
          "type": "Feature",
          "properties": {
            "id": "6553324888",
            "osm_type": "node",
            "lat": 47.7113037,
            "lon": 16.3451175,
            "addr:city": "Forchtenstein",
            "addr:country": "AT",
            "addr:housenumber": "62",
            "addr:postcode": "7212",
            "addr:street": "Hauptstraße",
            "contact:phone": "+43 2626 631 21",
            "name": "Fleischerei Gebhardt",
            "opening_hours": "Mo-Fr 06:30-12:30, 15:00-18:00; Sa 06:30-12:30",
            "shop": "butcher",
            "website": "https://www.fleischerei-gebhardt.at/impressum.php"
          },
          "geometry": {
            "type": "Point",
            "coordinates": [
              16.3451175,
              47.7113037
            ]
          }
        },
        {
          "type": "Feature",
          "properties": {
            "id": "2381075531",
            "osm_type": "node",
            "lat": 47.8002863,
            "lon": 16.6723018,
            "name": "Fleischerei Karassowitsch",
            "shop": "butcher"
          },
          "geometry": {
            "type": "Point",
            "coordinates": [
              16.6723018,
              47.8002863
            ]
          }
        },
        {
          "type": "Feature",
          "properties": {
            "id": "4441452691",
            "osm_type": "node",
            "lat": 47.7016798,
            "lon": 16.908682,
            "addr:city": "Pamhagen",
            "addr:housenumber": "1",
            "addr:postcode": "7152",
            "addr:street": "Rosengasse",
            "name": "Fleischerei Karlo",
            "name:de": "Karlo",
            "phone": "+4321742126",
            "shop": "butcher",
            "website": "https://www.fleischerei-karlo.at/"
          },
          "geometry": {
            "type": "Point",
            "coordinates": [
              16.908682,
              47.7016798
            ]
          }
        },
        {
          "type": "Feature",
          "properties": {
            "id": "12966293314",
            "osm_type": "node",
            "lat": 47.8686007,
            "lon": 16.653197,
            "name": "Pannatura-Fleischmanufaktur",
            "shop": "butcher",
            "website": "https://pannatura.at/fleischmanufaktur/"
          },
          "geometry": {
            "type": "Point",
            "coordinates": [
              16.653197,
              47.8686007
            ]
          }
        },
        {
          "type": "Feature",
          "properties": {
            "id": "336506452",
            "osm_type": "node",
            "lat": 47.949956,
            "lon": 16.2256921,
            "addr:city": "Kottingbrunn",
            "addr:housenumber": "5",
            "addr:postcode": "2542",
            "addr:street": "Wiener Neustädter Straße",
            "name": "Fleischerei Saliwar",
            "opening_hours": "Mo-We, Fr 05:30-13:00, 15:00-18:00; Th 05:30-13:00; Sa 05:30-12:00",
            "operator": "Robert Saliwar",
            "shop": "butcher"
          },
          "geometry": {
            "type": "Point",
            "coordinates": [
              16.2256921,
              47.949956
            ]
          }
        },
        {
          "type": "Feature",
          "properties": {
            "id": "569714625",
            "osm_type": "node",
            "lat": 48.0078596,
            "lon": 16.2319777,
            "addr:city": "Baden",
            "addr:country": "AT",
            "addr:housenumber": "10-12",
            "addr:postcode": "2500",
            "addr:street": "Erzherzog Rainer-Ring",
            "contact:website": "https://www.seidl-fleischerhandwerk.at",
            "name": "Seidl",
            "opening_hours": "Mo,Th 08:00-13:00; Tu,We,Fr 08:00-17:00; Sa 07:30-12:00",
            "phone": "+43 2252 45335",
            "shop": "butcher",
            "toilets:wheelchair": "no",
            "wheelchair": "yes"
          },
          "geometry": {
            "type": "Point",
            "coordinates": [
              16.2319777,
              48.0078596
            ]
          }
        },
        {
          "type": "Feature",
          "properties": {
            "id": "1578088593",
            "osm_type": "node",
            "lat": 47.9095943,
            "lon": 16.3881994,
            "addr:city": "Pottendorf",
            "addr:housenumber": "3",
            "addr:postcode": "2486",
            "addr:street": "Marktplatz",
            "email": "sissis.eck@gmx.at",
            "name": "Fleisch Wurst Raditsch",
            "opening_hours": "Mo,Tu,We,Fr 06:00-12:30,15:00-18:00, Th 06:00-12:00, Sa 07:00-12:00",
            "operator": "Elisabeth Mollay",
            "payment:cash": "yes",
            "phone": "+43 2623 72263",
            "shop": "butcher",
            "wheelchair": "no"
          },
          "geometry": {
            "type": "Point",
            "coordinates": [
              16.3881994,
              47.9095943
            ]
          }
        },
        {
          "type": "Feature",
          "properties": {
            "id": "2014429118",
            "osm_type": "node",
            "lat": 47.9872819,
            "lon": 16.2938329,
            "name": "Fleisch-Wurst Imbiss Heiling",
            "shop": "butcher",
            "website": "https://www.heiling.cc/"
          },
          "geometry": {
            "type": "Point",
            "coordinates": [
              16.2938329,
              47.9872819
            ]
          }
        },
        {
          "type": "Feature",
          "properties": {
            "id": "2577259329",
            "osm_type": "node",
            "lat": 47.8966884,
            "lon": 16.2505008,
            "addr:city": "Sollenau",
            "addr:country": "AT",
            "addr:housenumber": "15",
            "addr:postcode": "2601",
            "addr:street": "Hauptplatz",
            "name": "Steiner",
            "opening_hours": "Mo-Fr 05:30-18:00; Sa 05:30-12:00",
            "shop": "butcher"
          },
          "geometry": {
            "type": "Point",
            "coordinates": [
              16.2505008,
              47.8966884
            ]
          }
        },
        {
          "type": "Feature",
          "properties": {
            "id": "3388033586",
            "osm_type": "node",
            "lat": 47.9768762,
            "lon": 16.3987889,
            "addr:city": "Ebreichsdorf",
            "addr:housenumber": "114",
            "addr:postcode": "2483",
            "addr:street": "Wiener Straße",
            "name": "Wurstmanufaktur Markus Kollecker GmbH",
            "opening_hours": "Mo-Fr 07:00-14:00;Sa 07:00-11:00",
            "phone": "+43 800 240 233",
            "shop": "butcher",
            "source": "survey",
            "website": "https://www.fleisch24.at/"
          },
          "geometry": {
            "type": "Point",
            "coordinates": [
              16.3987889,
              47.9768762
            ]
          }
        },
        {
          "type": "Feature",
          "properties": {
            "id": "6522065633",
            "osm_type": "node",
            "lat": 47.9996529,
            "lon": 16.2515661,
            "check_date": "2024-11-17",
            "contact:website": "https://www.szabo-fleisch.at",
            "name": "Szabo",
            "shop": "butcher"
          },
          "geometry": {
            "type": "Point",
            "coordinates": [
              16.2515661,
              47.9996529
            ]
          }
        },
        {
          "type": "Feature",
          "properties": {
            "id": "7496023527",
            "osm_type": "node",
            "lat": 47.9991575,
            "lon": 16.5227106,
            "addr:city": "Reisenberg",
            "addr:country": "AT",
            "addr:housenumber": "11",
            "addr:postcode": "2440",
            "addr:street": "Heldenplatz",
            "check_date": "2025-04-21",
            "name": "Fellner",
            "opening_hours": "Sa[1] 10:00-16:00",
            "shop": "butcher"
          },
          "geometry": {
            "type": "Point",
            "coordinates": [
              16.5227106,
              47.9991575
            ]
          }
        },
        {
          "type": "Feature",
          "properties": {
            "id": "7722042457",
            "osm_type": "node",
            "lat": 48.0096191,
            "lon": 16.2387224,
            "check_date:opening_hours": "2021-12-20",
            "contact:website": "http://www.wildfleisch2500plus.at",
            "name": "Wildfleisch2500plus",
            "opening_hours": "Th 15:00-18:00; Fr 09:00-11:30",
            "shop": "butcher"
          },
          "geometry": {
            "type": "Point",
            "coordinates": [
              16.2387224,
              48.0096191
            ]
          }
        },
        {
          "type": "Feature",
          "properties": {
            "id": "417418451",
            "osm_type": "node",
            "lat": 47.9682835,
            "lon": 16.8360476,
            "addr:city": "Neusiedl am See",
            "addr:housenumber": "10",
            "addr:postcode": "7100",
            "addr:street": "Rot-Kreuz-Gasse",
            "name": "Radatz Markt",
            "payment:cash": "yes",
            "payment:visa": "yes",
            "shop": "butcher"
          },
          "geometry": {
            "type": "Point",
            "coordinates": [
              16.8360476,
              47.9682835
            ]
          }
        },
        {
          "type": "Feature",
          "properties": {
            "id": "4905168856",
            "osm_type": "node",
            "lat": 47.8943954,
            "lon": 16.9130537,
            "addr:city": "Gols",
            "addr:housenumber": "25",
            "addr:postcode": "7122",
            "addr:street": "Mühlgasse",
            "name": "MAWE WendelinFleischverarbeitung GmbH & Co KG",
            "operator": "Matthias Wendelin",
            "phone": "+43 664 4411603",
            "shop": "butcher",
            "website": "http://www.mawe.wien/"
          },
          "geometry": {
            "type": "Point",
            "coordinates": [
              16.9130537,
              47.8943954
            ]
          }
        },
        {
          "type": "Feature",
          "properties": {
            "id": "6071505891",
            "osm_type": "node",
            "lat": 47.9447309,
            "lon": 16.8484673,
            "addr:city": "Neusiedl am See",
            "addr:housenumber": "80",
            "addr:postcode": "7100",
            "addr:street": "Untere Hauptstraße",
            "name": "Julius Meiringer",
            "shop": "butcher"
          },
          "geometry": {
            "type": "Point",
            "coordinates": [
              16.8484673,
              47.9447309
            ]
          }
        },
        {
          "type": "Feature",
          "properties": {
            "id": "6307059478",
            "osm_type": "node",
            "lat": 48.0062451,
            "lon": 16.5686679,
            "name": "Öztürk Fleischhandel",
            "shop": "butcher"
          },
          "geometry": {
            "type": "Point",
            "coordinates": [
              16.5686679,
              48.0062451
            ]
          }
        },
        {
          "type": "Feature",
          "properties": {
            "id": "6796778507",
            "osm_type": "node",
            "lat": 47.8904965,
            "lon": 16.6582456,
            "addr:city": "Donnerskirchen",
            "addr:housenumber": "86",
            "addr:street": "Bahnstraße",
            "name": "Bernd Spreitzenbarth",
            "organic": "yes",
            "shop": "butcher"
          },
          "geometry": {
            "type": "Point",
            "coordinates": [
              16.6582456,
              47.8904965
            ]
          }
        },
        {
          "type": "Feature",
          "properties": {
            "id": "3715443629",
            "osm_type": "node",
            "lat": 47.9138443,
            "lon": 17.1586697,
            "addr:city": "Hegyeshalom",
            "addr:housenumber": "124",
            "addr:postcode": "9222",
            "addr:street": "Fő utca",
            "shop": "butcher"
          },
          "geometry": {
            "type": "Point",
            "coordinates": [
              17.1586697,
              47.9138443
            ]
          }
        }
      ],
      "children": []
    },
    {
      "bbox": {
        "south": 48.02541825,
        "west": 15.253173,
        "north": 48.355971499999995,
        "east": 16.2068765
      },
      "poiCount": 28,
      "leafCount": 28,
      "averagePosition": [
        15.741876000000001,
        48.22804159642857
      ],
      "data": [
        {
          "type": "Feature",
          "properties": {
            "id": "848529583",
            "osm_type": "node",
            "lat": 48.2271456,
            "lon": 15.3299268,
            "addr:city": "Melk",
            "addr:country": "AT",
            "addr:housenumber": "2",
            "addr:postcode": "3390",
            "addr:street": "Hauptstraße",
            "name": "Sdraule",
            "phone": "+43 2752 524 47",
            "shop": "butcher",
            "website": "http://www.sdraule.at/"
          },
          "geometry": {
            "type": "Point",
            "coordinates": [
              15.3299268,
              48.2271456
            ]
          }
        },
        {
          "type": "Feature",
          "properties": {
            "id": "2285298293",
            "osm_type": "node",
            "lat": 48.1429776,
            "lon": 15.2853489,
            "addr:city": "St. Leonhard am Forst",
            "addr:country": "AT",
            "addr:housenumber": "1",
            "addr:postcode": "3243",
            "addr:street": "Loosdorfer Straße",
            "at_bev:addr_date": "2018-10-01",
            "name": "Fleischerei Schagerl",
            "shop": "butcher"
          },
          "geometry": {
            "type": "Point",
            "coordinates": [
              15.2853489,
              48.1429776
            ]
          }
        },
        {
          "type": "Feature",
          "properties": {
            "id": "8575355154",
            "osm_type": "node",
            "lat": 48.216882,
            "lon": 15.4883194,
            "addr:city": "Hafnerbach",
            "addr:country": "AT",
            "addr:housenumber": "6",
            "addr:postcode": "3386",
            "addr:street": "Kirchenplatz",
            "name": "Fleischerei Gaschinger",
            "phone": "+43 2749 2271",
            "shop": "butcher"
          },
          "geometry": {
            "type": "Point",
            "coordinates": [
              15.4883194,
              48.216882
            ]
          }
        },
        {
          "type": "Feature",
          "properties": {
            "id": "9048669456",
            "osm_type": "node",
            "lat": 48.1927591,
            "lon": 15.5009539,
            "addr:city": "Markersdorf an der Pielach",
            "addr:country": "AT",
            "addr:housenumber": "8",
            "addr:postcode": "3388",
            "addr:street": "Marktplatz",
            "name": "Fleischerei Kleemann",
            "phone": "+43 2749 2221",
            "shop": "butcher"
          },
          "geometry": {
            "type": "Point",
            "coordinates": [
              15.5009539,
              48.1927591
            ]
          }
        },
        {
          "type": "Feature",
          "properties": {
            "id": "9641159886",
            "osm_type": "node",
            "lat": 48.0651675,
            "lon": 15.4674105,
            "addr:city": "Rabenstein an der Pielach",
            "addr:country": "AT",
            "addr:postcode": "3203",
            "contact:phone": "+43 2723 2242",
            "name": "Fleischerei Schmit",
            "shop": "butcher",
            "website": "https://www.fleischerei-schmit.at/"
          },
          "geometry": {
            "type": "Point",
            "coordinates": [
              15.4674105,
              48.0651675
            ]
          }
        },
        {
          "type": "Feature",
          "properties": {
            "id": "12669962774",
            "osm_type": "node",
            "lat": 48.1352344,
            "lon": 15.2768489,
            "contact:email": "isabella@schlachthof-teufl.at",
            "contact:phone": "+43 27 56 2301",
            "name": "Teufl",
            "opening_hours": "Mo-We 07:00-13:30; Th, Fr 07:00-18:00; Sa 07:00-12:00",
            "shop": "butcher",
            "website": "https://www.schlachthof-teufl.at/"
          },
          "geometry": {
            "type": "Point",
            "coordinates": [
              15.2768489,
              48.1352344
            ]
          }
        },
        {
          "type": "Feature",
          "properties": {
            "id": "13112979701",
            "osm_type": "node",
            "lat": 48.0971784,
            "lon": 15.5110741,
            "addr:housenumber": "4",
            "addr:street": "Hauptplatz",
            "name": "Strohmaier",
            "opening_hours": "Mo-Tu, Fr 07:00-18:00; We 07:00-14:30; Th 07:00-11:00; Sa 07:00-12:00",
            "shop": "butcher",
            "website": "https://www.gasthof-strohmaier.at"
          },
          "geometry": {
            "type": "Point",
            "coordinates": [
              15.5110741,
              48.0971784
            ]
          }
        },
        {
          "type": "Feature",
          "properties": {
            "id": "683844584",
            "osm_type": "node",
            "lat": 48.3500372,
            "lon": 15.7432602,
            "name": "Gattringer und Kerzig",
            "shop": "butcher"
          },
          "geometry": {
            "type": "Point",
            "coordinates": [
              15.7432602,
              48.3500372
            ]
          }
        },
        {
          "type": "Feature",
          "properties": {
            "id": "735399573",
            "osm_type": "node",
            "lat": 48.2311092,
            "lon": 15.5479549,
            "addr:city": "Watzelsdorf",
            "addr:country": "AT",
            "addr:housenumber": "7",
            "addr:postcode": "3110",
            "addr:street": "Watzelsdorfer Hauptstraße",
            "name": "Schlachthof Heinzl",
            "shop": "butcher"
          },
          "geometry": {
            "type": "Point",
            "coordinates": [
              15.5479549,
              48.2311092
            ]
          }
        },
        {
          "type": "Feature",
          "properties": {
            "id": "903919251",
            "osm_type": "node",
            "lat": 48.3458592,
            "lon": 15.9109357,
            "name": "Fleischerei Höchtl",
            "shop": "butcher"
          },
          "geometry": {
            "type": "Point",
            "coordinates": [
              15.9109357,
              48.3458592
            ]
          }
        },
        {
          "type": "Feature",
          "properties": {
            "id": "1595313946",
            "osm_type": "node",
            "lat": 48.1224007,
            "lon": 15.8144687,
            "addr:housenumber": "12",
            "addr:place": "Stössing",
            "addr:postcode": "3073",
            "name": "Stefan Girsch",
            "shop": "butcher"
          },
          "geometry": {
            "type": "Point",
            "coordinates": [
              15.8144687,
              48.1224007
            ]
          }
        },
        {
          "type": "Feature",
          "properties": {
            "id": "1667950177",
            "osm_type": "node",
            "lat": 48.2068403,
            "lon": 15.6231804,
            "check_date": "2025-07-26",
            "name": "Kostrhon Geflügeltes",
            "shop": "butcher"
          },
          "geometry": {
            "type": "Point",
            "coordinates": [
              15.6231804,
              48.2068403
            ]
          }
        },
        {
          "type": "Feature",
          "properties": {
            "id": "3211454915",
            "osm_type": "node",
            "lat": 48.2801357,
            "lon": 16.0075288,
            "addr:city": "Judenau",
            "addr:country": "AT",
            "addr:housenumber": "19",
            "addr:postcode": "3441",
            "addr:street": "Wienerwaldstraße",
            "contact:email": "abhof@pfiel-abhof.at",
            "contact:website": "http://www.pfiel-abhof.at/",
            "cuisine": "regional",
            "currency:EUR": "yes",
            "opening_hours": "Mo 08:00-12:00; Tu-Th 08:00-12:00, 15:00-18:00; Fr 08:00-18:00; Sa 08:00-15:00; Su off",
            "operator": "private",
            "payment:bancomat": "yes",
            "payment:cash": "yes",
            "shop": "butcher",
            "url": "http://www.pfiel-abhof.at/",
            "website": "http://www.pfiel-abhof.at/"
          },
          "geometry": {
            "type": "Point",
            "coordinates": [
              16.0075288,
              48.2801357
            ]
          }
        },
        {
          "type": "Feature",
          "properties": {
            "id": "3467960622",
            "osm_type": "node",
            "lat": 48.3078075,
            "lon": 15.8107773,
            "butcher": "pork",
            "name": "Harold Fleisch & Wurst Spezialitäten",
            "opening_hours": "Fr 15:00-20:00; Sa 09:00-13:00",
            "shop": "butcher",
            "website": "https://www.sauguad.at"
          },
          "geometry": {
            "type": "Point",
            "coordinates": [
              15.8107773,
              48.3078075
            ]
          }
        },
        {
          "type": "Feature",
          "properties": {
            "id": "3966747251",
            "osm_type": "node",
            "lat": 48.2535329,
            "lon": 16.0140249,
            "addr:city": "Sieghartskirchen",
            "addr:country": "AT",
            "addr:housenumber": "1",
            "addr:postcode": "3443",
            "addr:street": "Karl Bergerplatz",
            "at_bev:addr_date": "2023-10-01",
            "check_date:opening_hours": "2023-11-14",
            "contact:website": "https://www.berger-schinken.at/maerkte-und-filialen/filiale-sieghartskirchen/",
            "name": "Berger",
            "opening_hours": "Mo-Fr 06:30-18:00; Sa 06:30-12:30",
            "shop": "butcher"
          },
          "geometry": {
            "type": "Point",
            "coordinates": [
              16.0140249,
              48.2535329
            ]
          }
        },
        {
          "type": "Feature",
          "properties": {
            "id": "5203451279",
            "osm_type": "node",
            "lat": 48.2987354,
            "lon": 15.8951719,
            "shop": "butcher"
          },
          "geometry": {
            "type": "Point",
            "coordinates": [
              15.8951719,
              48.2987354
            ]
          }
        },
        {
          "type": "Feature",
          "properties": {
            "id": "5426726276",
            "osm_type": "node",
            "lat": 48.260356,
            "lon": 15.7935943,
            "contact:website": "https://www.rudolfwurlitzer.com",
            "name": "Wurlitzer",
            "shop": "butcher"
          },
          "geometry": {
            "type": "Point",
            "coordinates": [
              15.7935943,
              48.260356
            ]
          }
        },
        {
          "type": "Feature",
          "properties": {
            "id": "6416848735",
            "osm_type": "node",
            "lat": 48.3295268,
            "lon": 15.8204144,
            "name": "Wiesbauer Abholmarkt",
            "opening_hours": "Mo-Fr 08:00-18:00; Sa 07:00-12:00",
            "shop": "butcher"
          },
          "geometry": {
            "type": "Point",
            "coordinates": [
              15.8204144,
              48.3295268
            ]
          }
        },
        {
          "type": "Feature",
          "properties": {
            "id": "6895316832",
            "osm_type": "node",
            "lat": 48.3089314,
            "lon": 15.6412643,
            "addr:city": "Statzendorf",
            "addr:country": "AT",
            "addr:housenumber": "52",
            "addr:postcode": "3125",
            "addr:street": "Hauptstraße",
            "name": "Winkler-Langgartner",
            "phone": "+43 2786 2346",
            "shop": "butcher",
            "website": "https://fleischerei-winkler.at/"
          },
          "geometry": {
            "type": "Point",
            "coordinates": [
              15.6412643,
              48.3089314
            ]
          }
        },
        {
          "type": "Feature",
          "properties": {
            "id": "8429004459",
            "osm_type": "node",
            "lat": 48.1972804,
            "lon": 15.9076043,
            "addr:city": "Neulengbach",
            "addr:housenumber": "8",
            "addr:postcode": "3040",
            "addr:street": "Rathausplatz",
            "name": "Fleischerei Köcher",
            "phone": "+43 2772 / 523 87 - 12",
            "shop": "butcher",
            "website": "http://www.koecher.co.at/"
          },
          "geometry": {
            "type": "Point",
            "coordinates": [
              15.9076043,
              48.1972804
            ]
          }
        },
        {
          "type": "Feature",
          "properties": {
            "id": "8944780465",
            "osm_type": "node",
            "lat": 48.2033698,
            "lon": 15.622701,
            "addr:city": "St. Pölten",
            "addr:housenumber": "15",
            "addr:postcode": "3100",
            "addr:street": "Linzer Straße",
            "name": "Oberauer Fleischselcherei",
            "opening_hours": "Mo-Fr 7:00-12:30",
            "operator": "Olga Oberauer",
            "shop": "butcher"
          },
          "geometry": {
            "type": "Point",
            "coordinates": [
              15.622701,
              48.2033698
            ]
          }
        },
        {
          "type": "Feature",
          "properties": {
            "id": "9331742398",
            "osm_type": "node",
            "lat": 48.2591548,
            "lon": 15.5663341,
            "addr:city": "Karlstetten",
            "addr:country": "AT",
            "addr:housenumber": "6",
            "addr:postcode": "3121",
            "addr:street": "Hauptplatz",
            "name": "Tafelspitz Huber e.U.",
            "phone": "+43 2741 82 45",
            "shop": "butcher",
            "website": "https://www.tafelspitz-huber.at/"
          },
          "geometry": {
            "type": "Point",
            "coordinates": [
              15.5663341,
              48.2591548
            ]
          }
        },
        {
          "type": "Feature",
          "properties": {
            "id": "12441482321",
            "osm_type": "node",
            "lat": 48.1825633,
            "lon": 15.6188805,
            "addr:city": "St. Pölten",
            "addr:housenumber": "4",
            "addr:postcode": "3100",
            "addr:street": "Hnilickastraße",
            "name": "Wiesbauer",
            "opening_hours": "Mo-Fr 08:00-18:30; Sa 08:00-18:00",
            "operator": "Wiesbauer",
            "phone": "+43 2742 21073",
            "shop": "butcher"
          },
          "geometry": {
            "type": "Point",
            "coordinates": [
              15.6188805,
              48.1825633
            ]
          }
        },
        {
          "type": "Feature",
          "properties": {
            "id": "663049493",
            "osm_type": "node",
            "lat": 48.207167,
            "lon": 16.1771984,
            "addr:city": "Purkersdorf",
            "addr:country": "AT",
            "addr:housenumber": "2",
            "addr:postcode": "3002",
            "addr:street": "Hauptplatz",
            "check_date:opening_hours": "2025-03-23",
            "cuisine": "regional",
            "name": "Rudolf Ströbel KG",
            "opening_hours": "Mo-Fr 08:00-18:00",
            "shop": "butcher",
            "website": "http://www.ströbel.at",
            "wheelchair": "limited"
          },
          "geometry": {
            "type": "Point",
            "coordinates": [
              16.1771984,
              48.207167
            ]
          }
        },
        {
          "type": "Feature",
          "properties": {
            "id": "1769543086",
            "osm_type": "node",
            "lat": 48.3308268,
            "lon": 16.0511756,
            "name": "H. Schmölz",
            "opening_hours": "Mo-We 06:30-12:30, 15:00-18:00; Th 06:30-12:30; Fr 06:30-18:00; Sa 06:30-12:00",
            "shop": "butcher",
            "wheelchair": "yes"
          },
          "geometry": {
            "type": "Point",
            "coordinates": [
              16.0511756,
              48.3308268
            ]
          }
        },
        {
          "type": "Feature",
          "properties": {
            "id": "1794808205",
            "osm_type": "node",
            "lat": 48.3309487,
            "lon": 16.0522883,
            "name": "Berger",
            "opening_hours": "Mo-Fr 07:00-18:00; Sa 07:00-13:00; PH off",
            "shop": "butcher",
            "wheelchair": "yes"
          },
          "geometry": {
            "type": "Point",
            "coordinates": [
              16.0522883,
              48.3309487
            ]
          }
        },
        {
          "type": "Feature",
          "properties": {
            "id": "2079627078",
            "osm_type": "node",
            "lat": 48.1165625,
            "lon": 16.1983943,
            "name": "Fleischer-Selcher J. Schöny",
            "shop": "butcher"
          },
          "geometry": {
            "type": "Point",
            "coordinates": [
              16.1983943,
              48.1165625
            ]
          }
        },
        {
          "type": "Feature",
          "properties": {
            "id": "10929598548",
            "osm_type": "node",
            "lat": 48.1846745,
            "lon": 16.0954932,
            "addr:city": "Tullnerbach-Lawies",
            "addr:housenumber": "33",
            "addr:postcode": "3013",
            "addr:street": "Hauptstraße",
            "contact:email": "office@stroebel.at",
            "contact:phone": "+43 2233 52440",
            "name": "Ströbel",
            "opening_hours": "Mo-Fr 07:00-18:00; Sa 07:00-13:00",
            "shop": "butcher",
            "website": "https://www.stroebel.at/"
          },
          "geometry": {
            "type": "Point",
            "coordinates": [
              16.0954932,
              48.1846745
            ]
          }
        }
      ],
      "children": []
    },
    {
      "bbox": {
        "south": 48.02541825,
        "west": 16.2068765,
        "north": 48.355971499999995,
        "east": 17.16058
      },
      "poiCount": 129,
      "leafCount": 0,
      "averagePosition": [
        16.49542095193799,
        48.20560823720931
      ],
      "data": [],
      "children": [
        {
          "bbox": {
            "south": 48.02541825,
            "west": 16.2068765,
            "north": 48.190694875,
            "east": 16.68372825
          },
          "poiCount": 35,
          "leafCount": 35,
          "averagePosition": [
            16.36309013142857,
            48.16582326571428
          ],
          "data": [
            {
              "type": "Feature",
              "properties": {
                "id": "648247169",
                "osm_type": "node",
                "lat": 48.1204522,
                "lon": 16.2656255,
                "check_date:opening_hours": "2024-10-22",
                "contact:phone": "+43 1 869 7816",
                "name": "Schöny Johannes",
                "opening_hours": "Mo-Fr 07:30-18:00; Sa 07:30-12:00",
                "shop": "butcher",
                "wheelchair": "limited"
              },
              "geometry": {
                "type": "Point",
                "coordinates": [
                  16.2656255,
                  48.1204522
                ]
              }
            },
            {
              "type": "Feature",
              "properties": {
                "id": "924763150",
                "osm_type": "node",
                "lat": 48.1793104,
                "lon": 16.3676016,
                "name": "Leopold Eder KG",
                "shop": "butcher",
                "wheelchair": "no"
              },
              "geometry": {
                "type": "Point",
                "coordinates": [
                  16.3676016,
                  48.1793104
                ]
              }
            },
            {
              "type": "Feature",
              "properties": {
                "id": "1074936123",
                "osm_type": "node",
                "lat": 48.1423172,
                "lon": 16.2918179,
                "addr:city": "Wien",
                "addr:country": "AT",
                "addr:housenumber": "1",
                "addr:postcode": "1230",
                "addr:street": "Loosgasse",
                "email": "leopold@hoedl-fleisch.at",
                "fax": "+43 1 86594384",
                "name": "Fleischerei Hödl",
                "opening_hours": "Mo 07:00-12:30; Tu-Th 07:00-12:30,15:30-18:00; Fr 07:00-18:00; Sa 07:00-12:00; PH,Su off",
                "operator": "Leopold Hödl",
                "phone": "+43 1 8659438",
                "shop": "butcher",
                "website": "http://www.hoedl-fleisch.at"
              },
              "geometry": {
                "type": "Point",
                "coordinates": [
                  16.2918179,
                  48.1423172
                ]
              }
            },
            {
              "type": "Feature",
              "properties": {
                "id": "1782018461",
                "osm_type": "node",
                "lat": 48.1440317,
                "lon": 16.4686357,
                "name": "Radatz Abholmarkt",
                "shop": "butcher",
                "wheelchair": "yes"
              },
              "geometry": {
                "type": "Point",
                "coordinates": [
                  16.4686357,
                  48.1440317
                ]
              }
            },
            {
              "type": "Feature",
              "properties": {
                "id": "2821753304",
                "osm_type": "node",
                "lat": 48.1848988,
                "lon": 16.3648844,
                "addr:city": "Wien",
                "addr:country": "AT",
                "addr:housenumber": "11",
                "addr:postcode": "1050",
                "addr:street": "Anzengrubergasse",
                "name": "Fleischer Szabo",
                "opening_hours": "Mo-Th 06:00-13:00, 15:00-18:00; Fr 06:00-18:00; Sa 06:00-13:00",
                "phone": "+43 1 5453908",
                "shop": "butcher",
                "website": "https://fleischerei-szabo.at/site/",
                "wheelchair": "no"
              },
              "geometry": {
                "type": "Point",
                "coordinates": [
                  16.3648844,
                  48.1848988
                ]
              }
            },
            {
              "type": "Feature",
              "properties": {
                "id": "3507668396",
                "osm_type": "node",
                "lat": 48.0777736,
                "lon": 16.3246687,
                "name": "Wurstico",
                "shop": "butcher"
              },
              "geometry": {
                "type": "Point",
                "coordinates": [
                  16.3246687,
                  48.0777736
                ]
              }
            },
            {
              "type": "Feature",
              "properties": {
                "id": "3651435745",
                "osm_type": "node",
                "lat": 48.1295276,
                "lon": 16.3235102,
                "addr:city": "Vösendorf",
                "addr:country": "AT",
                "addr:housenumber": "19",
                "addr:postcode": "2331",
                "addr:street": "Marktstraße",
                "contact:website": "http://www.nemetz-markt.at",
                "fixme": "Genaue Position prüfen",
                "name": "Nemetz-Markt",
                "opening_hours": "Mo-Fr 07:30-18:30; Sa 08:00-17:00",
                "shop": "butcher"
              },
              "geometry": {
                "type": "Point",
                "coordinates": [
                  16.3235102,
                  48.1295276
                ]
              }
            },
            {
              "type": "Feature",
              "properties": {
                "id": "4408685905",
                "osm_type": "node",
                "lat": 48.1881262,
                "lon": 16.353172,
                "name": "Radatz Markt",
                "opening_hours": "Mo-Fr 08:00-18:00; Sa 08:00-13:00",
                "shop": "butcher",
                "wheelchair": "yes"
              },
              "geometry": {
                "type": "Point",
                "coordinates": [
                  16.353172,
                  48.1881262
                ]
              }
            },
            {
              "type": "Feature",
              "properties": {
                "id": "5143914518",
                "osm_type": "node",
                "lat": 48.1808524,
                "lon": 16.3331777,
                "addr:city": "Wien",
                "addr:country": "AT",
                "addr:housenumber": "23-24",
                "addr:postcode": "1120",
                "addr:street": "Meidlinger Markt Stand",
                "name": "EXTRA Fleischerei",
                "opening_hours": "Mo-Fr 08:00-18:00; Sa 08:00-15:00; Su,PH off",
                "shop": "butcher",
                "wheelchair": "limited"
              },
              "geometry": {
                "type": "Point",
                "coordinates": [
                  16.3331777,
                  48.1808524
                ]
              }
            },
            {
              "type": "Feature",
              "properties": {
                "id": "5143919312",
                "osm_type": "node",
                "lat": 48.1808627,
                "lon": 16.3329707,
                "addr:city": "Wien",
                "addr:country": "AT",
                "addr:housenumber": "26/28",
                "addr:postcode": "1120",
                "addr:street": "Meidlinger Markt Stand",
                "check_date:opening_hours": "2024-07-01",
                "name": "Nuran",
                "opening_hours": "Sa 08:00-15:30; Fr 08:00-18:00; Mo-Th 08:30-18:00",
                "shop": "butcher",
                "wheelchair": "limited"
              },
              "geometry": {
                "type": "Point",
                "coordinates": [
                  16.3329707,
                  48.1808627
                ]
              }
            },
            {
              "type": "Feature",
              "properties": {
                "id": "5183422772",
                "osm_type": "node",
                "lat": 48.1803501,
                "lon": 16.3328739,
                "addr:city": "Wien",
                "addr:country": "AT",
                "addr:housenumber": "134/135",
                "addr:postcode": "1120",
                "addr:street": "Meidlinger Markt Stand",
                "butcher": "horse",
                "check_date:opening_hours": "2025-08-22",
                "name": "Gumprecht",
                "opening_hours": "Mo 08:00-13:00; Tu-Fr 08:00-18:00; Sa 08:00-13:00",
                "phone": "+43 1 8124024",
                "shop": "butcher",
                "website": "https://www.pferdefleischer.at/"
              },
              "geometry": {
                "type": "Point",
                "coordinates": [
                  16.3328739,
                  48.1803501
                ]
              }
            },
            {
              "type": "Feature",
              "properties": {
                "id": "5316932961",
                "osm_type": "node",
                "lat": 48.1394698,
                "lon": 16.321633,
                "addr:city": "Wien",
                "addr:country": "AT",
                "addr:housenumber": "171",
                "addr:postcode": "1230",
                "addr:street": "Erlaaer Straße",
                "check_date": "2025-04-05",
                "contact:phone": "+43 1 661 10100",
                "name": "Radatz Markt",
                "opening_hours": "Mo-Th 08:00-18:00; Fr 07:00-18:00",
                "shop": "butcher",
                "website": "https://www.radatz.at/wurst-gross-markt"
              },
              "geometry": {
                "type": "Point",
                "coordinates": [
                  16.321633,
                  48.1394698
                ]
              }
            },
            {
              "type": "Feature",
              "properties": {
                "id": "5722139843",
                "osm_type": "node",
                "lat": 48.17316,
                "lon": 16.4160728,
                "level": "0",
                "name": "Radatz",
                "shop": "butcher"
              },
              "geometry": {
                "type": "Point",
                "coordinates": [
                  16.4160728,
                  48.17316
                ]
              }
            },
            {
              "type": "Feature",
              "properties": {
                "id": "6298239906",
                "osm_type": "node",
                "lat": 48.1566482,
                "lon": 16.3365656,
                "addr:city": "Wien",
                "addr:housenumber": "17",
                "addr:postcode": "1230",
                "addr:street": "Gutheil-Schoder-Gasse",
                "check_date": "2024-01-25",
                "name": "Michael Trünkel Gmbh",
                "shop": "butcher"
              },
              "geometry": {
                "type": "Point",
                "coordinates": [
                  16.3365656,
                  48.1566482
                ]
              }
            },
            {
              "type": "Feature",
              "properties": {
                "id": "6338674261",
                "osm_type": "node",
                "lat": 48.1493141,
                "lon": 16.3355017,
                "addr:city": "Wien",
                "addr:country": "AT",
                "addr:housenumber": "201",
                "addr:postcode": "1230",
                "addr:street": "Triester Straße",
                "contact:phone": "+43 1 544 2541",
                "name": "Thum Schinken GmbH",
                "opening_hours": "Mo-Fr 07:00-12:00",
                "shop": "butcher",
                "website": "https://thum-schinken.at/kontakt/"
              },
              "geometry": {
                "type": "Point",
                "coordinates": [
                  16.3355017,
                  48.1493141
                ]
              }
            },
            {
              "type": "Feature",
              "properties": {
                "id": "7725707033",
                "osm_type": "node",
                "lat": 48.1782779,
                "lon": 16.3294027,
                "addr:city": "Wien",
                "addr:housenumber": "2-4",
                "addr:postcode": "1120",
                "addr:street": "Pohlgasse",
                "name": "Alles Wurst",
                "opening_hours": "Mo-Fr 07:30-18:00; Sa 08:00-14:00",
                "shop": "butcher",
                "website": "https://www.alles-wurst.at/"
              },
              "geometry": {
                "type": "Point",
                "coordinates": [
                  16.3294027,
                  48.1782779
                ]
              }
            },
            {
              "type": "Feature",
              "properties": {
                "id": "8375657189",
                "osm_type": "node",
                "lat": 48.1767984,
                "lon": 16.3766837,
                "addr:city": "Wien",
                "addr:country": "AT",
                "addr:housenumber": "38/43",
                "addr:postcode": "1100",
                "addr:street": "Viktor-Adler-Markt",
                "building": "yes",
                "butcher": "horse",
                "name": "Gumprecht",
                "opening_hours": "Mo-Fr 06:30-18:00; Sa 06:30-12:30",
                "phone": "+43 1 6062229",
                "shop": "butcher",
                "website": "https://www.pferdefleischer.at/",
                "wheelchair": "yes"
              },
              "geometry": {
                "type": "Point",
                "coordinates": [
                  16.3766837,
                  48.1767984
                ]
              }
            },
            {
              "type": "Feature",
              "properties": {
                "id": "9045670520",
                "osm_type": "node",
                "lat": 48.175849,
                "lon": 16.4121806,
                "name": "Buhara",
                "opening_hours": "Mo-Sa 08:00-19:00",
                "shop": "butcher",
                "wheelchair": "no"
              },
              "geometry": {
                "type": "Point",
                "coordinates": [
                  16.4121806,
                  48.175849
                ]
              }
            },
            {
              "type": "Feature",
              "properties": {
                "id": "9175198818",
                "osm_type": "node",
                "lat": 48.1427586,
                "lon": 16.4733565,
                "name": "Helmut Höfinger Pferdefleischerei",
                "operator": "Helmut Höfinger",
                "shop": "butcher"
              },
              "geometry": {
                "type": "Point",
                "coordinates": [
                  16.4733565,
                  48.1427586
                ]
              }
            },
            {
              "type": "Feature",
              "properties": {
                "id": "9669777068",
                "osm_type": "node",
                "lat": 48.1805645,
                "lon": 16.3330254,
                "addr:city": "Wien",
                "addr:housenumber": "93-96",
                "addr:postcode": "1120",
                "addr:street": "Meidlinger Markt Stand",
                "name": "Djokic Goran",
                "opening_hours": "Mo-Fr 08:00-18:00; Sa 08:00-12:00; PH off",
                "payment:cash": "yes",
                "shop": "butcher"
              },
              "geometry": {
                "type": "Point",
                "coordinates": [
                  16.3330254,
                  48.1805645
                ]
              }
            },
            {
              "type": "Feature",
              "properties": {
                "id": "9682582973",
                "osm_type": "node",
                "lat": 48.1717887,
                "lon": 16.3789828,
                "diet:halal": "only",
                "name": "Tuna",
                "opening_hours": "Mo-Fr 10:00-19:00;Sa 10:00-18:00;Su,PH off",
                "shop": "butcher"
              },
              "geometry": {
                "type": "Point",
                "coordinates": [
                  16.3789828,
                  48.1717887
                ]
              }
            },
            {
              "type": "Feature",
              "properties": {
                "id": "9916671739",
                "osm_type": "node",
                "lat": 48.1768473,
                "lon": 16.4133878,
                "name": "Kocak Et",
                "shop": "butcher",
                "wheelchair": "limited"
              },
              "geometry": {
                "type": "Point",
                "coordinates": [
                  16.4133878,
                  48.1768473
                ]
              }
            },
            {
              "type": "Feature",
              "properties": {
                "id": "10739590351",
                "osm_type": "node",
                "lat": 48.1512139,
                "lon": 16.3145841,
                "check_date": "2023-03-16",
                "name": "Radatz",
                "opening_hours": "Mo-Fr 08:00-18:00; Sa 08:00-12:30",
                "shop": "butcher",
                "wheelchair": "yes"
              },
              "geometry": {
                "type": "Point",
                "coordinates": [
                  16.3145841,
                  48.1512139
                ]
              }
            },
            {
              "type": "Feature",
              "properties": {
                "id": "11132231214",
                "osm_type": "node",
                "lat": 48.1787024,
                "lon": 16.3661544,
                "check_date": "2023-08-07",
                "name": "Buhara",
                "sells:grocery": "yes",
                "shop": "butcher"
              },
              "geometry": {
                "type": "Point",
                "coordinates": [
                  16.3661544,
                  48.1787024
                ]
              }
            },
            {
              "type": "Feature",
              "properties": {
                "id": "11326698752",
                "osm_type": "node",
                "lat": 48.176973,
                "lon": 16.3760335,
                "check_date": "2023-11-05",
                "name": "Fleisch & Feinkost",
                "shop": "butcher"
              },
              "geometry": {
                "type": "Point",
                "coordinates": [
                  16.3760335,
                  48.176973
                ]
              }
            },
            {
              "type": "Feature",
              "properties": {
                "id": "11326698762",
                "osm_type": "node",
                "lat": 48.1765842,
                "lon": 16.3770649,
                "addr:housenumber": "Stand 11",
                "addr:street": "Viktor-Adler-Markt",
                "check_date": "2023-11-05",
                "name": "Schreiber",
                "opening_hours": "Mo-Fr 07:00-18:00; Sa 07:00-14:00",
                "shop": "butcher",
                "wheelchair": "limited"
              },
              "geometry": {
                "type": "Point",
                "coordinates": [
                  16.3770649,
                  48.1765842
                ]
              }
            },
            {
              "type": "Feature",
              "properties": {
                "id": "11327575766",
                "osm_type": "node",
                "lat": 48.1765328,
                "lon": 16.3764947,
                "check_date": "2023-11-05",
                "food:lamajun": "yes",
                "food:pide": "yes",
                "name": "Aliman",
                "shop": "butcher"
              },
              "geometry": {
                "type": "Point",
                "coordinates": [
                  16.3764947,
                  48.1765328
                ]
              }
            },
            {
              "type": "Feature",
              "properties": {
                "id": "11327575767",
                "osm_type": "node",
                "lat": 48.1765133,
                "lon": 16.3765625,
                "check_date": "2023-11-05",
                "name": "Bab Alrayan",
                "shop": "butcher"
              },
              "geometry": {
                "type": "Point",
                "coordinates": [
                  16.3765625,
                  48.1765133
                ]
              }
            },
            {
              "type": "Feature",
              "properties": {
                "id": "11331359591",
                "osm_type": "node",
                "lat": 48.1766754,
                "lon": 16.3767666,
                "addr:city": "Wien",
                "addr:housenumber": "31",
                "addr:postcode": "1100",
                "addr:street": "Viktor-Adler-Platz",
                "name": "Geflügel Imbiss",
                "shop": "butcher"
              },
              "geometry": {
                "type": "Point",
                "coordinates": [
                  16.3767666,
                  48.1766754
                ]
              }
            },
            {
              "type": "Feature",
              "properties": {
                "id": "11377288283",
                "osm_type": "node",
                "lat": 48.176775,
                "lon": 16.3768147,
                "addr:city": "Wien",
                "addr:housenumber": "41",
                "addr:postcode": "1100",
                "addr:street": "Viktor-Adler-Platz",
                "check_date": "2023-11-17",
                "food:burek": "yes",
                "food:lamajun": "yes",
                "food:pide": "yes",
                "name": "Albayat",
                "payment:cash": "yes",
                "shop": "butcher"
              },
              "geometry": {
                "type": "Point",
                "coordinates": [
                  16.3768147,
                  48.176775
                ]
              }
            },
            {
              "type": "Feature",
              "properties": {
                "id": "11377288286",
                "osm_type": "node",
                "lat": 48.1766103,
                "lon": 16.3766469,
                "check_date": "2023-11-17",
                "name": "omar flescherei",
                "shop": "butcher"
              },
              "geometry": {
                "type": "Point",
                "coordinates": [
                  16.3766469,
                  48.1766103
                ]
              }
            },
            {
              "type": "Feature",
              "properties": {
                "id": "11377288291",
                "osm_type": "node",
                "lat": 48.1768073,
                "lon": 16.3764293,
                "check_date": "2023-11-20",
                "name": "Altiparmak",
                "shop": "butcher"
              },
              "geometry": {
                "type": "Point",
                "coordinates": [
                  16.3764293,
                  48.1768073
                ]
              }
            },
            {
              "type": "Feature",
              "properties": {
                "id": "11377288292",
                "osm_type": "node",
                "lat": 48.1768556,
                "lon": 16.3765708,
                "check_date": "2023-11-20",
                "full_name": "Mekka Halal Fleisch",
                "name": "Mekka",
                "shop": "butcher"
              },
              "geometry": {
                "type": "Point",
                "coordinates": [
                  16.3765708,
                  48.1768556
                ]
              }
            },
            {
              "type": "Feature",
              "properties": {
                "id": "11383557164",
                "osm_type": "node",
                "lat": 48.1768005,
                "lon": 16.3757843,
                "check_date": "2023-11-28",
                "name": "Sarah Flescherei",
                "shop": "butcher"
              },
              "geometry": {
                "type": "Point",
                "coordinates": [
                  16.3757843,
                  48.1768005
                ]
              }
            },
            {
              "type": "Feature",
              "properties": {
                "id": "11383590369",
                "osm_type": "node",
                "lat": 48.1767912,
                "lon": 16.376517,
                "check_date": "2023-11-28",
                "shop": "butcher"
              },
              "geometry": {
                "type": "Point",
                "coordinates": [
                  16.376517,
                  48.1767912
                ]
              }
            }
          ],
          "children": []
        },
        {
          "bbox": {
            "south": 48.02541825,
            "west": 16.68372825,
            "north": 48.190694875,
            "east": 17.16058
          },
          "poiCount": 15,
          "leafCount": 15,
          "averagePosition": [
            17.089906919999997,
            48.14114182666666
          ],
          "data": [
            {
              "type": "Feature",
              "properties": {
                "id": "7371900133",
                "osm_type": "node",
                "lat": 48.1452841,
                "lon": 16.7021866,
                "addr:city": "Orth an der Donau",
                "addr:country": "AT",
                "addr:housenumber": "5",
                "addr:postcode": "2304",
                "addr:street": "Am Markt",
                "at_bev:addr_date": "2018-10-01",
                "name": "Neumayer",
                "opening_hours": "Mo 06:30-12:00; Tu 06:30-12:00,15:00-18:00; We 06:30-12:30; Th 06:30-12:00; Fr 06:30-12:30,15:00-18:00; Sa 06:30-12:00",
                "phone": "+4322122228",
                "shop": "butcher"
              },
              "geometry": {
                "type": "Point",
                "coordinates": [
                  16.7021866,
                  48.1452841
                ]
              }
            },
            {
              "type": "Feature",
              "properties": {
                "id": "432594055",
                "osm_type": "node",
                "lat": 48.144244,
                "lon": 17.1173258,
                "name": "Mäso-údeniny Jozef Okša",
                "shop": "butcher",
                "source": "survey"
              },
              "geometry": {
                "type": "Point",
                "coordinates": [
                  17.1173258,
                  48.144244
                ]
              }
            },
            {
              "type": "Feature",
              "properties": {
                "id": "1793519466",
                "osm_type": "node",
                "lat": 48.1491783,
                "lon": 17.1347335,
                "opening_hours": "Mo 08:00-18:00; Tu-Fr 07:00-18:00; Sa 07:00-12:00",
                "operator": "Emkar market",
                "shop": "butcher",
                "source": "survey"
              },
              "geometry": {
                "type": "Point",
                "coordinates": [
                  17.1347335,
                  48.1491783
                ]
              }
            },
            {
              "type": "Feature",
              "properties": {
                "id": "1888172770",
                "osm_type": "node",
                "lat": 48.128579,
                "lon": 17.1107592,
                "level": "1",
                "name": "Miran",
                "opening_hours": "Mo 10:00-16:00; Tu-Fr 08:00-16:00; Sa 07:00-12:00",
                "shop": "butcher",
                "website": "https://www.masomiran.sk"
              },
              "geometry": {
                "type": "Point",
                "coordinates": [
                  17.1107592,
                  48.128579
                ]
              }
            },
            {
              "type": "Feature",
              "properties": {
                "id": "1894876799",
                "osm_type": "node",
                "lat": 48.1592505,
                "lon": 17.1551685,
                "name": "mäsiarstvo u Býka",
                "opening_hours": "Mo 07:00-16:00; Tu-Fr 07:00-18:00; Sa 07:00-12:00; Su off",
                "shop": "butcher",
                "wheelchair": "limited"
              },
              "geometry": {
                "type": "Point",
                "coordinates": [
                  17.1551685,
                  48.1592505
                ]
              }
            },
            {
              "type": "Feature",
              "properties": {
                "id": "2619455326",
                "osm_type": "node",
                "lat": 48.0869131,
                "lon": 17.05024,
                "addr:city": "Kittsee",
                "addr:housenumber": "29",
                "addr:postcode": "2421",
                "addr:street": "Eisenstädter Straße",
                "name": "Radatz Markt",
                "opening_hours": "Mo-Fr 09:00-19:00; Sa 09:00-18:00; Su,PH off",
                "phone": "+43 2143 20392",
                "shop": "butcher",
                "website": "https://www.radatz.at/"
              },
              "geometry": {
                "type": "Point",
                "coordinates": [
                  17.05024,
                  48.0869131
                ]
              }
            },
            {
              "type": "Feature",
              "properties": {
                "id": "2924009699",
                "osm_type": "node",
                "lat": 48.1599321,
                "lon": 17.0501707,
                "addr:city": "Bratislava",
                "addr:conscriptionnumber": "441",
                "addr:country": "SK",
                "addr:housenumber": "441/1",
                "addr:postcode": "841 04",
                "addr:street": "Suchohradská",
                "addr:streetnumber": "1",
                "check_date:opening_hours": "2025-06-24",
                "name": "Mäsiarstvo DELIKATES",
                "opening_hours": "Mo-Fr 07:00-18:00; Sa 06:30-12:30",
                "operator": "Imrich Jurišta",
                "payment:credit_cards": "yes",
                "payment:debit_cards": "yes",
                "shop": "butcher",
                "wheelchair": "limited"
              },
              "geometry": {
                "type": "Point",
                "coordinates": [
                  17.0501707,
                  48.1599321
                ]
              }
            },
            {
              "type": "Feature",
              "properties": {
                "id": "3537203763",
                "osm_type": "node",
                "lat": 48.122366,
                "lon": 17.1174066,
                "check_date:opening_hours": "2021-10-11",
                "level": "1",
                "name": "Miran",
                "opening_hours": "Mo 10:00-18:00; Tu-Fr 06:00-18:00; Sa 06:00-12:00",
                "shop": "butcher",
                "source": "survey",
                "website": "https://www.masomiran.sk"
              },
              "geometry": {
                "type": "Point",
                "coordinates": [
                  17.1174066,
                  48.122366
                ]
              }
            },
            {
              "type": "Feature",
              "properties": {
                "id": "5235483818",
                "osm_type": "node",
                "lat": 48.1677356,
                "lon": 17.1537054,
                "level": "0",
                "name": "biomeat",
                "organic": "only",
                "shop": "butcher"
              },
              "geometry": {
                "type": "Point",
                "coordinates": [
                  17.1537054,
                  48.1677356
                ]
              }
            },
            {
              "type": "Feature",
              "properties": {
                "id": "6970233850",
                "osm_type": "node",
                "lat": 48.1632188,
                "lon": 17.1250984,
                "contact:facebook": "https://www.facebook.com/MasoOdRomana",
                "contact:instagram": "https://instagram.com/maso_od_romana",
                "email": "rezervacie@masoodromana.sk",
                "name": "Mäso od Romana",
                "opening_hours": "Th-Sa 11:30-14:00,17:00-21:00",
                "phone": "+421 951 504 064",
                "shop": "butcher",
                "website": "https://www.masoodromana.sk/"
              },
              "geometry": {
                "type": "Point",
                "coordinates": [
                  17.1250984,
                  48.1632188
                ]
              }
            },
            {
              "type": "Feature",
              "properties": {
                "id": "9485103037",
                "osm_type": "node",
                "lat": 48.0964308,
                "lon": 17.1199631,
                "fixme": "upresnit polohu",
                "name": "u Býka",
                "opening_hours": "Mo-Fr 07:00-20:00; Sa 07:00-15:00",
                "operator": "TAURIS, a.s.",
                "shop": "butcher",
                "website": "https://www.tauris.sk/"
              },
              "geometry": {
                "type": "Point",
                "coordinates": [
                  17.1199631,
                  48.0964308
                ]
              }
            },
            {
              "type": "Feature",
              "properties": {
                "id": "10820433423",
                "osm_type": "node",
                "lat": 48.1535381,
                "lon": 17.1373528,
                "shop": "butcher",
                "source": "survey"
              },
              "geometry": {
                "type": "Point",
                "coordinates": [
                  17.1373528,
                  48.1535381
                ]
              }
            },
            {
              "type": "Feature",
              "properties": {
                "id": "11026294366",
                "osm_type": "node",
                "lat": 48.1262411,
                "lon": 17.123086,
                "description": "Mäso Ponitrie SK, Slovenské rodinné mäsiarstvo",
                "name": "Slovenská Tradičná Mäsiareň",
                "opening_hours": "Mo-Fr 07:00-18:30; Sa 06:30-12:00",
                "shop": "butcher",
                "wheelchair": "no"
              },
              "geometry": {
                "type": "Point",
                "coordinates": [
                  17.123086,
                  48.1262411
                ]
              }
            },
            {
              "type": "Feature",
              "properties": {
                "id": "12303136327",
                "osm_type": "node",
                "lat": 48.1567564,
                "lon": 17.1255495,
                "name": "DANUBIUS",
                "opening_hours": "Mo-We 07:00-17:00; Th 07:00-17:30; Fr 07:00-18:00; Sa 07:00-12:00",
                "payment:credit_cards": "yes",
                "payment:debit_cards": "yes",
                "shop": "butcher"
              },
              "geometry": {
                "type": "Point",
                "coordinates": [
                  17.1255495,
                  48.1567564
                ]
              }
            },
            {
              "type": "Feature",
              "properties": {
                "id": "12303136339",
                "osm_type": "node",
                "lat": 48.1574595,
                "lon": 17.1258577,
                "name": "u Býka",
                "shop": "butcher",
                "source": "survey"
              },
              "geometry": {
                "type": "Point",
                "coordinates": [
                  17.1258577,
                  48.1574595
                ]
              }
            }
          ],
          "children": []
        },
        {
          "bbox": {
            "south": 48.190694875,
            "west": 16.2068765,
            "north": 48.355971499999995,
            "east": 16.68372825
          },
          "poiCount": 69,
          "leafCount": 0,
          "averagePosition": [
            16.361907343478265,
            48.230779897101456
          ],
          "data": [],
          "children": [
            {
              "bbox": {
                "south": 48.190694875,
                "west": 16.2068765,
                "north": 48.2733331875,
                "east": 16.445302375
              },
              "poiCount": 60,
              "leafCount": 0,
              "averagePosition": [
                16.359325015000003,
                48.220451983333334
              ],
              "data": [],
              "children": [
                {
                  "bbox": {
                    "south": 48.190694875,
                    "west": 16.2068765,
                    "north": 48.23201403125,
                    "east": 16.326089437500002
                  },
                  "poiCount": 9,
                  "leafCount": 9,
                  "averagePosition": [
                    16.3015064,
                    48.21003926666666
                  ],
                  "data": [
                    {
                      "type": "Feature",
                      "properties": {
                        "id": "1459512727",
                        "osm_type": "node",
                        "lat": 48.2168675,
                        "lon": 16.3087982,
                        "addr:city": "Wien",
                        "addr:country": "AT",
                        "addr:housenumber": "1",
                        "addr:postcode": "1160",
                        "addr:street": "Konstantingasse",
                        "check_date": "2025-09-08",
                        "check_date:opening_hours": "2025-09-08",
                        "contact:email": "rudolf.kriechbaum@chello.at",
                        "contact:phone": "+43 1 48 45 480",
                        "name": "Kriechbaum",
                        "opening_hours": "Tu-Fr 06:00-12:30,15:30-18:30; Sa 07:00-12:00",
                        "operator": "Rudolf Kriechbaum",
                        "shop": "butcher",
                        "wheelchair": "limited"
                      },
                      "geometry": {
                        "type": "Point",
                        "coordinates": [
                          16.3087982,
                          48.2168675
                        ]
                      }
                    },
                    {
                      "type": "Feature",
                      "properties": {
                        "id": "2647300023",
                        "osm_type": "node",
                        "lat": 48.2133776,
                        "lon": 16.3191389,
                        "addr:city": "Wien",
                        "addr:country": "AT",
                        "addr:housenumber": "119",
                        "addr:postcode": "1160",
                        "addr:street": "Ottakringer Straße",
                        "name": "Radatz Abholmarkt",
                        "opening_hours": "08:00-18:00",
                        "operator": "Radatz",
                        "shop": "butcher"
                      },
                      "geometry": {
                        "type": "Point",
                        "coordinates": [
                          16.3191389,
                          48.2133776
                        ]
                      }
                    },
                    {
                      "type": "Feature",
                      "properties": {
                        "id": "4086589384",
                        "osm_type": "node",
                        "lat": 48.2174896,
                        "lon": 16.3088132,
                        "addr:city": "Wien",
                        "addr:country": "AT",
                        "addr:housenumber": "81",
                        "addr:postcode": "1160",
                        "addr:street": "Wilhelminenstraße",
                        "butcher": "horse",
                        "name": "Gumprecht",
                        "opening_hours": "Mo-Fr 06:30-18:00; Sa 07:00-12:00",
                        "phone": "+43 1 4894001",
                        "shop": "butcher",
                        "website": "https://www.pferdefleischer.at/",
                        "wheelchair": "yes"
                      },
                      "geometry": {
                        "type": "Point",
                        "coordinates": [
                          16.3088132,
                          48.2174896
                        ]
                      }
                    },
                    {
                      "type": "Feature",
                      "properties": {
                        "id": "4086600503",
                        "osm_type": "node",
                        "lat": 48.2108755,
                        "lon": 16.3052411,
                        "addr:city": "Wien",
                        "addr:country": "AT",
                        "addr:housenumber": "25",
                        "addr:postcode": "1160",
                        "addr:street": "Rankgasse",
                        "check_date:opening_hours": "2021-11-29",
                        "name": "Klaghofer",
                        "opening_hours": "Mo-Fr 06:30-18:00, Sa 08:00-14:00",
                        "shop": "butcher"
                      },
                      "geometry": {
                        "type": "Point",
                        "coordinates": [
                          16.3052411,
                          48.2108755
                        ]
                      }
                    },
                    {
                      "type": "Feature",
                      "properties": {
                        "id": "5183609566",
                        "osm_type": "node",
                        "lat": 48.2136243,
                        "lon": 16.3202562,
                        "addr:city": "Wien",
                        "addr:country": "AT",
                        "addr:housenumber": "140",
                        "addr:postcode": "1160",
                        "addr:street": "Ottakringer Straße",
                        "check_date": "2023-11-26",
                        "email": "office@gissinger.at",
                        "name": "Gissinger",
                        "opening_hours": "We, Fr 07:00-12:00; PH off",
                        "phone": "+43 1 4862473",
                        "shop": "butcher",
                        "website": "https://www.gissinger.at/",
                        "wheelchair": "limited"
                      },
                      "geometry": {
                        "type": "Point",
                        "coordinates": [
                          16.3202562,
                          48.2136243
                        ]
                      }
                    },
                    {
                      "type": "Feature",
                      "properties": {
                        "id": "5316936379",
                        "osm_type": "node",
                        "lat": 48.2054608,
                        "lon": 16.2247859,
                        "addr:city": "Wien",
                        "addr:country": "AT",
                        "addr:housenumber": "1",
                        "addr:postcode": "1140",
                        "addr:street": "Holzhausenplatz",
                        "name": "Radatz Markt",
                        "opening_hours": "Mo-Fr 09:00-18:30; Sa 09:00-15:00",
                        "phone": "+43 1 5772772",
                        "shop": "butcher"
                      },
                      "geometry": {
                        "type": "Point",
                        "coordinates": [
                          16.2247859,
                          48.2054608
                        ]
                      }
                    },
                    {
                      "type": "Feature",
                      "properties": {
                        "id": "6387604544",
                        "osm_type": "node",
                        "lat": 48.1991488,
                        "lon": 16.311014,
                        "name": "Wurstico",
                        "opening_hours": "Mo-Fr 08:00-18:30; Sa 08:00-17:00; Su off",
                        "shop": "butcher",
                        "wheelchair": "no"
                      },
                      "geometry": {
                        "type": "Point",
                        "coordinates": [
                          16.311014,
                          48.1991488
                        ]
                      }
                    },
                    {
                      "type": "Feature",
                      "properties": {
                        "id": "6499125204",
                        "osm_type": "node",
                        "lat": 48.2023942,
                        "lon": 16.294375,
                        "addr:city": "Wien",
                        "addr:country": "AT",
                        "addr:housenumber": "9",
                        "addr:postcode": "1140",
                        "addr:street": "Braillegasse",
                        "contact:email": "fleischerei.fritz@aon.at",
                        "contact:phone": "+43 1 914 62 26",
                        "name": "Fleischerei Fritz Reinhard",
                        "opening_hours": "Mo-Tu 06:00-18:00; We 06:00-12:30; Th-Fr 06:00-18:00; Sa 06:00-12:00; Su off",
                        "shop": "butcher",
                        "website": "http://fleischerfritz.at/"
                      },
                      "geometry": {
                        "type": "Point",
                        "coordinates": [
                          16.294375,
                          48.2023942
                        ]
                      }
                    },
                    {
                      "type": "Feature",
                      "properties": {
                        "id": "12239449966",
                        "osm_type": "node",
                        "lat": 48.2111151,
                        "lon": 16.3211351,
                        "name": "XXL",
                        "shop": "butcher"
                      },
                      "geometry": {
                        "type": "Point",
                        "coordinates": [
                          16.3211351,
                          48.2111151
                        ]
                      }
                    }
                  ],
                  "children": []
                },
                {
                  "bbox": {
                    "south": 48.190694875,
                    "west": 16.326089437500002,
                    "north": 48.23201403125,
                    "east": 16.445302375
                  },
                  "poiCount": 39,
                  "leafCount": 39,
                  "averagePosition": [
                    16.364711284615385,
                    48.2147431025641
                  ],
                  "data": [
                    {
                      "type": "Feature",
                      "properties": {
                        "id": "252467451",
                        "osm_type": "node",
                        "lat": 48.231216,
                        "lon": 16.3292657,
                        "check_date": "2023-05-08",
                        "email": "gersthof@wiesbauer.at",
                        "name": "Wiesbauer",
                        "opening_hours": "Mo-Fr 06:30-18:30, Sa 06:30-12:30",
                        "operator": "Wiesbauer - Österreichische Wurstspezialitäten GmbH",
                        "payment:mastercard": "yes",
                        "payment:visa": "yes",
                        "phone": "+4314793434",
                        "shop": "butcher",
                        "website": "http://bistro.wiesbauer.at/filialen/gersthof/",
                        "wheelchair": "yes"
                      },
                      "geometry": {
                        "type": "Point",
                        "coordinates": [
                          16.3292657,
                          48.231216
                        ]
                      }
                    },
                    {
                      "type": "Feature",
                      "properties": {
                        "id": "665114398",
                        "osm_type": "node",
                        "lat": 48.1927877,
                        "lon": 16.392431,
                        "addr:city": "Wien",
                        "addr:country": "AT",
                        "addr:housenumber": "56",
                        "addr:postcode": "1030",
                        "addr:street": "Rennweg",
                        "check_date:opening_hours": "2023-10-12",
                        "fax": "+43 (1) 7981151",
                        "name": "Berger",
                        "opening_hours": "Mo-Fr 07:00-18:00; Sa 07:00-12:00",
                        "phone": "+43 (1) 7981108",
                        "shop": "butcher",
                        "website": "https://www.berger-schinken.at/?articles=wien-rennweg",
                        "wheelchair": "no"
                      },
                      "geometry": {
                        "type": "Point",
                        "coordinates": [
                          16.392431,
                          48.1927877
                        ]
                      }
                    },
                    {
                      "type": "Feature",
                      "properties": {
                        "id": "1544723417",
                        "osm_type": "node",
                        "lat": 48.1914004,
                        "lon": 16.3480105,
                        "addr:city": "Wien",
                        "addr:country": "AT",
                        "addr:housenumber": "105",
                        "addr:postcode": "1060",
                        "addr:street": "Gumpendorfer Straße",
                        "check_date:opening_hours": "2023-05-18",
                        "email": "office@fleischerei-ringl.at",
                        "name": "Fleischerei Ringl",
                        "phone": "+43 1 5963278",
                        "shop": "butcher",
                        "website": "http://www.fleischerei-ringl.at",
                        "wheelchair": "yes"
                      },
                      "geometry": {
                        "type": "Point",
                        "coordinates": [
                          16.3480105,
                          48.1914004
                        ]
                      }
                    },
                    {
                      "type": "Feature",
                      "properties": {
                        "id": "1589577021",
                        "osm_type": "node",
                        "lat": 48.1958988,
                        "lon": 16.3974331,
                        "addr:city": "Wien",
                        "addr:country": "AT",
                        "addr:housenumber": "16",
                        "addr:postcode": "1030",
                        "addr:street": "Baumgasse",
                        "check_date": "2025-04-06",
                        "check_date:opening_hours": "2025-04-06",
                        "name": "Baidinger",
                        "opening_hours": "Tu,Fr 07:30-12:30,14:30-17:00; We,Th 07:30-12:30; Sa 07:30-12:00",
                        "phone": "+43 (0)1 / 713 11 90",
                        "shop": "butcher",
                        "wheelchair": "no"
                      },
                      "geometry": {
                        "type": "Point",
                        "coordinates": [
                          16.3974331,
                          48.1958988
                        ]
                      }
                    },
                    {
                      "type": "Feature",
                      "properties": {
                        "id": "1741214791",
                        "osm_type": "node",
                        "lat": 48.2184235,
                        "lon": 16.3263097,
                        "addr:housenumber": "7",
                        "addr:postcode": "1170",
                        "addr:street": "Mariengasse",
                        "email": "info@fleischerei-metzker.at",
                        "name": "Fleischerei Metzker",
                        "opening_hours": "Sa 06:30-12:00, Mo,Tu,Th,Fr 15:00-18:00, Mo-Fr 06:00-13:00",
                        "payment:credit_cards": "yes",
                        "payment:debit_cards": "yes",
                        "phone": "+4314854352",
                        "shop": "butcher",
                        "website": "https://www.fleischerei-metzker.at/"
                      },
                      "geometry": {
                        "type": "Point",
                        "coordinates": [
                          16.3263097,
                          48.2184235
                        ]
                      }
                    },
                    {
                      "type": "Feature",
                      "properties": {
                        "id": "1881666789",
                        "osm_type": "node",
                        "lat": 48.2174379,
                        "lon": 16.3771753,
                        "addr:city": "Wien",
                        "addr:postcode": "1020",
                        "addr:street": "Karmelitermarkt",
                        "butcher": "horse",
                        "check_date": "2025-06-06",
                        "name": "Gumprecht",
                        "opening_hours": "Mo 07:00-14:00; Tu,Th-Fr 07:00-18:00; We,Su,PH off; Sa 07:00-13:00",
                        "phone": "+43 1 2124757",
                        "shop": "butcher",
                        "website": "http://www.pferdefleisch.at/",
                        "wheelchair": "yes"
                      },
                      "geometry": {
                        "type": "Point",
                        "coordinates": [
                          16.3771753,
                          48.2174379
                        ]
                      }
                    },
                    {
                      "type": "Feature",
                      "properties": {
                        "id": "1881666822",
                        "osm_type": "node",
                        "lat": 48.2171094,
                        "lon": 16.3773785,
                        "name": "Schneider",
                        "note": "Wild- u. Geflügel",
                        "shop": "butcher",
                        "wheelchair": "no"
                      },
                      "geometry": {
                        "type": "Point",
                        "coordinates": [
                          16.3773785,
                          48.2171094
                        ]
                      }
                    },
                    {
                      "type": "Feature",
                      "properties": {
                        "id": "2049591652",
                        "osm_type": "node",
                        "lat": 48.1973334,
                        "lon": 16.4030282,
                        "addr:city": "Wien",
                        "addr:housenumber": "83",
                        "addr:postcode": "1030",
                        "addr:street": "Erdbergstraße",
                        "check_date:opening_hours": "2024-11-07",
                        "email": "office@stanzl-spezialitaeten.at",
                        "fax": "+43 1 71331304",
                        "name": "Stanzl",
                        "opening_hours": "Mo-Th 07:00-13:30,15:30-18:30; Fr 07:00-18:30; Sa 07:00-12:00",
                        "phone": "+43 1 7133130",
                        "shop": "butcher",
                        "website": "https://www.stanzl-spezialitaeten.at",
                        "wheelchair": "limited"
                      },
                      "geometry": {
                        "type": "Point",
                        "coordinates": [
                          16.4030282,
                          48.1973334
                        ]
                      }
                    },
                    {
                      "type": "Feature",
                      "properties": {
                        "id": "2087681752",
                        "osm_type": "node",
                        "lat": 48.2071125,
                        "lon": 16.3981108,
                        "name": "Nemetz",
                        "shop": "butcher",
                        "website": "http://www.nemetz-markt.at/nemetz-markt-standorte/nemetz-markt-schuettelstrasse.html"
                      },
                      "geometry": {
                        "type": "Point",
                        "coordinates": [
                          16.3981108,
                          48.2071125
                        ]
                      }
                    },
                    {
                      "type": "Feature",
                      "properties": {
                        "id": "2479893827",
                        "osm_type": "node",
                        "lat": 48.2079406,
                        "lon": 16.3783506,
                        "addr:city": "Wien",
                        "addr:country": "AT",
                        "addr:housenumber": "1",
                        "addr:postcode": "1010",
                        "addr:street": "Postgasse",
                        "check_date:opening_hours": "2025-05-20",
                        "contact:phone": "+43 1 512 84 83",
                        "name": "Fleischerei Kröppel",
                        "opening_hours": "Mo-Fr 08:00-18:00; Sa 08:00-12:00",
                        "shop": "butcher",
                        "source": "survey",
                        "website": "https://josef-kroppel-fleischerei.business.site/",
                        "wheelchair": "limited"
                      },
                      "geometry": {
                        "type": "Point",
                        "coordinates": [
                          16.3783506,
                          48.2079406
                        ]
                      }
                    },
                    {
                      "type": "Feature",
                      "properties": {
                        "id": "3347664268",
                        "osm_type": "node",
                        "lat": 48.2052561,
                        "lon": 16.3335205,
                        "addr:city": "Wien",
                        "addr:country": "AT",
                        "addr:housenumber": "11",
                        "addr:postcode": "1160",
                        "addr:street": "Herbststraße",
                        "check_date": "2025-06-29",
                        "name": "Landl",
                        "opening_hours": "Mo-Th 07:00-13:00; Mo-Tu 15:00-18:00; We-Th 16:00-18:00, Fr 07:00-18:00; Sa 07:00-12:00",
                        "phone": "+43 1 494 40 70",
                        "shop": "butcher",
                        "wheelchair": "no"
                      },
                      "geometry": {
                        "type": "Point",
                        "coordinates": [
                          16.3335205,
                          48.2052561
                        ]
                      }
                    },
                    {
                      "type": "Feature",
                      "properties": {
                        "id": "4118542485",
                        "osm_type": "node",
                        "lat": 48.1992217,
                        "lon": 16.3643737,
                        "addr:city": "Wien",
                        "addr:country": "AT",
                        "addr:housenumber": "C5",
                        "addr:place": "Naschmarkt",
                        "addr:postcode": "1060",
                        "check_date": "2024-02-01",
                        "description": "Verlassen",
                        "name": "Özer Fleischhauer",
                        "shop": "butcher",
                        "wheelchair": "yes"
                      },
                      "geometry": {
                        "type": "Point",
                        "coordinates": [
                          16.3643737,
                          48.1992217
                        ]
                      }
                    },
                    {
                      "type": "Feature",
                      "properties": {
                        "id": "4387383106",
                        "osm_type": "node",
                        "lat": 48.221625,
                        "lon": 16.4015713,
                        "name": "Geflügel Schneider",
                        "opening_hours": "Tu-Fr 07:00-18:00; Sa 07:00-12:30",
                        "shop": "butcher",
                        "wheelchair": "yes"
                      },
                      "geometry": {
                        "type": "Point",
                        "coordinates": [
                          16.4015713,
                          48.221625
                        ]
                      }
                    },
                    {
                      "type": "Feature",
                      "properties": {
                        "id": "4947001922",
                        "osm_type": "node",
                        "lat": 48.2001499,
                        "lon": 16.3353709,
                        "addr:city": "Wien",
                        "addr:country": "AT",
                        "addr:housenumber": "9",
                        "addr:postcode": "1150",
                        "addr:street": "Märzstraße",
                        "name": "Fleischerei Stierschneider",
                        "opening_hours": "Mo-Fr 08:00-18:00; Sa 07:00-12:00",
                        "phone": "+43 1 985 83 03",
                        "shop": "butcher",
                        "website": "https://www.fleischerei-stierschneider.at/"
                      },
                      "geometry": {
                        "type": "Point",
                        "coordinates": [
                          16.3353709,
                          48.2001499
                        ]
                      }
                    },
                    {
                      "type": "Feature",
                      "properties": {
                        "id": "5244539749",
                        "osm_type": "node",
                        "lat": 48.2255777,
                        "lon": 16.4223021,
                        "name": "Pferdefleischer Rudolf Schuller",
                        "opening_hours": "Mo-Fr 7:00-18:00, Sa 7:00-12:00",
                        "shop": "butcher",
                        "wheelchair": "no"
                      },
                      "geometry": {
                        "type": "Point",
                        "coordinates": [
                          16.4223021,
                          48.2255777
                        ]
                      }
                    },
                    {
                      "type": "Feature",
                      "properties": {
                        "id": "5737602900",
                        "osm_type": "node",
                        "lat": 48.2167899,
                        "lon": 16.3766112,
                        "name": "Bahur Tov",
                        "opening_hours": "Mo-Fr 08:30-18:00",
                        "shop": "butcher"
                      },
                      "geometry": {
                        "type": "Point",
                        "coordinates": [
                          16.3766112,
                          48.2167899
                        ]
                      }
                    },
                    {
                      "type": "Feature",
                      "properties": {
                        "id": "8645914093",
                        "osm_type": "node",
                        "lat": 48.2098888,
                        "lon": 16.3355451,
                        "shop": "butcher"
                      },
                      "geometry": {
                        "type": "Point",
                        "coordinates": [
                          16.3355451,
                          48.2098888
                        ]
                      }
                    },
                    {
                      "type": "Feature",
                      "properties": {
                        "id": "9860876647",
                        "osm_type": "node",
                        "lat": 48.2117061,
                        "lon": 16.3362498,
                        "name": "Ayaz",
                        "shop": "butcher"
                      },
                      "geometry": {
                        "type": "Point",
                        "coordinates": [
                          16.3362498,
                          48.2117061
                        ]
                      }
                    },
                    {
                      "type": "Feature",
                      "properties": {
                        "id": "9860896792",
                        "osm_type": "node",
                        "lat": 48.2129248,
                        "lon": 16.336304,
                        "name": "Kikret",
                        "shop": "butcher"
                      },
                      "geometry": {
                        "type": "Point",
                        "coordinates": [
                          16.336304,
                          48.2129248
                        ]
                      }
                    },
                    {
                      "type": "Feature",
                      "properties": {
                        "id": "10738878850",
                        "osm_type": "node",
                        "lat": 48.2314831,
                        "lon": 16.3689227,
                        "check_date": "2023-03-16",
                        "name": "Güven-Al Fleischerei",
                        "shop": "butcher"
                      },
                      "geometry": {
                        "type": "Point",
                        "coordinates": [
                          16.3689227,
                          48.2314831
                        ]
                      }
                    },
                    {
                      "type": "Feature",
                      "properties": {
                        "id": "10738878854",
                        "osm_type": "node",
                        "lat": 48.2314133,
                        "lon": 16.3690178,
                        "check_date": "2023-03-16",
                        "name": "Cerci Fleischwaren",
                        "shop": "butcher"
                      },
                      "geometry": {
                        "type": "Point",
                        "coordinates": [
                          16.3690178,
                          48.2314133
                        ]
                      }
                    },
                    {
                      "type": "Feature",
                      "properties": {
                        "id": "10752690139",
                        "osm_type": "node",
                        "lat": 48.2316135,
                        "lon": 16.368785,
                        "check_date": "2023-03-22",
                        "name": "Al Hassan Fleischerei",
                        "shop": "butcher"
                      },
                      "geometry": {
                        "type": "Point",
                        "coordinates": [
                          16.368785,
                          48.2316135
                        ]
                      }
                    },
                    {
                      "type": "Feature",
                      "properties": {
                        "id": "10752690140",
                        "osm_type": "node",
                        "lat": 48.2316709,
                        "lon": 16.3687727,
                        "check_date": "2023-03-22",
                        "name": "Fleischerei Guskic KEG",
                        "shop": "butcher"
                      },
                      "geometry": {
                        "type": "Point",
                        "coordinates": [
                          16.3687727,
                          48.2316709
                        ]
                      }
                    },
                    {
                      "type": "Feature",
                      "properties": {
                        "id": "10752690141",
                        "osm_type": "node",
                        "lat": 48.2317451,
                        "lon": 16.3687627,
                        "check_date": "2023-03-22",
                        "name": "Kod Andia",
                        "shop": "butcher"
                      },
                      "geometry": {
                        "type": "Point",
                        "coordinates": [
                          16.3687627,
                          48.2317451
                        ]
                      }
                    },
                    {
                      "type": "Feature",
                      "properties": {
                        "id": "10752690143",
                        "osm_type": "node",
                        "lat": 48.2318892,
                        "lon": 16.3687326,
                        "check_date": "2023-03-22",
                        "name": "Fleischerei Sahan",
                        "shop": "butcher"
                      },
                      "geometry": {
                        "type": "Point",
                        "coordinates": [
                          16.3687326,
                          48.2318892
                        ]
                      }
                    },
                    {
                      "type": "Feature",
                      "properties": {
                        "id": "10772718624",
                        "osm_type": "node",
                        "lat": 48.1997643,
                        "lon": 16.345726,
                        "addr:city": "Wien",
                        "addr:country": "AT",
                        "addr:housenumber": "56",
                        "addr:postcode": "1070",
                        "addr:street": "Lindengasse",
                        "contact:email": "kontakt@die-pflanzerei.at",
                        "contact:facebook": "https://www.facebook.com/DiePflanzereiWien",
                        "contact:instagram": "https://www.instagram.com/diepflanzerei_vegane_metzgerei/",
                        "diet:vegan": "only",
                        "name": "Die Pflanzerei - die vegane Metzgerei",
                        "opening_hours": "Mo 16:00-17:55; Tu-Fr 9:00-17:55",
                        "phone": "+43660 618 55 99",
                        "shop": "butcher",
                        "website": "https://www.die-pflanzerei.at"
                      },
                      "geometry": {
                        "type": "Point",
                        "coordinates": [
                          16.345726,
                          48.1997643
                        ]
                      }
                    },
                    {
                      "type": "Feature",
                      "properties": {
                        "id": "10772847777",
                        "osm_type": "node",
                        "lat": 48.2313892,
                        "lon": 16.3691181,
                        "name": "Çerçi Fleischerei",
                        "opening_hours": "Mo-Fr 06:30-18:00; Sa 06:00-18:00",
                        "shop": "butcher"
                      },
                      "geometry": {
                        "type": "Point",
                        "coordinates": [
                          16.3691181,
                          48.2313892
                        ]
                      }
                    },
                    {
                      "type": "Feature",
                      "properties": {
                        "id": "10819966443",
                        "osm_type": "node",
                        "lat": 48.2012249,
                        "lon": 16.3919279,
                        "addr:housenumber": "70",
                        "addr:street": "Landstraßer Hauptstraße",
                        "check_date": "2023-04-17",
                        "name": "Crazy Butcher",
                        "opening_hours": "Mo-Fr 09:00-18:00; Sa 08:30-13:00; PH,Su off",
                        "shop": "butcher"
                      },
                      "geometry": {
                        "type": "Point",
                        "coordinates": [
                          16.3919279,
                          48.2012249
                        ]
                      }
                    },
                    {
                      "type": "Feature",
                      "properties": {
                        "id": "10833680434",
                        "osm_type": "node",
                        "lat": 48.2317729,
                        "lon": 16.3689398,
                        "check_date": "2023-04-23",
                        "name": "Huzur Geflügel",
                        "opening_hours": "Mo-Sa 06:00-18:00",
                        "operator": "Fazil Ablak",
                        "shop": "butcher"
                      },
                      "geometry": {
                        "type": "Point",
                        "coordinates": [
                          16.3689398,
                          48.2317729
                        ]
                      }
                    },
                    {
                      "type": "Feature",
                      "properties": {
                        "id": "10875526511",
                        "osm_type": "node",
                        "lat": 48.231862,
                        "lon": 16.3690271,
                        "check_date": "2023-05-07",
                        "name": "Bahar Fleischerei",
                        "shop": "butcher"
                      },
                      "geometry": {
                        "type": "Point",
                        "coordinates": [
                          16.3690271,
                          48.231862
                        ]
                      }
                    },
                    {
                      "type": "Feature",
                      "properties": {
                        "id": "10875526515",
                        "osm_type": "node",
                        "lat": 48.2317282,
                        "lon": 16.3691401,
                        "check_date": "2023-05-07",
                        "name": "Orientalische Lebensmittel",
                        "shop": "butcher"
                      },
                      "geometry": {
                        "type": "Point",
                        "coordinates": [
                          16.3691401,
                          48.2317282
                        ]
                      }
                    },
                    {
                      "type": "Feature",
                      "properties": {
                        "id": "11577267846",
                        "osm_type": "node",
                        "lat": 48.1988949,
                        "lon": 16.3643492,
                        "check_date": "2024-02-01",
                        "name": "Fleischerei AZM",
                        "opening_hours": "Mo-Fr 07:30-18:00; Sa 08:00-18:00",
                        "shop": "butcher",
                        "wheelchair": "yes"
                      },
                      "geometry": {
                        "type": "Point",
                        "coordinates": [
                          16.3643492,
                          48.1988949
                        ]
                      }
                    },
                    {
                      "type": "Feature",
                      "properties": {
                        "id": "11577267847",
                        "osm_type": "node",
                        "lat": 48.1991748,
                        "lon": 16.3645959,
                        "check_date": "2024-02-01",
                        "name": "Huhn & Fleisch",
                        "opening_hours": "Mo-Sa 07:00-18:00",
                        "shop": "butcher",
                        "wheelchair": "yes"
                      },
                      "geometry": {
                        "type": "Point",
                        "coordinates": [
                          16.3645959,
                          48.1991748
                        ]
                      }
                    },
                    {
                      "type": "Feature",
                      "properties": {
                        "id": "11879368875",
                        "osm_type": "node",
                        "lat": 48.2068993,
                        "lon": 16.3704211,
                        "addr:city": "Wien",
                        "addr:country": "AT",
                        "addr:housenumber": "14",
                        "addr:postcode": "1010",
                        "addr:street": "Seilergasse",
                        "check_date": "2024-05-04",
                        "contact:phone": "+43 1 33130-130",
                        "name": "Aumaerk",
                        "opening_hours": "Mo-Fr 10:30-19:30; Sa 10:30-18:30",
                        "shop": "butcher",
                        "website": "https://aumaerk.com/de-AT/at/impressum"
                      },
                      "geometry": {
                        "type": "Point",
                        "coordinates": [
                          16.3704211,
                          48.2068993
                        ]
                      }
                    },
                    {
                      "type": "Feature",
                      "properties": {
                        "id": "11958794783",
                        "osm_type": "node",
                        "lat": 48.2135491,
                        "lon": 16.3367422,
                        "check_date": "2024-06-05",
                        "name": "Köroglu",
                        "shop": "butcher"
                      },
                      "geometry": {
                        "type": "Point",
                        "coordinates": [
                          16.3367422,
                          48.2135491
                        ]
                      }
                    },
                    {
                      "type": "Feature",
                      "properties": {
                        "id": "11958794786",
                        "osm_type": "node",
                        "lat": 48.2133359,
                        "lon": 16.3365749,
                        "check_date": "2024-06-05",
                        "name": "Esma Fleischerei",
                        "shop": "butcher"
                      },
                      "geometry": {
                        "type": "Point",
                        "coordinates": [
                          16.3365749,
                          48.2133359
                        ]
                      }
                    },
                    {
                      "type": "Feature",
                      "properties": {
                        "id": "11958794787",
                        "osm_type": "node",
                        "lat": 48.213147,
                        "lon": 16.3365938,
                        "check_date": "2024-06-05",
                        "name": "Altiparmak",
                        "shop": "butcher"
                      },
                      "geometry": {
                        "type": "Point",
                        "coordinates": [
                          16.3365938,
                          48.213147
                        ]
                      }
                    },
                    {
                      "type": "Feature",
                      "properties": {
                        "id": "11958794793",
                        "osm_type": "node",
                        "lat": 48.2121493,
                        "lon": 16.3362778,
                        "check_date": "2024-06-05",
                        "name": "Al Jazeera",
                        "shop": "butcher"
                      },
                      "geometry": {
                        "type": "Point",
                        "coordinates": [
                          16.3362778,
                          48.2121493
                        ]
                      }
                    },
                    {
                      "type": "Feature",
                      "properties": {
                        "id": "13050441474",
                        "osm_type": "node",
                        "lat": 48.2204739,
                        "lon": 16.3819707,
                        "addr:housenumber": "7",
                        "addr:street": "Große Stadtgutgasse",
                        "check_date": "2025-08-05",
                        "name": "Hager Kosher Fleisch",
                        "name:he": "בשר כשר האגר",
                        "opening_hours": "Mo 11:00-17:00; Tu-Th 08:00-17:00; Fr 08:00-13:00",
                        "shop": "butcher"
                      },
                      "geometry": {
                        "type": "Point",
                        "coordinates": [
                          16.3819707,
                          48.2204739
                        ]
                      }
                    }
                  ],
                  "children": []
                },
                {
                  "bbox": {
                    "south": 48.23201403125,
                    "west": 16.326089437500002,
                    "north": 48.2733331875,
                    "east": 16.445302375
                  },
                  "poiCount": 12,
                  "leafCount": 12,
                  "averagePosition": [
                    16.3851836,
                    48.246815383333335
                  ],
                  "data": [
                    {
                      "type": "Feature",
                      "properties": {
                        "id": "352984839",
                        "osm_type": "node",
                        "lat": 48.256749,
                        "lon": 16.3987074,
                        "addr:city": "Wien",
                        "addr:country": "AT",
                        "addr:housenumber": "4",
                        "addr:postcode": "1210",
                        "addr:street": "Franz-Jonas-Platz",
                        "check_date:opening_hours": "2023-11-01",
                        "name": "Wiesbauer",
                        "opening_hours": "Mo-Fr 05:30-19:00, Sa 07:00-17:00",
                        "operator": "Wiesbauer",
                        "shop": "butcher",
                        "wheelchair": "no"
                      },
                      "geometry": {
                        "type": "Point",
                        "coordinates": [
                          16.3987074,
                          48.256749
                        ]
                      }
                    },
                    {
                      "type": "Feature",
                      "properties": {
                        "id": "1802230605",
                        "osm_type": "node",
                        "lat": 48.2662141,
                        "lon": 16.3920909,
                        "addr:city": "Wien",
                        "addr:country": "AT",
                        "addr:housenumber": "86",
                        "addr:postcode": "1210",
                        "addr:street": "Anton-Störck-Gasse",
                        "name": "Pferdefleischhauer",
                        "opening_hours": "Mo-Fr 08:00-17:00",
                        "operator": "Rudolf Schüller",
                        "shop": "butcher"
                      },
                      "geometry": {
                        "type": "Point",
                        "coordinates": [
                          16.3920909,
                          48.2662141
                        ]
                      }
                    },
                    {
                      "type": "Feature",
                      "properties": {
                        "id": "2702604925",
                        "osm_type": "node",
                        "lat": 48.2500891,
                        "lon": 16.4440711,
                        "name": "Fleischerei K1",
                        "shop": "butcher"
                      },
                      "geometry": {
                        "type": "Point",
                        "coordinates": [
                          16.4440711,
                          48.2500891
                        ]
                      }
                    },
                    {
                      "type": "Feature",
                      "properties": {
                        "id": "4932015101",
                        "osm_type": "node",
                        "lat": 48.2424378,
                        "lon": 16.3411462,
                        "addr:city": "Wien",
                        "addr:country": "AT",
                        "addr:housenumber": "2",
                        "addr:postcode": "1190",
                        "addr:street": "Sonnbergplatz",
                        "check_date:opening_hours": "2021-03-11",
                        "name": "Sonnberg Biofleisch",
                        "opening_hours": "Mo-Fr 08:00-18:00; Sa 08:00-13:00; PH off",
                        "operator": "Sonnberg Biofleisch GmbH",
                        "phone": "+43 1 368 98 29",
                        "shop": "butcher",
                        "website": "https://www.biofleisch.biz/"
                      },
                      "geometry": {
                        "type": "Point",
                        "coordinates": [
                          16.3411462,
                          48.2424378
                        ]
                      }
                    },
                    {
                      "type": "Feature",
                      "properties": {
                        "id": "8375864965",
                        "osm_type": "node",
                        "lat": 48.2615444,
                        "lon": 16.4015128,
                        "addr:city": "Wien",
                        "addr:country": "AT",
                        "addr:housenumber": "60/69",
                        "addr:postcode": "1210",
                        "addr:street": "Floridsdorfer Markt",
                        "building": "yes",
                        "butcher": "horse",
                        "name": "Gumprecht",
                        "opening_hours": "Tu,We 06:30-18:00; Mo 06:30-16:00",
                        "phone": "+43 1 2701322",
                        "shop": "butcher",
                        "source": "ViennaGIS",
                        "website": "https://www.pferdefleischer.at/",
                        "wheelchair": "yes"
                      },
                      "geometry": {
                        "type": "Point",
                        "coordinates": [
                          16.4015128,
                          48.2615444
                        ]
                      }
                    },
                    {
                      "type": "Feature",
                      "properties": {
                        "id": "10315225098",
                        "osm_type": "node",
                        "lat": 48.2327467,
                        "lon": 16.3658709,
                        "shop": "butcher"
                      },
                      "geometry": {
                        "type": "Point",
                        "coordinates": [
                          16.3658709,
                          48.2327467
                        ]
                      }
                    },
                    {
                      "type": "Feature",
                      "properties": {
                        "id": "10752690146",
                        "osm_type": "node",
                        "lat": 48.2321068,
                        "lon": 16.3686927,
                        "check_date": "2023-03-22",
                        "name": "Köseoglu",
                        "shop": "butcher"
                      },
                      "geometry": {
                        "type": "Point",
                        "coordinates": [
                          16.3686927,
                          48.2321068
                        ]
                      }
                    },
                    {
                      "type": "Feature",
                      "properties": {
                        "id": "10788206492",
                        "osm_type": "node",
                        "lat": 48.2615808,
                        "lon": 16.4018297,
                        "name": "Canet",
                        "shop": "butcher"
                      },
                      "geometry": {
                        "type": "Point",
                        "coordinates": [
                          16.4018297,
                          48.2615808
                        ]
                      }
                    },
                    {
                      "type": "Feature",
                      "properties": {
                        "id": "10788222425",
                        "osm_type": "node",
                        "lat": 48.261603,
                        "lon": 16.4016202,
                        "name": "Lukajic",
                        "shop": "butcher"
                      },
                      "geometry": {
                        "type": "Point",
                        "coordinates": [
                          16.4016202,
                          48.261603
                        ]
                      }
                    },
                    {
                      "type": "Feature",
                      "properties": {
                        "id": "10875526513",
                        "osm_type": "node",
                        "lat": 48.2320614,
                        "lon": 16.3689921,
                        "check_date": "2023-05-07",
                        "name": "Fleischerei Güler",
                        "shop": "butcher"
                      },
                      "geometry": {
                        "type": "Point",
                        "coordinates": [
                          16.3689921,
                          48.2320614
                        ]
                      }
                    },
                    {
                      "type": "Feature",
                      "properties": {
                        "id": "10875526518",
                        "osm_type": "node",
                        "lat": 48.2322719,
                        "lon": 16.3688422,
                        "check_date": "2023-05-07",
                        "name": "Janset",
                        "shop": "butcher"
                      },
                      "geometry": {
                        "type": "Point",
                        "coordinates": [
                          16.3688422,
                          48.2322719
                        ]
                      }
                    },
                    {
                      "type": "Feature",
                      "properties": {
                        "id": "10875526519",
                        "osm_type": "node",
                        "lat": 48.2323796,
                        "lon": 16.368827,
                        "check_date": "2023-05-07",
                        "name": "Abdulaev KG Fleischerei",
                        "shop": "butcher"
                      },
                      "geometry": {
                        "type": "Point",
                        "coordinates": [
                          16.368827,
                          48.2323796
                        ]
                      }
                    }
                  ],
                  "children": []
                }
              ]
            },
            {
              "bbox": {
                "south": 48.190694875,
                "west": 16.445302375,
                "north": 48.2733331875,
                "east": 16.68372825
              },
              "poiCount": 2,
              "leafCount": 2,
              "averagePosition": [
                16.460669799999998,
                48.2541406
              ],
              "data": [
                {
                  "type": "Feature",
                  "properties": {
                    "id": "4089569564",
                    "osm_type": "node",
                    "lat": 48.263993,
                    "lon": 16.4588151,
                    "name": "Nemetz-Fleisch",
                    "shop": "butcher"
                  },
                  "geometry": {
                    "type": "Point",
                    "coordinates": [
                      16.4588151,
                      48.263993
                    ]
                  }
                },
                {
                  "type": "Feature",
                  "properties": {
                    "id": "7286349922",
                    "osm_type": "node",
                    "lat": 48.2442882,
                    "lon": 16.4625245,
                    "addr:city": "Wien",
                    "addr:country": "AT",
                    "addr:housenumber": "19",
                    "addr:postcode": "1220",
                    "addr:street": "Gewerbeparkstraße",
                    "name": "Abholmarkt Wurst & Mehr",
                    "opening_hours": "Mo-Fr 09:00-18:00; Sa 09:00-15:00",
                    "shop": "butcher"
                  },
                  "geometry": {
                    "type": "Point",
                    "coordinates": [
                      16.4625245,
                      48.2442882
                    ]
                  }
                }
              ],
              "children": []
            },
            {
              "bbox": {
                "south": 48.2733331875,
                "west": 16.2068765,
                "north": 48.355971499999995,
                "east": 16.445302375
              },
              "poiCount": 6,
              "leafCount": 6,
              "averagePosition": [
                16.336838966666665,
                48.31545811666666
              ],
              "data": [
                {
                  "type": "Feature",
                  "properties": {
                    "id": "349134259",
                    "osm_type": "node",
                    "lat": 48.2784608,
                    "lon": 16.4106319,
                    "addr:city": "Wien",
                    "addr:country": "AT",
                    "addr:housenumber": "138",
                    "addr:postcode": "1210",
                    "addr:street": "Brünner Straße",
                    "check_date:opening_hours": "2023-08-14",
                    "name": "Fleischerei Scheiterer",
                    "opening_hours": "Mo-Th 07:00-12:30,15:00-18:00; Fr 07:00-18:00; Sa 07:00-12:30",
                    "shop": "butcher",
                    "website": "https://www.scheiterer.com/"
                  },
                  "geometry": {
                    "type": "Point",
                    "coordinates": [
                      16.4106319,
                      48.2784608
                    ]
                  }
                },
                {
                  "type": "Feature",
                  "properties": {
                    "id": "352741330",
                    "osm_type": "node",
                    "lat": 48.344009,
                    "lon": 16.3345825,
                    "addr:city": "Korneuburg",
                    "addr:country": "AT",
                    "addr:housenumber": "13",
                    "addr:postcode": "2100",
                    "addr:street": "Hauptplatz",
                    "name": "Fleischerei Hofmann",
                    "opening_hours": "Mo-We 07:00-14:00, Th-Fr 07:00-18:00, Sa 07:00-12:00; Su,PH off",
                    "phone": "+43(02262) 72104",
                    "shop": "butcher",
                    "wheelchair": "yes"
                  },
                  "geometry": {
                    "type": "Point",
                    "coordinates": [
                      16.3345825,
                      48.344009
                    ]
                  }
                },
                {
                  "type": "Feature",
                  "properties": {
                    "id": "1883635146",
                    "osm_type": "node",
                    "lat": 48.3092409,
                    "lon": 16.3580477,
                    "access": "customers",
                    "addr:city": "Langenzersdorf",
                    "addr:country": "AT",
                    "addr:housenumber": "1",
                    "addr:postcode": "2103",
                    "addr:street": "Wiener Straße",
                    "check_date:opening_hours": "2025-05-06",
                    "contact:email": "fleischerei@dormayer.at",
                    "contact:phone": "+43 2244 2252",
                    "contact:website": "http://www.dormayer.at/",
                    "entrance": "yes",
                    "name": "Fleischerei Dormayer",
                    "opening_hours": "Tu,We 08:00-13:00,15:30-18:00; Th 08:00-13:00; Fr 07:00-18:00; Sa 07:00-13:00",
                    "shop": "butcher",
                    "wheelchair": "yes"
                  },
                  "geometry": {
                    "type": "Point",
                    "coordinates": [
                      16.3580477,
                      48.3092409
                    ]
                  }
                },
                {
                  "type": "Feature",
                  "properties": {
                    "id": "2120069563",
                    "osm_type": "node",
                    "lat": 48.3217364,
                    "lon": 16.2071962,
                    "name": "Wiesbauer Bistro & Shop",
                    "shop": "butcher",
                    "website": "https://www.wiesbauer.at"
                  },
                  "geometry": {
                    "type": "Point",
                    "coordinates": [
                      16.2071962,
                      48.3217364
                    ]
                  }
                },
                {
                  "type": "Feature",
                  "properties": {
                    "id": "5312344362",
                    "osm_type": "node",
                    "lat": 48.3388053,
                    "lon": 16.3392329,
                    "addr:city": "Korneuburg",
                    "addr:country": "AT",
                    "addr:housenumber": "25",
                    "addr:postcode": "2100",
                    "addr:street": "Wiener Straße",
                    "name": "Radatz Markt",
                    "opening_hours": "Mo-Fr 08:00-18:00; Sa 08:00-13:00",
                    "shop": "butcher"
                  },
                  "geometry": {
                    "type": "Point",
                    "coordinates": [
                      16.3392329,
                      48.3388053
                    ]
                  }
                },
                {
                  "type": "Feature",
                  "properties": {
                    "id": "12174743760",
                    "osm_type": "node",
                    "lat": 48.3004963,
                    "lon": 16.3713426,
                    "addr:city": "Langenzersdorf",
                    "addr:country": "AT",
                    "addr:housenumber": "3",
                    "addr:postcode": "2103",
                    "addr:street": "Weißes Kreuz Straße",
                    "name": "Radatz Großmarkt",
                    "opening_hours": "Mo-Fr 08:00-18:00; Sa 08:00-15:00",
                    "shop": "butcher"
                  },
                  "geometry": {
                    "type": "Point",
                    "coordinates": [
                      16.3713426,
                      48.3004963
                    ]
                  }
                }
              ],
              "children": []
            },
            {
              "bbox": {
                "south": 48.2733331875,
                "west": 16.445302375,
                "north": 48.355971499999995,
                "east": 16.68372825
              },
              "poiCount": 1,
              "leafCount": 1,
              "averagePosition": [
                16.4697324,
                48.295664
              ],
              "data": [
                {
                  "type": "Feature",
                  "properties": {
                    "id": "364361811",
                    "osm_type": "node",
                    "lat": 48.295664,
                    "lon": 16.4697324,
                    "created_by": "Potlatch 0.10f",
                    "shop": "butcher"
                  },
                  "geometry": {
                    "type": "Point",
                    "coordinates": [
                      16.4697324,
                      48.295664
                    ]
                  }
                }
              ],
              "children": []
            }
          ]
        },
        {
          "bbox": {
            "south": 48.190694875,
            "west": 16.68372825,
            "north": 48.355971499999995,
            "east": 17.16058
          },
          "poiCount": 10,
          "leafCount": 10,
          "averagePosition": [
            16.98809377,
            48.2678708
          ],
          "data": [
            {
              "type": "Feature",
              "properties": {
                "id": "9193325464",
                "osm_type": "node",
                "lat": 48.3279912,
                "lon": 16.9094612,
                "name": "Mäso - Údeniny Berto",
                "shop": "butcher"
              },
              "geometry": {
                "type": "Point",
                "coordinates": [
                  16.9094612,
                  48.3279912
                ]
              }
            },
            {
              "type": "Feature",
              "properties": {
                "id": "10090374315",
                "osm_type": "node",
                "lat": 48.333454,
                "lon": 16.7151859,
                "name": "Fleisch und Wurst Abholmarkt",
                "opening_hours": "Mo-Fr 06:00-18:00; Sa 06:00-16:00",
                "operator": "Josef Leuthner",
                "phone": "+43/2282/60091",
                "shop": "butcher",
                "website": "https://www.leuthner-abholmarkt.at/"
              },
              "geometry": {
                "type": "Point",
                "coordinates": [
                  16.7151859,
                  48.333454
                ]
              }
            },
            {
              "type": "Feature",
              "properties": {
                "id": "11016824887",
                "osm_type": "node",
                "lat": 48.2057654,
                "lon": 16.9808748,
                "name": "Miran",
                "shop": "butcher"
              },
              "geometry": {
                "type": "Point",
                "coordinates": [
                  16.9808748,
                  48.2057654
                ]
              }
            },
            {
              "type": "Feature",
              "properties": {
                "id": "11212484754",
                "osm_type": "node",
                "lat": 48.342568,
                "lon": 16.839857,
                "addr:city": "Zwerndorf",
                "addr:housenumber": "27",
                "addr:postcode": "2295",
                "addr:street": "Dorfstraße",
                "name": "Rindfleisch Schultes / Ab Hof",
                "opening_hours": "Mo-Sa 08:00-20:00",
                "phone": "+43 676 7038280",
                "shop": "butcher",
                "website": "https://rindfleisch-schultes.business.site/"
              },
              "geometry": {
                "type": "Point",
                "coordinates": [
                  16.839857,
                  48.342568
                ]
              }
            },
            {
              "type": "Feature",
              "properties": {
                "id": "11694654325",
                "osm_type": "node",
                "lat": 48.2396305,
                "lon": 17.0260003,
                "cuisine": "regional",
                "mobile": "+421 908 630 304",
                "name": "MÄSIARSTVO s.r.o.",
                "opening_hours": "Mo 08:00-15:00; Tu-Fr 08:00-17:00; Sa 08:00-12:00",
                "outdoor_seating": "yes",
                "shop": "butcher"
              },
              "geometry": {
                "type": "Point",
                "coordinates": [
                  17.0260003,
                  48.2396305
                ]
              }
            },
            {
              "type": "Feature",
              "properties": {
                "id": "1340604506",
                "osm_type": "node",
                "lat": 48.2127548,
                "lon": 17.1488612,
                "image": "https://backend.freemap.sk/gallery/pictures/679695/image",
                "name": "Mäsiarstvo pod kúpaliskom",
                "opening_hours": "closed",
                "payment:credit_cards": "yes",
                "payment:debit_cards": "yes",
                "shop": "butcher",
                "wheelchair": "limited"
              },
              "geometry": {
                "type": "Point",
                "coordinates": [
                  17.1488612,
                  48.2127548
                ]
              }
            },
            {
              "type": "Feature",
              "properties": {
                "id": "3026939556",
                "osm_type": "node",
                "lat": 48.2715819,
                "lon": 17.0315631,
                "shop": "butcher"
              },
              "geometry": {
                "type": "Point",
                "coordinates": [
                  17.0315631,
                  48.2715819
                ]
              }
            },
            {
              "type": "Feature",
              "properties": {
                "id": "6551106260",
                "osm_type": "node",
                "lat": 48.3352775,
                "lon": 17.0398754,
                "shop": "butcher",
                "source": "survey"
              },
              "geometry": {
                "type": "Point",
                "coordinates": [
                  17.0398754,
                  48.3352775
                ]
              }
            },
            {
              "type": "Feature",
              "properties": {
                "id": "10951705256",
                "osm_type": "node",
                "lat": 48.1978806,
                "lon": 17.034566,
                "name": "Mäsiarstvo Danubius",
                "opening_hours": "Mo-Fr 07:00-18:00; Sa 07:00-12:00; Su off",
                "shop": "butcher"
              },
              "geometry": {
                "type": "Point",
                "coordinates": [
                  17.034566,
                  48.1978806
                ]
              }
            },
            {
              "type": "Feature",
              "properties": {
                "id": "11823970133",
                "osm_type": "node",
                "lat": 48.2118041,
                "lon": 17.1546928,
                "name": "Gašparík",
                "opening_hours": "Mo 08:00-16:00; Tu-Fr 08:00-18:00; Sa 07:00-12:00",
                "shop": "butcher",
                "website": "https://www.gasparikmasovyroba.sk/"
              },
              "geometry": {
                "type": "Point",
                "coordinates": [
                  17.1546928,
                  48.2118041
                ]
              }
            }
          ],
          "children": []
        }
      ]
    }
  ]
}