{
  "bbox": {
    "south": 47.033758500000005,
    "west": 15.253173,
    "north": 47.694865,
    "east": 17.16058
  },
  "poiCount": 72,
  "leafCount": 0,
  "averagePosition": [
    16.06204229305556,
    47.32516837361111
  ],
  "data": [],
  "children": [
    {
      "bbox": {
        "south": 47.033758500000005,
        "west": 15.253173,
        "north": 47.36431175,
        "east": 16.2068765
      },
      "poiCount": 30,
      "leafCount": 30,
      "averagePosition": [
        15.634540196666668,
        47.13465933333334
      ],
      "data": [
        {
          "type": "Feature",
          "properties": {
            "id": "1245537944",
            "osm_type": "node",
            "lat": 47.0752956,
            "lon": 15.4475792,
            "addr:city": "Graz",
            "addr:country": "AT",
            "addr:housenumber": "12",
            "addr:postcode": "8010",
            "addr:street": "Zinzendorfgasse",
            "contact:fax": "+43 316 339 686",
            "contact:phone": "+43 316 319 195",
            "contact:website": "http://www.mosshammer.at",
            "level": "0",
            "name": "Mosshammer",
            "opening_hours": "Mo-Fr 07:30-18:00; Sa 07:00-12:00; Su off",
            "shop": "butcher",
            "source": "http://www.mosshammer.at",
            "wheelchair": "no"
          },
          "geometry": {
            "type": "Point",
            "coordinates": [
              15.4475792,
              47.0752956
            ]
          }
        },
        {
          "type": "Feature",
          "properties": {
            "id": "1252326818",
            "osm_type": "node",
            "lat": 47.0676287,
            "lon": 15.4426668,
            "name": "Fleischerei Stacherl",
            "shop": "butcher"
          },
          "geometry": {
            "type": "Point",
            "coordinates": [
              15.4426668,
              47.0676287
            ]
          }
        },
        {
          "type": "Feature",
          "properties": {
            "id": "1264400002",
            "osm_type": "node",
            "lat": 47.0687081,
            "lon": 15.4470401,
            "addr:city": "Graz",
            "addr:country": "AT",
            "addr:housenumber": "13-15",
            "addr:postcode": "8010",
            "addr:street": "Kaiser-Josef-Platz",
            "contact:email": "fleischerei@derfeiertag.at",
            "contact:phone": "+43 316 84 59 62",
            "contact:website": "https://www.derfeiertag.at/",
            "name": "Feiertag",
            "opening_hours": "Mo-Fr 07:00-13:30; Sa 06:00-13:00",
            "organic": "yes",
            "shop": "butcher",
            "wheelchair": "yes"
          },
          "geometry": {
            "type": "Point",
            "coordinates": [
              15.4470401,
              47.0687081
            ]
          }
        },
        {
          "type": "Feature",
          "properties": {
            "id": "1363128985",
            "osm_type": "node",
            "lat": 47.0687666,
            "lon": 15.446898,
            "addr:city": "Graz",
            "addr:country": "AT",
            "addr:postcode": "8010",
            "addr:street": "Kaiser-Josef-Platz",
            "check_date:opening_hours": "2025-08-21",
            "name": "Rinner",
            "opening_hours": "Mo-Sa 06:00-13:00",
            "phone": "+43 316 826205",
            "shop": "butcher",
            "website": "https://www.rinner.co.at/",
            "wheelchair": "no"
          },
          "geometry": {
            "type": "Point",
            "coordinates": [
              15.446898,
              47.0687666
            ]
          }
        },
        {
          "type": "Feature",
          "properties": {
            "id": "2442954921",
            "osm_type": "node",
            "lat": 47.0910332,
            "lon": 15.4085878,
            "addr:city": "Graz",
            "addr:country": "AT",
            "addr:housenumber": "220",
            "addr:postcode": "8051",
            "addr:street": "Wiener Straße",
            "name": "Fleischerei Bernhard",
            "opening_hours": "Mo, Tu 07:00-12:30; We-Fr 07:00-12:30, 15:00-18:00; Sa 07:30-12:00",
            "phone": "+43316 683140",
            "shop": "butcher",
            "website": "http://www.fleischerei-bernhard.at"
          },
          "geometry": {
            "type": "Point",
            "coordinates": [
              15.4085878,
              47.0910332
            ]
          }
        },
        {
          "type": "Feature",
          "properties": {
            "id": "2564388957",
            "osm_type": "node",
            "lat": 47.0747884,
            "lon": 15.4314385,
            "check_date": "2022-08-24",
            "name": "Alois Lamprecht",
            "opening_hours": "We-Sa 06:30-13:30",
            "shop": "butcher",
            "source": "survey"
          },
          "geometry": {
            "type": "Point",
            "coordinates": [
              15.4314385,
              47.0747884
            ]
          }
        },
        {
          "type": "Feature",
          "properties": {
            "id": "3987016843",
            "osm_type": "node",
            "lat": 47.0853982,
            "lon": 15.4189152,
            "addr:city": "Graz",
            "addr:country": "AT",
            "addr:housenumber": "38",
            "addr:postcode": "8020",
            "addr:street": "Kalvariengürtel",
            "name": "Fleischerei Poparić",
            "opening_hours": "Tu-Fr 09:00-13:30,15:00-19:00, Sa 09:00-18:00",
            "shop": "butcher",
            "source": "https://www.facebook.com/Fleischerei-Poparic-1018141698209005/",
            "website": "https://www.facebook.com/Fleischerei-Poparic-1018141698209005/"
          },
          "geometry": {
            "type": "Point",
            "coordinates": [
              15.4189152,
              47.0853982
            ]
          }
        },
        {
          "type": "Feature",
          "properties": {
            "id": "4186353187",
            "osm_type": "node",
            "lat": 47.0540918,
            "lon": 15.4350425,
            "name": "Fleischwerkstatt",
            "shop": "butcher"
          },
          "geometry": {
            "type": "Point",
            "coordinates": [
              15.4350425,
              47.0540918
            ]
          }
        },
        {
          "type": "Feature",
          "properties": {
            "id": "4439394335",
            "osm_type": "node",
            "lat": 47.1994097,
            "lon": 15.3375478,
            "addr:housenumber": "19",
            "addr:postcode": "8121",
            "addr:street": "Übelbacher Straße",
            "name": "Fleischerei Eibinger",
            "phone": "+43 3127 41182",
            "shop": "butcher",
            "website": "https://www.herzhaftessen.at/fleischerei-eibinger/"
          },
          "geometry": {
            "type": "Point",
            "coordinates": [
              15.3375478,
              47.1994097
            ]
          }
        },
        {
          "type": "Feature",
          "properties": {
            "id": "4602505225",
            "osm_type": "node",
            "lat": 47.0635465,
            "lon": 15.4376121,
            "addr:city": "Graz",
            "addr:country": "AT",
            "addr:housenumber": "26",
            "addr:postcode": "8010",
            "addr:street": "Pestalozzistraße",
            "name": "E&E Dizdarevic",
            "opening_hours": "Tu-Th 12:00-17:00; Sa 10:00-17:00",
            "shop": "butcher",
            "source": "survey"
          },
          "geometry": {
            "type": "Point",
            "coordinates": [
              15.4376121,
              47.0635465
            ]
          }
        },
        {
          "type": "Feature",
          "properties": {
            "id": "4664883331",
            "osm_type": "node",
            "lat": 47.1032825,
            "lon": 15.4224484,
            "addr:city": "Graz",
            "addr:country": "AT",
            "addr:housenumber": "40",
            "addr:postcode": "8045",
            "addr:street": "Andritzer Reichsstraße",
            "contact:email": "kollar.goebl@aon.at",
            "contact:phone": "+43 664 1550519",
            "contact:website": "http://www.kollar-goebl.at/standort-graz-andritz/",
            "name": "Fleischerei Kollar-Göbl",
            "opening_hours": "Tu-Fr 08:00-18:00; Sa 07:00-12:30; Su,PH off",
            "shop": "butcher"
          },
          "geometry": {
            "type": "Point",
            "coordinates": [
              15.4224484,
              47.1032825
            ]
          }
        },
        {
          "type": "Feature",
          "properties": {
            "id": "7084299290",
            "osm_type": "node",
            "lat": 47.1058151,
            "lon": 15.4880001,
            "addr:city": "Graz",
            "addr:housenumber": "281",
            "addr:postcode": "8044",
            "addr:street": "Mariatroster Straße",
            "name": "Fleischerei Rudolf Wagist",
            "operator": "Rudolf Wagist",
            "phone": "+43 316 391346",
            "shop": "butcher",
            "source": "local knowledge"
          },
          "geometry": {
            "type": "Point",
            "coordinates": [
              15.4880001,
              47.1058151
            ]
          }
        },
        {
          "type": "Feature",
          "properties": {
            "id": "9462739929",
            "osm_type": "node",
            "lat": 47.1031056,
            "lon": 15.5164191,
            "addr:city": "Graz",
            "addr:housenumber": "23",
            "addr:postcode": "8010",
            "addr:street": "Rohrbachhöhe",
            "email": "graz@gassnerkalbfleisch.at",
            "name": "Gassner GmbH",
            "phone": "+43316391010",
            "shop": "butcher",
            "website": "https://www.gassnerkalbfleisch.at/"
          },
          "geometry": {
            "type": "Point",
            "coordinates": [
              15.5164191,
              47.1031056
            ]
          }
        },
        {
          "type": "Feature",
          "properties": {
            "id": "11530265117",
            "osm_type": "node",
            "lat": 47.0446336,
            "lon": 15.4143815,
            "addr:city": "Graz",
            "addr:country": "AT",
            "addr:housenumber": "176",
            "addr:postcode": "8053",
            "addr:street": "Kärntner Straße",
            "contact:facebook": "https://www.facebook.com/people/Lebensmittel-Alisic",
            "email": "info@alisic.at",
            "name": "Lebensmittel Alisic",
            "opening_hours": "Mo-Fr 09:00-17:00; Sa 08:00-15:00",
            "phone": "+436764458475",
            "shop": "butcher"
          },
          "geometry": {
            "type": "Point",
            "coordinates": [
              15.4143815,
              47.0446336
            ]
          }
        },
        {
          "type": "Feature",
          "properties": {
            "id": "1548575636",
            "osm_type": "node",
            "lat": 47.2779866,
            "lon": 15.966051,
            "name": "Buchberger",
            "opening_hours": "Mo-Fr 07:00-12:30,15:00-18:00; Sa 07:00-12:00",
            "shop": "butcher"
          },
          "geometry": {
            "type": "Point",
            "coordinates": [
              15.966051,
              47.2779866
            ]
          }
        },
        {
          "type": "Feature",
          "properties": {
            "id": "1844495183",
            "osm_type": "node",
            "lat": 47.2741656,
            "lon": 15.6893007,
            "name": "Pechmann",
            "shop": "butcher"
          },
          "geometry": {
            "type": "Point",
            "coordinates": [
              15.6893007,
              47.2741656
            ]
          }
        },
        {
          "type": "Feature",
          "properties": {
            "id": "2006121186",
            "osm_type": "node",
            "lat": 47.2174071,
            "lon": 15.6242434,
            "addr:city": "Weiz",
            "addr:country": "AT",
            "addr:housenumber": "12",
            "addr:postcode": "8160",
            "addr:street": "Dr.-Karl-Renner-Gasse",
            "contact:phone": "+43 3172 27170",
            "name": "Fleischerei Feiertag",
            "opening_hours": "Mo-Fr 07:30-18:00; Sa 07:00-12:30",
            "shop": "butcher",
            "website": "https://www.derfeiertag.at/kontakt/",
            "wheelchair": "yes"
          },
          "geometry": {
            "type": "Point",
            "coordinates": [
              15.6242434,
              47.2174071
            ]
          }
        },
        {
          "type": "Feature",
          "properties": {
            "id": "2613689895",
            "osm_type": "node",
            "lat": 47.1553199,
            "lon": 15.5780772,
            "addr:city": "Hart-Purgstall",
            "addr:housenumber": "50",
            "addr:postcode": "8063",
            "addr:street": "Panoramastraße",
            "contact:email": "kontakt@hofladen-aumueller.at",
            "contact:fax": "+43 3117 2040 4",
            "contact:mobile": "+43 676 9401280",
            "contact:phone": "+43 3117 2040",
            "contact:website": "http://www.hofladen-aumueller.at/",
            "name": "Hofladen Aumüller",
            "note": "Sa 07:00-11:00 auch am Bauernmark Stattegg http://www.openstreetmap.org/way/249131773",
            "operator": "Aumüller",
            "shop": "butcher",
            "url": "http://www.gutesvombauernhof.at/steiermark/suchergebnis.html?hid=1052732"
          },
          "geometry": {
            "type": "Point",
            "coordinates": [
              15.5780772,
              47.1553199
            ]
          }
        },
        {
          "type": "Feature",
          "properties": {
            "id": "3020379967",
            "osm_type": "node",
            "lat": 47.106027,
            "lon": 15.706777,
            "addr:city": "Gleisdorf",
            "addr:country": "AT",
            "addr:housenumber": "14",
            "addr:postcode": "8200",
            "addr:street": "Ludwig-Binder-Straße",
            "contact:email": "fleischerei@derfeiertag.at",
            "name": "Fleischerei Feiertag",
            "shop": "butcher",
            "wheelchair": "yes"
          },
          "geometry": {
            "type": "Point",
            "coordinates": [
              15.706777,
              47.106027
            ]
          }
        },
        {
          "type": "Feature",
          "properties": {
            "id": "3402602246",
            "osm_type": "node",
            "lat": 47.0541949,
            "lon": 15.8427215,
            "addr:city": "Markt Hartmannsdorf",
            "addr:housenumber": "34",
            "addr:postcode": "8311",
            "addr:street": "Hauptstraße",
            "cuisine": "regional",
            "name": "Fleischhauerei Thaller",
            "opening_hours": "Tu-Fr 06:00-13:00",
            "operator": "Eduard Thaller",
            "payment:cash": "yes",
            "phone": "+43 3114 2283",
            "shop": "butcher",
            "website": "https://www.fleischhauerei-thaller.at/"
          },
          "geometry": {
            "type": "Point",
            "coordinates": [
              15.8427215,
              47.0541949
            ]
          }
        },
        {
          "type": "Feature",
          "properties": {
            "id": "3402608678",
            "osm_type": "node",
            "lat": 47.0536405,
            "lon": 15.8426757,
            "addr:city": "Markt Hartmannsdorf",
            "addr:postcode": "8311",
            "name": "Fleischhauerei Thaller",
            "shop": "butcher"
          },
          "geometry": {
            "type": "Point",
            "coordinates": [
              15.8426757,
              47.0536405
            ]
          }
        },
        {
          "type": "Feature",
          "properties": {
            "id": "3471037846",
            "osm_type": "node",
            "lat": 47.3012237,
            "lon": 15.8343255,
            "contact:phone": "+43 3335 2303",
            "name": "Fleischerei Ritter",
            "operator": "Birgit Ritter",
            "shop": "butcher"
          },
          "geometry": {
            "type": "Point",
            "coordinates": [
              15.8343255,
              47.3012237
            ]
          }
        },
        {
          "type": "Feature",
          "properties": {
            "id": "3471037937",
            "osm_type": "node",
            "lat": 47.3012023,
            "lon": 15.8334743,
            "name": "Fleischerei Buchberger",
            "opening_hours": "Mo, Tu, We, Fr 7:00-12:30, 15:00-18:00; Th, Sa 07:00-12:00",
            "phone": "+433335 2317",
            "shop": "butcher",
            "website": "http://www.buchberger.co.at"
          },
          "geometry": {
            "type": "Point",
            "coordinates": [
              15.8334743,
              47.3012023
            ]
          }
        },
        {
          "type": "Feature",
          "properties": {
            "id": "4767738746",
            "osm_type": "node",
            "lat": 47.0864935,
            "lon": 15.9246288,
            "addr:city": "Ilz",
            "addr:housenumber": "41",
            "addr:postcode": "8262",
            "contact:phone": "+43 3385 297",
            "name": "Turza",
            "shop": "butcher",
            "website": "http://www.turza.at/kontakt/"
          },
          "geometry": {
            "type": "Point",
            "coordinates": [
              15.9246288,
              47.0864935
            ]
          }
        },
        {
          "type": "Feature",
          "properties": {
            "id": "4830802821",
            "osm_type": "node",
            "lat": 47.1527322,
            "lon": 15.6623281,
            "addr:city": "St. Ruprecht an der Raab",
            "addr:country": "AT",
            "addr:housenumber": "133",
            "addr:postcode": "8181",
            "addr:street": "Parkstraße",
            "name": "Fleischhauerei Pichler",
            "phone": "+43 3178 2931",
            "shop": "butcher",
            "website": "http://www.fleisch-gibt-kraft.at"
          },
          "geometry": {
            "type": "Point",
            "coordinates": [
              15.6623281,
              47.1527322
            ]
          }
        },
        {
          "type": "Feature",
          "properties": {
            "id": "6027794852",
            "osm_type": "node",
            "lat": 47.2193072,
            "lon": 15.6325266,
            "addr:city": "Weiz",
            "addr:country": "AT",
            "addr:housenumber": "51",
            "addr:postcode": "8160",
            "addr:street": "Birkfelder Straße",
            "at_bev:addr_date": "2018-10-01",
            "contact:phone": "+43 3172 41082",
            "name": "Fleischerei Buchberger",
            "opening_hours": "Mo-We 06:30-13:00; Th 06:30-13:00, 15:00-18:00; FR 06:30-18:00; Sa 06:30-12:00",
            "shop": "butcher"
          },
          "geometry": {
            "type": "Point",
            "coordinates": [
              15.6325266,
              47.2193072
            ]
          }
        },
        {
          "type": "Feature",
          "properties": {
            "id": "9057099206",
            "osm_type": "node",
            "lat": 47.1091396,
            "lon": 15.7035448,
            "addr:city": "Gleisdorf",
            "addr:housenumber": "4",
            "addr:postcode": "8200",
            "addr:street": "Europastraße",
            "alt_name": "Abholmarkt Fleisch- u. Wurstwaren",
            "name": "Abholmarkt",
            "phone": "+43 3112 21648",
            "shop": "butcher",
            "website": "https://www.fleischundwurstmarkt.com/"
          },
          "geometry": {
            "type": "Point",
            "coordinates": [
              15.7035448,
              47.1091396
            ]
          }
        },
        {
          "type": "Feature",
          "properties": {
            "id": "12296125951",
            "osm_type": "node",
            "lat": 47.1960803,
            "lon": 15.8380225,
            "addr:city": "Feistritztal",
            "addr:housenumber": "85",
            "addr:postcode": "8221",
            "addr:street": "Kaibing",
            "name": "Fleischerei",
            "opening_hours": "Mo-Fr 07:30-12:30,15:00-18:00; Sa 07:30-12:30",
            "operator": "Gross Genuss GmbH",
            "phone": "+43 677 62 32 42 24",
            "shop": "butcher"
          },
          "geometry": {
            "type": "Point",
            "coordinates": [
              15.8380225,
              47.1960803
            ]
          }
        },
        {
          "type": "Feature",
          "properties": {
            "id": "3439300735",
            "osm_type": "node",
            "lat": 47.1861722,
            "lon": 16.1646775,
            "addr:housenumber": "56",
            "addr:postcode": "7533",
            "addr:street": "Hauptstraße",
            "name": "Brüder Strobl KG, Fleischergewerbe",
            "phone": "+433326 52443",
            "shop": "butcher"
          },
          "geometry": {
            "type": "Point",
            "coordinates": [
              16.1646775,
              47.1861722
            ]
          }
        },
        {
          "type": "Feature",
          "properties": {
            "id": "3546182759",
            "osm_type": "node",
            "lat": 47.1431838,
            "lon": 16.0982542,
            "addr:city": "Burgau",
            "addr:country": "AT",
            "addr:housenumber": "6",
            "addr:postcode": "8291",
            "addr:street": "Hauptplatz",
            "name": "Labonca - sauGUT & KOSTbar",
            "opening_hours": "Fr 09:00-18:00; Apr-Oct Sa 09:00-18:00; Nov-Mar Sa 09:00-14:00",
            "organic": "only",
            "shop": "butcher"
          },
          "geometry": {
            "type": "Point",
            "coordinates": [
              16.0982542,
              47.1431838
            ]
          }
        }
      ],
      "children": []
    },
    {
      "bbox": {
        "south": 47.033758500000005,
        "west": 16.2068765,
        "north": 47.36431175,
        "east": 17.16058
      },
      "poiCount": 12,
      "leafCount": 12,
      "averagePosition": [
        16.500930358333335,
        47.222513325
      ],
      "data": [
        {
          "type": "Feature",
          "properties": {
            "id": "5122123463",
            "osm_type": "node",
            "lat": 47.2520187,
            "lon": 16.2439896,
            "shop": "butcher"
          },
          "geometry": {
            "type": "Point",
            "coordinates": [
              16.2439896,
              47.2520187
            ]
          }
        },
        {
          "type": "Feature",
          "properties": {
            "id": "5370106939",
            "osm_type": "node",
            "lat": 47.1244514,
            "lon": 16.2690233,
            "addr:city": "Sankt Michael im Burgenland",
            "addr:country": "AT",
            "addr:housenumber": "150",
            "addr:postcode": "7535",
            "addr:street": "Untere Hauptstraße",
            "at_bev:addr_date": "2017-10-01",
            "contact:phone": "+43 3327 2246",
            "name": "Fleischerei Potzmann",
            "shop": "butcher"
          },
          "geometry": {
            "type": "Point",
            "coordinates": [
              16.2690233,
              47.1244514
            ]
          }
        },
        {
          "type": "Feature",
          "properties": {
            "id": "7481962168",
            "osm_type": "node",
            "lat": 47.2747175,
            "lon": 16.2336688,
            "name": "Nemetz",
            "shop": "butcher"
          },
          "geometry": {
            "type": "Point",
            "coordinates": [
              16.2336688,
              47.2747175
            ]
          }
        },
        {
          "type": "Feature",
          "properties": {
            "id": "7819382654",
            "osm_type": "node",
            "lat": 47.304796,
            "lon": 16.4402569,
            "addr:city": "Rechnitz",
            "addr:country": "AT",
            "addr:housenumber": "8",
            "addr:postcode": "7471",
            "addr:street": "Herrengasse",
            "name": "Fleischerei Hatwagner",
            "opening_hours": "Mo,Sa 06:30-12:00; Tu,We 06:30-12:00,15:00-18:00; Th,Fr 06:30-12:00,14:30-18:00",
            "shop": "butcher",
            "website": "https://www.fleischerei-hatwagner.net/filialen/filiale-rechnitz/?L=0"
          },
          "geometry": {
            "type": "Point",
            "coordinates": [
              16.4402569,
              47.304796
            ]
          }
        },
        {
          "type": "Feature",
          "properties": {
            "id": "10827731652",
            "osm_type": "node",
            "lat": 47.2366817,
            "lon": 16.3209847,
            "addr:city": "Großpetersdorf",
            "addr:housenumber": "11",
            "addr:postcode": "7503",
            "addr:street": "Hauptstraße",
            "name": "Fleischerei Loschy",
            "phone": "+43 33622289",
            "shop": "butcher"
          },
          "geometry": {
            "type": "Point",
            "coordinates": [
              16.3209847,
              47.2366817
            ]
          }
        },
        {
          "type": "Feature",
          "properties": {
            "id": "2389927882",
            "osm_type": "node",
            "lat": 47.2369574,
            "lon": 16.6316245,
            "name": "Laci húsbolt",
            "shop": "butcher"
          },
          "geometry": {
            "type": "Point",
            "coordinates": [
              16.6316245,
              47.2369574
            ]
          }
        },
        {
          "type": "Feature",
          "properties": {
            "id": "3113277396",
            "osm_type": "node",
            "lat": 47.247929,
            "lon": 16.6136988,
            "name": "Kámon-hús bolt",
            "shop": "butcher"
          },
          "geometry": {
            "type": "Point",
            "coordinates": [
              16.6136988,
              47.247929
            ]
          }
        },
        {
          "type": "Feature",
          "properties": {
            "id": "3160236880",
            "osm_type": "node",
            "lat": 47.2387909,
            "lon": 16.6061104,
            "name": "Derkó-Hús",
            "opening_hours": "Mo-Fr 07:00-18:00; Sa 07:00-12:00",
            "shop": "butcher"
          },
          "geometry": {
            "type": "Point",
            "coordinates": [
              16.6061104,
              47.2387909
            ]
          }
        },
        {
          "type": "Feature",
          "properties": {
            "id": "3160236881",
            "osm_type": "node",
            "lat": 47.2393542,
            "lon": 16.6067259,
            "name": "Domus Húsbolt",
            "opening_hours": "Mo-Fr 07:00-18:00; Sa 07:00-12:30",
            "shop": "butcher",
            "website": "http://www.art-kerplusz.hu/"
          },
          "geometry": {
            "type": "Point",
            "coordinates": [
              16.6067259,
              47.2393542
            ]
          }
        },
        {
          "type": "Feature",
          "properties": {
            "id": "3713936572",
            "osm_type": "node",
            "lat": 47.2346165,
            "lon": 16.6203656,
            "name": "Imre húsbolt",
            "shop": "butcher"
          },
          "geometry": {
            "type": "Point",
            "coordinates": [
              16.6203656,
              47.2346165
            ]
          }
        },
        {
          "type": "Feature",
          "properties": {
            "id": "10301005368",
            "osm_type": "node",
            "lat": 47.2306359,
            "lon": 16.6241065,
            "name": "Barbati Húsbolt",
            "opening_hours": "Mo,Sa 07:00-11:00; Tu-Fr 07:00-16:30",
            "shop": "butcher"
          },
          "geometry": {
            "type": "Point",
            "coordinates": [
              16.6241065,
              47.2306359
            ]
          }
        },
        {
          "type": "Feature",
          "properties": {
            "id": "11775527767",
            "osm_type": "node",
            "lat": 47.0492107,
            "lon": 16.8006093,
            "name": "Húsbolt",
            "opening_hours": "Mo 07:00-12:00; Tu-Fr 07:00-17:00; Sa 07:00-12:00",
            "phone": "+36307260780",
            "shop": "butcher"
          },
          "geometry": {
            "type": "Point",
            "coordinates": [
              16.8006093,
              47.0492107
            ]
          }
        }
      ],
      "children": []
    },
    {
      "bbox": {
        "south": 47.36431175,
        "west": 15.253173,
        "north": 47.694865,
        "east": 16.2068765
      },
      "poiCount": 11,
      "leafCount": 11,
      "averagePosition": [
        15.837470154545455,
        47.532765500000004
      ],
      "data": [
        {
          "type": "Feature",
          "properties": {
            "id": "4788487948",
            "osm_type": "node",
            "lat": 47.3710919,
            "lon": 16.1230098,
            "addr:city": "Pinkafeld",
            "addr:country": "AT",
            "addr:housenumber": "2",
            "addr:postcode": "7423",
            "addr:street": "Marktplatz",
            "at_bev:addr_date": "2016-10-02",
            "name": "Ebner",
            "shop": "butcher"
          },
          "geometry": {
            "type": "Point",
            "coordinates": [
              16.1230098,
              47.3710919
            ]
          }
        },
        {
          "type": "Feature",
          "properties": {
            "id": "5706038260",
            "osm_type": "node",
            "lat": 47.4950114,
            "lon": 15.434551,
            "addr:city": "Kindberg",
            "addr:housenumber": "34",
            "addr:postcode": "8650",
            "addr:street": "Stanzer Straße",
            "name": "Hofbauer",
            "shop": "butcher"
          },
          "geometry": {
            "type": "Point",
            "coordinates": [
              15.434551,
              47.4950114
            ]
          }
        },
        {
          "type": "Feature",
          "properties": {
            "id": "9380529791",
            "osm_type": "node",
            "lat": 47.4442732,
            "lon": 15.2912077,
            "addr:city": "Kapfenberg",
            "addr:housenumber": "35a",
            "addr:postcode": "8605",
            "addr:street": "Wiener Straße",
            "level": "0",
            "name": "Buchgraber & Buchberger",
            "opening_hours": "Mo-Fr 08:30-18:30; Sa 09:00-18:00",
            "operator": "Klaus Buchgraber u. Robert Buchberger",
            "shop": "butcher",
            "wheelchair": "yes"
          },
          "geometry": {
            "type": "Point",
            "coordinates": [
              15.2912077,
              47.4442732
            ]
          }
        },
        {
          "type": "Feature",
          "properties": {
            "id": "1058865617",
            "osm_type": "node",
            "lat": 47.4838187,
            "lon": 15.7216147,
            "addr:postcode": "8673",
            "name": "Sommersguter Karl-Heinz",
            "shop": "butcher",
            "toilets:wheelchair": "no",
            "wheelchair": "yes"
          },
          "geometry": {
            "type": "Point",
            "coordinates": [
              15.7216147,
              47.4838187
            ]
          }
        },
        {
          "type": "Feature",
          "properties": {
            "id": "2491000479",
            "osm_type": "node",
            "lat": 47.6756955,
            "lon": 15.9385944,
            "addr:city": "Gloggnitz",
            "addr:country": "AT",
            "addr:housenumber": "7",
            "addr:postcode": "2640",
            "addr:street": "Hauptstraße",
            "email": "baumgartner@fleischco.at",
            "fax": "+43 2662 424333",
            "name": "Baumgartner",
            "opening_hours": "Mo-Th 08:00-15:00; Fr 08:00-16:00; Sa 08:00-12:30; Su,PH off",
            "phone": "+43 2662 42433",
            "shop": "butcher",
            "website": "https://fleischco.at/"
          },
          "geometry": {
            "type": "Point",
            "coordinates": [
              15.9385944,
              47.6756955
            ]
          }
        },
        {
          "type": "Feature",
          "properties": {
            "id": "2502800652",
            "osm_type": "node",
            "lat": 47.6158146,
            "lon": 15.7531511,
            "name": "Fleischerei Zimmermann",
            "opening_hours": "Mo-Fr 06:00-13:00; Sa 07:00-12:00",
            "shop": "butcher",
            "wheelchair": "yes"
          },
          "geometry": {
            "type": "Point",
            "coordinates": [
              15.7531511,
              47.6158146
            ]
          }
        },
        {
          "type": "Feature",
          "properties": {
            "id": "6234955200",
            "osm_type": "node",
            "lat": 47.6060069,
            "lon": 15.6745563,
            "name": "Gutschelhofer",
            "opening_hours": "Mo-Fr 07:00-12:00,15:00-18:00; Sa 07:00-12:15",
            "shop": "butcher"
          },
          "geometry": {
            "type": "Point",
            "coordinates": [
              15.6745563,
              47.6060069
            ]
          }
        },
        {
          "type": "Feature",
          "properties": {
            "id": "9801552109",
            "osm_type": "node",
            "lat": 47.6933138,
            "lon": 16.0089956,
            "addr:city": "Grafenbach-St. Valentin",
            "addr:country": "AT",
            "addr:housenumber": "42",
            "addr:postcode": "2630",
            "addr:street": "Austraße",
            "name": "Fleischerei Birnbauer",
            "opening_hours": "Mo-Sa 07:00-12:00, Fr 14:00-18:00; PH Su off",
            "shop": "butcher",
            "wheelchair": "yes"
          },
          "geometry": {
            "type": "Point",
            "coordinates": [
              16.0089956,
              47.6933138
            ]
          }
        },
        {
          "type": "Feature",
          "properties": {
            "id": "1992471788",
            "osm_type": "node",
            "lat": 47.4438433,
            "lon": 16.0648492,
            "shop": "butcher"
          },
          "geometry": {
            "type": "Point",
            "coordinates": [
              16.0648492,
              47.4438433
            ]
          }
        },
        {
          "type": "Feature",
          "properties": {
            "id": "3790117301",
            "osm_type": "node",
            "lat": 47.4773716,
            "lon": 16.1110298,
            "shop": "butcher"
          },
          "geometry": {
            "type": "Point",
            "coordinates": [
              16.1110298,
              47.4773716
            ]
          }
        },
        {
          "type": "Feature",
          "properties": {
            "id": "8093188372",
            "osm_type": "node",
            "lat": 47.5541796,
            "lon": 16.0906121,
            "name": "Gugerell",
            "opening_hours": "Mo 06:30-14:00; Tu 06:30-18:00; We 06:30-14:00; Th-Fr 06:30-18:00; Sa 06:30-12:30",
            "shop": "butcher"
          },
          "geometry": {
            "type": "Point",
            "coordinates": [
              16.0906121,
              47.5541796
            ]
          }
        }
      ],
      "children": []
    },
    {
      "bbox": {
        "south": 47.36431175,
        "west": 16.2068765,
        "north": 47.694865,
        "east": 17.16058
      },
      "poiCount": 19,
      "leafCount": 19,
      "averagePosition": [
        16.589868589473685,
        47.57061907894737
      ],
      "data": [
        {
          "type": "Feature",
          "properties": {
            "id": "1365334754",
            "osm_type": "node",
            "lat": 47.5036146,
            "lon": 16.2974693,
            "shop": "butcher"
          },
          "geometry": {
            "type": "Point",
            "coordinates": [
              16.2974693,
              47.5036146
            ]
          }
        },
        {
          "type": "Feature",
          "properties": {
            "id": "2606744939",
            "osm_type": "node",
            "lat": 47.5879473,
            "lon": 16.4671643,
            "addr:city": "Lackenbach",
            "addr:country": "AT",
            "addr:housenumber": "27",
            "addr:postcode": "7322",
            "addr:street": "Schloßgasse",
            "name": "Johann Stocker",
            "phone": "+432619 8623",
            "shop": "butcher"
          },
          "geometry": {
            "type": "Point",
            "coordinates": [
              16.4671643,
              47.5879473
            ]
          }
        },
        {
          "type": "Feature",
          "properties": {
            "id": "3015986520",
            "osm_type": "node",
            "lat": 47.4917726,
            "lon": 16.2799805,
            "name": "Grandits",
            "shop": "butcher"
          },
          "geometry": {
            "type": "Point",
            "coordinates": [
              16.2799805,
              47.4917726
            ]
          }
        },
        {
          "type": "Feature",
          "properties": {
            "id": "3659045833",
            "osm_type": "node",
            "lat": 47.406362,
            "lon": 16.2606864,
            "addr:country": "AT",
            "addr:housenumber": "52",
            "addr:postcode": "7434",
            "addr:street": "Hauptstraße",
            "name": "Hatwagner",
            "operator": "Hatwagner GmbH",
            "phone": "+433354 6513",
            "shop": "butcher"
          },
          "geometry": {
            "type": "Point",
            "coordinates": [
              16.2606864,
              47.406362
            ]
          }
        },
        {
          "type": "Feature",
          "properties": {
            "id": "6796706634",
            "osm_type": "node",
            "lat": 47.407441,
            "lon": 16.4180537,
            "addr:city": "Lockenhaus",
            "addr:housenumber": "12",
            "addr:postcode": "7442",
            "addr:street": "Hauptstraße",
            "shop": "butcher"
          },
          "geometry": {
            "type": "Point",
            "coordinates": [
              16.4180537,
              47.407441
            ]
          }
        },
        {
          "type": "Feature",
          "properties": {
            "id": "1391022156",
            "osm_type": "node",
            "lat": 47.5262649,
            "lon": 16.6459404,
            "addr:city": "Kroatisch Minihof",
            "addr:country": "AT",
            "addr:housename": "Gasthaus/Fleischerei Deutsch",
            "addr:housenumber": "5",
            "addr:postcode": "7302",
            "addr:street": "Kirchenplatz",
            "at_bev:addr_date": "2017-10-01",
            "shop": "butcher"
          },
          "geometry": {
            "type": "Point",
            "coordinates": [
              16.6459404,
              47.5262649
            ]
          }
        },
        {
          "type": "Feature",
          "properties": {
            "id": "1648906141",
            "osm_type": "node",
            "lat": 47.6748656,
            "lon": 16.587782,
            "name": "Felsőbüki Húsbolt",
            "shop": "butcher"
          },
          "geometry": {
            "type": "Point",
            "coordinates": [
              16.587782,
              47.6748656
            ]
          }
        },
        {
          "type": "Feature",
          "properties": {
            "id": "2315205158",
            "osm_type": "node",
            "lat": 47.6825179,
            "lon": 16.5911929,
            "name": "Hajnal-Hús Kft.",
            "opening_hours": "Tu-Fr 07:00-16:00; Sa 07:00-12:00",
            "shop": "butcher"
          },
          "geometry": {
            "type": "Point",
            "coordinates": [
              16.5911929,
              47.6825179
            ]
          }
        },
        {
          "type": "Feature",
          "properties": {
            "id": "2415144346",
            "osm_type": "node",
            "lat": 47.5908371,
            "lon": 16.5824466,
            "addr:city": "Horitschon",
            "addr:country": "AT",
            "addr:housenumber": "1",
            "addr:postcode": "7312",
            "addr:street": "Weingartenstraße",
            "contact:phone": "+43 2610 422 49",
            "name": "Fleischerei Kuzmits",
            "shop": "butcher",
            "website": "https://www.fleischerei-kuzmits.at/kontakt/"
          },
          "geometry": {
            "type": "Point",
            "coordinates": [
              16.5824466,
              47.5908371
            ]
          }
        },
        {
          "type": "Feature",
          "properties": {
            "id": "2476573335",
            "osm_type": "node",
            "lat": 47.6857136,
            "lon": 16.5684692,
            "addr:city": "Sopron",
            "addr:housenumber": "14",
            "addr:postcode": "9400",
            "addr:street": "Bánfalvi út",
            "name": "Böllérbolt",
            "phone": "+36 20 989 0055",
            "shop": "butcher"
          },
          "geometry": {
            "type": "Point",
            "coordinates": [
              16.5684692,
              47.6857136
            ]
          }
        },
        {
          "type": "Feature",
          "properties": {
            "id": "2510884501",
            "osm_type": "node",
            "lat": 47.5023974,
            "lon": 16.7863946,
            "name": "Húsbolt",
            "opening_hours": "Tu-Fr 08:00-16:00",
            "shop": "butcher"
          },
          "geometry": {
            "type": "Point",
            "coordinates": [
              16.7863946,
              47.5023974
            ]
          }
        },
        {
          "type": "Feature",
          "properties": {
            "id": "2822181909",
            "osm_type": "node",
            "lat": 47.5922859,
            "lon": 17.0265589,
            "name": "Rábaparti",
            "shop": "butcher"
          },
          "geometry": {
            "type": "Point",
            "coordinates": [
              17.0265589,
              47.5922859
            ]
          }
        },
        {
          "type": "Feature",
          "properties": {
            "id": "3046554883",
            "osm_type": "node",
            "lat": 47.6868468,
            "lon": 16.5492653,
            "name": "Felsőbüki Húsbolt",
            "shop": "butcher"
          },
          "geometry": {
            "type": "Point",
            "coordinates": [
              16.5492653,
              47.6868468
            ]
          }
        },
        {
          "type": "Feature",
          "properties": {
            "id": "3066805611",
            "osm_type": "node",
            "lat": 47.6895362,
            "lon": 16.5823796,
            "addr:city": "Sopron",
            "addr:housenumber": "3",
            "addr:postcode": "9400",
            "addr:street": "Gyár utca",
            "email": "info@zanzacafe.hu",
            "name": "Zanza",
            "opening_hours": "Mo-Th,Su 10:00-24:00; Fr 10:00-03:00; Sa 10:00-04:00",
            "shop": "butcher"
          },
          "geometry": {
            "type": "Point",
            "coordinates": [
              16.5823796,
              47.6895362
            ]
          }
        },
        {
          "type": "Feature",
          "properties": {
            "id": "3761215207",
            "osm_type": "node",
            "lat": 47.5935093,
            "lon": 16.8698163,
            "name": "Böllérbolt",
            "shop": "butcher"
          },
          "geometry": {
            "type": "Point",
            "coordinates": [
              16.8698163,
              47.5935093
            ]
          }
        },
        {
          "type": "Feature",
          "properties": {
            "id": "7824372773",
            "osm_type": "node",
            "lat": 47.6672495,
            "lon": 16.851084,
            "name": "Szürkemarha húsok",
            "operator": "Fertő-Hanság Nemzeti Park",
            "shop": "butcher"
          },
          "geometry": {
            "type": "Point",
            "coordinates": [
              16.851084,
              47.6672495
            ]
          }
        },
        {
          "type": "Feature",
          "properties": {
            "id": "7827682218",
            "osm_type": "node",
            "lat": 47.4023188,
            "lon": 16.7062354,
            "check_date:opening_hours": "2020-08-15",
            "name": "Csepreg Hús Bt.",
            "opening_hours": "Tu-Fr 07:00-12:00, 13:00-16:30; Sa 07:00-12:00; Mo,Su,PH off",
            "payment:mastercard": "yes",
            "shop": "butcher",
            "source:opening_hours": "entrance",
            "wheelchair": "no"
          },
          "geometry": {
            "type": "Point",
            "coordinates": [
              16.7062354,
              47.4023188
            ]
          }
        },
        {
          "type": "Feature",
          "properties": {
            "id": "9514686755",
            "osm_type": "node",
            "lat": 47.6761436,
            "lon": 16.5930344,
            "name": "Ruma",
            "shop": "butcher"
          },
          "geometry": {
            "type": "Point",
            "coordinates": [
              16.5930344,
              47.6761436
            ]
          }
        },
        {
          "type": "Feature",
          "properties": {
            "id": "12446869040",
            "osm_type": "node",
            "lat": 47.4741384,
            "lon": 16.5435494,
            "name": "Direktvermarktung Zoncsich",
            "opening_hours": "Fr, Sa",
            "phone": "+43/2612/42911",
            "shop": "butcher",
            "website": "https://direktvermarktung-zoncsich.webnode.at/"
          },
          "geometry": {
            "type": "Point",
            "coordinates": [
              16.5435494,
              47.4741384
            ]
          }
        }
      ],
      "children": []
    }
  ]
}