{
  "bbox": {
    "south": 47.694865,
    "west": 13.345766,
    "north": 48.355971499999995,
    "east": 15.253173
  },
  "poiCount": 118,
  "leafCount": 0,
  "averagePosition": [
    14.202971183050849,
    48.12634221864407
  ],
  "data": [],
  "children": [
    {
      "bbox": {
        "south": 47.694865,
        "west": 13.345766,
        "north": 48.02541825,
        "east": 14.2994695
      },
      "poiCount": 24,
      "leafCount": 24,
      "averagePosition": [
        13.768769508333333,
        47.93264685
      ],
      "data": [
        {
          "type": "Feature",
          "properties": {
            "id": "5028402735",
            "osm_type": "node",
            "lat": 47.732088,
            "lon": 13.4282523,
            "addr:city": "Sankt Gilgen",
            "addr:country": "AT",
            "addr:housenumber": "84",
            "addr:postcode": "5342",
            "addr:street": "Seestraße",
            "name": "Fleischhauerei Thomas Stöttner",
            "opening_hours": "Mo,Sa 07:00-12:00; Tu-Fr 07:00-12:00,14:30-18:00",
            "operator": "Thomas Stöttner",
            "phone": "+43 6227 3419",
            "shop": "butcher"
          },
          "geometry": {
            "type": "Point",
            "coordinates": [
              13.4282523,
              47.732088
            ]
          }
        },
        {
          "type": "Feature",
          "properties": {
            "id": "1751926014",
            "osm_type": "node",
            "lat": 47.7933671,
            "lon": 13.7584275,
            "email": "office@roitherwirt.at",
            "fax": "+43 6133 5592-12",
            "name": "Fleischerei Johann Spitzer",
            "opening_hours": "Mo-Fr 07:30-12:00,15:00-18:00; We,Sa 07:30-12:00",
            "phone": "+43 6133 5592",
            "shop": "butcher",
            "website": "https://www.roitherwirt.at/"
          },
          "geometry": {
            "type": "Point",
            "coordinates": [
              13.7584275,
              47.7933671
            ]
          }
        },
        {
          "type": "Feature",
          "properties": {
            "id": "2089104269",
            "osm_type": "node",
            "lat": 47.7184261,
            "lon": 13.587116,
            "name": "Jausen Kaiser",
            "opening_hours": "Mo-Th 07:30-13:00; Fr 07:30-17:00; Sa 08:00-12:00",
            "shop": "butcher"
          },
          "geometry": {
            "type": "Point",
            "coordinates": [
              13.587116,
              47.7184261
            ]
          }
        },
        {
          "type": "Feature",
          "properties": {
            "id": "6258089456",
            "osm_type": "node",
            "lat": 47.8531336,
            "lon": 13.9548618,
            "addr:city": "Grünau im Almtal",
            "addr:country": "AT",
            "addr:housenumber": "37",
            "addr:postcode": "4645",
            "addr:street": "Im Dorf",
            "name": "Fleischerei Stadler",
            "opening_hours": "Mo-Th 07:30-12:30; Fr 07:30-12:30,15:00-18:00; Sa 07:00-12:00",
            "operator": "Reinhold Stadler",
            "shop": "butcher"
          },
          "geometry": {
            "type": "Point",
            "coordinates": [
              13.9548618,
              47.8531336
            ]
          }
        },
        {
          "type": "Feature",
          "properties": {
            "id": "469830620",
            "osm_type": "node",
            "lat": 48.0234288,
            "lon": 13.5296291,
            "name": "Hollerweger",
            "shop": "butcher"
          },
          "geometry": {
            "type": "Point",
            "coordinates": [
              13.5296291,
              48.0234288
            ]
          }
        },
        {
          "type": "Feature",
          "properties": {
            "id": "340448021",
            "osm_type": "node",
            "lat": 47.9590079,
            "lon": 14.0148308,
            "access": "customers",
            "addr:city": "Pettenbach",
            "addr:country": "AT",
            "addr:housenumber": "4",
            "addr:postcode": "4643",
            "addr:street": "Scharnsteiner Straße",
            "door": "yes/manual",
            "level": "0",
            "name": "Fleischhauerei Hüthmayr",
            "shop": "butcher",
            "wheelchair": "limited"
          },
          "geometry": {
            "type": "Point",
            "coordinates": [
              14.0148308,
              47.9590079
            ]
          }
        },
        {
          "type": "Feature",
          "properties": {
            "id": "343100610",
            "osm_type": "node",
            "lat": 47.9591526,
            "lon": 13.7898269,
            "addr:city": "Ohlsdorf",
            "addr:country": "AT",
            "addr:housenumber": "3",
            "addr:postcode": "4694",
            "addr:street": "Hauptstraße",
            "name": "Fleisch & Wurst Badinger",
            "shop": "butcher"
          },
          "geometry": {
            "type": "Point",
            "coordinates": [
              13.7898269,
              47.9591526
            ]
          }
        },
        {
          "type": "Feature",
          "properties": {
            "id": "369730305",
            "osm_type": "node",
            "lat": 47.9303544,
            "lon": 13.7699265,
            "name": "Kinast",
            "shop": "butcher"
          },
          "geometry": {
            "type": "Point",
            "coordinates": [
              13.7699265,
              47.9303544
            ]
          }
        },
        {
          "type": "Feature",
          "properties": {
            "id": "906844040",
            "osm_type": "node",
            "lat": 47.9008279,
            "lon": 13.7640556,
            "check_date:opening_hours": "2025-08-22",
            "contact:phone": "+43 7612 87108",
            "contact:website": "http://www.gruber-fleisch.at/",
            "name": "Fleischhauerei Gruber",
            "opening_hours": "Mo-Fr 08:00-12:30,15:00-18:00; Sa 08:00-12:00",
            "shop": "butcher",
            "wheelchair": "limited"
          },
          "geometry": {
            "type": "Point",
            "coordinates": [
              13.7640556,
              47.9008279
            ]
          }
        },
        {
          "type": "Feature",
          "properties": {
            "id": "1587023645",
            "osm_type": "node",
            "lat": 47.9914927,
            "lon": 13.806456,
            "name": "Kinast, Fleischerei",
            "shop": "butcher"
          },
          "geometry": {
            "type": "Point",
            "coordinates": [
              13.806456,
              47.9914927
            ]
          }
        },
        {
          "type": "Feature",
          "properties": {
            "id": "1721061687",
            "osm_type": "node",
            "lat": 47.8745439,
            "lon": 13.7092747,
            "shop": "butcher",
            "wheelchair": "no"
          },
          "geometry": {
            "type": "Point",
            "coordinates": [
              13.7092747,
              47.8745439
            ]
          }
        },
        {
          "type": "Feature",
          "properties": {
            "id": "1865352712",
            "osm_type": "node",
            "lat": 48.007939,
            "lon": 13.6531583,
            "addr:city": "Vöcklabruck",
            "addr:country": "AT",
            "addr:housenumber": "36",
            "addr:postcode": "4840",
            "addr:street": "Stadtplatz",
            "name": "Hütthaler Metzgerei",
            "phone": "07672/26032",
            "shop": "butcher",
            "wheelchair": "yes"
          },
          "geometry": {
            "type": "Point",
            "coordinates": [
              13.6531583,
              48.007939
            ]
          }
        },
        {
          "type": "Feature",
          "properties": {
            "id": "1880528531",
            "osm_type": "node",
            "lat": 48.0013064,
            "lon": 13.6123917,
            "addr:city": "Timelkam",
            "addr:country": "AT",
            "addr:housenumber": "4",
            "addr:postcode": "4850",
            "addr:street": "Pollheimer Straße",
            "name": "Hollerweger Marktmetzgerei",
            "phone": "+43 7672 92153",
            "shop": "butcher",
            "wheelchair": "yes"
          },
          "geometry": {
            "type": "Point",
            "coordinates": [
              13.6123917,
              48.0013064
            ]
          }
        },
        {
          "type": "Feature",
          "properties": {
            "id": "1891213363",
            "osm_type": "node",
            "lat": 48.0115732,
            "lon": 13.7245794,
            "addr:city": "Attnang-Puchheim",
            "addr:country": "AT",
            "addr:housenumber": "52",
            "addr:postcode": "4800",
            "addr:street": "Römerstraße",
            "email": "kasap.nasip@gmx.at",
            "halal": "yes",
            "name": "Kasap",
            "operator": "NASIP Fleischhauerei GmbH",
            "phone": "+43-676-467391",
            "shop": "butcher",
            "wheelchair": "no"
          },
          "geometry": {
            "type": "Point",
            "coordinates": [
              13.7245794,
              48.0115732
            ]
          }
        },
        {
          "type": "Feature",
          "properties": {
            "id": "2516984815",
            "osm_type": "node",
            "lat": 48.0127168,
            "lon": 13.7221837,
            "addr:city": "Attnang-Puchheim",
            "addr:country": "AT",
            "addr:housenumber": "4a",
            "addr:postcode": "4800",
            "addr:street": "Kirchenstraße",
            "contact:facebook": "www.facebook.com/pages/Die-Dorfer-Metzger-/821050567920596",
            "email": "office@dorfermetzger.at",
            "entrance": "yes",
            "name": "Die Dorfer Metzger",
            "opening_hours": "Mo-Th 07:00-12:00,15:00-18:00; Fr 07:00-18:00; Sa 07:00-12:00",
            "operator": "Obermeier-Holl KG",
            "phone": "+43-7674-64645",
            "shop": "butcher",
            "step_count": "0",
            "website": "http://www.dorfermetzger.at",
            "wheelchair": "yes"
          },
          "geometry": {
            "type": "Point",
            "coordinates": [
              13.7221837,
              48.0127168
            ]
          }
        },
        {
          "type": "Feature",
          "properties": {
            "id": "2554930258",
            "osm_type": "node",
            "lat": 48.0170115,
            "lon": 13.7201529,
            "contact:phone": "+43 7674 66567",
            "contact:website": "https://www.butz.at",
            "entrance": "yes",
            "name": "Fleischerei Butz",
            "opening_hours": "Mo-Fr 07:00-12:30,15:00-18:00; Sa 07:00-12:00",
            "shop": "butcher",
            "wheelchair": "yes"
          },
          "geometry": {
            "type": "Point",
            "coordinates": [
              13.7201529,
              48.0170115
            ]
          }
        },
        {
          "type": "Feature",
          "properties": {
            "id": "5186144140",
            "osm_type": "node",
            "lat": 47.9529325,
            "lon": 13.5874154,
            "addr:city": "Seewalchen am Attersee",
            "addr:country": "AT",
            "addr:housenumber": "8",
            "addr:postcode": "4863",
            "addr:street": "Hauptstraße",
            "check_date": "2025-06-16",
            "contact:phone": "+43 7662 4240",
            "name": "Dorfer Metzger",
            "opening_hours": "Mo-Th 07:30-13:00, 15:00-18:00; Fr 07:30-18:00; Sa 07:30-12:00",
            "shop": "butcher",
            "website": "https://dorfermetzger.stadtausstellung.at/filialen/"
          },
          "geometry": {
            "type": "Point",
            "coordinates": [
              13.5874154,
              47.9529325
            ]
          }
        },
        {
          "type": "Feature",
          "properties": {
            "id": "6174980585",
            "osm_type": "node",
            "lat": 47.9465821,
            "lon": 13.6057001,
            "addr:postcode": "4861",
            "name": "Metzgerei Haidinger",
            "phone": "+43 7662 2225",
            "shop": "butcher"
          },
          "geometry": {
            "type": "Point",
            "coordinates": [
              13.6057001,
              47.9465821
            ]
          }
        },
        {
          "type": "Feature",
          "properties": {
            "id": "6174985285",
            "osm_type": "node",
            "lat": 47.9460794,
            "lon": 13.6046482,
            "addr:postcode": "4861",
            "email": "j.nagl@nagl-metzgerei.at",
            "name": "Marktmetzgerei Nagl",
            "phone": "07662 2333",
            "shop": "butcher",
            "website": "https://www.nagl-metzgerei.at/"
          },
          "geometry": {
            "type": "Point",
            "coordinates": [
              13.6046482,
              47.9460794
            ]
          }
        },
        {
          "type": "Feature",
          "properties": {
            "id": "7146676324",
            "osm_type": "node",
            "lat": 47.9996412,
            "lon": 13.9771722,
            "name": "Kalki's Hausfleischerei",
            "shop": "butcher",
            "website": "https://www.kalkis-hausfleischerei.at/"
          },
          "geometry": {
            "type": "Point",
            "coordinates": [
              13.9771722,
              47.9996412
            ]
          }
        },
        {
          "type": "Feature",
          "properties": {
            "id": "8312871689",
            "osm_type": "node",
            "lat": 47.9986297,
            "lon": 13.9217699,
            "name": "Fleischhauerei Pöll",
            "shop": "butcher"
          },
          "geometry": {
            "type": "Point",
            "coordinates": [
              13.9217699,
              47.9986297
            ]
          }
        },
        {
          "type": "Feature",
          "properties": {
            "id": "9621619062",
            "osm_type": "node",
            "lat": 47.9032319,
            "lon": 13.9593114,
            "addr:city": "Scharnstein",
            "addr:country": "AT",
            "addr:housenumber": "27",
            "addr:postcode": "4644",
            "addr:street": "Hauptstraße",
            "fixme": "location",
            "name": "Hüthmayr",
            "note": "Namensschild hier; im Internet ist Hausnummer 27 angegeben",
            "shop": "butcher",
            "website": "http://www.almtalwurst.at/"
          },
          "geometry": {
            "type": "Point",
            "coordinates": [
              13.9593114,
              47.9032319
            ]
          }
        },
        {
          "type": "Feature",
          "properties": {
            "id": "4212433019",
            "osm_type": "node",
            "lat": 47.9432031,
            "lon": 14.1272916,
            "addr:city": "Schlierbach",
            "addr:housenumber": "1",
            "addr:postcode": "4553",
            "addr:street": "Zu Dorff",
            "contact:phone": "+43 7582 81305",
            "name": "Fleischhauerei Wöß",
            "shop": "butcher"
          },
          "geometry": {
            "type": "Point",
            "coordinates": [
              14.1272916,
              47.9432031
            ]
          }
        },
        {
          "type": "Feature",
          "properties": {
            "id": "4430567863",
            "osm_type": "node",
            "lat": 47.9068546,
            "lon": 14.1220362,
            "addr:city": "Kirchdorf an der Krems",
            "addr:housenumber": "14",
            "addr:postcode": "4560",
            "addr:street": "Simon-Redtenbacher-Platz",
            "name": "Zölß",
            "shop": "butcher"
          },
          "geometry": {
            "type": "Point",
            "coordinates": [
              14.1220362,
              47.9068546
            ]
          }
        }
      ],
      "children": []
    },
    {
      "bbox": {
        "south": 47.694865,
        "west": 14.2994695,
        "north": 48.02541825,
        "east": 15.253173
      },
      "poiCount": 11,
      "leafCount": 11,
      "averagePosition": [
        14.818377318181819,
        47.9465084
      ],
      "data": [
        {
          "type": "Feature",
          "properties": {
            "id": "1437440227",
            "osm_type": "node",
            "lat": 47.7207437,
            "lon": 14.3297031,
            "addr:city": "Windischgarsten",
            "addr:housenumber": "6",
            "addr:postcode": "4580",
            "addr:street": "Pyhrnstraße",
            "name": "Moser",
            "shop": "butcher"
          },
          "geometry": {
            "type": "Point",
            "coordinates": [
              14.3297031,
              47.7207437
            ]
          }
        },
        {
          "type": "Feature",
          "properties": {
            "id": "2617445057",
            "osm_type": "node",
            "lat": 47.8908099,
            "lon": 14.4595552,
            "name": "Fechter Fritz",
            "shop": "butcher"
          },
          "geometry": {
            "type": "Point",
            "coordinates": [
              14.4595552,
              47.8908099
            ]
          }
        },
        {
          "type": "Feature",
          "properties": {
            "id": "11199590827",
            "osm_type": "node",
            "lat": 47.9736823,
            "lon": 14.3016995,
            "addr:city": "Steinbach an der Steyr",
            "addr:housenumber": "32",
            "addr:postcode": "3496",
            "addr:street": "Pieslwang",
            "name": "Fleischerei Schedlberger",
            "opening_hours": "Mo: 8-12, Di: 8-18, Mi: 8-21, Do: 8-19, Fr: 8-21",
            "operator": "Karl Schedlberger",
            "payment:cash": "yes",
            "payment:contactless": "yes",
            "payment:credit_cards": "yes",
            "payment:maestro": "yes",
            "payment:mastercard": "yes",
            "payment:visa": "yes",
            "phone": "+436608156025",
            "shop": "butcher"
          },
          "geometry": {
            "type": "Point",
            "coordinates": [
              14.3016995,
              47.9736823
            ]
          }
        },
        {
          "type": "Feature",
          "properties": {
            "id": "1774438993",
            "osm_type": "node",
            "lat": 47.9486017,
            "lon": 14.893659,
            "addr:city": "Ybbsitz",
            "addr:country": "AT",
            "addr:housenumber": "15",
            "addr:postcode": "3341",
            "addr:street": "Alte Poststraße",
            "contact:phone": "+43 7443 863 28",
            "name": "Fleischhauerei Kainrath",
            "opening_hours": "Mo-Sa 06:00-19:00",
            "shop": "butcher",
            "website": "http://www.kainrath.com/index.php?auswahl=impressum"
          },
          "geometry": {
            "type": "Point",
            "coordinates": [
              14.893659,
              47.9486017
            ]
          }
        },
        {
          "type": "Feature",
          "properties": {
            "id": "5374411001",
            "osm_type": "node",
            "lat": 48.0230105,
            "lon": 14.7590514,
            "addr:city": "Hilm",
            "addr:country": "AT",
            "addr:housenumber": "6",
            "addr:postcode": "3331",
            "addr:street": "Waidhofnerstraße",
            "at_bev:addr_date": "2017-10-01",
            "name": "Freudenschuß",
            "shop": "butcher",
            "website": "https://schussi.at/"
          },
          "geometry": {
            "type": "Point",
            "coordinates": [
              14.7590514,
              48.0230105
            ]
          }
        },
        {
          "type": "Feature",
          "properties": {
            "id": "6070660281",
            "osm_type": "node",
            "lat": 47.9565418,
            "lon": 14.7813414,
            "addr:city": "Waidhofen an der Ybbs",
            "addr:country": "AT",
            "addr:housenumber": "5",
            "addr:postcode": "3340",
            "addr:street": "Riedmüllerstraße",
            "at_bev:addr_date": "2017-10-01",
            "contact:phone": "+43 7442 521 95",
            "name": "Steinmetz",
            "opening_hours": "Mo-Fr 07:00-12:30, 14:00-18:00; Sa 07:00-12:00",
            "shop": "butcher",
            "website": "https://www.partyflitzer.at/standorte/",
            "wheelchair": "yes"
          },
          "geometry": {
            "type": "Point",
            "coordinates": [
              14.7813414,
              47.9565418
            ]
          }
        },
        {
          "type": "Feature",
          "properties": {
            "id": "9975030314",
            "osm_type": "node",
            "lat": 47.9489705,
            "lon": 14.8934977,
            "addr:city": "Ybbsitz",
            "addr:country": "AT",
            "addr:postcode": "3341",
            "contact:phone": "+43 7443 863 28",
            "name": "Wildspezialitäten Kainrath",
            "shop": "butcher",
            "website": "http://www.kainrath.com/"
          },
          "geometry": {
            "type": "Point",
            "coordinates": [
              14.8934977,
              47.9489705
            ]
          }
        },
        {
          "type": "Feature",
          "properties": {
            "id": "1577452779",
            "osm_type": "node",
            "lat": 47.9283079,
            "lon": 15.0871073,
            "addr:city": "Gaming",
            "addr:country": "AT",
            "addr:housenumber": "1",
            "addr:postcode": "3292",
            "addr:street": "Ötscherlandstraße",
            "contact:phone": "+43 7485 97 309",
            "name": "Fleischerei Schagerl",
            "opening_hours": "Mo-Th 07:00-12:30; Fr 07:00-12:30,15:00-18:00; Sa 07:00-12:00",
            "shop": "butcher"
          },
          "geometry": {
            "type": "Point",
            "coordinates": [
              15.0871073,
              47.9283079
            ]
          }
        },
        {
          "type": "Feature",
          "properties": {
            "id": "2501123862",
            "osm_type": "node",
            "lat": 48.0059392,
            "lon": 15.1667076,
            "addr:housenumber": "20",
            "addr:street": "Hauptstraße",
            "name": "Gruber",
            "shop": "butcher"
          },
          "geometry": {
            "type": "Point",
            "coordinates": [
              15.1667076,
              48.0059392
            ]
          }
        },
        {
          "type": "Feature",
          "properties": {
            "id": "4941154357",
            "osm_type": "node",
            "lat": 48.0054933,
            "lon": 15.1667557,
            "addr:city": "Scheibbs",
            "addr:country": "AT",
            "addr:housenumber": "26",
            "addr:postcode": "3270",
            "addr:street": "Hauptstraße",
            "contact:website": "http://www.blunzensemmerl.at",
            "name": "Blunz'nsemmerl",
            "name:de": "Catering-Pfingsten",
            "opening_hours": "Mo-We, Fr 07:30-13:00, 15:00-18:00; Th 07:30-13:00; Sa 07:30-12:00",
            "shop": "butcher"
          },
          "geometry": {
            "type": "Point",
            "coordinates": [
              15.1667557,
              48.0054933
            ]
          }
        },
        {
          "type": "Feature",
          "properties": {
            "id": "9899592328",
            "osm_type": "node",
            "lat": 48.0094916,
            "lon": 15.1630726,
            "name": "Fleischerei Schagerl",
            "opening_hours": "Mo-We 07:00-12:00, 15:00-18:00; Th, Fr 07:00-18:00; Sa 07:00-12:00",
            "phone": "+43 7482 42490",
            "shop": "butcher",
            "website": "https://www.fleischerei-schagerl.at/"
          },
          "geometry": {
            "type": "Point",
            "coordinates": [
              15.1630726,
              48.0094916
            ]
          }
        }
      ],
      "children": []
    },
    {
      "bbox": {
        "south": 48.02541825,
        "west": 13.345766,
        "north": 48.355971499999995,
        "east": 14.2994695
      },
      "poiCount": 42,
      "leafCount": 42,
      "averagePosition": [
        13.936720671428573,
        48.207389738095245
      ],
      "data": [
        {
          "type": "Feature",
          "properties": {
            "id": "540436937",
            "osm_type": "node",
            "lat": 48.3348898,
            "lon": 13.3590025,
            "shop": "butcher"
          },
          "geometry": {
            "type": "Point",
            "coordinates": [
              13.3590025,
              48.3348898
            ]
          }
        },
        {
          "type": "Feature",
          "properties": {
            "id": "558362070",
            "osm_type": "node",
            "lat": 48.0673753,
            "lon": 13.4845774,
            "name": "Dorfer Metzger",
            "shop": "butcher",
            "website": "http://www.dorfermetzger.at/"
          },
          "geometry": {
            "type": "Point",
            "coordinates": [
              13.4845774,
              48.0673753
            ]
          }
        },
        {
          "type": "Feature",
          "properties": {
            "id": "1548057476",
            "osm_type": "node",
            "lat": 48.2104982,
            "lon": 13.4891966,
            "name": "Feichtinger",
            "shop": "butcher"
          },
          "geometry": {
            "type": "Point",
            "coordinates": [
              13.4891966,
              48.2104982
            ]
          }
        },
        {
          "type": "Feature",
          "properties": {
            "id": "4127675015",
            "osm_type": "node",
            "lat": 48.2086052,
            "lon": 13.4860441,
            "addr:city": "Ried im Innkreis",
            "addr:housenumber": "7",
            "addr:postcode": "4910",
            "addr:street": "Hoher Markt",
            "name": "Metzgerei Lang",
            "phone": "+43 7752 82235",
            "shop": "butcher"
          },
          "geometry": {
            "type": "Point",
            "coordinates": [
              13.4860441,
              48.2086052
            ]
          }
        },
        {
          "type": "Feature",
          "properties": {
            "id": "7581293793",
            "osm_type": "node",
            "lat": 48.2487278,
            "lon": 13.454926,
            "contact:website": "https://www.fleisch-hiermann.at",
            "name": "Fleisch & Wurst Hiermann",
            "opening_hours": "Mo, We-Fr 06:30-18:00; Tu 06:30-13:00; Sa 07:00-12:00",
            "shop": "butcher"
          },
          "geometry": {
            "type": "Point",
            "coordinates": [
              13.454926,
              48.2487278
            ]
          }
        },
        {
          "type": "Feature",
          "properties": {
            "id": "9442506238",
            "osm_type": "node",
            "lat": 48.207192,
            "lon": 13.4878625,
            "name": "Zöls",
            "opening_hours": "Mo 07:30-12:30; Tu-Th 07:30-12:30,14:00-18:00; Fr 07:30-18:00; Sa 07:30-12:00; Su,PH off",
            "shop": "butcher",
            "wheelchair": "yes"
          },
          "geometry": {
            "type": "Point",
            "coordinates": [
              13.4878625,
              48.207192
            ]
          }
        },
        {
          "type": "Feature",
          "properties": {
            "id": "11824027010",
            "osm_type": "node",
            "lat": 48.3536045,
            "lon": 13.3505229,
            "addr:city": "Bad Füssing",
            "addr:country": "DE",
            "addr:housenumber": "12",
            "addr:postcode": "94072",
            "addr:street": "Untere Inntalstraße",
            "name": "Metzgerei Moser",
            "phone": "+49 8531 24680",
            "shop": "butcher"
          },
          "geometry": {
            "type": "Point",
            "coordinates": [
              13.3505229,
              48.3536045
            ]
          }
        },
        {
          "type": "Feature",
          "properties": {
            "id": "392815963",
            "osm_type": "node",
            "lat": 48.0441445,
            "lon": 13.9807709,
            "entrance": "yes",
            "name": "Fleischerei Kölblinger",
            "shop": "butcher"
          },
          "geometry": {
            "type": "Point",
            "coordinates": [
              13.9807709,
              48.0441445
            ]
          }
        },
        {
          "type": "Feature",
          "properties": {
            "id": "573444532",
            "osm_type": "node",
            "lat": 48.0633075,
            "lon": 13.9020782,
            "amenity": "pub",
            "cuisine": "regional",
            "name": "Staudinger",
            "shop": "butcher"
          },
          "geometry": {
            "type": "Point",
            "coordinates": [
              13.9020782,
              48.0633075
            ]
          }
        },
        {
          "type": "Feature",
          "properties": {
            "id": "742512924",
            "osm_type": "node",
            "lat": 48.1583639,
            "lon": 14.0245689,
            "addr:city": "Wels",
            "addr:country": "AT",
            "addr:housenumber": "14",
            "addr:postcode": "4600",
            "addr:street": "Ringstraße",
            "description": "Feinkost by Gourmetfein",
            "fax": "+43 7242 62250",
            "name": "Zellinger",
            "opening_hours": "Mo-Fr 08:30-18:00; Sa 08:30-12:00",
            "phone": "+43 7242 62251",
            "shop": "butcher",
            "website": "https://www.zellinger.at/",
            "wheelchair": "yes"
          },
          "geometry": {
            "type": "Point",
            "coordinates": [
              14.0245689,
              48.1583639
            ]
          }
        },
        {
          "type": "Feature",
          "properties": {
            "id": "1431665727",
            "osm_type": "node",
            "lat": 48.0781658,
            "lon": 13.5988223,
            "name": "Fleischerei Hiegelsberger",
            "shop": "butcher"
          },
          "geometry": {
            "type": "Point",
            "coordinates": [
              13.5988223,
              48.0781658
            ]
          }
        },
        {
          "type": "Feature",
          "properties": {
            "id": "1560353370",
            "osm_type": "node",
            "lat": 48.3084977,
            "lon": 14.0236873,
            "contact:email": "service@jungmaier.at",
            "contact:phone": "+43 7272 4155",
            "contact:website": "http://www.jungmaier.at/",
            "name": "Josef Jungmaier",
            "opening_hours": "Mo-Fr 7:30-13:00,14:30-18:00;Sa 7:30-12:00",
            "shop": "butcher",
            "wheelchair": "yes"
          },
          "geometry": {
            "type": "Point",
            "coordinates": [
              14.0236873,
              48.3084977
            ]
          }
        },
        {
          "type": "Feature",
          "properties": {
            "id": "2153668725",
            "osm_type": "node",
            "lat": 48.1424546,
            "lon": 13.7366029,
            "name": "Humer",
            "shop": "butcher"
          },
          "geometry": {
            "type": "Point",
            "coordinates": [
              13.7366029,
              48.1424546
            ]
          }
        },
        {
          "type": "Feature",
          "properties": {
            "id": "2168943627",
            "osm_type": "node",
            "lat": 48.3023237,
            "lon": 13.6353009,
            "name": "Fleischhauerei Moser",
            "shop": "butcher"
          },
          "geometry": {
            "type": "Point",
            "coordinates": [
              13.6353009,
              48.3023237
            ]
          }
        },
        {
          "type": "Feature",
          "properties": {
            "id": "2386874249",
            "osm_type": "node",
            "lat": 48.1566064,
            "lon": 13.8367816,
            "name": "Schmalwieser",
            "shop": "butcher"
          },
          "geometry": {
            "type": "Point",
            "coordinates": [
              13.8367816,
              48.1566064
            ]
          }
        },
        {
          "type": "Feature",
          "properties": {
            "id": "2661785263",
            "osm_type": "node",
            "lat": 48.2306228,
            "lon": 13.9201972,
            "name": "Strasser",
            "shop": "butcher"
          },
          "geometry": {
            "type": "Point",
            "coordinates": [
              13.9201972,
              48.2306228
            ]
          }
        },
        {
          "type": "Feature",
          "properties": {
            "id": "3607020039",
            "osm_type": "node",
            "lat": 48.0851162,
            "lon": 13.8729542,
            "shop": "butcher"
          },
          "geometry": {
            "type": "Point",
            "coordinates": [
              13.8729542,
              48.0851162
            ]
          }
        },
        {
          "type": "Feature",
          "properties": {
            "id": "4172991602",
            "osm_type": "node",
            "lat": 48.3291645,
            "lon": 13.856728,
            "addr:city": "Waizenkirchen",
            "addr:housenumber": "6",
            "addr:postcode": "4730",
            "addr:street": "Marktplatz",
            "email": "office@moser-metzger.at",
            "name": "Moser Filiale Waizenkirchen",
            "opening_hours": "Mo-Th 07:00-12:30,14:30-18:00; Fr 07:00-12:30,14:00-18:00; Sa 07:00-12:00",
            "operator": "Moser Fleischhauer Gesellschaft m.b.H. u. Co. KG",
            "phone": "+43 7277 2268",
            "shop": "butcher",
            "website": "https://moser-metzger.at/",
            "wheelchair": "no"
          },
          "geometry": {
            "type": "Point",
            "coordinates": [
              13.856728,
              48.3291645
            ]
          }
        },
        {
          "type": "Feature",
          "properties": {
            "id": "4801252741",
            "osm_type": "node",
            "lat": 48.1764487,
            "lon": 13.8619392,
            "addr:city": "Kematen am Innbach",
            "addr:country": "AT",
            "addr:housenumber": "53",
            "addr:postcode": "4633",
            "addr:street": "Innbachtalstraße",
            "email": "office@muckenhuber.at",
            "name": "Muckenhuber R.",
            "official_name": "Muckenhuber GesmbH & Co KG",
            "opening_hours": "Mo,Sa 07:00-12:00; Tu-Fr 07:00-12:00, 14:00-18:00",
            "phone": "+43-7247-6647",
            "shop": "butcher",
            "website": "http://www.muckenhuber.at/"
          },
          "geometry": {
            "type": "Point",
            "coordinates": [
              13.8619392,
              48.1764487
            ]
          }
        },
        {
          "type": "Feature",
          "properties": {
            "id": "6180220238",
            "osm_type": "node",
            "lat": 48.1559674,
            "lon": 13.5614164,
            "name": "Reiter",
            "official_name": "REITER Innviertler Fleischwaren e.U.",
            "shop": "butcher",
            "website": "https://www.reiter.at"
          },
          "geometry": {
            "type": "Point",
            "coordinates": [
              13.5614164,
              48.1559674
            ]
          }
        },
        {
          "type": "Feature",
          "properties": {
            "id": "6804055132",
            "osm_type": "node",
            "lat": 48.0545326,
            "lon": 13.7721643,
            "addr:city": "Schwanenstadt",
            "addr:country": "AT",
            "addr:housenumber": "1",
            "addr:postcode": "4690",
            "addr:street": "Bahnhofstraße",
            "name": "Helga Storz",
            "phone": "+43-7673-2251",
            "shop": "butcher"
          },
          "geometry": {
            "type": "Point",
            "coordinates": [
              13.7721643,
              48.0545326
            ]
          }
        },
        {
          "type": "Feature",
          "properties": {
            "id": "6838689176",
            "osm_type": "node",
            "lat": 48.0928011,
            "lon": 13.8733318,
            "addr:city": "Lambach",
            "addr:country": "AT",
            "addr:housenumber": "17",
            "addr:postcode": "4650",
            "addr:street": "Leitenstraße",
            "email": "office@butz.at",
            "fax": "+43-7245-28861-6",
            "name": "Butz",
            "phone": "+43-7245-28861-0",
            "shop": "butcher",
            "website": "http://www.butz.at"
          },
          "geometry": {
            "type": "Point",
            "coordinates": [
              13.8733318,
              48.0928011
            ]
          }
        },
        {
          "type": "Feature",
          "properties": {
            "id": "11907492420",
            "osm_type": "node",
            "lat": 48.1574205,
            "lon": 14.0072275,
            "name": "Niedermayr",
            "shop": "butcher"
          },
          "geometry": {
            "type": "Point",
            "coordinates": [
              14.0072275,
              48.1574205
            ]
          }
        },
        {
          "type": "Feature",
          "properties": {
            "id": "12259286585",
            "osm_type": "node",
            "lat": 48.0913055,
            "lon": 13.8744762,
            "addr:city": "Lambach",
            "addr:country": "AT",
            "addr:housenumber": "8",
            "addr:postcode": "4650",
            "addr:street": "Klosterplatz",
            "name": "Butz",
            "opening_hours": "Mo-Fr 07:30-12:30,15:00-18:00 Uhr; Sa 07:30-12:00 Uhr",
            "shop": "butcher"
          },
          "geometry": {
            "type": "Point",
            "coordinates": [
              13.8744762,
              48.0913055
            ]
          }
        },
        {
          "type": "Feature",
          "properties": {
            "id": "12745142441",
            "osm_type": "node",
            "lat": 48.2686852,
            "lon": 14.0090007,
            "name": "Lehnerhof",
            "shop": "butcher",
            "website": "https://www.bauernleberkaese.at/"
          },
          "geometry": {
            "type": "Point",
            "coordinates": [
              14.0090007,
              48.2686852
            ]
          }
        },
        {
          "type": "Feature",
          "properties": {
            "id": "625999782",
            "osm_type": "node",
            "lat": 48.1919088,
            "lon": 14.1204767,
            "addr:city": "Marchtrenk",
            "addr:country": "AT",
            "addr:housenumber": "60a",
            "addr:postcode": "4614",
            "addr:street": "Linzer Straße",
            "contact:facebook": "https://www.facebook.com/feuersteiner/?locale=de_DE",
            "contact:phone": "+43 7243 58294",
            "name": "Steiner",
            "opening_hours": "Tu, Th 06:00-12:00",
            "shop": "butcher"
          },
          "geometry": {
            "type": "Point",
            "coordinates": [
              14.1204767,
              48.1919088
            ]
          }
        },
        {
          "type": "Feature",
          "properties": {
            "id": "685048699",
            "osm_type": "node",
            "lat": 48.052737,
            "lon": 14.1291858,
            "addr:city": "Kremsmünster",
            "addr:country": "AT",
            "addr:housenumber": "2",
            "addr:postcode": "4550",
            "addr:street": "Rathausplatz",
            "fax": "+43-7583-5206-4",
            "name": "Fleischhauerei Hüttmayr",
            "operator": "Arthmayr",
            "phone": "+43-7583-5206",
            "shop": "butcher"
          },
          "geometry": {
            "type": "Point",
            "coordinates": [
              14.1291858,
              48.052737
            ]
          }
        },
        {
          "type": "Feature",
          "properties": {
            "id": "837314023",
            "osm_type": "node",
            "lat": 48.3190201,
            "lon": 14.2849736,
            "addr:city": "Linz",
            "addr:housenumber": "5",
            "addr:postcode": "4040",
            "addr:street": "Strabergerstraße",
            "name": "Fleischhauerei Wegschaider",
            "opening_hours": "Mo,Tu,Th 07:30-14:00; We,Fr 07:30-16:00,Sa 08:00-12:00",
            "shop": "butcher"
          },
          "geometry": {
            "type": "Point",
            "coordinates": [
              14.2849736,
              48.3190201
            ]
          }
        },
        {
          "type": "Feature",
          "properties": {
            "id": "965200934",
            "osm_type": "node",
            "lat": 48.2801409,
            "lon": 14.2480197,
            "contact:email": "leonding@fleischerei-derntl.at",
            "contact:fax": "+43 732 6773004",
            "contact:phone": "+43 732 677300",
            "contact:website": "http://fleischerei-derntl.at",
            "name": "Derntl",
            "operator": "Fleischhauerei Josef Derntl K.G.",
            "shop": "butcher"
          },
          "geometry": {
            "type": "Point",
            "coordinates": [
              14.2480197,
              48.2801409
            ]
          }
        },
        {
          "type": "Feature",
          "properties": {
            "id": "986059963",
            "osm_type": "node",
            "lat": 48.3148296,
            "lon": 14.2828849,
            "contact:phone": "+43 732 737354",
            "contact:website": "http://www.wegschaider.com/",
            "layer": "0",
            "level": "0",
            "name": "Wegschaider",
            "opening_hours": "Mo-Fr 08:00-19:00; Sa 08:00-17:00",
            "shop": "butcher",
            "wheelchair": "yes"
          },
          "geometry": {
            "type": "Point",
            "coordinates": [
              14.2828849,
              48.3148296
            ]
          }
        },
        {
          "type": "Feature",
          "properties": {
            "id": "1414518437",
            "osm_type": "node",
            "lat": 48.2747311,
            "lon": 14.2943077,
            "addr:city": "Linz",
            "addr:housenumber": "1",
            "addr:postcode": "4020",
            "addr:street": "Hatschekstraße",
            "check_date:opening_hours": "2023-09-27",
            "contact:email": "fleisch@koettstorfer.at",
            "contact:fax": "+43 732 3462115",
            "contact:phone": "+43 732 346211",
            "contact:website": "http://www.koettstorfer.at",
            "email": "fleisch@koettstorfer.at",
            "level": "0",
            "name": "Köttstorfer",
            "opening_hours": "Mo-Fr 09:00-13:00",
            "operator": "Klaus Köttstorfer GmbH",
            "phone": "+43 732 346 211",
            "shop": "butcher",
            "website": "https://www.koettstorfer.at"
          },
          "geometry": {
            "type": "Point",
            "coordinates": [
              14.2943077,
              48.2747311
            ]
          }
        },
        {
          "type": "Feature",
          "properties": {
            "id": "3109275414",
            "osm_type": "node",
            "lat": 48.2347463,
            "lon": 14.1331446,
            "addr:city": "Oftering",
            "addr:country": "AT",
            "addr:housenumber": "25",
            "addr:street": "Ofteringer Straße",
            "name": "Fleischhauerei Netherer",
            "operator": "Michael Führer",
            "shop": "butcher"
          },
          "geometry": {
            "type": "Point",
            "coordinates": [
              14.1331446,
              48.2347463
            ]
          }
        },
        {
          "type": "Feature",
          "properties": {
            "id": "3647226107",
            "osm_type": "node",
            "lat": 48.230843,
            "lon": 14.2704282,
            "addr:housenumber": "34",
            "addr:street": "Aumühlstraße",
            "name": "Schnabler",
            "opening_hours": "Tu,Th,Fr 06:00-12:15,15:00-18:00; We 06:00-12:15; Sa 06:00-12:00",
            "shop": "butcher"
          },
          "geometry": {
            "type": "Point",
            "coordinates": [
              14.2704282,
              48.230843
            ]
          }
        },
        {
          "type": "Feature",
          "properties": {
            "id": "3737447370",
            "osm_type": "node",
            "lat": 48.2692369,
            "lon": 14.2920208,
            "name": "Wegschaider",
            "opening_hours": "Mo,We 08:00-13:30; Tu,Th 08:00-13:30,14:30-18:00; Fr 07:00-13:30,14:30-18:00; Sa 07:00-12:00; PH off",
            "shop": "butcher"
          },
          "geometry": {
            "type": "Point",
            "coordinates": [
              14.2920208,
              48.2692369
            ]
          }
        },
        {
          "type": "Feature",
          "properties": {
            "id": "3770378499",
            "osm_type": "node",
            "lat": 48.0342071,
            "lon": 14.2095753,
            "addr:city": "Bad Hall",
            "addr:country": "AT",
            "addr:housenumber": "18",
            "addr:postcode": "4540",
            "addr:street": "Hauptplatz",
            "name": "Zellinger",
            "opening_hours": "Mo-Fr 07:00-18:00; Sa 07:00-12:00",
            "shop": "butcher"
          },
          "geometry": {
            "type": "Point",
            "coordinates": [
              14.2095753,
              48.0342071
            ]
          }
        },
        {
          "type": "Feature",
          "properties": {
            "id": "4336655515",
            "osm_type": "node",
            "lat": 48.2987606,
            "lon": 14.1595557,
            "name": "Fleischauerei Moser",
            "opening_hours": "Mo-We 7:30-13:30; Th-Fr 7:30-13:30, 15:00-18:00; Sa 7:39-13:30",
            "shop": "butcher",
            "website": "https://moser-catering.at/"
          },
          "geometry": {
            "type": "Point",
            "coordinates": [
              14.1595557,
              48.2987606
            ]
          }
        },
        {
          "type": "Feature",
          "properties": {
            "id": "5405935146",
            "osm_type": "node",
            "lat": 48.2267531,
            "lon": 14.1786521,
            "addr:city": "Hörsching",
            "addr:country": "AT",
            "addr:housenumber": "8",
            "addr:postcode": "4063",
            "addr:street": "Brucknerplatz",
            "entrance": "yes",
            "level": "0",
            "name": "Fleischerei Weiss",
            "opening_hours": "Tu,Th-Fr 07:00-12:30,14:30-18:00;Mo,We 07:00-12:30;Sa 07:00-12:00",
            "shop": "butcher",
            "website": "https://www.fleischerei-weiss.at/",
            "wheelchair": "no"
          },
          "geometry": {
            "type": "Point",
            "coordinates": [
              14.1786521,
              48.2267531
            ]
          }
        },
        {
          "type": "Feature",
          "properties": {
            "id": "9028729197",
            "osm_type": "node",
            "lat": 48.295546,
            "lon": 14.2871118,
            "name": "Wegscheider",
            "opening_hours": "Mo-Fr 08:00-18:00; Sa 08:00-13:00",
            "shop": "butcher"
          },
          "geometry": {
            "type": "Point",
            "coordinates": [
              14.2871118,
              48.295546
            ]
          }
        },
        {
          "type": "Feature",
          "properties": {
            "id": "9247020060",
            "osm_type": "node",
            "lat": 48.2202423,
            "lon": 14.2400286,
            "name": "Wegschaider",
            "opening_hours": "Mo-Fr 07:30-18:00; Sa 07:30-12:30",
            "shop": "butcher"
          },
          "geometry": {
            "type": "Point",
            "coordinates": [
              14.2400286,
              48.2202423
            ]
          }
        },
        {
          "type": "Feature",
          "properties": {
            "id": "9886695716",
            "osm_type": "node",
            "lat": 48.3401877,
            "lon": 14.1686492,
            "name": "A. Riepl",
            "shop": "butcher"
          },
          "geometry": {
            "type": "Point",
            "coordinates": [
              14.1686492,
              48.3401877
            ]
          }
        },
        {
          "type": "Feature",
          "properties": {
            "id": "10065862260",
            "osm_type": "node",
            "lat": 48.2984981,
            "lon": 14.2918476,
            "name": "Wegscheider",
            "opening_hours": "Mo-Fr 07:30-18:00; Sa 07:30-13:00",
            "shop": "butcher"
          },
          "geometry": {
            "type": "Point",
            "coordinates": [
              14.2918476,
              48.2984981
            ]
          }
        },
        {
          "type": "Feature",
          "properties": {
            "id": "12070409948",
            "osm_type": "node",
            "lat": 48.301159,
            "lon": 14.2912254,
            "name": "Hackl Linz",
            "shop": "butcher"
          },
          "geometry": {
            "type": "Point",
            "coordinates": [
              14.2912254,
              48.301159
            ]
          }
        }
      ],
      "children": []
    },
    {
      "bbox": {
        "south": 48.02541825,
        "west": 14.2994695,
        "north": 48.355971499999995,
        "east": 15.253173
      },
      "poiCount": 41,
      "leafCount": 41,
      "averagePosition": [
        14.564773480487805,
        48.20494868292683
      ],
      "data": [
        {
          "type": "Feature",
          "properties": {
            "id": "297580154",
            "osm_type": "node",
            "lat": 48.214103,
            "lon": 14.4797905,
            "addr:city": "Enns",
            "addr:country": "AT",
            "addr:housenumber": "19",
            "addr:postcode": "4470",
            "addr:street": "Hauptplatz",
            "at_bev:addr_date": "2020-10-01",
            "contact:phone": "+43 7223 823 46",
            "name": "Thomas Reisinger",
            "opening_hours": "Mo, Tu, Th 08:00-12:00, 15:00-18:00; We 08:00-12:00; Fr 08:00-12:00; 14:00-18:00; Sa 07:00-12:00",
            "shop": "butcher",
            "source": "survey",
            "website": "https://www.fleischerei-reisinger.at/home#kontakt"
          },
          "geometry": {
            "type": "Point",
            "coordinates": [
              14.4797905,
              48.214103
            ]
          }
        },
        {
          "type": "Feature",
          "properties": {
            "id": "316233421",
            "osm_type": "node",
            "lat": 48.0501613,
            "lon": 14.3339718,
            "created_by": "Potlatch 0.10f",
            "shop": "butcher"
          },
          "geometry": {
            "type": "Point",
            "coordinates": [
              14.3339718,
              48.0501613
            ]
          }
        },
        {
          "type": "Feature",
          "properties": {
            "id": "632723894",
            "osm_type": "node",
            "lat": 48.3320741,
            "lon": 14.3098521,
            "check_date": "2025-07-29",
            "check_date:opening_hours": "2025-07-29",
            "name": "Bio Genussecke",
            "opening_hours": "Tu,We 09:00-12:00,14:30-18:00; Th,Fr 09:00-18:00; Sa 08:00-12:00; Mo off",
            "shop": "butcher",
            "start_date": "2021-04",
            "website": "https://www.genussecke.bio/"
          },
          "geometry": {
            "type": "Point",
            "coordinates": [
              14.3098521,
              48.3320741
            ]
          }
        },
        {
          "type": "Feature",
          "properties": {
            "id": "1597397995",
            "osm_type": "node",
            "lat": 48.092157,
            "lon": 14.4793756,
            "contact:phone": "+43 7252 37127",
            "name": "Menzl",
            "opening_hours": "Mo-Fr 08:30-18:00",
            "shop": "butcher",
            "website": "https://www.menzl-fleischer.at/"
          },
          "geometry": {
            "type": "Point",
            "coordinates": [
              14.4793756,
              48.092157
            ]
          }
        },
        {
          "type": "Feature",
          "properties": {
            "id": "2165280918",
            "osm_type": "node",
            "lat": 48.1725607,
            "lon": 14.5196257,
            "addr:city": "St. Valentin",
            "addr:country": "AT",
            "addr:housenumber": "1",
            "addr:postcode": "4300",
            "addr:street": "Siegfriedstraße",
            "contact:phone": "+43 7435 52129",
            "name": "Rudolf Menzl",
            "opening_hours": "Mo-Fr 06:30-18:00; Sa 06:30-12:00",
            "shop": "butcher",
            "website": "https://www.menzl-fleischer.at/"
          },
          "geometry": {
            "type": "Point",
            "coordinates": [
              14.5196257,
              48.1725607
            ]
          }
        },
        {
          "type": "Feature",
          "properties": {
            "id": "2202220847",
            "osm_type": "node",
            "lat": 48.352097,
            "lon": 14.4161015,
            "name": "Anton Riepl",
            "shop": "butcher"
          },
          "geometry": {
            "type": "Point",
            "coordinates": [
              14.4161015,
              48.352097
            ]
          }
        },
        {
          "type": "Feature",
          "properties": {
            "id": "2428447553",
            "osm_type": "node",
            "lat": 48.0440908,
            "lon": 14.3101819,
            "shop": "butcher"
          },
          "geometry": {
            "type": "Point",
            "coordinates": [
              14.3101819,
              48.0440908
            ]
          }
        },
        {
          "type": "Feature",
          "properties": {
            "id": "2706808013",
            "osm_type": "node",
            "lat": 48.216781,
            "lon": 14.4624496,
            "addr:city": "Enns",
            "addr:housenumber": "5",
            "addr:postcode": "4470",
            "addr:street": "Am Römerfeld",
            "name": "Feinkostmanufaktur Zellinger",
            "opening_hours": "Mo,Th 08:30-12:30,15:00-18:00; Tu,We 08:30-12:30; Fr 08:00-18:00; Sa 08:00-12:00",
            "operator": "G. Zellinger",
            "phone": "+43 7223 89023",
            "shop": "butcher",
            "website": "https://www.zellinger.at"
          },
          "geometry": {
            "type": "Point",
            "coordinates": [
              14.4624496,
              48.216781
            ]
          }
        },
        {
          "type": "Feature",
          "properties": {
            "id": "2856128071",
            "osm_type": "node",
            "lat": 48.2135965,
            "lon": 14.4822318,
            "addr:city": "Enns",
            "addr:country": "AT",
            "addr:housenumber": "20",
            "addr:postcode": "4470",
            "addr:street": "Reintalgasse",
            "building": "yes",
            "butcher": "horse",
            "name": "Gumprecht",
            "opening_hours": "Mo-Fr 07:00-14:00",
            "phone": "+43 7223 82358",
            "shop": "butcher",
            "website": "https://www.pferdefleischer.at/"
          },
          "geometry": {
            "type": "Point",
            "coordinates": [
              14.4822318,
              48.2135965
            ]
          }
        },
        {
          "type": "Feature",
          "properties": {
            "id": "4149581457",
            "osm_type": "node",
            "lat": 48.3006476,
            "lon": 14.3003048,
            "addr:city": "Linz",
            "addr:housenumber": "12",
            "addr:postcode": "4020",
            "addr:street": "Marktplatz",
            "image": "https://srm.intermaps.com/admin/imgupload/2023_04_06_15_36_01_671_0.jpg",
            "name": "Wegschaider Imbiss",
            "opening_hours": "Monday: 08:00-16:00 Tuesday: 08:00-16:00 Wednesday: 08:00-16:00 Thursday: 08:00-16:00 Friday: 08:00-16:00 Saturday: 08:00-13:00 Sunday: 08:00-16:00",
            "operator": "Wegschaider",
            "phone": "+43 732 606 562",
            "shop": "butcher",
            "source": "https://www.suedbahnhofmarkt.com/"
          },
          "geometry": {
            "type": "Point",
            "coordinates": [
              14.3003048,
              48.3006476
            ]
          }
        },
        {
          "type": "Feature",
          "properties": {
            "id": "4149581458",
            "osm_type": "node",
            "lat": 48.3011781,
            "lon": 14.3000156,
            "name": "Hartl's Kulinnrikum",
            "shop": "butcher"
          },
          "geometry": {
            "type": "Point",
            "coordinates": [
              14.3000156,
              48.3011781
            ]
          }
        },
        {
          "type": "Feature",
          "properties": {
            "id": "4149581463",
            "osm_type": "node",
            "lat": 48.3001444,
            "lon": 14.3005803,
            "addr:city": "Linz",
            "addr:housenumber": "22",
            "addr:postcode": "4020",
            "addr:street": "Marktplatz",
            "image": "https://srm.intermaps.com/admin/imgupload/2023_04_24_13_57_31_642_0.jpg",
            "name": "Hendl Spezi",
            "opening_hours": "Monday: 07:30-14:00 Tuesday: 07:30-16:00 Wednesday: 07:30-16:00 Thursday: 07:30-16:00 Friday: 07:00-17:00 Saturday: 07:00-13:00",
            "shop": "butcher",
            "source": "https://www.suedbahnhofmarkt.com/"
          },
          "geometry": {
            "type": "Point",
            "coordinates": [
              14.3005803,
              48.3001444
            ]
          }
        },
        {
          "type": "Feature",
          "properties": {
            "id": "4149581464",
            "osm_type": "node",
            "lat": 48.3002162,
            "lon": 14.300902,
            "check_date:opening_hours": "2023-09-11",
            "name": "Lackinger",
            "opening_hours": "Mo 07:30-13:00; Sa 07:00-12:30; Tu-Th 07:30-17:00; Fr 07:00-17:00",
            "shop": "butcher"
          },
          "geometry": {
            "type": "Point",
            "coordinates": [
              14.300902,
              48.3002162
            ]
          }
        },
        {
          "type": "Feature",
          "properties": {
            "id": "4798625841",
            "osm_type": "node",
            "lat": 48.2836748,
            "lon": 14.3593326,
            "addr:city": "Steyregg",
            "addr:housenumber": "42",
            "addr:postcode": "4221",
            "addr:street": "Linzer Straße",
            "name": "Wegschaider",
            "shop": "butcher",
            "wheelchair": "no"
          },
          "geometry": {
            "type": "Point",
            "coordinates": [
              14.3593326,
              48.2836748
            ]
          }
        },
        {
          "type": "Feature",
          "properties": {
            "id": "4869382661",
            "osm_type": "node",
            "lat": 48.3008022,
            "lon": 14.3005675,
            "addr:city": "Linz",
            "addr:housenumber": "11",
            "addr:postcode": "4020",
            "addr:street": "Marktplatz",
            "image": "https://srm.intermaps.com/admin/imgupload/2023_05_22_12_58_49_207_0.jpg",
            "name": "Wegschaider der Fleischermeister",
            "opening_hours": "Tu,Th 07:30-15:00; Mo,We 08:00-15:00; Fr 07:00-16:00; Sa 07:00-13:00",
            "operator": "Wegschaider",
            "shop": "butcher",
            "source": "https://www.suedbahnhofmarkt.com/"
          },
          "geometry": {
            "type": "Point",
            "coordinates": [
              14.3005675,
              48.3008022
            ]
          }
        },
        {
          "type": "Feature",
          "properties": {
            "id": "5576621294",
            "osm_type": "node",
            "lat": 48.3013365,
            "lon": 14.3002215,
            "addr:city": "Linz",
            "addr:housenumber": "1",
            "addr:postcode": "4020",
            "addr:street": "Marktplatz",
            "image": "https://srm.intermaps.com/admin/imgupload/2023_04_06_15_19_08_656_0.jpg",
            "name": "Fleischwaren Daneder",
            "opening_hours": "Mo-Fr 07:30-14:00; Sa 07:00-13:00",
            "operator": "Stefan Daneder",
            "payment:cash": "yes",
            "payment:coins": "yes",
            "payment:notes": "yes",
            "shop": "butcher",
            "start_date": "2017",
            "website": "https://www.suedbahnhofmarkt.com/"
          },
          "geometry": {
            "type": "Point",
            "coordinates": [
              14.3002215,
              48.3013365
            ]
          }
        },
        {
          "type": "Feature",
          "properties": {
            "id": "5696145376",
            "osm_type": "node",
            "lat": 48.041443,
            "lon": 14.4206953,
            "addr:city": "Steyr",
            "addr:housenumber": "13",
            "addr:postcode": "4400",
            "addr:street": "Enge Gasse",
            "check_date": "2024-10-09",
            "name": "Zellinger",
            "opening_hours": "Mo-Tu,Th-Fr 08:30-17:30; We 08:30-14:00; Sa 08:00-12:00; Su,PH off",
            "shop": "butcher",
            "website": "https://www.zellinger.at/"
          },
          "geometry": {
            "type": "Point",
            "coordinates": [
              14.4206953,
              48.041443
            ]
          }
        },
        {
          "type": "Feature",
          "properties": {
            "id": "7466821558",
            "osm_type": "node",
            "lat": 48.057952,
            "lon": 14.441357,
            "addr:city": "Steyr",
            "addr:country": "AT",
            "addr:housenumber": "27",
            "addr:postcode": "4400",
            "addr:street": "Franz-Schuhmeier-Straße",
            "at_bev:addr_date": "2020-04-01",
            "contact:phone": "+43 7252 722 63",
            "name": "Zellinger",
            "shop": "butcher",
            "website": "https://www.zellinger.at/"
          },
          "geometry": {
            "type": "Point",
            "coordinates": [
              14.441357,
              48.057952
            ]
          }
        },
        {
          "type": "Feature",
          "properties": {
            "id": "8094967623",
            "osm_type": "node",
            "lat": 48.0560593,
            "lon": 14.4201762,
            "name": "Greisinger",
            "shop": "butcher"
          },
          "geometry": {
            "type": "Point",
            "coordinates": [
              14.4201762,
              48.0560593
            ]
          }
        },
        {
          "type": "Feature",
          "properties": {
            "id": "9450015588",
            "osm_type": "node",
            "lat": 48.2401995,
            "lon": 14.5281985,
            "name": "Fleischerei Wegschaider",
            "shop": "butcher"
          },
          "geometry": {
            "type": "Point",
            "coordinates": [
              14.5281985,
              48.2401995
            ]
          }
        },
        {
          "type": "Feature",
          "properties": {
            "id": "9641354949",
            "osm_type": "node",
            "lat": 48.3123144,
            "lon": 14.3043171,
            "addr:city": "Linz",
            "addr:housenumber": "59",
            "addr:postcode": "4020",
            "addr:street": "Lederergasse",
            "name": "Landhof Fabriksverkauf",
            "shop": "butcher"
          },
          "geometry": {
            "type": "Point",
            "coordinates": [
              14.3043171,
              48.3123144
            ]
          }
        },
        {
          "type": "Feature",
          "properties": {
            "id": "11904549071",
            "osm_type": "node",
            "lat": 48.3014093,
            "lon": 14.3004831,
            "addr:city": "Linz",
            "addr:postcode": "4020",
            "addr:street": "Marktplatz",
            "image": "https://srm.intermaps.com/admin/imgupload/2023_05_22_13_25_26_343_0.jpg",
            "name": "Junglammhof Fam. Pühringer",
            "operator": "Familie Pühringer",
            "shop": "butcher",
            "source": "https://www.suedbahnhofmarkt.com",
            "website": "https://www.junglammhof.at/"
          },
          "geometry": {
            "type": "Point",
            "coordinates": [
              14.3004831,
              48.3014093
            ]
          }
        },
        {
          "type": "Feature",
          "properties": {
            "id": "11904549074",
            "osm_type": "node",
            "lat": 48.3001575,
            "lon": 14.3011709,
            "addr:city": "Linz",
            "addr:postcode": "4020",
            "addr:street": "Marktplatz",
            "image": "https://srm.intermaps.com/admin/imgupload/2023_05_22_16_00_58_280_0.jpg",
            "name": "Bauernladen Forstinger",
            "shop": "butcher",
            "source": "https://www.suedbahnhofmarkt.com"
          },
          "geometry": {
            "type": "Point",
            "coordinates": [
              14.3011709,
              48.3001575
            ]
          }
        },
        {
          "type": "Feature",
          "properties": {
            "id": "292871736",
            "osm_type": "node",
            "lat": 48.0275497,
            "lon": 14.7690401,
            "addr:city": "Kematen an der Ybbs",
            "addr:country": "AT",
            "addr:postcode": "3331",
            "contact:phone": "+43 7448 2320",
            "name": "Fleischerei Steinmetz",
            "opening_hours": "Mo-Th 06:00-12:30, 14:30-18:00; Fr 06:00-18:00",
            "shop": "butcher"
          },
          "geometry": {
            "type": "Point",
            "coordinates": [
              14.7690401,
              48.0275497
            ]
          }
        },
        {
          "type": "Feature",
          "properties": {
            "id": "760180981",
            "osm_type": "node",
            "lat": 48.1854096,
            "lon": 14.7096878,
            "name": "Fleischerei Haberl",
            "shop": "butcher"
          },
          "geometry": {
            "type": "Point",
            "coordinates": [
              14.7096878,
              48.1854096
            ]
          }
        },
        {
          "type": "Feature",
          "properties": {
            "id": "1731375920",
            "osm_type": "node",
            "lat": 48.1229406,
            "lon": 14.8705504,
            "contact:email": "office@ellegast.at",
            "contact:fax": "+43 7472 62731-9",
            "contact:phone": "+43 7472 62731",
            "contact:website": "https://www.ellegast.at",
            "name": "Ellegast",
            "opening_hours": "Mo,Tu,Th 07:00-12:30,14:30-18:00; We 07:00-12:30; Fr 07:00-18:00; Sa 07:00-12:00; Su,PH off",
            "shop": "butcher",
            "wheelchair": "limited"
          },
          "geometry": {
            "type": "Point",
            "coordinates": [
              14.8705504,
              48.1229406
            ]
          }
        },
        {
          "type": "Feature",
          "properties": {
            "id": "2004578998",
            "osm_type": "node",
            "lat": 48.2840163,
            "lon": 14.6825921,
            "addr:city": "Windhaag",
            "addr:country": "AT",
            "addr:housenumber": "12",
            "addr:postcode": "4322",
            "addr:street": "Eva-Magdalena-Straße",
            "contact:email": "hermannamstler@aon.at",
            "contact:phone": "+43 7264 4227",
            "contact:website": "http://www.amstler.at/",
            "name": "Amstler - Pikant für seine Wurst",
            "opening_hours": "Mo 7:00-12:00; Tu-Fr 7:00-12:00, 15:00-18:00; Sa 7:00-12:00",
            "shop": "butcher",
            "wheelchair": "no"
          },
          "geometry": {
            "type": "Point",
            "coordinates": [
              14.6825921,
              48.2840163
            ]
          }
        },
        {
          "type": "Feature",
          "properties": {
            "id": "2134136698",
            "osm_type": "node",
            "lat": 48.2494205,
            "lon": 14.6365681,
            "addr:city": "Perg",
            "addr:country": "AT",
            "addr:housenumber": "13",
            "addr:postcode": "4320",
            "addr:street": "Herrenstraße",
            "contact:phone": "+43 7262 523 19",
            "contact:website": "http://www.amstler-perg.at/",
            "name": "Fleischerei Rudolf Amstler",
            "opening_hours": "Mo-Fr 06:30-12:15, 14:15-18:00; Sa 07:00-12:00",
            "shop": "butcher",
            "wheelchair": "limited"
          },
          "geometry": {
            "type": "Point",
            "coordinates": [
              14.6365681,
              48.2494205
            ]
          }
        },
        {
          "type": "Feature",
          "properties": {
            "id": "2389999896",
            "osm_type": "node",
            "lat": 48.2073481,
            "lon": 14.7895571,
            "addr:city": "Saxen",
            "addr:country": "AT",
            "addr:housenumber": "10",
            "addr:place": "Saxen",
            "addr:postcode": "4351",
            "at_bev:addr_date": "2022-10-01",
            "name": "Fleischauerei Böhm",
            "shop": "butcher"
          },
          "geometry": {
            "type": "Point",
            "coordinates": [
              14.7895571,
              48.2073481
            ]
          }
        },
        {
          "type": "Feature",
          "properties": {
            "id": "4226568948",
            "osm_type": "node",
            "lat": 48.2282181,
            "lon": 14.7042482,
            "name": "Frankys Fleisch und Wurstwaren",
            "shop": "butcher"
          },
          "geometry": {
            "type": "Point",
            "coordinates": [
              14.7042482,
              48.2282181
            ]
          }
        },
        {
          "type": "Feature",
          "properties": {
            "id": "4228871764",
            "osm_type": "node",
            "lat": 48.2733289,
            "lon": 14.7162852,
            "addr:housenumber": "10",
            "addr:postcode": "4323",
            "addr:street": "Klamer Straße",
            "name": "GREISINGER Fleisch-, Wurst- und Selchwarenerzeugung GmbH",
            "shop": "butcher",
            "website": "https://www.greisinger.com/"
          },
          "geometry": {
            "type": "Point",
            "coordinates": [
              14.7162852,
              48.2733289
            ]
          }
        },
        {
          "type": "Feature",
          "properties": {
            "id": "4330849886",
            "osm_type": "node",
            "lat": 48.3547002,
            "lon": 14.5320201,
            "addr:city": "Pregarten",
            "addr:housenumber": "7",
            "addr:postcode": "4230",
            "addr:street": "Tragweiner Straße",
            "name": "Fleischerei Fürst",
            "shop": "butcher",
            "wheelchair": "limited"
          },
          "geometry": {
            "type": "Point",
            "coordinates": [
              14.5320201,
              48.3547002
            ]
          }
        },
        {
          "type": "Feature",
          "properties": {
            "id": "4921775935",
            "osm_type": "node",
            "lat": 48.1236565,
            "lon": 14.8699915,
            "contact:email": "office@fleischerei-huerner.at",
            "contact:fax": "+43 7472 6267516",
            "contact:phone": "+43 7472 62675-17",
            "contact:website": "https://www.fleischerei-huerner.at/",
            "name": "Hürner (Abholmarkt)",
            "opening_hours": "Mo,Th 07:00-12:00,13:00-16:00; Tu-We 07:00-12:00; Sa-Su,PH off",
            "operator": "Karl Hürner GmbH",
            "shop": "butcher"
          },
          "geometry": {
            "type": "Point",
            "coordinates": [
              14.8699915,
              48.1236565
            ]
          }
        },
        {
          "type": "Feature",
          "properties": {
            "id": "5860585981",
            "osm_type": "node",
            "lat": 48.0363868,
            "lon": 14.653436,
            "addr:city": "Seitenstetten",
            "addr:country": "AT",
            "addr:housenumber": "6",
            "addr:postcode": "3353",
            "addr:street": "Marktplatz",
            "contact:phone": "+43 7477 425 60",
            "name": "Fleischerei Ellegast",
            "opening_hours": "Mo, Tu, Th, Fr 07:00-18:00; We, Sa 07:00-12:15",
            "shop": "butcher",
            "website": "https://www.ellegast.at/pages/filialen.php"
          },
          "geometry": {
            "type": "Point",
            "coordinates": [
              14.653436,
              48.0363868
            ]
          }
        },
        {
          "type": "Feature",
          "properties": {
            "id": "6723213538",
            "osm_type": "node",
            "lat": 48.2504478,
            "lon": 14.6331628,
            "contact:phone": "+43 7262 57829",
            "contact:website": "https://www.fleischerei-pilshofer.at/",
            "name": "Fleischerei Pilshofer",
            "opening_hours": "Mo,Tu,Th,Fr 07:30-12:30,14:30-18:00; We 07:30-12:30; Sa 07:30-12:00; PH off",
            "operator": "Leopold Pilshofer",
            "shop": "butcher"
          },
          "geometry": {
            "type": "Point",
            "coordinates": [
              14.6331628,
              48.2504478
            ]
          }
        },
        {
          "type": "Feature",
          "properties": {
            "id": "7884032540",
            "osm_type": "node",
            "lat": 48.1190693,
            "lon": 14.897567,
            "contact:phone": "+43 7472 62186",
            "name": "Schatz Feinkost & Gastro GmbH",
            "opening_hours": "Tu-We 06:30-14:00; Th-Fr 06:30-21:00; Sa 07:30-21:00",
            "opening_hours:kitchen": "Tu 10:00-14:00; We 10:00-14:00, 17:00-24:00; Th 10:00-14:00, 18:00-24:00; Sa, Su 08:00-14:00, 18:00-24:00",
            "shop": "butcher",
            "website": "https://das-schatz.at/"
          },
          "geometry": {
            "type": "Point",
            "coordinates": [
              14.897567,
              48.1190693
            ]
          }
        },
        {
          "type": "Feature",
          "properties": {
            "id": "8291540790",
            "osm_type": "node",
            "lat": 48.2372939,
            "lon": 14.6253701,
            "addr:city": "Perg",
            "addr:country": "AT",
            "addr:housenumber": "83",
            "addr:postcode": "4320",
            "addr:street": "Naarner Straße",
            "contact:email": "abholmarkt.perg@greisinger.com",
            "contact:phone": "+43726220515",
            "contact:website": "https://www.greisinger.com",
            "name": "Greisinger Perg",
            "opening_hours": "Mo-Fr 08:00-18:30; Sa 08:00-17:00",
            "shop": "butcher",
            "wheelchair": "yes"
          },
          "geometry": {
            "type": "Point",
            "coordinates": [
              14.6253701,
              48.2372939
            ]
          }
        },
        {
          "type": "Feature",
          "properties": {
            "id": "13063083214",
            "osm_type": "node",
            "lat": 48.1285849,
            "lon": 14.987846,
            "email": "office@fleischereiweiss.at",
            "fax": "07473/2366",
            "name": "Fleischerei Weiß",
            "opening_hours": "Mo-Fr 07:00-12:00,15:00-18:00; Th,Sa 07:00-12:00",
            "phone": "07473/2366",
            "shop": "butcher",
            "website": "http://www.fleischereiweiss.at",
            "wheelchair": "yes"
          },
          "geometry": {
            "type": "Point",
            "coordinates": [
              14.987846,
              48.1285849
            ]
          }
        },
        {
          "type": "Feature",
          "properties": {
            "id": "3792648405",
            "osm_type": "node",
            "lat": 48.1773393,
            "lon": 15.0827243,
            "addr:city": "Ybbs an der Donau",
            "addr:country": "AT",
            "addr:housenumber": "4",
            "addr:postcode": "3370",
            "addr:street": "Schulring",
            "at_bev:addr_date": "2020-04-01",
            "name": "Buchmayer",
            "opening_hours": "Mo-Fr 05:30-18:00; Sa 05:30-12:00",
            "phone": "+43 664 5056885",
            "shop": "butcher",
            "website": "https://partyservice-buchmayer.at/",
            "wheelchair": "yes"
          },
          "geometry": {
            "type": "Point",
            "coordinates": [
              15.0827243,
              48.1773393
            ]
          }
        },
        {
          "type": "Feature",
          "properties": {
            "id": "4736827629",
            "osm_type": "node",
            "lat": 48.1836722,
            "lon": 15.1848417,
            "addr:city": "Erlauf",
            "addr:country": "AT",
            "addr:housenumber": "2",
            "addr:postcode": "3253",
            "addr:street": "Marktplatz",
            "name": "Kohl & Babinger",
            "official_name": "Kohl & Babinger Gesellschaft m.b.H.",
            "operator": "Johann Babinger",
            "phone": "+43 2757 6204",
            "shop": "butcher",
            "website": "http://www.kohl-babinger.at/"
          },
          "geometry": {
            "type": "Point",
            "coordinates": [
              15.1848417,
              48.1836722
            ]
          }
        },
        {
          "type": "Feature",
          "properties": {
            "id": "5343988249",
            "osm_type": "node",
            "lat": 48.1283571,
            "lon": 15.1383213,
            "description": "mit Mittagstisch",
            "name": "Moser Culto",
            "opening_hours": "Mo-Th 07:30-14:30; Fr 07:30-18:00; Sa 07:30-12:30",
            "payment:Wieselburger_10er": "yes",
            "shop": "butcher",
            "website": "https://www.moserwurst.at/"
          },
          "geometry": {
            "type": "Point",
            "coordinates": [
              15.1383213,
              48.1283571
            ]
          }
        }
      ],
      "children": []
    }
  ]
}